{"100":{"oid":"100","type":"object","flag":"","creator":"4","name":"Squeaky Clean Object","upc":"","imagelink":"","description":"Very clean.","slug":"squeaky-clean-object","category":"","weight":"110","emissions":"59.5168","embodied":"0","transport":"0","process":"0","endoflife":"0","shipping":"17261.1","lifetime":"0","usagetype":"","usageenergy":"0","usageemissions":"0","timecreated":"2010-02-24 22:03:35.404142","timemodified":"2009-02-02 10:16:05","visibility":"public","showfootprint":"on","showembodied":"on","showtransport":"on","showprocess":"on","showendoflife":"on","showlastleg":"on","showuse":"on","showstats":"on","stops":{"origin":{"related_to":"100","part_or_object":"o","notes":"","placename":"Australia","id":"13","category":"1","lat":"-25.274398","lon":"133.775136","name":"origin","hops":{"incoming":[{"transport_id":"2","id":"194","transport_name":"truck, 16 tons","transport_description":"truck, half full","transport_unit":"kg km","transport_co2_eq":"0.020300","from_stop_id":"2346","from_stop_lat":"36.204824","from_stop_lon":"138.252924","to_stop_id":"13","to_stop_name":"origin","to_stop_lat":"-25.274398","placename":"Japan","to_stop_lon":"133.775136","to_stop":{"id":"13","name":"origin","lat":"-25.274398","placename":"Australia","lon":"133.775136"},"from_stop":{"name":"origin","id":"2346","lat":"36.204824","lon":"138.252924","placename":"Japan"}},{"transport_id":"2","id":"195","transport_name":"truck, 16 tons","transport_description":"truck, half full","transport_unit":"kg km","transport_co2_eq":"0.020300","from_stop_id":"2347","from_stop_lat":"-30.559482","from_stop_lon":"22.937506","to_stop_id":"13","to_stop_name":"origin","to_stop_lat":"-25.274398","placename":"South Africa","to_stop_lon":"133.775136","to_stop":{"id":"13","name":"origin","lat":"-25.274398","placename":"Australia","lon":"133.775136"},"from_stop":{"name":"origin","id":"2347","lat":"-30.559482","lon":"22.937506","placename":"South Africa"}}],"outgoing":[]}}},"parts":[{"oid":"100","imid":"211","linkid":"","weight":"10","rawemissions":"0.001","emissions":"0.01","shipping":"6859.99","processemissions":null,"endoflifeemissions":null,"disposaltype":null,"disposalenergy":null,"disposalimpact":null,"disposalemissions":null,"description":"kiln dried and laminated","name":"bamboo flooring","id":"211","stops":{"origin":{"related_to":"211","part_or_object":"p","notes":"","placename":"Japan","id":2346,"name":"origin","lat":"36.204824","lon":"138.252924","hops":{"incoming":[],"outgoing":[{"transport_id":"2","id":"194","transport_name":"truck, 16 tons","transport_description":"truck, half full","transport_unit":"kg km","transport_co2_eq":"0.020300","from_stop_id":"2346","from_stop_lat":"36.204824","from_stop_lon":"138.252924","from_stop_placename":"Japan","to_stop_id":"13","to_stop_name":"origin","to_stop_lat":"-25.274398","to_stop_lon":"133.775136","to_stop_placename":"Australia","to_stop":{"id":"13","name":"origin","lat":"-25.274398","lon":"133.775136","placename":"Australia"},"from_stop":{"name":"origin","id":"2346","lat":"36.204824","lon":"138.252924","placename":"Japan"}}]}}},"processes":[],"eols":[]},{"oid":"100","imid":"212","linkid":"","weight":"100","rawemissions":"0.37","emissions":"37","shipping":"10401.1","processemissions":null,"endoflifeemissions":null,"disposaltype":null,"disposalenergy":null,"disposalimpact":null,"disposalemissions":null,"description":"chemical intensive cultivation","name":"corn starch","id":"212","stops":{"origin":{"related_to":"212","part_or_object":"p","notes":"","placename":"South Africa","id":2347,"name":"origin","lat":"-30.559482","lon":"22.937506","hops":{"incoming":[],"outgoing":[{"transport_id":"2","id":"195","transport_name":"truck, 16 tons","transport_description":"truck, half full","transport_unit":"kg km","transport_co2_eq":"0.020300","from_stop_id":"2347","from_stop_lat":"-30.559482","from_stop_lon":"22.937506","from_stop_placename":"South Africa","to_stop_id":"13","to_stop_name":"origin","to_stop_lat":"-25.274398","to_stop_lon":"133.775136","to_stop_placename":"Australia","to_stop":{"id":"13","name":"origin","lat":"-25.274398","lon":"133.775136","placename":"Australia"},"from_stop":{"name":"origin","id":"2347","lat":"-30.559482","lon":"22.937506","placename":"South Africa"}}]}}},"processes":[],"eols":[]}],"user":{"name":"hock","id":"4"}}}