{"1013":{"oid":"1013","type":"object","flag":"","creator":"6565","name":"Arepa. Harina PAN. Corn Flour","upc":"","imagelink":"","description":"It?s  a Venezuelan food made it from corn, it?s typical of venezuelan people, that means, that means, that the product it?s consumed at least,  twice a day.  It?s made it by processed corn, and finally you consume a corn flour, could be interesting to calculate the environment cost.","slug":"arepa--harina-pan--corn-flour","category":"","weight":"16001","emissions":"49.2023","embodied":"6.078","transport":"43.1243","process":"0","endoflife":"0","shipping":"1749.09","lifetime":"0","usagetype":"Hydroelectric","usageenergy":"5","usageemissions":"0.05","timecreated":"2010-02-24 22:03:35.659729","timemodified":"2009-10-13 16:57:16","visibility":"public","showfootprint":"on","showembodied":"on","showtransport":"on","showprocess":"on","showendoflife":"on","showlastleg":"on","showuse":"on","showstats":"on","stops":{"origin":{"related_to":"1013","part_or_object":"o","notes":"","placename":"Caracas, Venezuela","id":"176","category":"1","lat":"10.49605","lon":"-66.898277","name":"origin","hops":{"incoming":[{"transport_id":"2","id":"954","transport_name":"truck, 16 tons","transport_description":"truck, half full","transport_unit":"kg km","transport_co2_eq":"0.020300","from_stop_id":"3206","from_stop_lat":"10.1176433","from_stop_lon":"-68.0477509","to_stop_id":"176","to_stop_name":"origin","to_stop_lat":"10.49605","placename":"Carabobo, Venezuela","to_stop_lon":"-66.898277","to_stop":{"id":"176","name":"origin","lat":"10.49605","placename":"Caracas, Venezuela","lon":"-66.898277"},"from_stop":{"name":"origin","id":"3206","lat":"10.1176433","lon":"-68.0477509","placename":"Carabobo, Venezuela"}},{"transport_id":"17","id":"948","transport_name":"None Selected","transport_description":null,"transport_unit":"kg km","transport_co2_eq":"0.000000","from_stop_id":"3200","from_stop_lat":"9.8689372","from_stop_lon":"-66.9034936","to_stop_id":"176","to_stop_name":"origin","to_stop_lat":"10.49605","placename":"Aragua, Venezuela","to_stop_lon":"-66.898277","to_stop":{"id":"176","name":"origin","lat":"10.49605","placename":"Caracas, Venezuela","lon":"-66.898277"},"from_stop":{"name":"origin","id":"3200","lat":"9.8689372","lon":"-66.9034936","placename":"Aragua, Venezuela"}},{"transport_id":"17","id":"949","transport_name":"None Selected","transport_description":null,"transport_unit":"kg km","transport_co2_eq":"0.000000","from_stop_id":"3201","from_stop_lat":"9.967492","from_stop_lon":"-72.5204827","to_stop_id":"176","to_stop_name":"origin","to_stop_lat":"10.49605","placename":"Zulia, Venezuela","to_stop_lon":"-66.898277","to_stop":{"id":"176","name":"origin","lat":"10.49605","placename":"Caracas, Venezuela","lon":"-66.898277"},"from_stop":{"name":"origin","id":"3201","lat":"9.967492","lon":"-72.5204827","placename":"Zulia, Venezuela"}},{"transport_id":"17","id":"950","transport_name":"None Selected","transport_description":null,"transport_unit":"kg km","transport_co2_eq":"0.000000","from_stop_id":"3202","from_stop_lat":"9.8689372","from_stop_lon":"-66.9034936","to_stop_id":"176","to_stop_name":"origin","to_stop_lat":"10.49605","placename":"Aragua, Venezuela","to_stop_lon":"-66.898277","to_stop":{"id":"176","name":"origin","lat":"10.49605","placename":"Caracas, Venezuela","lon":"-66.898277"},"from_stop":{"name":"origin","id":"3202","lat":"9.8689372","lon":"-66.9034936","placename":"Aragua, Venezuela"}},{"transport_id":"17","id":"951","transport_name":"None Selected","transport_description":null,"transport_unit":"kg km","transport_co2_eq":"0.000000","from_stop_id":"3203","from_stop_lat":"10.1176433","from_stop_lon":"-68.0477509","to_stop_id":"176","to_stop_name":"origin","to_stop_lat":"10.49605","placename":"Carabobo, Venezuela","to_stop_lon":"-66.898277","to_stop":{"id":"176","name":"origin","lat":"10.49605","placename":"Caracas, Venezuela","lon":"-66.898277"},"from_stop":{"name":"origin","id":"3203","lat":"10.1176433","lon":"-68.0477509","placename":"Carabobo, Venezuela"}},{"transport_id":"17","id":"952","transport_name":"None Selected","transport_description":null,"transport_unit":"kg km","transport_co2_eq":"0.000000","from_stop_id":"3204","from_stop_lat":"10.1176433","from_stop_lon":"-68.0477509","to_stop_id":"176","to_stop_name":"origin","to_stop_lat":"10.49605","placename":"Carabobo, Venezuela","to_stop_lon":"-66.898277","to_stop":{"id":"176","name":"origin","lat":"10.49605","placename":"Caracas, Venezuela","lon":"-66.898277"},"from_stop":{"name":"origin","id":"3204","lat":"10.1176433","lon":"-68.0477509","placename":"Carabobo, Venezuela"}},{"transport_id":"17","id":"953","transport_name":"None Selected","transport_description":null,"transport_unit":"kg km","transport_co2_eq":"0.000000","from_stop_id":"3205","from_stop_lat":"10.1176433","from_stop_lon":"-68.0477509","to_stop_id":"176","to_stop_name":"origin","to_stop_lat":"10.49605","placename":"Carabobo, Venezuela","to_stop_lon":"-66.898277","to_stop":{"id":"176","name":"origin","lat":"10.49605","placename":"Caracas, Venezuela","lon":"-66.898277"},"from_stop":{"name":"origin","id":"3205","lat":"10.1176433","lon":"-68.0477509","placename":"Carabobo, Venezuela"}}],"outgoing":[]}}},"parts":[{"oid":"1013","imid":"1143","linkid":"","weight":"0","rawemissions":"1.1","emissions":"1.1","shipping":"385.07","processemissions":null,"endoflifeemissions":null,"disposaltype":null,"disposalenergy":null,"disposalimpact":null,"disposalemissions":null,"description":"","name":"corn","id":"1143","stops":{"origin":{"related_to":"1143","part_or_object":"p","notes":"","placename":"Aragua, Venezuela","id":3200,"name":"origin","lat":"9.8689372","lon":"-66.9034936","hops":{"incoming":[],"outgoing":[{"transport_id":"17","id":"948","transport_name":"None Selected","transport_description":null,"transport_unit":"kg km","transport_co2_eq":"0.000000","from_stop_id":"3200","from_stop_lat":"9.8689372","from_stop_lon":"-66.9034936","from_stop_placename":"Aragua, Venezuela","to_stop_id":"176","to_stop_name":"origin","to_stop_lat":"10.49605","to_stop_lon":"-66.898277","to_stop_placename":"Caracas, Venezuela","to_stop":{"id":"176","name":"origin","lat":"10.49605","lon":"-66.898277","placename":"Caracas, Venezuela"},"from_stop":{"name":"origin","id":"3200","lat":"9.8689372","lon":"-66.9034936","placename":"Aragua, Venezuela"}}]}}},"processes":[],"eols":[]},{"oid":"1013","imid":"1144","linkid":"","weight":"0","rawemissions":"2.808","emissions":"2.808","shipping":"763.21","processemissions":null,"endoflifeemissions":null,"disposaltype":null,"disposalenergy":null,"disposalimpact":null,"disposalemissions":null,"description":"For combustion in industrial boiler","name":"Fuel oil","id":"1144","stops":{"origin":{"related_to":"1144","part_or_object":"p","notes":"","placename":"Zulia, Venezuela","id":3201,"name":"origin","lat":"9.967492","lon":"-72.5204827","hops":{"incoming":[],"outgoing":[{"transport_id":"17","id":"949","transport_name":"None Selected","transport_description":null,"transport_unit":"kg km","transport_co2_eq":"0.000000","from_stop_id":"3201","from_stop_lat":"9.967492","from_stop_lon":"-72.5204827","from_stop_placename":"Zulia, Venezuela","to_stop_id":"176","to_stop_name":"origin","to_stop_lat":"10.49605","to_stop_lon":"-66.898277","to_stop_placename":"Caracas, Venezuela","to_stop":{"id":"176","name":"origin","lat":"10.49605","lon":"-66.898277","placename":"Caracas, Venezuela"},"from_stop":{"name":"origin","id":"3201","lat":"9.967492","lon":"-72.5204827","placename":"Zulia, Venezuela"}}]}}},"processes":[],"eols":[]},{"oid":"1013","imid":"1145","linkid":"","weight":"0","rawemissions":"0.37","emissions":"0.37","shipping":"69.81","processemissions":null,"endoflifeemissions":null,"disposaltype":null,"disposalenergy":null,"disposalimpact":null,"disposalemissions":null,"description":"chemical intensive cultivation","name":"Corn starch","id":"1145","stops":{"origin":{"related_to":"1145","part_or_object":"p","notes":"","placename":"Aragua, Venezuela","id":3202,"name":"origin","lat":"9.8689372","lon":"-66.9034936","hops":{"incoming":[],"outgoing":[{"transport_id":"17","id":"950","transport_name":"None Selected","transport_description":null,"transport_unit":"kg km","transport_co2_eq":"0.000000","from_stop_id":"3202","from_stop_lat":"9.8689372","from_stop_lon":"-66.9034936","from_stop_placename":"Aragua, Venezuela","to_stop_id":"176","to_stop_name":"origin","to_stop_lat":"10.49605","to_stop_lon":"-66.898277","to_stop_placename":"Caracas, Venezuela","to_stop":{"id":"176","name":"origin","lat":"10.49605","lon":"-66.898277","placename":"Caracas, Venezuela"},"from_stop":{"name":"origin","id":"3202","lat":"9.8689372","lon":"-66.9034936","placename":"Aragua, Venezuela"}}]}}},"processes":[],"eols":[]},{"oid":"1013","imid":"1146","linkid":"","weight":"0","rawemissions":"0.48","emissions":"0.48","shipping":"132.75","processemissions":null,"endoflifeemissions":null,"disposaltype":null,"disposalenergy":null,"disposalimpact":null,"disposalemissions":null,"description":"Virgin bleached white paper","name":"Paper white primary","id":"1146","stops":{"origin":{"related_to":"1146","part_or_object":"p","notes":"","placename":"Carabobo, Venezuela","id":3203,"name":"origin","lat":"10.1176433","lon":"-68.0477509","hops":{"incoming":[],"outgoing":[{"transport_id":"17","id":"951","transport_name":"None Selected","transport_description":null,"transport_unit":"kg km","transport_co2_eq":"0.000000","from_stop_id":"3203","from_stop_lat":"10.1176433","from_stop_lon":"-68.0477509","from_stop_placename":"Carabobo, Venezuela","to_stop_id":"176","to_stop_name":"origin","to_stop_lat":"10.49605","to_stop_lon":"-66.898277","to_stop_placename":"Caracas, Venezuela","to_stop":{"id":"176","name":"origin","lat":"10.49605","lon":"-66.898277","placename":"Caracas, Venezuela"},"from_stop":{"name":"origin","id":"3203","lat":"10.1176433","lon":"-68.0477509","placename":"Carabobo, Venezuela"}}]}}},"processes":[],"eols":[]},{"oid":"1013","imid":"1147","linkid":"","weight":"0","rawemissions":"1.1","emissions":"1.1","shipping":"132.75","processemissions":null,"endoflifeemissions":null,"disposaltype":null,"disposalenergy":null,"disposalimpact":null,"disposalemissions":null,"description":"60 percent water","name":"Paint waterbase","id":"1147","stops":{"origin":{"related_to":"1147","part_or_object":"p","notes":"","placename":"Carabobo, Venezuela","id":3204,"name":"origin","lat":"10.1176433","lon":"-68.0477509","hops":{"incoming":[],"outgoing":[{"transport_id":"17","id":"952","transport_name":"None Selected","transport_description":null,"transport_unit":"kg km","transport_co2_eq":"0.000000","from_stop_id":"3204","from_stop_lat":"10.1176433","from_stop_lon":"-68.0477509","from_stop_placename":"Carabobo, Venezuela","to_stop_id":"176","to_stop_name":"origin","to_stop_lat":"10.49605","to_stop_lon":"-66.898277","to_stop_placename":"Caracas, Venezuela","to_stop":{"id":"176","name":"origin","lat":"10.49605","lon":"-66.898277","placename":"Caracas, Venezuela"},"from_stop":{"name":"origin","id":"3204","lat":"10.1176433","lon":"-68.0477509","placename":"Carabobo, Venezuela"}}]}}},"processes":[],"eols":[]},{"oid":"1013","imid":"1148","linkid":"","weight":"1","rawemissions":"0.22","emissions":"0.22","shipping":"132.75","processemissions":null,"endoflifeemissions":null,"disposaltype":null,"disposalenergy":null,"disposalimpact":null,"disposalemissions":null,"description":"Flexographic printing on paper","name":"Printing flexographic","id":"1148","stops":{"origin":{"related_to":"1148","part_or_object":"p","notes":"","placename":"Carabobo, Venezuela","id":3205,"name":"origin","lat":"10.1176433","lon":"-68.0477509","hops":{"incoming":[],"outgoing":[{"transport_id":"17","id":"953","transport_name":"None Selected","transport_description":null,"transport_unit":"kg km","transport_co2_eq":"0.000000","from_stop_id":"3205","from_stop_lat":"10.1176433","from_stop_lon":"-68.0477509","from_stop_placename":"Carabobo, Venezuela","to_stop_id":"176","to_stop_name":"origin","to_stop_lat":"10.49605","to_stop_lon":"-66.898277","to_stop_placename":"Caracas, Venezuela","to_stop":{"id":"176","name":"origin","lat":"10.49605","lon":"-66.898277","placename":"Caracas, Venezuela"},"from_stop":{"name":"origin","id":"3205","lat":"10.1176433","lon":"-68.0477509","placename":"Carabobo, Venezuela"}}]}}},"processes":[],"eols":[]},{"oid":"1013","imid":"1149","linkid":"","weight":"16000","rawemissions":"0","emissions":"0","shipping":"132.75","processemissions":null,"endoflifeemissions":null,"disposaltype":null,"disposalenergy":null,"disposalimpact":null,"disposalemissions":null,"description":"","name":"Transport Cost","id":"1149","stops":{"origin":{"related_to":"1149","part_or_object":"p","notes":"","placename":"Carabobo, Venezuela","id":3206,"name":"origin","lat":"10.1176433","lon":"-68.0477509","hops":{"incoming":[],"outgoing":[{"transport_id":"2","id":"954","transport_name":"truck, 16 tons","transport_description":"truck, half full","transport_unit":"kg km","transport_co2_eq":"0.020300","from_stop_id":"3206","from_stop_lat":"10.1176433","from_stop_lon":"-68.0477509","from_stop_placename":"Carabobo, Venezuela","to_stop_id":"176","to_stop_name":"origin","to_stop_lat":"10.49605","to_stop_lon":"-66.898277","to_stop_placename":"Caracas, Venezuela","to_stop":{"id":"176","name":"origin","lat":"10.49605","lon":"-66.898277","placename":"Caracas, Venezuela"},"from_stop":{"name":"origin","id":"3206","lat":"10.1176433","lon":"-68.0477509","placename":"Carabobo, Venezuela"}}]}}},"processes":[],"eols":[]}],"user":{"name":"helenahv","id":"6565"}}}