{"102":{"oid":"102","type":"object","flag":"","creator":"1","name":"Thinkpad T60p","upc":"","imagelink":"","description":"","slug":"thinkpad-t60p","category":"","weight":"3.61","emissions":"7.8358","embodied":"6.41","transport":"1.4258","process":"0","endoflife":"0","shipping":"90675.5","lifetime":"0","usagetype":"","usageenergy":"0","usageemissions":"0","timecreated":"2010-02-24 22:03:35.405664","timemodified":"2009-04-23 05:33:22","visibility":"public","showfootprint":"on","showembodied":"on","showtransport":"on","showprocess":"on","showendoflife":"on","showlastleg":"on","showuse":"on","showstats":"on","stops":{"origin":{"related_to":"102","part_or_object":"o","notes":"","placename":"Singapore","id":"14","category":"1","lat":"1.352083","lon":"103.819836","name":"origin","hops":{"incoming":[{"transport_id":"1","id":"196","transport_name":"van, 3.5 tons","transport_description":"delivery van, half full","transport_unit":"kg km","transport_co2_eq":"0.053400","from_stop_id":"2348","from_stop_lat":"22.396428","from_stop_lon":"114.109497","to_stop_id":"14","to_stop_name":"origin","to_stop_lat":"1.352083","placename":"Hong Kong","to_stop_lon":"103.819836","to_stop":{"id":"14","name":"origin","lat":"1.352083","placename":"Singapore","lon":"103.819836"},"from_stop":{"name":"origin","id":"2348","lat":"22.396428","lon":"114.109497","placename":"Hong Kong"}},{"transport_id":"1","id":"197","transport_name":"van, 3.5 tons","transport_description":"delivery van, half full","transport_unit":"kg km","transport_co2_eq":"0.053400","from_stop_id":"2349","from_stop_lat":"36.204824","from_stop_lon":"138.252924","to_stop_id":"14","to_stop_name":"origin","to_stop_lat":"1.352083","placename":"Japan","to_stop_lon":"103.819836","to_stop":{"id":"14","name":"origin","lat":"1.352083","placename":"Singapore","lon":"103.819836"},"from_stop":{"name":"origin","id":"2349","lat":"36.204824","lon":"138.252924","placename":"Japan"}},{"transport_id":"1","id":"198","transport_name":"van, 3.5 tons","transport_description":"delivery van, half full","transport_unit":"kg km","transport_co2_eq":"0.053400","from_stop_id":"2350","from_stop_lat":"-22.31514","from_stop_lon":"-68.929031","to_stop_id":"14","to_stop_name":"origin","to_stop_lat":"1.352083","placename":"Chuquicamata, Chile","to_stop_lon":"103.819836","to_stop":{"id":"14","name":"origin","lat":"1.352083","placename":"Singapore","lon":"103.819836"},"from_stop":{"name":"origin","id":"2350","lat":"-22.31514","lon":"-68.929031","placename":"Chuquicamata, Chile"}},{"transport_id":"9","id":"207","transport_name":"container ship","transport_description":"moving boxcar size containers","transport_unit":"kg km","transport_co2_eq":"0.047800","from_stop_id":"2377","from_stop_lat":"35.907757","from_stop_lon":"127.766922","to_stop_id":"14","to_stop_name":"origin","to_stop_lat":"1.352083","placename":"Korea","to_stop_lon":"103.819836","to_stop":{"id":"14","name":"origin","lat":"1.352083","placename":"Singapore","lon":"103.819836"},"from_stop":{"name":"origin","id":"2377","lat":"35.907757","lon":"127.766922","placename":"Korea"}},{"transport_id":"15","id":"208","transport_name":"air, freight, regional","transport_description":"freight within one continent","transport_unit":"kg km","transport_co2_eq":"0.787500","from_stop_id":"2378","from_stop_lat":"34.2648777","from_stop_lon":"108.9442599","to_stop_id":"14","to_stop_name":"origin","to_stop_lat":"1.352083","placename":"Xian","to_stop_lon":"103.819836","to_stop":{"id":"14","name":"origin","lat":"1.352083","placename":"Singapore","lon":"103.819836"},"from_stop":{"name":"origin","id":"2378","lat":"34.2648777","lon":"108.9442599","placename":"Xian"}},{"transport_id":"8","id":"209","transport_name":"freighter, oceanic","transport_description":"","transport_unit":"kg km","transport_co2_eq":"0.004200","from_stop_id":"2385","from_stop_lat":"56.130366","from_stop_lon":"-106.346771","to_stop_id":"14","to_stop_name":"origin","to_stop_lat":"1.352083","placename":"canada","to_stop_lon":"103.819836","to_stop":{"id":"14","name":"origin","lat":"1.352083","placename":"Singapore","lon":"103.819836"},"from_stop":{"name":"origin","id":"2385","lat":"56.130366","lon":"-106.346771","placename":"canada"}},{"transport_id":"10","id":"210","transport_name":"train, freight","transport_description":"diesel freight locomotive","transport_unit":"kg km","transport_co2_eq":"0.005600","from_stop_id":"2386","from_stop_lat":"55.755786","from_stop_lon":"37.617633","to_stop_id":"14","to_stop_name":"origin","to_stop_lat":"1.352083","placename":"Moscow","to_stop_lon":"103.819836","to_stop":{"id":"14","name":"origin","lat":"1.352083","placename":"Singapore","lon":"103.819836"},"from_stop":{"name":"origin","id":"2386","lat":"55.755786","lon":"37.617633","placename":"Moscow"}},{"transport_id":"17","id":"211","transport_name":"None Selected","transport_description":null,"transport_unit":"kg km","transport_co2_eq":"0.000000","from_stop_id":"2387","from_stop_lat":"23.1189117","from_stop_lon":"113.2614288","to_stop_id":"14","to_stop_name":"origin","to_stop_lat":"1.352083","placename":"guangdong","to_stop_lon":"103.819836","to_stop":{"id":"14","name":"origin","lat":"1.352083","placename":"Singapore","lon":"103.819836"},"from_stop":{"name":"origin","id":"2387","lat":"23.1189117","lon":"113.2614288","placename":"guangdong"}},{"transport_id":"17","id":"212","transport_name":"None Selected","transport_description":null,"transport_unit":"kg km","transport_co2_eq":"0.000000","from_stop_id":"2388","from_stop_lat":"22.396428","from_stop_lon":"114.109497","to_stop_id":"14","to_stop_name":"origin","to_stop_lat":"1.352083","placename":"hong kong","to_stop_lon":"103.819836","to_stop":{"id":"14","name":"origin","lat":"1.352083","placename":"Singapore","lon":"103.819836"},"from_stop":{"name":"origin","id":"2388","lat":"22.396428","lon":"114.109497","placename":"hong kong"}},{"transport_id":"6","id":"213","transport_name":"tanker ship","transport_description":"tanker for mobing liquids","transport_unit":"kg km","transport_co2_eq":"0.171600","from_stop_id":"2389","from_stop_lat":"31.2243531","from_stop_lon":"121.4759159","to_stop_id":"14","to_stop_name":"origin","to_stop_lat":"1.352083","placename":"shanghai","to_stop_lon":"103.819836","to_stop":{"id":"14","name":"origin","lat":"1.352083","placename":"Singapore","lon":"103.819836"},"from_stop":{"name":"origin","id":"2389","lat":"31.2243531","lon":"121.4759159","placename":"shanghai"}},{"transport_id":"9","id":"214","transport_name":"container ship","transport_description":"moving boxcar size containers","transport_unit":"kg km","transport_co2_eq":"0.047800","from_stop_id":"2390","from_stop_lat":"35.907757","from_stop_lon":"127.766922","to_stop_id":"14","to_stop_name":"origin","to_stop_lat":"1.352083","placename":"Korea","to_stop_lon":"103.819836","to_stop":{"id":"14","name":"origin","lat":"1.352083","placename":"Singapore","lon":"103.819836"},"from_stop":{"name":"origin","id":"2390","lat":"35.907757","lon":"127.766922","placename":"Korea"}},{"transport_id":"9","id":"215","transport_name":"container ship","transport_description":"moving boxcar size containers","transport_unit":"kg km","transport_co2_eq":"0.047800","from_stop_id":"2391","from_stop_lat":"36.204824","from_stop_lon":"138.252924","to_stop_id":"14","to_stop_name":"origin","to_stop_lat":"1.352083","placename":"Japan","to_stop_lon":"103.819836","to_stop":{"id":"14","name":"origin","lat":"1.352083","placename":"Singapore","lon":"103.819836"},"from_stop":{"name":"origin","id":"2391","lat":"36.204824","lon":"138.252924","placename":"Japan"}},{"transport_id":"6","id":"216","transport_name":"tanker ship","transport_description":"tanker for mobing liquids","transport_unit":"kg km","transport_co2_eq":"0.171600","from_stop_id":"2392","from_stop_lat":"61.52401","from_stop_lon":"105.318756","to_stop_id":"14","to_stop_name":"origin","to_stop_lat":"1.352083","placename":"russia","to_stop_lon":"103.819836","to_stop":{"id":"14","name":"origin","lat":"1.352083","placename":"Singapore","lon":"103.819836"},"from_stop":{"name":"origin","id":"2392","lat":"61.52401","lon":"105.318756","placename":"russia"}},{"transport_id":"3","id":"217","transport_name":"truck, 40 tons","transport_description":"truck, half full","transport_unit":"kg km","transport_co2_eq":"0.030900","from_stop_id":"2393","from_stop_lat":"12.879721","from_stop_lon":"121.774017","to_stop_id":"14","to_stop_name":"origin","to_stop_lat":"1.352083","placename":"Philippines","to_stop_lon":"103.819836","to_stop":{"id":"14","name":"origin","lat":"1.352083","placename":"Singapore","lon":"103.819836"},"from_stop":{"name":"origin","id":"2393","lat":"12.879721","lon":"121.774017","placename":"Philippines"}},{"transport_id":"17","id":"218","transport_name":"None Selected","transport_description":null,"transport_unit":"kg km","transport_co2_eq":"0.000000","from_stop_id":"2394","from_stop_lat":"35.86166","from_stop_lon":"104.195397","to_stop_id":"14","to_stop_name":"origin","to_stop_lat":"1.352083","placename":"China","to_stop_lon":"103.819836","to_stop":{"id":"14","name":"origin","lat":"1.352083","placename":"Singapore","lon":"103.819836"},"from_stop":{"name":"origin","id":"2394","lat":"35.86166","lon":"104.195397","placename":"China"}},{"transport_id":"17","id":"219","transport_name":"None Selected","transport_description":null,"transport_unit":"kg km","transport_co2_eq":"0.000000","from_stop_id":"2395","from_stop_lat":"34.2648777","from_stop_lon":"108.9442599","to_stop_id":"14","to_stop_name":"origin","to_stop_lat":"1.352083","placename":"Xian","to_stop_lon":"103.819836","to_stop":{"id":"14","name":"origin","lat":"1.352083","placename":"Singapore","lon":"103.819836"},"from_stop":{"name":"origin","id":"2395","lat":"34.2648777","lon":"108.9442599","placename":"Xian"}}],"outgoing":[]}}},"parts":[{"oid":"102","imid":"214","linkid":"","weight":"1.01","rawemissions":"1.4","emissions":"1.41","shipping":"2593.89","processemissions":null,"endoflifeemissions":null,"disposaltype":null,"disposalenergy":null,"disposalimpact":null,"disposalemissions":null,"description":"acrylonitrile-butadiene-styrene","name":"ABS, primary","id":"214","stops":{"origin":{"related_to":"214","part_or_object":"p","notes":"","placename":"Hong Kong","id":2348,"name":"origin","lat":"22.396428","lon":"114.109497","hops":{"incoming":[],"outgoing":[{"transport_id":"1","id":"196","transport_name":"van, 3.5 tons","transport_description":"delivery van, half full","transport_unit":"kg km","transport_co2_eq":"0.053400","from_stop_id":"2348","from_stop_lat":"22.396428","from_stop_lon":"114.109497","from_stop_placename":"Hong Kong","to_stop_id":"14","to_stop_name":"origin","to_stop_lat":"1.352083","to_stop_lon":"103.819836","to_stop_placename":"Singapore","to_stop":{"id":"14","name":"origin","lat":"1.352083","lon":"103.819836","placename":"Singapore"},"from_stop":{"name":"origin","id":"2348","lat":"22.396428","lon":"114.109497","placename":"Hong Kong"}}]}}},"processes":[],"eols":[]},{"oid":"102","imid":"215","linkid":"","weight":"0.63","rawemissions":"1.4","emissions":"0.88","shipping":"5255.67","processemissions":null,"endoflifeemissions":null,"disposaltype":null,"disposalenergy":null,"disposalimpact":null,"disposalemissions":null,"description":"low alloy steel, virgin","name":"steel, primary","id":"215","stops":{"origin":{"related_to":"215","part_or_object":"p","notes":"","placename":"Japan","id":2349,"name":"origin","lat":"36.204824","lon":"138.252924","hops":{"incoming":[],"outgoing":[{"transport_id":"1","id":"197","transport_name":"van, 3.5 tons","transport_description":"delivery van, half full","transport_unit":"kg km","transport_co2_eq":"0.053400","from_stop_id":"2349","from_stop_lat":"36.204824","from_stop_lon":"138.252924","from_stop_placename":"Japan","to_stop_id":"14","to_stop_name":"origin","to_stop_lat":"1.352083","to_stop_lon":"103.819836","to_stop_placename":"Singapore","to_stop":{"id":"14","name":"origin","lat":"1.352083","lon":"103.819836","placename":"Singapore"},"from_stop":{"name":"origin","id":"2349","lat":"36.204824","lon":"138.252924","placename":"Japan"}}]}}},"processes":[],"eols":[]},{"oid":"102","imid":"216","linkid":"","weight":"0.41","rawemissions":"1.2","emissions":"0.49","shipping":"17575.4","processemissions":null,"endoflifeemissions":null,"disposaltype":null,"disposalenergy":null,"disposalimpact":null,"disposalemissions":null,"description":"","name":"copper, primary","id":"216","stops":{"origin":{"related_to":"216","part_or_object":"p","notes":"","placename":"Chuquicamata, Chile","id":2350,"name":"origin","lat":"-22.31514","lon":"-68.929031","hops":{"incoming":[],"outgoing":[{"transport_id":"1","id":"198","transport_name":"van, 3.5 tons","transport_description":"delivery van, half full","transport_unit":"kg km","transport_co2_eq":"0.053400","from_stop_id":"2350","from_stop_lat":"-22.31514","from_stop_lon":"-68.929031","from_stop_placename":"Chuquicamata, Chile","to_stop_id":"14","to_stop_name":"origin","to_stop_lat":"1.352083","to_stop_lon":"103.819836","to_stop_placename":"Singapore","to_stop":{"id":"14","name":"origin","lat":"1.352083","lon":"103.819836","placename":"Singapore"},"from_stop":{"name":"origin","id":"2350","lat":"-22.31514","lon":"-68.929031","placename":"Chuquicamata, Chile"}}]}}},"processes":[],"eols":[]},{"oid":"102","imid":"241","linkid":"","weight":"0.34","rawemissions":"0.27","emissions":"0.09","shipping":"4572.22","processemissions":null,"endoflifeemissions":null,"disposaltype":null,"disposalenergy":null,"disposalimpact":null,"disposalemissions":null,"description":"clear bottle glass, virgin","name":"glass, clear primary","id":"241","stops":{"origin":{"related_to":"241","part_or_object":"p","notes":"","placename":"Korea","id":2377,"name":"origin","lat":"35.907757","lon":"127.766922","hops":{"incoming":[],"outgoing":[{"transport_id":"9","id":"207","transport_name":"container ship","transport_description":"moving boxcar size containers","transport_unit":"kg km","transport_co2_eq":"0.047800","from_stop_id":"2377","from_stop_lat":"35.907757","from_stop_lon":"127.766922","from_stop_placename":"Korea","to_stop_id":"14","to_stop_name":"origin","to_stop_lat":"1.352083","to_stop_lon":"103.819836","to_stop_placename":"Singapore","to_stop":{"id":"14","name":"origin","lat":"1.352083","lon":"103.819836","placename":"Singapore"},"from_stop":{"name":"origin","id":"2377","lat":"35.907757","lon":"127.766922","placename":"Korea"}}]}}},"processes":[],"eols":[]},{"oid":"102","imid":"242","linkid":"","weight":"0.17","rawemissions":"2.5","emissions":"0.43","shipping":"3702.42","processemissions":null,"endoflifeemissions":null,"disposaltype":null,"disposalenergy":null,"disposalimpact":null,"disposalemissions":null,"description":"polymethyl methacrylate (acrylic)","name":"PMMA, primary","id":"242","stops":{"origin":{"related_to":"242","part_or_object":"p","notes":"","placename":"Xian","id":2378,"name":"origin","lat":"34.2648777","lon":"108.9442599","hops":{"incoming":[],"outgoing":[{"transport_id":"15","id":"208","transport_name":"air, freight, regional","transport_description":"freight within one continent","transport_unit":"kg km","transport_co2_eq":"0.787500","from_stop_id":"2378","from_stop_lat":"34.2648777","from_stop_lon":"108.9442599","from_stop_placename":"Xian","to_stop_id":"14","to_stop_name":"origin","to_stop_lat":"1.352083","to_stop_lon":"103.819836","to_stop_placename":"Singapore","to_stop":{"id":"14","name":"origin","lat":"1.352083","lon":"103.819836","placename":"Singapore"},"from_stop":{"name":"origin","id":"2378","lat":"34.2648777","lon":"108.9442599","placename":"Xian"}}]}}},"processes":[],"eols":[]},{"oid":"102","imid":"249","linkid":"","weight":"0.16","rawemissions":"11","emissions":"1.76","shipping":"13082.6","processemissions":null,"endoflifeemissions":null,"disposaltype":null,"disposalenergy":null,"disposalimpact":null,"disposalemissions":null,"description":"","name":"nickel","id":"249","stops":{"origin":{"related_to":"249","part_or_object":"p","notes":"","placename":"canada","id":2385,"name":"origin","lat":"56.130366","lon":"-106.346771","hops":{"incoming":[],"outgoing":[{"transport_id":"8","id":"209","transport_name":"freighter, oceanic","transport_description":"","transport_unit":"kg km","transport_co2_eq":"0.004200","from_stop_id":"2385","from_stop_lat":"56.130366","from_stop_lon":"-106.346771","from_stop_placename":"canada","to_stop_id":"14","to_stop_name":"origin","to_stop_lat":"1.352083","to_stop_lon":"103.819836","to_stop_placename":"Singapore","to_stop":{"id":"14","name":"origin","lat":"1.352083","lon":"103.819836","placename":"Singapore"},"from_stop":{"name":"origin","id":"2385","lat":"56.130366","lon":"-106.346771","placename":"canada"}}]}}},"processes":[],"eols":[]},{"oid":"102","imid":"250","linkid":"","weight":"0.15","rawemissions":"5.2","emissions":"0.78","shipping":"8430.13","processemissions":null,"endoflifeemissions":null,"disposaltype":null,"disposalenergy":null,"disposalimpact":null,"disposalemissions":null,"description":"forom bauxite, virgin","name":"aluminum, primary","id":"250","stops":{"origin":{"related_to":"250","part_or_object":"p","notes":"","placename":"Moscow","id":2386,"name":"origin","lat":"55.755786","lon":"37.617633","hops":{"incoming":[],"outgoing":[{"transport_id":"10","id":"210","transport_name":"train, freight","transport_description":"diesel freight locomotive","transport_unit":"kg km","transport_co2_eq":"0.005600","from_stop_id":"2386","from_stop_lat":"55.755786","from_stop_lon":"37.617633","from_stop_placename":"Moscow","to_stop_id":"14","to_stop_name":"origin","to_stop_lat":"1.352083","to_stop_lon":"103.819836","to_stop_placename":"Singapore","to_stop":{"id":"14","name":"origin","lat":"1.352083","lon":"103.819836","placename":"Singapore"},"from_stop":{"name":"origin","id":"2386","lat":"55.755786","lon":"37.617633","placename":"Moscow"}}]}}},"processes":[],"eols":[]},{"oid":"102","imid":"256","linkid":"","weight":"0.15","rawemissions":"0.5","emissions":"0.08","shipping":"2629.01","processemissions":null,"endoflifeemissions":null,"disposaltype":null,"disposalenergy":null,"disposalimpact":null,"disposalemissions":null,"description":"with epichlorohydrin, bisphenol A","name":"Epoxy resin","id":"256","stops":{"origin":{"related_to":"256","part_or_object":"p","notes":"","placename":"guangdong","id":2387,"name":"origin","lat":"23.1189117","lon":"113.2614288","hops":{"incoming":[],"outgoing":[{"transport_id":"17","id":"211","transport_name":"None Selected","transport_description":null,"transport_unit":"kg km","transport_co2_eq":"0.000000","from_stop_id":"2387","from_stop_lat":"23.1189117","from_stop_lon":"113.2614288","from_stop_placename":"guangdong","to_stop_id":"14","to_stop_name":"origin","to_stop_lat":"1.352083","to_stop_lon":"103.819836","to_stop_placename":"Singapore","to_stop":{"id":"14","name":"origin","lat":"1.352083","lon":"103.819836","placename":"Singapore"},"from_stop":{"name":"origin","id":"2387","lat":"23.1189117","lon":"113.2614288","placename":"guangdong"}}]}}},"processes":[],"eols":[]},{"oid":"102","imid":"257","linkid":"","weight":"0.13","rawemissions":"1.2","emissions":"0.16","shipping":"2593.89","processemissions":null,"endoflifeemissions":null,"disposaltype":null,"disposalenergy":null,"disposalimpact":null,"disposalemissions":null,"description":"sans lead, phthalates and DEHP","name":"PVC, flex, primary","id":"257","stops":{"origin":{"related_to":"257","part_or_object":"p","notes":"","placename":"hong kong","id":2388,"name":"origin","lat":"22.396428","lon":"114.109497","hops":{"incoming":[],"outgoing":[{"transport_id":"17","id":"212","transport_name":"None Selected","transport_description":null,"transport_unit":"kg km","transport_co2_eq":"0.000000","from_stop_id":"2388","from_stop_lat":"22.396428","from_stop_lon":"114.109497","from_stop_placename":"hong kong","to_stop_id":"14","to_stop_name":"origin","to_stop_lat":"1.352083","to_stop_lon":"103.819836","to_stop_placename":"Singapore","to_stop":{"id":"14","name":"origin","lat":"1.352083","lon":"103.819836","placename":"Singapore"},"from_stop":{"name":"origin","id":"2388","lat":"22.396428","lon":"114.109497","placename":"hong kong"}}]}}},"processes":[],"eols":[]},{"oid":"102","imid":"258","linkid":"","weight":"0.08","rawemissions":"2.3","emissions":"0.18","shipping":"3809.55","processemissions":null,"endoflifeemissions":null,"disposaltype":null,"disposalenergy":null,"disposalimpact":null,"disposalemissions":null,"description":"polycarbonate (plexiglass)","name":"PC, primary","id":"258","stops":{"origin":{"related_to":"258","part_or_object":"p","notes":"","placename":"shanghai","id":2389,"name":"origin","lat":"31.2243531","lon":"121.4759159","hops":{"incoming":[],"outgoing":[{"transport_id":"6","id":"213","transport_name":"tanker ship","transport_description":"tanker for mobing liquids","transport_unit":"kg km","transport_co2_eq":"0.171600","from_stop_id":"2389","from_stop_lat":"31.2243531","from_stop_lon":"121.4759159","from_stop_placename":"shanghai","to_stop_id":"14","to_stop_name":"origin","to_stop_lat":"1.352083","to_stop_lon":"103.819836","to_stop_placename":"Singapore","to_stop":{"id":"14","name":"origin","lat":"1.352083","lon":"103.819836","placename":"Singapore"},"from_stop":{"name":"origin","id":"2389","lat":"31.2243531","lon":"121.4759159","placename":"shanghai"}}]}}},"processes":[],"eols":[]},{"oid":"102","imid":"259","linkid":"","weight":"0.07","rawemissions":"0","emissions":"0","shipping":"4572.22","processemissions":null,"endoflifeemissions":null,"disposaltype":null,"disposalenergy":null,"disposalimpact":null,"disposalemissions":null,"description":"description","name":"Cadmium","id":"259","stops":{"origin":{"related_to":"259","part_or_object":"p","notes":"","placename":"Korea","id":2390,"name":"origin","lat":"35.907757","lon":"127.766922","hops":{"incoming":[],"outgoing":[{"transport_id":"9","id":"214","transport_name":"container ship","transport_description":"moving boxcar size containers","transport_unit":"kg km","transport_co2_eq":"0.047800","from_stop_id":"2390","from_stop_lat":"35.907757","from_stop_lon":"127.766922","from_stop_placename":"Korea","to_stop_id":"14","to_stop_name":"origin","to_stop_lat":"1.352083","to_stop_lon":"103.819836","to_stop_placename":"Singapore","to_stop":{"id":"14","name":"origin","lat":"1.352083","lon":"103.819836","placename":"Singapore"},"from_stop":{"name":"origin","id":"2390","lat":"35.907757","lon":"127.766922","placename":"Korea"}}]}}},"processes":[],"eols":[]},{"oid":"102","imid":"260","linkid":"","weight":"0.07","rawemissions":"0","emissions":"0","shipping":"5255.67","processemissions":null,"endoflifeemissions":null,"disposaltype":null,"disposalenergy":null,"disposalimpact":null,"disposalemissions":null,"description":"description","name":"Ferrite","id":"260","stops":{"origin":{"related_to":"260","part_or_object":"p","notes":"","placename":"Japan","id":2391,"name":"origin","lat":"36.204824","lon":"138.252924","hops":{"incoming":[],"outgoing":[{"transport_id":"9","id":"215","transport_name":"container ship","transport_description":"moving boxcar size containers","transport_unit":"kg km","transport_co2_eq":"0.047800","from_stop_id":"2391","from_stop_lat":"36.204824","from_stop_lon":"138.252924","from_stop_placename":"Japan","to_stop_id":"14","to_stop_name":"origin","to_stop_lat":"1.352083","to_stop_lon":"103.819836","to_stop_placename":"Singapore","to_stop":{"id":"14","name":"origin","lat":"1.352083","lon":"103.819836","placename":"Singapore"},"from_stop":{"name":"origin","id":"2391","lat":"36.204824","lon":"138.252924","placename":"Japan"}}]}}},"processes":[],"eols":[]},{"oid":"102","imid":"261","linkid":"","weight":"0.04","rawemissions":"2.2","emissions":"0.09","shipping":"6699.51","processemissions":null,"endoflifeemissions":null,"disposaltype":null,"disposalenergy":null,"disposalimpact":null,"disposalemissions":null,"description":"virgin 18\/8, superaustenitic","name":"steel, stainless prim.","id":"261","stops":{"origin":{"related_to":"261","part_or_object":"p","notes":"","placename":"russia","id":2392,"name":"origin","lat":"61.52401","lon":"105.318756","hops":{"incoming":[],"outgoing":[{"transport_id":"6","id":"216","transport_name":"tanker ship","transport_description":"tanker for mobing liquids","transport_unit":"kg km","transport_co2_eq":"0.171600","from_stop_id":"2392","from_stop_lat":"61.52401","from_stop_lon":"105.318756","from_stop_placename":"russia","to_stop_id":"14","to_stop_name":"origin","to_stop_lat":"1.352083","to_stop_lon":"103.819836","to_stop_placename":"Singapore","to_stop":{"id":"14","name":"origin","lat":"1.352083","lon":"103.819836","placename":"Singapore"},"from_stop":{"name":"origin","id":"2392","lat":"61.52401","lon":"105.318756","placename":"russia"}}]}}},"processes":[],"eols":[]},{"oid":"102","imid":"262","linkid":"","weight":"0.1","rawemissions":"0.28","emissions":"0.03","shipping":"2359.16","processemissions":null,"endoflifeemissions":null,"disposaltype":null,"disposalenergy":null,"disposalimpact":null,"disposalemissions":null,"description":"certified sustainable, unvulcanized","name":"rubber, natural cert.","id":"262","stops":{"origin":{"related_to":"262","part_or_object":"p","notes":"","placename":"Philippines","id":2393,"name":"origin","lat":"12.879721","lon":"121.774017","hops":{"incoming":[],"outgoing":[{"transport_id":"3","id":"217","transport_name":"truck, 40 tons","transport_description":"truck, half full","transport_unit":"kg km","transport_co2_eq":"0.030900","from_stop_id":"2393","from_stop_lat":"12.879721","from_stop_lon":"121.774017","from_stop_placename":"Philippines","to_stop_id":"14","to_stop_name":"origin","to_stop_lat":"1.352083","to_stop_lon":"103.819836","to_stop_placename":"Singapore","to_stop":{"id":"14","name":"origin","lat":"1.352083","lon":"103.819836","placename":"Singapore"},"from_stop":{"name":"origin","id":"2393","lat":"12.879721","lon":"121.774017","placename":"Philippines"}}]}}},"processes":[],"eols":[]},{"oid":"102","imid":"263","linkid":"","weight":"0.07","rawemissions":"0","emissions":"0","shipping":"3841.78","processemissions":null,"endoflifeemissions":null,"disposaltype":null,"disposalenergy":null,"disposalimpact":null,"disposalemissions":null,"description":"Part Description","name":"polyoxymethylene","id":"263","stops":{"origin":{"related_to":"263","part_or_object":"p","notes":"","placename":"China","id":2394,"name":"origin","lat":"35.86166","lon":"104.195397","hops":{"incoming":[],"outgoing":[{"transport_id":"17","id":"218","transport_name":"None Selected","transport_description":null,"transport_unit":"kg km","transport_co2_eq":"0.000000","from_stop_id":"2394","from_stop_lat":"35.86166","from_stop_lon":"104.195397","from_stop_placename":"China","to_stop_id":"14","to_stop_name":"origin","to_stop_lat":"1.352083","to_stop_lon":"103.819836","to_stop_placename":"Singapore","to_stop":{"id":"14","name":"origin","lat":"1.352083","lon":"103.819836","placename":"Singapore"},"from_stop":{"name":"origin","id":"2394","lat":"35.86166","lon":"104.195397","placename":"China"}}]}}},"processes":[],"eols":[]},{"oid":"102","imid":"264","linkid":"","weight":"0.03","rawemissions":"0.84","emissions":"0.03","shipping":"3702.42","processemissions":null,"endoflifeemissions":null,"disposaltype":null,"disposalenergy":null,"disposalimpact":null,"disposalemissions":null,"description":"polypropylene, virgin","name":"PP, primary","id":"264","stops":{"origin":{"related_to":"264","part_or_object":"p","notes":"","placename":"Xian","id":2395,"name":"origin","lat":"34.2648777","lon":"108.9442599","hops":{"incoming":[],"outgoing":[{"transport_id":"17","id":"219","transport_name":"None Selected","transport_description":null,"transport_unit":"kg km","transport_co2_eq":"0.000000","from_stop_id":"2395","from_stop_lat":"34.2648777","from_stop_lon":"108.9442599","from_stop_placename":"Xian","to_stop_id":"14","to_stop_name":"origin","to_stop_lat":"1.352083","to_stop_lon":"103.819836","to_stop_placename":"Singapore","to_stop":{"id":"14","name":"origin","lat":"1.352083","lon":"103.819836","placename":"Singapore"},"from_stop":{"name":"origin","id":"2395","lat":"34.2648777","lon":"108.9442599","placename":"Xian"}}]}}},"processes":[],"eols":[]}],"user":{"name":"leo","id":"1"}}}