{"105":{"oid":"105","type":"object","flag":"","creator":"1","name":"Typical Laptop Computer","upc":"","imagelink":"","description":"this is taken in part from the PC Magazine article <a href='http:\/\/tinyurl.com\/cwqvl9'>Whats Inside Your Laptop?<\/a>","slug":"typical-laptop-computer","category":"","weight":"3.87892","emissions":"1499.479504","embodied":"1003.9284","transport":"3.5511040041","process":"0","endoflife":"0","shipping":"356896.9","lifetime":"0","usagetype":"","usageenergy":"600","usageemissions":"492","timecreated":"2010-02-24 22:03:35.407164","timemodified":"2011-03-15 16:32:00","visibility":"public","showfootprint":"on","showembodied":"on","showtransport":"on","showprocess":"on","showendoflife":"on","showlastleg":"on","showuse":"on","showstats":"on","stops":{"origin":{"related_to":"105","part_or_object":"o","notes":null,"placename":"Shanghai, China","id":"13330","category":"1","lat":"31.230708","lon":"121.472916","name":"origin","hops":{"incoming":[{"transport_id":"20","id":"9661","transport_name":"Road","transport_description":"from the Greenhouse Gas Protocol Initiative - GHG emission from transport or mobile sources calculator 2.0 (jun 2009)","transport_unit":"kg km","transport_co2_eq":"0.000204","from_stop_id":"13331","from_stop_lat":"39.9081726","from_stop_lon":"116.3979471","to_stop_id":"13330","to_stop_name":"origin","to_stop_lat":"31.230708","placename":"Beijing","to_stop_lon":"121.472916","to_stop":{"id":"13330","name":"origin","lat":"31.230708","placename":"Shanghai, China","lon":"121.472916"},"from_stop":{"name":"origin","id":"13331","lat":"39.9081726","lon":"116.3979471","placename":"Beijing"}},{"transport_id":"20","id":"9662","transport_name":"Road","transport_description":"from the Greenhouse Gas Protocol Initiative - GHG emission from transport or mobile sources calculator 2.0 (jun 2009)","transport_unit":"kg km","transport_co2_eq":"0.000204","from_stop_id":"13332","from_stop_lat":"61.52401","from_stop_lon":"105.318756","to_stop_id":"13330","to_stop_name":"origin","to_stop_lat":"31.230708","placename":"Russian Federation","to_stop_lon":"121.472916","to_stop":{"id":"13330","name":"origin","lat":"31.230708","placename":"Shanghai, China","lon":"121.472916"},"from_stop":{"name":"origin","id":"13332","lat":"61.52401","lon":"105.318756","placename":"Russian Federation"}},{"transport_id":"18","id":"9663","transport_name":"Sea","transport_description":"from the Greenhouse Gas Protocol Initiative - GHG emission from transport or mobile sources calculator 2.0 (jun 2009)","transport_unit":"kg km","transport_co2_eq":"0.000222","from_stop_id":"13333","from_stop_lat":"-22.31514","from_stop_lon":"-68.929031","to_stop_id":"13330","to_stop_name":"origin","to_stop_lat":"31.230708","placename":"Chuquicamata, Chile","to_stop_lon":"121.472916","to_stop":{"id":"13330","name":"origin","lat":"31.230708","placename":"Shanghai, China","lon":"121.472916"},"from_stop":{"name":"origin","id":"13333","lat":"-22.31514","lon":"-68.929031","placename":"Chuquicamata, Chile"}},{"transport_id":"19","id":"9664","transport_name":"Rail","transport_description":"from the Greenhouse Gas Protocol Initiative - GHG emission from transport or mobile sources calculator 2.0 (jun 2009)","transport_unit":"kg km","transport_co2_eq":"0.000017","from_stop_id":"13334","from_stop_lat":"35.86166","from_stop_lon":"104.195397","to_stop_id":"13330","to_stop_name":"origin","to_stop_lat":"31.230708","placename":"China","to_stop_lon":"121.472916","to_stop":{"id":"13330","name":"origin","lat":"31.230708","placename":"Shanghai, China","lon":"121.472916"},"from_stop":{"name":"origin","id":"13334","lat":"35.86166","lon":"104.195397","placename":"China"}},{"transport_id":"18","id":"9665","transport_name":"Sea","transport_description":"from the Greenhouse Gas Protocol Initiative - GHG emission from transport or mobile sources calculator 2.0 (jun 2009)","transport_unit":"kg km","transport_co2_eq":"0.000222","from_stop_id":"13335","from_stop_lat":"-25.274398","from_stop_lon":"133.775136","to_stop_id":"13330","to_stop_name":"origin","to_stop_lat":"31.230708","placename":"Australia","to_stop_lon":"121.472916","to_stop":{"id":"13330","name":"origin","lat":"31.230708","placename":"Shanghai, China","lon":"121.472916"},"from_stop":{"name":"origin","id":"13335","lat":"-25.274398","lon":"133.775136","placename":"Australia"}},{"transport_id":"18","id":"9666","transport_name":"Sea","transport_description":"from the Greenhouse Gas Protocol Initiative - GHG emission from transport or mobile sources calculator 2.0 (jun 2009)","transport_unit":"kg km","transport_co2_eq":"0.000222","from_stop_id":"13336","from_stop_lat":"56.130366","from_stop_lon":"-106.346771","to_stop_id":"13330","to_stop_name":"origin","to_stop_lat":"31.230708","placename":"Canada","to_stop_lon":"121.472916","to_stop":{"id":"13330","name":"origin","lat":"31.230708","placename":"Shanghai, China","lon":"121.472916"},"from_stop":{"name":"origin","id":"13336","lat":"56.130366","lon":"-106.346771","placename":"Canada"}},{"transport_id":"20","id":"9667","transport_name":"Road","transport_description":"from the Greenhouse Gas Protocol Initiative - GHG emission from transport or mobile sources calculator 2.0 (jun 2009)","transport_unit":"kg km","transport_co2_eq":"0.000204","from_stop_id":"13337","from_stop_lat":"31.230708","from_stop_lon":"121.472916","to_stop_id":"13330","to_stop_name":"origin","to_stop_lat":"31.230708","placename":"Shanghai, China","to_stop_lon":"121.472916","to_stop":{"id":"13330","name":"origin","lat":"31.230708","placename":"Shanghai, China","lon":"121.472916"},"from_stop":{"name":"origin","id":"13337","lat":"31.230708","lon":"121.472916","placename":"Shanghai, China"}},{"transport_id":"17","id":"9668","transport_name":"None Selected","transport_description":null,"transport_unit":"kg km","transport_co2_eq":"0.000000","from_stop_id":"13338","from_stop_lat":"56.130366","from_stop_lon":"-106.346771","to_stop_id":"13330","to_stop_name":"origin","to_stop_lat":"31.230708","placename":"Canada","to_stop_lon":"121.472916","to_stop":{"id":"13330","name":"origin","lat":"31.230708","placename":"Shanghai, China","lon":"121.472916"},"from_stop":{"name":"origin","id":"13338","lat":"56.130366","lon":"-106.346771","placename":"Canada"}},{"transport_id":"17","id":"9669","transport_name":"None Selected","transport_description":null,"transport_unit":"kg km","transport_co2_eq":"0.000000","from_stop_id":"13339","from_stop_lat":"-22.9035393","from_stop_lon":"-43.2095869","to_stop_id":"13330","to_stop_name":"origin","to_stop_lat":"31.230708","placename":"Rio de Janeiro","to_stop_lon":"121.472916","to_stop":{"id":"13330","name":"origin","lat":"31.230708","placename":"Shanghai, China","lon":"121.472916"},"from_stop":{"name":"origin","id":"13339","lat":"-22.9035393","lon":"-43.2095869","placename":"Rio de Janeiro"}},{"transport_id":"17","id":"9670","transport_name":"None Selected","transport_description":null,"transport_unit":"kg km","transport_co2_eq":"0.000000","from_stop_id":"13340","from_stop_lat":"35.86166","from_stop_lon":"104.195397","to_stop_id":"13330","to_stop_name":"origin","to_stop_lat":"31.230708","placename":"China","to_stop_lon":"121.472916","to_stop":{"id":"13330","name":"origin","lat":"31.230708","placename":"Shanghai, China","lon":"121.472916"},"from_stop":{"name":"origin","id":"13340","lat":"35.86166","lon":"104.195397","placename":"China"}},{"transport_id":"8","id":"9671","transport_name":"freighter, oceanic","transport_description":"","transport_unit":"kg km","transport_co2_eq":"0.004200","from_stop_id":"13341","from_stop_lat":"-30.559482","from_stop_lon":"22.937506","to_stop_id":"13330","to_stop_name":"origin","to_stop_lat":"31.230708","placename":"South Africa","to_stop_lon":"121.472916","to_stop":{"id":"13330","name":"origin","lat":"31.230708","placename":"Shanghai, China","lon":"121.472916"},"from_stop":{"name":"origin","id":"13341","lat":"-30.559482","lon":"22.937506","placename":"South Africa"}},{"transport_id":"17","id":"9672","transport_name":"None Selected","transport_description":null,"transport_unit":"kg km","transport_co2_eq":"0.000000","from_stop_id":"13342","from_stop_lat":"35.86166","from_stop_lon":"104.195397","to_stop_id":"13330","to_stop_name":"origin","to_stop_lat":"31.230708","placename":"China","to_stop_lon":"121.472916","to_stop":{"id":"13330","name":"origin","lat":"31.230708","placename":"Shanghai, China","lon":"121.472916"},"from_stop":{"name":"origin","id":"13342","lat":"35.86166","lon":"104.195397","placename":"China"}},{"transport_id":"20","id":"9673","transport_name":"Road","transport_description":"from the Greenhouse Gas Protocol Initiative - GHG emission from transport or mobile sources calculator 2.0 (jun 2009)","transport_unit":"kg km","transport_co2_eq":"0.000204","from_stop_id":"13343","from_stop_lat":"23.129075","from_stop_lon":"113.264423","to_stop_id":"13330","to_stop_name":"origin","to_stop_lat":"31.230708","placename":"Guangzhou, Guangdong, China","to_stop_lon":"121.472916","to_stop":{"id":"13330","name":"origin","lat":"31.230708","placename":"Shanghai, China","lon":"121.472916"},"from_stop":{"name":"origin","id":"13343","lat":"23.129075","lon":"113.264423","placename":"Guangzhou, Guangdong, China"}},{"transport_id":"19","id":"9674","transport_name":"Rail","transport_description":"from the Greenhouse Gas Protocol Initiative - GHG emission from transport or mobile sources calculator 2.0 (jun 2009)","transport_unit":"kg km","transport_co2_eq":"0.000017","from_stop_id":"13344","from_stop_lat":"23.885942","from_stop_lon":"45.079162","to_stop_id":"13330","to_stop_name":"origin","to_stop_lat":"31.230708","placename":"Saudi Arabia","to_stop_lon":"121.472916","to_stop":{"id":"13330","name":"origin","lat":"31.230708","placename":"Shanghai, China","lon":"121.472916"},"from_stop":{"name":"origin","id":"13344","lat":"23.885942","lon":"45.079162","placename":"Saudi Arabia"}},{"transport_id":"18","id":"9675","transport_name":"Sea","transport_description":"from the Greenhouse Gas Protocol Initiative - GHG emission from transport or mobile sources calculator 2.0 (jun 2009)","transport_unit":"kg km","transport_co2_eq":"0.000222","from_stop_id":"13345","from_stop_lat":"-30.559482","from_stop_lon":"22.937506","to_stop_id":"13330","to_stop_name":"origin","to_stop_lat":"31.230708","placename":"South Africa","to_stop_lon":"121.472916","to_stop":{"id":"13330","name":"origin","lat":"31.230708","placename":"Shanghai, China","lon":"121.472916"},"from_stop":{"name":"origin","id":"13345","lat":"-30.559482","lon":"22.937506","placename":"South Africa"}},{"transport_id":"19","id":"9676","transport_name":"Rail","transport_description":"from the Greenhouse Gas Protocol Initiative - GHG emission from transport or mobile sources calculator 2.0 (jun 2009)","transport_unit":"kg km","transport_co2_eq":"0.000017","from_stop_id":"13346","from_stop_lat":"61.52401","from_stop_lon":"105.318756","to_stop_id":"13330","to_stop_name":"origin","to_stop_lat":"31.230708","placename":"Russian Federation","to_stop_lon":"121.472916","to_stop":{"id":"13330","name":"origin","lat":"31.230708","placename":"Shanghai, China","lon":"121.472916"},"from_stop":{"name":"origin","id":"13346","lat":"61.52401","lon":"105.318756","placename":"Russian Federation"}},{"transport_id":"19","id":"9677","transport_name":"Rail","transport_description":"from the Greenhouse Gas Protocol Initiative - GHG emission from transport or mobile sources calculator 2.0 (jun 2009)","transport_unit":"kg km","transport_co2_eq":"0.000017","from_stop_id":"13347","from_stop_lat":"34.26488","from_stop_lon":"108.944265","to_stop_id":"13330","to_stop_name":"origin","to_stop_lat":"31.230708","placename":"Xi'an, Shaanxi, China","to_stop_lon":"121.472916","to_stop":{"id":"13330","name":"origin","lat":"31.230708","placename":"Shanghai, China","lon":"121.472916"},"from_stop":{"name":"origin","id":"13347","lat":"34.26488","lon":"108.944265","placename":"Xi'an, Shaanxi, China"}},{"transport_id":"20","id":"9678","transport_name":"Road","transport_description":"from the Greenhouse Gas Protocol Initiative - GHG emission from transport or mobile sources calculator 2.0 (jun 2009)","transport_unit":"kg km","transport_co2_eq":"0.000204","from_stop_id":"13348","from_stop_lat":"34.6937378","from_stop_lon":"135.5021651","to_stop_id":"13330","to_stop_name":"origin","to_stop_lat":"31.230708","placename":"?saka City, ?saka Prefecture, Japan","to_stop_lon":"121.472916","to_stop":{"id":"13330","name":"origin","lat":"31.230708","placename":"Shanghai, China","lon":"121.472916"},"from_stop":{"name":"origin","id":"13348","lat":"34.6937378","lon":"135.5021651","placename":"?saka City, ?saka Prefecture, Japan"}},{"transport_id":"20","id":"9679","transport_name":"Road","transport_description":"from the Greenhouse Gas Protocol Initiative - GHG emission from transport or mobile sources calculator 2.0 (jun 2009)","transport_unit":"kg km","transport_co2_eq":"0.000204","from_stop_id":"13349","from_stop_lat":"22.543447","from_stop_lon":"114.057818","to_stop_id":"13330","to_stop_name":"origin","to_stop_lat":"31.230708","placename":"Shenzhen, Guangdong, China","to_stop_lon":"121.472916","to_stop":{"id":"13330","name":"origin","lat":"31.230708","placename":"Shanghai, China","lon":"121.472916"},"from_stop":{"name":"origin","id":"13349","lat":"22.543447","lon":"114.057818","placename":"Shenzhen, Guangdong, China"}},{"transport_id":"18","id":"9680","transport_name":"Sea","transport_description":"from the Greenhouse Gas Protocol Initiative - GHG emission from transport or mobile sources calculator 2.0 (jun 2009)","transport_unit":"kg km","transport_co2_eq":"0.000222","from_stop_id":"13350","from_stop_lat":"39.904667","from_stop_lon":"116.408198","to_stop_id":"13330","to_stop_name":"origin","to_stop_lat":"31.230708","placename":"Beijing, China","to_stop_lon":"121.472916","to_stop":{"id":"13330","name":"origin","lat":"31.230708","placename":"Shanghai, China","lon":"121.472916"},"from_stop":{"name":"origin","id":"13350","lat":"39.904667","lon":"116.408198","placename":"Beijing, China"}},{"transport_id":"18","id":"9681","transport_name":"Sea","transport_description":"from the Greenhouse Gas Protocol Initiative - GHG emission from transport or mobile sources calculator 2.0 (jun 2009)","transport_unit":"kg km","transport_co2_eq":"0.000222","from_stop_id":"13351","from_stop_lat":"-14.235004","from_stop_lon":"-51.92528","to_stop_id":"13330","to_stop_name":"origin","to_stop_lat":"31.230708","placename":"Brazil","to_stop_lon":"121.472916","to_stop":{"id":"13330","name":"origin","lat":"31.230708","placename":"Shanghai, China","lon":"121.472916"},"from_stop":{"name":"origin","id":"13351","lat":"-14.235004","lon":"-51.92528","placename":"Brazil"}},{"transport_id":"19","id":"9682","transport_name":"Rail","transport_description":"from the Greenhouse Gas Protocol Initiative - GHG emission from transport or mobile sources calculator 2.0 (jun 2009)","transport_unit":"kg km","transport_co2_eq":"0.000017","from_stop_id":"13352","from_stop_lat":"35.86166","from_stop_lon":"104.195397","to_stop_id":"13330","to_stop_name":"origin","to_stop_lat":"31.230708","placename":"china","to_stop_lon":"121.472916","to_stop":{"id":"13330","name":"origin","lat":"31.230708","placename":"Shanghai, China","lon":"121.472916"},"from_stop":{"name":"origin","id":"13352","lat":"35.86166","lon":"104.195397","placename":"china"}},{"transport_id":"18","id":"9683","transport_name":"Sea","transport_description":"from the Greenhouse Gas Protocol Initiative - GHG emission from transport or mobile sources calculator 2.0 (jun 2009)","transport_unit":"kg km","transport_co2_eq":"0.000222","from_stop_id":"13353","from_stop_lat":"-20.726631","from_stop_lon":"139.494307","to_stop_id":"13330","to_stop_name":"origin","to_stop_lat":"31.230708","placename":" 20\u00b04256.23'S 139\u00b02838.94'E","to_stop_lon":"121.472916","to_stop":{"id":"13330","name":"origin","lat":"31.230708","placename":"Shanghai, China","lon":"121.472916"},"from_stop":{"name":"origin","id":"13353","lat":"-20.726631","lon":"139.494307","placename":" 20\u00b04256.23'S 139\u00b02838.94'E"}},{"transport_id":"18","id":"9684","transport_name":"Sea","transport_description":"from the Greenhouse Gas Protocol Initiative - GHG emission from transport or mobile sources calculator 2.0 (jun 2009)","transport_unit":"kg km","transport_co2_eq":"0.000222","from_stop_id":"13354","from_stop_lat":"-19.015438","from_stop_lon":"29.154857","to_stop_id":"13330","to_stop_name":"origin","to_stop_lat":"31.230708","placename":"Zimbabwe","to_stop_lon":"121.472916","to_stop":{"id":"13330","name":"origin","lat":"31.230708","placename":"Shanghai, China","lon":"121.472916"},"from_stop":{"name":"origin","id":"13354","lat":"-19.015438","lon":"29.154857","placename":"Zimbabwe"}},{"transport_id":"18","id":"9685","transport_name":"Sea","transport_description":"from the Greenhouse Gas Protocol Initiative - GHG emission from transport or mobile sources calculator 2.0 (jun 2009)","transport_unit":"kg km","transport_co2_eq":"0.000222","from_stop_id":"13355","from_stop_lat":"35.86166","from_stop_lon":"104.195397","to_stop_id":"13330","to_stop_name":"origin","to_stop_lat":"31.230708","placename":"China","to_stop_lon":"121.472916","to_stop":{"id":"13330","name":"origin","lat":"31.230708","placename":"Shanghai, China","lon":"121.472916"},"from_stop":{"name":"origin","id":"13355","lat":"35.86166","lon":"104.195397","placename":"China"}},{"transport_id":"17","id":"9686","transport_name":"None Selected","transport_description":null,"transport_unit":"kg km","transport_co2_eq":"0.000000","from_stop_id":"13356","from_stop_lat":"20.593684","from_stop_lon":"78.96288","to_stop_id":"13330","to_stop_name":"origin","to_stop_lat":"31.230708","placename":"India","to_stop_lon":"121.472916","to_stop":{"id":"13330","name":"origin","lat":"31.230708","placename":"Shanghai, China","lon":"121.472916"},"from_stop":{"name":"origin","id":"13356","lat":"20.593684","lon":"78.96288","placename":"India"}},{"transport_id":"18","id":"9687","transport_name":"Sea","transport_description":"from the Greenhouse Gas Protocol Initiative - GHG emission from transport or mobile sources calculator 2.0 (jun 2009)","transport_unit":"kg km","transport_co2_eq":"0.000222","from_stop_id":"13357","from_stop_lat":"-30.559482","from_stop_lon":"22.937506","to_stop_id":"13330","to_stop_name":"origin","to_stop_lat":"31.230708","placename":"South Africa","to_stop_lon":"121.472916","to_stop":{"id":"13330","name":"origin","lat":"31.230708","placename":"Shanghai, China","lon":"121.472916"},"from_stop":{"name":"origin","id":"13357","lat":"-30.559482","lon":"22.937506","placename":"South Africa"}},{"transport_id":"18","id":"9688","transport_name":"Sea","transport_description":"from the Greenhouse Gas Protocol Initiative - GHG emission from transport or mobile sources calculator 2.0 (jun 2009)","transport_unit":"kg km","transport_co2_eq":"0.000222","from_stop_id":"13358","from_stop_lat":"-9.189967","from_stop_lon":"-75.015152","to_stop_id":"13330","to_stop_name":"origin","to_stop_lat":"31.230708","placename":"Peru","to_stop_lon":"121.472916","to_stop":{"id":"13330","name":"origin","lat":"31.230708","placename":"Shanghai, China","lon":"121.472916"},"from_stop":{"name":"origin","id":"13358","lat":"-9.189967","lon":"-75.015152","placename":"Peru"}},{"transport_id":"18","id":"9689","transport_name":"Sea","transport_description":"from the Greenhouse Gas Protocol Initiative - GHG emission from transport or mobile sources calculator 2.0 (jun 2009)","transport_unit":"kg km","transport_co2_eq":"0.000222","from_stop_id":"13359","from_stop_lat":"-11.4098737","from_stop_lon":"-41.2808577","to_stop_id":"13330","to_stop_name":"origin","to_stop_lat":"31.230708","placename":"Bajia Brazil","to_stop_lon":"121.472916","to_stop":{"id":"13330","name":"origin","lat":"31.230708","placename":"Shanghai, China","lon":"121.472916"},"from_stop":{"name":"origin","id":"13359","lat":"-11.4098737","lon":"-41.2808577","placename":"Bajia Brazil"}},{"transport_id":"18","id":"9690","transport_name":"Sea","transport_description":"from the Greenhouse Gas Protocol Initiative - GHG emission from transport or mobile sources calculator 2.0 (jun 2009)","transport_unit":"kg km","transport_co2_eq":"0.000222","from_stop_id":"13360","from_stop_lat":"36.778261","from_stop_lon":"-119.4179324","to_stop_id":"13330","to_stop_name":"origin","to_stop_lat":"31.230708","placename":"California","to_stop_lon":"121.472916","to_stop":{"id":"13330","name":"origin","lat":"31.230708","placename":"Shanghai, China","lon":"121.472916"},"from_stop":{"name":"origin","id":"13360","lat":"36.778261","lon":"-119.4179324","placename":"California"}},{"transport_id":"18","id":"9691","transport_name":"Sea","transport_description":"from the Greenhouse Gas Protocol Initiative - GHG emission from transport or mobile sources calculator 2.0 (jun 2009)","transport_unit":"kg km","transport_co2_eq":"0.000222","from_stop_id":"13361","from_stop_lat":"-25.274398","from_stop_lon":"133.775136","to_stop_id":"13330","to_stop_name":"origin","to_stop_lat":"31.230708","placename":"Australia","to_stop_lon":"121.472916","to_stop":{"id":"13330","name":"origin","lat":"31.230708","placename":"Shanghai, China","lon":"121.472916"},"from_stop":{"name":"origin","id":"13361","lat":"-25.274398","lon":"133.775136","placename":"Australia"}},{"transport_id":"18","id":"9692","transport_name":"Sea","transport_description":"from the Greenhouse Gas Protocol Initiative - GHG emission from transport or mobile sources calculator 2.0 (jun 2009)","transport_unit":"kg km","transport_co2_eq":"0.000222","from_stop_id":"13362","from_stop_lat":"-0.228021","from_stop_lon":"15.827659","to_stop_id":"13330","to_stop_name":"origin","to_stop_lat":"31.230708","placename":"Congo","to_stop_lon":"121.472916","to_stop":{"id":"13330","name":"origin","lat":"31.230708","placename":"Shanghai, China","lon":"121.472916"},"from_stop":{"name":"origin","id":"13362","lat":"-0.228021","lon":"15.827659","placename":"Congo"}},{"transport_id":"19","id":"9693","transport_name":"Rail","transport_description":"from the Greenhouse Gas Protocol Initiative - GHG emission from transport or mobile sources calculator 2.0 (jun 2009)","transport_unit":"kg km","transport_co2_eq":"0.000017","from_stop_id":"13363","from_stop_lat":"38.861034","from_stop_lon":"71.276093","to_stop_id":"13330","to_stop_name":"origin","to_stop_lat":"31.230708","placename":"Tajikistan","to_stop_lon":"121.472916","to_stop":{"id":"13330","name":"origin","lat":"31.230708","placename":"Shanghai, China","lon":"121.472916"},"from_stop":{"name":"origin","id":"13363","lat":"38.861034","lon":"71.276093","placename":"Tajikistan"}},{"transport_id":"18","id":"9694","transport_name":"Sea","transport_description":"from the Greenhouse Gas Protocol Initiative - GHG emission from transport or mobile sources calculator 2.0 (jun 2009)","transport_unit":"kg km","transport_co2_eq":"0.000222","from_stop_id":"13364","from_stop_lat":"35.907757","from_stop_lon":"127.766922","to_stop_id":"13330","to_stop_name":"origin","to_stop_lat":"31.230708","placename":"South Korea","to_stop_lon":"121.472916","to_stop":{"id":"13330","name":"origin","lat":"31.230708","placename":"Shanghai, China","lon":"121.472916"},"from_stop":{"name":"origin","id":"13364","lat":"35.907757","lon":"127.766922","placename":"South Korea"}},{"transport_id":"17","id":"9695","transport_name":"None Selected","transport_description":null,"transport_unit":"kg km","transport_co2_eq":"0.000000","from_stop_id":"13365","from_stop_lat":"-9.189967","from_stop_lon":"-75.015152","to_stop_id":"13330","to_stop_name":"origin","to_stop_lat":"31.230708","placename":"Peru","to_stop_lon":"121.472916","to_stop":{"id":"13330","name":"origin","lat":"31.230708","placename":"Shanghai, China","lon":"121.472916"},"from_stop":{"name":"origin","id":"13365","lat":"-9.189967","lon":"-75.015152","placename":"Peru"}},{"transport_id":"17","id":"9696","transport_name":"None Selected","transport_description":null,"transport_unit":"kg km","transport_co2_eq":"0.000000","from_stop_id":"13366","from_stop_lat":"-26.2325141","from_stop_lon":"27.9651251","to_stop_id":"13330","to_stop_name":"origin","to_stop_lat":"31.230708","placename":"26?1358.56'S 27?5750.34'E","to_stop_lon":"121.472916","to_stop":{"id":"13330","name":"origin","lat":"31.230708","placename":"Shanghai, China","lon":"121.472916"},"from_stop":{"name":"origin","id":"13366","lat":"-26.2325141","lon":"27.9651251","placename":"26?1358.56'S 27?5750.34'E"}},{"transport_id":"17","id":"9697","transport_name":"None Selected","transport_description":null,"transport_unit":"kg km","transport_co2_eq":"0.000000","from_stop_id":"13367","from_stop_lat":"61.52401","from_stop_lon":"105.318756","to_stop_id":"13330","to_stop_name":"origin","to_stop_lat":"31.230708","placename":"Russia","to_stop_lon":"121.472916","to_stop":{"id":"13330","name":"origin","lat":"31.230708","placename":"Shanghai, China","lon":"121.472916"},"from_stop":{"name":"origin","id":"13367","lat":"61.52401","lon":"105.318756","placename":"Russia"}},{"transport_id":"17","id":"9698","transport_name":"None Selected","transport_description":null,"transport_unit":"kg km","transport_co2_eq":"0.000000","from_stop_id":"13368","from_stop_lat":"36.204824","from_stop_lon":"138.252924","to_stop_id":"13330","to_stop_name":"origin","to_stop_lat":"31.230708","placename":"Japan","to_stop_lon":"121.472916","to_stop":{"id":"13330","name":"origin","lat":"31.230708","placename":"Shanghai, China","lon":"121.472916"},"from_stop":{"name":"origin","id":"13368","lat":"36.204824","lon":"138.252924","placename":"Japan"}},{"transport_id":"17","id":"9699","transport_name":"None Selected","transport_description":null,"transport_unit":"kg km","transport_co2_eq":"0.000000","from_stop_id":"13369","from_stop_lat":"9.945587","from_stop_lon":"-9.696645","to_stop_id":"13330","to_stop_name":"origin","to_stop_lat":"31.230708","placename":"Guinea","to_stop_lon":"121.472916","to_stop":{"id":"13330","name":"origin","lat":"31.230708","placename":"Shanghai, China","lon":"121.472916"},"from_stop":{"name":"origin","id":"13369","lat":"9.945587","lon":"-9.696645","placename":"Guinea"}},{"transport_id":"17","id":"9700","transport_name":"None Selected","transport_description":null,"transport_unit":"kg km","transport_co2_eq":"0.000000","from_stop_id":"13370","from_stop_lat":"-35.675147","from_stop_lon":"-71.542969","to_stop_id":"13330","to_stop_name":"origin","to_stop_lat":"31.230708","placename":"Chile","to_stop_lon":"121.472916","to_stop":{"id":"13330","name":"origin","lat":"31.230708","placename":"Shanghai, China","lon":"121.472916"},"from_stop":{"name":"origin","id":"13370","lat":"-35.675147","lon":"-71.542969","placename":"Chile"}},{"transport_id":"17","id":"9701","transport_name":"None Selected","transport_description":null,"transport_unit":"kg km","transport_co2_eq":"0.000000","from_stop_id":"13371","from_stop_lat":"37.09024","from_stop_lon":"-95.712891","to_stop_id":"13330","to_stop_name":"origin","to_stop_lat":"31.230708","placename":"USA","to_stop_lon":"121.472916","to_stop":{"id":"13330","name":"origin","lat":"31.230708","placename":"Shanghai, China","lon":"121.472916"},"from_stop":{"name":"origin","id":"13371","lat":"37.09024","lon":"-95.712891","placename":"USA"}},{"transport_id":"17","id":"9702","transport_name":"None Selected","transport_description":null,"transport_unit":"kg km","transport_co2_eq":"0.000000","from_stop_id":"13372","from_stop_lat":"48.019573","from_stop_lon":"66.923684","to_stop_id":"13330","to_stop_name":"origin","to_stop_lat":"31.230708","placename":"Kazakhstan","to_stop_lon":"121.472916","to_stop":{"id":"13330","name":"origin","lat":"31.230708","placename":"Shanghai, China","lon":"121.472916"},"from_stop":{"name":"origin","id":"13372","lat":"48.019573","lon":"66.923684","placename":"Kazakhstan"}},{"transport_id":"17","id":"9703","transport_name":"None Selected","transport_description":null,"transport_unit":"kg km","transport_co2_eq":"0.000000","from_stop_id":"13373","from_stop_lat":"35.86166","from_stop_lon":"104.195397","to_stop_id":"13330","to_stop_name":"origin","to_stop_lat":"31.230708","placename":"China","to_stop_lon":"121.472916","to_stop":{"id":"13330","name":"origin","lat":"31.230708","placename":"Shanghai, China","lon":"121.472916"},"from_stop":{"name":"origin","id":"13373","lat":"35.86166","lon":"104.195397","placename":"China"}},{"transport_id":"9","id":"9704","transport_name":"container ship","transport_description":"moving boxcar size containers","transport_unit":"kg km","transport_co2_eq":"0.047800","from_stop_id":"13374","from_stop_lat":"35.907757","from_stop_lon":"127.766922","to_stop_id":"13330","to_stop_name":"origin","to_stop_lat":"31.230708","placename":"South Korea","to_stop_lon":"121.472916","to_stop":{"id":"13330","name":"origin","lat":"31.230708","placename":"Shanghai, China","lon":"121.472916"},"from_stop":{"name":"origin","id":"13374","lat":"35.907757","lon":"127.766922","placename":"South Korea"}},{"transport_id":"18","id":"9705","transport_name":"Sea","transport_description":"from the Greenhouse Gas Protocol Initiative - GHG emission from transport or mobile sources calculator 2.0 (jun 2009)","transport_unit":"kg km","transport_co2_eq":"0.000222","from_stop_id":"13375","from_stop_lat":"23.634501","from_stop_lon":"-102.552784","to_stop_id":"13330","to_stop_name":"origin","to_stop_lat":"31.230708","placename":"Mexico","to_stop_lon":"121.472916","to_stop":{"id":"13330","name":"origin","lat":"31.230708","placename":"Shanghai, China","lon":"121.472916"},"from_stop":{"name":"origin","id":"13375","lat":"23.634501","lon":"-102.552784","placename":"Mexico"}},{"transport_id":"18","id":"9706","transport_name":"Sea","transport_description":"from the Greenhouse Gas Protocol Initiative - GHG emission from transport or mobile sources calculator 2.0 (jun 2009)","transport_unit":"kg km","transport_co2_eq":"0.000222","from_stop_id":"13376","from_stop_lat":"-30.559482","from_stop_lon":"22.937506","to_stop_id":"13330","to_stop_name":"origin","to_stop_lat":"31.230708","placename":"South Africa","to_stop_lon":"121.472916","to_stop":{"id":"13330","name":"origin","lat":"31.230708","placename":"Shanghai, China","lon":"121.472916"},"from_stop":{"name":"origin","id":"13376","lat":"-30.559482","lon":"22.937506","placename":"South Africa"}},{"transport_id":"19","id":"9707","transport_name":"Rail","transport_description":"from the Greenhouse Gas Protocol Initiative - GHG emission from transport or mobile sources calculator 2.0 (jun 2009)","transport_unit":"kg km","transport_co2_eq":"0.000017","from_stop_id":"13377","from_stop_lat":"39.9391","from_stop_lon":"71.3403","to_stop_id":"13330","to_stop_name":"origin","to_stop_lat":"31.230708","placename":"Khaidarkan","to_stop_lon":"121.472916","to_stop":{"id":"13330","name":"origin","lat":"31.230708","placename":"Shanghai, China","lon":"121.472916"},"from_stop":{"name":"origin","id":"13377","lat":"39.9391","lon":"71.3403","placename":"Khaidarkan"}},{"transport_id":"17","id":"9708","transport_name":"None Selected","transport_description":null,"transport_unit":"kg km","transport_co2_eq":"0.000000","from_stop_id":"13378","from_stop_lat":"35.86166","from_stop_lon":"104.195397","to_stop_id":"13330","to_stop_name":"origin","to_stop_lat":"31.230708","placename":"China","to_stop_lon":"121.472916","to_stop":{"id":"13330","name":"origin","lat":"31.230708","placename":"Shanghai, China","lon":"121.472916"},"from_stop":{"name":"origin","id":"13378","lat":"35.86166","lon":"104.195397","placename":"China"}},{"transport_id":"8","id":"9709","transport_name":"freighter, oceanic","transport_description":"","transport_unit":"kg km","transport_co2_eq":"0.004200","from_stop_id":"13379","from_stop_lat":"-2.2884782","from_stop_lon":"106.0640179","to_stop_id":"13330","to_stop_name":"origin","to_stop_lat":"31.230708","placename":"Bangka Island, Indonesia","to_stop_lon":"121.472916","to_stop":{"id":"13330","name":"origin","lat":"31.230708","placename":"Shanghai, China","lon":"121.472916"},"from_stop":{"name":"origin","id":"13379","lat":"-2.2884782","lon":"106.0640179","placename":"Bangka Island, Indonesia"}}],"outgoing":[]}}},"parts":[{"oid":"105","imid":"217","linkid":"","weight":"1.01","rawemissions":"1.4","emissions":"1.41","shipping":"1069.2","processemissions":null,"endoflifeemissions":null,"disposaltype":null,"disposalenergy":null,"disposalimpact":null,"disposalemissions":null,"description":"acrylonitrile-butadiene-styrene","name":"ABS, primary","id":"217","stops":{"origin":{"related_to":"217","part_or_object":"p","notes":null,"placename":"Beijing","id":13331,"name":"origin","lat":"39.9081726","lon":"116.3979471","hops":{"incoming":[],"outgoing":[{"transport_id":"20","id":"9661","transport_name":"Road","transport_description":"from the Greenhouse Gas Protocol Initiative - GHG emission from transport or mobile sources calculator 2.0 (jun 2009)","transport_unit":"kg km","transport_co2_eq":"0.000204","from_stop_id":"13331","from_stop_lat":"39.9081726","from_stop_lon":"116.3979471","from_stop_placename":"Beijing","to_stop_id":"13330","to_stop_name":"origin","to_stop_lat":"31.230708","to_stop_lon":"121.472916","to_stop_placename":"Shanghai, China","to_stop":{"id":"13330","name":"origin","lat":"31.230708","lon":"121.472916","placename":"Shanghai, China"},"from_stop":{"name":"origin","id":"13331","lat":"39.9081726","lon":"116.3979471","placename":"Beijing"}}]}}},"processes":[],"eols":[]},{"oid":"105","imid":"310","linkid":"","weight":"0.63","rawemissions":"1.4","emissions":"0.88","shipping":"3570.53","processemissions":null,"endoflifeemissions":null,"disposaltype":null,"disposalenergy":null,"disposalimpact":null,"disposalemissions":null,"description":"low alloy steel, virgin","name":"steel, primary","id":"310","stops":{"origin":{"related_to":"310","part_or_object":"p","notes":null,"placename":"Russian Federation","id":13332,"name":"origin","lat":"61.52401","lon":"105.318756","hops":{"incoming":[],"outgoing":[{"transport_id":"20","id":"9662","transport_name":"Road","transport_description":"from the Greenhouse Gas Protocol Initiative - GHG emission from transport or mobile sources calculator 2.0 (jun 2009)","transport_unit":"kg km","transport_co2_eq":"0.000204","from_stop_id":"13332","from_stop_lat":"61.52401","from_stop_lon":"105.318756","from_stop_placename":"Russian Federation","to_stop_id":"13330","to_stop_name":"origin","to_stop_lat":"31.230708","to_stop_lon":"121.472916","to_stop_placename":"Shanghai, China","to_stop":{"id":"13330","name":"origin","lat":"31.230708","lon":"121.472916","placename":"Shanghai, China"},"from_stop":{"name":"origin","id":"13332","lat":"61.52401","lon":"105.318756","placename":"Russian Federation"}}]}}},"processes":[],"eols":[]},{"oid":"105","imid":"311","linkid":"","weight":"0.41","rawemissions":"1.2","emissions":"0.49","shipping":"18605.95","processemissions":null,"endoflifeemissions":null,"disposaltype":null,"disposalenergy":null,"disposalimpact":null,"disposalemissions":null,"description":"","name":"copper, primary","id":"311","stops":{"origin":{"related_to":"311","part_or_object":"p","notes":null,"placename":"Chuquicamata, Chile","id":13333,"name":"origin","lat":"-22.31514","lon":"-68.929031","hops":{"incoming":[],"outgoing":[{"transport_id":"18","id":"9663","transport_name":"Sea","transport_description":"from the Greenhouse Gas Protocol Initiative - GHG emission from transport or mobile sources calculator 2.0 (jun 2009)","transport_unit":"kg km","transport_co2_eq":"0.000222","from_stop_id":"13333","from_stop_lat":"-22.31514","from_stop_lon":"-68.929031","from_stop_placename":"Chuquicamata, Chile","to_stop_id":"13330","to_stop_name":"origin","to_stop_lat":"31.230708","to_stop_lon":"121.472916","to_stop_placename":"Shanghai, China","to_stop":{"id":"13330","name":"origin","lat":"31.230708","lon":"121.472916","placename":"Shanghai, China"},"from_stop":{"name":"origin","id":"13333","lat":"-22.31514","lon":"-68.929031","placename":"Chuquicamata, Chile"}}]}}},"processes":[],"eols":[]},{"oid":"105","imid":"314","linkid":"","weight":"0.16","rawemissions":"11","emissions":"1.76","shipping":"6424.98","processemissions":null,"endoflifeemissions":null,"disposaltype":null,"disposalenergy":null,"disposalimpact":null,"disposalemissions":null,"description":"","name":"nickel","id":"314","stops":{"origin":{"related_to":"314","part_or_object":"p","notes":null,"placename":"Australia","id":13335,"name":"origin","lat":"-25.274398","lon":"133.775136","hops":{"incoming":[],"outgoing":[{"transport_id":"18","id":"9665","transport_name":"Sea","transport_description":"from the Greenhouse Gas Protocol Initiative - GHG emission from transport or mobile sources calculator 2.0 (jun 2009)","transport_unit":"kg km","transport_co2_eq":"0.000222","from_stop_id":"13335","from_stop_lat":"-25.274398","from_stop_lon":"133.775136","from_stop_placename":"Australia","to_stop_id":"13330","to_stop_name":"origin","to_stop_lat":"31.230708","to_stop_lon":"121.472916","to_stop_placename":"Shanghai, China","to_stop":{"id":"13330","name":"origin","lat":"31.230708","lon":"121.472916","placename":"Shanghai, China"},"from_stop":{"name":"origin","id":"13335","lat":"-25.274398","lon":"133.775136","placename":"Australia"}}]}}},"processes":[],"eols":[]},{"oid":"105","imid":"315","linkid":"","weight":"0.15","rawemissions":"5.2","emissions":"0.78","shipping":"9312.4","processemissions":null,"endoflifeemissions":null,"disposaltype":null,"disposalenergy":null,"disposalimpact":null,"disposalemissions":null,"description":"forom bauxite, virgin","name":"aluminum, primary","id":"315","stops":{"origin":{"related_to":"315","part_or_object":"p","notes":null,"placename":"Canada","id":13336,"name":"origin","lat":"56.130366","lon":"-106.346771","hops":{"incoming":[],"outgoing":[{"transport_id":"18","id":"9666","transport_name":"Sea","transport_description":"from the Greenhouse Gas Protocol Initiative - GHG emission from transport or mobile sources calculator 2.0 (jun 2009)","transport_unit":"kg km","transport_co2_eq":"0.000222","from_stop_id":"13336","from_stop_lat":"56.130366","from_stop_lon":"-106.346771","from_stop_placename":"Canada","to_stop_id":"13330","to_stop_name":"origin","to_stop_lat":"31.230708","to_stop_lon":"121.472916","to_stop_placename":"Shanghai, China","to_stop":{"id":"13330","name":"origin","lat":"31.230708","lon":"121.472916","placename":"Shanghai, China"},"from_stop":{"name":"origin","id":"13336","lat":"56.130366","lon":"-106.346771","placename":"Canada"}}]}}},"processes":[],"eols":[]},{"oid":"105","imid":"316","linkid":"","weight":"0.15","rawemissions":"0.5","emissions":"0.08","shipping":"0","processemissions":null,"endoflifeemissions":null,"disposaltype":null,"disposalenergy":null,"disposalimpact":null,"disposalemissions":null,"description":"with epichlorohydrin, bisphenol A","name":"Epoxy resin","id":"316","stops":{"origin":{"related_to":"316","part_or_object":"p","notes":null,"placename":"Shanghai, China","id":13337,"name":"origin","lat":"31.230708","lon":"121.472916","hops":{"incoming":[],"outgoing":[{"transport_id":"20","id":"9667","transport_name":"Road","transport_description":"from the Greenhouse Gas Protocol Initiative - GHG emission from transport or mobile sources calculator 2.0 (jun 2009)","transport_unit":"kg km","transport_co2_eq":"0.000204","from_stop_id":"13337","from_stop_lat":"31.230708","from_stop_lon":"121.472916","from_stop_placename":"Shanghai, China","to_stop_id":"13330","to_stop_name":"origin","to_stop_lat":"31.230708","to_stop_lon":"121.472916","to_stop_placename":"Shanghai, China","to_stop":{"id":"13330","name":"origin","lat":"31.230708","lon":"121.472916","placename":"Shanghai, China"},"from_stop":{"name":"origin","id":"13337","lat":"31.230708","lon":"121.472916","placename":"Shanghai, China"}}]}}},"processes":[],"eols":[]},{"oid":"105","imid":"313","linkid":"","weight":"0.17","rawemissions":"2.5","emissions":"0.43","shipping":"1681.09","processemissions":null,"endoflifeemissions":null,"disposaltype":null,"disposalenergy":null,"disposalimpact":null,"disposalemissions":null,"description":"polymethyl methacrylate (acrylic)","name":"PMMA, primary","id":"313","stops":{"origin":{"related_to":"313","part_or_object":"p","notes":null,"placename":"China","id":13334,"name":"origin","lat":"35.86166","lon":"104.195397","hops":{"incoming":[],"outgoing":[{"transport_id":"19","id":"9664","transport_name":"Rail","transport_description":"from the Greenhouse Gas Protocol Initiative - GHG emission from transport or mobile sources calculator 2.0 (jun 2009)","transport_unit":"kg km","transport_co2_eq":"0.000017","from_stop_id":"13334","from_stop_lat":"35.86166","from_stop_lon":"104.195397","from_stop_placename":"China","to_stop_id":"13330","to_stop_name":"origin","to_stop_lat":"31.230708","to_stop_lon":"121.472916","to_stop_placename":"Shanghai, China","to_stop":{"id":"13330","name":"origin","lat":"31.230708","lon":"121.472916","placename":"Shanghai, China"},"from_stop":{"name":"origin","id":"13334","lat":"35.86166","lon":"104.195397","placename":"China"}}]}}},"processes":[],"eols":[]},{"oid":"105","imid":"468","linkid":"","weight":"0.0001","rawemissions":"20000","emissions":"2","shipping":"9312.4","processemissions":null,"endoflifeemissions":null,"disposaltype":null,"disposalenergy":null,"disposalimpact":null,"disposalemissions":null,"description":"","name":"Europium","id":"468","stops":{"origin":{"related_to":"468","part_or_object":"p","notes":null,"placename":"Canada","id":13338,"name":"origin","lat":"56.130366","lon":"-106.346771","hops":{"incoming":[],"outgoing":[{"transport_id":"17","id":"9668","transport_name":"None Selected","transport_description":null,"transport_unit":"kg km","transport_co2_eq":"0.000000","from_stop_id":"13338","from_stop_lat":"56.130366","from_stop_lon":"-106.346771","from_stop_placename":"Canada","to_stop_id":"13330","to_stop_name":"origin","to_stop_lat":"31.230708","to_stop_lon":"121.472916","to_stop_placename":"Shanghai, China","to_stop":{"id":"13330","name":"origin","lat":"31.230708","lon":"121.472916","placename":"Shanghai, China"},"from_stop":{"name":"origin","id":"13338","lat":"56.130366","lon":"-106.346771","placename":"Canada"}}]}}},"processes":[],"eols":[]},{"oid":"105","imid":"469","linkid":"","weight":"0.0001","rawemissions":"20000","emissions":"2","shipping":"18261.38","processemissions":null,"endoflifeemissions":null,"disposaltype":null,"disposalenergy":null,"disposalimpact":null,"disposalemissions":null,"description":"","name":"Niobium","id":"469","stops":{"origin":{"related_to":"469","part_or_object":"p","notes":null,"placename":"Rio de Janeiro","id":13339,"name":"origin","lat":"-22.9035393","lon":"-43.2095869","hops":{"incoming":[],"outgoing":[{"transport_id":"17","id":"9669","transport_name":"None Selected","transport_description":null,"transport_unit":"kg km","transport_co2_eq":"0.000000","from_stop_id":"13339","from_stop_lat":"-22.9035393","from_stop_lon":"-43.2095869","from_stop_placename":"Rio de Janeiro","to_stop_id":"13330","to_stop_name":"origin","to_stop_lat":"31.230708","to_stop_lon":"121.472916","to_stop_placename":"Shanghai, China","to_stop":{"id":"13330","name":"origin","lat":"31.230708","lon":"121.472916","placename":"Shanghai, China"},"from_stop":{"name":"origin","id":"13339","lat":"-22.9035393","lon":"-43.2095869","placename":"Rio de Janeiro"}}]}}},"processes":[],"eols":[]},{"oid":"105","imid":"470","linkid":"","weight":"0.0001","rawemissions":"20000","emissions":"2","shipping":"1681.09","processemissions":null,"endoflifeemissions":null,"disposaltype":null,"disposalenergy":null,"disposalimpact":null,"disposalemissions":null,"description":"","name":"Yttrium","id":"470","stops":{"origin":{"related_to":"470","part_or_object":"p","notes":null,"placename":"China","id":13340,"name":"origin","lat":"35.86166","lon":"104.195397","hops":{"incoming":[],"outgoing":[{"transport_id":"17","id":"9670","transport_name":"None Selected","transport_description":null,"transport_unit":"kg km","transport_co2_eq":"0.000000","from_stop_id":"13340","from_stop_lat":"35.86166","from_stop_lon":"104.195397","from_stop_placename":"China","to_stop_id":"13330","to_stop_name":"origin","to_stop_lat":"31.230708","to_stop_lon":"121.472916","to_stop_placename":"Shanghai, China","to_stop":{"id":"13330","name":"origin","lat":"31.230708","lon":"121.472916","placename":"Shanghai, China"},"from_stop":{"name":"origin","id":"13340","lat":"35.86166","lon":"104.195397","placename":"China"}}]}}},"processes":[],"eols":[]},{"oid":"105","imid":"471","linkid":"","weight":"0.0002","rawemissions":"8800","emissions":"1.76","shipping":"12456.04","processemissions":null,"endoflifeemissions":null,"disposaltype":null,"disposalenergy":null,"disposalimpact":null,"disposalemissions":null,"description":"Virgin platinum used as a fuel cell system catalyst","name":"Platinum virgin","id":"471","stops":{"origin":{"related_to":"471","part_or_object":"p","notes":null,"placename":"South Africa","id":13341,"name":"origin","lat":"-30.559482","lon":"22.937506","hops":{"incoming":[],"outgoing":[{"transport_id":"8","id":"9671","transport_name":"freighter, oceanic","transport_description":"","transport_unit":"kg km","transport_co2_eq":"0.004200","from_stop_id":"13341","from_stop_lat":"-30.559482","from_stop_lon":"22.937506","from_stop_placename":"South Africa","to_stop_id":"13330","to_stop_name":"origin","to_stop_lat":"31.230708","to_stop_lon":"121.472916","to_stop_placename":"Shanghai, China","to_stop":{"id":"13330","name":"origin","lat":"31.230708","lon":"121.472916","placename":"Shanghai, China"},"from_stop":{"name":"origin","id":"13341","lat":"-30.559482","lon":"22.937506","placename":"South Africa"}}]}}},"processes":[],"eols":[]},{"oid":"105","imid":"603","linkid":"","weight":"0.0001","rawemissions":"19000","emissions":"1.9","shipping":"1681.09","processemissions":null,"endoflifeemissions":null,"disposaltype":null,"disposalenergy":null,"disposalimpact":null,"disposalemissions":null,"description":"Virgin rhodium used for fuel cell catalyst","name":"Rhodium virgin","id":"603","stops":{"origin":{"related_to":"603","part_or_object":"p","notes":null,"placename":"China","id":13342,"name":"origin","lat":"35.86166","lon":"104.195397","hops":{"incoming":[],"outgoing":[{"transport_id":"17","id":"9672","transport_name":"None Selected","transport_description":null,"transport_unit":"kg km","transport_co2_eq":"0.000000","from_stop_id":"13342","from_stop_lat":"35.86166","from_stop_lon":"104.195397","from_stop_placename":"China","to_stop_id":"13330","to_stop_name":"origin","to_stop_lat":"31.230708","to_stop_lon":"121.472916","to_stop_placename":"Shanghai, China","to_stop":{"id":"13330","name":"origin","lat":"31.230708","lon":"121.472916","placename":"Shanghai, China"},"from_stop":{"name":"origin","id":"13342","lat":"35.86166","lon":"104.195397","placename":"China"}}]}}},"processes":[],"eols":[]},{"oid":"105","imid":"317","linkid":"","weight":"0.13","rawemissions":"0.89","emissions":"0.12","shipping":"1213.22","processemissions":null,"endoflifeemissions":null,"disposaltype":null,"disposalenergy":null,"disposalimpact":null,"disposalemissions":null,"description":"rigid polyvinylidene chloride, primary","name":"PVC rigid, primary","id":"317","stops":{"origin":{"related_to":"317","part_or_object":"p","notes":null,"placename":"Guangzhou, Guangdong, China","id":13343,"name":"origin","lat":"23.129075","lon":"113.264423","hops":{"incoming":[],"outgoing":[{"transport_id":"20","id":"9673","transport_name":"Road","transport_description":"from the Greenhouse Gas Protocol Initiative - GHG emission from transport or mobile sources calculator 2.0 (jun 2009)","transport_unit":"kg km","transport_co2_eq":"0.000204","from_stop_id":"13343","from_stop_lat":"23.129075","from_stop_lon":"113.264423","from_stop_placename":"Guangzhou, Guangdong, China","to_stop_id":"13330","to_stop_name":"origin","to_stop_lat":"31.230708","to_stop_lon":"121.472916","to_stop_placename":"Shanghai, China","to_stop":{"id":"13330","name":"origin","lat":"31.230708","lon":"121.472916","placename":"Shanghai, China"},"from_stop":{"name":"origin","id":"13343","lat":"23.129075","lon":"113.264423","placename":"Guangzhou, Guangdong, China"}}]}}},"processes":[],"eols":[]},{"oid":"105","imid":"318","linkid":"","weight":"0.08","rawemissions":"2.3","emissions":"0.18","shipping":"7436.62","processemissions":null,"endoflifeemissions":null,"disposaltype":null,"disposalenergy":null,"disposalimpact":null,"disposalemissions":null,"description":"polycarbonate (plexiglass)","name":"PC, primary","id":"318","stops":{"origin":{"related_to":"318","part_or_object":"p","notes":null,"placename":"Saudi Arabia","id":13344,"name":"origin","lat":"23.885942","lon":"45.079162","hops":{"incoming":[],"outgoing":[{"transport_id":"19","id":"9674","transport_name":"Rail","transport_description":"from the Greenhouse Gas Protocol Initiative - GHG emission from transport or mobile sources calculator 2.0 (jun 2009)","transport_unit":"kg km","transport_co2_eq":"0.000017","from_stop_id":"13344","from_stop_lat":"23.885942","from_stop_lon":"45.079162","from_stop_placename":"Saudi Arabia","to_stop_id":"13330","to_stop_name":"origin","to_stop_lat":"31.230708","to_stop_lon":"121.472916","to_stop_placename":"Shanghai, China","to_stop":{"id":"13330","name":"origin","lat":"31.230708","lon":"121.472916","placename":"Shanghai, China"},"from_stop":{"name":"origin","id":"13344","lat":"23.885942","lon":"45.079162","placename":"Saudi Arabia"}}]}}},"processes":[],"eols":[]},{"oid":"105","imid":"319","linkid":"","weight":"0.08","rawemissions":"0","emissions":"0","shipping":"12456.04","processemissions":null,"endoflifeemissions":null,"disposaltype":null,"disposalenergy":null,"disposalimpact":null,"disposalemissions":null,"description":"Part Description","name":"cadmium","id":"319","stops":{"origin":{"related_to":"319","part_or_object":"p","notes":null,"placename":"South Africa","id":13345,"name":"origin","lat":"-30.559482","lon":"22.937506","hops":{"incoming":[],"outgoing":[{"transport_id":"18","id":"9675","transport_name":"Sea","transport_description":"from the Greenhouse Gas Protocol Initiative - GHG emission from transport or mobile sources calculator 2.0 (jun 2009)","transport_unit":"kg km","transport_co2_eq":"0.000222","from_stop_id":"13345","from_stop_lat":"-30.559482","from_stop_lon":"22.937506","from_stop_placename":"South Africa","to_stop_id":"13330","to_stop_name":"origin","to_stop_lat":"31.230708","to_stop_lon":"121.472916","to_stop_placename":"Shanghai, China","to_stop":{"id":"13330","name":"origin","lat":"31.230708","lon":"121.472916","placename":"Shanghai, China"},"from_stop":{"name":"origin","id":"13345","lat":"-30.559482","lon":"22.937506","placename":"South Africa"}}]}}},"processes":[],"eols":[]},{"oid":"105","imid":"320","linkid":"","weight":"0.07","rawemissions":"0","emissions":"0","shipping":"3570.53","processemissions":null,"endoflifeemissions":null,"disposaltype":null,"disposalenergy":null,"disposalimpact":null,"disposalemissions":null,"description":"Part Description","name":"ferrite","id":"320","stops":{"origin":{"related_to":"320","part_or_object":"p","notes":null,"placename":"Russian Federation","id":13346,"name":"origin","lat":"61.52401","lon":"105.318756","hops":{"incoming":[],"outgoing":[{"transport_id":"19","id":"9676","transport_name":"Rail","transport_description":"from the Greenhouse Gas Protocol Initiative - GHG emission from transport or mobile sources calculator 2.0 (jun 2009)","transport_unit":"kg km","transport_co2_eq":"0.000017","from_stop_id":"13346","from_stop_lat":"61.52401","from_stop_lon":"105.318756","from_stop_placename":"Russian Federation","to_stop_id":"13330","to_stop_name":"origin","to_stop_lat":"31.230708","to_stop_lon":"121.472916","to_stop_placename":"Shanghai, China","to_stop":{"id":"13330","name":"origin","lat":"31.230708","lon":"121.472916","placename":"Shanghai, China"},"from_stop":{"name":"origin","id":"13346","lat":"61.52401","lon":"105.318756","placename":"Russian Federation"}}]}}},"processes":[],"eols":[]},{"oid":"105","imid":"321","linkid":"","weight":"0.07","rawemissions":"0","emissions":"0","shipping":"1219.72","processemissions":null,"endoflifeemissions":null,"disposaltype":null,"disposalenergy":null,"disposalimpact":null,"disposalemissions":null,"description":"Part Description","name":"polyoxymethylene","id":"321","stops":{"origin":{"related_to":"321","part_or_object":"p","notes":null,"placename":"Xi'an, Shaanxi, China","id":13347,"name":"origin","lat":"34.26488","lon":"108.944265","hops":{"incoming":[],"outgoing":[{"transport_id":"19","id":"9677","transport_name":"Rail","transport_description":"from the Greenhouse Gas Protocol Initiative - GHG emission from transport or mobile sources calculator 2.0 (jun 2009)","transport_unit":"kg km","transport_co2_eq":"0.000017","from_stop_id":"13347","from_stop_lat":"34.26488","from_stop_lon":"108.944265","from_stop_placename":"Xi'an, Shaanxi, China","to_stop_id":"13330","to_stop_name":"origin","to_stop_lat":"31.230708","to_stop_lon":"121.472916","to_stop_placename":"Shanghai, China","to_stop":{"id":"13330","name":"origin","lat":"31.230708","lon":"121.472916","placename":"Shanghai, China"},"from_stop":{"name":"origin","id":"13347","lat":"34.26488","lon":"108.944265","placename":"Xi'an, Shaanxi, China"}}]}}},"processes":[],"eols":[]},{"oid":"105","imid":"322","linkid":"","weight":"0.04","rawemissions":"2.2","emissions":"0.09","shipping":"1364.5","processemissions":null,"endoflifeemissions":null,"disposaltype":null,"disposalenergy":null,"disposalimpact":null,"disposalemissions":null,"description":"virgin 18\/8, superaustenitic","name":"steel, stainless prim.","id":"322","stops":{"origin":{"related_to":"322","part_or_object":"p","notes":null,"placename":"?saka City, ?saka Prefecture, Japan","id":13348,"name":"origin","lat":"34.6937378","lon":"135.5021651","hops":{"incoming":[],"outgoing":[{"transport_id":"20","id":"9678","transport_name":"Road","transport_description":"from the Greenhouse Gas Protocol Initiative - GHG emission from transport or mobile sources calculator 2.0 (jun 2009)","transport_unit":"kg km","transport_co2_eq":"0.000204","from_stop_id":"13348","from_stop_lat":"34.6937378","from_stop_lon":"135.5021651","from_stop_placename":"?saka City, ?saka Prefecture, Japan","to_stop_id":"13330","to_stop_name":"origin","to_stop_lat":"31.230708","to_stop_lon":"121.472916","to_stop_placename":"Shanghai, China","to_stop":{"id":"13330","name":"origin","lat":"31.230708","lon":"121.472916","placename":"Shanghai, China"},"from_stop":{"name":"origin","id":"13348","lat":"34.6937378","lon":"135.5021651","placename":"?saka City, ?saka Prefecture, Japan"}}]}}},"processes":[],"eols":[]},{"oid":"105","imid":"323","linkid":"","weight":"0.03","rawemissions":"0.84","emissions":"0.03","shipping":"1214.59","processemissions":null,"endoflifeemissions":null,"disposaltype":null,"disposalenergy":null,"disposalimpact":null,"disposalemissions":null,"description":"polypropylene, virgin","name":"PP, primary","id":"323","stops":{"origin":{"related_to":"323","part_or_object":"p","notes":null,"placename":"Shenzhen, Guangdong, China","id":13349,"name":"origin","lat":"22.543447","lon":"114.057818","hops":{"incoming":[],"outgoing":[{"transport_id":"20","id":"9679","transport_name":"Road","transport_description":"from the Greenhouse Gas Protocol Initiative - GHG emission from transport or mobile sources calculator 2.0 (jun 2009)","transport_unit":"kg km","transport_co2_eq":"0.000204","from_stop_id":"13349","from_stop_lat":"22.543447","from_stop_lon":"114.057818","from_stop_placename":"Shenzhen, Guangdong, China","to_stop_id":"13330","to_stop_name":"origin","to_stop_lat":"31.230708","to_stop_lon":"121.472916","to_stop_placename":"Shanghai, China","to_stop":{"id":"13330","name":"origin","lat":"31.230708","lon":"121.472916","placename":"Shanghai, China"},"from_stop":{"name":"origin","id":"13349","lat":"22.543447","lon":"114.057818","placename":"Shenzhen, Guangdong, China"}}]}}},"processes":[],"eols":[]},{"oid":"105","imid":"324","linkid":"","weight":"0.02","rawemissions":"1.2","emissions":"0.02","shipping":"1068.46","processemissions":null,"endoflifeemissions":null,"disposaltype":null,"disposalenergy":null,"disposalimpact":null,"disposalemissions":null,"description":"styrene butadiene","name":"SBR elastomer","id":"324","stops":{"origin":{"related_to":"324","part_or_object":"p","notes":null,"placename":"Beijing, China","id":13350,"name":"origin","lat":"39.904667","lon":"116.408198","hops":{"incoming":[],"outgoing":[{"transport_id":"18","id":"9680","transport_name":"Sea","transport_description":"from the Greenhouse Gas Protocol Initiative - GHG emission from transport or mobile sources calculator 2.0 (jun 2009)","transport_unit":"kg km","transport_co2_eq":"0.000222","from_stop_id":"13350","from_stop_lat":"39.904667","from_stop_lon":"116.408198","from_stop_placename":"Beijing, China","to_stop_id":"13330","to_stop_name":"origin","to_stop_lat":"31.230708","to_stop_lon":"121.472916","to_stop_placename":"Shanghai, China","to_stop":{"id":"13330","name":"origin","lat":"31.230708","lon":"121.472916","placename":"Shanghai, China"},"from_stop":{"name":"origin","id":"13350","lat":"39.904667","lon":"116.408198","placename":"Beijing, China"}}]}}},"processes":[],"eols":[]},{"oid":"105","imid":"326","linkid":"","weight":"0.02","rawemissions":"0","emissions":"0","shipping":"18029.1","processemissions":null,"endoflifeemissions":null,"disposaltype":null,"disposalenergy":null,"disposalimpact":null,"disposalemissions":null,"description":"Part Description","name":"silicon","id":"326","stops":{"origin":{"related_to":"326","part_or_object":"p","notes":null,"placename":"Brazil","id":13351,"name":"origin","lat":"-14.235004","lon":"-51.92528","hops":{"incoming":[],"outgoing":[{"transport_id":"18","id":"9681","transport_name":"Sea","transport_description":"from the Greenhouse Gas Protocol Initiative - GHG emission from transport or mobile sources calculator 2.0 (jun 2009)","transport_unit":"kg km","transport_co2_eq":"0.000222","from_stop_id":"13351","from_stop_lat":"-14.235004","from_stop_lon":"-51.92528","from_stop_placename":"Brazil","to_stop_id":"13330","to_stop_name":"origin","to_stop_lat":"31.230708","to_stop_lon":"121.472916","to_stop_placename":"Shanghai, China","to_stop":{"id":"13330","name":"origin","lat":"31.230708","lon":"121.472916","placename":"Shanghai, China"},"from_stop":{"name":"origin","id":"13351","lat":"-14.235004","lon":"-51.92528","placename":"Brazil"}}]}}},"processes":[],"eols":[]},{"oid":"105","imid":"327","linkid":"","weight":"0.01","rawemissions":"1.1","emissions":"0.01","shipping":"1681.09","processemissions":null,"endoflifeemissions":null,"disposaltype":null,"disposalenergy":null,"disposalimpact":null,"disposalemissions":null,"description":"polyethylene terephthalate, virgin","name":"PET, primary","id":"327","stops":{"origin":{"related_to":"327","part_or_object":"p","notes":null,"placename":"china","id":13352,"name":"origin","lat":"35.86166","lon":"104.195397","hops":{"incoming":[],"outgoing":[{"transport_id":"19","id":"9682","transport_name":"Rail","transport_description":"from the Greenhouse Gas Protocol Initiative - GHG emission from transport or mobile sources calculator 2.0 (jun 2009)","transport_unit":"kg km","transport_co2_eq":"0.000017","from_stop_id":"13352","from_stop_lat":"35.86166","from_stop_lon":"104.195397","from_stop_placename":"china","to_stop_id":"13330","to_stop_name":"origin","to_stop_lat":"31.230708","to_stop_lon":"121.472916","to_stop_placename":"Shanghai, China","to_stop":{"id":"13330","name":"origin","lat":"31.230708","lon":"121.472916","placename":"Shanghai, China"},"from_stop":{"name":"origin","id":"13352","lat":"35.86166","lon":"104.195397","placename":"china"}}]}}},"processes":[],"eols":[]},{"oid":"105","imid":"332","linkid":"","weight":"0.01","rawemissions":"0.67","emissions":"0.01","shipping":"6095.77","processemissions":null,"endoflifeemissions":null,"disposaltype":null,"disposalenergy":null,"disposalimpact":null,"disposalemissions":null,"description":"human health  carcinogenicity","name":"lead","id":"332","stops":{"origin":{"related_to":"332","part_or_object":"p","notes":null,"placename":" 20\u00b04256.23'S 139\u00b02838.94'E","id":13353,"name":"origin","lat":"-20.726631","lon":"139.494307","hops":{"incoming":[],"outgoing":[{"transport_id":"18","id":"9683","transport_name":"Sea","transport_description":"from the Greenhouse Gas Protocol Initiative - GHG emission from transport or mobile sources calculator 2.0 (jun 2009)","transport_unit":"kg km","transport_co2_eq":"0.000222","from_stop_id":"13353","from_stop_lat":"-20.726631","from_stop_lon":"139.494307","from_stop_placename":" 20\u00b04256.23'S 139\u00b02838.94'E","to_stop_id":"13330","to_stop_name":"origin","to_stop_lat":"31.230708","to_stop_lon":"121.472916","to_stop_placename":"Shanghai, China","to_stop":{"id":"13330","name":"origin","lat":"31.230708","lon":"121.472916","placename":"Shanghai, China"},"from_stop":{"name":"origin","id":"13353","lat":"-20.726631","lon":"139.494307","placename":" 20\u00b04256.23'S 139\u00b02838.94'E"}}]}}},"processes":[],"eols":[]},{"oid":"105","imid":"446","linkid":"","weight":"0.2","rawemissions":"500","emissions":"100","shipping":"11313.67","processemissions":null,"endoflifeemissions":null,"disposaltype":null,"disposalenergy":null,"disposalimpact":null,"disposalemissions":null,"description":"","name":"Lithium","id":"446","stops":{"origin":{"related_to":"446","part_or_object":"p","notes":null,"placename":"Zimbabwe","id":13354,"name":"origin","lat":"-19.015438","lon":"29.154857","hops":{"incoming":[],"outgoing":[{"transport_id":"18","id":"9684","transport_name":"Sea","transport_description":"from the Greenhouse Gas Protocol Initiative - GHG emission from transport or mobile sources calculator 2.0 (jun 2009)","transport_unit":"kg km","transport_co2_eq":"0.000222","from_stop_id":"13354","from_stop_lat":"-19.015438","from_stop_lon":"29.154857","from_stop_placename":"Zimbabwe","to_stop_id":"13330","to_stop_name":"origin","to_stop_lat":"31.230708","to_stop_lon":"121.472916","to_stop_placename":"Shanghai, China","to_stop":{"id":"13330","name":"origin","lat":"31.230708","lon":"121.472916","placename":"Shanghai, China"},"from_stop":{"name":"origin","id":"13354","lat":"-19.015438","lon":"29.154857","placename":"Zimbabwe"}}]}}},"processes":[],"eols":[]},{"oid":"105","imid":"445","linkid":"","weight":"0.001","rawemissions":"32","emissions":"0.03","shipping":"1681.09","processemissions":null,"endoflifeemissions":null,"disposaltype":null,"disposalenergy":null,"disposalimpact":null,"disposalemissions":null,"description":"Magnesium is often mined from the ocean floor","name":"Magnesium","id":"445","stops":{"origin":{"related_to":"445","part_or_object":"p","notes":null,"placename":"China","id":13355,"name":"origin","lat":"35.86166","lon":"104.195397","hops":{"incoming":[],"outgoing":[{"transport_id":"18","id":"9685","transport_name":"Sea","transport_description":"from the Greenhouse Gas Protocol Initiative - GHG emission from transport or mobile sources calculator 2.0 (jun 2009)","transport_unit":"kg km","transport_co2_eq":"0.000222","from_stop_id":"13355","from_stop_lat":"35.86166","from_stop_lon":"104.195397","from_stop_placename":"China","to_stop_id":"13330","to_stop_name":"origin","to_stop_lat":"31.230708","to_stop_lon":"121.472916","to_stop_placename":"Shanghai, China","to_stop":{"id":"13330","name":"origin","lat":"31.230708","lon":"121.472916","placename":"Shanghai, China"},"from_stop":{"name":"origin","id":"13355","lat":"35.86166","lon":"104.195397","placename":"China"}}]}}},"processes":[],"eols":[]},{"oid":"105","imid":"447","linkid":"","weight":"0.001","rawemissions":"0","emissions":"0","shipping":"4389.07","processemissions":null,"endoflifeemissions":null,"disposaltype":null,"disposalenergy":null,"disposalimpact":null,"disposalemissions":null,"description":"","name":"Barium","id":"447","stops":{"origin":{"related_to":"447","part_or_object":"p","notes":null,"placename":"India","id":13356,"name":"origin","lat":"20.593684","lon":"78.96288","hops":{"incoming":[],"outgoing":[{"transport_id":"17","id":"9686","transport_name":"None Selected","transport_description":null,"transport_unit":"kg km","transport_co2_eq":"0.000000","from_stop_id":"13356","from_stop_lat":"20.593684","from_stop_lon":"78.96288","from_stop_placename":"India","to_stop_id":"13330","to_stop_name":"origin","to_stop_lat":"31.230708","to_stop_lon":"121.472916","to_stop_placename":"Shanghai, China","to_stop":{"id":"13330","name":"origin","lat":"31.230708","lon":"121.472916","placename":"Shanghai, China"},"from_stop":{"name":"origin","id":"13356","lat":"20.593684","lon":"78.96288","placename":"India"}}]}}},"processes":[],"eols":[]},{"oid":"105","imid":"448","linkid":"","weight":"0.001","rawemissions":"0","emissions":"0","shipping":"12456.04","processemissions":null,"endoflifeemissions":null,"disposaltype":null,"disposalenergy":null,"disposalimpact":null,"disposalemissions":null,"description":"","name":"Manganese","id":"448","stops":{"origin":{"related_to":"448","part_or_object":"p","notes":null,"placename":"South Africa","id":13357,"name":"origin","lat":"-30.559482","lon":"22.937506","hops":{"incoming":[],"outgoing":[{"transport_id":"18","id":"9687","transport_name":"Sea","transport_description":"from the Greenhouse Gas Protocol Initiative - GHG emission from transport or mobile sources calculator 2.0 (jun 2009)","transport_unit":"kg km","transport_co2_eq":"0.000222","from_stop_id":"13357","from_stop_lat":"-30.559482","from_stop_lon":"22.937506","from_stop_placename":"South Africa","to_stop_id":"13330","to_stop_name":"origin","to_stop_lat":"31.230708","to_stop_lon":"121.472916","to_stop_placename":"Shanghai, China","to_stop":{"id":"13330","name":"origin","lat":"31.230708","lon":"121.472916","placename":"Shanghai, China"},"from_stop":{"name":"origin","id":"13357","lat":"-30.559482","lon":"22.937506","placename":"South Africa"}}]}}},"processes":[],"eols":[]},{"oid":"105","imid":"449","linkid":"","weight":"0.001","rawemissions":"4100","emissions":"4.1","shipping":"17048.78","processemissions":null,"endoflifeemissions":null,"disposaltype":null,"disposalenergy":null,"disposalimpact":null,"disposalemissions":null,"description":"","name":"Silver virgin","id":"449","stops":{"origin":{"related_to":"449","part_or_object":"p","notes":null,"placename":"Peru","id":13358,"name":"origin","lat":"-9.189967","lon":"-75.015152","hops":{"incoming":[],"outgoing":[{"transport_id":"18","id":"9688","transport_name":"Sea","transport_description":"from the Greenhouse Gas Protocol Initiative - GHG emission from transport or mobile sources calculator 2.0 (jun 2009)","transport_unit":"kg km","transport_co2_eq":"0.000222","from_stop_id":"13358","from_stop_lat":"-9.189967","from_stop_lon":"-75.015152","from_stop_placename":"Peru","to_stop_id":"13330","to_stop_name":"origin","to_stop_lat":"31.230708","to_stop_lon":"121.472916","to_stop_placename":"Shanghai, China","to_stop":{"id":"13330","name":"origin","lat":"31.230708","lon":"121.472916","placename":"Shanghai, China"},"from_stop":{"name":"origin","id":"13358","lat":"-9.189967","lon":"-75.015152","placename":"Peru"}}]}}},"processes":[],"eols":[]},{"oid":"105","imid":"450","linkid":"","weight":"0.001","rawemissions":"0","emissions":"0","shipping":"17206.08","processemissions":null,"endoflifeemissions":null,"disposaltype":null,"disposalenergy":null,"disposalimpact":null,"disposalemissions":null,"description":"","name":"Tantalum","id":"450","stops":{"origin":{"related_to":"450","part_or_object":"p","notes":null,"placename":"Bajia Brazil","id":13359,"name":"origin","lat":"-11.4098737","lon":"-41.2808577","hops":{"incoming":[],"outgoing":[{"transport_id":"18","id":"9689","transport_name":"Sea","transport_description":"from the Greenhouse Gas Protocol Initiative - GHG emission from transport or mobile sources calculator 2.0 (jun 2009)","transport_unit":"kg km","transport_co2_eq":"0.000222","from_stop_id":"13359","from_stop_lat":"-11.4098737","from_stop_lon":"-41.2808577","from_stop_placename":"Bajia Brazil","to_stop_id":"13330","to_stop_name":"origin","to_stop_lat":"31.230708","to_stop_lon":"121.472916","to_stop_placename":"Shanghai, China","to_stop":{"id":"13330","name":"origin","lat":"31.230708","lon":"121.472916","placename":"Shanghai, China"},"from_stop":{"name":"origin","id":"13359","lat":"-11.4098737","lon":"-41.2808577","placename":"Bajia Brazil"}}]}}},"processes":[],"eols":[]},{"oid":"105","imid":"451","linkid":"","weight":"0.001","rawemissions":"0","emissions":"0","shipping":"10163.89","processemissions":null,"endoflifeemissions":null,"disposaltype":null,"disposalenergy":null,"disposalimpact":null,"disposalemissions":null,"description":"","name":"Beryllium","id":"451","stops":{"origin":{"related_to":"451","part_or_object":"p","notes":null,"placename":"California","id":13360,"name":"origin","lat":"36.778261","lon":"-119.4179324","hops":{"incoming":[],"outgoing":[{"transport_id":"18","id":"9690","transport_name":"Sea","transport_description":"from the Greenhouse Gas Protocol Initiative - GHG emission from transport or mobile sources calculator 2.0 (jun 2009)","transport_unit":"kg km","transport_co2_eq":"0.000222","from_stop_id":"13360","from_stop_lat":"36.778261","from_stop_lon":"-119.4179324","from_stop_placename":"California","to_stop_id":"13330","to_stop_name":"origin","to_stop_lat":"31.230708","to_stop_lon":"121.472916","to_stop_placename":"Shanghai, China","to_stop":{"id":"13330","name":"origin","lat":"31.230708","lon":"121.472916","placename":"Shanghai, China"},"from_stop":{"name":"origin","id":"13360","lat":"36.778261","lon":"-119.4179324","placename":"California"}}]}}},"processes":[],"eols":[]},{"oid":"105","imid":"452","linkid":"","weight":"0.001","rawemissions":"20","emissions":"0.02","shipping":"6424.98","processemissions":null,"endoflifeemissions":null,"disposaltype":null,"disposalenergy":null,"disposalimpact":null,"disposalemissions":null,"description":"","name":"Titanium","id":"452","stops":{"origin":{"related_to":"452","part_or_object":"p","notes":null,"placename":"Australia","id":13361,"name":"origin","lat":"-25.274398","lon":"133.775136","hops":{"incoming":[],"outgoing":[{"transport_id":"18","id":"9691","transport_name":"Sea","transport_description":"from the Greenhouse Gas Protocol Initiative - GHG emission from transport or mobile sources calculator 2.0 (jun 2009)","transport_unit":"kg km","transport_co2_eq":"0.000222","from_stop_id":"13361","from_stop_lat":"-25.274398","from_stop_lon":"133.775136","from_stop_placename":"Australia","to_stop_id":"13330","to_stop_name":"origin","to_stop_lat":"31.230708","to_stop_lon":"121.472916","to_stop_placename":"Shanghai, China","to_stop":{"id":"13330","name":"origin","lat":"31.230708","lon":"121.472916","placename":"Shanghai, China"},"from_stop":{"name":"origin","id":"13361","lat":"-25.274398","lon":"133.775136","placename":"Australia"}}]}}},"processes":[],"eols":[]},{"oid":"105","imid":"453","linkid":"","weight":"0.001","rawemissions":"0","emissions":"0","shipping":"11516.43","processemissions":null,"endoflifeemissions":null,"disposaltype":null,"disposalenergy":null,"disposalimpact":null,"disposalemissions":null,"description":"","name":"Cobalt","id":"453","stops":{"origin":{"related_to":"453","part_or_object":"p","notes":null,"placename":"Congo","id":13362,"name":"origin","lat":"-0.228021","lon":"15.827659","hops":{"incoming":[],"outgoing":[{"transport_id":"18","id":"9692","transport_name":"Sea","transport_description":"from the Greenhouse Gas Protocol Initiative - GHG emission from transport or mobile sources calculator 2.0 (jun 2009)","transport_unit":"kg km","transport_co2_eq":"0.000222","from_stop_id":"13362","from_stop_lat":"-0.228021","from_stop_lon":"15.827659","from_stop_placename":"Congo","to_stop_id":"13330","to_stop_name":"origin","to_stop_lat":"31.230708","to_stop_lon":"121.472916","to_stop_placename":"Shanghai, China","to_stop":{"id":"13330","name":"origin","lat":"31.230708","lon":"121.472916","placename":"Shanghai, China"},"from_stop":{"name":"origin","id":"13362","lat":"-0.228021","lon":"15.827659","placename":"Congo"}}]}}},"processes":[],"eols":[]},{"oid":"105","imid":"454","linkid":"","weight":"0.001","rawemissions":"0","emissions":"0","shipping":"4594.75","processemissions":null,"endoflifeemissions":null,"disposaltype":null,"disposalenergy":null,"disposalimpact":null,"disposalemissions":null,"description":"","name":"Antimony","id":"454","stops":{"origin":{"related_to":"454","part_or_object":"p","notes":null,"placename":"Tajikistan","id":13363,"name":"origin","lat":"38.861034","lon":"71.276093","hops":{"incoming":[],"outgoing":[{"transport_id":"19","id":"9693","transport_name":"Rail","transport_description":"from the Greenhouse Gas Protocol Initiative - GHG emission from transport or mobile sources calculator 2.0 (jun 2009)","transport_unit":"kg km","transport_co2_eq":"0.000017","from_stop_id":"13363","from_stop_lat":"38.861034","from_stop_lon":"71.276093","from_stop_placename":"Tajikistan","to_stop_id":"13330","to_stop_name":"origin","to_stop_lat":"31.230708","to_stop_lon":"121.472916","to_stop_placename":"Shanghai, China","to_stop":{"id":"13330","name":"origin","lat":"31.230708","lon":"121.472916","placename":"Shanghai, China"},"from_stop":{"name":"origin","id":"13363","lat":"38.861034","lon":"71.276093","placename":"Tajikistan"}}]}}},"processes":[],"eols":[]},{"oid":"105","imid":"455","linkid":"","weight":"0.05","rawemissions":"15000","emissions":"750","shipping":"781.88","processemissions":null,"endoflifeemissions":null,"disposaltype":null,"disposalenergy":null,"disposalimpact":null,"disposalemissions":null,"description":"","name":"Cadmium","id":"455","stops":{"origin":{"related_to":"455","part_or_object":"p","notes":null,"placename":"South Korea","id":13364,"name":"origin","lat":"35.907757","lon":"127.766922","hops":{"incoming":[],"outgoing":[{"transport_id":"18","id":"9694","transport_name":"Sea","transport_description":"from the Greenhouse Gas Protocol Initiative - GHG emission from transport or mobile sources calculator 2.0 (jun 2009)","transport_unit":"kg km","transport_co2_eq":"0.000222","from_stop_id":"13364","from_stop_lat":"35.907757","from_stop_lon":"127.766922","from_stop_placename":"South Korea","to_stop_id":"13330","to_stop_name":"origin","to_stop_lat":"31.230708","to_stop_lon":"121.472916","to_stop_placename":"Shanghai, China","to_stop":{"id":"13330","name":"origin","lat":"31.230708","lon":"121.472916","placename":"Shanghai, China"},"from_stop":{"name":"origin","id":"13364","lat":"35.907757","lon":"127.766922","placename":"South Korea"}}]}}},"processes":[],"eols":[]},{"oid":"105","imid":"460","linkid":"","weight":"0.001","rawemissions":"20000","emissions":"20","shipping":"17048.78","processemissions":null,"endoflifeemissions":null,"disposaltype":null,"disposalenergy":null,"disposalimpact":null,"disposalemissions":null,"description":"","name":"Indium","id":"460","stops":{"origin":{"related_to":"460","part_or_object":"p","notes":null,"placename":"Peru","id":13365,"name":"origin","lat":"-9.189967","lon":"-75.015152","hops":{"incoming":[],"outgoing":[{"transport_id":"17","id":"9695","transport_name":"None Selected","transport_description":null,"transport_unit":"kg km","transport_co2_eq":"0.000000","from_stop_id":"13365","from_stop_lat":"-9.189967","from_stop_lon":"-75.015152","from_stop_placename":"Peru","to_stop_id":"13330","to_stop_name":"origin","to_stop_lat":"31.230708","to_stop_lon":"121.472916","to_stop_placename":"Shanghai, China","to_stop":{"id":"13330","name":"origin","lat":"31.230708","lon":"121.472916","placename":"Shanghai, China"},"from_stop":{"name":"origin","id":"13365","lat":"-9.189967","lon":"-75.015152","placename":"Peru"}}]}}},"processes":[],"eols":[]},{"oid":"105","imid":"461","linkid":"","weight":"0.001","rawemissions":"6800","emissions":"6.8","shipping":"11802.99","processemissions":null,"endoflifeemissions":null,"disposaltype":null,"disposalenergy":null,"disposalimpact":null,"disposalemissions":null,"description":"","name":"Gold virgin","id":"461","stops":{"origin":{"related_to":"461","part_or_object":"p","notes":null,"placename":"26?1358.56'S 27?5750.34'E","id":13366,"name":"origin","lat":"-26.2325141","lon":"27.9651251","hops":{"incoming":[],"outgoing":[{"transport_id":"17","id":"9696","transport_name":"None Selected","transport_description":null,"transport_unit":"kg km","transport_co2_eq":"0.000000","from_stop_id":"13366","from_stop_lat":"-26.2325141","from_stop_lon":"27.9651251","from_stop_placename":"26?1358.56'S 27?5750.34'E","to_stop_id":"13330","to_stop_name":"origin","to_stop_lat":"31.230708","to_stop_lon":"121.472916","to_stop_placename":"Shanghai, China","to_stop":{"id":"13330","name":"origin","lat":"31.230708","lon":"121.472916","placename":"Shanghai, China"},"from_stop":{"name":"origin","id":"13366","lat":"-26.2325141","lon":"27.9651251","placename":"26?1358.56'S 27?5750.34'E"}}]}}},"processes":[],"eols":[]},{"oid":"105","imid":"462","linkid":"","weight":"1e-05","rawemissions":"20000","emissions":"0.2","shipping":"3570.53","processemissions":null,"endoflifeemissions":null,"disposaltype":null,"disposalenergy":null,"disposalimpact":null,"disposalemissions":null,"description":"","name":"Ruthenium","id":"462","stops":{"origin":{"related_to":"462","part_or_object":"p","notes":null,"placename":"Russia","id":13367,"name":"origin","lat":"61.52401","lon":"105.318756","hops":{"incoming":[],"outgoing":[{"transport_id":"17","id":"9697","transport_name":"None Selected","transport_description":null,"transport_unit":"kg km","transport_co2_eq":"0.000000","from_stop_id":"13367","from_stop_lat":"61.52401","from_stop_lon":"105.318756","from_stop_placename":"Russia","to_stop_id":"13330","to_stop_name":"origin","to_stop_lat":"31.230708","to_stop_lon":"121.472916","to_stop_placename":"Shanghai, China","to_stop":{"id":"13330","name":"origin","lat":"31.230708","lon":"121.472916","placename":"Shanghai, China"},"from_stop":{"name":"origin","id":"13367","lat":"61.52401","lon":"105.318756","placename":"Russia"}}]}}},"processes":[],"eols":[]},{"oid":"105","imid":"463","linkid":"","weight":"0.002","rawemissions":"5000","emissions":"10","shipping":"1646.74","processemissions":null,"endoflifeemissions":null,"disposaltype":null,"disposalenergy":null,"disposalimpact":null,"disposalemissions":null,"description":"","name":"Selenium","id":"463","stops":{"origin":{"related_to":"463","part_or_object":"p","notes":null,"placename":"Japan","id":13368,"name":"origin","lat":"36.204824","lon":"138.252924","hops":{"incoming":[],"outgoing":[{"transport_id":"17","id":"9698","transport_name":"None Selected","transport_description":null,"transport_unit":"kg km","transport_co2_eq":"0.000000","from_stop_id":"13368","from_stop_lat":"36.204824","from_stop_lon":"138.252924","from_stop_placename":"Japan","to_stop_id":"13330","to_stop_name":"origin","to_stop_lat":"31.230708","to_stop_lon":"121.472916","to_stop_placename":"Shanghai, China","to_stop":{"id":"13330","name":"origin","lat":"31.230708","lon":"121.472916","placename":"Shanghai, China"},"from_stop":{"name":"origin","id":"13368","lat":"36.204824","lon":"138.252924","placename":"Japan"}}]}}},"processes":[],"eols":[]},{"oid":"105","imid":"464","linkid":"","weight":"1e-05","rawemissions":"20000","emissions":"0.2","shipping":"13102.62","processemissions":null,"endoflifeemissions":null,"disposaltype":null,"disposalenergy":null,"disposalimpact":null,"disposalemissions":null,"description":"","name":"Gallium","id":"464","stops":{"origin":{"related_to":"464","part_or_object":"p","notes":null,"placename":"Guinea","id":13369,"name":"origin","lat":"9.945587","lon":"-9.696645","hops":{"incoming":[],"outgoing":[{"transport_id":"17","id":"9699","transport_name":"None Selected","transport_description":null,"transport_unit":"kg km","transport_co2_eq":"0.000000","from_stop_id":"13369","from_stop_lat":"9.945587","from_stop_lon":"-9.696645","from_stop_placename":"Guinea","to_stop_id":"13330","to_stop_name":"origin","to_stop_lat":"31.230708","to_stop_lon":"121.472916","to_stop_placename":"Shanghai, China","to_stop":{"id":"13330","name":"origin","lat":"31.230708","lon":"121.472916","placename":"Shanghai, China"},"from_stop":{"name":"origin","id":"13369","lat":"9.945587","lon":"-9.696645","placename":"Guinea"}}]}}},"processes":[],"eols":[]},{"oid":"105","imid":"465","linkid":"","weight":"0.001","rawemissions":"20000","emissions":"20","shipping":"18732.68","processemissions":null,"endoflifeemissions":null,"disposaltype":null,"disposalenergy":null,"disposalimpact":null,"disposalemissions":null,"description":"","name":"Arsenic","id":"465","stops":{"origin":{"related_to":"465","part_or_object":"p","notes":null,"placename":"Chile","id":13370,"name":"origin","lat":"-35.675147","lon":"-71.542969","hops":{"incoming":[],"outgoing":[{"transport_id":"17","id":"9700","transport_name":"None Selected","transport_description":null,"transport_unit":"kg km","transport_co2_eq":"0.000000","from_stop_id":"13370","from_stop_lat":"-35.675147","from_stop_lon":"-71.542969","from_stop_placename":"Chile","to_stop_id":"13330","to_stop_name":"origin","to_stop_lat":"31.230708","to_stop_lon":"121.472916","to_stop_placename":"Shanghai, China","to_stop":{"id":"13330","name":"origin","lat":"31.230708","lon":"121.472916","placename":"Shanghai, China"},"from_stop":{"name":"origin","id":"13370","lat":"-35.675147","lon":"-71.542969","placename":"Chile"}}]}}},"processes":[],"eols":[]},{"oid":"105","imid":"466","linkid":"","weight":"0.0001","rawemissions":"20000","emissions":"2","shipping":"11503.72","processemissions":null,"endoflifeemissions":null,"disposaltype":null,"disposalenergy":null,"disposalimpact":null,"disposalemissions":null,"description":"","name":"Palladium","id":"466","stops":{"origin":{"related_to":"466","part_or_object":"p","notes":null,"placename":"USA","id":13371,"name":"origin","lat":"37.09024","lon":"-95.712891","hops":{"incoming":[],"outgoing":[{"transport_id":"17","id":"9701","transport_name":"None Selected","transport_description":null,"transport_unit":"kg km","transport_co2_eq":"0.000000","from_stop_id":"13371","from_stop_lat":"37.09024","from_stop_lon":"-95.712891","from_stop_placename":"USA","to_stop_id":"13330","to_stop_name":"origin","to_stop_lat":"31.230708","to_stop_lon":"121.472916","to_stop_placename":"Shanghai, China","to_stop":{"id":"13330","name":"origin","lat":"31.230708","lon":"121.472916","placename":"Shanghai, China"},"from_stop":{"name":"origin","id":"13371","lat":"37.09024","lon":"-95.712891","placename":"USA"}}]}}},"processes":[],"eols":[]},{"oid":"105","imid":"467","linkid":"","weight":"0.001","rawemissions":"20000","emissions":"20","shipping":"4918.04","processemissions":null,"endoflifeemissions":null,"disposaltype":null,"disposalenergy":null,"disposalimpact":null,"disposalemissions":null,"description":"","name":"Vanadium","id":"467","stops":{"origin":{"related_to":"467","part_or_object":"p","notes":null,"placename":"Kazakhstan","id":13372,"name":"origin","lat":"48.019573","lon":"66.923684","hops":{"incoming":[],"outgoing":[{"transport_id":"17","id":"9702","transport_name":"None Selected","transport_description":null,"transport_unit":"kg km","transport_co2_eq":"0.000000","from_stop_id":"13372","from_stop_lat":"48.019573","from_stop_lon":"66.923684","from_stop_placename":"Kazakhstan","to_stop_id":"13330","to_stop_name":"origin","to_stop_lat":"31.230708","to_stop_lon":"121.472916","to_stop_placename":"Shanghai, China","to_stop":{"id":"13330","name":"origin","lat":"31.230708","lon":"121.472916","placename":"Shanghai, China"},"from_stop":{"name":"origin","id":"13372","lat":"48.019573","lon":"66.923684","placename":"Kazakhstan"}}]}}},"processes":[],"eols":[]},{"oid":"105","imid":"472","linkid":"","weight":"0.0001","rawemissions":"20000","emissions":"2","shipping":"1681.09","processemissions":null,"endoflifeemissions":null,"disposaltype":null,"disposalenergy":null,"disposalimpact":null,"disposalemissions":null,"description":"","name":"Terbium","id":"472","stops":{"origin":{"related_to":"472","part_or_object":"p","notes":null,"placename":"China","id":13373,"name":"origin","lat":"35.86166","lon":"104.195397","hops":{"incoming":[],"outgoing":[{"transport_id":"17","id":"9703","transport_name":"None Selected","transport_description":null,"transport_unit":"kg km","transport_co2_eq":"0.000000","from_stop_id":"13373","from_stop_lat":"35.86166","from_stop_lon":"104.195397","from_stop_placename":"China","to_stop_id":"13330","to_stop_name":"origin","to_stop_lat":"31.230708","to_stop_lon":"121.472916","to_stop_placename":"Shanghai, China","to_stop":{"id":"13330","name":"origin","lat":"31.230708","lon":"121.472916","placename":"Shanghai, China"},"from_stop":{"name":"origin","id":"13373","lat":"35.86166","lon":"104.195397","placename":"China"}}]}}},"processes":[],"eols":[]},{"oid":"105","imid":"312","linkid":"","weight":"0.34","rawemissions":"0.27","emissions":"0.09","shipping":"781.88","processemissions":"0","endoflifeemissions":"0","disposaltype":null,"disposalenergy":null,"disposalimpact":null,"disposalemissions":null,"description":"clear bottle glass, virgin","name":"glass, clear primary","id":"312","stops":{"origin":{"related_to":"312","part_or_object":"p","notes":null,"placename":"South Korea","id":13374,"name":"origin","lat":"35.907757","lon":"127.766922","hops":{"incoming":[],"outgoing":[{"transport_id":"9","id":"9704","transport_name":"container ship","transport_description":"moving boxcar size containers","transport_unit":"kg km","transport_co2_eq":"0.047800","from_stop_id":"13374","from_stop_lat":"35.907757","from_stop_lon":"127.766922","from_stop_placename":"South Korea","to_stop_id":"13330","to_stop_name":"origin","to_stop_lat":"31.230708","to_stop_lon":"121.472916","to_stop_placename":"Shanghai, China","to_stop":{"id":"13330","name":"origin","lat":"31.230708","lon":"121.472916","placename":"Shanghai, China"},"from_stop":{"name":"origin","id":"13374","lat":"35.907757","lon":"127.766922","placename":"South Korea"}}]}}},"processes":[],"eols":[]},{"oid":"105","imid":"456","linkid":"","weight":"0.002","rawemissions":"200","emissions":"0.4","shipping":"12336.19","processemissions":null,"endoflifeemissions":null,"disposaltype":null,"disposalenergy":null,"disposalimpact":null,"disposalemissions":null,"description":"","name":"Bismuth","id":"456","stops":{"origin":{"related_to":"456","part_or_object":"p","notes":null,"placename":"Mexico","id":13375,"name":"origin","lat":"23.634501","lon":"-102.552784","hops":{"incoming":[],"outgoing":[{"transport_id":"18","id":"9705","transport_name":"Sea","transport_description":"from the Greenhouse Gas Protocol Initiative - GHG emission from transport or mobile sources calculator 2.0 (jun 2009)","transport_unit":"kg km","transport_co2_eq":"0.000222","from_stop_id":"13375","from_stop_lat":"23.634501","from_stop_lon":"-102.552784","from_stop_placename":"Mexico","to_stop_id":"13330","to_stop_name":"origin","to_stop_lat":"31.230708","to_stop_lon":"121.472916","to_stop_placename":"Shanghai, China","to_stop":{"id":"13330","name":"origin","lat":"31.230708","lon":"121.472916","placename":"Shanghai, China"},"from_stop":{"name":"origin","id":"13375","lat":"23.634501","lon":"-102.552784","placename":"Mexico"}}]}}},"processes":[],"eols":[]},{"oid":"105","imid":"457","linkid":"","weight":"0.01","rawemissions":"3000","emissions":"30","shipping":"12456.04","processemissions":null,"endoflifeemissions":null,"disposaltype":null,"disposalenergy":null,"disposalimpact":null,"disposalemissions":null,"description":"","name":"Chromium","id":"457","stops":{"origin":{"related_to":"457","part_or_object":"p","notes":null,"placename":"South Africa","id":13376,"name":"origin","lat":"-30.559482","lon":"22.937506","hops":{"incoming":[],"outgoing":[{"transport_id":"18","id":"9706","transport_name":"Sea","transport_description":"from the Greenhouse Gas Protocol Initiative - GHG emission from transport or mobile sources calculator 2.0 (jun 2009)","transport_unit":"kg km","transport_co2_eq":"0.000222","from_stop_id":"13376","from_stop_lat":"-30.559482","from_stop_lon":"22.937506","from_stop_placename":"South Africa","to_stop_id":"13330","to_stop_name":"origin","to_stop_lat":"31.230708","to_stop_lon":"121.472916","to_stop_placename":"Shanghai, China","to_stop":{"id":"13330","name":"origin","lat":"31.230708","lon":"121.472916","placename":"Shanghai, China"},"from_stop":{"name":"origin","id":"13376","lat":"-30.559482","lon":"22.937506","placename":"South Africa"}}]}}},"processes":[],"eols":[]},{"oid":"105","imid":"458","linkid":"","weight":"0.001","rawemissions":"20000","emissions":"20","shipping":"4579.6","processemissions":null,"endoflifeemissions":null,"disposaltype":null,"disposalenergy":null,"disposalimpact":null,"disposalemissions":null,"description":"","name":"Mercury","id":"458","stops":{"origin":{"related_to":"458","part_or_object":"p","notes":null,"placename":"Khaidarkan","id":13377,"name":"origin","lat":"39.9391","lon":"71.3403","hops":{"incoming":[],"outgoing":[{"transport_id":"19","id":"9707","transport_name":"Rail","transport_description":"from the Greenhouse Gas Protocol Initiative - GHG emission from transport or mobile sources calculator 2.0 (jun 2009)","transport_unit":"kg km","transport_co2_eq":"0.000017","from_stop_id":"13377","from_stop_lat":"39.9391","from_stop_lon":"71.3403","from_stop_placename":"Khaidarkan","to_stop_id":"13330","to_stop_name":"origin","to_stop_lat":"31.230708","to_stop_lon":"121.472916","to_stop_placename":"Shanghai, China","to_stop":{"id":"13330","name":"origin","lat":"31.230708","lon":"121.472916","placename":"Shanghai, China"},"from_stop":{"name":"origin","id":"13377","lat":"39.9391","lon":"71.3403","placename":"Khaidarkan"}}]}}},"processes":[],"eols":[]},{"oid":"105","imid":"459","linkid":"","weight":"0.0001","rawemissions":"20000","emissions":"2","shipping":"1681.09","processemissions":null,"endoflifeemissions":null,"disposaltype":null,"disposalenergy":null,"disposalimpact":null,"disposalemissions":null,"description":"","name":"Germanium","id":"459","stops":{"origin":{"related_to":"459","part_or_object":"p","notes":null,"placename":"China","id":13378,"name":"origin","lat":"35.86166","lon":"104.195397","hops":{"incoming":[],"outgoing":[{"transport_id":"17","id":"9708","transport_name":"None Selected","transport_description":null,"transport_unit":"kg km","transport_co2_eq":"0.000000","from_stop_id":"13378","from_stop_lat":"35.86166","from_stop_lon":"104.195397","from_stop_placename":"China","to_stop_id":"13330","to_stop_name":"origin","to_stop_lat":"31.230708","to_stop_lon":"121.472916","to_stop_placename":"Shanghai, China","to_stop":{"id":"13330","name":"origin","lat":"31.230708","lon":"121.472916","placename":"Shanghai, China"},"from_stop":{"name":"origin","id":"13378","lat":"35.86166","lon":"104.195397","placename":"China"}}]}}},"processes":[],"eols":[]},{"oid":"105","imid":"325","linkid":"","weight":"0.02","rawemissions":"7.1","emissions":"0.14","shipping":"4072.46","processemissions":null,"endoflifeemissions":null,"disposaltype":null,"disposalenergy":null,"disposalimpact":null,"disposalemissions":null,"description":"replacement for lead in solder\n<object width=\"3420\" height=\"235\"><param name=\"movie\" value=\"http:\/\/www.youtube.com\/v\/lIuN2a8MBmo&hl=en_US&fs=1&\"><param name=\"allowFullScreen\" value=\"true\"><param name=\"allowscriptaccess\" value=\"always\"><embed src=\"http:\/\/www.youtube.com\/v\/lIuN2a8MBmo&hl=en_US&fs=1&\" type=\"application\/x-shockwave-flash\" allowscriptaccess=\"always\" allowfullscreen=\"true\" width=\"340\" height=\"235\"><\/object>","name":"tin","id":"325","stops":{"origin":{"related_to":"325","part_or_object":"p","notes":null,"placename":"Bangka Island, Indonesia","id":13379,"name":"origin","lat":"-2.2884782","lon":"106.0640179","hops":{"incoming":[],"outgoing":[{"transport_id":"8","id":"9709","transport_name":"freighter, oceanic","transport_description":"","transport_unit":"kg km","transport_co2_eq":"0.004200","from_stop_id":"13379","from_stop_lat":"-2.2884782","from_stop_lon":"106.0640179","from_stop_placename":"Bangka Island, Indonesia","to_stop_id":"13330","to_stop_name":"origin","to_stop_lat":"31.230708","to_stop_lon":"121.472916","to_stop_placename":"Shanghai, China","to_stop":{"id":"13330","name":"origin","lat":"31.230708","lon":"121.472916","placename":"Shanghai, China"},"from_stop":{"name":"origin","id":"13379","lat":"-2.2884782","lon":"106.0640179","placename":"Bangka Island, Indonesia"}}]}}},"processes":[],"eols":[]}],"user":{"name":"leo","id":"1"}}}