{"1055":{"oid":"1055","type":"trace","flag":"","creator":"12288","name":"Soapwalla Luxurious Moisturizing Body Oil","upc":"","imagelink":"","description":"Soapwalla is a handmade beauty line from Brooklyn, NY","slug":"Soapwalla-Luxurious-Moisturizing-Body-Oil","category":"","weight":"0","emissions":"0","embodied":"0","transport":"0","process":null,"endoflife":null,"shipping":"39608.22","lifetime":null,"usagetype":"","usageenergy":null,"usageemissions":null,"timecreated":"2011-04-20 20:31:05","timemodified":"2011-04-20 20:36:02","visibility":"public","showfootprint":"on","showembodied":"on","showtransport":"on","showprocess":"on","showendoflife":"on","showlastleg":"on","showuse":"on","showstats":"on","stops":{"origin":{"related_to":"1055","part_or_object":"o","notes":null,"placename":"Brooklyn, NY, USA","id":"15357","category":"1","lat":"40.65","lon":"-73.95","name":"origin","hops":{"incoming":[{"transport_id":null,"id":"11136","transport_name":null,"transport_description":null,"transport_unit":null,"transport_co2_eq":null,"from_stop_id":"15358","from_stop_lat":"40.4172871","from_stop_lon":"-82.907123","to_stop_id":"15357","to_stop_name":"origin","to_stop_lat":"40.65","placename":"Ohio, USA","to_stop_lon":"-73.95","to_stop":{"id":"15357","name":"origin","lat":"40.65","placename":"Brooklyn, NY, USA","lon":"-73.95"},"from_stop":{"name":"origin","id":"15358","lat":"40.4172871","lon":"-82.907123","placename":"Ohio, USA"}},{"transport_id":null,"id":"11137","transport_name":null,"transport_description":null,"transport_unit":null,"transport_co2_eq":null,"from_stop_id":"15359","from_stop_lat":"45.253783","from_stop_lon":"-69.4454689","to_stop_id":"15357","to_stop_name":"origin","to_stop_lat":"40.65","placename":"Maine, USA","to_stop_lon":"-73.95","to_stop":{"id":"15357","name":"origin","lat":"40.65","placename":"Brooklyn, NY, USA","lon":"-73.95"},"from_stop":{"name":"origin","id":"15359","lat":"45.253783","lon":"-69.4454689","placename":"Maine, USA"}},{"transport_id":null,"id":"11138","transport_name":null,"transport_description":null,"transport_unit":null,"transport_co2_eq":null,"from_stop_id":"15360","from_stop_lat":"40.4172871","from_stop_lon":"-82.907123","to_stop_id":"15357","to_stop_name":"origin","to_stop_lat":"40.65","placename":"Ohio, USA","to_stop_lon":"-73.95","to_stop":{"id":"15357","name":"origin","lat":"40.65","placename":"Brooklyn, NY, USA","lon":"-73.95"},"from_stop":{"name":"origin","id":"15360","lat":"40.4172871","lon":"-82.907123","placename":"Ohio, USA"}},{"transport_id":null,"id":"11139","transport_name":null,"transport_description":null,"transport_unit":null,"transport_co2_eq":null,"from_stop_id":"15361","from_stop_lat":"42.4072107","from_stop_lon":"-71.3824374","to_stop_id":"15357","to_stop_name":"origin","to_stop_lat":"40.65","placename":"Massachusetts, USA","to_stop_lon":"-73.95","to_stop":{"id":"15357","name":"origin","lat":"40.65","placename":"Brooklyn, NY, USA","lon":"-73.95"},"from_stop":{"name":"origin","id":"15361","lat":"42.4072107","lon":"-71.3824374","placename":"Massachusetts, USA"}},{"transport_id":null,"id":"11140","transport_name":null,"transport_description":null,"transport_unit":null,"transport_co2_eq":null,"from_stop_id":"15362","from_stop_lat":"56.130366","from_stop_lon":"-106.346771","to_stop_id":"15357","to_stop_name":"origin","to_stop_lat":"40.65","placename":"Canada","to_stop_lon":"-73.95","to_stop":{"id":"15357","name":"origin","lat":"40.65","placename":"Brooklyn, NY, USA","lon":"-73.95"},"from_stop":{"name":"origin","id":"15362","lat":"56.130366","lon":"-106.346771","placename":"Canada"}},{"transport_id":null,"id":"11141","transport_name":null,"transport_description":null,"transport_unit":null,"transport_co2_eq":null,"from_stop_id":"15363","from_stop_lat":"41.87194","from_stop_lon":"12.56738","to_stop_id":"15357","to_stop_name":"origin","to_stop_lat":"40.65","placename":"Italy","to_stop_lon":"-73.95","to_stop":{"id":"15357","name":"origin","lat":"40.65","placename":"Brooklyn, NY, USA","lon":"-73.95"},"from_stop":{"name":"origin","id":"15363","lat":"41.87194","lon":"12.56738","placename":"Italy"}},{"transport_id":null,"id":"11142","transport_name":null,"transport_description":null,"transport_unit":null,"transport_co2_eq":null,"from_stop_id":"15364","from_stop_lat":"46.227638","from_stop_lon":"2.213749","to_stop_id":"15357","to_stop_name":"origin","to_stop_lat":"40.65","placename":"France","to_stop_lon":"-73.95","to_stop":{"id":"15357","name":"origin","lat":"40.65","placename":"Brooklyn, NY, USA","lon":"-73.95"},"from_stop":{"name":"origin","id":"15364","lat":"46.227638","lon":"2.213749","placename":"France"}},{"transport_id":null,"id":"11143","transport_name":null,"transport_description":null,"transport_unit":null,"transport_co2_eq":null,"from_stop_id":"15365","from_stop_lat":"41.87194","from_stop_lon":"12.56738","to_stop_id":"15357","to_stop_name":"origin","to_stop_lat":"40.65","placename":"Italy","to_stop_lon":"-73.95","to_stop":{"id":"15357","name":"origin","lat":"40.65","placename":"Brooklyn, NY, USA","lon":"-73.95"},"from_stop":{"name":"origin","id":"15365","lat":"41.87194","lon":"12.56738","placename":"Italy"}},{"transport_id":null,"id":"11144","transport_name":null,"transport_description":null,"transport_unit":null,"transport_co2_eq":null,"from_stop_id":"15366","from_stop_lat":"27.6648274","from_stop_lon":"-81.5157535","to_stop_id":"15357","to_stop_name":"origin","to_stop_lat":"40.65","placename":"Florida, USA","to_stop_lon":"-73.95","to_stop":{"id":"15357","name":"origin","lat":"40.65","placename":"Brooklyn, NY, USA","lon":"-73.95"},"from_stop":{"name":"origin","id":"15366","lat":"27.6648274","lon":"-81.5157535","placename":"Florida, USA"}},{"transport_id":null,"id":"11145","transport_name":null,"transport_description":null,"transport_unit":null,"transport_co2_eq":null,"from_stop_id":"15367","from_stop_lat":"20.593684","from_stop_lon":"78.96288","to_stop_id":"15357","to_stop_name":"origin","to_stop_lat":"40.65","placename":"India","to_stop_lon":"-73.95","to_stop":{"id":"15357","name":"origin","lat":"40.65","placename":"Brooklyn, NY, USA","lon":"-73.95"},"from_stop":{"name":"origin","id":"15367","lat":"20.593684","lon":"78.96288","placename":"India"}},{"transport_id":null,"id":"11146","transport_name":null,"transport_description":null,"transport_unit":null,"transport_co2_eq":null,"from_stop_id":"15368","from_stop_lat":"40.7143528","from_stop_lon":"-74.0059731","to_stop_id":"15357","to_stop_name":"origin","to_stop_lat":"40.65","placename":"New York, NY, USA","to_stop_lon":"-73.95","to_stop":{"id":"15357","name":"origin","lat":"40.65","placename":"Brooklyn, NY, USA","lon":"-73.95"},"from_stop":{"name":"origin","id":"15368","lat":"40.7143528","lon":"-74.0059731","placename":"New York, NY, USA"}},{"transport_id":null,"id":"11147","transport_name":null,"transport_description":null,"transport_unit":null,"transport_co2_eq":null,"from_stop_id":"15369","from_stop_lat":"42.7300783","from_stop_lon":"-73.7012299","to_stop_id":"15357","to_stop_name":"origin","to_stop_lat":"40.65","placename":"Watervliet, NY, USA","to_stop_lon":"-73.95","to_stop":{"id":"15357","name":"origin","lat":"40.65","placename":"Brooklyn, NY, USA","lon":"-73.95"},"from_stop":{"name":"origin","id":"15369","lat":"42.7300783","lon":"-73.7012299","placename":"Watervliet, NY, USA"}},{"transport_id":null,"id":"11148","transport_name":null,"transport_description":null,"transport_unit":null,"transport_co2_eq":null,"from_stop_id":"15370","from_stop_lat":"40.65","from_stop_lon":"-73.95","to_stop_id":"15357","to_stop_name":"origin","to_stop_lat":"40.65","placename":"Brooklyn, NY, USA","to_stop_lon":"-73.95","to_stop":{"id":"15357","name":"origin","lat":"40.65","placename":"Brooklyn, NY, USA","lon":"-73.95"},"from_stop":{"name":"origin","id":"15370","lat":"40.65","lon":"-73.95","placename":"Brooklyn, NY, USA"}}],"outgoing":[]}}},"parts":[{"oid":"1055","imid":"7454","linkid":"0","weight":"0","rawemissions":"0","emissions":"0","shipping":"6904.26","processemissions":"0","endoflifeemissions":"0","disposaltype":null,"disposalenergy":null,"disposalimpact":null,"disposalemissions":null,"description":"","name":"Lemon Essential Oil","id":"7454","stops":{"origin":{"related_to":"7454","part_or_object":"p","notes":null,"placename":"Italy","id":15365,"name":"origin","lat":"41.87194","lon":"12.56738","hops":{"incoming":[],"outgoing":[{"transport_id":null,"id":"11143","transport_name":null,"transport_description":null,"transport_unit":null,"transport_co2_eq":null,"from_stop_id":"15365","from_stop_lat":"41.87194","from_stop_lon":"12.56738","from_stop_placename":"Italy","to_stop_id":"15357","to_stop_name":"origin","to_stop_lat":"40.65","to_stop_lon":"-73.95","to_stop_placename":"Brooklyn, NY, USA","to_stop":{"id":"15357","name":"origin","lat":"40.65","lon":"-73.95","placename":"Brooklyn, NY, USA"},"from_stop":{"name":"origin","id":"15365","lat":"41.87194","lon":"12.56738","placename":"Italy"}}]}}},"processes":[],"eols":[]},{"oid":"1055","imid":"7455","linkid":"0","weight":"0","rawemissions":"0","emissions":"0","shipping":"1603.12","processemissions":"0","endoflifeemissions":"0","disposaltype":null,"disposalenergy":null,"disposalimpact":null,"disposalemissions":null,"description":"","name":"Sweet Orange Oil","id":"7455","stops":{"origin":{"related_to":"7455","part_or_object":"p","notes":null,"placename":"Florida, USA","id":15366,"name":"origin","lat":"27.6648274","lon":"-81.5157535","hops":{"incoming":[],"outgoing":[{"transport_id":null,"id":"11144","transport_name":null,"transport_description":null,"transport_unit":null,"transport_co2_eq":null,"from_stop_id":"15366","from_stop_lat":"27.6648274","from_stop_lon":"-81.5157535","from_stop_placename":"Florida, USA","to_stop_id":"15357","to_stop_name":"origin","to_stop_lat":"40.65","to_stop_lon":"-73.95","to_stop_placename":"Brooklyn, NY, USA","to_stop":{"id":"15357","name":"origin","lat":"40.65","lon":"-73.95","placename":"Brooklyn, NY, USA"},"from_stop":{"name":"origin","id":"15366","lat":"27.6648274","lon":"-81.5157535","placename":"Florida, USA"}}]}}},"processes":[],"eols":[]},{"oid":"1055","imid":"7456","linkid":"0","weight":"0","rawemissions":"0","emissions":"0","shipping":"12665.65","processemissions":"0","endoflifeemissions":"0","disposaltype":null,"disposalenergy":null,"disposalimpact":null,"disposalemissions":null,"description":"","name":"Lemongrass Oil","id":"7456","stops":{"origin":{"related_to":"7456","part_or_object":"p","notes":null,"placename":"India","id":15367,"name":"origin","lat":"20.593684","lon":"78.96288","hops":{"incoming":[],"outgoing":[{"transport_id":null,"id":"11145","transport_name":null,"transport_description":null,"transport_unit":null,"transport_co2_eq":null,"from_stop_id":"15367","from_stop_lat":"20.593684","from_stop_lon":"78.96288","from_stop_placename":"India","to_stop_id":"15357","to_stop_name":"origin","to_stop_lat":"40.65","to_stop_lon":"-73.95","to_stop_placename":"Brooklyn, NY, USA","to_stop":{"id":"15357","name":"origin","lat":"40.65","lon":"-73.95","placename":"Brooklyn, NY, USA"},"from_stop":{"name":"origin","id":"15367","lat":"20.593684","lon":"78.96288","placename":"India"}}]}}},"processes":[],"eols":[]},{"oid":"1055","imid":"7457","linkid":"0","weight":"0","rawemissions":"0","emissions":"0","shipping":"8.58","processemissions":"0","endoflifeemissions":"0","disposaltype":null,"disposalenergy":null,"disposalimpact":null,"disposalemissions":null,"description":"","name":"Labels","id":"7457","stops":{"origin":{"related_to":"7457","part_or_object":"p","notes":null,"placename":"New York, NY, USA","id":15368,"name":"origin","lat":"40.7143528","lon":"-74.0059731","hops":{"incoming":[],"outgoing":[{"transport_id":null,"id":"11146","transport_name":null,"transport_description":null,"transport_unit":null,"transport_co2_eq":null,"from_stop_id":"15368","from_stop_lat":"40.7143528","from_stop_lon":"-74.0059731","from_stop_placename":"New York, NY, USA","to_stop_id":"15357","to_stop_name":"origin","to_stop_lat":"40.65","to_stop_lon":"-73.95","to_stop_placename":"Brooklyn, NY, USA","to_stop":{"id":"15357","name":"origin","lat":"40.65","lon":"-73.95","placename":"Brooklyn, NY, USA"},"from_stop":{"name":"origin","id":"15368","lat":"40.7143528","lon":"-74.0059731","placename":"New York, NY, USA"}}]}}},"processes":[],"eols":[]},{"oid":"1055","imid":"7458","linkid":"0","weight":"0","rawemissions":"0","emissions":"0","shipping":"232.47","processemissions":"0","endoflifeemissions":"0","disposaltype":null,"disposalenergy":null,"disposalimpact":null,"disposalemissions":null,"description":"","name":"Bottles and Lids","id":"7458","stops":{"origin":{"related_to":"7458","part_or_object":"p","notes":null,"placename":"Watervliet, NY, USA","id":15369,"name":"origin","lat":"42.7300783","lon":"-73.7012299","hops":{"incoming":[],"outgoing":[{"transport_id":null,"id":"11147","transport_name":null,"transport_description":null,"transport_unit":null,"transport_co2_eq":null,"from_stop_id":"15369","from_stop_lat":"42.7300783","from_stop_lon":"-73.7012299","from_stop_placename":"Watervliet, NY, USA","to_stop_id":"15357","to_stop_name":"origin","to_stop_lat":"40.65","to_stop_lon":"-73.95","to_stop_placename":"Brooklyn, NY, USA","to_stop":{"id":"15357","name":"origin","lat":"40.65","lon":"-73.95","placename":"Brooklyn, NY, USA"},"from_stop":{"name":"origin","id":"15369","lat":"42.7300783","lon":"-73.7012299","placename":"Watervliet, NY, USA"}}]}}},"processes":[],"eols":[]},{"oid":"1055","imid":"7447","linkid":"0","weight":"0","rawemissions":"0","emissions":"0","shipping":"757.94","processemissions":"0","endoflifeemissions":"0","disposaltype":null,"disposalenergy":null,"disposalimpact":null,"disposalemissions":null,"description":"","name":"Rice Bran Oil","id":"7447","stops":{"origin":{"related_to":"7447","part_or_object":"p","notes":null,"placename":"Ohio, USA","id":15358,"name":"origin","lat":"40.4172871","lon":"-82.907123","hops":{"incoming":[],"outgoing":[{"transport_id":null,"id":"11136","transport_name":null,"transport_description":null,"transport_unit":null,"transport_co2_eq":null,"from_stop_id":"15358","from_stop_lat":"40.4172871","from_stop_lon":"-82.907123","from_stop_placename":"Ohio, USA","to_stop_id":"15357","to_stop_name":"origin","to_stop_lat":"40.65","to_stop_lon":"-73.95","to_stop_placename":"Brooklyn, NY, USA","to_stop":{"id":"15357","name":"origin","lat":"40.65","lon":"-73.95","placename":"Brooklyn, NY, USA"},"from_stop":{"name":"origin","id":"15358","lat":"40.4172871","lon":"-82.907123","placename":"Ohio, USA"}}]}}},"processes":[],"eols":[]},{"oid":"1055","imid":"7448","linkid":"0","weight":"0","rawemissions":"0","emissions":"0","shipping":"630.12","processemissions":"0","endoflifeemissions":"0","disposaltype":null,"disposalenergy":null,"disposalimpact":null,"disposalemissions":null,"description":"Organic","name":"Jojoba Oil","id":"7448","stops":{"origin":{"related_to":"7448","part_or_object":"p","notes":null,"placename":"Maine, USA","id":15359,"name":"origin","lat":"45.253783","lon":"-69.4454689","hops":{"incoming":[],"outgoing":[{"transport_id":null,"id":"11137","transport_name":null,"transport_description":null,"transport_unit":null,"transport_co2_eq":null,"from_stop_id":"15359","from_stop_lat":"45.253783","from_stop_lon":"-69.4454689","from_stop_placename":"Maine, USA","to_stop_id":"15357","to_stop_name":"origin","to_stop_lat":"40.65","to_stop_lon":"-73.95","to_stop_placename":"Brooklyn, NY, USA","to_stop":{"id":"15357","name":"origin","lat":"40.65","lon":"-73.95","placename":"Brooklyn, NY, USA"},"from_stop":{"name":"origin","id":"15359","lat":"45.253783","lon":"-69.4454689","placename":"Maine, USA"}}]}}},"processes":[],"eols":[]},{"oid":"1055","imid":"7449","linkid":"0","weight":"0","rawemissions":"0","emissions":"0","shipping":"757.94","processemissions":"0","endoflifeemissions":"0","disposaltype":null,"disposalenergy":null,"disposalimpact":null,"disposalemissions":null,"description":"","name":"Grape Seed Oil","id":"7449","stops":{"origin":{"related_to":"7449","part_or_object":"p","notes":null,"placename":"Ohio, USA","id":15360,"name":"origin","lat":"40.4172871","lon":"-82.907123","hops":{"incoming":[],"outgoing":[{"transport_id":null,"id":"11138","transport_name":null,"transport_description":null,"transport_unit":null,"transport_co2_eq":null,"from_stop_id":"15360","from_stop_lat":"40.4172871","from_stop_lon":"-82.907123","from_stop_placename":"Ohio, USA","to_stop_id":"15357","to_stop_name":"origin","to_stop_lat":"40.65","to_stop_lon":"-73.95","to_stop_placename":"Brooklyn, NY, USA","to_stop":{"id":"15357","name":"origin","lat":"40.65","lon":"-73.95","placename":"Brooklyn, NY, USA"},"from_stop":{"name":"origin","id":"15360","lat":"40.4172871","lon":"-82.907123","placename":"Ohio, USA"}}]}}},"processes":[],"eols":[]},{"oid":"1055","imid":"7450","linkid":"0","weight":"0","rawemissions":"0","emissions":"0","shipping":"289.88","processemissions":"0","endoflifeemissions":"0","disposaltype":null,"disposalenergy":null,"disposalimpact":null,"disposalemissions":null,"description":"","name":"Sunflower Oil","id":"7450","stops":{"origin":{"related_to":"7450","part_or_object":"p","notes":null,"placename":"Massachusetts, USA","id":15361,"name":"origin","lat":"42.4072107","lon":"-71.3824374","hops":{"incoming":[],"outgoing":[{"transport_id":null,"id":"11139","transport_name":null,"transport_description":null,"transport_unit":null,"transport_co2_eq":null,"from_stop_id":"15361","from_stop_lat":"42.4072107","from_stop_lon":"-71.3824374","from_stop_placename":"Massachusetts, USA","to_stop_id":"15357","to_stop_name":"origin","to_stop_lat":"40.65","to_stop_lon":"-73.95","to_stop_placename":"Brooklyn, NY, USA","to_stop":{"id":"15357","name":"origin","lat":"40.65","lon":"-73.95","placename":"Brooklyn, NY, USA"},"from_stop":{"name":"origin","id":"15361","lat":"42.4072107","lon":"-71.3824374","placename":"Massachusetts, USA"}}]}}},"processes":[],"eols":[]},{"oid":"1055","imid":"7451","linkid":"0","weight":"0","rawemissions":"0","emissions":"0","shipping":"2907.11","processemissions":"0","endoflifeemissions":"0","disposaltype":null,"disposalenergy":null,"disposalimpact":null,"disposalemissions":null,"description":"","name":"Evening Primrose Oil","id":"7451","stops":{"origin":{"related_to":"7451","part_or_object":"p","notes":null,"placename":"Canada","id":15362,"name":"origin","lat":"56.130366","lon":"-106.346771","hops":{"incoming":[],"outgoing":[{"transport_id":null,"id":"11140","transport_name":null,"transport_description":null,"transport_unit":null,"transport_co2_eq":null,"from_stop_id":"15362","from_stop_lat":"56.130366","from_stop_lon":"-106.346771","from_stop_placename":"Canada","to_stop_id":"15357","to_stop_name":"origin","to_stop_lat":"40.65","to_stop_lon":"-73.95","to_stop_placename":"Brooklyn, NY, USA","to_stop":{"id":"15357","name":"origin","lat":"40.65","lon":"-73.95","placename":"Brooklyn, NY, USA"},"from_stop":{"name":"origin","id":"15362","lat":"56.130366","lon":"-106.346771","placename":"Canada"}}]}}},"processes":[],"eols":[]},{"oid":"1055","imid":"7452","linkid":"0","weight":"0","rawemissions":"0","emissions":"0","shipping":"6904.26","processemissions":"0","endoflifeemissions":"0","disposaltype":null,"disposalenergy":null,"disposalimpact":null,"disposalemissions":null,"description":"","name":"Lime Essential Oil","id":"7452","stops":{"origin":{"related_to":"7452","part_or_object":"p","notes":null,"placename":"Italy","id":15363,"name":"origin","lat":"41.87194","lon":"12.56738","hops":{"incoming":[],"outgoing":[{"transport_id":null,"id":"11141","transport_name":null,"transport_description":null,"transport_unit":null,"transport_co2_eq":null,"from_stop_id":"15363","from_stop_lat":"41.87194","from_stop_lon":"12.56738","from_stop_placename":"Italy","to_stop_id":"15357","to_stop_name":"origin","to_stop_lat":"40.65","to_stop_lon":"-73.95","to_stop_placename":"Brooklyn, NY, USA","to_stop":{"id":"15357","name":"origin","lat":"40.65","lon":"-73.95","placename":"Brooklyn, NY, USA"},"from_stop":{"name":"origin","id":"15363","lat":"41.87194","lon":"12.56738","placename":"Italy"}}]}}},"processes":[],"eols":[]},{"oid":"1055","imid":"7453","linkid":"0","weight":"0","rawemissions":"0","emissions":"0","shipping":"5946.89","processemissions":"0","endoflifeemissions":"0","disposaltype":null,"disposalenergy":null,"disposalimpact":null,"disposalemissions":null,"description":"","name":"Ginger and Grapefruit Essential Oil","id":"7453","stops":{"origin":{"related_to":"7453","part_or_object":"p","notes":null,"placename":"France","id":15364,"name":"origin","lat":"46.227638","lon":"2.213749","hops":{"incoming":[],"outgoing":[{"transport_id":null,"id":"11142","transport_name":null,"transport_description":null,"transport_unit":null,"transport_co2_eq":null,"from_stop_id":"15364","from_stop_lat":"46.227638","from_stop_lon":"2.213749","from_stop_placename":"France","to_stop_id":"15357","to_stop_name":"origin","to_stop_lat":"40.65","to_stop_lon":"-73.95","to_stop_placename":"Brooklyn, NY, USA","to_stop":{"id":"15357","name":"origin","lat":"40.65","lon":"-73.95","placename":"Brooklyn, NY, USA"},"from_stop":{"name":"origin","id":"15364","lat":"46.227638","lon":"2.213749","placename":"France"}}]}}},"processes":[],"eols":[]},{"oid":"1055","imid":"7459","linkid":"0","weight":"0","rawemissions":"0","emissions":"0","shipping":"0","processemissions":"0","endoflifeemissions":"0","disposaltype":null,"disposalenergy":null,"disposalimpact":null,"disposalemissions":null,"description":"Products are packaged with recycled packing peanuts from the Park Slope Co-Op.","name":"Packing Peanuts","id":"7459","stops":{"origin":{"related_to":"7459","part_or_object":"p","notes":null,"placename":"Brooklyn, NY, USA","id":15370,"name":"origin","lat":"40.65","lon":"-73.95","hops":{"incoming":[],"outgoing":[{"transport_id":null,"id":"11148","transport_name":null,"transport_description":null,"transport_unit":null,"transport_co2_eq":null,"from_stop_id":"15370","from_stop_lat":"40.65","from_stop_lon":"-73.95","from_stop_placename":"Brooklyn, NY, USA","to_stop_id":"15357","to_stop_name":"origin","to_stop_lat":"40.65","to_stop_lon":"-73.95","to_stop_placename":"Brooklyn, NY, USA","to_stop":{"id":"15357","name":"origin","lat":"40.65","lon":"-73.95","placename":"Brooklyn, NY, USA"},"from_stop":{"name":"origin","id":"15370","lat":"40.65","lon":"-73.95","placename":"Brooklyn, NY, USA"}}]}}},"processes":[],"eols":[]}],"user":{"name":"rlb372","id":"12288"}}}