{"1056":{"oid":"1056","type":"trace","flag":"","creator":"12288","name":"Soapwalla Deodorant","upc":"","imagelink":"","description":"Soapwalla's all-natural deodorant provides all the protection of a drugstore brand, but without any of the incredibly dangerous additives found in most mainstream deodorants.","slug":"Soapwalla-Deodorant","category":"featured","weight":"0","emissions":"0","embodied":"0","transport":"0","process":null,"endoflife":null,"shipping":"65572.36","lifetime":null,"usagetype":"","usageenergy":null,"usageemissions":null,"timecreated":"2011-04-20 20:38:15","timemodified":"2011-04-20 20:43:20","visibility":"public","showfootprint":"on","showembodied":"on","showtransport":"on","showprocess":"on","showendoflife":"on","showlastleg":"on","showuse":"on","showstats":"on","stops":{"origin":{"related_to":"1056","part_or_object":"o","notes":null,"placename":"Brooklyn, NY, USA","id":"15390","category":"1","lat":"40.65","lon":"-73.95","name":"origin","hops":{"incoming":[{"transport_id":null,"id":"11166","transport_name":null,"transport_description":null,"transport_unit":null,"transport_co2_eq":null,"from_stop_id":"15391","from_stop_lat":"41.0339862","from_stop_lon":"-73.7629097","to_stop_id":"15390","to_stop_name":"origin","to_stop_lat":"40.65","placename":"White Plains, NY, USA","to_stop_lon":"-73.95","to_stop":{"id":"15390","name":"origin","lat":"40.65","placename":"Brooklyn, NY, USA","lon":"-73.95"},"from_stop":{"name":"origin","id":"15391","lat":"41.0339862","lon":"-73.7629097","placename":"White Plains, NY, USA"}},{"transport_id":null,"id":"11167","transport_name":null,"transport_description":null,"transport_unit":null,"transport_co2_eq":null,"from_stop_id":"15392","from_stop_lat":"43.8041334","from_stop_lon":"-120.5542012","to_stop_id":"15390","to_stop_name":"origin","to_stop_lat":"40.65","placename":"Oregon, USA","to_stop_lon":"-73.95","to_stop":{"id":"15390","name":"origin","lat":"40.65","placename":"Brooklyn, NY, USA","lon":"-73.95"},"from_stop":{"name":"origin","id":"15392","lat":"43.8041334","lon":"-120.5542012","placename":"Oregon, USA"}},{"transport_id":null,"id":"11168","transport_name":null,"transport_description":null,"transport_unit":null,"transport_co2_eq":null,"from_stop_id":"15393","from_stop_lat":"35.1495343","from_stop_lon":"-90.0489801","to_stop_id":"15390","to_stop_name":"origin","to_stop_lat":"40.65","placename":"Memphis, TN, USA","to_stop_lon":"-73.95","to_stop":{"id":"15390","name":"origin","lat":"40.65","placename":"Brooklyn, NY, USA","lon":"-73.95"},"from_stop":{"name":"origin","id":"15393","lat":"35.1495343","lon":"-90.0489801","placename":"Memphis, TN, USA"}},{"transport_id":null,"id":"11169","transport_name":null,"transport_description":null,"transport_unit":null,"transport_co2_eq":null,"from_stop_id":"15394","from_stop_lat":"43.8041334","from_stop_lon":"-120.5542012","to_stop_id":"15390","to_stop_name":"origin","to_stop_lat":"40.65","placename":"Oregon, USA","to_stop_lon":"-73.95","to_stop":{"id":"15390","name":"origin","lat":"40.65","placename":"Brooklyn, NY, USA","lon":"-73.95"},"from_stop":{"name":"origin","id":"15394","lat":"43.8041334","lon":"-120.5542012","placename":"Oregon, USA"}},{"transport_id":null,"id":"11170","transport_name":null,"transport_description":null,"transport_unit":null,"transport_co2_eq":null,"from_stop_id":"15395","from_stop_lat":"40.463667","from_stop_lon":"-3.74922","to_stop_id":"15390","to_stop_name":"origin","to_stop_lat":"40.65","placename":"Spain","to_stop_lon":"-73.95","to_stop":{"id":"15390","name":"origin","lat":"40.65","placename":"Brooklyn, NY, USA","lon":"-73.95"},"from_stop":{"name":"origin","id":"15395","lat":"40.463667","lon":"-3.74922","placename":"Spain"}},{"transport_id":null,"id":"11171","transport_name":null,"transport_description":null,"transport_unit":null,"transport_co2_eq":null,"from_stop_id":"15396","from_stop_lat":"41.87194","from_stop_lon":"12.56738","to_stop_id":"15390","to_stop_name":"origin","to_stop_lat":"40.65","placename":"Italy","to_stop_lon":"-73.95","to_stop":{"id":"15390","name":"origin","lat":"40.65","placename":"Brooklyn, NY, USA","lon":"-73.95"},"from_stop":{"name":"origin","id":"15396","lat":"41.87194","lon":"12.56738","placename":"Italy"}},{"transport_id":null,"id":"11172","transport_name":null,"transport_description":null,"transport_unit":null,"transport_co2_eq":null,"from_stop_id":"15397","from_stop_lat":"36.204824","from_stop_lon":"138.252924","to_stop_id":"15390","to_stop_name":"origin","to_stop_lat":"40.65","placename":"Japan","to_stop_lon":"-73.95","to_stop":{"id":"15390","name":"origin","lat":"40.65","placename":"Brooklyn, NY, USA","lon":"-73.95"},"from_stop":{"name":"origin","id":"15397","lat":"36.204824","lon":"138.252924","placename":"Japan"}},{"transport_id":null,"id":"11173","transport_name":null,"transport_description":null,"transport_unit":null,"transport_co2_eq":null,"from_stop_id":"15398","from_stop_lat":"27.6648274","from_stop_lon":"-81.5157535","to_stop_id":"15390","to_stop_name":"origin","to_stop_lat":"40.65","placename":"Florida, USA","to_stop_lon":"-73.95","to_stop":{"id":"15390","name":"origin","lat":"40.65","placename":"Brooklyn, NY, USA","lon":"-73.95"},"from_stop":{"name":"origin","id":"15398","lat":"27.6648274","lon":"-81.5157535","placename":"Florida, USA"}},{"transport_id":null,"id":"11174","transport_name":null,"transport_description":null,"transport_unit":null,"transport_co2_eq":null,"from_stop_id":"15399","from_stop_lat":"-25.274398","from_stop_lon":"133.775136","to_stop_id":"15390","to_stop_name":"origin","to_stop_lat":"40.65","placename":"Australia","to_stop_lon":"-73.95","to_stop":{"id":"15390","name":"origin","lat":"40.65","placename":"Brooklyn, NY, USA","lon":"-73.95"},"from_stop":{"name":"origin","id":"15399","lat":"-25.274398","lon":"133.775136","placename":"Australia"}},{"transport_id":null,"id":"11175","transport_name":null,"transport_description":null,"transport_unit":null,"transport_co2_eq":null,"from_stop_id":"15400","from_stop_lat":"40.6331249","from_stop_lon":"-89.3985283","to_stop_id":"15390","to_stop_name":"origin","to_stop_lat":"40.65","placename":"Illinois, USA","to_stop_lon":"-73.95","to_stop":{"id":"15390","name":"origin","lat":"40.65","placename":"Brooklyn, NY, USA","lon":"-73.95"},"from_stop":{"name":"origin","id":"15400","lat":"40.6331249","lon":"-89.3985283","placename":"Illinois, USA"}},{"transport_id":null,"id":"11176","transport_name":null,"transport_description":null,"transport_unit":null,"transport_co2_eq":null,"from_stop_id":"15401","from_stop_lat":"45.253783","from_stop_lon":"-69.4454689","to_stop_id":"15390","to_stop_name":"origin","to_stop_lat":"40.65","placename":"Maine, USA","to_stop_lon":"-73.95","to_stop":{"id":"15390","name":"origin","lat":"40.65","placename":"Brooklyn, NY, USA","lon":"-73.95"},"from_stop":{"name":"origin","id":"15401","lat":"45.253783","lon":"-69.4454689","placename":"Maine, USA"}},{"transport_id":null,"id":"11177","transport_name":null,"transport_description":null,"transport_unit":null,"transport_co2_eq":null,"from_stop_id":"15402","from_stop_lat":"42.4072107","from_stop_lon":"-71.3824374","to_stop_id":"15390","to_stop_name":"origin","to_stop_lat":"40.65","placename":"Massachusetts, USA","to_stop_lon":"-73.95","to_stop":{"id":"15390","name":"origin","lat":"40.65","placename":"Brooklyn, NY, USA","lon":"-73.95"},"from_stop":{"name":"origin","id":"15402","lat":"42.4072107","lon":"-71.3824374","placename":"Massachusetts, USA"}},{"transport_id":null,"id":"11178","transport_name":null,"transport_description":null,"transport_unit":null,"transport_co2_eq":null,"from_stop_id":"15403","from_stop_lat":"43.8041334","from_stop_lon":"-120.5542012","to_stop_id":"15390","to_stop_name":"origin","to_stop_lat":"40.65","placename":"Oregon, USA","to_stop_lon":"-73.95","to_stop":{"id":"15390","name":"origin","lat":"40.65","placename":"Brooklyn, NY, USA","lon":"-73.95"},"from_stop":{"name":"origin","id":"15403","lat":"43.8041334","lon":"-120.5542012","placename":"Oregon, USA"}},{"transport_id":null,"id":"11179","transport_name":null,"transport_description":null,"transport_unit":null,"transport_co2_eq":null,"from_stop_id":"15404","from_stop_lat":"7.946527","from_stop_lon":"-1.023194","to_stop_id":"15390","to_stop_name":"origin","to_stop_lat":"40.65","placename":"Ghana","to_stop_lon":"-73.95","to_stop":{"id":"15390","name":"origin","lat":"40.65","placename":"Brooklyn, NY, USA","lon":"-73.95"},"from_stop":{"name":"origin","id":"15404","lat":"7.946527","lon":"-1.023194","placename":"Ghana"}},{"transport_id":null,"id":"11180","transport_name":null,"transport_description":null,"transport_unit":null,"transport_co2_eq":null,"from_stop_id":"15405","from_stop_lat":"42.7300783","from_stop_lon":"-73.7012299","to_stop_id":"15390","to_stop_name":"origin","to_stop_lat":"40.65","placename":"Watervliet, NY, USA","to_stop_lon":"-73.95","to_stop":{"id":"15390","name":"origin","lat":"40.65","placename":"Brooklyn, NY, USA","lon":"-73.95"},"from_stop":{"name":"origin","id":"15405","lat":"42.7300783","lon":"-73.7012299","placename":"Watervliet, NY, USA"}},{"transport_id":null,"id":"11181","transport_name":null,"transport_description":null,"transport_unit":null,"transport_co2_eq":null,"from_stop_id":"15406","from_stop_lat":"40.7143528","from_stop_lon":"-74.0059731","to_stop_id":"15390","to_stop_name":"origin","to_stop_lat":"40.65","placename":"New York, NY, USA","to_stop_lon":"-73.95","to_stop":{"id":"15390","name":"origin","lat":"40.65","placename":"Brooklyn, NY, USA","lon":"-73.95"},"from_stop":{"name":"origin","id":"15406","lat":"40.7143528","lon":"-74.0059731","placename":"New York, NY, USA"}},{"transport_id":null,"id":"11182","transport_name":null,"transport_description":null,"transport_unit":null,"transport_co2_eq":null,"from_stop_id":"15407","from_stop_lat":"40.65","from_stop_lon":"-73.95","to_stop_id":"15390","to_stop_name":"origin","to_stop_lat":"40.65","placename":"Brooklyn, NY, USA","to_stop_lon":"-73.95","to_stop":{"id":"15390","name":"origin","lat":"40.65","placename":"Brooklyn, NY, USA","lon":"-73.95"},"from_stop":{"name":"origin","id":"15407","lat":"40.65","lon":"-73.95","placename":"Brooklyn, NY, USA"}}],"outgoing":[]}}},"parts":[{"oid":"1056","imid":"7477","linkid":"0","weight":"0","rawemissions":"0","emissions":"0","shipping":"45.56","processemissions":"0","endoflifeemissions":"0","disposaltype":null,"disposalenergy":null,"disposalimpact":null,"disposalemissions":null,"description":"","name":"Baking Soda","id":"7477","stops":{"origin":{"related_to":"7477","part_or_object":"p","notes":null,"placename":"White Plains, NY, USA","id":15391,"name":"origin","lat":"41.0339862","lon":"-73.7629097","hops":{"incoming":[],"outgoing":[{"transport_id":null,"id":"11166","transport_name":null,"transport_description":null,"transport_unit":null,"transport_co2_eq":null,"from_stop_id":"15391","from_stop_lat":"41.0339862","from_stop_lon":"-73.7629097","from_stop_placename":"White Plains, NY, USA","to_stop_id":"15390","to_stop_name":"origin","to_stop_lat":"40.65","to_stop_lon":"-73.95","to_stop_placename":"Brooklyn, NY, USA","to_stop":{"id":"15390","name":"origin","lat":"40.65","lon":"-73.95","placename":"Brooklyn, NY, USA"},"from_stop":{"name":"origin","id":"15391","lat":"41.0339862","lon":"-73.7629097","placename":"White Plains, NY, USA"}}]}}},"processes":[],"eols":[]},{"oid":"1056","imid":"7478","linkid":"0","weight":"0","rawemissions":"0","emissions":"0","shipping":"3806.72","processemissions":"0","endoflifeemissions":"0","disposaltype":null,"disposalenergy":null,"disposalimpact":null,"disposalemissions":null,"description":"","name":"Powder","id":"7478","stops":{"origin":{"related_to":"7478","part_or_object":"p","notes":null,"placename":"Oregon, USA","id":15392,"name":"origin","lat":"43.8041334","lon":"-120.5542012","hops":{"incoming":[],"outgoing":[{"transport_id":null,"id":"11167","transport_name":null,"transport_description":null,"transport_unit":null,"transport_co2_eq":null,"from_stop_id":"15392","from_stop_lat":"43.8041334","from_stop_lon":"-120.5542012","from_stop_placename":"Oregon, USA","to_stop_id":"15390","to_stop_name":"origin","to_stop_lat":"40.65","to_stop_lon":"-73.95","to_stop_placename":"Brooklyn, NY, USA","to_stop":{"id":"15390","name":"origin","lat":"40.65","lon":"-73.95","placename":"Brooklyn, NY, USA"},"from_stop":{"name":"origin","id":"15392","lat":"43.8041334","lon":"-120.5542012","placename":"Oregon, USA"}}]}}},"processes":[],"eols":[]},{"oid":"1056","imid":"7479","linkid":"0","weight":"0","rawemissions":"0","emissions":"0","shipping":"1537.99","processemissions":"0","endoflifeemissions":"0","disposaltype":null,"disposalenergy":null,"disposalimpact":null,"disposalemissions":null,"description":"","name":"Corn Starch","id":"7479","stops":{"origin":{"related_to":"7479","part_or_object":"p","notes":null,"placename":"Memphis, TN, USA","id":15393,"name":"origin","lat":"35.1495343","lon":"-90.0489801","hops":{"incoming":[],"outgoing":[{"transport_id":null,"id":"11168","transport_name":null,"transport_description":null,"transport_unit":null,"transport_co2_eq":null,"from_stop_id":"15393","from_stop_lat":"35.1495343","from_stop_lon":"-90.0489801","from_stop_placename":"Memphis, TN, USA","to_stop_id":"15390","to_stop_name":"origin","to_stop_lat":"40.65","to_stop_lon":"-73.95","to_stop_placename":"Brooklyn, NY, USA","to_stop":{"id":"15390","name":"origin","lat":"40.65","lon":"-73.95","placename":"Brooklyn, NY, USA"},"from_stop":{"name":"origin","id":"15393","lat":"35.1495343","lon":"-90.0489801","placename":"Memphis, TN, USA"}}]}}},"processes":[],"eols":[]},{"oid":"1056","imid":"7480","linkid":"0","weight":"0","rawemissions":"0","emissions":"0","shipping":"3806.72","processemissions":"0","endoflifeemissions":"0","disposaltype":null,"disposalenergy":null,"disposalimpact":null,"disposalemissions":null,"description":"Certified organic","name":"Kaolin Clay","id":"7480","stops":{"origin":{"related_to":"7480","part_or_object":"p","notes":null,"placename":"Oregon, USA","id":15394,"name":"origin","lat":"43.8041334","lon":"-120.5542012","hops":{"incoming":[],"outgoing":[{"transport_id":null,"id":"11169","transport_name":null,"transport_description":null,"transport_unit":null,"transport_co2_eq":null,"from_stop_id":"15394","from_stop_lat":"43.8041334","from_stop_lon":"-120.5542012","from_stop_placename":"Oregon, USA","to_stop_id":"15390","to_stop_name":"origin","to_stop_lat":"40.65","to_stop_lon":"-73.95","to_stop_placename":"Brooklyn, NY, USA","to_stop":{"id":"15390","name":"origin","lat":"40.65","lon":"-73.95","placename":"Brooklyn, NY, USA"},"from_stop":{"name":"origin","id":"15394","lat":"43.8041334","lon":"-120.5542012","placename":"Oregon, USA"}}]}}},"processes":[],"eols":[]},{"oid":"1056","imid":"7481","linkid":"0","weight":"0","rawemissions":"0","emissions":"0","shipping":"5767.36","processemissions":"0","endoflifeemissions":"0","disposaltype":null,"disposalenergy":null,"disposalimpact":null,"disposalemissions":null,"description":"","name":"Lavender Essential Oil","id":"7481","stops":{"origin":{"related_to":"7481","part_or_object":"p","notes":null,"placename":"Spain","id":15395,"name":"origin","lat":"40.463667","lon":"-3.74922","hops":{"incoming":[],"outgoing":[{"transport_id":null,"id":"11170","transport_name":null,"transport_description":null,"transport_unit":null,"transport_co2_eq":null,"from_stop_id":"15395","from_stop_lat":"40.463667","from_stop_lon":"-3.74922","from_stop_placename":"Spain","to_stop_id":"15390","to_stop_name":"origin","to_stop_lat":"40.65","to_stop_lon":"-73.95","to_stop_placename":"Brooklyn, NY, USA","to_stop":{"id":"15390","name":"origin","lat":"40.65","lon":"-73.95","placename":"Brooklyn, NY, USA"},"from_stop":{"name":"origin","id":"15395","lat":"40.463667","lon":"-3.74922","placename":"Spain"}}]}}},"processes":[],"eols":[]},{"oid":"1056","imid":"7482","linkid":"0","weight":"0","rawemissions":"0","emissions":"0","shipping":"6904.26","processemissions":"0","endoflifeemissions":"0","disposaltype":null,"disposalenergy":null,"disposalimpact":null,"disposalemissions":null,"description":"","name":"Bergamot Essential Oil","id":"7482","stops":{"origin":{"related_to":"7482","part_or_object":"p","notes":null,"placename":"Italy","id":15396,"name":"origin","lat":"41.87194","lon":"12.56738","hops":{"incoming":[],"outgoing":[{"transport_id":null,"id":"11171","transport_name":null,"transport_description":null,"transport_unit":null,"transport_co2_eq":null,"from_stop_id":"15396","from_stop_lat":"41.87194","from_stop_lon":"12.56738","from_stop_placename":"Italy","to_stop_id":"15390","to_stop_name":"origin","to_stop_lat":"40.65","to_stop_lon":"-73.95","to_stop_placename":"Brooklyn, NY, USA","to_stop":{"id":"15390","name":"origin","lat":"40.65","lon":"-73.95","placename":"Brooklyn, NY, USA"},"from_stop":{"name":"origin","id":"15396","lat":"41.87194","lon":"12.56738","placename":"Italy"}}]}}},"processes":[],"eols":[]},{"oid":"1056","imid":"7483","linkid":"0","weight":"0","rawemissions":"0","emissions":"0","shipping":"10871.12","processemissions":"0","endoflifeemissions":"0","disposaltype":null,"disposalenergy":null,"disposalimpact":null,"disposalemissions":null,"description":"","name":"Peppermint Essential Oil","id":"7483","stops":{"origin":{"related_to":"7483","part_or_object":"p","notes":null,"placename":"Japan","id":15397,"name":"origin","lat":"36.204824","lon":"138.252924","hops":{"incoming":[],"outgoing":[{"transport_id":null,"id":"11172","transport_name":null,"transport_description":null,"transport_unit":null,"transport_co2_eq":null,"from_stop_id":"15397","from_stop_lat":"36.204824","from_stop_lon":"138.252924","from_stop_placename":"Japan","to_stop_id":"15390","to_stop_name":"origin","to_stop_lat":"40.65","to_stop_lon":"-73.95","to_stop_placename":"Brooklyn, NY, USA","to_stop":{"id":"15390","name":"origin","lat":"40.65","lon":"-73.95","placename":"Brooklyn, NY, USA"},"from_stop":{"name":"origin","id":"15397","lat":"36.204824","lon":"138.252924","placename":"Japan"}}]}}},"processes":[],"eols":[]},{"oid":"1056","imid":"7484","linkid":"0","weight":"0","rawemissions":"0","emissions":"0","shipping":"1603.12","processemissions":"0","endoflifeemissions":"0","disposaltype":null,"disposalenergy":null,"disposalimpact":null,"disposalemissions":null,"description":"","name":"Orange Essential Oil","id":"7484","stops":{"origin":{"related_to":"7484","part_or_object":"p","notes":null,"placename":"Florida, USA","id":15398,"name":"origin","lat":"27.6648274","lon":"-81.5157535","hops":{"incoming":[],"outgoing":[{"transport_id":null,"id":"11173","transport_name":null,"transport_description":null,"transport_unit":null,"transport_co2_eq":null,"from_stop_id":"15398","from_stop_lat":"27.6648274","from_stop_lon":"-81.5157535","from_stop_placename":"Florida, USA","to_stop_id":"15390","to_stop_name":"origin","to_stop_lat":"40.65","to_stop_lon":"-73.95","to_stop_placename":"Brooklyn, NY, USA","to_stop":{"id":"15390","name":"origin","lat":"40.65","lon":"-73.95","placename":"Brooklyn, NY, USA"},"from_stop":{"name":"origin","id":"15398","lat":"27.6648274","lon":"-81.5157535","placename":"Florida, USA"}}]}}},"processes":[],"eols":[]},{"oid":"1056","imid":"7485","linkid":"0","weight":"0","rawemissions":"0","emissions":"0","shipping":"16954.59","processemissions":"0","endoflifeemissions":"0","disposaltype":null,"disposalenergy":null,"disposalimpact":null,"disposalemissions":null,"description":"","name":"Tea Tree Oil","id":"7485","stops":{"origin":{"related_to":"7485","part_or_object":"p","notes":null,"placename":"Australia","id":15399,"name":"origin","lat":"-25.274398","lon":"133.775136","hops":{"incoming":[],"outgoing":[{"transport_id":null,"id":"11174","transport_name":null,"transport_description":null,"transport_unit":null,"transport_co2_eq":null,"from_stop_id":"15399","from_stop_lat":"-25.274398","from_stop_lon":"133.775136","from_stop_placename":"Australia","to_stop_id":"15390","to_stop_name":"origin","to_stop_lat":"40.65","to_stop_lon":"-73.95","to_stop_placename":"Brooklyn, NY, USA","to_stop":{"id":"15390","name":"origin","lat":"40.65","lon":"-73.95","placename":"Brooklyn, NY, USA"},"from_stop":{"name":"origin","id":"15399","lat":"-25.274398","lon":"133.775136","placename":"Australia"}}]}}},"processes":[],"eols":[]},{"oid":"1056","imid":"7486","linkid":"0","weight":"0","rawemissions":"0","emissions":"0","shipping":"1303.24","processemissions":"0","endoflifeemissions":"0","disposaltype":null,"disposalenergy":null,"disposalimpact":null,"disposalemissions":null,"description":"Food-grade, via co-op","name":"Vegetable Glycerine","id":"7486","stops":{"origin":{"related_to":"7486","part_or_object":"p","notes":null,"placename":"Illinois, USA","id":15400,"name":"origin","lat":"40.6331249","lon":"-89.3985283","hops":{"incoming":[],"outgoing":[{"transport_id":null,"id":"11175","transport_name":null,"transport_description":null,"transport_unit":null,"transport_co2_eq":null,"from_stop_id":"15400","from_stop_lat":"40.6331249","from_stop_lon":"-89.3985283","from_stop_placename":"Illinois, USA","to_stop_id":"15390","to_stop_name":"origin","to_stop_lat":"40.65","to_stop_lon":"-73.95","to_stop_placename":"Brooklyn, NY, USA","to_stop":{"id":"15390","name":"origin","lat":"40.65","lon":"-73.95","placename":"Brooklyn, NY, USA"},"from_stop":{"name":"origin","id":"15400","lat":"40.6331249","lon":"-89.3985283","placename":"Illinois, USA"}}]}}},"processes":[],"eols":[]},{"oid":"1056","imid":"7487","linkid":"0","weight":"0","rawemissions":"0","emissions":"0","shipping":"630.12","processemissions":"0","endoflifeemissions":"0","disposaltype":null,"disposalenergy":null,"disposalimpact":null,"disposalemissions":null,"description":"","name":"Jojoba Oil","id":"7487","stops":{"origin":{"related_to":"7487","part_or_object":"p","notes":null,"placename":"Maine, USA","id":15401,"name":"origin","lat":"45.253783","lon":"-69.4454689","hops":{"incoming":[],"outgoing":[{"transport_id":null,"id":"11176","transport_name":null,"transport_description":null,"transport_unit":null,"transport_co2_eq":null,"from_stop_id":"15401","from_stop_lat":"45.253783","from_stop_lon":"-69.4454689","from_stop_placename":"Maine, USA","to_stop_id":"15390","to_stop_name":"origin","to_stop_lat":"40.65","to_stop_lon":"-73.95","to_stop_placename":"Brooklyn, NY, USA","to_stop":{"id":"15390","name":"origin","lat":"40.65","lon":"-73.95","placename":"Brooklyn, NY, USA"},"from_stop":{"name":"origin","id":"15401","lat":"45.253783","lon":"-69.4454689","placename":"Maine, USA"}}]}}},"processes":[],"eols":[]},{"oid":"1056","imid":"7488","linkid":"0","weight":"0","rawemissions":"0","emissions":"0","shipping":"289.88","processemissions":"0","endoflifeemissions":"0","disposaltype":null,"disposalenergy":null,"disposalimpact":null,"disposalemissions":null,"description":"","name":"Sunflower Oil","id":"7488","stops":{"origin":{"related_to":"7488","part_or_object":"p","notes":null,"placename":"Massachusetts, USA","id":15402,"name":"origin","lat":"42.4072107","lon":"-71.3824374","hops":{"incoming":[],"outgoing":[{"transport_id":null,"id":"11177","transport_name":null,"transport_description":null,"transport_unit":null,"transport_co2_eq":null,"from_stop_id":"15402","from_stop_lat":"42.4072107","from_stop_lon":"-71.3824374","from_stop_placename":"Massachusetts, USA","to_stop_id":"15390","to_stop_name":"origin","to_stop_lat":"40.65","to_stop_lon":"-73.95","to_stop_placename":"Brooklyn, NY, USA","to_stop":{"id":"15390","name":"origin","lat":"40.65","lon":"-73.95","placename":"Brooklyn, NY, USA"},"from_stop":{"name":"origin","id":"15402","lat":"42.4072107","lon":"-71.3824374","placename":"Massachusetts, USA"}}]}}},"processes":[],"eols":[]},{"oid":"1056","imid":"7489","linkid":"0","weight":"0","rawemissions":"0","emissions":"0","shipping":"3806.72","processemissions":"0","endoflifeemissions":"0","disposaltype":null,"disposalenergy":null,"disposalimpact":null,"disposalemissions":null,"description":"","name":"Rose Hip Seed Oil","id":"7489","stops":{"origin":{"related_to":"7489","part_or_object":"p","notes":null,"placename":"Oregon, USA","id":15403,"name":"origin","lat":"43.8041334","lon":"-120.5542012","hops":{"incoming":[],"outgoing":[{"transport_id":null,"id":"11178","transport_name":null,"transport_description":null,"transport_unit":null,"transport_co2_eq":null,"from_stop_id":"15403","from_stop_lat":"43.8041334","from_stop_lon":"-120.5542012","from_stop_placename":"Oregon, USA","to_stop_id":"15390","to_stop_name":"origin","to_stop_lat":"40.65","to_stop_lon":"-73.95","to_stop_placename":"Brooklyn, NY, USA","to_stop":{"id":"15390","name":"origin","lat":"40.65","lon":"-73.95","placename":"Brooklyn, NY, USA"},"from_stop":{"name":"origin","id":"15403","lat":"43.8041334","lon":"-120.5542012","placename":"Oregon, USA"}}]}}},"processes":[],"eols":[]},{"oid":"1056","imid":"7490","linkid":"0","weight":"0","rawemissions":"0","emissions":"0","shipping":"8003.91","processemissions":"0","endoflifeemissions":"0","disposaltype":null,"disposalenergy":null,"disposalimpact":null,"disposalemissions":null,"description":"Ethically sourced from a women's co-op in Ghana","name":"Shea Butter","id":"7490","stops":{"origin":{"related_to":"7490","part_or_object":"p","notes":null,"placename":"Ghana","id":15404,"name":"origin","lat":"7.946527","lon":"-1.023194","hops":{"incoming":[],"outgoing":[{"transport_id":null,"id":"11179","transport_name":null,"transport_description":null,"transport_unit":null,"transport_co2_eq":null,"from_stop_id":"15404","from_stop_lat":"7.946527","from_stop_lon":"-1.023194","from_stop_placename":"Ghana","to_stop_id":"15390","to_stop_name":"origin","to_stop_lat":"40.65","to_stop_lon":"-73.95","to_stop_placename":"Brooklyn, NY, USA","to_stop":{"id":"15390","name":"origin","lat":"40.65","lon":"-73.95","placename":"Brooklyn, NY, USA"},"from_stop":{"name":"origin","id":"15404","lat":"7.946527","lon":"-1.023194","placename":"Ghana"}}]}}},"processes":[],"eols":[]},{"oid":"1056","imid":"7491","linkid":"0","weight":"0","rawemissions":"0","emissions":"0","shipping":"232.47","processemissions":"0","endoflifeemissions":"0","disposaltype":null,"disposalenergy":null,"disposalimpact":null,"disposalemissions":null,"description":"","name":"Jars & Lids","id":"7491","stops":{"origin":{"related_to":"7491","part_or_object":"p","notes":null,"placename":"Watervliet, NY, USA","id":15405,"name":"origin","lat":"42.7300783","lon":"-73.7012299","hops":{"incoming":[],"outgoing":[{"transport_id":null,"id":"11180","transport_name":null,"transport_description":null,"transport_unit":null,"transport_co2_eq":null,"from_stop_id":"15405","from_stop_lat":"42.7300783","from_stop_lon":"-73.7012299","from_stop_placename":"Watervliet, NY, USA","to_stop_id":"15390","to_stop_name":"origin","to_stop_lat":"40.65","to_stop_lon":"-73.95","to_stop_placename":"Brooklyn, NY, USA","to_stop":{"id":"15390","name":"origin","lat":"40.65","lon":"-73.95","placename":"Brooklyn, NY, USA"},"from_stop":{"name":"origin","id":"15405","lat":"42.7300783","lon":"-73.7012299","placename":"Watervliet, NY, USA"}}]}}},"processes":[],"eols":[]},{"oid":"1056","imid":"7492","linkid":"0","weight":"0","rawemissions":"0","emissions":"0","shipping":"8.58","processemissions":"0","endoflifeemissions":"0","disposaltype":null,"disposalenergy":null,"disposalimpact":null,"disposalemissions":null,"description":"","name":"Labels","id":"7492","stops":{"origin":{"related_to":"7492","part_or_object":"p","notes":null,"placename":"New York, NY, USA","id":15406,"name":"origin","lat":"40.7143528","lon":"-74.0059731","hops":{"incoming":[],"outgoing":[{"transport_id":null,"id":"11181","transport_name":null,"transport_description":null,"transport_unit":null,"transport_co2_eq":null,"from_stop_id":"15406","from_stop_lat":"40.7143528","from_stop_lon":"-74.0059731","from_stop_placename":"New York, NY, USA","to_stop_id":"15390","to_stop_name":"origin","to_stop_lat":"40.65","to_stop_lon":"-73.95","to_stop_placename":"Brooklyn, NY, USA","to_stop":{"id":"15390","name":"origin","lat":"40.65","lon":"-73.95","placename":"Brooklyn, NY, USA"},"from_stop":{"name":"origin","id":"15406","lat":"40.7143528","lon":"-74.0059731","placename":"New York, NY, USA"}}]}}},"processes":[],"eols":[]},{"oid":"1056","imid":"7493","linkid":"0","weight":"0","rawemissions":"0","emissions":"0","shipping":"0","processemissions":"0","endoflifeemissions":"0","disposaltype":null,"disposalenergy":null,"disposalimpact":null,"disposalemissions":null,"description":"From Park Slope co-op","name":"Packing Peanuts","id":"7493","stops":{"origin":{"related_to":"7493","part_or_object":"p","notes":null,"placename":"Brooklyn, NY, USA","id":15407,"name":"origin","lat":"40.65","lon":"-73.95","hops":{"incoming":[],"outgoing":[{"transport_id":null,"id":"11182","transport_name":null,"transport_description":null,"transport_unit":null,"transport_co2_eq":null,"from_stop_id":"15407","from_stop_lat":"40.65","from_stop_lon":"-73.95","from_stop_placename":"Brooklyn, NY, USA","to_stop_id":"15390","to_stop_name":"origin","to_stop_lat":"40.65","to_stop_lon":"-73.95","to_stop_placename":"Brooklyn, NY, USA","to_stop":{"id":"15390","name":"origin","lat":"40.65","lon":"-73.95","placename":"Brooklyn, NY, USA"},"from_stop":{"name":"origin","id":"15407","lat":"40.65","lon":"-73.95","placename":"Brooklyn, NY, USA"}}]}}},"processes":[],"eols":[]}],"user":{"name":"rlb372","id":"12288"}}}