{"1076":{"oid":"1076","type":"trace","flag":"","creator":"12326","name":"How Homemade Pizza Is Made","upc":"","imagelink":"","description":"Reference: me","slug":"How-Homemade-Pizza-Is-Made","category":"","weight":"0","emissions":"0","embodied":"0","transport":"0","process":null,"endoflife":null,"shipping":"21165.85","lifetime":null,"usagetype":"","usageenergy":null,"usageemissions":null,"timecreated":"2011-04-25 12:06:56","timemodified":"2011-04-25 12:27:37","visibility":"public","showfootprint":"on","showembodied":"on","showtransport":"on","showprocess":"on","showendoflife":"on","showlastleg":"on","showuse":"on","showstats":"on","stops":{"origin":{"related_to":"1076","part_or_object":"o","notes":null,"placename":"500 Washington Ave, Brooklyn, NY 11238, USA","id":"15661","category":"1","lat":"40.684001","lon":"-73.96535","name":"origin","hops":{"incoming":[{"transport_id":null,"id":"11347","transport_name":null,"transport_description":null,"transport_unit":null,"transport_co2_eq":null,"from_stop_id":"15662","from_stop_lat":"38.9697127","from_stop_lon":"-101.7979613","to_stop_id":"15661","to_stop_name":"origin","to_stop_lat":"40.684001","placename":"Wallace, Kansas, USA","to_stop_lon":"-73.96535","to_stop":{"id":"15661","name":"origin","lat":"40.684001","placename":"500 Washington Ave, Brooklyn, NY 11238, USA","lon":"-73.96535"},"from_stop":{"name":"origin","id":"15662","lat":"38.9697127","lon":"-101.7979613","placename":"Wallace, Kansas, USA"}},{"transport_id":null,"id":"11348","transport_name":null,"transport_description":null,"transport_unit":null,"transport_co2_eq":null,"from_stop_id":"15663","from_stop_lat":"40.6430766","from_stop_lon":"15.9699878","to_stop_id":"15661","to_stop_name":"origin","to_stop_lat":"40.684001","placename":"Basilicata, Italy","to_stop_lon":"-73.96535","to_stop":{"id":"15661","name":"origin","lat":"40.684001","placename":"500 Washington Ave, Brooklyn, NY 11238, USA","lon":"-73.96535"},"from_stop":{"name":"origin","id":"15663","lat":"40.6430766","lon":"15.9699878","placename":"Basilicata, Italy"}},{"transport_id":null,"id":"11349","transport_name":null,"transport_description":null,"transport_unit":null,"transport_co2_eq":null,"from_stop_id":"15664","from_stop_lat":"40.7448241","from_stop_lon":"-73.9487491","to_stop_id":"15661","to_stop_name":"origin","to_stop_lat":"40.684001","placename":"Long Island City, Queens, NY, USA","to_stop_lon":"-73.96535","to_stop":{"id":"15661","name":"origin","lat":"40.684001","placename":"500 Washington Ave, Brooklyn, NY 11238, USA","lon":"-73.96535"},"from_stop":{"name":"origin","id":"15664","lat":"40.7448241","lon":"-73.9487491","placename":"Long Island City, Queens, NY, USA"}},{"transport_id":null,"id":"11350","transport_name":null,"transport_description":null,"transport_unit":null,"transport_co2_eq":null,"from_stop_id":"15665","from_stop_lat":"35.1495343","from_stop_lon":"-90.0489801","to_stop_id":"15661","to_stop_name":"origin","to_stop_lat":"40.684001","placename":"Memphis, TN, USA","to_stop_lon":"-73.96535","to_stop":{"id":"15661","name":"origin","lat":"40.684001","placename":"500 Washington Ave, Brooklyn, NY 11238, USA","lon":"-73.96535"},"from_stop":{"name":"origin","id":"15665","lat":"35.1495343","lon":"-90.0489801","placename":"Memphis, TN, USA"}},{"transport_id":null,"id":"11351","transport_name":null,"transport_description":null,"transport_unit":null,"transport_co2_eq":null,"from_stop_id":"15666","from_stop_lat":"34.7159745","from_stop_lon":"-81.0195262","to_stop_id":"15661","to_stop_name":"origin","to_stop_lat":"40.684001","placename":"Richburg, SC 29729, USA","to_stop_lon":"-73.96535","to_stop":{"id":"15661","name":"origin","lat":"40.684001","placename":"500 Washington Ave, Brooklyn, NY 11238, USA","lon":"-73.96535"},"from_stop":{"name":"origin","id":"15666","lat":"34.7159745","lon":"-81.0195262","placename":"Richburg, SC 29729, USA"}},{"transport_id":null,"id":"11352","transport_name":null,"transport_description":null,"transport_unit":null,"transport_co2_eq":null,"from_stop_id":"15667","from_stop_lat":"42.6739194","from_stop_lon":"-74.6510806","to_stop_id":"15661","to_stop_name":"origin","to_stop_lat":"40.684001","placename":"Catskill Mountains, Decatur, NY 12197, USA","to_stop_lon":"-73.96535","to_stop":{"id":"15661","name":"origin","lat":"40.684001","placename":"500 Washington Ave, Brooklyn, NY 11238, USA","lon":"-73.96535"},"from_stop":{"name":"origin","id":"15667","lat":"42.6739194","lon":"-74.6510806","placename":"Catskill Mountains, Decatur, NY 12197, USA"}},{"transport_id":null,"id":"11353","transport_name":null,"transport_description":null,"transport_unit":null,"transport_co2_eq":null,"from_stop_id":"15668","from_stop_lat":"29.4581429","from_stop_lon":"-94.5005808","to_stop_id":"15661","to_stop_name":"origin","to_stop_lat":"40.684001","placename":"Gulf Of Mexico, United States","to_stop_lon":"-73.96535","to_stop":{"id":"15661","name":"origin","lat":"40.684001","placename":"500 Washington Ave, Brooklyn, NY 11238, USA","lon":"-73.96535"},"from_stop":{"name":"origin","id":"15668","lat":"29.4581429","lon":"-94.5005808","placename":"Gulf Of Mexico, United States"}},{"transport_id":null,"id":"11354","transport_name":null,"transport_description":null,"transport_unit":null,"transport_co2_eq":null,"from_stop_id":"15669","from_stop_lat":"43.8430139","from_stop_lon":"10.507994","to_stop_id":"15661","to_stop_name":"origin","to_stop_lat":"40.684001","placename":"Lucca, Italy","to_stop_lon":"-73.96535","to_stop":{"id":"15661","name":"origin","lat":"40.684001","placename":"500 Washington Ave, Brooklyn, NY 11238, USA","lon":"-73.96535"},"from_stop":{"name":"origin","id":"15669","lat":"43.8430139","lon":"10.507994","placename":"Lucca, Italy"}}],"outgoing":[]}}},"parts":[{"oid":"1076","imid":"7563","linkid":"0","weight":"0","rawemissions":"0","emissions":"0","shipping":"2377.13","processemissions":"0","endoflifeemissions":"0","disposaltype":null,"disposalenergy":null,"disposalimpact":null,"disposalemissions":null,"description":"http:\/\/www.kingarthurflour.com\/flours\/","name":"Flour","id":"7563","stops":{"origin":{"related_to":"7563","part_or_object":"p","notes":null,"placename":"Wallace, Kansas, USA","id":15662,"name":"origin","lat":"38.9697127","lon":"-101.7979613","hops":{"incoming":[],"outgoing":[{"transport_id":null,"id":"11347","transport_name":null,"transport_description":null,"transport_unit":null,"transport_co2_eq":null,"from_stop_id":"15662","from_stop_lat":"38.9697127","from_stop_lon":"-101.7979613","from_stop_placename":"Wallace, Kansas, USA","to_stop_id":"15661","to_stop_name":"origin","to_stop_lat":"40.684001","to_stop_lon":"-73.96535","to_stop_placename":"500 Washington Ave, Brooklyn, NY 11238, USA","to_stop":{"id":"15661","name":"origin","lat":"40.684001","lon":"-73.96535","placename":"500 Washington Ave, Brooklyn, NY 11238, USA"},"from_stop":{"name":"origin","id":"15662","lat":"38.9697127","lon":"-101.7979613","placename":"Wallace, Kansas, USA"}}]}}},"processes":[],"eols":[]},{"oid":"1076","imid":"7564","linkid":"0","weight":"0","rawemissions":"0","emissions":"0","shipping":"7217.22","processemissions":"0","endoflifeemissions":"0","disposaltype":null,"disposalenergy":null,"disposalimpact":null,"disposalemissions":null,"description":"www.rienzifoods.com","name":"Tomatoes","id":"7564","stops":{"origin":{"related_to":"7564","part_or_object":"p","notes":null,"placename":"Basilicata, Italy","id":15663,"name":"origin","lat":"40.6430766","lon":"15.9699878","hops":{"incoming":[],"outgoing":[{"transport_id":null,"id":"11348","transport_name":null,"transport_description":null,"transport_unit":null,"transport_co2_eq":null,"from_stop_id":"15663","from_stop_lat":"40.6430766","from_stop_lon":"15.9699878","from_stop_placename":"Basilicata, Italy","to_stop_id":"15661","to_stop_name":"origin","to_stop_lat":"40.684001","to_stop_lon":"-73.96535","to_stop_placename":"500 Washington Ave, Brooklyn, NY 11238, USA","to_stop":{"id":"15661","name":"origin","lat":"40.684001","lon":"-73.96535","placename":"500 Washington Ave, Brooklyn, NY 11238, USA"},"from_stop":{"name":"origin","id":"15663","lat":"40.6430766","lon":"15.9699878","placename":"Basilicata, Italy"}}]}}},"processes":[],"eols":[]},{"oid":"1076","imid":"7565","linkid":"0","weight":"0","rawemissions":"0","emissions":"0","shipping":"6.91","processemissions":"0","endoflifeemissions":"0","disposaltype":null,"disposalenergy":null,"disposalimpact":null,"disposalemissions":null,"description":"New York Cheese & Natural Co. ","name":"Mozzarella","id":"7565","stops":{"origin":{"related_to":"7565","part_or_object":"p","notes":null,"placename":"Long Island City, Queens, NY, USA","id":15664,"name":"origin","lat":"40.7448241","lon":"-73.9487491","hops":{"incoming":[],"outgoing":[{"transport_id":null,"id":"11349","transport_name":null,"transport_description":null,"transport_unit":null,"transport_co2_eq":null,"from_stop_id":"15664","from_stop_lat":"40.7448241","from_stop_lon":"-73.9487491","from_stop_placename":"Long Island City, Queens, NY, USA","to_stop_id":"15661","to_stop_name":"origin","to_stop_lat":"40.684001","to_stop_lon":"-73.96535","to_stop_placename":"500 Washington Ave, Brooklyn, NY 11238, USA","to_stop":{"id":"15661","name":"origin","lat":"40.684001","lon":"-73.96535","placename":"500 Washington Ave, Brooklyn, NY 11238, USA"},"from_stop":{"name":"origin","id":"15664","lat":"40.7448241","lon":"-73.9487491","placename":"Long Island City, Queens, NY, USA"}}]}}},"processes":[],"eols":[]},{"oid":"1076","imid":"7566","linkid":"0","weight":"0","rawemissions":"0","emissions":"0","shipping":"1537.95","processemissions":"0","endoflifeemissions":"0","disposaltype":null,"disposalenergy":null,"disposalimpact":null,"disposalemissions":null,"description":"Ach Food Companies, Inc.","name":"Yeast","id":"7566","stops":{"origin":{"related_to":"7566","part_or_object":"p","notes":null,"placename":"Memphis, TN, USA","id":15665,"name":"origin","lat":"35.1495343","lon":"-90.0489801","hops":{"incoming":[],"outgoing":[{"transport_id":null,"id":"11350","transport_name":null,"transport_description":null,"transport_unit":null,"transport_co2_eq":null,"from_stop_id":"15665","from_stop_lat":"35.1495343","from_stop_lon":"-90.0489801","from_stop_placename":"Memphis, TN, USA","to_stop_id":"15661","to_stop_name":"origin","to_stop_lat":"40.684001","to_stop_lon":"-73.96535","to_stop_placename":"500 Washington Ave, Brooklyn, NY 11238, USA","to_stop":{"id":"15661","name":"origin","lat":"40.684001","lon":"-73.96535","placename":"500 Washington Ave, Brooklyn, NY 11238, USA"},"from_stop":{"name":"origin","id":"15665","lat":"35.1495343","lon":"-90.0489801","placename":"Memphis, TN, USA"}}]}}},"processes":[],"eols":[]},{"oid":"1076","imid":"7567","linkid":"0","weight":"0","rawemissions":"0","emissions":"0","shipping":"908.99","processemissions":"0","endoflifeemissions":"0","disposaltype":null,"disposalenergy":null,"disposalimpact":null,"disposalemissions":null,"description":"Flavor Delite","name":"Parmesan","id":"7567","stops":{"origin":{"related_to":"7567","part_or_object":"p","notes":null,"placename":"Richburg, SC 29729, USA","id":15666,"name":"origin","lat":"34.7159745","lon":"-81.0195262","hops":{"incoming":[],"outgoing":[{"transport_id":null,"id":"11351","transport_name":null,"transport_description":null,"transport_unit":null,"transport_co2_eq":null,"from_stop_id":"15666","from_stop_lat":"34.7159745","from_stop_lon":"-81.0195262","from_stop_placename":"Richburg, SC 29729, USA","to_stop_id":"15661","to_stop_name":"origin","to_stop_lat":"40.684001","to_stop_lon":"-73.96535","to_stop_placename":"500 Washington Ave, Brooklyn, NY 11238, USA","to_stop":{"id":"15661","name":"origin","lat":"40.684001","lon":"-73.96535","placename":"500 Washington Ave, Brooklyn, NY 11238, USA"},"from_stop":{"name":"origin","id":"15666","lat":"34.7159745","lon":"-81.0195262","placename":"Richburg, SC 29729, USA"}}]}}},"processes":[],"eols":[]},{"oid":"1076","imid":"7568","linkid":"0","weight":"0","rawemissions":"0","emissions":"0","shipping":"228.73","processemissions":"0","endoflifeemissions":"0","disposaltype":null,"disposalenergy":null,"disposalimpact":null,"disposalemissions":null,"description":"Tap Water","name":"Water","id":"7568","stops":{"origin":{"related_to":"7568","part_or_object":"p","notes":null,"placename":"Catskill Mountains, Decatur, NY 12197, USA","id":15667,"name":"origin","lat":"42.6739194","lon":"-74.6510806","hops":{"incoming":[],"outgoing":[{"transport_id":null,"id":"11352","transport_name":null,"transport_description":null,"transport_unit":null,"transport_co2_eq":null,"from_stop_id":"15667","from_stop_lat":"42.6739194","from_stop_lon":"-74.6510806","from_stop_placename":"Catskill Mountains, Decatur, NY 12197, USA","to_stop_id":"15661","to_stop_name":"origin","to_stop_lat":"40.684001","to_stop_lon":"-73.96535","to_stop_placename":"500 Washington Ave, Brooklyn, NY 11238, USA","to_stop":{"id":"15661","name":"origin","lat":"40.684001","lon":"-73.96535","placename":"500 Washington Ave, Brooklyn, NY 11238, USA"},"from_stop":{"name":"origin","id":"15667","lat":"42.6739194","lon":"-74.6510806","placename":"Catskill Mountains, Decatur, NY 12197, USA"}}]}}},"processes":[],"eols":[]},{"oid":"1076","imid":"7569","linkid":"0","weight":"0","rawemissions":"0","emissions":"0","shipping":"2240.92","processemissions":"0","endoflifeemissions":"0","disposaltype":null,"disposalenergy":null,"disposalimpact":null,"disposalemissions":null,"description":"\"Turning on the stove is just the start of a complicated journey over hundreds of miles, beginning in the gas fields of Texas, Louisiana, the Gulf of Mexico, and today 30%of Con Edison\u2019s gas comes from Canada.\"\nhttp:\/\/www.coned.com\/newsroom\/energysystems_gas.asp","name":"Natural Gas","id":"7569","stops":{"origin":{"related_to":"7569","part_or_object":"p","notes":null,"placename":"Gulf Of Mexico, United States","id":15668,"name":"origin","lat":"29.4581429","lon":"-94.5005808","hops":{"incoming":[],"outgoing":[{"transport_id":null,"id":"11353","transport_name":null,"transport_description":null,"transport_unit":null,"transport_co2_eq":null,"from_stop_id":"15668","from_stop_lat":"29.4581429","from_stop_lon":"-94.5005808","from_stop_placename":"Gulf Of Mexico, United States","to_stop_id":"15661","to_stop_name":"origin","to_stop_lat":"40.684001","to_stop_lon":"-73.96535","to_stop_placename":"500 Washington Ave, Brooklyn, NY 11238, USA","to_stop":{"id":"15661","name":"origin","lat":"40.684001","lon":"-73.96535","placename":"500 Washington Ave, Brooklyn, NY 11238, USA"},"from_stop":{"name":"origin","id":"15668","lat":"29.4581429","lon":"-94.5005808","placename":"Gulf Of Mexico, United States"}}]}}},"processes":[],"eols":[]},{"oid":"1076","imid":"7570","linkid":"0","weight":"0","rawemissions":"0","emissions":"0","shipping":"6648","processemissions":"0","endoflifeemissions":"0","disposaltype":null,"disposalenergy":null,"disposalimpact":null,"disposalemissions":null,"description":"Oro di Re","name":"Olive Oil","id":"7570","stops":{"origin":{"related_to":"7570","part_or_object":"p","notes":null,"placename":"Lucca, Italy","id":15669,"name":"origin","lat":"43.8430139","lon":"10.507994","hops":{"incoming":[],"outgoing":[{"transport_id":null,"id":"11354","transport_name":null,"transport_description":null,"transport_unit":null,"transport_co2_eq":null,"from_stop_id":"15669","from_stop_lat":"43.8430139","from_stop_lon":"10.507994","from_stop_placename":"Lucca, Italy","to_stop_id":"15661","to_stop_name":"origin","to_stop_lat":"40.684001","to_stop_lon":"-73.96535","to_stop_placename":"500 Washington Ave, Brooklyn, NY 11238, USA","to_stop":{"id":"15661","name":"origin","lat":"40.684001","lon":"-73.96535","placename":"500 Washington Ave, Brooklyn, NY 11238, USA"},"from_stop":{"name":"origin","id":"15669","lat":"43.8430139","lon":"10.507994","placename":"Lucca, Italy"}}]}}},"processes":[],"eols":[]}],"user":{"name":"bf701","id":"12326"}}}