{"1117":{"oid":"1117","type":"trace","flag":"","creator":"13176","name":"My Puffer","upc":"","imagelink":"","description":"Hooded Goosedown  Jacket","slug":"My-Puffer","category":"","weight":"0","emissions":"0","embodied":"0","transport":"0","process":null,"endoflife":null,"shipping":"57345.29","lifetime":null,"usagetype":"","usageenergy":null,"usageemissions":null,"timecreated":"2011-05-05 02:37:45","timemodified":"2011-05-05 02:42:49","visibility":"public","showfootprint":"on","showembodied":"on","showtransport":"on","showprocess":"on","showendoflife":"on","showlastleg":"on","showuse":"on","showstats":"on","stops":{"origin":{"related_to":"1117","part_or_object":"o","notes":null,"placename":"Christchurch, New Zealand","id":"15826","category":"1","lat":"-43.5320544","lon":"172.6362254","name":"origin","hops":{"incoming":[{"transport_id":null,"id":"11439","transport_name":null,"transport_description":null,"transport_unit":null,"transport_co2_eq":null,"from_stop_id":"15827","from_stop_lat":"53.869563","from_stop_lon":"10.687579","to_stop_id":"15826","to_stop_name":"origin","to_stop_lat":"-43.5320544","placename":"L\u00fcbeck, Germany","to_stop_lon":"172.6362254","to_stop":{"id":"15826","name":"origin","lat":"-43.5320544","placename":"Christchurch, New Zealand","lon":"172.6362254"},"from_stop":{"name":"origin","id":"15827","lat":"53.869563","lon":"10.687579","placename":"L\u00fcbeck, Germany"}},{"transport_id":null,"id":"11440","transport_name":null,"transport_description":null,"transport_unit":null,"transport_co2_eq":null,"from_stop_id":"15828","from_stop_lat":"3.139003","from_stop_lon":"101.686855","to_stop_id":"15826","to_stop_name":"origin","to_stop_lat":"-43.5320544","placename":"Kuala Lumpur, Federal Territory of Kuala Lumpur, Malaysia","to_stop_lon":"172.6362254","to_stop":{"id":"15826","name":"origin","lat":"-43.5320544","placename":"Christchurch, New Zealand","lon":"172.6362254"},"from_stop":{"name":"origin","id":"15828","lat":"3.139003","lon":"101.686855","placename":"Kuala Lumpur, Federal Territory of Kuala Lumpur, Malaysia"}},{"transport_id":null,"id":"11441","transport_name":null,"transport_description":null,"transport_unit":null,"transport_co2_eq":null,"from_stop_id":"15829","from_stop_lat":"25.091075","from_stop_lon":"121.5598345","to_stop_id":"15826","to_stop_name":"origin","to_stop_lat":"-43.5320544","placename":"Taipei City, Taiwan","to_stop_lon":"172.6362254","to_stop":{"id":"15826","name":"origin","lat":"-43.5320544","placename":"Christchurch, New Zealand","lon":"172.6362254"},"from_stop":{"name":"origin","id":"15829","lat":"25.091075","lon":"121.5598345","placename":"Taipei City, Taiwan"}},{"transport_id":null,"id":"11442","transport_name":null,"transport_description":null,"transport_unit":null,"transport_co2_eq":null,"from_stop_id":"15830","from_stop_lat":"22.396428","from_stop_lon":"114.109497","to_stop_id":"15826","to_stop_name":"origin","to_stop_lat":"-43.5320544","placename":"Hong Kong","to_stop_lon":"172.6362254","to_stop":{"id":"15826","name":"origin","lat":"-43.5320544","placename":"Christchurch, New Zealand","lon":"172.6362254"},"from_stop":{"name":"origin","id":"15830","lat":"22.396428","lon":"114.109497","placename":"Hong Kong"}},{"transport_id":null,"id":"11443","transport_name":null,"transport_description":null,"transport_unit":null,"transport_co2_eq":null,"from_stop_id":"15831","from_stop_lat":"35.86166","from_stop_lon":"104.195397","to_stop_id":"15826","to_stop_name":"origin","to_stop_lat":"-43.5320544","placename":"China","to_stop_lon":"172.6362254","to_stop":{"id":"15826","name":"origin","lat":"-43.5320544","placename":"Christchurch, New Zealand","lon":"172.6362254"},"from_stop":{"name":"origin","id":"15831","lat":"35.86166","lon":"104.195397","placename":"China"}},{"transport_id":null,"id":"11444","transport_name":null,"transport_description":null,"transport_unit":null,"transport_co2_eq":null,"from_stop_id":"15832","from_stop_lat":"-40.9511118","from_stop_lon":"175.6573502","to_stop_id":"15826","to_stop_name":"origin","to_stop_lat":"-43.5320544","placename":"Masterton, New Zealand","to_stop_lon":"172.6362254","to_stop":{"id":"15826","name":"origin","lat":"-43.5320544","placename":"Christchurch, New Zealand","lon":"172.6362254"},"from_stop":{"name":"origin","id":"15832","lat":"-40.9511118","lon":"175.6573502","placename":"Masterton, New Zealand"}},{"transport_id":null,"id":"11445","transport_name":null,"transport_description":null,"transport_unit":null,"transport_co2_eq":null,"from_stop_id":"15833","from_stop_lat":"-43.5320544","from_stop_lon":"172.6362254","to_stop_id":"15826","to_stop_name":"origin","to_stop_lat":"-43.5320544","placename":"Christchurch, New Zealand","to_stop_lon":"172.6362254","to_stop":{"id":"15826","name":"origin","lat":"-43.5320544","placename":"Christchurch, New Zealand","lon":"172.6362254"},"from_stop":{"name":"origin","id":"15833","lat":"-43.5320544","lon":"172.6362254","placename":"Christchurch, New Zealand"}}],"outgoing":[]}}},"parts":[{"oid":"1117","imid":"7615","linkid":"0","weight":"0","rawemissions":"0","emissions":"0","shipping":"18290.63","processemissions":"0","endoflifeemissions":"0","disposaltype":null,"disposalenergy":null,"disposalimpact":null,"disposalemissions":null,"description":"","name":"100% white goosedown","id":"7615","stops":{"origin":{"related_to":"7615","part_or_object":"p","notes":null,"placename":"L\u00fcbeck, Germany","id":15827,"name":"origin","lat":"53.869563","lon":"10.687579","hops":{"incoming":[],"outgoing":[{"transport_id":null,"id":"11439","transport_name":null,"transport_description":null,"transport_unit":null,"transport_co2_eq":null,"from_stop_id":"15827","from_stop_lat":"53.869563","from_stop_lon":"10.687579","from_stop_placename":"L\u00fcbeck, Germany","to_stop_id":"15826","to_stop_name":"origin","to_stop_lat":"-43.5320544","to_stop_lon":"172.6362254","to_stop_placename":"Christchurch, New Zealand","to_stop":{"id":"15826","name":"origin","lat":"-43.5320544","lon":"172.6362254","placename":"Christchurch, New Zealand"},"from_stop":{"name":"origin","id":"15827","lat":"53.869563","lon":"10.687579","placename":"L\u00fcbeck, Germany"}}]}}},"processes":[],"eols":[]},{"oid":"1117","imid":"7616","linkid":"0","weight":"0","rawemissions":"0","emissions":"0","shipping":"8743.78","processemissions":"0","endoflifeemissions":"0","disposaltype":null,"disposalenergy":null,"disposalimpact":null,"disposalemissions":null,"description":"","name":"Downproof Shell fabric","id":"7616","stops":{"origin":{"related_to":"7616","part_or_object":"p","notes":null,"placename":"Kuala Lumpur, Federal Territory of Kuala Lumpur, Malaysia","id":15828,"name":"origin","lat":"3.139003","lon":"101.686855","hops":{"incoming":[],"outgoing":[{"transport_id":null,"id":"11440","transport_name":null,"transport_description":null,"transport_unit":null,"transport_co2_eq":null,"from_stop_id":"15828","from_stop_lat":"3.139003","from_stop_lon":"101.686855","from_stop_placename":"Kuala Lumpur, Federal Territory of Kuala Lumpur, Malaysia","to_stop_id":"15826","to_stop_name":"origin","to_stop_lat":"-43.5320544","to_stop_lon":"172.6362254","to_stop_placename":"Christchurch, New Zealand","to_stop":{"id":"15826","name":"origin","lat":"-43.5320544","lon":"172.6362254","placename":"Christchurch, New Zealand"},"from_stop":{"name":"origin","id":"15828","lat":"3.139003","lon":"101.686855","placename":"Kuala Lumpur, Federal Territory of Kuala Lumpur, Malaysia"}}]}}},"processes":[],"eols":[]},{"oid":"1117","imid":"7617","linkid":"0","weight":"0","rawemissions":"0","emissions":"0","shipping":"9248.69","processemissions":"0","endoflifeemissions":"0","disposaltype":null,"disposalenergy":null,"disposalimpact":null,"disposalemissions":null,"description":"","name":"Taffetta Lining","id":"7617","stops":{"origin":{"related_to":"7617","part_or_object":"p","notes":null,"placename":"Taipei City, Taiwan","id":15829,"name":"origin","lat":"25.091075","lon":"121.5598345","hops":{"incoming":[],"outgoing":[{"transport_id":null,"id":"11441","transport_name":null,"transport_description":null,"transport_unit":null,"transport_co2_eq":null,"from_stop_id":"15829","from_stop_lat":"25.091075","from_stop_lon":"121.5598345","from_stop_placename":"Taipei City, Taiwan","to_stop_id":"15826","to_stop_name":"origin","to_stop_lat":"-43.5320544","to_stop_lon":"172.6362254","to_stop_placename":"Christchurch, New Zealand","to_stop":{"id":"15826","name":"origin","lat":"-43.5320544","lon":"172.6362254","placename":"Christchurch, New Zealand"},"from_stop":{"name":"origin","id":"15829","lat":"25.091075","lon":"121.5598345","placename":"Taipei City, Taiwan"}}]}}},"processes":[],"eols":[]},{"oid":"1117","imid":"7618","linkid":"0","weight":"0","rawemissions":"0","emissions":"0","shipping":"9459.7","processemissions":"0","endoflifeemissions":"0","disposaltype":null,"disposalenergy":null,"disposalimpact":null,"disposalemissions":null,"description":"","name":"Garment Labels","id":"7618","stops":{"origin":{"related_to":"7618","part_or_object":"p","notes":null,"placename":"Hong Kong","id":15830,"name":"origin","lat":"22.396428","lon":"114.109497","hops":{"incoming":[],"outgoing":[{"transport_id":null,"id":"11442","transport_name":null,"transport_description":null,"transport_unit":null,"transport_co2_eq":null,"from_stop_id":"15830","from_stop_lat":"22.396428","from_stop_lon":"114.109497","from_stop_placename":"Hong Kong","to_stop_id":"15826","to_stop_name":"origin","to_stop_lat":"-43.5320544","to_stop_lon":"172.6362254","to_stop_placename":"Christchurch, New Zealand","to_stop":{"id":"15826","name":"origin","lat":"-43.5320544","lon":"172.6362254","placename":"Christchurch, New Zealand"},"from_stop":{"name":"origin","id":"15830","lat":"22.396428","lon":"114.109497","placename":"Hong Kong"}}]}}},"processes":[],"eols":[]},{"oid":"1117","imid":"7619","linkid":"0","weight":"0","rawemissions":"0","emissions":"0","shipping":"11222.37","processemissions":"0","endoflifeemissions":"0","disposaltype":null,"disposalenergy":null,"disposalimpact":null,"disposalemissions":null,"description":"","name":"plasitc mould components","id":"7619","stops":{"origin":{"related_to":"7619","part_or_object":"p","notes":null,"placename":"China","id":15831,"name":"origin","lat":"35.86166","lon":"104.195397","hops":{"incoming":[],"outgoing":[{"transport_id":null,"id":"11443","transport_name":null,"transport_description":null,"transport_unit":null,"transport_co2_eq":null,"from_stop_id":"15831","from_stop_lat":"35.86166","from_stop_lon":"104.195397","from_stop_placename":"China","to_stop_id":"15826","to_stop_name":"origin","to_stop_lat":"-43.5320544","to_stop_lon":"172.6362254","to_stop_placename":"Christchurch, New Zealand","to_stop":{"id":"15826","name":"origin","lat":"-43.5320544","lon":"172.6362254","placename":"Christchurch, New Zealand"},"from_stop":{"name":"origin","id":"15831","lat":"35.86166","lon":"104.195397","placename":"China"}}]}}},"processes":[],"eols":[]},{"oid":"1117","imid":"7620","linkid":"0","weight":"0","rawemissions":"0","emissions":"0","shipping":"380.12","processemissions":"0","endoflifeemissions":"0","disposaltype":null,"disposalenergy":null,"disposalimpact":null,"disposalemissions":null,"description":"","name":"zippers","id":"7620","stops":{"origin":{"related_to":"7620","part_or_object":"p","notes":null,"placename":"Masterton, New Zealand","id":15832,"name":"origin","lat":"-40.9511118","lon":"175.6573502","hops":{"incoming":[],"outgoing":[{"transport_id":null,"id":"11444","transport_name":null,"transport_description":null,"transport_unit":null,"transport_co2_eq":null,"from_stop_id":"15832","from_stop_lat":"-40.9511118","from_stop_lon":"175.6573502","from_stop_placename":"Masterton, New Zealand","to_stop_id":"15826","to_stop_name":"origin","to_stop_lat":"-43.5320544","to_stop_lon":"172.6362254","to_stop_placename":"Christchurch, New Zealand","to_stop":{"id":"15826","name":"origin","lat":"-43.5320544","lon":"172.6362254","placename":"Christchurch, New Zealand"},"from_stop":{"name":"origin","id":"15832","lat":"-40.9511118","lon":"175.6573502","placename":"Masterton, New Zealand"}}]}}},"processes":[],"eols":[]},{"oid":"1117","imid":"7621","linkid":"0","weight":"0","rawemissions":"0","emissions":"0","shipping":"0","processemissions":"0","endoflifeemissions":"0","disposaltype":null,"disposalenergy":null,"disposalimpact":null,"disposalemissions":null,"description":"","name":"Swing tag","id":"7621","stops":{"origin":{"related_to":"7621","part_or_object":"p","notes":null,"placename":"Christchurch, New Zealand","id":15833,"name":"origin","lat":"-43.5320544","lon":"172.6362254","hops":{"incoming":[],"outgoing":[{"transport_id":null,"id":"11445","transport_name":null,"transport_description":null,"transport_unit":null,"transport_co2_eq":null,"from_stop_id":"15833","from_stop_lat":"-43.5320544","from_stop_lon":"172.6362254","from_stop_placename":"Christchurch, New Zealand","to_stop_id":"15826","to_stop_name":"origin","to_stop_lat":"-43.5320544","to_stop_lon":"172.6362254","to_stop_placename":"Christchurch, New Zealand","to_stop":{"id":"15826","name":"origin","lat":"-43.5320544","lon":"172.6362254","placename":"Christchurch, New Zealand"},"from_stop":{"name":"origin","id":"15833","lat":"-43.5320544","lon":"172.6362254","placename":"Christchurch, New Zealand"}}]}}},"processes":[],"eols":[]}],"user":{"name":"blackbird","id":"13176"}}}