{"113":{"oid":"113","type":"trace","flag":"","creator":"11440","name":"Common Roots Cafe -- Baked mac and cheese","upc":"","imagelink":"","description":"If you order the baked mac and cheese at Common Roots Cafe in Minneapolis, this is where the ingredients come from. Cafe owner Danny Schwartzman says that when he measures in terms of cost, most of his ingredients come from within a 250-mile radius. The information here was supplied by Schwartzman, and the map was created by Minnesota Public Radio News' Ground Level project. www.mpr.org\/groundlevel.","slug":"A-Meal-at-Common-Roots-Cafe","category":"","weight":"0","emissions":"0","embodied":"0","transport":"0","process":null,"endoflife":null,"shipping":"8741.45","lifetime":null,"usagetype":"","usageenergy":null,"usageemissions":null,"timecreated":"2010-12-02 15:19:39","timemodified":"2010-12-08 11:07:36","visibility":"public","showfootprint":"on","showembodied":"on","showtransport":"on","showprocess":"on","showendoflife":"on","showlastleg":"on","showuse":"on","showstats":"on","stops":{"origin":{"related_to":"113","part_or_object":"o","notes":null,"placename":"Minneapolis, MN, USA","id":"8697","category":"1","lat":"44.9799654","lon":"-93.2638361","name":"origin","hops":{"incoming":[{"transport_id":null,"id":"6054","transport_name":null,"transport_description":null,"transport_unit":null,"transport_co2_eq":null,"from_stop_id":"8698","from_stop_lat":"37.0057816","from_stop_lon":"-121.5682751","to_stop_id":"8697","to_stop_name":"origin","to_stop_lat":"44.9799654","placename":"Gilroy, CA 95020, USA","to_stop_lon":"-93.2638361","to_stop":{"id":"8697","name":"origin","lat":"44.9799654","placename":"Minneapolis, MN, USA","lon":"-93.2638361"},"from_stop":{"name":"origin","id":"8698","lat":"37.0057816","lon":"-121.5682751","placename":"Gilroy, CA 95020, USA"}},{"transport_id":null,"id":"6055","transport_name":null,"transport_description":null,"transport_unit":null,"transport_co2_eq":null,"from_stop_id":"8699","from_stop_lat":"46.2112458","from_stop_lon":"-119.1372338","to_stop_id":"8697","to_stop_name":"origin","to_stop_lat":"44.9799654","placename":"Kennewick, WA, USA","to_stop_lon":"-93.2638361","to_stop":{"id":"8697","name":"origin","lat":"44.9799654","placename":"Minneapolis, MN, USA","lon":"-93.2638361"},"from_stop":{"name":"origin","id":"8699","lat":"46.2112458","lon":"-119.1372338","placename":"Kennewick, WA, USA"}},{"transport_id":null,"id":"6056","transport_name":null,"transport_description":null,"transport_unit":null,"transport_co2_eq":null,"from_stop_id":"8700","from_stop_lat":"44.0478889","from_stop_lon":"-91.6404389","to_stop_id":"8697","to_stop_name":"origin","to_stop_lat":"44.9799654","placename":"Winona, MN, USA","to_stop_lon":"-93.2638361","to_stop":{"id":"8697","name":"origin","lat":"44.9799654","placename":"Minneapolis, MN, USA","lon":"-93.2638361"},"from_stop":{"name":"origin","id":"8700","lat":"44.0478889","lon":"-91.6404389","placename":"Winona, MN, USA"}},{"transport_id":null,"id":"6057","transport_name":null,"transport_description":null,"transport_unit":null,"transport_co2_eq":null,"from_stop_id":"8701","from_stop_lat":"43.9619062","from_stop_lon":"-93.2760439","to_stop_id":"8697","to_stop_name":"origin","to_stop_lat":"44.9799654","placename":"Hope, Somerset, MN 56046, USA","to_stop_lon":"-93.2638361","to_stop":{"id":"8697","name":"origin","lat":"44.9799654","placename":"Minneapolis, MN, USA","lon":"-93.2638361"},"from_stop":{"name":"origin","id":"8701","lat":"43.9619062","lon":"-93.2760439","placename":"Hope, Somerset, MN 56046, USA"}},{"transport_id":null,"id":"6058","transport_name":null,"transport_description":null,"transport_unit":null,"transport_co2_eq":null,"from_stop_id":"8702","from_stop_lat":"42.6830566","from_stop_lon":"-90.1395984562","to_stop_id":"8697","to_stop_name":"origin","to_stop_lat":"44.9799654","placename":"County Road F, Darlington, WI 53530, USA","to_stop_lon":"-93.2638361","to_stop":{"id":"8697","name":"origin","lat":"44.9799654","placename":"Minneapolis, MN, USA","lon":"-93.2638361"},"from_stop":{"name":"origin","id":"8702","lat":"42.6830566","lon":"-90.1395984562","placename":"County Road F, Darlington, WI 53530, USA"}},{"transport_id":null,"id":"6059","transport_name":null,"transport_description":null,"transport_unit":null,"transport_co2_eq":null,"from_stop_id":"8703","from_stop_lat":"36.910231","from_stop_lon":"-121.7568946","to_stop_id":"8697","to_stop_name":"origin","to_stop_lat":"44.9799654","placename":"Watsonville, CA, USA","to_stop_lon":"-93.2638361","to_stop":{"id":"8697","name":"origin","lat":"44.9799654","placename":"Minneapolis, MN, USA","lon":"-93.2638361"},"from_stop":{"name":"origin","id":"8703","lat":"36.910231","lon":"-121.7568946","placename":"Watsonville, CA, USA"}},{"transport_id":null,"id":"6060","transport_name":null,"transport_description":null,"transport_unit":null,"transport_co2_eq":null,"from_stop_id":"8704","from_stop_lat":"47.4497201","from_stop_lon":"-99.1262234","to_stop_id":"8697","to_stop_name":"origin","to_stop_lat":"44.9799654","placename":"Carrington, ND 58421, USA","to_stop_lon":"-93.2638361","to_stop":{"id":"8697","name":"origin","lat":"44.9799654","placename":"Minneapolis, MN, USA","lon":"-93.2638361"},"from_stop":{"name":"origin","id":"8704","lat":"47.4497201","lon":"-99.1262234","placename":"Carrington, ND 58421, USA"}},{"transport_id":null,"id":"6061","transport_name":null,"transport_description":null,"transport_unit":null,"transport_co2_eq":null,"from_stop_id":"8705","from_stop_lat":"40.6733602","from_stop_lon":"-92.1621241","to_stop_id":"8697","to_stop_name":"origin","to_stop_lat":"44.9799654","placename":"Milton, IA 52570, USA","to_stop_lon":"-93.2638361","to_stop":{"id":"8697","name":"origin","lat":"44.9799654","placename":"Minneapolis, MN, USA","lon":"-93.2638361"},"from_stop":{"name":"origin","id":"8705","lat":"40.6733602","lon":"-92.1621241","placename":"Milton, IA 52570, USA"}},{"transport_id":null,"id":"6062","transport_name":null,"transport_description":null,"transport_unit":null,"transport_co2_eq":null,"from_stop_id":"8706","from_stop_lat":"45.076076","from_stop_lon":"-93.3327283","to_stop_id":"8697","to_stop_name":"origin","to_stop_lat":"44.9799654","placename":"Brooklyn Center, MN, USA","to_stop_lon":"-93.2638361","to_stop":{"id":"8697","name":"origin","lat":"44.9799654","placename":"Minneapolis, MN, USA","lon":"-93.2638361"},"from_stop":{"name":"origin","id":"8706","lat":"45.076076","lon":"-93.3327283","placename":"Brooklyn Center, MN, USA"}}],"outgoing":[]}}},"parts":[{"oid":"113","imid":"5236","linkid":"0","weight":"0","rawemissions":"0","emissions":"0","shipping":"2522.71","processemissions":"0","endoflifeemissions":"0","disposaltype":null,"disposalenergy":null,"disposalimpact":null,"disposalemissions":null,"description":"Christopher Ranch\n","name":"Garlic","id":"5236","stops":{"origin":{"related_to":"5236","part_or_object":"p","notes":null,"placename":"Gilroy, CA 95020, USA","id":8698,"name":"origin","lat":"37.0057816","lon":"-121.5682751","hops":{"incoming":[],"outgoing":[{"transport_id":null,"id":"6054","transport_name":null,"transport_description":null,"transport_unit":null,"transport_co2_eq":null,"from_stop_id":"8698","from_stop_lat":"37.0057816","from_stop_lon":"-121.5682751","from_stop_placename":"Gilroy, CA 95020, USA","to_stop_id":"8697","to_stop_name":"origin","to_stop_lat":"44.9799654","to_stop_lon":"-93.2638361","to_stop_placename":"Minneapolis, MN, USA","to_stop":{"id":"8697","name":"origin","lat":"44.9799654","lon":"-93.2638361","placename":"Minneapolis, MN, USA"},"from_stop":{"name":"origin","id":"8698","lat":"37.0057816","lon":"-121.5682751","placename":"Gilroy, CA 95020, USA"}}]}}},"processes":[],"eols":[]},{"oid":"113","imid":"5237","linkid":"0","weight":"0","rawemissions":"0","emissions":"0","shipping":"2011.04","processemissions":"0","endoflifeemissions":"0","disposaltype":null,"disposalenergy":null,"disposalimpact":null,"disposalemissions":null,"description":"Badger Mountain, organic vineyards in eastern Washington.\n","name":"White wine","id":"5237","stops":{"origin":{"related_to":"5237","part_or_object":"p","notes":null,"placename":"Kennewick, WA, USA","id":8699,"name":"origin","lat":"46.2112458","lon":"-119.1372338","hops":{"incoming":[],"outgoing":[{"transport_id":null,"id":"6055","transport_name":null,"transport_description":null,"transport_unit":null,"transport_co2_eq":null,"from_stop_id":"8699","from_stop_lat":"46.2112458","from_stop_lon":"-119.1372338","from_stop_placename":"Kennewick, WA, USA","to_stop_id":"8697","to_stop_name":"origin","to_stop_lat":"44.9799654","to_stop_lon":"-93.2638361","to_stop_placename":"Minneapolis, MN, USA","to_stop":{"id":"8697","name":"origin","lat":"44.9799654","lon":"-93.2638361","placename":"Minneapolis, MN, USA"},"from_stop":{"name":"origin","id":"8699","lat":"46.2112458","lon":"-119.1372338","placename":"Kennewick, WA, USA"}}]}}},"processes":[],"eols":[]},{"oid":"113","imid":"5238","linkid":"0","weight":"0","rawemissions":"0","emissions":"0","shipping":"165.44","processemissions":"0","endoflifeemissions":"0","disposaltype":null,"disposalenergy":null,"disposalimpact":null,"disposalemissions":null,"description":"Organic flour from Bay State Milling.\n\n","name":"Flour","id":"5238","stops":{"origin":{"related_to":"5238","part_or_object":"p","notes":null,"placename":"Winona, MN, USA","id":8700,"name":"origin","lat":"44.0478889","lon":"-91.6404389","hops":{"incoming":[],"outgoing":[{"transport_id":null,"id":"6056","transport_name":null,"transport_description":null,"transport_unit":null,"transport_co2_eq":null,"from_stop_id":"8700","from_stop_lat":"44.0478889","from_stop_lon":"-91.6404389","from_stop_placename":"Winona, MN, USA","to_stop_id":"8697","to_stop_name":"origin","to_stop_lat":"44.9799654","to_stop_lon":"-93.2638361","to_stop_placename":"Minneapolis, MN, USA","to_stop":{"id":"8697","name":"origin","lat":"44.9799654","lon":"-93.2638361","placename":"Minneapolis, MN, USA"},"from_stop":{"name":"origin","id":"8700","lat":"44.0478889","lon":"-91.6404389","placename":"Winona, MN, USA"}}]}}},"processes":[],"eols":[]},{"oid":"113","imid":"5239","linkid":"0","weight":"0","rawemissions":"0","emissions":"0","shipping":"113.33","processemissions":"0","endoflifeemissions":"0","disposaltype":null,"disposalenergy":null,"disposalimpact":null,"disposalemissions":null,"description":"Hope Creamery.\n\n","name":"Butter","id":"5239","stops":{"origin":{"related_to":"5239","part_or_object":"p","notes":null,"placename":"Hope, Somerset, MN 56046, USA","id":8701,"name":"origin","lat":"43.9619062","lon":"-93.2760439","hops":{"incoming":[],"outgoing":[{"transport_id":null,"id":"6057","transport_name":null,"transport_description":null,"transport_unit":null,"transport_co2_eq":null,"from_stop_id":"8701","from_stop_lat":"43.9619062","from_stop_lon":"-93.2760439","from_stop_placename":"Hope, Somerset, MN 56046, USA","to_stop_id":"8697","to_stop_name":"origin","to_stop_lat":"44.9799654","to_stop_lon":"-93.2638361","to_stop_placename":"Minneapolis, MN, USA","to_stop":{"id":"8697","name":"origin","lat":"44.9799654","lon":"-93.2638361","placename":"Minneapolis, MN, USA"},"from_stop":{"name":"origin","id":"8701","lat":"43.9619062","lon":"-93.2760439","placename":"Hope, Somerset, MN 56046, USA"}}]}}},"processes":[],"eols":[]},{"oid":"113","imid":"5110","linkid":"0","weight":"0","rawemissions":"0","emissions":"0","shipping":"358.17","processemissions":"0","endoflifeemissions":"0","disposaltype":null,"disposalenergy":null,"disposalimpact":null,"disposalemissions":null,"description":"Brunkow Cheese of Wisconsin. Farmer cooperative formed in 1899 and comprised of 30 or so farmer members.\nhttp:\/\/www.pcmli.com\/cw_bk.htm\n","name":"Brunkow Co-op cheddar","id":"5110","stops":{"origin":{"related_to":"5110","part_or_object":"p","notes":null,"placename":"County Road F, Darlington, WI 53530, USA","id":8702,"name":"origin","lat":"42.6830566","lon":"-90.1395984562","hops":{"incoming":[],"outgoing":[{"transport_id":null,"id":"6058","transport_name":null,"transport_description":null,"transport_unit":null,"transport_co2_eq":null,"from_stop_id":"8702","from_stop_lat":"42.6830566","from_stop_lon":"-90.1395984562","from_stop_placename":"County Road F, Darlington, WI 53530, USA","to_stop_id":"8697","to_stop_name":"origin","to_stop_lat":"44.9799654","to_stop_lon":"-93.2638361","to_stop_placename":"Minneapolis, MN, USA","to_stop":{"id":"8697","name":"origin","lat":"44.9799654","lon":"-93.2638361","placename":"Minneapolis, MN, USA"},"from_stop":{"name":"origin","id":"8702","lat":"42.6830566","lon":"-90.1395984562","placename":"County Road F, Darlington, WI 53530, USA"}}]}}},"processes":[],"eols":[]},{"oid":"113","imid":"5111","linkid":"0","weight":"0","rawemissions":"0","emissions":"0","shipping":"2542.55","processemissions":"0","endoflifeemissions":"0","disposaltype":null,"disposalenergy":null,"disposalimpact":null,"disposalemissions":null,"description":"Lakeside Organic Gardens. Organic certification by Quality Assurance International in Pajaro Valley and El Centro, California.\n\n","name":"Onions, parsley","id":"5111","stops":{"origin":{"related_to":"5111","part_or_object":"p","notes":null,"placename":"Watsonville, CA, USA","id":8703,"name":"origin","lat":"36.910231","lon":"-121.7568946","hops":{"incoming":[],"outgoing":[{"transport_id":null,"id":"6059","transport_name":null,"transport_description":null,"transport_unit":null,"transport_co2_eq":null,"from_stop_id":"8703","from_stop_lat":"36.910231","from_stop_lon":"-121.7568946","from_stop_placename":"Watsonville, CA, USA","to_stop_id":"8697","to_stop_name":"origin","to_stop_lat":"44.9799654","to_stop_lon":"-93.2638361","to_stop_placename":"Minneapolis, MN, USA","to_stop":{"id":"8697","name":"origin","lat":"44.9799654","lon":"-93.2638361","placename":"Minneapolis, MN, USA"},"from_stop":{"name":"origin","id":"8703","lat":"36.910231","lon":"-121.7568946","placename":"Watsonville, CA, USA"}}]}}},"processes":[],"eols":[]},{"oid":"113","imid":"5108","linkid":"0","weight":"0","rawemissions":"0","emissions":"0","shipping":"528.46","processemissions":"0","endoflifeemissions":"0","disposaltype":null,"disposalenergy":null,"disposalimpact":null,"disposalemissions":null,"description":"Organic noodles from Dakota Growers Pasta Co., organized by wheat growers in the 1990s.\nhttp:\/\/www.dakotagrowers.com\/\n","name":"Macaroni noodles","id":"5108","stops":{"origin":{"related_to":"5108","part_or_object":"p","notes":null,"placename":"Carrington, ND 58421, USA","id":8704,"name":"origin","lat":"47.4497201","lon":"-99.1262234","hops":{"incoming":[],"outgoing":[{"transport_id":null,"id":"6060","transport_name":null,"transport_description":null,"transport_unit":null,"transport_co2_eq":null,"from_stop_id":"8704","from_stop_lat":"47.4497201","from_stop_lon":"-99.1262234","from_stop_placename":"Carrington, ND 58421, USA","to_stop_id":"8697","to_stop_name":"origin","to_stop_lat":"44.9799654","to_stop_lon":"-93.2638361","to_stop_placename":"Minneapolis, MN, USA","to_stop":{"id":"8697","name":"origin","lat":"44.9799654","lon":"-93.2638361","placename":"Minneapolis, MN, USA"},"from_stop":{"name":"origin","id":"8704","lat":"47.4497201","lon":"-99.1262234","placename":"Carrington, ND 58421, USA"}}]}}},"processes":[],"eols":[]},{"oid":"113","imid":"5109","linkid":"0","weight":"0","rawemissions":"0","emissions":"0","shipping":"487.76","processemissions":"0","endoflifeemissions":"0","disposaltype":null,"disposalenergy":null,"disposalimpact":null,"disposalemissions":null,"description":"Cheese from Milton Creamery, started in 1992 with milk bought from Amish farmers.\n\nhttp:\/\/www.miltoncreamery.com\/html\/about_us.html\n","name":"Prairie Breeze cheddar","id":"5109","stops":{"origin":{"related_to":"5109","part_or_object":"p","notes":null,"placename":"Milton, IA 52570, USA","id":8705,"name":"origin","lat":"40.6733602","lon":"-92.1621241","hops":{"incoming":[],"outgoing":[{"transport_id":null,"id":"6061","transport_name":null,"transport_description":null,"transport_unit":null,"transport_co2_eq":null,"from_stop_id":"8705","from_stop_lat":"40.6733602","from_stop_lon":"-92.1621241","from_stop_placename":"Milton, IA 52570, USA","to_stop_id":"8697","to_stop_name":"origin","to_stop_lat":"44.9799654","to_stop_lon":"-93.2638361","to_stop_placename":"Minneapolis, MN, USA","to_stop":{"id":"8697","name":"origin","lat":"44.9799654","lon":"-93.2638361","placename":"Minneapolis, MN, USA"},"from_stop":{"name":"origin","id":"8705","lat":"40.6733602","lon":"-92.1621241","placename":"Milton, IA 52570, USA"}}]}}},"processes":[],"eols":[]},{"oid":"113","imid":"5240","linkid":"0","weight":"0","rawemissions":"0","emissions":"0","shipping":"11.99","processemissions":"0","endoflifeemissions":"0","disposaltype":null,"disposalenergy":null,"disposalimpact":null,"disposalemissions":null,"description":"Surly Brewing. Not an ingredient in the mac and cheese but good to wash it down.","name":"Furious beer","id":"5240","stops":{"origin":{"related_to":"5240","part_or_object":"p","notes":null,"placename":"Brooklyn Center, MN, USA","id":8706,"name":"origin","lat":"45.076076","lon":"-93.3327283","hops":{"incoming":[],"outgoing":[{"transport_id":null,"id":"6062","transport_name":null,"transport_description":null,"transport_unit":null,"transport_co2_eq":null,"from_stop_id":"8706","from_stop_lat":"45.076076","from_stop_lon":"-93.3327283","from_stop_placename":"Brooklyn Center, MN, USA","to_stop_id":"8697","to_stop_name":"origin","to_stop_lat":"44.9799654","to_stop_lon":"-93.2638361","to_stop_placename":"Minneapolis, MN, USA","to_stop":{"id":"8697","name":"origin","lat":"44.9799654","lon":"-93.2638361","placename":"Minneapolis, MN, USA"},"from_stop":{"name":"origin","id":"8706","lat":"45.076076","lon":"-93.3327283","placename":"Brooklyn Center, MN, USA"}}]}}},"processes":[],"eols":[]}],"user":{"name":"dpeters","id":"11440"}}}