{"1131":{"oid":"1131","type":"trace","flag":"","creator":"13222","name":"Escenario Actual Belcorp","upc":"","imagelink":"","description":"fabricantes mas brokers USA","slug":"Escenario-Actual-Belcorp","category":"","weight":"0","emissions":"0","embodied":"0","transport":"0","process":null,"endoflife":null,"shipping":"25576.79","lifetime":null,"usagetype":"","usageenergy":null,"usageemissions":null,"timecreated":"2011-05-10 21:30:39","timemodified":"2011-05-10 22:13:02","visibility":"public","showfootprint":"on","showembodied":"on","showtransport":"on","showprocess":"on","showendoflife":"on","showlastleg":"on","showuse":"on","showstats":"on","stops":{"origin":{"related_to":"1131","part_or_object":"o","notes":null,"placename":"Colombia","id":"15859","category":"1","lat":"4.570868","lon":"-74.297333","name":"origin","hops":{"incoming":[{"transport_id":null,"id":"11451","transport_name":null,"transport_description":null,"transport_unit":null,"transport_co2_eq":null,"from_stop_id":"15860","from_stop_lat":"40.0583238","from_stop_lon":"-74.4056612","to_stop_id":"15859","to_stop_name":"origin","to_stop_lat":"4.570868","placename":"Nueva Jersey, EEUU","to_stop_lon":"-74.297333","to_stop":{"id":"15859","name":"origin","lat":"4.570868","placename":"Colombia","lon":"-74.297333"},"from_stop":{"name":"origin","id":"15860","lat":"40.0583238","lon":"-74.4056612","placename":"Nueva Jersey, EEUU"}},{"transport_id":null,"id":"11452","transport_name":null,"transport_description":null,"transport_unit":null,"transport_co2_eq":null,"from_stop_id":"15861","from_stop_lat":"40.0583238","from_stop_lon":"-74.4056612","to_stop_id":"15859","to_stop_name":"origin","to_stop_lat":"4.570868","placename":"Nueva Jersey, EEUU","to_stop_lon":"-74.297333","to_stop":{"id":"15859","name":"origin","lat":"4.570868","placename":"Colombia","lon":"-74.297333"},"from_stop":{"name":"origin","id":"15861","lat":"40.0583238","lon":"-74.4056612","placename":"Nueva Jersey, EEUU"}},{"transport_id":null,"id":"11453","transport_name":null,"transport_description":null,"transport_unit":null,"transport_co2_eq":null,"from_stop_id":"15862","from_stop_lat":"40.0583238","from_stop_lon":"-74.4056612","to_stop_id":"15859","to_stop_name":"origin","to_stop_lat":"4.570868","placename":"Nueva Jersey, EEUU","to_stop_lon":"-74.297333","to_stop":{"id":"15859","name":"origin","lat":"4.570868","placename":"Colombia","lon":"-74.297333"},"from_stop":{"name":"origin","id":"15862","lat":"40.0583238","lon":"-74.4056612","placename":"Nueva Jersey, EEUU"}},{"transport_id":null,"id":"11454","transport_name":null,"transport_description":null,"transport_unit":null,"transport_co2_eq":null,"from_stop_id":"15863","from_stop_lat":"40.0583238","from_stop_lon":"-74.4056612","to_stop_id":"15859","to_stop_name":"origin","to_stop_lat":"4.570868","placename":"Nueva Jersey, EEUU","to_stop_lon":"-74.297333","to_stop":{"id":"15859","name":"origin","lat":"4.570868","placename":"Colombia","lon":"-74.297333"},"from_stop":{"name":"origin","id":"15863","lat":"40.0583238","lon":"-74.4056612","placename":"Nueva Jersey, EEUU"}},{"transport_id":null,"id":"11455","transport_name":null,"transport_description":null,"transport_unit":null,"transport_co2_eq":null,"from_stop_id":"15864","from_stop_lat":"40.0583238","from_stop_lon":"-74.4056612","to_stop_id":"15859","to_stop_name":"origin","to_stop_lat":"4.570868","placename":"Nueva Jersey, EEUU","to_stop_lon":"-74.297333","to_stop":{"id":"15859","name":"origin","lat":"4.570868","placename":"Colombia","lon":"-74.297333"},"from_stop":{"name":"origin","id":"15864","lat":"40.0583238","lon":"-74.4056612","placename":"Nueva Jersey, EEUU"}},{"transport_id":null,"id":"11456","transport_name":null,"transport_description":null,"transport_unit":null,"transport_co2_eq":null,"from_stop_id":"15865","from_stop_lat":"-12.0433333","from_stop_lon":"-77.0283333","to_stop_id":"15859","to_stop_name":"origin","to_stop_lat":"4.570868","placename":"Lima, Per\u00fa","to_stop_lon":"-74.297333","to_stop":{"id":"15859","name":"origin","lat":"4.570868","placename":"Colombia","lon":"-74.297333"},"from_stop":{"name":"origin","id":"15865","lat":"-12.0433333","lon":"-77.0283333","placename":"Lima, Per\u00fa"}}],"outgoing":[]}}},"parts":[{"oid":"1131","imid":"7623","linkid":"0","weight":"0","rawemissions":"0","emissions":"0","shipping":"3950.46","processemissions":"0","endoflifeemissions":"0","disposaltype":null,"disposalenergy":null,"disposalimpact":null,"disposalemissions":null,"description":"Jeen International 70040\n","name":"Bogota\u2193 ","id":"7623","stops":{"origin":{"related_to":"7623","part_or_object":"p","notes":null,"placename":"Nueva Jersey, EEUU","id":15860,"name":"origin","lat":"40.0583238","lon":"-74.4056612","hops":{"incoming":[],"outgoing":[{"transport_id":null,"id":"11451","transport_name":null,"transport_description":null,"transport_unit":null,"transport_co2_eq":null,"from_stop_id":"15860","from_stop_lat":"40.0583238","from_stop_lon":"-74.4056612","from_stop_placename":"Nueva Jersey, EEUU","to_stop_id":"15859","to_stop_name":"origin","to_stop_lat":"4.570868","to_stop_lon":"-74.297333","to_stop_placename":"Colombia","to_stop":{"id":"15859","name":"origin","lat":"4.570868","lon":"-74.297333","placename":"Colombia"},"from_stop":{"name":"origin","id":"15860","lat":"40.0583238","lon":"-74.4056612","placename":"Nueva Jersey, EEUU"}}]}}},"processes":[],"eols":[]},{"oid":"1131","imid":"7624","linkid":"0","weight":"0","rawemissions":"0","emissions":"0","shipping":"3950.46","processemissions":"0","endoflifeemissions":"0","disposaltype":null,"disposalenergy":null,"disposalimpact":null,"disposalemissions":null,"description":"BASF 7932","name":"","id":"7624","stops":{"origin":{"related_to":"7624","part_or_object":"p","notes":null,"placename":"Nueva Jersey, EEUU","id":15861,"name":"origin","lat":"40.0583238","lon":"-74.4056612","hops":{"incoming":[],"outgoing":[{"transport_id":null,"id":"11452","transport_name":null,"transport_description":null,"transport_unit":null,"transport_co2_eq":null,"from_stop_id":"15861","from_stop_lat":"40.0583238","from_stop_lon":"-74.4056612","from_stop_placename":"Nueva Jersey, EEUU","to_stop_id":"15859","to_stop_name":"origin","to_stop_lat":"4.570868","to_stop_lon":"-74.297333","to_stop_placename":"Colombia","to_stop":{"id":"15859","name":"origin","lat":"4.570868","lon":"-74.297333","placename":"Colombia"},"from_stop":{"name":"origin","id":"15861","lat":"40.0583238","lon":"-74.4056612","placename":"Nueva Jersey, EEUU"}}]}}},"processes":[],"eols":[]},{"oid":"1131","imid":"7625","linkid":"0","weight":"0","rawemissions":"0","emissions":"0","shipping":"3950.46","processemissions":"0","endoflifeemissions":"0","disposaltype":null,"disposalenergy":null,"disposalimpact":null,"disposalemissions":null,"description":"SENSIENT LCW 07080-1311","name":"Part","id":"7625","stops":{"origin":{"related_to":"7625","part_or_object":"p","notes":null,"placename":"Nueva Jersey, EEUU","id":15862,"name":"origin","lat":"40.0583238","lon":"-74.4056612","hops":{"incoming":[],"outgoing":[{"transport_id":null,"id":"11453","transport_name":null,"transport_description":null,"transport_unit":null,"transport_co2_eq":null,"from_stop_id":"15862","from_stop_lat":"40.0583238","from_stop_lon":"-74.4056612","from_stop_placename":"Nueva Jersey, EEUU","to_stop_id":"15859","to_stop_name":"origin","to_stop_lat":"4.570868","to_stop_lon":"-74.297333","to_stop_placename":"Colombia","to_stop":{"id":"15859","name":"origin","lat":"4.570868","lon":"-74.297333","placename":"Colombia"},"from_stop":{"name":"origin","id":"15862","lat":"40.0583238","lon":"-74.4056612","placename":"Nueva Jersey, EEUU"}}]}}},"processes":[],"eols":[]},{"oid":"1131","imid":"7626","linkid":"0","weight":"0","rawemissions":"0","emissions":"0","shipping":"3950.46","processemissions":"0","endoflifeemissions":"0","disposaltype":null,"disposalenergy":null,"disposalimpact":null,"disposalemissions":null,"description":"SUN CHEMICAL CORPORATION 07054","name":"Part","id":"7626","stops":{"origin":{"related_to":"7626","part_or_object":"p","notes":null,"placename":"Nueva Jersey, EEUU","id":15863,"name":"origin","lat":"40.0583238","lon":"-74.4056612","hops":{"incoming":[],"outgoing":[{"transport_id":null,"id":"11454","transport_name":null,"transport_description":null,"transport_unit":null,"transport_co2_eq":null,"from_stop_id":"15863","from_stop_lat":"40.0583238","from_stop_lon":"-74.4056612","from_stop_placename":"Nueva Jersey, EEUU","to_stop_id":"15859","to_stop_name":"origin","to_stop_lat":"4.570868","to_stop_lon":"-74.297333","to_stop_placename":"Colombia","to_stop":{"id":"15859","name":"origin","lat":"4.570868","lon":"-74.297333","placename":"Colombia"},"from_stop":{"name":"origin","id":"15863","lat":"40.0583238","lon":"-74.4056612","placename":"Nueva Jersey, EEUU"}}]}}},"processes":[],"eols":[]},{"oid":"1131","imid":"7627","linkid":"0","weight":"0","rawemissions":"0","emissions":"0","shipping":"3950.46","processemissions":"0","endoflifeemissions":"0","disposaltype":null,"disposalenergy":null,"disposalimpact":null,"disposalemissions":null,"description":"KOBO PRODUCTS 07080","name":"Part","id":"7627","stops":{"origin":{"related_to":"7627","part_or_object":"p","notes":null,"placename":"Nueva Jersey, EEUU","id":15864,"name":"origin","lat":"40.0583238","lon":"-74.4056612","hops":{"incoming":[],"outgoing":[{"transport_id":null,"id":"11455","transport_name":null,"transport_description":null,"transport_unit":null,"transport_co2_eq":null,"from_stop_id":"15864","from_stop_lat":"40.0583238","from_stop_lon":"-74.4056612","from_stop_placename":"Nueva Jersey, EEUU","to_stop_id":"15859","to_stop_name":"origin","to_stop_lat":"4.570868","to_stop_lon":"-74.297333","to_stop_placename":"Colombia","to_stop":{"id":"15859","name":"origin","lat":"4.570868","lon":"-74.297333","placename":"Colombia"},"from_stop":{"name":"origin","id":"15864","lat":"40.0583238","lon":"-74.4056612","placename":"Nueva Jersey, EEUU"}}]}}},"processes":[],"eols":[]},{"oid":"1131","imid":"7628","linkid":"0","weight":"0","rawemissions":"0","emissions":"0","shipping":"1874.03","processemissions":"0","endoflifeemissions":"0","disposaltype":null,"disposalenergy":null,"disposalimpact":null,"disposalemissions":null,"description":"","name":"Part","id":"7628","stops":{"origin":{"related_to":"7628","part_or_object":"p","notes":null,"placename":"Lima, Per\u00fa","id":15865,"name":"origin","lat":"-12.0433333","lon":"-77.0283333","hops":{"incoming":[],"outgoing":[{"transport_id":null,"id":"11456","transport_name":null,"transport_description":null,"transport_unit":null,"transport_co2_eq":null,"from_stop_id":"15865","from_stop_lat":"-12.0433333","from_stop_lon":"-77.0283333","from_stop_placename":"Lima, Per\u00fa","to_stop_id":"15859","to_stop_name":"origin","to_stop_lat":"4.570868","to_stop_lon":"-74.297333","to_stop_placename":"Colombia","to_stop":{"id":"15859","name":"origin","lat":"4.570868","lon":"-74.297333","placename":"Colombia"},"from_stop":{"name":"origin","id":"15865","lat":"-12.0433333","lon":"-77.0283333","placename":"Lima, Per\u00fa"}}]}}},"processes":[],"eols":[]}],"user":{"name":"sergiotorres","id":"13222"}}}