{"1144":{"oid":"1144","type":"object","flag":"","creator":"6664","name":"Relax","upc":"","imagelink":"","description":"Mexico City","slug":"relax","category":"","weight":"350","emissions":"10.9793","embodied":"0","transport":"10.9793","process":"0","endoflife":"0","shipping":"587.44","lifetime":"0","usagetype":"","usageenergy":"0","usageemissions":"0","timecreated":"2010-02-24 22:03:35.694708","timemodified":"2009-10-15 02:54:10","visibility":"private","showfootprint":"on","showembodied":"on","showtransport":"on","showprocess":"on","showendoflife":"on","showlastleg":"on","showuse":"on","showstats":"on","stops":{"origin":{"related_to":"1144","part_or_object":"o","notes":"","placename":"M?xico","id":"198","category":"1","lat":"23.634501","lon":"-102.552784","name":"origin","hops":{"incoming":[{"transport_id":"1","id":"969","transport_name":"van, 3.5 tons","transport_description":"delivery van, half full","transport_unit":"kg km","transport_co2_eq":"0.053400","from_stop_id":"3221","from_stop_lat":"19.4270499","from_stop_lon":"-99.1275711","to_stop_id":"198","to_stop_name":"origin","to_stop_lat":"23.634501","placename":"Ciudad de M?xico, D.f., M?xico","to_stop_lon":"-102.552784","to_stop":{"id":"198","name":"origin","lat":"23.634501","placename":"M?xico","lon":"-102.552784"},"from_stop":{"name":"origin","id":"3221","lat":"19.4270499","lon":"-99.1275711","placename":"Ciudad de M?xico, D.f., M?xico"}},{"transport_id":"17","id":"970","transport_name":"None Selected","transport_description":null,"transport_unit":"kg km","transport_co2_eq":"0.000000","from_stop_id":"3222","from_stop_lat":"0","from_stop_lon":"0","to_stop_id":"198","to_stop_name":"origin","to_stop_lat":"23.634501","placename":"Part Location","to_stop_lon":"-102.552784","to_stop":{"id":"198","name":"origin","lat":"23.634501","placename":"M?xico","lon":"-102.552784"},"from_stop":{"name":"origin","id":"3222","lat":"0","lon":"0","placename":"Part Location"}}],"outgoing":[]}}},"parts":[{"oid":"1144","imid":"1164","linkid":"","weight":"350","rawemissions":"0","emissions":"0","shipping":"587.44","processemissions":null,"endoflifeemissions":null,"disposaltype":null,"disposalenergy":null,"disposalimpact":null,"disposalemissions":null,"description":"","name":"queretaro","id":"1164","stops":{"origin":{"related_to":"1164","part_or_object":"p","notes":"","placename":"Ciudad de M?xico, D.f., M?xico","id":3221,"name":"origin","lat":"19.4270499","lon":"-99.1275711","hops":{"incoming":[],"outgoing":[{"transport_id":"1","id":"969","transport_name":"van, 3.5 tons","transport_description":"delivery van, half full","transport_unit":"kg km","transport_co2_eq":"0.053400","from_stop_id":"3221","from_stop_lat":"19.4270499","from_stop_lon":"-99.1275711","from_stop_placename":"Ciudad de M?xico, D.f., M?xico","to_stop_id":"198","to_stop_name":"origin","to_stop_lat":"23.634501","to_stop_lon":"-102.552784","to_stop_placename":"M?xico","to_stop":{"id":"198","name":"origin","lat":"23.634501","lon":"-102.552784","placename":"M?xico"},"from_stop":{"name":"origin","id":"3221","lat":"19.4270499","lon":"-99.1275711","placename":"Ciudad de M?xico, D.f., M?xico"}}]}}},"processes":[],"eols":[]},{"oid":"1144","imid":"1165","linkid":"","weight":"0","rawemissions":"0","emissions":"0","shipping":"0","processemissions":null,"endoflifeemissions":null,"disposaltype":null,"disposalenergy":null,"disposalimpact":null,"disposalemissions":null,"description":"","name":"Part","id":"1165","stops":{"origin":{"related_to":"1165","part_or_object":"p","notes":"","placename":"Part Location","id":3222,"name":"origin","lat":"0","lon":"0","hops":{"incoming":[],"outgoing":[{"transport_id":"17","id":"970","transport_name":"None Selected","transport_description":null,"transport_unit":"kg km","transport_co2_eq":"0.000000","from_stop_id":"3222","from_stop_lat":"0","from_stop_lon":"0","from_stop_placename":"Part Location","to_stop_id":"198","to_stop_name":"origin","to_stop_lat":"23.634501","to_stop_lon":"-102.552784","to_stop_placename":"M?xico","to_stop":{"id":"198","name":"origin","lat":"23.634501","lon":"-102.552784","placename":"M?xico"},"from_stop":{"name":"origin","id":"3222","lat":"0","lon":"0","placename":"Part Location"}}]}}},"processes":[],"eols":[]}],"user":{"name":"alx700","id":"6664"}}}