{"1166":{"oid":"1166","type":"food","flag":"","creator":"13297","name":"Calvert Eats Local\/Holly's Food Map","upc":"","imagelink":"","description":"I am a member of Calvert  Eats Local, a citizen organization dedicated to the support of sustainable agriculture and community in Southern Maryland.\n\nA community that educates and enlightens members on ways to find, grow, prepare, and serve food and drink that is truly local and truly sustainable.\n\nWhere do the foods I eat come from? How do they get to me?This is a map of food that I source locally. I will be adding more.   I hope this map can be an inspiration and a help to others eating local food. \n ","slug":"Calvert-Eats-Local","category":"","weight":"0","emissions":"0","embodied":"0","transport":"0","process":null,"endoflife":null,"shipping":"193.11","lifetime":null,"usagetype":"","usageenergy":null,"usageemissions":null,"timecreated":"2011-05-24 07:38:11","timemodified":"2011-05-24 09:42:00","visibility":"public","showfootprint":"on","showembodied":"on","showtransport":"on","showprocess":"on","showendoflife":"on","showlastleg":"on","showuse":"on","showstats":"on","stops":{"origin":{"related_to":"1166","part_or_object":"o","notes":null,"placename":"Sunderland, MD, USA","id":"16031","category":"1","lat":"38.671111","lon":"-76.598333","name":"origin","hops":{"incoming":[{"transport_id":null,"id":"11551","transport_name":null,"transport_description":null,"transport_unit":null,"transport_co2_eq":null,"from_stop_id":"16032","from_stop_lat":"40.0044552","from_stop_lon":"-76.0613661","to_stop_id":"16031","to_stop_name":"origin","to_stop_lat":"38.671111","placename":"Kinzer, Salisbury, PA 17535, USA","to_stop_lon":"-76.598333","to_stop":{"id":"16031","name":"origin","lat":"38.671111","placename":"Sunderland, MD, USA","lon":"-76.598333"},"from_stop":{"name":"origin","id":"16032","lat":"40.0044552","lon":"-76.0613661","placename":"Kinzer, Salisbury, PA 17535, USA"}},{"transport_id":null,"id":"11552","transport_name":null,"transport_description":null,"transport_unit":null,"transport_co2_eq":null,"from_stop_id":"16033","from_stop_lat":"38.671111","from_stop_lon":"-76.598333","to_stop_id":"16031","to_stop_name":"origin","to_stop_lat":"38.671111","placename":"Sunderland, MD, USA","to_stop_lon":"-76.598333","to_stop":{"id":"16031","name":"origin","lat":"38.671111","placename":"Sunderland, MD, USA","lon":"-76.598333"},"from_stop":{"name":"origin","id":"16033","lat":"38.671111","lon":"-76.598333","placename":"Sunderland, MD, USA"}},{"transport_id":null,"id":"11553","transport_name":null,"transport_description":null,"transport_unit":null,"transport_co2_eq":null,"from_stop_id":"16034","from_stop_lat":"38.8431707","from_stop_lon":"-76.5435702","to_stop_id":"16031","to_stop_name":"origin","to_stop_lat":"38.671111","placename":"Galesville, MD 20765, USA","to_stop_lon":"-76.598333","to_stop":{"id":"16031","name":"origin","lat":"38.671111","placename":"Sunderland, MD, USA","lon":"-76.598333"},"from_stop":{"name":"origin","id":"16034","lat":"38.8431707","lon":"-76.5435702","placename":"Galesville, MD 20765, USA"}},{"transport_id":null,"id":"11554","transport_name":null,"transport_description":null,"transport_unit":null,"transport_co2_eq":null,"from_stop_id":"16035","from_stop_lat":"38.671111","from_stop_lon":"-76.598333","to_stop_id":"16031","to_stop_name":"origin","to_stop_lat":"38.671111","placename":"Sunderland, MD, USA","to_stop_lon":"-76.598333","to_stop":{"id":"16031","name":"origin","lat":"38.671111","placename":"Sunderland, MD, USA","lon":"-76.598333"},"from_stop":{"name":"origin","id":"16035","lat":"38.671111","lon":"-76.598333","placename":"Sunderland, MD, USA"}},{"transport_id":null,"id":"11555","transport_name":null,"transport_description":null,"transport_unit":null,"transport_co2_eq":null,"from_stop_id":"16036","from_stop_lat":"38.8317815","from_stop_lon":"-76.611351","to_stop_id":"16031","to_stop_name":"origin","to_stop_lat":"38.671111","placename":"Lothian, MD, USA","to_stop_lon":"-76.598333","to_stop":{"id":"16031","name":"origin","lat":"38.671111","placename":"Sunderland, MD, USA","lon":"-76.598333"},"from_stop":{"name":"origin","id":"16036","lat":"38.8317815","lon":"-76.611351","placename":"Lothian, MD, USA"}}],"outgoing":[]}}},"parts":[{"oid":"1166","imid":"7671","linkid":"0","weight":"0","rawemissions":"0","emissions":"0","shipping":"155.46","processemissions":"0","endoflifeemissions":"0","disposaltype":null,"disposalenergy":null,"disposalimpact":null,"disposalemissions":null,"description":"","name":"raw milk","id":"7671","stops":{"origin":{"related_to":"7671","part_or_object":"p","notes":null,"placename":"Kinzer, Salisbury, PA 17535, USA","id":16032,"name":"origin","lat":"40.0044552","lon":"-76.0613661","hops":{"incoming":[],"outgoing":[{"transport_id":null,"id":"11551","transport_name":null,"transport_description":null,"transport_unit":null,"transport_co2_eq":null,"from_stop_id":"16032","from_stop_lat":"40.0044552","from_stop_lon":"-76.0613661","from_stop_placename":"Kinzer, Salisbury, PA 17535, USA","to_stop_id":"16031","to_stop_name":"origin","to_stop_lat":"38.671111","to_stop_lon":"-76.598333","to_stop_placename":"Sunderland, MD, USA","to_stop":{"id":"16031","name":"origin","lat":"38.671111","lon":"-76.598333","placename":"Sunderland, MD, USA"},"from_stop":{"name":"origin","id":"16032","lat":"40.0044552","lon":"-76.0613661","placename":"Kinzer, Salisbury, PA 17535, USA"}}]}}},"processes":[],"eols":[]},{"oid":"1166","imid":"7672","linkid":"0","weight":"0","rawemissions":"0","emissions":"0","shipping":"0","processemissions":"0","endoflifeemissions":"0","disposaltype":null,"disposalenergy":null,"disposalimpact":null,"disposalemissions":null,"description":"I sell eggs","name":"eggs","id":"7672","stops":{"origin":{"related_to":"7672","part_or_object":"p","notes":null,"placename":"Sunderland, MD, USA","id":16033,"name":"origin","lat":"38.671111","lon":"-76.598333","hops":{"incoming":[],"outgoing":[{"transport_id":null,"id":"11552","transport_name":null,"transport_description":null,"transport_unit":null,"transport_co2_eq":null,"from_stop_id":"16033","from_stop_lat":"38.671111","from_stop_lon":"-76.598333","from_stop_placename":"Sunderland, MD, USA","to_stop_id":"16031","to_stop_name":"origin","to_stop_lat":"38.671111","to_stop_lon":"-76.598333","to_stop_placename":"Sunderland, MD, USA","to_stop":{"id":"16031","name":"origin","lat":"38.671111","lon":"-76.598333","placename":"Sunderland, MD, USA"},"from_stop":{"name":"origin","id":"16033","lat":"38.671111","lon":"-76.598333","placename":"Sunderland, MD, USA"}}]}}},"processes":[],"eols":[]},{"oid":"1166","imid":"7673","linkid":"0","weight":"0","rawemissions":"0","emissions":"0","shipping":"19.73","processemissions":"0","endoflifeemissions":"0","disposaltype":null,"disposalenergy":null,"disposalimpact":null,"disposalemissions":null,"description":"I raise oysters.","name":"oysters","id":"7673","stops":{"origin":{"related_to":"7673","part_or_object":"p","notes":null,"placename":"Galesville, MD 20765, USA","id":16034,"name":"origin","lat":"38.8431707","lon":"-76.5435702","hops":{"incoming":[],"outgoing":[{"transport_id":null,"id":"11553","transport_name":null,"transport_description":null,"transport_unit":null,"transport_co2_eq":null,"from_stop_id":"16034","from_stop_lat":"38.8431707","from_stop_lon":"-76.5435702","from_stop_placename":"Galesville, MD 20765, USA","to_stop_id":"16031","to_stop_name":"origin","to_stop_lat":"38.671111","to_stop_lon":"-76.598333","to_stop_placename":"Sunderland, MD, USA","to_stop":{"id":"16031","name":"origin","lat":"38.671111","lon":"-76.598333","placename":"Sunderland, MD, USA"},"from_stop":{"name":"origin","id":"16034","lat":"38.8431707","lon":"-76.5435702","placename":"Galesville, MD 20765, USA"}}]}}},"processes":[],"eols":[]},{"oid":"1166","imid":"7674","linkid":"0","weight":"0","rawemissions":"0","emissions":"0","shipping":"0","processemissions":"0","endoflifeemissions":"0","disposaltype":null,"disposalenergy":null,"disposalimpact":null,"disposalemissions":null,"description":"I raise chickens.","name":"Chicken","id":"7674","stops":{"origin":{"related_to":"7674","part_or_object":"p","notes":null,"placename":"Sunderland, MD, USA","id":16035,"name":"origin","lat":"38.671111","lon":"-76.598333","hops":{"incoming":[],"outgoing":[{"transport_id":null,"id":"11554","transport_name":null,"transport_description":null,"transport_unit":null,"transport_co2_eq":null,"from_stop_id":"16035","from_stop_lat":"38.671111","from_stop_lon":"-76.598333","from_stop_placename":"Sunderland, MD, USA","to_stop_id":"16031","to_stop_name":"origin","to_stop_lat":"38.671111","to_stop_lon":"-76.598333","to_stop_placename":"Sunderland, MD, USA","to_stop":{"id":"16031","name":"origin","lat":"38.671111","lon":"-76.598333","placename":"Sunderland, MD, USA"},"from_stop":{"name":"origin","id":"16035","lat":"38.671111","lon":"-76.598333","placename":"Sunderland, MD, USA"}}]}}},"processes":[],"eols":[]},{"oid":"1166","imid":"7675","linkid":"0","weight":"0","rawemissions":"0","emissions":"0","shipping":"17.92","processemissions":"0","endoflifeemissions":"0","disposaltype":null,"disposalenergy":null,"disposalimpact":null,"disposalemissions":null,"description":"From the roadside stand.","name":"asparagus","id":"7675","stops":{"origin":{"related_to":"7675","part_or_object":"p","notes":null,"placename":"Lothian, MD, USA","id":16036,"name":"origin","lat":"38.8317815","lon":"-76.611351","hops":{"incoming":[],"outgoing":[{"transport_id":null,"id":"11555","transport_name":null,"transport_description":null,"transport_unit":null,"transport_co2_eq":null,"from_stop_id":"16036","from_stop_lat":"38.8317815","from_stop_lon":"-76.611351","from_stop_placename":"Lothian, MD, USA","to_stop_id":"16031","to_stop_name":"origin","to_stop_lat":"38.671111","to_stop_lon":"-76.598333","to_stop_placename":"Sunderland, MD, USA","to_stop":{"id":"16031","name":"origin","lat":"38.671111","lon":"-76.598333","placename":"Sunderland, MD, USA"},"from_stop":{"name":"origin","id":"16036","lat":"38.8317815","lon":"-76.611351","placename":"Lothian, MD, USA"}}]}}},"processes":[],"eols":[]}],"user":{"name":"hbudd","id":"13297"}}}