{"1213":{"oid":"1213","type":"object","flag":"","creator":"6730","name":"Arduino Duemilanove","upc":"","imagelink":"","description":"","slug":"arduino-duemilanove","category":"","weight":"0","emissions":"0","embodied":"0","transport":"0","process":"0","endoflife":"0","shipping":"18171.8","lifetime":"0","usagetype":"","usageenergy":"0","usageemissions":"0","timecreated":"2010-02-24 22:03:35.720737","timemodified":"2009-10-16 22:37:53","visibility":"public","showfootprint":"on","showembodied":"on","showtransport":"on","showprocess":"on","showendoflife":"on","showlastleg":"on","showuse":"on","showstats":"on","stops":{"origin":{"related_to":"1213","part_or_object":"o","notes":"","placename":"Italy","id":"217","category":"1","lat":"41.87194","lon":"12.56738","name":"origin","hops":{"incoming":[{"transport_id":"16","id":"981","transport_name":"air, freight, intercontinental","transport_description":"intercontinental freight","transport_unit":"kg km","transport_co2_eq":"0.450000","from_stop_id":"3233","from_stop_lat":"38.8338816","from_stop_lon":"-104.8213634","to_stop_id":"217","to_stop_name":"origin","to_stop_lat":"41.87194","placename":"Colorado Springs, CO, USA","to_stop_lon":"12.56738","to_stop":{"id":"217","name":"origin","lat":"41.87194","placename":"Italy","lon":"12.56738"},"from_stop":{"name":"origin","id":"3233","lat":"38.8338816","lon":"-104.8213634","placename":"Colorado Springs, CO, USA"}},{"transport_id":"16","id":"982","transport_name":"air, freight, intercontinental","transport_description":"intercontinental freight","transport_unit":"kg km","transport_co2_eq":"0.450000","from_stop_id":"3234","from_stop_lat":"31.230708","from_stop_lon":"121.472916","to_stop_id":"217","to_stop_name":"origin","to_stop_lat":"41.87194","placename":"Shanghai, China","to_stop_lon":"12.56738","to_stop":{"id":"217","name":"origin","lat":"41.87194","placename":"Italy","lon":"12.56738"},"from_stop":{"name":"origin","id":"3234","lat":"31.230708","lon":"121.472916","placename":"Shanghai, China"}},{"transport_id":"17","id":"983","transport_name":"None Selected","transport_description":null,"transport_unit":"kg km","transport_co2_eq":"0.000000","from_stop_id":"3235","from_stop_lat":"41.87194","from_stop_lon":"12.56738","to_stop_id":"217","to_stop_name":"origin","to_stop_lat":"41.87194","placename":"Italy","to_stop_lon":"12.56738","to_stop":{"id":"217","name":"origin","lat":"41.87194","placename":"Italy","lon":"12.56738"},"from_stop":{"name":"origin","id":"3235","lat":"41.87194","lon":"12.56738","placename":"Italy"}},{"transport_id":"17","id":"984","transport_name":"None Selected","transport_description":null,"transport_unit":"kg km","transport_co2_eq":"0.000000","from_stop_id":"3236","from_stop_lat":"0","from_stop_lon":"0","to_stop_id":"217","to_stop_name":"origin","to_stop_lat":"41.87194","placename":"Part Location","to_stop_lon":"12.56738","to_stop":{"id":"217","name":"origin","lat":"41.87194","placename":"Italy","lon":"12.56738"},"from_stop":{"name":"origin","id":"3236","lat":"0","lon":"0","placename":"Part Location"}}],"outgoing":[]}}},"parts":[{"oid":"1213","imid":"1175","linkid":"","weight":"0","rawemissions":"0","emissions":"0","shipping":"9047.39","processemissions":null,"endoflifeemissions":null,"disposaltype":null,"disposalenergy":null,"disposalimpact":null,"disposalemissions":null,"description":"Atmel wafers are manufactured in Colorado Springs, Colorado. \nSee http:\/\/atml.client.shareholder.com\/secfiling.cfm?filingID=950134-09-4248","name":"Atmega 328 Wafer","id":"1175","stops":{"origin":{"related_to":"1175","part_or_object":"p","notes":"","placename":"Colorado Springs, CO, USA","id":3233,"name":"origin","lat":"38.8338816","lon":"-104.8213634","hops":{"incoming":[],"outgoing":[{"transport_id":"16","id":"981","transport_name":"air, freight, intercontinental","transport_description":"intercontinental freight","transport_unit":"kg km","transport_co2_eq":"0.450000","from_stop_id":"3233","from_stop_lat":"38.8338816","from_stop_lon":"-104.8213634","from_stop_placename":"Colorado Springs, CO, USA","to_stop_id":"217","to_stop_name":"origin","to_stop_lat":"41.87194","to_stop_lon":"12.56738","to_stop_placename":"Italy","to_stop":{"id":"217","name":"origin","lat":"41.87194","lon":"12.56738","placename":"Italy"},"from_stop":{"name":"origin","id":"3233","lat":"38.8338816","lon":"-104.8213634","placename":"Colorado Springs, CO, USA"}}]}}},"processes":[],"eols":[]},{"oid":"1213","imid":"1176","linkid":"","weight":"0","rawemissions":"0","emissions":"0","shipping":"9124.38","processemissions":null,"endoflifeemissions":null,"disposaltype":null,"disposalenergy":null,"disposalimpact":null,"disposalemissions":null,"description":"Atmel makes its Atmega wafers in Colorado, then ships them to various Asia contractors for assembly and testing. See http:\/\/atml.client.shareholder.com\/secfiling.cfm?filingID=950134-09-4248","name":"Atmega328 assembled chip","id":"1176","stops":{"origin":{"related_to":"1176","part_or_object":"p","notes":"","placename":"Shanghai, China","id":3234,"name":"origin","lat":"31.230708","lon":"121.472916","hops":{"incoming":[],"outgoing":[{"transport_id":"16","id":"982","transport_name":"air, freight, intercontinental","transport_description":"intercontinental freight","transport_unit":"kg km","transport_co2_eq":"0.450000","from_stop_id":"3234","from_stop_lat":"31.230708","from_stop_lon":"121.472916","from_stop_placename":"Shanghai, China","to_stop_id":"217","to_stop_name":"origin","to_stop_lat":"41.87194","to_stop_lon":"12.56738","to_stop_placename":"Italy","to_stop":{"id":"217","name":"origin","lat":"41.87194","lon":"12.56738","placename":"Italy"},"from_stop":{"name":"origin","id":"3234","lat":"31.230708","lon":"121.472916","placename":"Shanghai, China"}}]}}},"processes":[],"eols":[]},{"oid":"1213","imid":"1177","linkid":"","weight":"0","rawemissions":"0","emissions":"0","shipping":"0","processemissions":null,"endoflifeemissions":null,"disposaltype":null,"disposalenergy":null,"disposalimpact":null,"disposalemissions":null,"description":"Arduino PCBs are made by a private Italian manufacturer under contract to Smart Projects. ","name":"Arduino Duemilanove PCB","id":"1177","stops":{"origin":{"related_to":"1177","part_or_object":"p","notes":"","placename":"Italy","id":3235,"name":"origin","lat":"41.87194","lon":"12.56738","hops":{"incoming":[],"outgoing":[{"transport_id":"17","id":"983","transport_name":"None Selected","transport_description":null,"transport_unit":"kg km","transport_co2_eq":"0.000000","from_stop_id":"3235","from_stop_lat":"41.87194","from_stop_lon":"12.56738","from_stop_placename":"Italy","to_stop_id":"217","to_stop_name":"origin","to_stop_lat":"41.87194","to_stop_lon":"12.56738","to_stop_placename":"Italy","to_stop":{"id":"217","name":"origin","lat":"41.87194","lon":"12.56738","placename":"Italy"},"from_stop":{"name":"origin","id":"3235","lat":"41.87194","lon":"12.56738","placename":"Italy"}}]}}},"processes":[],"eols":[]},{"oid":"1213","imid":"1178","linkid":"","weight":"0","rawemissions":"0","emissions":"0","shipping":"0","processemissions":null,"endoflifeemissions":null,"disposaltype":null,"disposalenergy":null,"disposalimpact":null,"disposalemissions":null,"description":"","name":"47Uf\/35V SMT capacitor","id":"1178","stops":{"origin":{"related_to":"1178","part_or_object":"p","notes":"","placename":"Part Location","id":3236,"name":"origin","lat":"0","lon":"0","hops":{"incoming":[],"outgoing":[{"transport_id":"17","id":"984","transport_name":"None Selected","transport_description":null,"transport_unit":"kg km","transport_co2_eq":"0.000000","from_stop_id":"3236","from_stop_lat":"0","from_stop_lon":"0","from_stop_placename":"Part Location","to_stop_id":"217","to_stop_name":"origin","to_stop_lat":"41.87194","to_stop_lon":"12.56738","to_stop_placename":"Italy","to_stop":{"id":"217","name":"origin","lat":"41.87194","lon":"12.56738","placename":"Italy"},"from_stop":{"name":"origin","id":"3236","lat":"0","lon":"0","placename":"Part Location"}}]}}},"processes":[],"eols":[]}],"user":{"name":"someguy","id":"6730"}}}