{"1282":{"oid":"1282","type":"trace","flag":"","creator":"13476","name":"Jewellery","upc":"","imagelink":"","description":"","slug":"Mine","category":"","weight":"0","emissions":"0","embodied":"0","transport":"0","process":null,"endoflife":null,"shipping":"12442.03","lifetime":null,"usagetype":"","usageenergy":null,"usageemissions":null,"timecreated":"2011-06-01 07:32:48","timemodified":"2011-06-01 07:37:16","visibility":"public","showfootprint":"on","showembodied":"on","showtransport":"on","showprocess":"on","showendoflife":"on","showlastleg":"on","showuse":"on","showstats":"on","stops":{"origin":{"related_to":"1282","part_or_object":"o","notes":null,"placename":"Florida, USA","id":"16179","category":"1","lat":"27.6648274","lon":"-81.5157535","name":"origin","hops":{"incoming":[{"transport_id":null,"id":"11575","transport_name":null,"transport_description":null,"transport_unit":null,"transport_co2_eq":null,"from_stop_id":"16180","from_stop_lat":"-16.290154","from_stop_lon":"-63.588653","to_stop_id":"16179","to_stop_name":"origin","to_stop_lat":"27.6648274","placename":"Bolivia","to_stop_lon":"-81.5157535","to_stop":{"id":"16179","name":"origin","lat":"27.6648274","placename":"Florida, USA","lon":"-81.5157535"},"from_stop":{"name":"origin","id":"16180","lat":"-16.290154","lon":"-63.588653","placename":"Bolivia"}},{"transport_id":null,"id":"11576","transport_name":null,"transport_description":null,"transport_unit":null,"transport_co2_eq":null,"from_stop_id":"16181","from_stop_lat":"-9.189967","from_stop_lon":"-75.015152","to_stop_id":"16179","to_stop_name":"origin","to_stop_lat":"27.6648274","placename":"Peru","to_stop_lon":"-81.5157535","to_stop":{"id":"16179","name":"origin","lat":"27.6648274","placename":"Florida, USA","lon":"-81.5157535"},"from_stop":{"name":"origin","id":"16181","lat":"-9.189967","lon":"-75.015152","placename":"Peru"}},{"transport_id":null,"id":"11577","transport_name":null,"transport_description":null,"transport_unit":null,"transport_co2_eq":null,"from_stop_id":"16182","from_stop_lat":"27.6648274","from_stop_lon":"-81.5157535","to_stop_id":"16179","to_stop_name":"origin","to_stop_lat":"27.6648274","placename":"Florida, USA","to_stop_lon":"-81.5157535","to_stop":{"id":"16179","name":"origin","lat":"27.6648274","placename":"Florida, USA","lon":"-81.5157535"},"from_stop":{"name":"origin","id":"16182","lat":"27.6648274","lon":"-81.5157535","placename":"Florida, USA"}},{"transport_id":null,"id":"11578","transport_name":null,"transport_description":null,"transport_unit":null,"transport_co2_eq":null,"from_stop_id":"16183","from_stop_lat":"39.3209801","from_stop_lon":"-111.0937311","to_stop_id":"16179","to_stop_name":"origin","to_stop_lat":"27.6648274","placename":"Utah, USA","to_stop_lon":"-81.5157535","to_stop":{"id":"16179","name":"origin","lat":"27.6648274","placename":"Florida, USA","lon":"-81.5157535"},"from_stop":{"name":"origin","id":"16183","lat":"39.3209801","lon":"-111.0937311","placename":"Utah, USA"}}],"outgoing":[]}}},"parts":[{"oid":"1282","imid":"7693","linkid":"0","weight":"0","rawemissions":"0","emissions":"0","shipping":"5261.49","processemissions":"0","endoflifeemissions":"0","disposaltype":null,"disposalenergy":null,"disposalimpact":null,"disposalemissions":null,"description":"","name":"Tagged Jewellery","id":"7693","stops":{"origin":{"related_to":"7693","part_or_object":"p","notes":null,"placename":"Bolivia","id":16180,"name":"origin","lat":"-16.290154","lon":"-63.588653","hops":{"incoming":[],"outgoing":[{"transport_id":null,"id":"11575","transport_name":null,"transport_description":null,"transport_unit":null,"transport_co2_eq":null,"from_stop_id":"16180","from_stop_lat":"-16.290154","from_stop_lon":"-63.588653","from_stop_placename":"Bolivia","to_stop_id":"16179","to_stop_name":"origin","to_stop_lat":"27.6648274","to_stop_lon":"-81.5157535","to_stop_placename":"Florida, USA","to_stop":{"id":"16179","name":"origin","lat":"27.6648274","lon":"-81.5157535","placename":"Florida, USA"},"from_stop":{"name":"origin","id":"16180","lat":"-16.290154","lon":"-63.588653","placename":"Bolivia"}}]}}},"processes":[],"eols":[]},{"oid":"1282","imid":"7694","linkid":"0","weight":"0","rawemissions":"0","emissions":"0","shipping":"4162.06","processemissions":"0","endoflifeemissions":"0","disposaltype":null,"disposalenergy":null,"disposalimpact":null,"disposalemissions":null,"description":"","name":"Rope","id":"7694","stops":{"origin":{"related_to":"7694","part_or_object":"p","notes":null,"placename":"Peru","id":16181,"name":"origin","lat":"-9.189967","lon":"-75.015152","hops":{"incoming":[],"outgoing":[{"transport_id":null,"id":"11576","transport_name":null,"transport_description":null,"transport_unit":null,"transport_co2_eq":null,"from_stop_id":"16181","from_stop_lat":"-9.189967","from_stop_lon":"-75.015152","from_stop_placename":"Peru","to_stop_id":"16179","to_stop_name":"origin","to_stop_lat":"27.6648274","to_stop_lon":"-81.5157535","to_stop_placename":"Florida, USA","to_stop":{"id":"16179","name":"origin","lat":"27.6648274","lon":"-81.5157535","placename":"Florida, USA"},"from_stop":{"name":"origin","id":"16181","lat":"-9.189967","lon":"-75.015152","placename":"Peru"}}]}}},"processes":[],"eols":[]},{"oid":"1282","imid":"7695","linkid":"0","weight":"0","rawemissions":"0","emissions":"0","shipping":"0","processemissions":"0","endoflifeemissions":"0","disposaltype":null,"disposalenergy":null,"disposalimpact":null,"disposalemissions":null,"description":"","name":"Gold Bars","id":"7695","stops":{"origin":{"related_to":"7695","part_or_object":"p","notes":null,"placename":"Florida, USA","id":16182,"name":"origin","lat":"27.6648274","lon":"-81.5157535","hops":{"incoming":[],"outgoing":[{"transport_id":null,"id":"11577","transport_name":null,"transport_description":null,"transport_unit":null,"transport_co2_eq":null,"from_stop_id":"16182","from_stop_lat":"27.6648274","from_stop_lon":"-81.5157535","from_stop_placename":"Florida, USA","to_stop_id":"16179","to_stop_name":"origin","to_stop_lat":"27.6648274","to_stop_lon":"-81.5157535","to_stop_placename":"Florida, USA","to_stop":{"id":"16179","name":"origin","lat":"27.6648274","lon":"-81.5157535","placename":"Florida, USA"},"from_stop":{"name":"origin","id":"16182","lat":"27.6648274","lon":"-81.5157535","placename":"Florida, USA"}}]}}},"processes":[],"eols":[]},{"oid":"1282","imid":"7696","linkid":"0","weight":"0","rawemissions":"0","emissions":"0","shipping":"3018.48","processemissions":"0","endoflifeemissions":"0","disposaltype":null,"disposalenergy":null,"disposalimpact":null,"disposalemissions":null,"description":"","name":"Gold","id":"7696","stops":{"origin":{"related_to":"7696","part_or_object":"p","notes":null,"placename":"Utah, USA","id":16183,"name":"origin","lat":"39.3209801","lon":"-111.0937311","hops":{"incoming":[],"outgoing":[{"transport_id":null,"id":"11578","transport_name":null,"transport_description":null,"transport_unit":null,"transport_co2_eq":null,"from_stop_id":"16183","from_stop_lat":"39.3209801","from_stop_lon":"-111.0937311","from_stop_placename":"Utah, USA","to_stop_id":"16179","to_stop_name":"origin","to_stop_lat":"27.6648274","to_stop_lon":"-81.5157535","to_stop_placename":"Florida, USA","to_stop":{"id":"16179","name":"origin","lat":"27.6648274","lon":"-81.5157535","placename":"Florida, USA"},"from_stop":{"name":"origin","id":"16183","lat":"39.3209801","lon":"-111.0937311","placename":"Utah, USA"}}]}}},"processes":[],"eols":[]}],"user":{"name":"susannah.ellis","id":"13476"}}}