{"130":{"oid":"130","type":"object","flag":"","creator":"1","name":"Bergmeyer Assoc. Dec. 6th, 2008","upc":"","imagelink":"","description":"","slug":"bergmeyer-assoc--dec--6th-2008","category":"","weight":"10","emissions":"0.049471872","embodied":"0","transport":"0.049471872","process":"0","endoflife":"0","shipping":"1956.64","lifetime":"0","usagetype":"","usageenergy":"0","usageemissions":"0","timecreated":"2010-02-24 22:03:35.410126","timemodified":"2010-07-25 16:32:37","visibility":"public","showfootprint":"on","showembodied":"on","showtransport":"on","showprocess":"on","showendoflife":"on","showlastleg":"on","showuse":"on","showstats":"on","stops":{"origin":{"related_to":"130","part_or_object":"o","notes":"","placename":"Cambridge MA","id":"1703","category":"1","lat":"42.375627","lon":"-71.1401543","name":"origin","hops":{"incoming":[{"transport_id":"2","id":"202","transport_name":"truck, 16 tons","transport_description":"truck, half full","transport_unit":"kg km","transport_co2_eq":"0.020300","from_stop_id":"2354","from_stop_lat":"43.65467","from_stop_lon":"-70.262434","to_stop_id":"1703","to_stop_name":"origin","to_stop_lat":"42.375627","placename":"Portland ME","to_stop_lon":"-71.1401543","to_stop":{"id":"1703","name":"origin","lat":"42.375627","placename":"Cambridge MA","lon":"-71.1401543"},"from_stop":{"name":"origin","id":"2354","lat":"43.65467","lon":"-70.262434","placename":"Portland ME"}},{"transport_id":"2","id":"203","transport_name":"truck, 16 tons","transport_description":"truck, half full","transport_unit":"kg km","transport_co2_eq":"0.020300","from_stop_id":"2355","from_stop_lat":"42.474354","from_stop_lon":"-72.006233","to_stop_id":"1703","to_stop_name":"origin","to_stop_lat":"42.375627","placename":"Huberston MA","to_stop_lon":"-71.1401543","to_stop":{"id":"1703","name":"origin","lat":"42.375627","placename":"Cambridge MA","lon":"-71.1401543"},"from_stop":{"name":"origin","id":"2355","lat":"42.474354","lon":"-72.006233","placename":"Huberston MA"}},{"transport_id":"2","id":"204","transport_name":"truck, 16 tons","transport_description":"truck, half full","transport_unit":"kg km","transport_co2_eq":"0.020300","from_stop_id":"2356","from_stop_lat":"42.443434","from_stop_lon":"-72.635577","to_stop_id":"1703","to_stop_name":"origin","to_stop_lat":"42.375627","placename":"Whately MA","to_stop_lon":"-71.1401543","to_stop":{"id":"1703","name":"origin","lat":"42.375627","placename":"Cambridge MA","lon":"-71.1401543"},"from_stop":{"name":"origin","id":"2356","lat":"42.443434","lon":"-72.635577","placename":"Whately MA"}},{"transport_id":"1","id":"220","transport_name":"van, 3.5 tons","transport_description":"delivery van, half full","transport_unit":"kg km","transport_co2_eq":"0.053400","from_stop_id":"2396","from_stop_lat":"42.666397","from_stop_lon":"-71.58901","to_stop_id":"1703","to_stop_name":"origin","to_stop_lat":"42.375627","placename":"Pepperell MA","to_stop_lon":"-71.1401543","to_stop":{"id":"1703","name":"origin","lat":"42.375627","placename":"Cambridge MA","lon":"-71.1401543"},"from_stop":{"name":"origin","id":"2396","lat":"42.666397","lon":"-71.58901","placename":"Pepperell MA"}},{"transport_id":"1","id":"221","transport_name":"van, 3.5 tons","transport_description":"delivery van, half full","transport_unit":"kg km","transport_co2_eq":"0.053400","from_stop_id":"2397","from_stop_lat":"42.443872","from_stop_lon":"-73.559261","to_stop_id":"1703","to_stop_name":"origin","to_stop_lat":"42.375627","placename":"Old Chatam NY","to_stop_lon":"-71.1401543","to_stop":{"id":"1703","name":"origin","lat":"42.375627","placename":"Cambridge MA","lon":"-71.1401543"},"from_stop":{"name":"origin","id":"2397","lat":"42.443872","lon":"-73.559261","placename":"Old Chatam NY"}},{"transport_id":"1","id":"222","transport_name":"van, 3.5 tons","transport_description":"delivery van, half full","transport_unit":"kg km","transport_co2_eq":"0.053400","from_stop_id":"2398","from_stop_lat":"43.1967364","from_stop_lon":"-72.63877","to_stop_id":"1703","to_stop_name":"origin","to_stop_lat":"42.375627","placename":"Grafton VT","to_stop_lon":"-71.1401543","to_stop":{"id":"1703","name":"origin","lat":"42.375627","placename":"Cambridge MA","lon":"-71.1401543"},"from_stop":{"name":"origin","id":"2398","lat":"43.1967364","lon":"-72.63877","placename":"Grafton VT"}},{"transport_id":"1","id":"223","transport_name":"van, 3.5 tons","transport_description":"delivery van, half full","transport_unit":"kg km","transport_co2_eq":"0.053400","from_stop_id":"2399","from_stop_lat":"44.554998","from_stop_lon":"-72.070926","to_stop_id":"1703","to_stop_name":"origin","to_stop_lat":"42.375627","placename":"Townsend VT","to_stop_lon":"-71.1401543","to_stop":{"id":"1703","name":"origin","lat":"42.375627","placename":"Cambridge MA","lon":"-71.1401543"},"from_stop":{"name":"origin","id":"2399","lat":"44.554998","lon":"-72.070926","placename":"Townsend VT"}},{"transport_id":"3","id":"227","transport_name":"truck, 40 tons","transport_description":"truck, half full","transport_unit":"kg km","transport_co2_eq":"0.030900","from_stop_id":"2403","from_stop_lat":"44.161224","from_stop_lon":"-72.469954","to_stop_id":"1703","to_stop_name":"origin","to_stop_lat":"42.375627","placename":"Websterville VT","to_stop_lon":"-71.1401543","to_stop":{"id":"1703","name":"origin","lat":"42.375627","placename":"Cambridge MA","lon":"-71.1401543"},"from_stop":{"name":"origin","id":"2403","lat":"44.161224","lon":"-72.469954","placename":"Websterville VT"}},{"transport_id":"17","id":"224","transport_name":"None Selected","transport_description":null,"transport_unit":"kg km","transport_co2_eq":"0.000000","from_stop_id":"2400","from_stop_lat":"44.421931","from_stop_lon":"-69.031165","to_stop_id":"1703","to_stop_name":"origin","to_stop_lat":"42.375627","placename":"Belfast ME","to_stop_lon":"-71.1401543","to_stop":{"id":"1703","name":"origin","lat":"42.375627","placename":"Cambridge MA","lon":"-71.1401543"},"from_stop":{"name":"origin","id":"2400","lat":"44.421931","lon":"-69.031165","placename":"Belfast ME"}},{"transport_id":"17","id":"225","transport_name":"None Selected","transport_description":null,"transport_unit":"kg km","transport_co2_eq":"0.000000","from_stop_id":"2401","from_stop_lat":"46.149745","from_stop_lon":"-73.227826","to_stop_id":"1703","to_stop_name":"origin","to_stop_lat":"42.375627","placename":"Saint Cuthbert, Quebec, Canada","to_stop_lon":"-71.1401543","to_stop":{"id":"1703","name":"origin","lat":"42.375627","placename":"Cambridge MA","lon":"-71.1401543"},"from_stop":{"name":"origin","id":"2401","lat":"46.149745","lon":"-73.227826","placename":"Saint Cuthbert, Quebec, Canada"}}],"outgoing":[]}}},"parts":[{"oid":"130","imid":"255","linkid":"","weight":"1","rawemissions":"0","emissions":"0","shipping":"159.61","processemissions":null,"endoflifeemissions":null,"disposaltype":null,"disposalenergy":null,"disposalimpact":null,"disposalemissions":null,"description":"description","name":"Jonah Crab","id":"255","stops":{"origin":{"related_to":"255","part_or_object":"p","notes":"","placename":"Portland ME","id":2354,"name":"origin","lat":"43.65467","lon":"-70.262434","hops":{"incoming":[],"outgoing":[{"transport_id":"2","id":"202","transport_name":"truck, 16 tons","transport_description":"truck, half full","transport_unit":"kg km","transport_co2_eq":"0.020300","from_stop_id":"2354","from_stop_lat":"43.65467","from_stop_lon":"-70.262434","from_stop_placename":"Portland ME","to_stop_id":"1703","to_stop_name":"origin","to_stop_lat":"42.375627","to_stop_lon":"-71.1401543","to_stop_placename":"Cambridge MA","to_stop":{"id":"1703","name":"origin","lat":"42.375627","lon":"-71.1401543","placename":"Cambridge MA"},"from_stop":{"name":"origin","id":"2354","lat":"43.65467","lon":"-70.262434","placename":"Portland ME"}}]}}},"processes":[],"eols":[]},{"oid":"130","imid":"254","linkid":"","weight":"1","rawemissions":"0","emissions":"0","shipping":"54.48","processemissions":null,"endoflifeemissions":null,"disposaltype":null,"disposalenergy":null,"disposalimpact":null,"disposalemissions":null,"description":"portland me","name":"Eggs","id":"254","stops":{"origin":{"related_to":"254","part_or_object":"p","notes":"","placename":"Huberston MA","id":2355,"name":"origin","lat":"42.474354","lon":"-72.006233","hops":{"incoming":[],"outgoing":[{"transport_id":"2","id":"203","transport_name":"truck, 16 tons","transport_description":"truck, half full","transport_unit":"kg km","transport_co2_eq":"0.020300","from_stop_id":"2355","from_stop_lat":"42.474354","from_stop_lon":"-72.006233","from_stop_placename":"Huberston MA","to_stop_id":"1703","to_stop_name":"origin","to_stop_lat":"42.375627","to_stop_lon":"-71.1401543","to_stop_placename":"Cambridge MA","to_stop":{"id":"1703","name":"origin","lat":"42.375627","lon":"-71.1401543","placename":"Cambridge MA"},"from_stop":{"name":"origin","id":"2355","lat":"42.474354","lon":"-72.006233","placename":"Huberston MA"}}]}}},"processes":[],"eols":[]},{"oid":"130","imid":"253","linkid":"","weight":"1","rawemissions":"0","emissions":"0","shipping":"106.16","processemissions":null,"endoflifeemissions":null,"disposaltype":null,"disposalenergy":null,"disposalimpact":null,"disposalemissions":null,"description":"description","name":"Pears","id":"253","stops":{"origin":{"related_to":"253","part_or_object":"p","notes":"","placename":"Whately MA","id":2356,"name":"origin","lat":"42.443434","lon":"-72.635577","hops":{"incoming":[],"outgoing":[{"transport_id":"2","id":"204","transport_name":"truck, 16 tons","transport_description":"truck, half full","transport_unit":"kg km","transport_co2_eq":"0.020300","from_stop_id":"2356","from_stop_lat":"42.443434","from_stop_lon":"-72.635577","from_stop_placename":"Whately MA","to_stop_id":"1703","to_stop_name":"origin","to_stop_lat":"42.375627","to_stop_lon":"-71.1401543","to_stop_placename":"Cambridge MA","to_stop":{"id":"1703","name":"origin","lat":"42.375627","lon":"-71.1401543","placename":"Cambridge MA"},"from_stop":{"name":"origin","id":"2356","lat":"42.443434","lon":"-72.635577","placename":"Whately MA"}}]}}},"processes":[],"eols":[]},{"oid":"130","imid":"265","linkid":"","weight":"1","rawemissions":"0","emissions":"0","shipping":"50.4","processemissions":null,"endoflifeemissions":null,"disposaltype":null,"disposalenergy":null,"disposalimpact":null,"disposalemissions":null,"description":"Part Description","name":"Assorted Apples, Beets, Bosc PEars, Fingerling Potatoes","id":"265","stops":{"origin":{"related_to":"265","part_or_object":"p","notes":"","placename":"Pepperell MA","id":2396,"name":"origin","lat":"42.666397","lon":"-71.58901","hops":{"incoming":[],"outgoing":[{"transport_id":"1","id":"220","transport_name":"van, 3.5 tons","transport_description":"delivery van, half full","transport_unit":"kg km","transport_co2_eq":"0.053400","from_stop_id":"2396","from_stop_lat":"42.666397","from_stop_lon":"-71.58901","from_stop_placename":"Pepperell MA","to_stop_id":"1703","to_stop_name":"origin","to_stop_lat":"42.375627","to_stop_lon":"-71.1401543","to_stop_placename":"Cambridge MA","to_stop":{"id":"1703","name":"origin","lat":"42.375627","lon":"-71.1401543","placename":"Cambridge MA"},"from_stop":{"name":"origin","id":"2396","lat":"42.666397","lon":"-71.58901","placename":"Pepperell MA"}}]}}},"processes":[],"eols":[]},{"oid":"130","imid":"266","linkid":"","weight":"1","rawemissions":"0","emissions":"0","shipping":"205.84","processemissions":null,"endoflifeemissions":null,"disposaltype":null,"disposalenergy":null,"disposalimpact":null,"disposalemissions":null,"description":"Part Description","name":"Ewe Blue","id":"266","stops":{"origin":{"related_to":"266","part_or_object":"p","notes":"","placename":"Old Chatam NY","id":2397,"name":"origin","lat":"42.443872","lon":"-73.559261","hops":{"incoming":[],"outgoing":[{"transport_id":"1","id":"221","transport_name":"van, 3.5 tons","transport_description":"delivery van, half full","transport_unit":"kg km","transport_co2_eq":"0.053400","from_stop_id":"2397","from_stop_lat":"42.443872","from_stop_lon":"-73.559261","from_stop_placename":"Old Chatam NY","to_stop_id":"1703","to_stop_name":"origin","to_stop_lat":"42.375627","to_stop_lon":"-71.1401543","to_stop_placename":"Cambridge MA","to_stop":{"id":"1703","name":"origin","lat":"42.375627","lon":"-71.1401543","placename":"Cambridge MA"},"from_stop":{"name":"origin","id":"2397","lat":"42.443872","lon":"-73.559261","placename":"Old Chatam NY"}}]}}},"processes":[],"eols":[]},{"oid":"130","imid":"267","linkid":"","weight":"1","rawemissions":"0","emissions":"0","shipping":"159.32","processemissions":null,"endoflifeemissions":null,"disposaltype":null,"disposalenergy":null,"disposalimpact":null,"disposalemissions":null,"description":"Part Description","name":"Graton extra aged Cheddar","id":"267","stops":{"origin":{"related_to":"267","part_or_object":"p","notes":"","placename":"Grafton VT","id":2398,"name":"origin","lat":"43.1967364","lon":"-72.63877","hops":{"incoming":[],"outgoing":[{"transport_id":"1","id":"222","transport_name":"van, 3.5 tons","transport_description":"delivery van, half full","transport_unit":"kg km","transport_co2_eq":"0.053400","from_stop_id":"2398","from_stop_lat":"43.1967364","from_stop_lon":"-72.63877","from_stop_placename":"Grafton VT","to_stop_id":"1703","to_stop_name":"origin","to_stop_lat":"42.375627","to_stop_lon":"-71.1401543","to_stop_placename":"Cambridge MA","to_stop":{"id":"1703","name":"origin","lat":"42.375627","lon":"-71.1401543","placename":"Cambridge MA"},"from_stop":{"name":"origin","id":"2398","lat":"43.1967364","lon":"-72.63877","placename":"Grafton VT"}}]}}},"processes":[],"eols":[]},{"oid":"130","imid":"268","linkid":"","weight":"1","rawemissions":"0","emissions":"0","shipping":"257.8","processemissions":null,"endoflifeemissions":null,"disposaltype":null,"disposalenergy":null,"disposalimpact":null,"disposalemissions":null,"description":"Part Description","name":"Vermont Dandy","id":"268","stops":{"origin":{"related_to":"268","part_or_object":"p","notes":"","placename":"Townsend VT","id":2399,"name":"origin","lat":"44.554998","lon":"-72.070926","hops":{"incoming":[],"outgoing":[{"transport_id":"1","id":"223","transport_name":"van, 3.5 tons","transport_description":"delivery van, half full","transport_unit":"kg km","transport_co2_eq":"0.053400","from_stop_id":"2399","from_stop_lat":"44.554998","from_stop_lon":"-72.070926","from_stop_placename":"Townsend VT","to_stop_id":"1703","to_stop_name":"origin","to_stop_lat":"42.375627","to_stop_lon":"-71.1401543","to_stop_placename":"Cambridge MA","to_stop":{"id":"1703","name":"origin","lat":"42.375627","lon":"-71.1401543","placename":"Cambridge MA"},"from_stop":{"name":"origin","id":"2399","lat":"44.554998","lon":"-72.070926","placename":"Townsend VT"}}]}}},"processes":[],"eols":[]},{"oid":"130","imid":"269","linkid":"","weight":"1","rawemissions":"0","emissions":"0","shipping":"283.54","processemissions":null,"endoflifeemissions":null,"disposaltype":null,"disposalenergy":null,"disposalimpact":null,"disposalemissions":null,"description":"Part Description","name":"Duck Trap River Smoked Salmon","id":"269","stops":{"origin":{"related_to":"269","part_or_object":"p","notes":"","placename":"Belfast ME","id":2400,"name":"origin","lat":"44.421931","lon":"-69.031165","hops":{"incoming":[],"outgoing":[{"transport_id":"17","id":"224","transport_name":"None Selected","transport_description":null,"transport_unit":"kg km","transport_co2_eq":"0.000000","from_stop_id":"2400","from_stop_lat":"44.421931","from_stop_lon":"-69.031165","from_stop_placename":"Belfast ME","to_stop_id":"1703","to_stop_name":"origin","to_stop_lat":"42.375627","to_stop_lon":"-71.1401543","to_stop_placename":"Cambridge MA","to_stop":{"id":"1703","name":"origin","lat":"42.375627","lon":"-71.1401543","placename":"Cambridge MA"},"from_stop":{"name":"origin","id":"2400","lat":"44.421931","lon":"-69.031165","placename":"Belfast ME"}}]}}},"processes":[],"eols":[]},{"oid":"130","imid":"270","linkid":"","weight":"1","rawemissions":"0","emissions":"0","shipping":"452.52","processemissions":null,"endoflifeemissions":null,"disposaltype":null,"disposalenergy":null,"disposalimpact":null,"disposalemissions":null,"description":"Part Description","name":"Giannone Chicken","id":"270","stops":{"origin":{"related_to":"270","part_or_object":"p","notes":"","placename":"Saint Cuthbert, Quebec, Canada","id":2401,"name":"origin","lat":"46.149745","lon":"-73.227826","hops":{"incoming":[],"outgoing":[{"transport_id":"17","id":"225","transport_name":"None Selected","transport_description":null,"transport_unit":"kg km","transport_co2_eq":"0.000000","from_stop_id":"2401","from_stop_lat":"46.149745","from_stop_lon":"-73.227826","from_stop_placename":"Saint Cuthbert, Quebec, Canada","to_stop_id":"1703","to_stop_name":"origin","to_stop_lat":"42.375627","to_stop_lon":"-71.1401543","to_stop_placename":"Cambridge MA","to_stop":{"id":"1703","name":"origin","lat":"42.375627","lon":"-71.1401543","placename":"Cambridge MA"},"from_stop":{"name":"origin","id":"2401","lat":"46.149745","lon":"-73.227826","placename":"Saint Cuthbert, Quebec, Canada"}}]}}},"processes":[],"eols":[]},{"oid":"130","imid":"271","linkid":"","weight":"1","rawemissions":"0","emissions":"0","shipping":"226.97","processemissions":null,"endoflifeemissions":null,"disposaltype":null,"disposalenergy":null,"disposalimpact":null,"disposalemissions":null,"description":"Part Description","name":"VBC Bonne Bouche","id":"271","stops":{"origin":{"related_to":"271","part_or_object":"p","notes":"","placename":"Websterville VT","id":2403,"name":"origin","lat":"44.161224","lon":"-72.469954","hops":{"incoming":[],"outgoing":[{"transport_id":"3","id":"227","transport_name":"truck, 40 tons","transport_description":"truck, half full","transport_unit":"kg km","transport_co2_eq":"0.030900","from_stop_id":"2403","from_stop_lat":"44.161224","from_stop_lon":"-72.469954","from_stop_placename":"Websterville VT","to_stop_id":"1703","to_stop_name":"origin","to_stop_lat":"42.375627","to_stop_lon":"-71.1401543","to_stop_placename":"Cambridge MA","to_stop":{"id":"1703","name":"origin","lat":"42.375627","lon":"-71.1401543","placename":"Cambridge MA"},"from_stop":{"name":"origin","id":"2403","lat":"44.161224","lon":"-72.469954","placename":"Websterville VT"}}]}}},"processes":[],"eols":[]}],"user":{"name":"leo","id":"1"}}}