{"1311":{"oid":"1311","type":"trace","flag":"","creator":"13530","name":"ecoyak","upc":"","imagelink":"","description":"consciously built kayaks","slug":"ecoyak-4","category":"","weight":"0","emissions":"0","embodied":"0","transport":"0","process":null,"endoflife":null,"shipping":"2699.54","lifetime":null,"usagetype":"","usageenergy":null,"usageemissions":null,"timecreated":"2011-06-07 16:11:17","timemodified":"2011-06-07 16:24:33","visibility":"public","showfootprint":"on","showembodied":"on","showtransport":"on","showprocess":"on","showendoflife":"on","showlastleg":"on","showuse":"on","showstats":"on","stops":{"origin":{"related_to":"1311","part_or_object":"o","notes":null,"placename":"Matunuck, RI 02879, USA","id":"16225","category":"1","lat":"41.37833","lon":"-71.54639","name":"origin","hops":{"incoming":[{"transport_id":null,"id":"11586","transport_name":null,"transport_description":null,"transport_unit":null,"transport_co2_eq":null,"from_stop_id":"16226","from_stop_lat":"30.4582829","from_stop_lon":"-91.1403196","to_stop_id":"16225","to_stop_name":"origin","to_stop_lat":"41.37833","placename":"Baton Rouge, LA, USA","to_stop_lon":"-71.54639","to_stop":{"id":"16225","name":"origin","lat":"41.37833","placename":"Matunuck, RI 02879, USA","lon":"-71.54639"},"from_stop":{"name":"origin","id":"16226","lat":"30.4582829","lon":"-91.1403196","placename":"Baton Rouge, LA, USA"}},{"transport_id":null,"id":"11587","transport_name":null,"transport_description":null,"transport_unit":null,"transport_co2_eq":null,"from_stop_id":"16227","from_stop_lat":"44.3385559","from_stop_lon":"-68.2733346","to_stop_id":"16225","to_stop_name":"origin","to_stop_lat":"41.37833","placename":"Bar Harbor Maine","to_stop_lon":"-71.54639","to_stop":{"id":"16225","name":"origin","lat":"41.37833","placename":"Matunuck, RI 02879, USA","lon":"-71.54639"},"from_stop":{"name":"origin","id":"16227","lat":"44.3385559","lon":"-68.2733346","placename":"Bar Harbor Maine"}},{"transport_id":null,"id":"11588","transport_name":null,"transport_description":null,"transport_unit":null,"transport_co2_eq":null,"from_stop_id":"16228","from_stop_lat":"41.8006523","from_stop_lon":"-73.1212214","to_stop_id":"16225","to_stop_name":"origin","to_stop_lat":"41.37833","placename":"Torrington, CT, USA","to_stop_lon":"-71.54639","to_stop":{"id":"16225","name":"origin","lat":"41.37833","placename":"Matunuck, RI 02879, USA","lon":"-71.54639"},"from_stop":{"name":"origin","id":"16228","lat":"41.8006523","lon":"-73.1212214","placename":"Torrington, CT, USA"}}],"outgoing":[]}}},"parts":[{"oid":"1311","imid":"7704","linkid":"0","weight":"0","rawemissions":"0","emissions":"0","shipping":"2136.15","processemissions":"0","endoflifeemissions":"0","disposaltype":null,"disposalenergy":null,"disposalimpact":null,"disposalemissions":null,"description":"organically grown, environmental barrier material","name":"reed frame","id":"7704","stops":{"origin":{"related_to":"7704","part_or_object":"p","notes":null,"placename":"Baton Rouge, LA, USA","id":16226,"name":"origin","lat":"30.4582829","lon":"-91.1403196","hops":{"incoming":[],"outgoing":[{"transport_id":null,"id":"11586","transport_name":null,"transport_description":null,"transport_unit":null,"transport_co2_eq":null,"from_stop_id":"16226","from_stop_lat":"30.4582829","from_stop_lon":"-91.1403196","from_stop_placename":"Baton Rouge, LA, USA","to_stop_id":"16225","to_stop_name":"origin","to_stop_lat":"41.37833","to_stop_lon":"-71.54639","to_stop_placename":"Matunuck, RI 02879, USA","to_stop":{"id":"16225","name":"origin","lat":"41.37833","lon":"-71.54639","placename":"Matunuck, RI 02879, USA"},"from_stop":{"name":"origin","id":"16226","lat":"30.4582829","lon":"-91.1403196","placename":"Baton Rouge, LA, USA"}}]}}},"processes":[],"eols":[]},{"oid":"1311","imid":"7705","linkid":"0","weight":"0","rawemissions":"0","emissions":"0","shipping":"424.1","processemissions":"0","endoflifeemissions":"0","disposaltype":null,"disposalenergy":null,"disposalimpact":null,"disposalemissions":null,"description":"organic cotton","name":"microfiber skin","id":"7705","stops":{"origin":{"related_to":"7705","part_or_object":"p","notes":null,"placename":"Bar Harbor Maine","id":16227,"name":"origin","lat":"44.3385559","lon":"-68.2733346","hops":{"incoming":[],"outgoing":[{"transport_id":null,"id":"11587","transport_name":null,"transport_description":null,"transport_unit":null,"transport_co2_eq":null,"from_stop_id":"16227","from_stop_lat":"44.3385559","from_stop_lon":"-68.2733346","from_stop_placename":"Bar Harbor Maine","to_stop_id":"16225","to_stop_name":"origin","to_stop_lat":"41.37833","to_stop_lon":"-71.54639","to_stop_placename":"Matunuck, RI 02879, USA","to_stop":{"id":"16225","name":"origin","lat":"41.37833","lon":"-71.54639","placename":"Matunuck, RI 02879, USA"},"from_stop":{"name":"origin","id":"16227","lat":"44.3385559","lon":"-68.2733346","placename":"Bar Harbor Maine"}}]}}},"processes":[],"eols":[]},{"oid":"1311","imid":"7706","linkid":"0","weight":"0","rawemissions":"0","emissions":"0","shipping":"139.29","processemissions":"0","endoflifeemissions":"0","disposaltype":null,"disposalenergy":null,"disposalimpact":null,"disposalemissions":null,"description":"certified bee farm","name":"beeswax topcoat","id":"7706","stops":{"origin":{"related_to":"7706","part_or_object":"p","notes":null,"placename":"Torrington, CT, USA","id":16228,"name":"origin","lat":"41.8006523","lon":"-73.1212214","hops":{"incoming":[],"outgoing":[{"transport_id":null,"id":"11588","transport_name":null,"transport_description":null,"transport_unit":null,"transport_co2_eq":null,"from_stop_id":"16228","from_stop_lat":"41.8006523","from_stop_lon":"-73.1212214","from_stop_placename":"Torrington, CT, USA","to_stop_id":"16225","to_stop_name":"origin","to_stop_lat":"41.37833","to_stop_lon":"-71.54639","to_stop_placename":"Matunuck, RI 02879, USA","to_stop":{"id":"16225","name":"origin","lat":"41.37833","lon":"-71.54639","placename":"Matunuck, RI 02879, USA"},"from_stop":{"name":"origin","id":"16228","lat":"41.8006523","lon":"-73.1212214","placename":"Torrington, CT, USA"}}]}}},"processes":[],"eols":[]}],"user":{"name":"mmarosits@e-worldways.com","id":"13530"}}}