{"1316":{"oid":"1316","type":"object","flag":"","creator":"13492","name":"Sourcemap 2011","upc":"","imagelink":"","description":"www.aquamarinepower.com\n","slug":"Oyster-2A-2011","category":"","weight":"0","emissions":"0","embodied":"0","transport":"0","process":null,"endoflife":null,"shipping":"68225.34","lifetime":null,"usagetype":"","usageenergy":null,"usageemissions":null,"timecreated":"2011-06-08 05:46:33","timemodified":"2011-08-09 09:40:29","visibility":"private","showfootprint":"on","showembodied":"on","showtransport":"on","showprocess":"on","showendoflife":"on","showlastleg":"on","showuse":"on","showstats":"on","stops":{"origin":{"related_to":"1316","part_or_object":"o","notes":null,"placename":"Orkney, UK","id":"17600","category":"1","lat":"59.0626685","lon":"-2.8687777","name":"origin","hops":{"incoming":[{"transport_id":null,"id":"12622","transport_name":null,"transport_description":null,"transport_unit":null,"transport_co2_eq":null,"from_stop_id":"17601","from_stop_lat":"30.266292","from_stop_lon":"120.153823","to_stop_id":"17600","to_stop_name":"origin","to_stop_lat":"59.0626685","placename":"Zhejiang, China","to_stop_lon":"-2.8687777","to_stop":{"id":"17600","name":"origin","lat":"59.0626685","placename":"Orkney, UK","lon":"-2.8687777"},"from_stop":{"name":"origin","id":"17601","lat":"30.266292","lon":"120.153823","placename":"Zhejiang, China"}},{"transport_id":null,"id":"12623","transport_name":null,"transport_description":null,"transport_unit":null,"transport_co2_eq":null,"from_stop_id":"17602","from_stop_lat":"51.8667425","from_stop_lon":"-2.2486699","to_stop_id":"17600","to_stop_name":"origin","to_stop_lat":"59.0626685","placename":"Gloucester, Gloucestershire, UK","to_stop_lon":"-2.8687777","to_stop":{"id":"17600","name":"origin","lat":"59.0626685","placename":"Orkney, UK","lon":"-2.8687777"},"from_stop":{"name":"origin","id":"17602","lat":"51.8667425","lon":"-2.2486699","placename":"Gloucester, Gloucestershire, UK"}},{"transport_id":null,"id":"12624","transport_name":null,"transport_description":null,"transport_unit":null,"transport_co2_eq":null,"from_stop_id":"17603","from_stop_lat":"52.132633","from_stop_lon":"5.291266","to_stop_id":"17600","to_stop_name":"origin","to_stop_lat":"59.0626685","placename":"Netherlands","to_stop_lon":"-2.8687777","to_stop":{"id":"17600","name":"origin","lat":"59.0626685","placename":"Orkney, UK","lon":"-2.8687777"},"from_stop":{"name":"origin","id":"17603","lat":"52.132633","lon":"5.291266","placename":"Netherlands"}},{"transport_id":null,"id":"12625","transport_name":null,"transport_description":null,"transport_unit":null,"transport_co2_eq":null,"from_stop_id":"17604","from_stop_lat":"1.352083","from_stop_lon":"103.819836","to_stop_id":"17600","to_stop_name":"origin","to_stop_lat":"59.0626685","placename":"Singapore","to_stop_lon":"-2.8687777","to_stop":{"id":"17600","name":"origin","lat":"59.0626685","placename":"Orkney, UK","lon":"-2.8687777"},"from_stop":{"name":"origin","id":"17604","lat":"1.352083","lon":"103.819836","placename":"Singapore"}},{"transport_id":null,"id":"12626","transport_name":null,"transport_description":null,"transport_unit":null,"transport_co2_eq":null,"from_stop_id":"17605","from_stop_lat":"55.476466","from_stop_lon":"8.459405","to_stop_id":"17600","to_stop_name":"origin","to_stop_lat":"59.0626685","placename":"Esbjerg, Denmark","to_stop_lon":"-2.8687777","to_stop":{"id":"17600","name":"origin","lat":"59.0626685","placename":"Orkney, UK","lon":"-2.8687777"},"from_stop":{"name":"origin","id":"17605","lat":"55.476466","lon":"8.459405","placename":"Esbjerg, Denmark"}},{"transport_id":null,"id":"12627","transport_name":null,"transport_description":null,"transport_unit":null,"transport_co2_eq":null,"from_stop_id":"17606","from_stop_lat":"55.8774959","from_stop_lon":"-4.3894222","to_stop_id":"17600","to_stop_name":"origin","to_stop_lat":"59.0626685","placename":"Renfrew, Renfrewshire, UK","to_stop_lon":"-2.8687777","to_stop":{"id":"17600","name":"origin","lat":"59.0626685","placename":"Orkney, UK","lon":"-2.8687777"},"from_stop":{"name":"origin","id":"17606","lat":"55.8774959","lon":"-4.3894222","placename":"Renfrew, Renfrewshire, UK"}},{"transport_id":null,"id":"12628","transport_name":null,"transport_description":null,"transport_unit":null,"transport_co2_eq":null,"from_stop_id":"17607","from_stop_lat":"53.7682941","from_stop_lon":"-1.6364189","to_stop_id":"17600","to_stop_name":"origin","to_stop_lat":"59.0626685","placename":"West Yorkshire, UK","to_stop_lon":"-2.8687777","to_stop":{"id":"17600","name":"origin","lat":"59.0626685","placename":"Orkney, UK","lon":"-2.8687777"},"from_stop":{"name":"origin","id":"17607","lat":"53.7682941","lon":"-1.6364189","placename":"West Yorkshire, UK"}},{"transport_id":null,"id":"12629","transport_name":null,"transport_description":null,"transport_unit":null,"transport_co2_eq":null,"from_stop_id":"17608","from_stop_lat":"45.42448","from_stop_lon":"11.686824","to_stop_id":"17600","to_stop_name":"origin","to_stop_lat":"59.0626685","placename":"35030 Cervarese Santa Croce Padua, Italy","to_stop_lon":"-2.8687777","to_stop":{"id":"17600","name":"origin","lat":"59.0626685","placename":"Orkney, UK","lon":"-2.8687777"},"from_stop":{"name":"origin","id":"17608","lat":"45.42448","lon":"11.686824","placename":"35030 Cervarese Santa Croce Padua, Italy"}},{"transport_id":null,"id":"12630","transport_name":null,"transport_description":null,"transport_unit":null,"transport_co2_eq":null,"from_stop_id":"17609","from_stop_lat":"29.7628844","from_stop_lon":"-95.3830615","to_stop_id":"17600","to_stop_name":"origin","to_stop_lat":"59.0626685","placename":"Houston, TX, USA","to_stop_lon":"-2.8687777","to_stop":{"id":"17600","name":"origin","lat":"59.0626685","placename":"Orkney, UK","lon":"-2.8687777"},"from_stop":{"name":"origin","id":"17609","lat":"29.7628844","lon":"-95.3830615","placename":"Houston, TX, USA"}},{"transport_id":null,"id":"12631","transport_name":null,"transport_description":null,"transport_unit":null,"transport_co2_eq":null,"from_stop_id":"17610","from_stop_lat":"49.3008318","from_stop_lon":"7.066022","to_stop_id":"17600","to_stop_name":"origin","to_stop_lat":"59.0626685","placename":"66280 Sulzbach, Germany","to_stop_lon":"-2.8687777","to_stop":{"id":"17600","name":"origin","lat":"59.0626685","placename":"Orkney, UK","lon":"-2.8687777"},"from_stop":{"name":"origin","id":"17610","lat":"49.3008318","lon":"7.066022","placename":"66280 Sulzbach, Germany"}},{"transport_id":null,"id":"12632","transport_name":null,"transport_description":null,"transport_unit":null,"transport_co2_eq":null,"from_stop_id":"17611","from_stop_lat":"41.108546","from_stop_lon":"122.994646","to_stop_id":"17600","to_stop_name":"origin","to_stop_lat":"59.0626685","placename":"Anshan, Liaoning, China","to_stop_lon":"-2.8687777","to_stop":{"id":"17600","name":"origin","lat":"59.0626685","placename":"Orkney, UK","lon":"-2.8687777"},"from_stop":{"name":"origin","id":"17611","lat":"41.108546","lon":"122.994646","placename":"Anshan, Liaoning, China"}},{"transport_id":null,"id":"12633","transport_name":null,"transport_description":null,"transport_unit":null,"transport_co2_eq":null,"from_stop_id":"17612","from_stop_lat":"51.253775","from_stop_lon":"-85.3232139","to_stop_id":"17600","to_stop_name":"origin","to_stop_lat":"59.0626685","placename":"Ontario, Canada","to_stop_lon":"-2.8687777","to_stop":{"id":"17600","name":"origin","lat":"59.0626685","placename":"Orkney, UK","lon":"-2.8687777"},"from_stop":{"name":"origin","id":"17612","lat":"51.253775","lon":"-85.3232139","placename":"Ontario, Canada"}},{"transport_id":null,"id":"12634","transport_name":null,"transport_description":null,"transport_unit":null,"transport_co2_eq":null,"from_stop_id":"17613","from_stop_lat":"57.1474915","from_stop_lon":"-2.095397","to_stop_id":"17600","to_stop_name":"origin","to_stop_lat":"59.0626685","placename":"Aberdeen, Aberdeen City, UK","to_stop_lon":"-2.8687777","to_stop":{"id":"17600","name":"origin","lat":"59.0626685","placename":"Orkney, UK","lon":"-2.8687777"},"from_stop":{"name":"origin","id":"17613","lat":"57.1474915","lon":"-2.095397","placename":"Aberdeen, Aberdeen City, UK"}},{"transport_id":null,"id":"12635","transport_name":null,"transport_description":null,"transport_unit":null,"transport_co2_eq":null,"from_stop_id":"17614","from_stop_lat":"49.9950168","from_stop_lon":"9.5716865","to_stop_id":"17600","to_stop_name":"origin","to_stop_lat":"59.0626685","placename":"97816 Lohr, Germany","to_stop_lon":"-2.8687777","to_stop":{"id":"17600","name":"origin","lat":"59.0626685","placename":"Orkney, UK","lon":"-2.8687777"},"from_stop":{"name":"origin","id":"17614","lat":"49.9950168","lon":"9.5716865","placename":"97816 Lohr, Germany"}},{"transport_id":null,"id":"12636","transport_name":null,"transport_description":null,"transport_unit":null,"transport_co2_eq":null,"from_stop_id":"17615","from_stop_lat":"58.735793","from_stop_lon":"5.6477347","to_stop_id":"17600","to_stop_name":"origin","to_stop_lat":"59.0626685","placename":"4340 Bryne, Norway","to_stop_lon":"-2.8687777","to_stop":{"id":"17600","name":"origin","lat":"59.0626685","placename":"Orkney, UK","lon":"-2.8687777"},"from_stop":{"name":"origin","id":"17615","lat":"58.735793","lon":"5.6477347","placename":"4340 Bryne, Norway"}},{"transport_id":null,"id":"12637","transport_name":null,"transport_description":null,"transport_unit":null,"transport_co2_eq":null,"from_stop_id":"17616","from_stop_lat":"54.5972686","from_stop_lon":"-5.9301088","to_stop_id":"17600","to_stop_name":"origin","to_stop_lat":"59.0626685","placename":"Belfast, UK","to_stop_lon":"-2.8687777","to_stop":{"id":"17600","name":"origin","lat":"59.0626685","placename":"Orkney, UK","lon":"-2.8687777"},"from_stop":{"name":"origin","id":"17616","lat":"54.5972686","lon":"-5.9301088","placename":"Belfast, UK"}},{"transport_id":null,"id":"12638","transport_name":null,"transport_description":null,"transport_unit":null,"transport_co2_eq":null,"from_stop_id":"17617","from_stop_lat":"57.7973333","from_stop_lon":"12.0502107","to_stop_id":"17600","to_stop_name":"origin","to_stop_lat":"59.0626685","placename":"Angered, Gothenburg urban area, Sweden","to_stop_lon":"-2.8687777","to_stop":{"id":"17600","name":"origin","lat":"59.0626685","placename":"Orkney, UK","lon":"-2.8687777"},"from_stop":{"name":"origin","id":"17617","lat":"57.7973333","lon":"12.0502107","placename":"Angered, Gothenburg urban area, Sweden"}},{"transport_id":null,"id":"12639","transport_name":null,"transport_description":null,"transport_unit":null,"transport_co2_eq":null,"from_stop_id":"17618","from_stop_lat":"50.2648919","from_stop_lon":"19.0237815","to_stop_id":"17600","to_stop_name":"origin","to_stop_lat":"59.0626685","placename":"Katowice, Poland","to_stop_lon":"-2.8687777","to_stop":{"id":"17600","name":"origin","lat":"59.0626685","placename":"Orkney, UK","lon":"-2.8687777"},"from_stop":{"name":"origin","id":"17618","lat":"50.2648919","lon":"19.0237815","placename":"Katowice, Poland"}},{"transport_id":null,"id":"12640","transport_name":null,"transport_description":null,"transport_unit":null,"transport_co2_eq":null,"from_stop_id":"17619","from_stop_lat":"51.2703369","from_stop_lon":"0.523841","to_stop_id":"17600","to_stop_name":"origin","to_stop_lat":"59.0626685","placename":"Maidstone, Kent, UK","to_stop_lon":"-2.8687777","to_stop":{"id":"17600","name":"origin","lat":"59.0626685","placename":"Orkney, UK","lon":"-2.8687777"},"from_stop":{"name":"origin","id":"17619","lat":"51.2703369","lon":"0.523841","placename":"Maidstone, Kent, UK"}},{"transport_id":null,"id":"12641","transport_name":null,"transport_description":null,"transport_unit":null,"transport_co2_eq":null,"from_stop_id":"17620","from_stop_lat":"53.7028532","from_stop_lon":"-1.7826489","to_stop_id":"17600","to_stop_name":"origin","to_stop_lat":"59.0626685","placename":"Brighouse, West Yorkshire, UK","to_stop_lon":"-2.8687777","to_stop":{"id":"17600","name":"origin","lat":"59.0626685","placename":"Orkney, UK","lon":"-2.8687777"},"from_stop":{"name":"origin","id":"17620","lat":"53.7028532","lon":"-1.7826489","placename":"Brighouse, West Yorkshire, UK"}},{"transport_id":null,"id":"12642","transport_name":null,"transport_description":null,"transport_unit":null,"transport_co2_eq":null,"from_stop_id":"17621","from_stop_lat":"50.561293","from_stop_lon":"4.701531","to_stop_id":"17600","to_stop_name":"origin","to_stop_lat":"59.0626685","placename":"Gembloux, Belgium","to_stop_lon":"-2.8687777","to_stop":{"id":"17600","name":"origin","lat":"59.0626685","placename":"Orkney, UK","lon":"-2.8687777"},"from_stop":{"name":"origin","id":"17621","lat":"50.561293","lon":"4.701531","placename":"Gembloux, Belgium"}},{"transport_id":null,"id":"12643","transport_name":null,"transport_description":null,"transport_unit":null,"transport_co2_eq":null,"from_stop_id":"17622","from_stop_lat":"51.7612056","from_stop_lon":"-1.2464674","to_stop_id":"17600","to_stop_name":"origin","to_stop_lat":"59.0626685","placename":"Oxfordshire, UK","to_stop_lon":"-2.8687777","to_stop":{"id":"17600","name":"origin","lat":"59.0626685","placename":"Orkney, UK","lon":"-2.8687777"},"from_stop":{"name":"origin","id":"17622","lat":"51.7612056","lon":"-1.2464674","placename":"Oxfordshire, UK"}},{"transport_id":null,"id":"12644","transport_name":null,"transport_description":null,"transport_unit":null,"transport_co2_eq":null,"from_stop_id":"17623","from_stop_lat":"50.873797","from_stop_lon":"8.023407","to_stop_id":"17600","to_stop_name":"origin","to_stop_lat":"59.0626685","placename":"Siegen, Germany","to_stop_lon":"-2.8687777","to_stop":{"id":"17600","name":"origin","lat":"59.0626685","placename":"Orkney, UK","lon":"-2.8687777"},"from_stop":{"name":"origin","id":"17623","lat":"50.873797","lon":"8.023407","placename":"Siegen, Germany"}},{"transport_id":null,"id":"12645","transport_name":null,"transport_description":null,"transport_unit":null,"transport_co2_eq":null,"from_stop_id":"17624","from_stop_lat":"52.3292492","from_stop_lon":"-0.1853633","to_stop_id":"17600","to_stop_name":"origin","to_stop_lat":"59.0626685","placename":"Huntingdon, Cambridgeshire PE28, UK","to_stop_lon":"-2.8687777","to_stop":{"id":"17600","name":"origin","lat":"59.0626685","placename":"Orkney, UK","lon":"-2.8687777"},"from_stop":{"name":"origin","id":"17624","lat":"52.3292492","lon":"-0.1853633","placename":"Huntingdon, Cambridgeshire PE28, UK"}},{"transport_id":null,"id":"12646","transport_name":null,"transport_description":null,"transport_unit":null,"transport_co2_eq":null,"from_stop_id":"17625","from_stop_lat":"51.165691","from_stop_lon":"10.451526","to_stop_id":"17600","to_stop_name":"origin","to_stop_lat":"59.0626685","placename":"Germany","to_stop_lon":"-2.8687777","to_stop":{"id":"17600","name":"origin","lat":"59.0626685","placename":"Orkney, UK","lon":"-2.8687777"},"from_stop":{"name":"origin","id":"17625","lat":"51.165691","lon":"10.451526","placename":"Germany"}},{"transport_id":null,"id":"12647","transport_name":null,"transport_description":null,"transport_unit":null,"transport_co2_eq":null,"from_stop_id":"17626","from_stop_lat":"53.7304372","from_stop_lon":"-1.7139963","to_stop_id":"17600","to_stop_name":"origin","to_stop_lat":"59.0626685","placename":"Cleckheaton, West Yorkshire, UK","to_stop_lon":"-2.8687777","to_stop":{"id":"17600","name":"origin","lat":"59.0626685","placename":"Orkney, UK","lon":"-2.8687777"},"from_stop":{"name":"origin","id":"17626","lat":"53.7304372","lon":"-1.7139963","placename":"Cleckheaton, West Yorkshire, UK"}},{"transport_id":null,"id":"12648","transport_name":null,"transport_description":null,"transport_unit":null,"transport_co2_eq":null,"from_stop_id":"17627","from_stop_lat":"61.92411","from_stop_lon":"25.748151","to_stop_id":"17600","to_stop_name":"origin","to_stop_lat":"59.0626685","placename":"Finland","to_stop_lon":"-2.8687777","to_stop":{"id":"17600","name":"origin","lat":"59.0626685","placename":"Orkney, UK","lon":"-2.8687777"},"from_stop":{"name":"origin","id":"17627","lat":"61.92411","lon":"25.748151","placename":"Finland"}},{"transport_id":null,"id":"12649","transport_name":null,"transport_description":null,"transport_unit":null,"transport_co2_eq":null,"from_stop_id":"17628","from_stop_lat":"61.92411","from_stop_lon":"25.748151","to_stop_id":"17600","to_stop_name":"origin","to_stop_lat":"59.0626685","placename":"Finland","to_stop_lon":"-2.8687777","to_stop":{"id":"17600","name":"origin","lat":"59.0626685","placename":"Orkney, UK","lon":"-2.8687777"},"from_stop":{"name":"origin","id":"17628","lat":"61.92411","lon":"25.748151","placename":"Finland"}},{"transport_id":null,"id":"12650","transport_name":null,"transport_description":null,"transport_unit":null,"transport_co2_eq":null,"from_stop_id":"17629","from_stop_lat":"60.472024","from_stop_lon":"8.468946","to_stop_id":"17600","to_stop_name":"origin","to_stop_lat":"59.0626685","placename":"Norway","to_stop_lon":"-2.8687777","to_stop":{"id":"17600","name":"origin","lat":"59.0626685","placename":"Orkney, UK","lon":"-2.8687777"},"from_stop":{"name":"origin","id":"17629","lat":"60.472024","lon":"8.468946","placename":"Norway"}},{"transport_id":null,"id":"12651","transport_name":null,"transport_description":null,"transport_unit":null,"transport_co2_eq":null,"from_stop_id":"17630","from_stop_lat":"54.9044493","from_stop_lon":"-1.3814533","to_stop_id":"17600","to_stop_name":"origin","to_stop_lat":"59.0626685","placename":"Sunderland, UK","to_stop_lon":"-2.8687777","to_stop":{"id":"17600","name":"origin","lat":"59.0626685","placename":"Orkney, UK","lon":"-2.8687777"},"from_stop":{"name":"origin","id":"17630","lat":"54.9044493","lon":"-1.3814533","placename":"Sunderland, UK"}},{"transport_id":null,"id":"12652","transport_name":null,"transport_description":null,"transport_unit":null,"transport_co2_eq":null,"from_stop_id":"17631","from_stop_lat":"60.1698125","from_stop_lon":"24.9382401","to_stop_id":"17600","to_stop_name":"origin","to_stop_lat":"59.0626685","placename":"Helsinki, Finland","to_stop_lon":"-2.8687777","to_stop":{"id":"17600","name":"origin","lat":"59.0626685","placename":"Orkney, UK","lon":"-2.8687777"},"from_stop":{"name":"origin","id":"17631","lat":"60.1698125","lon":"24.9382401","placename":"Helsinki, Finland"}},{"transport_id":null,"id":"12653","transport_name":null,"transport_description":null,"transport_unit":null,"transport_co2_eq":null,"from_stop_id":"17632","from_stop_lat":"54.2324883","from_stop_lon":"-1.3428497","to_stop_id":"17600","to_stop_name":"origin","to_stop_lat":"59.0626685","placename":"Thirsk, North Yorkshire YO7, UK","to_stop_lon":"-2.8687777","to_stop":{"id":"17600","name":"origin","lat":"59.0626685","placename":"Orkney, UK","lon":"-2.8687777"},"from_stop":{"name":"origin","id":"17632","lat":"54.2324883","lon":"-1.3428497","placename":"Thirsk, North Yorkshire YO7, UK"}},{"transport_id":null,"id":"12654","transport_name":null,"transport_description":null,"transport_unit":null,"transport_co2_eq":null,"from_stop_id":"17633","from_stop_lat":"56.4614282","from_stop_lon":"-2.9681109","to_stop_id":"17600","to_stop_name":"origin","to_stop_lat":"59.0626685","placename":"Dundee, Angus, UK","to_stop_lon":"-2.8687777","to_stop":{"id":"17600","name":"origin","lat":"59.0626685","placename":"Orkney, UK","lon":"-2.8687777"},"from_stop":{"name":"origin","id":"17633","lat":"56.4614282","lon":"-2.9681109","placename":"Dundee, Angus, UK"}},{"transport_id":null,"id":"12655","transport_name":null,"transport_description":null,"transport_unit":null,"transport_co2_eq":null,"from_stop_id":"17634","from_stop_lat":"52.4058375","from_stop_lon":"-1.512661","to_stop_id":"17600","to_stop_name":"origin","to_stop_lat":"59.0626685","placename":"Coventry, UK","to_stop_lon":"-2.8687777","to_stop":{"id":"17600","name":"origin","lat":"59.0626685","placename":"Orkney, UK","lon":"-2.8687777"},"from_stop":{"name":"origin","id":"17634","lat":"52.4058375","lon":"-1.512661","placename":"Coventry, UK"}},{"transport_id":null,"id":"12656","transport_name":null,"transport_description":null,"transport_unit":null,"transport_co2_eq":null,"from_stop_id":"17635","from_stop_lat":"54.9957966","from_stop_lon":"-1.4277052","to_stop_id":"17600","to_stop_name":"origin","to_stop_lat":"59.0626685","placename":"South Shields, South Tyneside, UK","to_stop_lon":"-2.8687777","to_stop":{"id":"17600","name":"origin","lat":"59.0626685","placename":"Orkney, UK","lon":"-2.8687777"},"from_stop":{"name":"origin","id":"17635","lat":"54.9957966","lon":"-1.4277052","placename":"South Shields, South Tyneside, UK"}},{"transport_id":null,"id":"12657","transport_name":null,"transport_description":null,"transport_unit":null,"transport_co2_eq":null,"from_stop_id":"17636","from_stop_lat":"45.4724113","from_stop_lon":"11.4461293","to_stop_id":"17600","to_stop_name":"origin","to_stop_lat":"59.0626685","placename":"36040 Brendola Vicenza, Italy","to_stop_lon":"-2.8687777","to_stop":{"id":"17600","name":"origin","lat":"59.0626685","placename":"Orkney, UK","lon":"-2.8687777"},"from_stop":{"name":"origin","id":"17636","lat":"45.4724113","lon":"11.4461293","placename":"36040 Brendola Vicenza, Italy"}}],"outgoing":[]}}},"parts":[{"oid":"1316","imid":"7724","linkid":"0","weight":"0","rawemissions":"0","emissions":"0","shipping":"8797.33","processemissions":"0","endoflifeemissions":"0","disposaltype":null,"disposalenergy":null,"disposalimpact":null,"disposalemissions":null,"description":"","name":"Y&B valves ","id":"7724","stops":{"origin":{"related_to":"7724","part_or_object":"p","notes":null,"placename":"Zhejiang, China","id":17601,"name":"origin","lat":"30.266292","lon":"120.153823","hops":{"incoming":[],"outgoing":[{"transport_id":null,"id":"12622","transport_name":null,"transport_description":null,"transport_unit":null,"transport_co2_eq":null,"from_stop_id":"17601","from_stop_lat":"30.266292","from_stop_lon":"120.153823","from_stop_placename":"Zhejiang, China","to_stop_id":"17600","to_stop_name":"origin","to_stop_lat":"59.0626685","to_stop_lon":"-2.8687777","to_stop_placename":"Orkney, UK","to_stop":{"id":"17600","name":"origin","lat":"59.0626685","lon":"-2.8687777","placename":"Orkney, UK"},"from_stop":{"name":"origin","id":"17601","lat":"30.266292","lon":"120.153823","placename":"Zhejiang, China"}}]}}},"processes":[],"eols":[]},{"oid":"1316","imid":"7725","linkid":"0","weight":"0","rawemissions":"0","emissions":"0","shipping":"801.99","processemissions":"0","endoflifeemissions":"0","disposaltype":null,"disposalenergy":null,"disposalimpact":null,"disposalemissions":null,"description":"","name":"Pressure Relief Valve","id":"7725","stops":{"origin":{"related_to":"7725","part_or_object":"p","notes":null,"placename":"Gloucester, Gloucestershire, UK","id":17602,"name":"origin","lat":"51.8667425","lon":"-2.2486699","hops":{"incoming":[],"outgoing":[{"transport_id":null,"id":"12623","transport_name":null,"transport_description":null,"transport_unit":null,"transport_co2_eq":null,"from_stop_id":"17602","from_stop_lat":"51.8667425","from_stop_lon":"-2.2486699","from_stop_placename":"Gloucester, Gloucestershire, UK","to_stop_id":"17600","to_stop_name":"origin","to_stop_lat":"59.0626685","to_stop_lon":"-2.8687777","to_stop_placename":"Orkney, UK","to_stop":{"id":"17600","name":"origin","lat":"59.0626685","lon":"-2.8687777","placename":"Orkney, UK"},"from_stop":{"name":"origin","id":"17602","lat":"51.8667425","lon":"-2.2486699","placename":"Gloucester, Gloucestershire, UK"}}]}}},"processes":[],"eols":[]},{"oid":"1316","imid":"7726","linkid":"0","weight":"0","rawemissions":"0","emissions":"0","shipping":"925.13","processemissions":"0","endoflifeemissions":"0","disposaltype":null,"disposalenergy":null,"disposalimpact":null,"disposalemissions":null,"description":"","name":"GRE  Pipework","id":"7726","stops":{"origin":{"related_to":"7726","part_or_object":"p","notes":null,"placename":"Netherlands","id":17603,"name":"origin","lat":"52.132633","lon":"5.291266","hops":{"incoming":[],"outgoing":[{"transport_id":null,"id":"12624","transport_name":null,"transport_description":null,"transport_unit":null,"transport_co2_eq":null,"from_stop_id":"17603","from_stop_lat":"52.132633","from_stop_lon":"5.291266","from_stop_placename":"Netherlands","to_stop_id":"17600","to_stop_name":"origin","to_stop_lat":"59.0626685","to_stop_lon":"-2.8687777","to_stop_placename":"Orkney, UK","to_stop":{"id":"17600","name":"origin","lat":"59.0626685","lon":"-2.8687777","placename":"Orkney, UK"},"from_stop":{"name":"origin","id":"17603","lat":"52.132633","lon":"5.291266","placename":"Netherlands"}}]}}},"processes":[],"eols":[]},{"oid":"1316","imid":"7727","linkid":"0","weight":"0","rawemissions":"0","emissions":"0","shipping":"10833.25","processemissions":"0","endoflifeemissions":"0","disposaltype":null,"disposalenergy":null,"disposalimpact":null,"disposalemissions":null,"description":"","name":"GRE   Fittings ","id":"7727","stops":{"origin":{"related_to":"7727","part_or_object":"p","notes":null,"placename":"Singapore","id":17604,"name":"origin","lat":"1.352083","lon":"103.819836","hops":{"incoming":[],"outgoing":[{"transport_id":null,"id":"12625","transport_name":null,"transport_description":null,"transport_unit":null,"transport_co2_eq":null,"from_stop_id":"17604","from_stop_lat":"1.352083","from_stop_lon":"103.819836","from_stop_placename":"Singapore","to_stop_id":"17600","to_stop_name":"origin","to_stop_lat":"59.0626685","to_stop_lon":"-2.8687777","to_stop_placename":"Orkney, UK","to_stop":{"id":"17600","name":"origin","lat":"59.0626685","lon":"-2.8687777","placename":"Orkney, UK"},"from_stop":{"name":"origin","id":"17604","lat":"1.352083","lon":"103.819836","placename":"Singapore"}}]}}},"processes":[],"eols":[]},{"oid":"1316","imid":"7728","linkid":"0","weight":"0","rawemissions":"0","emissions":"0","shipping":"788.63","processemissions":"0","endoflifeemissions":"0","disposaltype":null,"disposalenergy":null,"disposalimpact":null,"disposalemissions":null,"description":"","name":"Junction Box ","id":"7728","stops":{"origin":{"related_to":"7728","part_or_object":"p","notes":null,"placename":"Esbjerg, Denmark","id":17605,"name":"origin","lat":"55.476466","lon":"8.459405","hops":{"incoming":[],"outgoing":[{"transport_id":null,"id":"12626","transport_name":null,"transport_description":null,"transport_unit":null,"transport_co2_eq":null,"from_stop_id":"17605","from_stop_lat":"55.476466","from_stop_lon":"8.459405","from_stop_placename":"Esbjerg, Denmark","to_stop_id":"17600","to_stop_name":"origin","to_stop_lat":"59.0626685","to_stop_lon":"-2.8687777","to_stop_placename":"Orkney, UK","to_stop":{"id":"17600","name":"origin","lat":"59.0626685","lon":"-2.8687777","placename":"Orkney, UK"},"from_stop":{"name":"origin","id":"17605","lat":"55.476466","lon":"8.459405","placename":"Esbjerg, Denmark"}}]}}},"processes":[],"eols":[]},{"oid":"1316","imid":"7729","linkid":"0","weight":"0","rawemissions":"0","emissions":"0","shipping":"366.04","processemissions":"0","endoflifeemissions":"0","disposaltype":null,"disposalenergy":null,"disposalimpact":null,"disposalemissions":null,"description":"","name":"Bray Valve ","id":"7729","stops":{"origin":{"related_to":"7729","part_or_object":"p","notes":null,"placename":"Renfrew, Renfrewshire, UK","id":17606,"name":"origin","lat":"55.8774959","lon":"-4.3894222","hops":{"incoming":[],"outgoing":[{"transport_id":null,"id":"12627","transport_name":null,"transport_description":null,"transport_unit":null,"transport_co2_eq":null,"from_stop_id":"17606","from_stop_lat":"55.8774959","from_stop_lon":"-4.3894222","from_stop_placename":"Renfrew, Renfrewshire, UK","to_stop_id":"17600","to_stop_name":"origin","to_stop_lat":"59.0626685","to_stop_lon":"-2.8687777","to_stop_placename":"Orkney, UK","to_stop":{"id":"17600","name":"origin","lat":"59.0626685","lon":"-2.8687777","placename":"Orkney, UK"},"from_stop":{"name":"origin","id":"17606","lat":"55.8774959","lon":"-4.3894222","placename":"Renfrew, Renfrewshire, UK"}}]}}},"processes":[],"eols":[]},{"oid":"1316","imid":"7730","linkid":"0","weight":"0","rawemissions":"0","emissions":"0","shipping":"594.21","processemissions":"0","endoflifeemissions":"0","disposaltype":null,"disposalenergy":null,"disposalimpact":null,"disposalemissions":null,"description":"","name":"Alco Valves","id":"7730","stops":{"origin":{"related_to":"7730","part_or_object":"p","notes":null,"placename":"West Yorkshire, UK","id":17607,"name":"origin","lat":"53.7682941","lon":"-1.6364189","hops":{"incoming":[],"outgoing":[{"transport_id":null,"id":"12628","transport_name":null,"transport_description":null,"transport_unit":null,"transport_co2_eq":null,"from_stop_id":"17607","from_stop_lat":"53.7682941","from_stop_lon":"-1.6364189","from_stop_placename":"West Yorkshire, UK","to_stop_id":"17600","to_stop_name":"origin","to_stop_lat":"59.0626685","to_stop_lon":"-2.8687777","to_stop_placename":"Orkney, UK","to_stop":{"id":"17600","name":"origin","lat":"59.0626685","lon":"-2.8687777","placename":"Orkney, UK"},"from_stop":{"name":"origin","id":"17607","lat":"53.7682941","lon":"-1.6364189","placename":"West Yorkshire, UK"}}]}}},"processes":[],"eols":[]},{"oid":"1316","imid":"7731","linkid":"0","weight":"0","rawemissions":"0","emissions":"0","shipping":"1804.99","processemissions":"0","endoflifeemissions":"0","disposaltype":null,"disposalenergy":null,"disposalimpact":null,"disposalemissions":null,"description":"","name":"6 and 8 inch LP flexi hose","id":"7731","stops":{"origin":{"related_to":"7731","part_or_object":"p","notes":null,"placename":"35030 Cervarese Santa Croce Padua, Italy","id":17608,"name":"origin","lat":"45.42448","lon":"11.686824","hops":{"incoming":[],"outgoing":[{"transport_id":null,"id":"12629","transport_name":null,"transport_description":null,"transport_unit":null,"transport_co2_eq":null,"from_stop_id":"17608","from_stop_lat":"45.42448","from_stop_lon":"11.686824","from_stop_placename":"35030 Cervarese Santa Croce Padua, Italy","to_stop_id":"17600","to_stop_name":"origin","to_stop_lat":"59.0626685","to_stop_lon":"-2.8687777","to_stop_placename":"Orkney, UK","to_stop":{"id":"17600","name":"origin","lat":"59.0626685","lon":"-2.8687777","placename":"Orkney, UK"},"from_stop":{"name":"origin","id":"17608","lat":"45.42448","lon":"11.686824","placename":"35030 Cervarese Santa Croce Padua, Italy"}}]}}},"processes":[],"eols":[]},{"oid":"1316","imid":"7732","linkid":"0","weight":"0","rawemissions":"0","emissions":"0","shipping":"7350.77","processemissions":"0","endoflifeemissions":"0","disposaltype":null,"disposalenergy":null,"disposalimpact":null,"disposalemissions":null,"description":"","name":"4 and 6 inch HP Flexi hose ","id":"7732","stops":{"origin":{"related_to":"7732","part_or_object":"p","notes":null,"placename":"Houston, TX, USA","id":17609,"name":"origin","lat":"29.7628844","lon":"-95.3830615","hops":{"incoming":[],"outgoing":[{"transport_id":null,"id":"12630","transport_name":null,"transport_description":null,"transport_unit":null,"transport_co2_eq":null,"from_stop_id":"17609","from_stop_lat":"29.7628844","from_stop_lon":"-95.3830615","from_stop_placename":"Houston, TX, USA","to_stop_id":"17600","to_stop_name":"origin","to_stop_lat":"59.0626685","to_stop_lon":"-2.8687777","to_stop_placename":"Orkney, UK","to_stop":{"id":"17600","name":"origin","lat":"59.0626685","lon":"-2.8687777","placename":"Orkney, UK"},"from_stop":{"name":"origin","id":"17609","lat":"29.7628844","lon":"-95.3830615","placename":"Houston, TX, USA"}}]}}},"processes":[],"eols":[]},{"oid":"1316","imid":"7737","linkid":"0","weight":"0","rawemissions":"0","emissions":"0","shipping":"1285.97","processemissions":"0","endoflifeemissions":"0","disposaltype":null,"disposalenergy":null,"disposalimpact":null,"disposalemissions":null,"description":"","name":"Hydraulic Cylinders","id":"7737","stops":{"origin":{"related_to":"7737","part_or_object":"p","notes":null,"placename":"97816 Lohr, Germany","id":17614,"name":"origin","lat":"49.9950168","lon":"9.5716865","hops":{"incoming":[],"outgoing":[{"transport_id":null,"id":"12635","transport_name":null,"transport_description":null,"transport_unit":null,"transport_co2_eq":null,"from_stop_id":"17614","from_stop_lat":"49.9950168","from_stop_lon":"9.5716865","from_stop_placename":"97816 Lohr, Germany","to_stop_id":"17600","to_stop_name":"origin","to_stop_lat":"59.0626685","to_stop_lon":"-2.8687777","to_stop_placename":"Orkney, UK","to_stop":{"id":"17600","name":"origin","lat":"59.0626685","lon":"-2.8687777","placename":"Orkney, UK"},"from_stop":{"name":"origin","id":"17614","lat":"49.9950168","lon":"9.5716865","placename":"97816 Lohr, Germany"}}]}}},"processes":[],"eols":[]},{"oid":"1316","imid":"7739","linkid":"0","weight":"0","rawemissions":"0","emissions":"0","shipping":"490.73","processemissions":"0","endoflifeemissions":"0","disposaltype":null,"disposalenergy":null,"disposalimpact":null,"disposalemissions":null,"description":"","name":"Bondura Bolt","id":"7739","stops":{"origin":{"related_to":"7739","part_or_object":"p","notes":null,"placename":"4340 Bryne, Norway","id":17615,"name":"origin","lat":"58.735793","lon":"5.6477347","hops":{"incoming":[],"outgoing":[{"transport_id":null,"id":"12636","transport_name":null,"transport_description":null,"transport_unit":null,"transport_co2_eq":null,"from_stop_id":"17615","from_stop_lat":"58.735793","from_stop_lon":"5.6477347","from_stop_placename":"4340 Bryne, Norway","to_stop_id":"17600","to_stop_name":"origin","to_stop_lat":"59.0626685","to_stop_lon":"-2.8687777","to_stop_placename":"Orkney, UK","to_stop":{"id":"17600","name":"origin","lat":"59.0626685","lon":"-2.8687777","placename":"Orkney, UK"},"from_stop":{"name":"origin","id":"17615","lat":"58.735793","lon":"5.6477347","placename":"4340 Bryne, Norway"}}]}}},"processes":[],"eols":[]},{"oid":"1316","imid":"7733","linkid":"0","weight":"0","rawemissions":"0","emissions":"0","shipping":"1261.83","processemissions":"0","endoflifeemissions":"0","disposaltype":null,"disposalenergy":null,"disposalimpact":null,"disposalemissions":null,"description":"","name":"Accumulators","id":"7733","stops":{"origin":{"related_to":"7733","part_or_object":"p","notes":null,"placename":"66280 Sulzbach, Germany","id":17610,"name":"origin","lat":"49.3008318","lon":"7.066022","hops":{"incoming":[],"outgoing":[{"transport_id":null,"id":"12631","transport_name":null,"transport_description":null,"transport_unit":null,"transport_co2_eq":null,"from_stop_id":"17610","from_stop_lat":"49.3008318","from_stop_lon":"7.066022","from_stop_placename":"66280 Sulzbach, Germany","to_stop_id":"17600","to_stop_name":"origin","to_stop_lat":"59.0626685","to_stop_lon":"-2.8687777","to_stop_placename":"Orkney, UK","to_stop":{"id":"17600","name":"origin","lat":"59.0626685","lon":"-2.8687777","placename":"Orkney, UK"},"from_stop":{"name":"origin","id":"17610","lat":"49.3008318","lon":"7.066022","placename":"66280 Sulzbach, Germany"}}]}}},"processes":[],"eols":[]},{"oid":"1316","imid":"7735","linkid":"0","weight":"0","rawemissions":"0","emissions":"0","shipping":"7826.32","processemissions":"0","endoflifeemissions":"0","disposaltype":null,"disposalenergy":null,"disposalimpact":null,"disposalemissions":null,"description":"","name":"8 Steel Castings","id":"7735","stops":{"origin":{"related_to":"7735","part_or_object":"p","notes":null,"placename":"Anshan, Liaoning, China","id":17611,"name":"origin","lat":"41.108546","lon":"122.994646","hops":{"incoming":[],"outgoing":[{"transport_id":null,"id":"12632","transport_name":null,"transport_description":null,"transport_unit":null,"transport_co2_eq":null,"from_stop_id":"17611","from_stop_lat":"41.108546","from_stop_lon":"122.994646","from_stop_placename":"Anshan, Liaoning, China","to_stop_id":"17600","to_stop_name":"origin","to_stop_lat":"59.0626685","to_stop_lon":"-2.8687777","to_stop_placename":"Orkney, UK","to_stop":{"id":"17600","name":"origin","lat":"59.0626685","lon":"-2.8687777","placename":"Orkney, UK"},"from_stop":{"name":"origin","id":"17611","lat":"41.108546","lon":"122.994646","placename":"Anshan, Liaoning, China"}}]}}},"processes":[],"eols":[]},{"oid":"1316","imid":"7734","linkid":"0","weight":"0","rawemissions":"0","emissions":"0","shipping":"4972.19","processemissions":"0","endoflifeemissions":"0","disposaltype":null,"disposalenergy":null,"disposalimpact":null,"disposalemissions":null,"description":"","name":"SMX Check valve ","id":"7734","stops":{"origin":{"related_to":"7734","part_or_object":"p","notes":null,"placename":"Ontario, Canada","id":17612,"name":"origin","lat":"51.253775","lon":"-85.3232139","hops":{"incoming":[],"outgoing":[{"transport_id":null,"id":"12633","transport_name":null,"transport_description":null,"transport_unit":null,"transport_co2_eq":null,"from_stop_id":"17612","from_stop_lat":"51.253775","from_stop_lon":"-85.3232139","from_stop_placename":"Ontario, Canada","to_stop_id":"17600","to_stop_name":"origin","to_stop_lat":"59.0626685","to_stop_lon":"-2.8687777","to_stop_placename":"Orkney, UK","to_stop":{"id":"17600","name":"origin","lat":"59.0626685","lon":"-2.8687777","placename":"Orkney, UK"},"from_stop":{"name":"origin","id":"17612","lat":"51.253775","lon":"-85.3232139","placename":"Ontario, Canada"}}]}}},"processes":[],"eols":[]},{"oid":"1316","imid":"7736","linkid":"0","weight":"0","rawemissions":"0","emissions":"0","shipping":"217.99","processemissions":"0","endoflifeemissions":"0","disposaltype":null,"disposalenergy":null,"disposalimpact":null,"disposalemissions":null,"description":"","name":"CPS Pipework ","id":"7736","stops":{"origin":{"related_to":"7736","part_or_object":"p","notes":null,"placename":"Aberdeen, Aberdeen City, UK","id":17613,"name":"origin","lat":"57.1474915","lon":"-2.095397","hops":{"incoming":[],"outgoing":[{"transport_id":null,"id":"12634","transport_name":null,"transport_description":null,"transport_unit":null,"transport_co2_eq":null,"from_stop_id":"17613","from_stop_lat":"57.1474915","from_stop_lon":"-2.095397","from_stop_placename":"Aberdeen, Aberdeen City, UK","to_stop_id":"17600","to_stop_name":"origin","to_stop_lat":"59.0626685","to_stop_lon":"-2.8687777","to_stop_placename":"Orkney, UK","to_stop":{"id":"17600","name":"origin","lat":"59.0626685","lon":"-2.8687777","placename":"Orkney, UK"},"from_stop":{"name":"origin","id":"17613","lat":"57.1474915","lon":"-2.095397","placename":"Aberdeen, Aberdeen City, UK"}}]}}},"processes":[],"eols":[]},{"oid":"1316","imid":"7723","linkid":"travel\/hyderabad","weight":"0","rawemissions":"0","emissions":"0","shipping":"530.77","processemissions":"0","endoflifeemissions":"0","disposaltype":null,"disposalenergy":null,"disposalimpact":null,"disposalemissions":null,"description":"","name":"Crane Valves","id":"7723","stops":{"origin":{"related_to":"7723","part_or_object":"p","notes":null,"placename":"Belfast, UK","id":17616,"name":"origin","lat":"54.5972686","lon":"-5.9301088","hops":{"incoming":[],"outgoing":[{"transport_id":null,"id":"12637","transport_name":null,"transport_description":null,"transport_unit":null,"transport_co2_eq":null,"from_stop_id":"17616","from_stop_lat":"54.5972686","from_stop_lon":"-5.9301088","from_stop_placename":"Belfast, UK","to_stop_id":"17600","to_stop_name":"origin","to_stop_lat":"59.0626685","to_stop_lon":"-2.8687777","to_stop_placename":"Orkney, UK","to_stop":{"id":"17600","name":"origin","lat":"59.0626685","lon":"-2.8687777","placename":"Orkney, UK"},"from_stop":{"name":"origin","id":"17616","lat":"54.5972686","lon":"-5.9301088","placename":"Belfast, UK"}}]}}},"processes":[],"eols":[]},{"oid":"1316","imid":"7799","linkid":"0","weight":"0","rawemissions":"0","emissions":"0","shipping":"878.9","processemissions":"0","endoflifeemissions":"0","disposaltype":null,"disposalenergy":null,"disposalimpact":null,"disposalemissions":null,"description":"","name":"Paint","id":"7799","stops":{"origin":{"related_to":"7799","part_or_object":"p","notes":null,"placename":"Angered, Gothenburg urban area, Sweden","id":17617,"name":"origin","lat":"57.7973333","lon":"12.0502107","hops":{"incoming":[],"outgoing":[{"transport_id":null,"id":"12638","transport_name":null,"transport_description":null,"transport_unit":null,"transport_co2_eq":null,"from_stop_id":"17617","from_stop_lat":"57.7973333","from_stop_lon":"12.0502107","from_stop_placename":"Angered, Gothenburg urban area, Sweden","to_stop_id":"17600","to_stop_name":"origin","to_stop_lat":"59.0626685","to_stop_lon":"-2.8687777","to_stop_placename":"Orkney, UK","to_stop":{"id":"17600","name":"origin","lat":"59.0626685","lon":"-2.8687777","placename":"Orkney, UK"},"from_stop":{"name":"origin","id":"17617","lat":"57.7973333","lon":"12.0502107","placename":"Angered, Gothenburg urban area, Sweden"}}]}}},"processes":[],"eols":[]},{"oid":"1316","imid":"7800","linkid":"0","weight":"0","rawemissions":"0","emissions":"0","shipping":"1703.73","processemissions":"0","endoflifeemissions":"0","disposaltype":null,"disposalenergy":null,"disposalimpact":null,"disposalemissions":null,"description":"","name":"Welding Consumables","id":"7800","stops":{"origin":{"related_to":"7800","part_or_object":"p","notes":null,"placename":"Katowice, Poland","id":17618,"name":"origin","lat":"50.2648919","lon":"19.0237815","hops":{"incoming":[],"outgoing":[{"transport_id":null,"id":"12639","transport_name":null,"transport_description":null,"transport_unit":null,"transport_co2_eq":null,"from_stop_id":"17618","from_stop_lat":"50.2648919","from_stop_lon":"19.0237815","from_stop_placename":"Katowice, Poland","to_stop_id":"17600","to_stop_name":"origin","to_stop_lat":"59.0626685","to_stop_lon":"-2.8687777","to_stop_placename":"Orkney, UK","to_stop":{"id":"17600","name":"origin","lat":"59.0626685","lon":"-2.8687777","placename":"Orkney, UK"},"from_stop":{"name":"origin","id":"17618","lat":"50.2648919","lon":"19.0237815","placename":"Katowice, Poland"}}]}}},"processes":[],"eols":[]},{"oid":"1316","imid":"7845","linkid":"0","weight":"0","rawemissions":"0","emissions":"0","shipping":"893.56","processemissions":"0","endoflifeemissions":"0","disposaltype":null,"disposalenergy":null,"disposalimpact":null,"disposalemissions":null,"description":"","name":"Pipework Rupture Disc","id":"7845","stops":{"origin":{"related_to":"7845","part_or_object":"p","notes":null,"placename":"Maidstone, Kent, UK","id":17619,"name":"origin","lat":"51.2703369","lon":"0.523841","hops":{"incoming":[],"outgoing":[{"transport_id":null,"id":"12640","transport_name":null,"transport_description":null,"transport_unit":null,"transport_co2_eq":null,"from_stop_id":"17619","from_stop_lat":"51.2703369","from_stop_lon":"0.523841","from_stop_placename":"Maidstone, Kent, UK","to_stop_id":"17600","to_stop_name":"origin","to_stop_lat":"59.0626685","to_stop_lon":"-2.8687777","to_stop_placename":"Orkney, UK","to_stop":{"id":"17600","name":"origin","lat":"59.0626685","lon":"-2.8687777","placename":"Orkney, UK"},"from_stop":{"name":"origin","id":"17619","lat":"51.2703369","lon":"0.523841","placename":"Maidstone, Kent, UK"}}]}}},"processes":[],"eols":[]},{"oid":"1316","imid":"7846","linkid":"0","weight":"0","rawemissions":"0","emissions":"0","shipping":"600.37","processemissions":"0","endoflifeemissions":"0","disposaltype":null,"disposalenergy":null,"disposalimpact":null,"disposalemissions":null,"description":"","name":"G.A valves ","id":"7846","stops":{"origin":{"related_to":"7846","part_or_object":"p","notes":null,"placename":"Brighouse, West Yorkshire, UK","id":17620,"name":"origin","lat":"53.7028532","lon":"-1.7826489","hops":{"incoming":[],"outgoing":[{"transport_id":null,"id":"12641","transport_name":null,"transport_description":null,"transport_unit":null,"transport_co2_eq":null,"from_stop_id":"17620","from_stop_lat":"53.7028532","from_stop_lon":"-1.7826489","from_stop_placename":"Brighouse, West Yorkshire, UK","to_stop_id":"17600","to_stop_name":"origin","to_stop_lat":"59.0626685","to_stop_lon":"-2.8687777","to_stop_placename":"Orkney, UK","to_stop":{"id":"17600","name":"origin","lat":"59.0626685","lon":"-2.8687777","placename":"Orkney, UK"},"from_stop":{"name":"origin","id":"17620","lat":"53.7028532","lon":"-1.7826489","placename":"Brighouse, West Yorkshire, UK"}}]}}},"processes":[],"eols":[]},{"oid":"1316","imid":"7847","linkid":"0","weight":"0","rawemissions":"0","emissions":"0","shipping":"1062.15","processemissions":"0","endoflifeemissions":"0","disposaltype":null,"disposalenergy":null,"disposalimpact":null,"disposalemissions":null,"description":"","name":"Synflex 3395-06 HP Hose Ballast System ","id":"7847","stops":{"origin":{"related_to":"7847","part_or_object":"p","notes":null,"placename":"Gembloux, Belgium","id":17621,"name":"origin","lat":"50.561293","lon":"4.701531","hops":{"incoming":[],"outgoing":[{"transport_id":null,"id":"12642","transport_name":null,"transport_description":null,"transport_unit":null,"transport_co2_eq":null,"from_stop_id":"17621","from_stop_lat":"50.561293","from_stop_lon":"4.701531","from_stop_placename":"Gembloux, Belgium","to_stop_id":"17600","to_stop_name":"origin","to_stop_lat":"59.0626685","to_stop_lon":"-2.8687777","to_stop_placename":"Orkney, UK","to_stop":{"id":"17600","name":"origin","lat":"59.0626685","lon":"-2.8687777","placename":"Orkney, UK"},"from_stop":{"name":"origin","id":"17621","lat":"50.561293","lon":"4.701531","placename":"Gembloux, Belgium"}}]}}},"processes":[],"eols":[]},{"oid":"1316","imid":"7861","linkid":"0","weight":"0","rawemissions":"0","emissions":"0","shipping":"819.17","processemissions":"0","endoflifeemissions":"0","disposaltype":null,"disposalenergy":null,"disposalimpact":null,"disposalemissions":null,"description":"","name":"Accumulator oil valve adaptor","id":"7861","stops":{"origin":{"related_to":"7861","part_or_object":"p","notes":null,"placename":"Oxfordshire, UK","id":17622,"name":"origin","lat":"51.7612056","lon":"-1.2464674","hops":{"incoming":[],"outgoing":[{"transport_id":null,"id":"12643","transport_name":null,"transport_description":null,"transport_unit":null,"transport_co2_eq":null,"from_stop_id":"17622","from_stop_lat":"51.7612056","from_stop_lon":"-1.2464674","from_stop_placename":"Oxfordshire, UK","to_stop_id":"17600","to_stop_name":"origin","to_stop_lat":"59.0626685","to_stop_lon":"-2.8687777","to_stop_placename":"Orkney, UK","to_stop":{"id":"17600","name":"origin","lat":"59.0626685","lon":"-2.8687777","placename":"Orkney, UK"},"from_stop":{"name":"origin","id":"17622","lat":"51.7612056","lon":"-1.2464674","placename":"Oxfordshire, UK"}}]}}},"processes":[],"eols":[]},{"oid":"1316","imid":"7927","linkid":"0","weight":"0","rawemissions":"0","emissions":"0","shipping":"1143.93","processemissions":"0","endoflifeemissions":"0","disposaltype":null,"disposalenergy":null,"disposalimpact":null,"disposalemissions":null,"description":"","name":"HP HDD pipeline ","id":"7927","stops":{"origin":{"related_to":"7927","part_or_object":"p","notes":null,"placename":"Siegen, Germany","id":17623,"name":"origin","lat":"50.873797","lon":"8.023407","hops":{"incoming":[],"outgoing":[{"transport_id":null,"id":"12644","transport_name":null,"transport_description":null,"transport_unit":null,"transport_co2_eq":null,"from_stop_id":"17623","from_stop_lat":"50.873797","from_stop_lon":"8.023407","from_stop_placename":"Siegen, Germany","to_stop_id":"17600","to_stop_name":"origin","to_stop_lat":"59.0626685","to_stop_lon":"-2.8687777","to_stop_placename":"Orkney, UK","to_stop":{"id":"17600","name":"origin","lat":"59.0626685","lon":"-2.8687777","placename":"Orkney, UK"},"from_stop":{"name":"origin","id":"17623","lat":"50.873797","lon":"8.023407","placename":"Siegen, Germany"}}]}}},"processes":[],"eols":[]},{"oid":"1316","imid":"7928","linkid":"0","weight":"0","rawemissions":"0","emissions":"0","shipping":"768.07","processemissions":"0","endoflifeemissions":"0","disposaltype":null,"disposalenergy":null,"disposalimpact":null,"disposalemissions":null,"description":"","name":"LP HDD Pipeline","id":"7928","stops":{"origin":{"related_to":"7928","part_or_object":"p","notes":null,"placename":"Huntingdon, Cambridgeshire PE28, UK","id":17624,"name":"origin","lat":"52.3292492","lon":"-0.1853633","hops":{"incoming":[],"outgoing":[{"transport_id":null,"id":"12645","transport_name":null,"transport_description":null,"transport_unit":null,"transport_co2_eq":null,"from_stop_id":"17624","from_stop_lat":"52.3292492","from_stop_lon":"-0.1853633","from_stop_placename":"Huntingdon, Cambridgeshire PE28, UK","to_stop_id":"17600","to_stop_name":"origin","to_stop_lat":"59.0626685","to_stop_lon":"-2.8687777","to_stop_placename":"Orkney, UK","to_stop":{"id":"17600","name":"origin","lat":"59.0626685","lon":"-2.8687777","placename":"Orkney, UK"},"from_stop":{"name":"origin","id":"17624","lat":"52.3292492","lon":"-0.1853633","placename":"Huntingdon, Cambridgeshire PE28, UK"}}]}}},"processes":[],"eols":[]},{"oid":"1316","imid":"7848","linkid":"0","weight":"0","rawemissions":"0","emissions":"0","shipping":"1217.25","processemissions":"0","endoflifeemissions":"0","disposaltype":null,"disposalenergy":null,"disposalimpact":null,"disposalemissions":null,"description":"","name":"3R-08 HP Hose Ballast system System","id":"7848","stops":{"origin":{"related_to":"7848","part_or_object":"p","notes":null,"placename":"Germany","id":17625,"name":"origin","lat":"51.165691","lon":"10.451526","hops":{"incoming":[],"outgoing":[{"transport_id":null,"id":"12646","transport_name":null,"transport_description":null,"transport_unit":null,"transport_co2_eq":null,"from_stop_id":"17625","from_stop_lat":"51.165691","from_stop_lon":"10.451526","from_stop_placename":"Germany","to_stop_id":"17600","to_stop_name":"origin","to_stop_lat":"59.0626685","to_stop_lon":"-2.8687777","to_stop_placename":"Orkney, UK","to_stop":{"id":"17600","name":"origin","lat":"59.0626685","lon":"-2.8687777","placename":"Orkney, UK"},"from_stop":{"name":"origin","id":"17625","lat":"51.165691","lon":"10.451526","placename":"Germany"}}]}}},"processes":[],"eols":[]},{"oid":"1316","imid":"7849","linkid":"0","weight":"0","rawemissions":"0","emissions":"0","shipping":"597.81","processemissions":"0","endoflifeemissions":"0","disposaltype":null,"disposalenergy":null,"disposalimpact":null,"disposalemissions":null,"description":"","name":"Thermoplastic HP hose fittings","id":"7849","stops":{"origin":{"related_to":"7849","part_or_object":"p","notes":null,"placename":"Cleckheaton, West Yorkshire, UK","id":17626,"name":"origin","lat":"53.7304372","lon":"-1.7139963","hops":{"incoming":[],"outgoing":[{"transport_id":null,"id":"12647","transport_name":null,"transport_description":null,"transport_unit":null,"transport_co2_eq":null,"from_stop_id":"17626","from_stop_lat":"53.7304372","from_stop_lon":"-1.7139963","from_stop_placename":"Cleckheaton, West Yorkshire, UK","to_stop_id":"17600","to_stop_name":"origin","to_stop_lat":"59.0626685","to_stop_lon":"-2.8687777","to_stop_placename":"Orkney, UK","to_stop":{"id":"17600","name":"origin","lat":"59.0626685","lon":"-2.8687777","placename":"Orkney, UK"},"from_stop":{"name":"origin","id":"17626","lat":"53.7304372","lon":"-1.7139963","placename":"Cleckheaton, West Yorkshire, UK"}}]}}},"processes":[],"eols":[]},{"oid":"1316","imid":"7933","linkid":"0","weight":"0","rawemissions":"0","emissions":"0","shipping":"1587.2","processemissions":"0","endoflifeemissions":"0","disposaltype":null,"disposalenergy":null,"disposalimpact":null,"disposalemissions":null,"description":"","name":"Multidrive  Power Converters","id":"7933","stops":{"origin":{"related_to":"7933","part_or_object":"p","notes":null,"placename":"Finland","id":17627,"name":"origin","lat":"61.92411","lon":"25.748151","hops":{"incoming":[],"outgoing":[{"transport_id":null,"id":"12648","transport_name":null,"transport_description":null,"transport_unit":null,"transport_co2_eq":null,"from_stop_id":"17627","from_stop_lat":"61.92411","from_stop_lon":"25.748151","from_stop_placename":"Finland","to_stop_id":"17600","to_stop_name":"origin","to_stop_lat":"59.0626685","to_stop_lon":"-2.8687777","to_stop_placename":"Orkney, UK","to_stop":{"id":"17600","name":"origin","lat":"59.0626685","lon":"-2.8687777","placename":"Orkney, UK"},"from_stop":{"name":"origin","id":"17627","lat":"61.92411","lon":"25.748151","placename":"Finland"}}]}}},"processes":[],"eols":[]},{"oid":"1316","imid":"7934","linkid":"0","weight":"0","rawemissions":"0","emissions":"0","shipping":"1587.2","processemissions":"0","endoflifeemissions":"0","disposaltype":null,"disposalenergy":null,"disposalimpact":null,"disposalemissions":null,"description":"","name":"Liquid Cooled heat Exchanger ","id":"7934","stops":{"origin":{"related_to":"7934","part_or_object":"p","notes":null,"placename":"Finland","id":17628,"name":"origin","lat":"61.92411","lon":"25.748151","hops":{"incoming":[],"outgoing":[{"transport_id":null,"id":"12649","transport_name":null,"transport_description":null,"transport_unit":null,"transport_co2_eq":null,"from_stop_id":"17628","from_stop_lat":"61.92411","from_stop_lon":"25.748151","from_stop_placename":"Finland","to_stop_id":"17600","to_stop_name":"origin","to_stop_lat":"59.0626685","to_stop_lon":"-2.8687777","to_stop_placename":"Orkney, UK","to_stop":{"id":"17600","name":"origin","lat":"59.0626685","lon":"-2.8687777","placename":"Orkney, UK"},"from_stop":{"name":"origin","id":"17628","lat":"61.92411","lon":"25.748151","placename":"Finland"}}]}}},"processes":[],"eols":[]},{"oid":"1316","imid":"7935","linkid":"0","weight":"0","rawemissions":"0","emissions":"0","shipping":"653.66","processemissions":"0","endoflifeemissions":"0","disposaltype":null,"disposalenergy":null,"disposalimpact":null,"disposalemissions":null,"description":"","name":"MV switch gear ","id":"7935","stops":{"origin":{"related_to":"7935","part_or_object":"p","notes":null,"placename":"Norway","id":17629,"name":"origin","lat":"60.472024","lon":"8.468946","hops":{"incoming":[],"outgoing":[{"transport_id":null,"id":"12650","transport_name":null,"transport_description":null,"transport_unit":null,"transport_co2_eq":null,"from_stop_id":"17629","from_stop_lat":"60.472024","from_stop_lon":"8.468946","from_stop_placename":"Norway","to_stop_id":"17600","to_stop_name":"origin","to_stop_lat":"59.0626685","to_stop_lon":"-2.8687777","to_stop_placename":"Orkney, UK","to_stop":{"id":"17600","name":"origin","lat":"59.0626685","lon":"-2.8687777","placename":"Orkney, UK"},"from_stop":{"name":"origin","id":"17629","lat":"60.472024","lon":"8.468946","placename":"Norway"}}]}}},"processes":[],"eols":[]},{"oid":"1316","imid":"7936","linkid":"0","weight":"0","rawemissions":"0","emissions":"0","shipping":"471.57","processemissions":"0","endoflifeemissions":"0","disposaltype":null,"disposalenergy":null,"disposalimpact":null,"disposalemissions":null,"description":"","name":"LV Switchgear","id":"7936","stops":{"origin":{"related_to":"7936","part_or_object":"p","notes":null,"placename":"Sunderland, UK","id":17630,"name":"origin","lat":"54.9044493","lon":"-1.3814533","hops":{"incoming":[],"outgoing":[{"transport_id":null,"id":"12651","transport_name":null,"transport_description":null,"transport_unit":null,"transport_co2_eq":null,"from_stop_id":"17630","from_stop_lat":"54.9044493","from_stop_lon":"-1.3814533","from_stop_placename":"Sunderland, UK","to_stop_id":"17600","to_stop_name":"origin","to_stop_lat":"59.0626685","to_stop_lon":"-2.8687777","to_stop_placename":"Orkney, UK","to_stop":{"id":"17600","name":"origin","lat":"59.0626685","lon":"-2.8687777","placename":"Orkney, UK"},"from_stop":{"name":"origin","id":"17630","lat":"54.9044493","lon":"-1.3814533","placename":"Sunderland, UK"}}]}}},"processes":[],"eols":[]},{"oid":"1316","imid":"7937","linkid":"0","weight":"0","rawemissions":"0","emissions":"0","shipping":"0","processemissions":"0","endoflifeemissions":"0","disposaltype":null,"disposalenergy":null,"disposalimpact":null,"disposalemissions":null,"description":"","name":"UPS System ","id":"7937","processes":[],"eols":[]},{"oid":"1316","imid":"7938","linkid":"0","weight":"0","rawemissions":"0","emissions":"0","shipping":"0","processemissions":"0","endoflifeemissions":"0","disposaltype":null,"disposalenergy":null,"disposalimpact":null,"disposalemissions":null,"description":"","name":"Servo drivers ","id":"7938","processes":[],"eols":[]},{"oid":"1316","imid":"7939","linkid":"0","weight":"0","rawemissions":"0","emissions":"0","shipping":"1558.82","processemissions":"0","endoflifeemissions":"0","disposaltype":null,"disposalenergy":null,"disposalimpact":null,"disposalemissions":null,"description":"","name":"AC Induction Generator ","id":"7939","stops":{"origin":{"related_to":"7939","part_or_object":"p","notes":null,"placename":"Helsinki, Finland","id":17631,"name":"origin","lat":"60.1698125","lon":"24.9382401","hops":{"incoming":[],"outgoing":[{"transport_id":null,"id":"12652","transport_name":null,"transport_description":null,"transport_unit":null,"transport_co2_eq":null,"from_stop_id":"17631","from_stop_lat":"60.1698125","from_stop_lon":"24.9382401","from_stop_placename":"Helsinki, Finland","to_stop_id":"17600","to_stop_name":"origin","to_stop_lat":"59.0626685","to_stop_lon":"-2.8687777","to_stop_placename":"Orkney, UK","to_stop":{"id":"17600","name":"origin","lat":"59.0626685","lon":"-2.8687777","placename":"Orkney, UK"},"from_stop":{"name":"origin","id":"17631","lat":"60.1698125","lon":"24.9382401","placename":"Helsinki, Finland"}}]}}},"processes":[],"eols":[]},{"oid":"1316","imid":"7940","linkid":"0","weight":"0","rawemissions":"0","emissions":"0","shipping":"545.71","processemissions":"0","endoflifeemissions":"0","disposaltype":null,"disposalenergy":null,"disposalimpact":null,"disposalemissions":null,"description":"","name":"Umbilical pipe ","id":"7940","stops":{"origin":{"related_to":"7940","part_or_object":"p","notes":null,"placename":"Thirsk, North Yorkshire YO7, UK","id":17632,"name":"origin","lat":"54.2324883","lon":"-1.3428497","hops":{"incoming":[],"outgoing":[{"transport_id":null,"id":"12653","transport_name":null,"transport_description":null,"transport_unit":null,"transport_co2_eq":null,"from_stop_id":"17632","from_stop_lat":"54.2324883","from_stop_lon":"-1.3428497","from_stop_placename":"Thirsk, North Yorkshire YO7, UK","to_stop_id":"17600","to_stop_name":"origin","to_stop_lat":"59.0626685","to_stop_lon":"-2.8687777","to_stop_placename":"Orkney, UK","to_stop":{"id":"17600","name":"origin","lat":"59.0626685","lon":"-2.8687777","placename":"Orkney, UK"},"from_stop":{"name":"origin","id":"17632","lat":"54.2324883","lon":"-1.3428497","placename":"Thirsk, North Yorkshire YO7, UK"}}]}}},"processes":[],"eols":[]},{"oid":"1316","imid":"7960","linkid":"0","weight":"0","rawemissions":"0","emissions":"0","shipping":"289.63","processemissions":"0","endoflifeemissions":"0","disposaltype":null,"disposalenergy":null,"disposalimpact":null,"disposalemissions":null,"description":"","name":"Onshore HP pipework ","id":"7960","stops":{"origin":{"related_to":"7960","part_or_object":"p","notes":null,"placename":"Dundee, Angus, UK","id":17633,"name":"origin","lat":"56.4614282","lon":"-2.9681109","hops":{"incoming":[],"outgoing":[{"transport_id":null,"id":"12654","transport_name":null,"transport_description":null,"transport_unit":null,"transport_co2_eq":null,"from_stop_id":"17633","from_stop_lat":"56.4614282","from_stop_lon":"-2.9681109","from_stop_placename":"Dundee, Angus, UK","to_stop_id":"17600","to_stop_name":"origin","to_stop_lat":"59.0626685","to_stop_lon":"-2.8687777","to_stop_placename":"Orkney, UK","to_stop":{"id":"17600","name":"origin","lat":"59.0626685","lon":"-2.8687777","placename":"Orkney, UK"},"from_stop":{"name":"origin","id":"17633","lat":"56.4614282","lon":"-2.9681109","placename":"Dundee, Angus, UK"}}]}}},"processes":[],"eols":[]},{"oid":"1316","imid":"7979","linkid":"0","weight":"0","rawemissions":"0","emissions":"0","shipping":"745.85","processemissions":"0","endoflifeemissions":"0","disposaltype":null,"disposalenergy":null,"disposalimpact":null,"disposalemissions":null,"description":"","name":"Oleo Buffer","id":"7979","stops":{"origin":{"related_to":"7979","part_or_object":"p","notes":null,"placename":"Coventry, UK","id":17634,"name":"origin","lat":"52.4058375","lon":"-1.512661","hops":{"incoming":[],"outgoing":[{"transport_id":null,"id":"12655","transport_name":null,"transport_description":null,"transport_unit":null,"transport_co2_eq":null,"from_stop_id":"17634","from_stop_lat":"52.4058375","from_stop_lon":"-1.512661","from_stop_placename":"Coventry, UK","to_stop_id":"17600","to_stop_name":"origin","to_stop_lat":"59.0626685","to_stop_lon":"-2.8687777","to_stop_placename":"Orkney, UK","to_stop":{"id":"17600","name":"origin","lat":"59.0626685","lon":"-2.8687777","placename":"Orkney, UK"},"from_stop":{"name":"origin","id":"17634","lat":"52.4058375","lon":"-1.512661","placename":"Coventry, UK"}}]}}},"processes":[],"eols":[]},{"oid":"1316","imid":"8003","linkid":"0","weight":"0","rawemissions":"0","emissions":"0","shipping":"461.03","processemissions":"0","endoflifeemissions":"0","disposaltype":null,"disposalenergy":null,"disposalimpact":null,"disposalemissions":null,"description":"","name":"anodes","id":"8003","stops":{"origin":{"related_to":"8003","part_or_object":"p","notes":null,"placename":"South Shields, South Tyneside, UK","id":17635,"name":"origin","lat":"54.9957966","lon":"-1.4277052","hops":{"incoming":[],"outgoing":[{"transport_id":null,"id":"12656","transport_name":null,"transport_description":null,"transport_unit":null,"transport_co2_eq":null,"from_stop_id":"17635","from_stop_lat":"54.9957966","from_stop_lon":"-1.4277052","from_stop_placename":"South Shields, South Tyneside, UK","to_stop_id":"17600","to_stop_name":"origin","to_stop_lat":"59.0626685","to_stop_lon":"-2.8687777","to_stop_placename":"Orkney, UK","to_stop":{"id":"17600","name":"origin","lat":"59.0626685","lon":"-2.8687777","placename":"Orkney, UK"},"from_stop":{"name":"origin","id":"17635","lat":"54.9957966","lon":"-1.4277052","placename":"South Shields, South Tyneside, UK"}}]}}},"processes":[],"eols":[]},{"oid":"1316","imid":"8004","linkid":"0","weight":"0","rawemissions":"0","emissions":"0","shipping":"1791.59","processemissions":"0","endoflifeemissions":"0","disposaltype":null,"disposalenergy":null,"disposalimpact":null,"disposalemissions":null,"description":"","name":"ebara pumps ","id":"8004","stops":{"origin":{"related_to":"8004","part_or_object":"p","notes":null,"placename":"36040 Brendola Vicenza, Italy","id":17636,"name":"origin","lat":"45.4724113","lon":"11.4461293","hops":{"incoming":[],"outgoing":[{"transport_id":null,"id":"12657","transport_name":null,"transport_description":null,"transport_unit":null,"transport_co2_eq":null,"from_stop_id":"17636","from_stop_lat":"45.4724113","from_stop_lon":"11.4461293","from_stop_placename":"36040 Brendola Vicenza, Italy","to_stop_id":"17600","to_stop_name":"origin","to_stop_lat":"59.0626685","to_stop_lon":"-2.8687777","to_stop_placename":"Orkney, UK","to_stop":{"id":"17600","name":"origin","lat":"59.0626685","lon":"-2.8687777","placename":"Orkney, UK"},"from_stop":{"name":"origin","id":"17636","lat":"45.4724113","lon":"11.4461293","placename":"36040 Brendola Vicenza, Italy"}}]}}},"processes":[],"eols":[]}],"user":{"name":"powermarine","id":"13492"}}}