{"1350":{"oid":"1350","type":"food","flag":"","creator":"13587","name":"Bosse City Club and Spa","upc":"","imagelink":"","description":"","slug":"Bosse-City-Club-and-Spa","category":"","weight":"0","emissions":"0","embodied":"0","transport":"0","process":null,"endoflife":null,"shipping":"1643.79","lifetime":null,"usagetype":"","usageenergy":null,"usageemissions":null,"timecreated":"2011-06-15 10:46:28","timemodified":"2011-06-15 11:27:03","visibility":"public","showfootprint":"on","showembodied":"on","showtransport":"on","showprocess":"on","showendoflife":"on","showlastleg":"on","showuse":"on","showstats":"on","stops":{"origin":{"related_to":"1350","part_or_object":"o","notes":null,"placename":"Cambridge, MA, USA","id":"16407","category":"1","lat":"42.3726399","lon":"-71.1096528","name":"origin","hops":{"incoming":[{"transport_id":null,"id":"11719","transport_name":null,"transport_description":null,"transport_unit":null,"transport_co2_eq":null,"from_stop_id":"16408","from_stop_lat":"42.34167","from_stop_lon":"-72.58889","to_stop_id":"16407","to_stop_name":"origin","to_stop_lat":"42.3726399","placename":"Hadley, MA, USA","to_stop_lon":"-71.1096528","to_stop":{"id":"16407","name":"origin","lat":"42.3726399","placename":"Cambridge, MA, USA","lon":"-71.1096528"},"from_stop":{"name":"origin","id":"16408","lat":"42.34167","lon":"-72.58889","placename":"Hadley, MA, USA"}},{"transport_id":null,"id":"11720","transport_name":null,"transport_description":null,"transport_unit":null,"transport_co2_eq":null,"from_stop_id":"16409","from_stop_lat":"41.7001043","from_stop_lon":"-70.7628129","to_stop_id":"16407","to_stop_name":"origin","to_stop_lat":"42.3726399","placename":"Marion, Marion Center, MA 02738, USA","to_stop_lon":"-71.1096528","to_stop":{"id":"16407","name":"origin","lat":"42.3726399","placename":"Cambridge, MA, USA","lon":"-71.1096528"},"from_stop":{"name":"origin","id":"16409","lat":"41.7001043","lon":"-70.7628129","placename":"Marion, Marion Center, MA 02738, USA"}},{"transport_id":null,"id":"11721","transport_name":null,"transport_description":null,"transport_unit":null,"transport_co2_eq":null,"from_stop_id":"16410","from_stop_lat":"41.6130323","from_stop_lon":"-70.9704787","to_stop_id":"16407","to_stop_name":"origin","to_stop_lat":"42.3726399","placename":"Dartmouth, MA, USA","to_stop_lon":"-71.1096528","to_stop":{"id":"16407","name":"origin","lat":"42.3726399","placename":"Cambridge, MA, USA","lon":"-71.1096528"},"from_stop":{"name":"origin","id":"16410","lat":"41.6130323","lon":"-70.9704787","placename":"Dartmouth, MA, USA"}},{"transport_id":null,"id":"11722","transport_name":null,"transport_description":null,"transport_unit":null,"transport_co2_eq":null,"from_stop_id":"16411","from_stop_lat":"42.3584308","from_stop_lon":"-71.0597732","to_stop_id":"16407","to_stop_name":"origin","to_stop_lat":"42.3726399","placename":"Boston, MA, USA","to_stop_lon":"-71.1096528","to_stop":{"id":"16407","name":"origin","lat":"42.3726399","placename":"Cambridge, MA, USA","lon":"-71.1096528"},"from_stop":{"name":"origin","id":"16411","lat":"42.3584308","lon":"-71.0597732","placename":"Boston, MA, USA"}},{"transport_id":null,"id":"11723","transport_name":null,"transport_description":null,"transport_unit":null,"transport_co2_eq":null,"from_stop_id":"16412","from_stop_lat":"41.6130323","from_stop_lon":"-70.9704787","to_stop_id":"16407","to_stop_name":"origin","to_stop_lat":"42.3726399","placename":"Dartmouth, MA, USA","to_stop_lon":"-71.1096528","to_stop":{"id":"16407","name":"origin","lat":"42.3726399","placename":"Cambridge, MA, USA","lon":"-71.1096528"},"from_stop":{"name":"origin","id":"16412","lat":"41.6130323","lon":"-70.9704787","placename":"Dartmouth, MA, USA"}},{"transport_id":null,"id":"11724","transport_name":null,"transport_description":null,"transport_unit":null,"transport_co2_eq":null,"from_stop_id":"16413","from_stop_lat":"40.4437018","from_stop_lon":"-76.4282933","to_stop_id":"16407","to_stop_name":"origin","to_stop_lat":"42.3726399","placename":"Fredericksburg, PA, USA","to_stop_lon":"-71.1096528","to_stop":{"id":"16407","name":"origin","lat":"42.3726399","placename":"Cambridge, MA, USA","lon":"-71.1096528"},"from_stop":{"name":"origin","id":"16413","lat":"40.4437018","lon":"-76.4282933","placename":"Fredericksburg, PA, USA"}},{"transport_id":null,"id":"11725","transport_name":null,"transport_description":null,"transport_unit":null,"transport_co2_eq":null,"from_stop_id":"16414","from_stop_lat":"42.4398101","from_stop_lon":"-72.6348118","to_stop_id":"16407","to_stop_name":"origin","to_stop_lat":"42.3726399","placename":"Whately, MA 01373, USA","to_stop_lon":"-71.1096528","to_stop":{"id":"16407","name":"origin","lat":"42.3726399","placename":"Cambridge, MA, USA","lon":"-71.1096528"},"from_stop":{"name":"origin","id":"16414","lat":"42.4398101","lon":"-72.6348118","placename":"Whately, MA 01373, USA"}},{"transport_id":null,"id":"11726","transport_name":null,"transport_description":null,"transport_unit":null,"transport_co2_eq":null,"from_stop_id":"16415","from_stop_lat":"42.6792602","from_stop_lon":"-70.8411612","to_stop_id":"16407","to_stop_name":"origin","to_stop_lat":"42.3726399","placename":"Ipswich, MA, USA","to_stop_lon":"-71.1096528","to_stop":{"id":"16407","name":"origin","lat":"42.3726399","placename":"Cambridge, MA, USA","lon":"-71.1096528"},"from_stop":{"name":"origin","id":"16415","lat":"42.6792602","lon":"-70.8411612","placename":"Ipswich, MA, USA"}},{"transport_id":null,"id":"11727","transport_name":null,"transport_description":null,"transport_unit":null,"transport_co2_eq":null,"from_stop_id":"16416","from_stop_lat":"42.3726399","from_stop_lon":"-71.1096528","to_stop_id":"16407","to_stop_name":"origin","to_stop_lat":"42.3726399","placename":"Cambridge, MA, USA","to_stop_lon":"-71.1096528","to_stop":{"id":"16407","name":"origin","lat":"42.3726399","placename":"Cambridge, MA, USA","lon":"-71.1096528"},"from_stop":{"name":"origin","id":"16416","lat":"42.3726399","lon":"-71.1096528","placename":"Cambridge, MA, USA"}},{"transport_id":null,"id":"11728","transport_name":null,"transport_description":null,"transport_unit":null,"transport_co2_eq":null,"from_stop_id":"16417","from_stop_lat":"41.9903787","from_stop_lon":"-70.9750426","to_stop_id":"16407","to_stop_name":"origin","to_stop_lat":"42.3726399","placename":"Bridgewater, MA 02324, USA","to_stop_lon":"-71.1096528","to_stop":{"id":"16407","name":"origin","lat":"42.3726399","placename":"Cambridge, MA, USA","lon":"-71.1096528"},"from_stop":{"name":"origin","id":"16417","lat":"41.9903787","lon":"-70.9750426","placename":"Bridgewater, MA 02324, USA"}},{"transport_id":null,"id":"11729","transport_name":null,"transport_description":null,"transport_unit":null,"transport_co2_eq":null,"from_stop_id":"16418","from_stop_lat":"43.7153482","from_stop_lon":"-72.307869","to_stop_id":"16407","to_stop_name":"origin","to_stop_lat":"42.3726399","placename":"Norwich, VT 05055, USA","to_stop_lon":"-71.1096528","to_stop":{"id":"16407","name":"origin","lat":"42.3726399","placename":"Cambridge, MA, USA","lon":"-71.1096528"},"from_stop":{"name":"origin","id":"16418","lat":"43.7153482","lon":"-72.307869","placename":"Norwich, VT 05055, USA"}},{"transport_id":null,"id":"11730","transport_name":null,"transport_description":null,"transport_unit":null,"transport_co2_eq":null,"from_stop_id":"16419","from_stop_lat":"42.3250896","from_stop_lon":"-72.6412013","to_stop_id":"16407","to_stop_name":"origin","to_stop_lat":"42.3726399","placename":"Northampton, MA, USA","to_stop_lon":"-71.1096528","to_stop":{"id":"16407","name":"origin","lat":"42.3726399","placename":"Cambridge, MA, USA","lon":"-71.1096528"},"from_stop":{"name":"origin","id":"16419","lat":"42.3250896","lon":"-72.6412013","placename":"Northampton, MA, USA"}},{"transport_id":null,"id":"11731","transport_name":null,"transport_description":null,"transport_unit":null,"transport_co2_eq":null,"from_stop_id":"16420","from_stop_lat":"43.084579","from_stop_lon":"-72.421547","to_stop_id":"16407","to_stop_name":"origin","to_stop_lat":"42.3726399","placename":"Walpole, NH, USA","to_stop_lon":"-71.1096528","to_stop":{"id":"16407","name":"origin","lat":"42.3726399","placename":"Cambridge, MA, USA","lon":"-71.1096528"},"from_stop":{"name":"origin","id":"16420","lat":"43.084579","lon":"-72.421547","placename":"Walpole, NH, USA"}},{"transport_id":null,"id":"11732","transport_name":null,"transport_description":null,"transport_unit":null,"transport_co2_eq":null,"from_stop_id":"16421","from_stop_lat":"42.4398101","from_stop_lon":"-72.6348118","to_stop_id":"16407","to_stop_name":"origin","to_stop_lat":"42.3726399","placename":"Whately, MA 01373, USA","to_stop_lon":"-71.1096528","to_stop":{"id":"16407","name":"origin","lat":"42.3726399","placename":"Cambridge, MA, USA","lon":"-71.1096528"},"from_stop":{"name":"origin","id":"16421","lat":"42.4398101","lon":"-72.6348118","placename":"Whately, MA 01373, USA"}}],"outgoing":[]}}},"parts":[{"oid":"1350","imid":"7744","linkid":"0","weight":"0","rawemissions":"0","emissions":"0","shipping":"121.73","processemissions":"0","endoflifeemissions":"0","disposaltype":null,"disposalenergy":null,"disposalimpact":null,"disposalemissions":null,"description":"","name":"Hadley Asparagus","id":"7744","stops":{"origin":{"related_to":"7744","part_or_object":"p","notes":null,"placename":"Hadley, MA, USA","id":16408,"name":"origin","lat":"42.34167","lon":"-72.58889","hops":{"incoming":[],"outgoing":[{"transport_id":null,"id":"11719","transport_name":null,"transport_description":null,"transport_unit":null,"transport_co2_eq":null,"from_stop_id":"16408","from_stop_lat":"42.34167","from_stop_lon":"-72.58889","from_stop_placename":"Hadley, MA, USA","to_stop_id":"16407","to_stop_name":"origin","to_stop_lat":"42.3726399","to_stop_lon":"-71.1096528","to_stop_placename":"Cambridge, MA, USA","to_stop":{"id":"16407","name":"origin","lat":"42.3726399","lon":"-71.1096528","placename":"Cambridge, MA, USA"},"from_stop":{"name":"origin","id":"16408","lat":"42.34167","lon":"-72.58889","placename":"Hadley, MA, USA"}}]}}},"processes":[],"eols":[]},{"oid":"1350","imid":"7745","linkid":"0","weight":"0","rawemissions":"0","emissions":"0","shipping":"80.17","processemissions":"0","endoflifeemissions":"0","disposaltype":null,"disposalenergy":null,"disposalimpact":null,"disposalemissions":null,"description":"","name":"Great Hill Blue Cheese","id":"7745","stops":{"origin":{"related_to":"7745","part_or_object":"p","notes":null,"placename":"Marion, Marion Center, MA 02738, USA","id":16409,"name":"origin","lat":"41.7001043","lon":"-70.7628129","hops":{"incoming":[],"outgoing":[{"transport_id":null,"id":"11720","transport_name":null,"transport_description":null,"transport_unit":null,"transport_co2_eq":null,"from_stop_id":"16409","from_stop_lat":"41.7001043","from_stop_lon":"-70.7628129","from_stop_placename":"Marion, Marion Center, MA 02738, USA","to_stop_id":"16407","to_stop_name":"origin","to_stop_lat":"42.3726399","to_stop_lon":"-71.1096528","to_stop_placename":"Cambridge, MA, USA","to_stop":{"id":"16407","name":"origin","lat":"42.3726399","lon":"-71.1096528","placename":"Cambridge, MA, USA"},"from_stop":{"name":"origin","id":"16409","lat":"41.7001043","lon":"-70.7628129","placename":"Marion, Marion Center, MA 02738, USA"}}]}}},"processes":[],"eols":[]},{"oid":"1350","imid":"7746","linkid":"0","weight":"0","rawemissions":"0","emissions":"0","shipping":"85.34","processemissions":"0","endoflifeemissions":"0","disposaltype":null,"disposalenergy":null,"disposalimpact":null,"disposalemissions":null,"description":"","name":"Lavender, Eva's Greens","id":"7746","stops":{"origin":{"related_to":"7746","part_or_object":"p","notes":null,"placename":"Dartmouth, MA, USA","id":16410,"name":"origin","lat":"41.6130323","lon":"-70.9704787","hops":{"incoming":[],"outgoing":[{"transport_id":null,"id":"11721","transport_name":null,"transport_description":null,"transport_unit":null,"transport_co2_eq":null,"from_stop_id":"16410","from_stop_lat":"41.6130323","from_stop_lon":"-70.9704787","from_stop_placename":"Dartmouth, MA, USA","to_stop_id":"16407","to_stop_name":"origin","to_stop_lat":"42.3726399","to_stop_lon":"-71.1096528","to_stop_placename":"Cambridge, MA, USA","to_stop":{"id":"16407","name":"origin","lat":"42.3726399","lon":"-71.1096528","placename":"Cambridge, MA, USA"},"from_stop":{"name":"origin","id":"16410","lat":"41.6130323","lon":"-70.9704787","placename":"Dartmouth, MA, USA"}}]}}},"processes":[],"eols":[]},{"oid":"1350","imid":"7747","linkid":"0","weight":"0","rawemissions":"0","emissions":"0","shipping":"4.4","processemissions":"0","endoflifeemissions":"0","disposaltype":null,"disposalenergy":null,"disposalimpact":null,"disposalemissions":null,"description":"","name":"Jonah Crab","id":"7747","stops":{"origin":{"related_to":"7747","part_or_object":"p","notes":null,"placename":"Boston, MA, USA","id":16411,"name":"origin","lat":"42.3584308","lon":"-71.0597732","hops":{"incoming":[],"outgoing":[{"transport_id":null,"id":"11722","transport_name":null,"transport_description":null,"transport_unit":null,"transport_co2_eq":null,"from_stop_id":"16411","from_stop_lat":"42.3584308","from_stop_lon":"-71.0597732","from_stop_placename":"Boston, MA, USA","to_stop_id":"16407","to_stop_name":"origin","to_stop_lat":"42.3726399","to_stop_lon":"-71.1096528","to_stop_placename":"Cambridge, MA, USA","to_stop":{"id":"16407","name":"origin","lat":"42.3726399","lon":"-71.1096528","placename":"Cambridge, MA, USA"},"from_stop":{"name":"origin","id":"16411","lat":"42.3584308","lon":"-71.0597732","placename":"Boston, MA, USA"}}]}}},"processes":[],"eols":[]},{"oid":"1350","imid":"7748","linkid":"0","weight":"0","rawemissions":"0","emissions":"0","shipping":"85.34","processemissions":"0","endoflifeemissions":"0","disposaltype":null,"disposalenergy":null,"disposalimpact":null,"disposalemissions":null,"description":"","name":"Pea Tips","id":"7748","stops":{"origin":{"related_to":"7748","part_or_object":"p","notes":null,"placename":"Dartmouth, MA, USA","id":16412,"name":"origin","lat":"41.6130323","lon":"-70.9704787","hops":{"incoming":[],"outgoing":[{"transport_id":null,"id":"11723","transport_name":null,"transport_description":null,"transport_unit":null,"transport_co2_eq":null,"from_stop_id":"16412","from_stop_lat":"41.6130323","from_stop_lon":"-70.9704787","from_stop_placename":"Dartmouth, MA, USA","to_stop_id":"16407","to_stop_name":"origin","to_stop_lat":"42.3726399","to_stop_lon":"-71.1096528","to_stop_placename":"Cambridge, MA, USA","to_stop":{"id":"16407","name":"origin","lat":"42.3726399","lon":"-71.1096528","placename":"Cambridge, MA, USA"},"from_stop":{"name":"origin","id":"16412","lat":"41.6130323","lon":"-70.9704787","placename":"Dartmouth, MA, USA"}}]}}},"processes":[],"eols":[]},{"oid":"1350","imid":"7749","linkid":"0","weight":"0","rawemissions":"0","emissions":"0","shipping":"493.13","processemissions":"0","endoflifeemissions":"0","disposaltype":null,"disposalenergy":null,"disposalimpact":null,"disposalemissions":null,"description":"","name":"Freebird Chicken","id":"7749","stops":{"origin":{"related_to":"7749","part_or_object":"p","notes":null,"placename":"Fredericksburg, PA, USA","id":16413,"name":"origin","lat":"40.4437018","lon":"-76.4282933","hops":{"incoming":[],"outgoing":[{"transport_id":null,"id":"11724","transport_name":null,"transport_description":null,"transport_unit":null,"transport_co2_eq":null,"from_stop_id":"16413","from_stop_lat":"40.4437018","from_stop_lon":"-76.4282933","from_stop_placename":"Fredericksburg, PA, USA","to_stop_id":"16407","to_stop_name":"origin","to_stop_lat":"42.3726399","to_stop_lon":"-71.1096528","to_stop_placename":"Cambridge, MA, USA","to_stop":{"id":"16407","name":"origin","lat":"42.3726399","lon":"-71.1096528","placename":"Cambridge, MA, USA"},"from_stop":{"name":"origin","id":"16413","lat":"40.4437018","lon":"-76.4282933","placename":"Fredericksburg, PA, USA"}}]}}},"processes":[],"eols":[]},{"oid":"1350","imid":"7750","linkid":"0","weight":"0","rawemissions":"0","emissions":"0","shipping":"125.58","processemissions":"0","endoflifeemissions":"0","disposaltype":null,"disposalenergy":null,"disposalimpact":null,"disposalemissions":null,"description":"","name":"Potatoes","id":"7750","stops":{"origin":{"related_to":"7750","part_or_object":"p","notes":null,"placename":"Whately, MA 01373, USA","id":16414,"name":"origin","lat":"42.4398101","lon":"-72.6348118","hops":{"incoming":[],"outgoing":[{"transport_id":null,"id":"11725","transport_name":null,"transport_description":null,"transport_unit":null,"transport_co2_eq":null,"from_stop_id":"16414","from_stop_lat":"42.4398101","from_stop_lon":"-72.6348118","from_stop_placename":"Whately, MA 01373, USA","to_stop_id":"16407","to_stop_name":"origin","to_stop_lat":"42.3726399","to_stop_lon":"-71.1096528","to_stop_placename":"Cambridge, MA, USA","to_stop":{"id":"16407","name":"origin","lat":"42.3726399","lon":"-71.1096528","placename":"Cambridge, MA, USA"},"from_stop":{"name":"origin","id":"16414","lat":"42.4398101","lon":"-72.6348118","placename":"Whately, MA 01373, USA"}}]}}},"processes":[],"eols":[]},{"oid":"1350","imid":"7751","linkid":"0","weight":"0","rawemissions":"0","emissions":"0","shipping":"40.62","processemissions":"0","endoflifeemissions":"0","disposaltype":null,"disposalenergy":null,"disposalimpact":null,"disposalemissions":null,"description":"","name":"Lobster","id":"7751","stops":{"origin":{"related_to":"7751","part_or_object":"p","notes":null,"placename":"Ipswich, MA, USA","id":16415,"name":"origin","lat":"42.6792602","lon":"-70.8411612","hops":{"incoming":[],"outgoing":[{"transport_id":null,"id":"11726","transport_name":null,"transport_description":null,"transport_unit":null,"transport_co2_eq":null,"from_stop_id":"16415","from_stop_lat":"42.6792602","from_stop_lon":"-70.8411612","from_stop_placename":"Ipswich, MA, USA","to_stop_id":"16407","to_stop_name":"origin","to_stop_lat":"42.3726399","to_stop_lon":"-71.1096528","to_stop_placename":"Cambridge, MA, USA","to_stop":{"id":"16407","name":"origin","lat":"42.3726399","lon":"-71.1096528","placename":"Cambridge, MA, USA"},"from_stop":{"name":"origin","id":"16415","lat":"42.6792602","lon":"-70.8411612","placename":"Ipswich, MA, USA"}}]}}},"processes":[],"eols":[]},{"oid":"1350","imid":"7752","linkid":"0","weight":"0","rawemissions":"0","emissions":"0","shipping":"0","processemissions":"0","endoflifeemissions":"0","disposaltype":null,"disposalenergy":null,"disposalimpact":null,"disposalemissions":null,"description":"","name":"Croiassant","id":"7752","stops":{"origin":{"related_to":"7752","part_or_object":"p","notes":null,"placename":"Cambridge, MA, USA","id":16416,"name":"origin","lat":"42.3726399","lon":"-71.1096528","hops":{"incoming":[],"outgoing":[{"transport_id":null,"id":"11727","transport_name":null,"transport_description":null,"transport_unit":null,"transport_co2_eq":null,"from_stop_id":"16416","from_stop_lat":"42.3726399","from_stop_lon":"-71.1096528","from_stop_placename":"Cambridge, MA, USA","to_stop_id":"16407","to_stop_name":"origin","to_stop_lat":"42.3726399","to_stop_lon":"-71.1096528","to_stop_placename":"Cambridge, MA, USA","to_stop":{"id":"16407","name":"origin","lat":"42.3726399","lon":"-71.1096528","placename":"Cambridge, MA, USA"},"from_stop":{"name":"origin","id":"16416","lat":"42.3726399","lon":"-71.1096528","placename":"Cambridge, MA, USA"}}]}}},"processes":[],"eols":[]},{"oid":"1350","imid":"7753","linkid":"0","weight":"0","rawemissions":"0","emissions":"0","shipping":"43.98","processemissions":"0","endoflifeemissions":"0","disposaltype":null,"disposalenergy":null,"disposalimpact":null,"disposalemissions":null,"description":"","name":"Beef","id":"7753","stops":{"origin":{"related_to":"7753","part_or_object":"p","notes":null,"placename":"Bridgewater, MA 02324, USA","id":16417,"name":"origin","lat":"41.9903787","lon":"-70.9750426","hops":{"incoming":[],"outgoing":[{"transport_id":null,"id":"11728","transport_name":null,"transport_description":null,"transport_unit":null,"transport_co2_eq":null,"from_stop_id":"16417","from_stop_lat":"41.9903787","from_stop_lon":"-70.9750426","from_stop_placename":"Bridgewater, MA 02324, USA","to_stop_id":"16407","to_stop_name":"origin","to_stop_lat":"42.3726399","to_stop_lon":"-71.1096528","to_stop_placename":"Cambridge, MA, USA","to_stop":{"id":"16407","name":"origin","lat":"42.3726399","lon":"-71.1096528","placename":"Cambridge, MA, USA"},"from_stop":{"name":"origin","id":"16417","lat":"41.9903787","lon":"-70.9750426","placename":"Bridgewater, MA 02324, USA"}}]}}},"processes":[],"eols":[]},{"oid":"1350","imid":"7754","linkid":"0","weight":"0","rawemissions":"0","emissions":"0","shipping":"178.44","processemissions":"0","endoflifeemissions":"0","disposaltype":null,"disposalenergy":null,"disposalimpact":null,"disposalemissions":null,"description":"","name":"King Arthur Flour","id":"7754","stops":{"origin":{"related_to":"7754","part_or_object":"p","notes":null,"placename":"Norwich, VT 05055, USA","id":16418,"name":"origin","lat":"43.7153482","lon":"-72.307869","hops":{"incoming":[],"outgoing":[{"transport_id":null,"id":"11729","transport_name":null,"transport_description":null,"transport_unit":null,"transport_co2_eq":null,"from_stop_id":"16418","from_stop_lat":"43.7153482","from_stop_lon":"-72.307869","from_stop_placename":"Norwich, VT 05055, USA","to_stop_id":"16407","to_stop_name":"origin","to_stop_lat":"42.3726399","to_stop_lon":"-71.1096528","to_stop_placename":"Cambridge, MA, USA","to_stop":{"id":"16407","name":"origin","lat":"42.3726399","lon":"-71.1096528","placename":"Cambridge, MA, USA"},"from_stop":{"name":"origin","id":"16418","lat":"43.7153482","lon":"-72.307869","placename":"Norwich, VT 05055, USA"}}]}}},"processes":[],"eols":[]},{"oid":"1350","imid":"7755","linkid":"0","weight":"0","rawemissions":"0","emissions":"0","shipping":"126.11","processemissions":"0","endoflifeemissions":"0","disposaltype":null,"disposalenergy":null,"disposalimpact":null,"disposalemissions":null,"description":"","name":"Wild Mushrooms","id":"7755","stops":{"origin":{"related_to":"7755","part_or_object":"p","notes":null,"placename":"Northampton, MA, USA","id":16419,"name":"origin","lat":"42.3250896","lon":"-72.6412013","hops":{"incoming":[],"outgoing":[{"transport_id":null,"id":"11730","transport_name":null,"transport_description":null,"transport_unit":null,"transport_co2_eq":null,"from_stop_id":"16419","from_stop_lat":"42.3250896","from_stop_lon":"-72.6412013","from_stop_placename":"Northampton, MA, USA","to_stop_id":"16407","to_stop_name":"origin","to_stop_lat":"42.3726399","to_stop_lon":"-71.1096528","to_stop_placename":"Cambridge, MA, USA","to_stop":{"id":"16407","name":"origin","lat":"42.3726399","lon":"-71.1096528","placename":"Cambridge, MA, USA"},"from_stop":{"name":"origin","id":"16419","lat":"42.3250896","lon":"-72.6412013","placename":"Northampton, MA, USA"}}]}}},"processes":[],"eols":[]},{"oid":"1350","imid":"7756","linkid":"0","weight":"0","rawemissions":"0","emissions":"0","shipping":"133.37","processemissions":"0","endoflifeemissions":"0","disposaltype":null,"disposalenergy":null,"disposalimpact":null,"disposalemissions":null,"description":"","name":"Fiddlehead Tomme","id":"7756","stops":{"origin":{"related_to":"7756","part_or_object":"p","notes":null,"placename":"Walpole, NH, USA","id":16420,"name":"origin","lat":"43.084579","lon":"-72.421547","hops":{"incoming":[],"outgoing":[{"transport_id":null,"id":"11731","transport_name":null,"transport_description":null,"transport_unit":null,"transport_co2_eq":null,"from_stop_id":"16420","from_stop_lat":"43.084579","from_stop_lon":"-72.421547","from_stop_placename":"Walpole, NH, USA","to_stop_id":"16407","to_stop_name":"origin","to_stop_lat":"42.3726399","to_stop_lon":"-71.1096528","to_stop_placename":"Cambridge, MA, USA","to_stop":{"id":"16407","name":"origin","lat":"42.3726399","lon":"-71.1096528","placename":"Cambridge, MA, USA"},"from_stop":{"name":"origin","id":"16420","lat":"43.084579","lon":"-72.421547","placename":"Walpole, NH, USA"}}]}}},"processes":[],"eols":[]},{"oid":"1350","imid":"7757","linkid":"0","weight":"0","rawemissions":"0","emissions":"0","shipping":"125.58","processemissions":"0","endoflifeemissions":"0","disposaltype":null,"disposalenergy":null,"disposalimpact":null,"disposalemissions":null,"description":"","name":"Cabbage","id":"7757","stops":{"origin":{"related_to":"7757","part_or_object":"p","notes":null,"placename":"Whately, MA 01373, USA","id":16421,"name":"origin","lat":"42.4398101","lon":"-72.6348118","hops":{"incoming":[],"outgoing":[{"transport_id":null,"id":"11732","transport_name":null,"transport_description":null,"transport_unit":null,"transport_co2_eq":null,"from_stop_id":"16421","from_stop_lat":"42.4398101","from_stop_lon":"-72.6348118","from_stop_placename":"Whately, MA 01373, USA","to_stop_id":"16407","to_stop_name":"origin","to_stop_lat":"42.3726399","to_stop_lon":"-71.1096528","to_stop_placename":"Cambridge, MA, USA","to_stop":{"id":"16407","name":"origin","lat":"42.3726399","lon":"-71.1096528","placename":"Cambridge, MA, USA"},"from_stop":{"name":"origin","id":"16421","lat":"42.4398101","lon":"-72.6348118","placename":"Whately, MA 01373, USA"}}]}}},"processes":[],"eols":[]}],"user":{"name":"seasontotaste","id":"13587"}}}