{"1397":{"oid":"1397","type":"travel","flag":"","creator":"6841","name":"All Hands Meeting","upc":"","imagelink":"","description":"This is a travel avoidance map.   TelePresence and other virtual collaboration tools were used from each of these locations to conduct this Global \"all-hands\" meeting, physically facilitated in Shanghai with virtual high-def participation and live presentations from each of the indicated locations.  ","slug":"all-hands-meeting","category":"","weight":"0","emissions":"0","embodied":"0","transport":"0","process":"0","endoflife":"0","shipping":"24638.9","lifetime":"0","usagetype":"","usageenergy":"0","usageemissions":"0","timecreated":"2010-02-24 22:03:35.774976","timemodified":"2009-10-23 19:45:01","visibility":"public","showfootprint":"on","showembodied":"on","showtransport":"on","showprocess":"on","showendoflife":"on","showlastleg":"on","showuse":"on","showstats":"on","stops":{"origin":{"related_to":"1397","part_or_object":"o","notes":"","placename":"Shanghai, China","id":"252","category":"1","lat":"31.230708","lon":"121.472916","name":"origin","hops":{"incoming":[{"transport_id":"14","id":"1000","transport_name":"air, passenger, intercontinental","transport_description":"intercontinental, kg km from person-km","transport_unit":"kg km","transport_co2_eq":"1.189000","from_stop_id":"3252","from_stop_lat":"37.3393857","from_stop_lon":"-121.8949555","to_stop_id":"252","to_stop_name":"origin","to_stop_lat":"31.230708","placename":"San Jose, CA, USA","to_stop_lon":"121.472916","to_stop":{"id":"252","name":"origin","lat":"31.230708","placename":"Shanghai, China","lon":"121.472916"},"from_stop":{"name":"origin","id":"3252","lat":"37.3393857","lon":"-121.8949555","placename":"San Jose, CA, USA"}},{"transport_id":"13","id":"1001","transport_name":"air, passenger, regional","transport_description":"within one continent, kg km from person-km","transport_unit":"kg km","transport_co2_eq":"2.262000","from_stop_id":"3253","from_stop_lat":"35.6894875","from_stop_lon":"139.6917064","to_stop_id":"252","to_stop_name":"origin","to_stop_lat":"31.230708","placename":"T?ky? Metropolis, Japan","to_stop_lon":"121.472916","to_stop":{"id":"252","name":"origin","lat":"31.230708","placename":"Shanghai, China","lon":"121.472916"},"from_stop":{"name":"origin","id":"3253","lat":"35.6894875","lon":"139.6917064","placename":"T?ky? Metropolis, Japan"}},{"transport_id":"14","id":"1002","transport_name":"air, passenger, intercontinental","transport_description":"intercontinental, kg km from person-km","transport_unit":"kg km","transport_co2_eq":"1.189000","from_stop_id":"3254","from_stop_lat":"-33.838265","from_stop_lon":"151.206481","to_stop_id":"252","to_stop_name":"origin","to_stop_lat":"31.230708","placename":"North Sydney NSW, Australia","to_stop_lon":"121.472916","to_stop":{"id":"252","name":"origin","lat":"31.230708","placename":"Shanghai, China","lon":"121.472916"},"from_stop":{"name":"origin","id":"3254","lat":"-33.838265","lon":"151.206481","placename":"North Sydney NSW, Australia"}},{"transport_id":"15","id":"1003","transport_name":"air, freight, regional","transport_description":"freight within one continent","transport_unit":"kg km","transport_co2_eq":"0.787500","from_stop_id":"3255","from_stop_lat":"1.352083","from_stop_lon":"103.819836","to_stop_id":"252","to_stop_name":"origin","to_stop_lat":"31.230708","placename":"Singapore","to_stop_lon":"121.472916","to_stop":{"id":"252","name":"origin","lat":"31.230708","placename":"Shanghai, China","lon":"121.472916"},"from_stop":{"name":"origin","id":"3255","lat":"1.352083","lon":"103.819836","placename":"Singapore"}},{"transport_id":"13","id":"1004","transport_name":"air, passenger, regional","transport_description":"within one continent, kg km from person-km","transport_unit":"kg km","transport_co2_eq":"2.262000","from_stop_id":"3256","from_stop_lat":"22.396428","from_stop_lon":"114.109497","to_stop_id":"252","to_stop_name":"origin","to_stop_lat":"31.230708","placename":"Hong Kong","to_stop_lon":"121.472916","to_stop":{"id":"252","name":"origin","lat":"31.230708","placename":"Shanghai, China","lon":"121.472916"},"from_stop":{"name":"origin","id":"3256","lat":"22.396428","lon":"114.109497","placename":"Hong Kong"}}],"outgoing":[]}}},"parts":[{"oid":"1397","imid":"1194","linkid":"","weight":"0","rawemissions":"0","emissions":"0","shipping":"9956.67","processemissions":null,"endoflifeemissions":null,"disposaltype":null,"disposalenergy":null,"disposalimpact":null,"disposalemissions":null,"description":"","name":"1000","id":"1194","stops":{"origin":{"related_to":"1194","part_or_object":"p","notes":"","placename":"San Jose, CA, USA","id":3252,"name":"origin","lat":"37.3393857","lon":"-121.8949555","hops":{"incoming":[],"outgoing":[{"transport_id":"14","id":"1000","transport_name":"air, passenger, intercontinental","transport_description":"intercontinental, kg km from person-km","transport_unit":"kg km","transport_co2_eq":"1.189000","from_stop_id":"3252","from_stop_lat":"37.3393857","from_stop_lon":"-121.8949555","from_stop_placename":"San Jose, CA, USA","to_stop_id":"252","to_stop_name":"origin","to_stop_lat":"31.230708","to_stop_lon":"121.472916","to_stop_placename":"Shanghai, China","to_stop":{"id":"252","name":"origin","lat":"31.230708","lon":"121.472916","placename":"Shanghai, China"},"from_stop":{"name":"origin","id":"3252","lat":"37.3393857","lon":"-121.8949555","placename":"San Jose, CA, USA"}}]}}},"processes":[],"eols":[]},{"oid":"1397","imid":"1195","linkid":"","weight":"0","rawemissions":"0","emissions":"0","shipping":"1760.25","processemissions":null,"endoflifeemissions":null,"disposaltype":null,"disposalenergy":null,"disposalimpact":null,"disposalemissions":null,"description":"","name":"10","id":"1195","stops":{"origin":{"related_to":"1195","part_or_object":"p","notes":"","placename":"T?ky? Metropolis, Japan","id":3253,"name":"origin","lat":"35.6894875","lon":"139.6917064","hops":{"incoming":[],"outgoing":[{"transport_id":"13","id":"1001","transport_name":"air, passenger, regional","transport_description":"within one continent, kg km from person-km","transport_unit":"kg km","transport_co2_eq":"2.262000","from_stop_id":"3253","from_stop_lat":"35.6894875","from_stop_lon":"139.6917064","from_stop_placename":"T?ky? Metropolis, Japan","to_stop_id":"252","to_stop_name":"origin","to_stop_lat":"31.230708","to_stop_lon":"121.472916","to_stop_placename":"Shanghai, China","to_stop":{"id":"252","name":"origin","lat":"31.230708","lon":"121.472916","placename":"Shanghai, China"},"from_stop":{"name":"origin","id":"3253","lat":"35.6894875","lon":"139.6917064","placename":"T?ky? Metropolis, Japan"}}]}}},"processes":[],"eols":[]},{"oid":"1397","imid":"1196","linkid":"","weight":"0","rawemissions":"0","emissions":"0","shipping":"7887.16","processemissions":null,"endoflifeemissions":null,"disposaltype":null,"disposalenergy":null,"disposalimpact":null,"disposalemissions":null,"description":"","name":"10","id":"1196","stops":{"origin":{"related_to":"1196","part_or_object":"p","notes":"","placename":"North Sydney NSW, Australia","id":3254,"name":"origin","lat":"-33.838265","lon":"151.206481","hops":{"incoming":[],"outgoing":[{"transport_id":"14","id":"1002","transport_name":"air, passenger, intercontinental","transport_description":"intercontinental, kg km from person-km","transport_unit":"kg km","transport_co2_eq":"1.189000","from_stop_id":"3254","from_stop_lat":"-33.838265","from_stop_lon":"151.206481","from_stop_placename":"North Sydney NSW, Australia","to_stop_id":"252","to_stop_name":"origin","to_stop_lat":"31.230708","to_stop_lon":"121.472916","to_stop_placename":"Shanghai, China","to_stop":{"id":"252","name":"origin","lat":"31.230708","lon":"121.472916","placename":"Shanghai, China"},"from_stop":{"name":"origin","id":"3254","lat":"-33.838265","lon":"151.206481","placename":"North Sydney NSW, Australia"}}]}}},"processes":[],"eols":[]},{"oid":"1397","imid":"1197","linkid":"","weight":"0","rawemissions":"0","emissions":"0","shipping":"3809.99","processemissions":null,"endoflifeemissions":null,"disposaltype":null,"disposalenergy":null,"disposalimpact":null,"disposalemissions":null,"description":"","name":"10","id":"1197","stops":{"origin":{"related_to":"1197","part_or_object":"p","notes":"","placename":"Singapore","id":3255,"name":"origin","lat":"1.352083","lon":"103.819836","hops":{"incoming":[],"outgoing":[{"transport_id":"15","id":"1003","transport_name":"air, freight, regional","transport_description":"freight within one continent","transport_unit":"kg km","transport_co2_eq":"0.787500","from_stop_id":"3255","from_stop_lat":"1.352083","from_stop_lon":"103.819836","from_stop_placename":"Singapore","to_stop_id":"252","to_stop_name":"origin","to_stop_lat":"31.230708","to_stop_lon":"121.472916","to_stop_placename":"Shanghai, China","to_stop":{"id":"252","name":"origin","lat":"31.230708","lon":"121.472916","placename":"Shanghai, China"},"from_stop":{"name":"origin","id":"3255","lat":"1.352083","lon":"103.819836","placename":"Singapore"}}]}}},"processes":[],"eols":[]},{"oid":"1397","imid":"1198","linkid":"","weight":"0","rawemissions":"0","emissions":"0","shipping":"1224.86","processemissions":null,"endoflifeemissions":null,"disposaltype":null,"disposalenergy":null,"disposalimpact":null,"disposalemissions":null,"description":"","name":"100","id":"1198","stops":{"origin":{"related_to":"1198","part_or_object":"p","notes":"","placename":"Hong Kong","id":3256,"name":"origin","lat":"22.396428","lon":"114.109497","hops":{"incoming":[],"outgoing":[{"transport_id":"13","id":"1004","transport_name":"air, passenger, regional","transport_description":"within one continent, kg km from person-km","transport_unit":"kg km","transport_co2_eq":"2.262000","from_stop_id":"3256","from_stop_lat":"22.396428","from_stop_lon":"114.109497","from_stop_placename":"Hong Kong","to_stop_id":"252","to_stop_name":"origin","to_stop_lat":"31.230708","to_stop_lon":"121.472916","to_stop_placename":"Shanghai, China","to_stop":{"id":"252","name":"origin","lat":"31.230708","lon":"121.472916","placename":"Shanghai, China"},"from_stop":{"name":"origin","id":"3256","lat":"22.396428","lon":"114.109497","placename":"Hong Kong"}}]}}},"processes":[],"eols":[]}],"user":{"name":"mkading","id":"6841"}}}