{"1408":{"oid":"1408","type":"trace","flag":"","creator":"13741","name":"iPhone 4","upc":"","imagelink":"","description":"Assembled by Foxconn Technology Group.","slug":"iPhone-4-1","category":"","weight":"0","emissions":"0","embodied":"0","transport":"0","process":null,"endoflife":null,"shipping":"71276.52","lifetime":null,"usagetype":"","usageenergy":null,"usageemissions":null,"timecreated":"2011-07-12 17:31:17","timemodified":"2011-07-12 18:04:11","visibility":"public","showfootprint":"on","showembodied":"on","showtransport":"on","showprocess":"on","showendoflife":"on","showlastleg":"on","showuse":"on","showstats":"on","stops":{"origin":{"related_to":"1408","part_or_object":"o","notes":null,"placename":"Shenzhen, Guangdong, China","id":"16946","category":"1","lat":"22.543099","lon":"114.057868","name":"origin","hops":{"incoming":[{"transport_id":null,"id":"12131","transport_name":null,"transport_description":null,"transport_unit":null,"transport_co2_eq":null,"from_stop_id":"16947","from_stop_lat":"23.129163","from_stop_lon":"113.264435","to_stop_id":"16946","to_stop_name":"origin","to_stop_lat":"22.543099","placename":"Guangzhou, Guangdong, China","to_stop_lon":"114.057868","to_stop":{"id":"16946","name":"origin","lat":"22.543099","placename":"Shenzhen, Guangdong, China","lon":"114.057868"},"from_stop":{"name":"origin","id":"16947","lat":"23.129163","lon":"113.264435","placename":"Guangzhou, Guangdong, China"}},{"transport_id":null,"id":"12132","transport_name":null,"transport_description":null,"transport_unit":null,"transport_co2_eq":null,"from_stop_id":"16948","from_stop_lat":"34.6112219","from_stop_lon":"127.284978","to_stop_id":"16946","to_stop_name":"origin","to_stop_lat":"22.543099","placename":"Goheung-gun, Jeollanam-do, South Korea","to_stop_lon":"114.057868","to_stop":{"id":"16946","name":"origin","lat":"22.543099","placename":"Shenzhen, Guangdong, China","lon":"114.057868"},"from_stop":{"name":"origin","id":"16948","lat":"34.6112219","lon":"127.284978","placename":"Goheung-gun, Jeollanam-do, South Korea"}},{"transport_id":null,"id":"12133","transport_name":null,"transport_description":null,"transport_unit":null,"transport_co2_eq":null,"from_stop_id":"16949","from_stop_lat":"46.1983922","from_stop_lon":"6.1422961","to_stop_id":"16946","to_stop_name":"origin","to_stop_lat":"22.543099","placename":"Geneva, Switzerland","to_stop_lon":"114.057868","to_stop":{"id":"16946","name":"origin","lat":"22.543099","placename":"Shenzhen, Guangdong, China","lon":"114.057868"},"from_stop":{"name":"origin","id":"16949","lat":"46.1983922","lon":"6.1422961","placename":"Geneva, Switzerland"}},{"transport_id":null,"id":"12134","transport_name":null,"transport_description":null,"transport_unit":null,"transport_co2_eq":null,"from_stop_id":"16950","from_stop_lat":"32.802955","from_stop_lon":"-96.769923","to_stop_id":"16946","to_stop_name":"origin","to_stop_lat":"22.543099","placename":"Dallas, TX, USA","to_stop_lon":"114.057868","to_stop":{"id":"16946","name":"origin","lat":"22.543099","placename":"Shenzhen, Guangdong, China","lon":"114.057868"},"from_stop":{"name":"origin","id":"16950","lat":"32.802955","lon":"-96.769923","placename":"Dallas, TX, USA"}},{"transport_id":null,"id":"12135","transport_name":null,"transport_description":null,"transport_unit":null,"transport_co2_eq":null,"from_stop_id":"16951","from_stop_lat":"30.267153","from_stop_lon":"-97.7430608","to_stop_id":"16946","to_stop_name":"origin","to_stop_lat":"22.543099","placename":"Austin, TX, USA","to_stop_lon":"114.057868","to_stop":{"id":"16946","name":"origin","lat":"22.543099","placename":"Shenzhen, Guangdong, China","lon":"114.057868"},"from_stop":{"name":"origin","id":"16951","lat":"30.267153","lon":"-97.7430608","placename":"Austin, TX, USA"}},{"transport_id":null,"id":"12136","transport_name":null,"transport_description":null,"transport_unit":null,"transport_co2_eq":null,"from_stop_id":"16952","from_stop_lat":"30.267153","from_stop_lon":"-97.7430608","to_stop_id":"16946","to_stop_name":"origin","to_stop_lat":"22.543099","placename":"Austin, TX, USA","to_stop_lon":"114.057868","to_stop":{"id":"16946","name":"origin","lat":"22.543099","placename":"Shenzhen, Guangdong, China","lon":"114.057868"},"from_stop":{"name":"origin","id":"16952","lat":"30.267153","lon":"-97.7430608","placename":"Austin, TX, USA"}},{"transport_id":null,"id":"12137","transport_name":null,"transport_description":null,"transport_unit":null,"transport_co2_eq":null,"from_stop_id":"16953","from_stop_lat":"1.352083","from_stop_lon":"103.819836","to_stop_id":"16946","to_stop_name":"origin","to_stop_lat":"22.543099","placename":"Singapore","to_stop_lon":"114.057868","to_stop":{"id":"16946","name":"origin","lat":"22.543099","placename":"Shenzhen, Guangdong, China","lon":"114.057868"},"from_stop":{"name":"origin","id":"16953","lat":"1.352083","lon":"103.819836","placename":"Singapore"}},{"transport_id":null,"id":"12138","transport_name":null,"transport_description":null,"transport_unit":null,"transport_co2_eq":null,"from_stop_id":"16954","from_stop_lat":"34.1841719","from_stop_lon":"-118.9106525","to_stop_id":"16946","to_stop_name":"origin","to_stop_lat":"22.543099","placename":"Newbury Park, Thousand Oaks, CA, USA","to_stop_lon":"114.057868","to_stop":{"id":"16946","name":"origin","lat":"22.543099","placename":"Shenzhen, Guangdong, China","lon":"114.057868"},"from_stop":{"name":"origin","id":"16954","lat":"34.1841719","lon":"-118.9106525","placename":"Newbury Park, Thousand Oaks, CA, USA"}},{"transport_id":null,"id":"12139","transport_name":null,"transport_description":null,"transport_unit":null,"transport_co2_eq":null,"from_stop_id":"16955","from_stop_lat":"28.16379","from_stop_lon":"113.64328","to_stop_id":"16946","to_stop_name":"origin","to_stop_lat":"22.543099","placename":"Liuyang, Changsha, Hunan, China","to_stop_lon":"114.057868","to_stop":{"id":"16946","name":"origin","lat":"22.543099","placename":"Shenzhen, Guangdong, China","lon":"114.057868"},"from_stop":{"name":"origin","id":"16955","lat":"28.16379","lon":"113.64328","placename":"Liuyang, Changsha, Hunan, China"}},{"transport_id":null,"id":"12140","transport_name":null,"transport_description":null,"transport_unit":null,"transport_co2_eq":null,"from_stop_id":"16956","from_stop_lat":"37.7607226","from_stop_lon":"140.4733561","to_stop_id":"16946","to_stop_name":"origin","to_stop_lat":"22.543099","placename":"Fukushima, Fukushima Prefecture, Japan","to_stop_lon":"114.057868","to_stop":{"id":"16946","name":"origin","lat":"22.543099","placename":"Shenzhen, Guangdong, China","lon":"114.057868"},"from_stop":{"name":"origin","id":"16956","lat":"37.7607226","lon":"140.4733561","placename":"Fukushima, Fukushima Prefecture, Japan"}},{"transport_id":null,"id":"12141","transport_name":null,"transport_description":null,"transport_unit":null,"transport_co2_eq":null,"from_stop_id":"16957","from_stop_lat":"31.230393","from_stop_lon":"121.473704","to_stop_id":"16946","to_stop_name":"origin","to_stop_lat":"22.543099","placename":"Shanghai, China","to_stop_lon":"114.057868","to_stop":{"id":"16946","name":"origin","lat":"22.543099","placename":"Shenzhen, Guangdong, China","lon":"114.057868"},"from_stop":{"name":"origin","id":"16957","lat":"31.230393","lon":"121.473704","placename":"Shanghai, China"}},{"transport_id":null,"id":"12142","transport_name":null,"transport_description":null,"transport_unit":null,"transport_co2_eq":null,"from_stop_id":"16958","from_stop_lat":"31.298886","from_stop_lon":"120.585316","to_stop_id":"16946","to_stop_name":"origin","to_stop_lat":"22.543099","placename":"Suzhou, Jiangsu, China","to_stop_lon":"114.057868","to_stop":{"id":"16946","name":"origin","lat":"22.543099","placename":"Shenzhen, Guangdong, China","lon":"114.057868"},"from_stop":{"name":"origin","id":"16958","lat":"31.298886","lon":"120.585316","placename":"Suzhou, Jiangsu, China"}},{"transport_id":null,"id":"12143","transport_name":null,"transport_description":null,"transport_unit":null,"transport_co2_eq":null,"from_stop_id":"16959","from_stop_lat":"22.543099","from_stop_lon":"114.057868","to_stop_id":"16946","to_stop_name":"origin","to_stop_lat":"22.543099","placename":"Shenzhen, Guangdong, China","to_stop_lon":"114.057868","to_stop":{"id":"16946","name":"origin","lat":"22.543099","placename":"Shenzhen, Guangdong, China","lon":"114.057868"},"from_stop":{"name":"origin","id":"16959","lat":"22.543099","lon":"114.057868","placename":"Shenzhen, Guangdong, China"}}],"outgoing":[]}}},"parts":[{"oid":"1408","imid":"7875","linkid":"0","weight":"0","rawemissions":"0","emissions":"0","shipping":"104.32","processemissions":"0","endoflifeemissions":"0","disposaltype":null,"disposalenergy":null,"disposalimpact":null,"disposalemissions":null,"description":"Retina Display made by LG Display, Headquartered in Seoul, South Korea.","name":"LG IPS LCD Display","id":"7875","stops":{"origin":{"related_to":"7875","part_or_object":"p","notes":null,"placename":"Guangzhou, Guangdong, China","id":16947,"name":"origin","lat":"23.129163","lon":"113.264435","hops":{"incoming":[],"outgoing":[{"transport_id":null,"id":"12131","transport_name":null,"transport_description":null,"transport_unit":null,"transport_co2_eq":null,"from_stop_id":"16947","from_stop_lat":"23.129163","from_stop_lon":"113.264435","from_stop_placename":"Guangzhou, Guangdong, China","to_stop_id":"16946","to_stop_name":"origin","to_stop_lat":"22.543099","to_stop_lon":"114.057868","to_stop_placename":"Shenzhen, Guangdong, China","to_stop":{"id":"16946","name":"origin","lat":"22.543099","lon":"114.057868","placename":"Shenzhen, Guangdong, China"},"from_stop":{"name":"origin","id":"16947","lat":"23.129163","lon":"113.264435","placename":"Guangzhou, Guangdong, China"}}]}}},"processes":[],"eols":[]},{"oid":"1408","imid":"7876","linkid":"0","weight":"0","rawemissions":"0","emissions":"0","shipping":"1861","processemissions":"0","endoflifeemissions":"0","disposaltype":null,"disposalenergy":null,"disposalimpact":null,"disposalemissions":null,"description":"ARM-based A4 processor built by Samsung Semiconductor, LTD.","name":"Samsung A4 ARM-based Processor","id":"7876","stops":{"origin":{"related_to":"7876","part_or_object":"p","notes":null,"placename":"Goheung-gun, Jeollanam-do, South Korea","id":16948,"name":"origin","lat":"34.6112219","lon":"127.284978","hops":{"incoming":[],"outgoing":[{"transport_id":null,"id":"12132","transport_name":null,"transport_description":null,"transport_unit":null,"transport_co2_eq":null,"from_stop_id":"16948","from_stop_lat":"34.6112219","from_stop_lon":"127.284978","from_stop_placename":"Goheung-gun, Jeollanam-do, South Korea","to_stop_id":"16946","to_stop_name":"origin","to_stop_lat":"22.543099","to_stop_lon":"114.057868","to_stop_placename":"Shenzhen, Guangdong, China","to_stop":{"id":"16946","name":"origin","lat":"22.543099","lon":"114.057868","placename":"Shenzhen, Guangdong, China"},"from_stop":{"name":"origin","id":"16948","lat":"34.6112219","lon":"127.284978","placename":"Goheung-gun, Jeollanam-do, South Korea"}}]}}},"processes":[],"eols":[]},{"oid":"1408","imid":"7877","linkid":"0","weight":"0","rawemissions":"0","emissions":"0","shipping":"9507.65","processemissions":"0","endoflifeemissions":"0","disposaltype":null,"disposalenergy":null,"disposalimpact":null,"disposalemissions":null,"description":"STMicroElectronics produced sensors.","name":"Gyroscope\/Accelorometer","id":"7877","stops":{"origin":{"related_to":"7877","part_or_object":"p","notes":null,"placename":"Geneva, Switzerland","id":16949,"name":"origin","lat":"46.1983922","lon":"6.1422961","hops":{"incoming":[],"outgoing":[{"transport_id":null,"id":"12133","transport_name":null,"transport_description":null,"transport_unit":null,"transport_co2_eq":null,"from_stop_id":"16949","from_stop_lat":"46.1983922","from_stop_lon":"6.1422961","from_stop_placename":"Geneva, Switzerland","to_stop_id":"16946","to_stop_name":"origin","to_stop_lat":"22.543099","to_stop_lon":"114.057868","to_stop_placename":"Shenzhen, Guangdong, China","to_stop":{"id":"16946","name":"origin","lat":"22.543099","lon":"114.057868","placename":"Shenzhen, Guangdong, China"},"from_stop":{"name":"origin","id":"16949","lat":"46.1983922","lon":"6.1422961","placename":"Geneva, Switzerland"}}]}}},"processes":[],"eols":[]},{"oid":"1408","imid":"7878","linkid":"0","weight":"0","rawemissions":"0","emissions":"0","shipping":"13059.82","processemissions":"0","endoflifeemissions":"0","disposaltype":null,"disposalenergy":null,"disposalimpact":null,"disposalemissions":null,"description":"Texas Instruments built controller unit.","name":"Touchscreen Controller Unit","id":"7878","stops":{"origin":{"related_to":"7878","part_or_object":"p","notes":null,"placename":"Dallas, TX, USA","id":16950,"name":"origin","lat":"32.802955","lon":"-96.769923","hops":{"incoming":[],"outgoing":[{"transport_id":null,"id":"12134","transport_name":null,"transport_description":null,"transport_unit":null,"transport_co2_eq":null,"from_stop_id":"16950","from_stop_lat":"32.802955","from_stop_lon":"-96.769923","from_stop_placename":"Dallas, TX, USA","to_stop_id":"16946","to_stop_name":"origin","to_stop_lat":"22.543099","to_stop_lon":"114.057868","to_stop_placename":"Shenzhen, Guangdong, China","to_stop":{"id":"16946","name":"origin","lat":"22.543099","lon":"114.057868","placename":"Shenzhen, Guangdong, China"},"from_stop":{"name":"origin","id":"16950","lat":"32.802955","lon":"-96.769923","placename":"Dallas, TX, USA"}}]}}},"processes":[],"eols":[]},{"oid":"1408","imid":"7879","linkid":"0","weight":"0","rawemissions":"0","emissions":"0","shipping":"13246.3","processemissions":"0","endoflifeemissions":"0","disposaltype":null,"disposalenergy":null,"disposalimpact":null,"disposalemissions":null,"description":"Samsung Semiconductor, LTD.","name":"Storage-based Flash Memory","id":"7879","stops":{"origin":{"related_to":"7879","part_or_object":"p","notes":null,"placename":"Austin, TX, USA","id":16951,"name":"origin","lat":"30.267153","lon":"-97.7430608","hops":{"incoming":[],"outgoing":[{"transport_id":null,"id":"12135","transport_name":null,"transport_description":null,"transport_unit":null,"transport_co2_eq":null,"from_stop_id":"16951","from_stop_lat":"30.267153","from_stop_lon":"-97.7430608","from_stop_placename":"Austin, TX, USA","to_stop_id":"16946","to_stop_name":"origin","to_stop_lat":"22.543099","to_stop_lon":"114.057868","to_stop_placename":"Shenzhen, Guangdong, China","to_stop":{"id":"16946","name":"origin","lat":"22.543099","lon":"114.057868","placename":"Shenzhen, Guangdong, China"},"from_stop":{"name":"origin","id":"16951","lat":"30.267153","lon":"-97.7430608","placename":"Austin, TX, USA"}}]}}},"processes":[],"eols":[]},{"oid":"1408","imid":"7880","linkid":"0","weight":"0","rawemissions":"0","emissions":"0","shipping":"13246.3","processemissions":"0","endoflifeemissions":"0","disposaltype":null,"disposalenergy":null,"disposalimpact":null,"disposalemissions":null,"description":"Samsung Semiconductor, LTD.","name":"DDR RAM Memory Module","id":"7880","stops":{"origin":{"related_to":"7880","part_or_object":"p","notes":null,"placename":"Austin, TX, USA","id":16952,"name":"origin","lat":"30.267153","lon":"-97.7430608","hops":{"incoming":[],"outgoing":[{"transport_id":null,"id":"12136","transport_name":null,"transport_description":null,"transport_unit":null,"transport_co2_eq":null,"from_stop_id":"16952","from_stop_lat":"30.267153","from_stop_lon":"-97.7430608","from_stop_placename":"Austin, TX, USA","to_stop_id":"16946","to_stop_name":"origin","to_stop_lat":"22.543099","to_stop_lon":"114.057868","to_stop_placename":"Shenzhen, Guangdong, China","to_stop":{"id":"16946","name":"origin","lat":"22.543099","lon":"114.057868","placename":"Shenzhen, Guangdong, China"},"from_stop":{"name":"origin","id":"16952","lat":"30.267153","lon":"-97.7430608","placename":"Austin, TX, USA"}}]}}},"processes":[],"eols":[]},{"oid":"1408","imid":"7881","linkid":"0","weight":"0","rawemissions":"0","emissions":"0","shipping":"2606.09","processemissions":"0","endoflifeemissions":"0","disposaltype":null,"disposalenergy":null,"disposalimpact":null,"disposalemissions":null,"description":"Broadcom produced, but manufactured by GlobalFoundries in Singapore.","name":"Broadcom GPS\/Wifi\/Bluetooth controller","id":"7881","stops":{"origin":{"related_to":"7881","part_or_object":"p","notes":null,"placename":"Singapore","id":16953,"name":"origin","lat":"1.352083","lon":"103.819836","hops":{"incoming":[],"outgoing":[{"transport_id":null,"id":"12137","transport_name":null,"transport_description":null,"transport_unit":null,"transport_co2_eq":null,"from_stop_id":"16953","from_stop_lat":"1.352083","from_stop_lon":"103.819836","from_stop_placename":"Singapore","to_stop_id":"16946","to_stop_name":"origin","to_stop_lat":"22.543099","to_stop_lon":"114.057868","to_stop_placename":"Shenzhen, Guangdong, China","to_stop":{"id":"16946","name":"origin","lat":"22.543099","lon":"114.057868","placename":"Shenzhen, Guangdong, China"},"from_stop":{"name":"origin","id":"16953","lat":"1.352083","lon":"103.819836","placename":"Singapore"}}]}}},"processes":[],"eols":[]},{"oid":"1408","imid":"7882","linkid":"0","weight":"0","rawemissions":"0","emissions":"0","shipping":"11595.73","processemissions":"0","endoflifeemissions":"0","disposaltype":null,"disposalenergy":null,"disposalimpact":null,"disposalemissions":null,"description":"Skyworks Solutions manu. FEM chipset\/receiver.\n","name":"GSM\/Quad-band Receiver","id":"7882","stops":{"origin":{"related_to":"7882","part_or_object":"p","notes":null,"placename":"Newbury Park, Thousand Oaks, CA, USA","id":16954,"name":"origin","lat":"34.1841719","lon":"-118.9106525","hops":{"incoming":[],"outgoing":[{"transport_id":null,"id":"12138","transport_name":null,"transport_description":null,"transport_unit":null,"transport_co2_eq":null,"from_stop_id":"16954","from_stop_lat":"34.1841719","from_stop_lon":"-118.9106525","from_stop_placename":"Newbury Park, Thousand Oaks, CA, USA","to_stop_id":"16946","to_stop_name":"origin","to_stop_lat":"22.543099","to_stop_lon":"114.057868","to_stop_placename":"Shenzhen, Guangdong, China","to_stop":{"id":"16946","name":"origin","lat":"22.543099","lon":"114.057868","placename":"Shenzhen, Guangdong, China"},"from_stop":{"name":"origin","id":"16954","lat":"34.1841719","lon":"-118.9106525","placename":"Newbury Park, Thousand Oaks, CA, USA"}}]}}},"processes":[],"eols":[]},{"oid":"1408","imid":"7883","linkid":"0","weight":"0","rawemissions":"0","emissions":"0","shipping":"627.08","processemissions":"0","endoflifeemissions":"0","disposaltype":null,"disposalenergy":null,"disposalimpact":null,"disposalemissions":null,"description":"Lens Technology built front and rear glass assemblies.","name":"Front \/ Rear Glass assemblies","id":"7883","stops":{"origin":{"related_to":"7883","part_or_object":"p","notes":null,"placename":"Liuyang, Changsha, Hunan, China","id":16955,"name":"origin","lat":"28.16379","lon":"113.64328","hops":{"incoming":[],"outgoing":[{"transport_id":null,"id":"12139","transport_name":null,"transport_description":null,"transport_unit":null,"transport_co2_eq":null,"from_stop_id":"16955","from_stop_lat":"28.16379","from_stop_lon":"113.64328","from_stop_placename":"Liuyang, Changsha, Hunan, China","to_stop_id":"16946","to_stop_name":"origin","to_stop_lat":"22.543099","to_stop_lon":"114.057868","to_stop_placename":"Shenzhen, Guangdong, China","to_stop":{"id":"16946","name":"origin","lat":"22.543099","lon":"114.057868","placename":"Shenzhen, Guangdong, China"},"from_stop":{"name":"origin","id":"16955","lat":"28.16379","lon":"113.64328","placename":"Liuyang, Changsha, Hunan, China"}}]}}},"processes":[],"eols":[]},{"oid":"1408","imid":"7884","linkid":"0","weight":"0","rawemissions":"0","emissions":"0","shipping":"3037.87","processemissions":"0","endoflifeemissions":"0","disposaltype":null,"disposalenergy":null,"disposalimpact":null,"disposalemissions":null,"description":"Sony Energy Devices Corp.","name":"1700ma Li-ion battery","id":"7884","stops":{"origin":{"related_to":"7884","part_or_object":"p","notes":null,"placename":"Fukushima, Fukushima Prefecture, Japan","id":16956,"name":"origin","lat":"37.7607226","lon":"140.4733561","hops":{"incoming":[],"outgoing":[{"transport_id":null,"id":"12140","transport_name":null,"transport_description":null,"transport_unit":null,"transport_co2_eq":null,"from_stop_id":"16956","from_stop_lat":"37.7607226","from_stop_lon":"140.4733561","from_stop_placename":"Fukushima, Fukushima Prefecture, Japan","to_stop_id":"16946","to_stop_name":"origin","to_stop_lat":"22.543099","to_stop_lon":"114.057868","to_stop_placename":"Shenzhen, Guangdong, China","to_stop":{"id":"16946","name":"origin","lat":"22.543099","lon":"114.057868","placename":"Shenzhen, Guangdong, China"},"from_stop":{"name":"origin","id":"16956","lat":"37.7607226","lon":"140.4733561","placename":"Fukushima, Fukushima Prefecture, Japan"}}]}}},"processes":[],"eols":[]},{"oid":"1408","imid":"7885","linkid":"0","weight":"0","rawemissions":"0","emissions":"0","shipping":"1214.64","processemissions":"0","endoflifeemissions":"0","disposaltype":null,"disposalenergy":null,"disposalimpact":null,"disposalemissions":null,"description":"Omnivision Technologies built back-illuminated CMOS sensor.","name":"Backlit 5MP CMOS sensor","id":"7885","stops":{"origin":{"related_to":"7885","part_or_object":"p","notes":null,"placename":"Shanghai, China","id":16957,"name":"origin","lat":"31.230393","lon":"121.473704","hops":{"incoming":[],"outgoing":[{"transport_id":null,"id":"12141","transport_name":null,"transport_description":null,"transport_unit":null,"transport_co2_eq":null,"from_stop_id":"16957","from_stop_lat":"31.230393","from_stop_lon":"121.473704","from_stop_placename":"Shanghai, China","to_stop_id":"16946","to_stop_name":"origin","to_stop_lat":"22.543099","to_stop_lon":"114.057868","to_stop_placename":"Shenzhen, Guangdong, China","to_stop":{"id":"16946","name":"origin","lat":"22.543099","lon":"114.057868","placename":"Shenzhen, Guangdong, China"},"from_stop":{"name":"origin","id":"16957","lat":"31.230393","lon":"121.473704","placename":"Shanghai, China"}}]}}},"processes":[],"eols":[]},{"oid":"1408","imid":"7886","linkid":"0","weight":"0","rawemissions":"0","emissions":"0","shipping":"1169.72","processemissions":"0","endoflifeemissions":"0","disposaltype":null,"disposalenergy":null,"disposalimpact":null,"disposalemissions":null,"description":"Wintek built Touchscreen Digitizer.","name":"Touchscreen Digitizer","id":"7886","stops":{"origin":{"related_to":"7886","part_or_object":"p","notes":null,"placename":"Suzhou, Jiangsu, China","id":16958,"name":"origin","lat":"31.298886","lon":"120.585316","hops":{"incoming":[],"outgoing":[{"transport_id":null,"id":"12142","transport_name":null,"transport_description":null,"transport_unit":null,"transport_co2_eq":null,"from_stop_id":"16958","from_stop_lat":"31.298886","from_stop_lon":"120.585316","from_stop_placename":"Suzhou, Jiangsu, China","to_stop_id":"16946","to_stop_name":"origin","to_stop_lat":"22.543099","to_stop_lon":"114.057868","to_stop_placename":"Shenzhen, Guangdong, China","to_stop":{"id":"16946","name":"origin","lat":"22.543099","lon":"114.057868","placename":"Shenzhen, Guangdong, China"},"from_stop":{"name":"origin","id":"16958","lat":"31.298886","lon":"120.585316","placename":"Suzhou, Jiangsu, China"}}]}}},"processes":[],"eols":[]},{"oid":"1408","imid":"7887","linkid":"0","weight":"0","rawemissions":"0","emissions":"0","shipping":"0","processemissions":"0","endoflifeemissions":"0","disposaltype":null,"disposalenergy":null,"disposalimpact":null,"disposalemissions":null,"description":"Cirrus Logic Audio Codec chipset","name":"Cirrus Logic Audio Codec","id":"7887","stops":{"origin":{"related_to":"7887","part_or_object":"p","notes":null,"placename":"Shenzhen, Guangdong, China","id":16959,"name":"origin","lat":"22.543099","lon":"114.057868","hops":{"incoming":[],"outgoing":[{"transport_id":null,"id":"12143","transport_name":null,"transport_description":null,"transport_unit":null,"transport_co2_eq":null,"from_stop_id":"16959","from_stop_lat":"22.543099","from_stop_lon":"114.057868","from_stop_placename":"Shenzhen, Guangdong, China","to_stop_id":"16946","to_stop_name":"origin","to_stop_lat":"22.543099","to_stop_lon":"114.057868","to_stop_placename":"Shenzhen, Guangdong, China","to_stop":{"id":"16946","name":"origin","lat":"22.543099","lon":"114.057868","placename":"Shenzhen, Guangdong, China"},"from_stop":{"name":"origin","id":"16959","lat":"22.543099","lon":"114.057868","placename":"Shenzhen, Guangdong, China"}}]}}},"processes":[],"eols":[]}],"user":{"name":"abadlovesong","id":"13741"}}}