{"1413":{"oid":"1413","type":"food","flag":"","creator":"6904","name":"Cocosbar","upc":"","imagelink":"","description":"","slug":"cocosbar","category":"","weight":"0","emissions":"0","embodied":"0","transport":"0","process":"0","endoflife":"0","shipping":"24795.3","lifetime":"0","usagetype":"","usageenergy":"0","usageemissions":"0","timecreated":"2010-02-24 22:03:35.78099","timemodified":"2009-10-26 12:39:02","visibility":"private","showfootprint":"on","showembodied":"on","showtransport":"on","showprocess":"on","showendoflife":"on","showlastleg":"on","showuse":"on","showstats":"on","stops":{"origin":{"related_to":"1413","part_or_object":"o","notes":"","placename":"The Netherlands","id":"256","category":"1","lat":"52.132633","lon":"5.291266","name":"origin","hops":{"incoming":[{"transport_id":"9","id":"1006","transport_name":"container ship","transport_description":"moving boxcar size containers","transport_unit":"kg km","transport_co2_eq":"0.047800","from_stop_id":"3258","from_stop_lat":"7.873054","from_stop_lon":"80.771797","to_stop_id":"256","to_stop_name":"origin","to_stop_lat":"52.132633","placename":"Sri Lanka","to_stop_lon":"5.291266","to_stop":{"id":"256","name":"origin","lat":"52.132633","placename":"The Netherlands","lon":"5.291266"},"from_stop":{"name":"origin","id":"3258","lat":"7.873054","lon":"80.771797","placename":"Sri Lanka"}},{"transport_id":"8","id":"1007","transport_name":"freighter, oceanic","transport_description":"","transport_unit":"kg km","transport_co2_eq":"0.004200","from_stop_id":"3259","from_stop_lat":"7.539989","from_stop_lon":"-5.54708","to_stop_id":"256","to_stop_name":"origin","to_stop_lat":"52.132633","placename":"Coast of Ivory","to_stop_lon":"5.291266","to_stop":{"id":"256","name":"origin","lat":"52.132633","placename":"The Netherlands","lon":"5.291266"},"from_stop":{"name":"origin","id":"3259","lat":"7.539989","lon":"-5.54708","placename":"Coast of Ivory"}},{"transport_id":"6","id":"1008","transport_name":"tanker ship","transport_description":"tanker for mobing liquids","transport_unit":"kg km","transport_co2_eq":"0.171600","from_stop_id":"3260","from_stop_lat":"40.6331249","from_stop_lon":"-89.3985283","to_stop_id":"256","to_stop_name":"origin","to_stop_lat":"52.132633","placename":"Illinois, USA","to_stop_lon":"5.291266","to_stop":{"id":"256","name":"origin","lat":"52.132633","placename":"The Netherlands","lon":"5.291266"},"from_stop":{"name":"origin","id":"3260","lat":"40.6331249","lon":"-89.3985283","placename":"Illinois, USA"}},{"transport_id":"10","id":"1009","transport_name":"train, freight","transport_description":"diesel freight locomotive","transport_unit":"kg km","transport_co2_eq":"0.005600","from_stop_id":"3261","from_stop_lat":"41.377491","from_stop_lon":"64.585262","to_stop_id":"256","to_stop_name":"origin","to_stop_lat":"52.132633","placename":"Uzbekistan","to_stop_lon":"5.291266","to_stop":{"id":"256","name":"origin","lat":"52.132633","placename":"The Netherlands","lon":"5.291266"},"from_stop":{"name":"origin","id":"3261","lat":"41.377491","lon":"64.585262","placename":"Uzbekistan"}}],"outgoing":[]}}},"parts":[{"oid":"1413","imid":"1200","linkid":"","weight":"0","rawemissions":"1","emissions":"0","shipping":"8337.34","processemissions":null,"endoflifeemissions":null,"disposaltype":null,"disposalenergy":null,"disposalimpact":null,"disposalemissions":null,"description":"","name":"Cocos","id":"1200","stops":{"origin":{"related_to":"1200","part_or_object":"p","notes":"","placename":"Sri Lanka","id":3258,"name":"origin","lat":"7.873054","lon":"80.771797","hops":{"incoming":[],"outgoing":[{"transport_id":"9","id":"1006","transport_name":"container ship","transport_description":"moving boxcar size containers","transport_unit":"kg km","transport_co2_eq":"0.047800","from_stop_id":"3258","from_stop_lat":"7.873054","from_stop_lon":"80.771797","from_stop_placename":"Sri Lanka","to_stop_id":"256","to_stop_name":"origin","to_stop_lat":"52.132633","to_stop_lon":"5.291266","to_stop_placename":"The Netherlands","to_stop":{"id":"256","name":"origin","lat":"52.132633","lon":"5.291266","placename":"The Netherlands"},"from_stop":{"name":"origin","id":"3258","lat":"7.873054","lon":"80.771797","placename":"Sri Lanka"}}]}}},"processes":[],"eols":[]},{"oid":"1413","imid":"1201","linkid":"","weight":"0","rawemissions":"0","emissions":"0","shipping":"5061.89","processemissions":null,"endoflifeemissions":null,"disposaltype":null,"disposalenergy":null,"disposalimpact":null,"disposalemissions":null,"description":"<a href=\"http:\/\/repeatingislands.com\/2009\/06\/11\/the-dominican-republic%E2%80%99s-fair-trade-chocolate-success\/\">Check this<\/a>","name":"Cacao","id":"1201","stops":{"origin":{"related_to":"1201","part_or_object":"p","notes":"","placename":"Coast of Ivory","id":3259,"name":"origin","lat":"7.539989","lon":"-5.54708","hops":{"incoming":[],"outgoing":[{"transport_id":"8","id":"1007","transport_name":"freighter, oceanic","transport_description":"","transport_unit":"kg km","transport_co2_eq":"0.004200","from_stop_id":"3259","from_stop_lat":"7.539989","from_stop_lon":"-5.54708","from_stop_placename":"Coast of Ivory","to_stop_id":"256","to_stop_name":"origin","to_stop_lat":"52.132633","to_stop_lon":"5.291266","to_stop_placename":"The Netherlands","to_stop":{"id":"256","name":"origin","lat":"52.132633","lon":"5.291266","placename":"The Netherlands"},"from_stop":{"name":"origin","id":"3259","lat":"7.539989","lon":"-5.54708","placename":"Coast of Ivory"}}]}}},"processes":[],"eols":[]},{"oid":"1413","imid":"1202","linkid":"","weight":"0","rawemissions":"0","emissions":"0","shipping":"6854.54","processemissions":null,"endoflifeemissions":null,"disposaltype":null,"disposalenergy":null,"disposalimpact":null,"disposalemissions":null,"description":"","name":"Milk","id":"1202","stops":{"origin":{"related_to":"1202","part_or_object":"p","notes":"","placename":"Illinois, USA","id":3260,"name":"origin","lat":"40.6331249","lon":"-89.3985283","hops":{"incoming":[],"outgoing":[{"transport_id":"6","id":"1008","transport_name":"tanker ship","transport_description":"tanker for mobing liquids","transport_unit":"kg km","transport_co2_eq":"0.171600","from_stop_id":"3260","from_stop_lat":"40.6331249","from_stop_lon":"-89.3985283","from_stop_placename":"Illinois, USA","to_stop_id":"256","to_stop_name":"origin","to_stop_lat":"52.132633","to_stop_lon":"5.291266","to_stop_placename":"The Netherlands","to_stop":{"id":"256","name":"origin","lat":"52.132633","lon":"5.291266","placename":"The Netherlands"},"from_stop":{"name":"origin","id":"3260","lat":"40.6331249","lon":"-89.3985283","placename":"Illinois, USA"}}]}}},"processes":[],"eols":[]},{"oid":"1413","imid":"1203","linkid":"","weight":"0","rawemissions":"0","emissions":"0","shipping":"4541.5","processemissions":null,"endoflifeemissions":null,"disposaltype":null,"disposalenergy":null,"disposalimpact":null,"disposalemissions":null,"description":"","name":"Almonds","id":"1203","stops":{"origin":{"related_to":"1203","part_or_object":"p","notes":"","placename":"Uzbekistan","id":3261,"name":"origin","lat":"41.377491","lon":"64.585262","hops":{"incoming":[],"outgoing":[{"transport_id":"10","id":"1009","transport_name":"train, freight","transport_description":"diesel freight locomotive","transport_unit":"kg km","transport_co2_eq":"0.005600","from_stop_id":"3261","from_stop_lat":"41.377491","from_stop_lon":"64.585262","from_stop_placename":"Uzbekistan","to_stop_id":"256","to_stop_name":"origin","to_stop_lat":"52.132633","to_stop_lon":"5.291266","to_stop_placename":"The Netherlands","to_stop":{"id":"256","name":"origin","lat":"52.132633","lon":"5.291266","placename":"The Netherlands"},"from_stop":{"name":"origin","id":"3261","lat":"41.377491","lon":"64.585262","placename":"Uzbekistan"}}]}}},"processes":[],"eols":[]}],"user":{"name":"tvoorter","id":"6904"}}}