{"1418":{"oid":"1418","type":"object","flag":"","creator":"13744","name":"LED Parathom Classic A 40 (8W)","upc":"","imagelink":"","description":"www.osram.se","slug":"LED-Parathom-Classic-A-40--8W--3","category":"","weight":"0.068","emissions":"0.00780485202","embodied":"0.00465","transport":"0.00315485202","process":null,"endoflife":null,"shipping":"13325.79","lifetime":null,"usagetype":"US Electric Grid","usageenergy":null,"usageemissions":"0","timecreated":"2011-07-13 08:19:43","timemodified":"2011-07-15 07:45:44","visibility":"public","showfootprint":"on","showembodied":"on","showtransport":"on","showprocess":"on","showendoflife":"on","showlastleg":"on","showuse":"on","showstats":"on","stops":{"origin":{"related_to":"1418","part_or_object":"o","notes":null,"placename":"Kina","id":"17146","category":"1","lat":"35.86166","lon":"104.195397","name":"origin","hops":{"incoming":[{"transport_id":"19","id":"12297","transport_name":"Rail","transport_description":"from the Greenhouse Gas Protocol Initiative - GHG emission from transport or mobile sources calculator 2.0 (jun 2009)","transport_unit":"kg km","transport_co2_eq":"0.000017","from_stop_id":"17147","from_stop_lat":"35.86166","from_stop_lon":"104.195397","to_stop_id":"17146","to_stop_name":"origin","to_stop_lat":"35.86166","placename":"Kina","to_stop_lon":"104.195397","to_stop":{"id":"17146","name":"origin","lat":"35.86166","placename":"Kina","lon":"104.195397"},"from_stop":{"name":"origin","id":"17147","lat":"35.86166","lon":"104.195397","placename":"Kina"}},{"transport_id":"18","id":"12298","transport_name":"Sea","transport_description":"from the Greenhouse Gas Protocol Initiative - GHG emission from transport or mobile sources calculator 2.0 (jun 2009)","transport_unit":"kg km","transport_co2_eq":"0.000222","from_stop_id":"17148","from_stop_lat":"37.09024","from_stop_lon":"-95.712891","to_stop_id":"17146","to_stop_name":"origin","to_stop_lat":"35.86166","placename":"USA","to_stop_lon":"104.195397","to_stop":{"id":"17146","name":"origin","lat":"35.86166","placename":"Kina","lon":"104.195397"},"from_stop":{"name":"origin","id":"17148","lat":"37.09024","lon":"-95.712891","placename":"USA"}},{"transport_id":"19","id":"12299","transport_name":"Rail","transport_description":"from the Greenhouse Gas Protocol Initiative - GHG emission from transport or mobile sources calculator 2.0 (jun 2009)","transport_unit":"kg km","transport_co2_eq":"0.000017","from_stop_id":"17149","from_stop_lat":"35.86166","from_stop_lon":"104.195397","to_stop_id":"17146","to_stop_name":"origin","to_stop_lat":"35.86166","placename":"Kina","to_stop_lon":"104.195397","to_stop":{"id":"17146","name":"origin","lat":"35.86166","placename":"Kina","lon":"104.195397"},"from_stop":{"name":"origin","id":"17149","lat":"35.86166","lon":"104.195397","placename":"Kina"}},{"transport_id":"19","id":"12300","transport_name":"Rail","transport_description":"from the Greenhouse Gas Protocol Initiative - GHG emission from transport or mobile sources calculator 2.0 (jun 2009)","transport_unit":"kg km","transport_co2_eq":"0.000017","from_stop_id":"17150","from_stop_lat":"35.86166","from_stop_lon":"104.195397","to_stop_id":"17146","to_stop_name":"origin","to_stop_lat":"35.86166","placename":"Kina","to_stop_lon":"104.195397","to_stop":{"id":"17146","name":"origin","lat":"35.86166","placename":"Kina","lon":"104.195397"},"from_stop":{"name":"origin","id":"17150","lat":"35.86166","lon":"104.195397","placename":"Kina"}},{"transport_id":"19","id":"12301","transport_name":"Rail","transport_description":"from the Greenhouse Gas Protocol Initiative - GHG emission from transport or mobile sources calculator 2.0 (jun 2009)","transport_unit":"kg km","transport_co2_eq":"0.000017","from_stop_id":"17151","from_stop_lat":"23.132191","from_stop_lon":"113.266531","to_stop_id":"17146","to_stop_name":"origin","to_stop_lat":"35.86166","placename":"Guangdong, Kina","to_stop_lon":"104.195397","to_stop":{"id":"17146","name":"origin","lat":"35.86166","placename":"Kina","lon":"104.195397"},"from_stop":{"name":"origin","id":"17151","lat":"23.132191","lon":"113.266531","placename":"Guangdong, Kina"}},{"transport_id":null,"id":"12302","transport_name":null,"transport_description":null,"transport_unit":null,"transport_co2_eq":null,"from_stop_id":"17152","from_stop_lat":"35.86166","from_stop_lon":"104.195397","to_stop_id":"17146","to_stop_name":"origin","to_stop_lat":"35.86166","placename":"Kina","to_stop_lon":"104.195397","to_stop":{"id":"17146","name":"origin","lat":"35.86166","placename":"Kina","lon":"104.195397"},"from_stop":{"name":"origin","id":"17152","lat":"35.86166","lon":"104.195397","placename":"Kina"}},{"transport_id":"19","id":"12303","transport_name":"Rail","transport_description":"from the Greenhouse Gas Protocol Initiative - GHG emission from transport or mobile sources calculator 2.0 (jun 2009)","transport_unit":"kg km","transport_co2_eq":"0.000017","from_stop_id":"17153","from_stop_lat":"35.86166","from_stop_lon":"104.195397","to_stop_id":"17146","to_stop_name":"origin","to_stop_lat":"35.86166","placename":"Kina","to_stop_lon":"104.195397","to_stop":{"id":"17146","name":"origin","lat":"35.86166","placename":"Kina","lon":"104.195397"},"from_stop":{"name":"origin","id":"17153","lat":"35.86166","lon":"104.195397","placename":"Kina"}},{"transport_id":"19","id":"12304","transport_name":"Rail","transport_description":"from the Greenhouse Gas Protocol Initiative - GHG emission from transport or mobile sources calculator 2.0 (jun 2009)","transport_unit":"kg km","transport_co2_eq":"0.000017","from_stop_id":"17154","from_stop_lat":"35.86166","from_stop_lon":"104.195397","to_stop_id":"17146","to_stop_name":"origin","to_stop_lat":"35.86166","placename":"Kina","to_stop_lon":"104.195397","to_stop":{"id":"17146","name":"origin","lat":"35.86166","placename":"Kina","lon":"104.195397"},"from_stop":{"name":"origin","id":"17154","lat":"35.86166","lon":"104.195397","placename":"Kina"}}],"outgoing":[]}}},"parts":[{"oid":"1418","imid":"7911","linkid":"0","weight":"0.001","rawemissions":"0","emissions":"0","shipping":"0","processemissions":"0","endoflifeemissions":"0","disposaltype":null,"disposalenergy":null,"disposalimpact":null,"disposalemissions":null,"description":"","name":"Insulator","id":"7911","stops":{"origin":{"related_to":"7911","part_or_object":"p","notes":null,"placename":"Kina","id":17150,"name":"origin","lat":"35.86166","lon":"104.195397","hops":{"incoming":[],"outgoing":[{"transport_id":"19","id":"12300","transport_name":"Rail","transport_description":"from the Greenhouse Gas Protocol Initiative - GHG emission from transport or mobile sources calculator 2.0 (jun 2009)","transport_unit":"kg km","transport_co2_eq":"0.000017","from_stop_id":"17150","from_stop_lat":"35.86166","from_stop_lon":"104.195397","from_stop_placename":"Kina","to_stop_id":"17146","to_stop_name":"origin","to_stop_lat":"35.86166","to_stop_lon":"104.195397","to_stop_placename":"Kina","to_stop":{"id":"17146","name":"origin","lat":"35.86166","lon":"104.195397","placename":"Kina"},"from_stop":{"name":"origin","id":"17150","lat":"35.86166","lon":"104.195397","placename":"Kina"}}]}}},"processes":[],"eols":[]},{"oid":"1418","imid":"7913","linkid":"0","weight":"0.02","rawemissions":"0","emissions":"0","shipping":"1665.48","processemissions":"0","endoflifeemissions":"0","disposaltype":null,"disposalenergy":null,"disposalimpact":null,"disposalemissions":null,"description":"","name":"Heat sink","id":"7913","stops":{"origin":{"related_to":"7913","part_or_object":"p","notes":null,"placename":"Guangdong, Kina","id":17151,"name":"origin","lat":"23.132191","lon":"113.266531","hops":{"incoming":[],"outgoing":[{"transport_id":"19","id":"12301","transport_name":"Rail","transport_description":"from the Greenhouse Gas Protocol Initiative - GHG emission from transport or mobile sources calculator 2.0 (jun 2009)","transport_unit":"kg km","transport_co2_eq":"0.000017","from_stop_id":"17151","from_stop_lat":"23.132191","from_stop_lon":"113.266531","from_stop_placename":"Guangdong, Kina","to_stop_id":"17146","to_stop_name":"origin","to_stop_lat":"35.86166","to_stop_lon":"104.195397","to_stop_placename":"Kina","to_stop":{"id":"17146","name":"origin","lat":"35.86166","lon":"104.195397","placename":"Kina"},"from_stop":{"name":"origin","id":"17151","lat":"23.132191","lon":"113.266531","placename":"Guangdong, Kina"}}]}}},"processes":[],"eols":[]},{"oid":"1418","imid":"7914","linkid":"0","weight":"0.005","rawemissions":"0","emissions":"0","shipping":"0","processemissions":"0","endoflifeemissions":"0","disposaltype":null,"disposalenergy":null,"disposalimpact":null,"disposalemissions":null,"description":"","name":"Contact plate","id":"7914","stops":{"origin":{"related_to":"7914","part_or_object":"p","notes":null,"placename":"Kina","id":17152,"name":"origin","lat":"35.86166","lon":"104.195397","hops":{"incoming":[],"outgoing":[{"transport_id":null,"id":"12302","transport_name":null,"transport_description":null,"transport_unit":null,"transport_co2_eq":null,"from_stop_id":"17152","from_stop_lat":"35.86166","from_stop_lon":"104.195397","from_stop_placename":"Kina","to_stop_id":"17146","to_stop_name":"origin","to_stop_lat":"35.86166","to_stop_lon":"104.195397","to_stop_placename":"Kina","to_stop":{"id":"17146","name":"origin","lat":"35.86166","lon":"104.195397","placename":"Kina"},"from_stop":{"name":"origin","id":"17152","lat":"35.86166","lon":"104.195397","placename":"Kina"}}]}}},"processes":[],"eols":[]},{"oid":"1418","imid":"7915","linkid":"0","weight":"0.001","rawemissions":"0","emissions":"0","shipping":"0","processemissions":"0","endoflifeemissions":"0","disposaltype":null,"disposalenergy":null,"disposalimpact":null,"disposalemissions":null,"description":"","name":"Golden Dragon","id":"7915","stops":{"origin":{"related_to":"7915","part_or_object":"p","notes":null,"placename":"Kina","id":17153,"name":"origin","lat":"35.86166","lon":"104.195397","hops":{"incoming":[],"outgoing":[{"transport_id":"19","id":"12303","transport_name":"Rail","transport_description":"from the Greenhouse Gas Protocol Initiative - GHG emission from transport or mobile sources calculator 2.0 (jun 2009)","transport_unit":"kg km","transport_co2_eq":"0.000017","from_stop_id":"17153","from_stop_lat":"35.86166","from_stop_lon":"104.195397","from_stop_placename":"Kina","to_stop_id":"17146","to_stop_name":"origin","to_stop_lat":"35.86166","to_stop_lon":"104.195397","to_stop_placename":"Kina","to_stop":{"id":"17146","name":"origin","lat":"35.86166","lon":"104.195397","placename":"Kina"},"from_stop":{"name":"origin","id":"17153","lat":"35.86166","lon":"104.195397","placename":"Kina"}}]}}},"processes":[],"eols":[]},{"oid":"1418","imid":"7916","linkid":"parts\/glass-virgin-clear","weight":"0.01","rawemissions":"0.27","emissions":"0","shipping":"0","processemissions":"0","endoflifeemissions":"0","disposaltype":null,"disposalenergy":null,"disposalimpact":null,"disposalemissions":null,"description":"","name":"Glass, Virgin, Clear","id":"7916","stops":{"origin":{"related_to":"7916","part_or_object":"p","notes":null,"placename":"Kina","id":17154,"name":"origin","lat":"35.86166","lon":"104.195397","hops":{"incoming":[],"outgoing":[{"transport_id":"19","id":"12304","transport_name":"Rail","transport_description":"from the Greenhouse Gas Protocol Initiative - GHG emission from transport or mobile sources calculator 2.0 (jun 2009)","transport_unit":"kg km","transport_co2_eq":"0.000017","from_stop_id":"17154","from_stop_lat":"35.86166","from_stop_lon":"104.195397","from_stop_placename":"Kina","to_stop_id":"17146","to_stop_name":"origin","to_stop_lat":"35.86166","to_stop_lon":"104.195397","to_stop_placename":"Kina","to_stop":{"id":"17146","name":"origin","lat":"35.86166","lon":"104.195397","placename":"Kina"},"from_stop":{"name":"origin","id":"17154","lat":"35.86166","lon":"104.195397","placename":"Kina"}}]}}},"processes":[],"eols":[]},{"oid":"1418","imid":"7908","linkid":"0","weight":"0.02","rawemissions":"0","emissions":"0","shipping":"0","processemissions":"0","endoflifeemissions":"0","disposaltype":null,"disposalenergy":null,"disposalimpact":null,"disposalemissions":null,"description":"","name":"Plastic Sleeve","id":"7908","stops":{"origin":{"related_to":"7908","part_or_object":"p","notes":null,"placename":"Kina","id":17147,"name":"origin","lat":"35.86166","lon":"104.195397","hops":{"incoming":[],"outgoing":[{"transport_id":"19","id":"12297","transport_name":"Rail","transport_description":"from the Greenhouse Gas Protocol Initiative - GHG emission from transport or mobile sources calculator 2.0 (jun 2009)","transport_unit":"kg km","transport_co2_eq":"0.000017","from_stop_id":"17147","from_stop_lat":"35.86166","from_stop_lon":"104.195397","from_stop_placename":"Kina","to_stop_id":"17146","to_stop_name":"origin","to_stop_lat":"35.86166","to_stop_lon":"104.195397","to_stop_placename":"Kina","to_stop":{"id":"17146","name":"origin","lat":"35.86166","lon":"104.195397","placename":"Kina"},"from_stop":{"name":"origin","id":"17147","lat":"35.86166","lon":"104.195397","placename":"Kina"}}]}}},"processes":[],"eols":[]},{"oid":"1418","imid":"7909","linkid":"parts\/aluminum-recycled","weight":"0.001","rawemissions":"1.95","emissions":"0","shipping":"11660.31","processemissions":"0","endoflifeemissions":"0","disposaltype":null,"disposalenergy":null,"disposalimpact":null,"disposalemissions":null,"description":"","name":"Aluminum, Recycled","id":"7909","stops":{"origin":{"related_to":"7909","part_or_object":"p","notes":null,"placename":"USA","id":17148,"name":"origin","lat":"37.09024","lon":"-95.712891","hops":{"incoming":[],"outgoing":[{"transport_id":"18","id":"12298","transport_name":"Sea","transport_description":"from the Greenhouse Gas Protocol Initiative - GHG emission from transport or mobile sources calculator 2.0 (jun 2009)","transport_unit":"kg km","transport_co2_eq":"0.000222","from_stop_id":"17148","from_stop_lat":"37.09024","from_stop_lon":"-95.712891","from_stop_placename":"USA","to_stop_id":"17146","to_stop_name":"origin","to_stop_lat":"35.86166","to_stop_lon":"104.195397","to_stop_placename":"Kina","to_stop":{"id":"17146","name":"origin","lat":"35.86166","lon":"104.195397","placename":"Kina"},"from_stop":{"name":"origin","id":"17148","lat":"37.09024","lon":"-95.712891","placename":"USA"}}]}}},"processes":[],"eols":[]},{"oid":"1418","imid":"7910","linkid":"0","weight":"0.01","rawemissions":"0","emissions":"0","shipping":"0","processemissions":"0","endoflifeemissions":"0","disposaltype":null,"disposalenergy":null,"disposalimpact":null,"disposalemissions":null,"description":"","name":"Electric ballast","id":"7910","stops":{"origin":{"related_to":"7910","part_or_object":"p","notes":null,"placename":"Kina","id":17149,"name":"origin","lat":"35.86166","lon":"104.195397","hops":{"incoming":[],"outgoing":[{"transport_id":"19","id":"12299","transport_name":"Rail","transport_description":"from the Greenhouse Gas Protocol Initiative - GHG emission from transport or mobile sources calculator 2.0 (jun 2009)","transport_unit":"kg km","transport_co2_eq":"0.000017","from_stop_id":"17149","from_stop_lat":"35.86166","from_stop_lon":"104.195397","from_stop_placename":"Kina","to_stop_id":"17146","to_stop_name":"origin","to_stop_lat":"35.86166","to_stop_lon":"104.195397","to_stop_placename":"Kina","to_stop":{"id":"17146","name":"origin","lat":"35.86166","lon":"104.195397","placename":"Kina"},"from_stop":{"name":"origin","id":"17149","lat":"35.86166","lon":"104.195397","placename":"Kina"}}]}}},"processes":[],"eols":[]}],"user":{"name":"Maria Petra","id":"13744"}}}