{"1422":{"oid":"1422","type":"object","flag":"","creator":"13744","name":"Bulb Classic A 40W","upc":"","imagelink":"","description":"","slug":"Bulb-Classic-A-40W","category":"","weight":"1.31","emissions":"420.660383769","embodied":"420.478","transport":"0.1823837688","process":null,"endoflife":null,"shipping":"21649.68","lifetime":null,"usagetype":"","usageenergy":null,"usageemissions":null,"timecreated":"2011-07-14 06:15:23","timemodified":"2011-07-15 07:27:54","visibility":"public","showfootprint":"on","showembodied":"on","showtransport":"on","showprocess":"on","showendoflife":"on","showlastleg":"on","showuse":"on","showstats":"on","stops":{"origin":{"related_to":"1422","part_or_object":"o","notes":null,"placename":"Tyskland","id":"17136","category":"1","lat":"51.165691","lon":"10.451526","name":"origin","hops":{"incoming":[{"transport_id":"19","id":"12288","transport_name":"Rail","transport_description":"from the Greenhouse Gas Protocol Initiative - GHG emission from transport or mobile sources calculator 2.0 (jun 2009)","transport_unit":"kg km","transport_co2_eq":"0.000017","from_stop_id":"17137","from_stop_lat":"51.165691","from_stop_lon":"10.451526","to_stop_id":"17136","to_stop_name":"origin","to_stop_lat":"51.165691","placename":"Tyskland","to_stop_lon":"10.451526","to_stop":{"id":"17136","name":"origin","lat":"51.165691","placename":"Tyskland","lon":"10.451526"},"from_stop":{"name":"origin","id":"17137","lat":"51.165691","lon":"10.451526","placename":"Tyskland"}},{"transport_id":"19","id":"12289","transport_name":"Rail","transport_description":"from the Greenhouse Gas Protocol Initiative - GHG emission from transport or mobile sources calculator 2.0 (jun 2009)","transport_unit":"kg km","transport_co2_eq":"0.000017","from_stop_id":"17138","from_stop_lat":"51.165691","from_stop_lon":"10.451526","to_stop_id":"17136","to_stop_name":"origin","to_stop_lat":"51.165691","placename":"Tyskland","to_stop_lon":"10.451526","to_stop":{"id":"17136","name":"origin","lat":"51.165691","placename":"Tyskland","lon":"10.451526"},"from_stop":{"name":"origin","id":"17138","lat":"51.165691","lon":"10.451526","placename":"Tyskland"}},{"transport_id":null,"id":"12290","transport_name":null,"transport_description":null,"transport_unit":null,"transport_co2_eq":null,"from_stop_id":"17139","from_stop_lat":"51.165691","from_stop_lon":"10.451526","to_stop_id":"17136","to_stop_name":"origin","to_stop_lat":"51.165691","placename":"Tyskland","to_stop_lon":"10.451526","to_stop":{"id":"17136","name":"origin","lat":"51.165691","placename":"Tyskland","lon":"10.451526"},"from_stop":{"name":"origin","id":"17139","lat":"51.165691","lon":"10.451526","placename":"Tyskland"}},{"transport_id":"19","id":"12291","transport_name":"Rail","transport_description":"from the Greenhouse Gas Protocol Initiative - GHG emission from transport or mobile sources calculator 2.0 (jun 2009)","transport_unit":"kg km","transport_co2_eq":"0.000017","from_stop_id":"17140","from_stop_lat":"51.165691","from_stop_lon":"10.451526","to_stop_id":"17136","to_stop_name":"origin","to_stop_lat":"51.165691","placename":"Tyskland","to_stop_lon":"10.451526","to_stop":{"id":"17136","name":"origin","lat":"51.165691","placename":"Tyskland","lon":"10.451526"},"from_stop":{"name":"origin","id":"17140","lat":"51.165691","lon":"10.451526","placename":"Tyskland"}},{"transport_id":"18","id":"12292","transport_name":"Sea","transport_description":"from the Greenhouse Gas Protocol Initiative - GHG emission from transport or mobile sources calculator 2.0 (jun 2009)","transport_unit":"kg km","transport_co2_eq":"0.000222","from_stop_id":"17141","from_stop_lat":"60.128161","from_stop_lon":"18.643501","to_stop_id":"17136","to_stop_name":"origin","to_stop_lat":"51.165691","placename":"Sverige","to_stop_lon":"10.451526","to_stop":{"id":"17136","name":"origin","lat":"51.165691","placename":"Tyskland","lon":"10.451526"},"from_stop":{"name":"origin","id":"17141","lat":"60.128161","lon":"18.643501","placename":"Sverige"}},{"transport_id":"19","id":"12293","transport_name":"Rail","transport_description":"from the Greenhouse Gas Protocol Initiative - GHG emission from transport or mobile sources calculator 2.0 (jun 2009)","transport_unit":"kg km","transport_co2_eq":"0.000017","from_stop_id":"17142","from_stop_lat":"35.86166","from_stop_lon":"104.195397","to_stop_id":"17136","to_stop_name":"origin","to_stop_lat":"51.165691","placename":"Kina","to_stop_lon":"10.451526","to_stop":{"id":"17136","name":"origin","lat":"51.165691","placename":"Tyskland","lon":"10.451526"},"from_stop":{"name":"origin","id":"17142","lat":"35.86166","lon":"104.195397","placename":"Kina"}},{"transport_id":"19","id":"12294","transport_name":"Rail","transport_description":"from the Greenhouse Gas Protocol Initiative - GHG emission from transport or mobile sources calculator 2.0 (jun 2009)","transport_unit":"kg km","transport_co2_eq":"0.000017","from_stop_id":"17143","from_stop_lat":"51.165691","from_stop_lon":"10.451526","to_stop_id":"17136","to_stop_name":"origin","to_stop_lat":"51.165691","placename":"Tyskland","to_stop_lon":"10.451526","to_stop":{"id":"17136","name":"origin","lat":"51.165691","placename":"Tyskland","lon":"10.451526"},"from_stop":{"name":"origin","id":"17143","lat":"51.165691","lon":"10.451526","placename":"Tyskland"}},{"transport_id":"18","id":"12295","transport_name":"Sea","transport_description":"from the Greenhouse Gas Protocol Initiative - GHG emission from transport or mobile sources calculator 2.0 (jun 2009)","transport_unit":"kg km","transport_co2_eq":"0.000222","from_stop_id":"17144","from_stop_lat":"37.09024","from_stop_lon":"-95.712891","to_stop_id":"17136","to_stop_name":"origin","to_stop_lat":"51.165691","placename":"USA","to_stop_lon":"10.451526","to_stop":{"id":"17136","name":"origin","lat":"51.165691","placename":"Tyskland","lon":"10.451526"},"from_stop":{"name":"origin","id":"17144","lat":"37.09024","lon":"-95.712891","placename":"USA"}},{"transport_id":"18","id":"12296","transport_name":"Sea","transport_description":"from the Greenhouse Gas Protocol Initiative - GHG emission from transport or mobile sources calculator 2.0 (jun 2009)","transport_unit":"kg km","transport_co2_eq":"0.000222","from_stop_id":"17145","from_stop_lat":"61.52401","from_stop_lon":"105.318756","to_stop_id":"17136","to_stop_name":"origin","to_stop_lat":"51.165691","placename":"Ryssland","to_stop_lon":"10.451526","to_stop":{"id":"17136","name":"origin","lat":"51.165691","placename":"Tyskland","lon":"10.451526"},"from_stop":{"name":"origin","id":"17145","lat":"61.52401","lon":"105.318756","placename":"Ryssland"}}],"outgoing":[]}}},"parts":[{"oid":"1422","imid":"7917","linkid":"0","weight":"0.05","rawemissions":"0","emissions":"0","shipping":"0","processemissions":"0","endoflifeemissions":"0","disposaltype":null,"disposalenergy":null,"disposalimpact":null,"disposalemissions":null,"description":"","name":"Solder","id":"7917","stops":{"origin":{"related_to":"7917","part_or_object":"p","notes":null,"placename":"Tyskland","id":17137,"name":"origin","lat":"51.165691","lon":"10.451526","hops":{"incoming":[],"outgoing":[{"transport_id":"19","id":"12288","transport_name":"Rail","transport_description":"from the Greenhouse Gas Protocol Initiative - GHG emission from transport or mobile sources calculator 2.0 (jun 2009)","transport_unit":"kg km","transport_co2_eq":"0.000017","from_stop_id":"17137","from_stop_lat":"51.165691","from_stop_lon":"10.451526","from_stop_placename":"Tyskland","to_stop_id":"17136","to_stop_name":"origin","to_stop_lat":"51.165691","to_stop_lon":"10.451526","to_stop_placename":"Tyskland","to_stop":{"id":"17136","name":"origin","lat":"51.165691","lon":"10.451526","placename":"Tyskland"},"from_stop":{"name":"origin","id":"17137","lat":"51.165691","lon":"10.451526","placename":"Tyskland"}}]}}},"processes":[],"eols":[]},{"oid":"1422","imid":"7918","linkid":"0","weight":"0.13","rawemissions":"0","emissions":"0","shipping":"0","processemissions":"0","endoflifeemissions":"0","disposaltype":null,"disposalenergy":null,"disposalimpact":null,"disposalemissions":null,"description":"","name":"Screw shell","id":"7918","stops":{"origin":{"related_to":"7918","part_or_object":"p","notes":null,"placename":"Tyskland","id":17138,"name":"origin","lat":"51.165691","lon":"10.451526","hops":{"incoming":[],"outgoing":[{"transport_id":"19","id":"12289","transport_name":"Rail","transport_description":"from the Greenhouse Gas Protocol Initiative - GHG emission from transport or mobile sources calculator 2.0 (jun 2009)","transport_unit":"kg km","transport_co2_eq":"0.000017","from_stop_id":"17138","from_stop_lat":"51.165691","from_stop_lon":"10.451526","from_stop_placename":"Tyskland","to_stop_id":"17136","to_stop_name":"origin","to_stop_lat":"51.165691","to_stop_lon":"10.451526","to_stop_placename":"Tyskland","to_stop":{"id":"17136","name":"origin","lat":"51.165691","lon":"10.451526","placename":"Tyskland"},"from_stop":{"name":"origin","id":"17138","lat":"51.165691","lon":"10.451526","placename":"Tyskland"}}]}}},"processes":[],"eols":[]},{"oid":"1422","imid":"7919","linkid":"0","weight":"0.1","rawemissions":"0","emissions":"0","shipping":"0","processemissions":"0","endoflifeemissions":"0","disposaltype":null,"disposalenergy":null,"disposalimpact":null,"disposalemissions":null,"description":"","name":"Insulter","id":"7919","stops":{"origin":{"related_to":"7919","part_or_object":"p","notes":null,"placename":"Tyskland","id":17139,"name":"origin","lat":"51.165691","lon":"10.451526","hops":{"incoming":[],"outgoing":[{"transport_id":null,"id":"12290","transport_name":null,"transport_description":null,"transport_unit":null,"transport_co2_eq":null,"from_stop_id":"17139","from_stop_lat":"51.165691","from_stop_lon":"10.451526","from_stop_placename":"Tyskland","to_stop_id":"17136","to_stop_name":"origin","to_stop_lat":"51.165691","to_stop_lon":"10.451526","to_stop_placename":"Tyskland","to_stop":{"id":"17136","name":"origin","lat":"51.165691","lon":"10.451526","placename":"Tyskland"},"from_stop":{"name":"origin","id":"17139","lat":"51.165691","lon":"10.451526","placename":"Tyskland"}}]}}},"processes":[],"eols":[]},{"oid":"1422","imid":"7920","linkid":"0","weight":"0.125","rawemissions":"0","emissions":"0","shipping":"0","processemissions":"0","endoflifeemissions":"0","disposaltype":null,"disposalenergy":null,"disposalimpact":null,"disposalemissions":null,"description":"","name":"Basing Cement","id":"7920","stops":{"origin":{"related_to":"7920","part_or_object":"p","notes":null,"placename":"Tyskland","id":17140,"name":"origin","lat":"51.165691","lon":"10.451526","hops":{"incoming":[],"outgoing":[{"transport_id":"19","id":"12291","transport_name":"Rail","transport_description":"from the Greenhouse Gas Protocol Initiative - GHG emission from transport or mobile sources calculator 2.0 (jun 2009)","transport_unit":"kg km","transport_co2_eq":"0.000017","from_stop_id":"17140","from_stop_lat":"51.165691","from_stop_lon":"10.451526","from_stop_placename":"Tyskland","to_stop_id":"17136","to_stop_name":"origin","to_stop_lat":"51.165691","to_stop_lon":"10.451526","to_stop_placename":"Tyskland","to_stop":{"id":"17136","name":"origin","lat":"51.165691","lon":"10.451526","placename":"Tyskland"},"from_stop":{"name":"origin","id":"17140","lat":"51.165691","lon":"10.451526","placename":"Tyskland"}}]}}},"processes":[],"eols":[]},{"oid":"1422","imid":"7921","linkid":"parts\/lead-virgin","weight":"0.125","rawemissions":"1.64","emissions":"0","shipping":"1120.66","processemissions":"0","endoflifeemissions":"0","disposaltype":null,"disposalenergy":null,"disposalimpact":null,"disposalemissions":null,"description":"","name":"Lead, Virgin","id":"7921","stops":{"origin":{"related_to":"7921","part_or_object":"p","notes":null,"placename":"Sverige","id":17141,"name":"origin","lat":"60.128161","lon":"18.643501","hops":{"incoming":[],"outgoing":[{"transport_id":"18","id":"12292","transport_name":"Sea","transport_description":"from the Greenhouse Gas Protocol Initiative - GHG emission from transport or mobile sources calculator 2.0 (jun 2009)","transport_unit":"kg km","transport_co2_eq":"0.000222","from_stop_id":"17141","from_stop_lat":"60.128161","from_stop_lon":"18.643501","from_stop_placename":"Sverige","to_stop_id":"17136","to_stop_name":"origin","to_stop_lat":"51.165691","to_stop_lon":"10.451526","to_stop_placename":"Tyskland","to_stop":{"id":"17136","name":"origin","lat":"51.165691","lon":"10.451526","placename":"Tyskland"},"from_stop":{"name":"origin","id":"17141","lat":"60.128161","lon":"18.643501","placename":"Sverige"}}]}}},"processes":[],"eols":[]},{"oid":"1422","imid":"7923","linkid":"0","weight":"0.03","rawemissions":"0","emissions":"0","shipping":"7231.98","processemissions":"0","endoflifeemissions":"0","disposaltype":null,"disposalenergy":null,"disposalimpact":null,"disposalemissions":null,"description":"","name":"Exhaust Tube","id":"7923","stops":{"origin":{"related_to":"7923","part_or_object":"p","notes":null,"placename":"Kina","id":17142,"name":"origin","lat":"35.86166","lon":"104.195397","hops":{"incoming":[],"outgoing":[{"transport_id":"19","id":"12293","transport_name":"Rail","transport_description":"from the Greenhouse Gas Protocol Initiative - GHG emission from transport or mobile sources calculator 2.0 (jun 2009)","transport_unit":"kg km","transport_co2_eq":"0.000017","from_stop_id":"17142","from_stop_lat":"35.86166","from_stop_lon":"104.195397","from_stop_placename":"Kina","to_stop_id":"17136","to_stop_name":"origin","to_stop_lat":"51.165691","to_stop_lon":"10.451526","to_stop_placename":"Tyskland","to_stop":{"id":"17136","name":"origin","lat":"51.165691","lon":"10.451526","placename":"Tyskland"},"from_stop":{"name":"origin","id":"17142","lat":"35.86166","lon":"104.195397","placename":"Kina"}}]}}},"processes":[],"eols":[]},{"oid":"1422","imid":"7893","linkid":"parts\/glass-virgin-clear","weight":"0.65","rawemissions":"0.27","emissions":"0","shipping":"0","processemissions":"0","endoflifeemissions":"0","disposaltype":null,"disposalenergy":null,"disposalimpact":null,"disposalemissions":null,"description":"","name":"Glass, Virgin, Clear","id":"7893","stops":{"origin":{"related_to":"7893","part_or_object":"p","notes":null,"placename":"Tyskland","id":17143,"name":"origin","lat":"51.165691","lon":"10.451526","hops":{"incoming":[],"outgoing":[{"transport_id":"19","id":"12294","transport_name":"Rail","transport_description":"from the Greenhouse Gas Protocol Initiative - GHG emission from transport or mobile sources calculator 2.0 (jun 2009)","transport_unit":"kg km","transport_co2_eq":"0.000017","from_stop_id":"17143","from_stop_lat":"51.165691","from_stop_lon":"10.451526","from_stop_placename":"Tyskland","to_stop_id":"17136","to_stop_name":"origin","to_stop_lat":"51.165691","to_stop_lon":"10.451526","to_stop_placename":"Tyskland","to_stop":{"id":"17136","name":"origin","lat":"51.165691","lon":"10.451526","placename":"Tyskland"},"from_stop":{"name":"origin","id":"17143","lat":"51.165691","lon":"10.451526","placename":"Tyskland"}}]}}},"processes":[],"eols":[]},{"oid":"1422","imid":"7896","linkid":"parts\/aluminum-recycled","weight":"0.05","rawemissions":"1.95","emissions":"0","shipping":"7870.28","processemissions":"0","endoflifeemissions":"0","disposaltype":null,"disposalenergy":null,"disposalimpact":null,"disposalemissions":null,"description":"","name":"Aluminum, Recycled","id":"7896","stops":{"origin":{"related_to":"7896","part_or_object":"p","notes":null,"placename":"USA","id":17144,"name":"origin","lat":"37.09024","lon":"-95.712891","hops":{"incoming":[],"outgoing":[{"transport_id":"18","id":"12295","transport_name":"Sea","transport_description":"from the Greenhouse Gas Protocol Initiative - GHG emission from transport or mobile sources calculator 2.0 (jun 2009)","transport_unit":"kg km","transport_co2_eq":"0.000222","from_stop_id":"17144","from_stop_lat":"37.09024","from_stop_lon":"-95.712891","from_stop_placename":"USA","to_stop_id":"17136","to_stop_name":"origin","to_stop_lat":"51.165691","to_stop_lon":"10.451526","to_stop_placename":"Tyskland","to_stop":{"id":"17136","name":"origin","lat":"51.165691","lon":"10.451526","placename":"Tyskland"},"from_stop":{"name":"origin","id":"17144","lat":"37.09024","lon":"-95.712891","placename":"USA"}}]}}},"processes":[],"eols":[]},{"oid":"1422","imid":"7898","linkid":"parts\/integrated-circuitry","weight":"0.05","rawemissions":"8400","emissions":"0","shipping":"5426.76","processemissions":"0","endoflifeemissions":"0","disposaltype":null,"disposalenergy":null,"disposalimpact":null,"disposalemissions":null,"description":"","name":"Electrical contact","id":"7898","stops":{"origin":{"related_to":"7898","part_or_object":"p","notes":null,"placename":"Ryssland","id":17145,"name":"origin","lat":"61.52401","lon":"105.318756","hops":{"incoming":[],"outgoing":[{"transport_id":"18","id":"12296","transport_name":"Sea","transport_description":"from the Greenhouse Gas Protocol Initiative - GHG emission from transport or mobile sources calculator 2.0 (jun 2009)","transport_unit":"kg km","transport_co2_eq":"0.000222","from_stop_id":"17145","from_stop_lat":"61.52401","from_stop_lon":"105.318756","from_stop_placename":"Ryssland","to_stop_id":"17136","to_stop_name":"origin","to_stop_lat":"51.165691","to_stop_lon":"10.451526","to_stop_placename":"Tyskland","to_stop":{"id":"17136","name":"origin","lat":"51.165691","lon":"10.451526","placename":"Tyskland"},"from_stop":{"name":"origin","id":"17145","lat":"61.52401","lon":"105.318756","placename":"Ryssland"}}]}}},"processes":[],"eols":[]}],"user":{"name":"Maria Petra","id":"13744"}}}