{"143":{"oid":"143","type":"trace","flag":"","creator":"11473","name":"Fuddruckers Hamburger","upc":"","imagelink":"","description":"","slug":"Fuddruckers-Hamburger-2","category":"","weight":"0","emissions":"0","embodied":"0","transport":"0","process":null,"endoflife":null,"shipping":"6990.82","lifetime":null,"usagetype":"","usageenergy":null,"usageemissions":null,"timecreated":"2010-12-04 23:04:00","timemodified":"2010-12-12 17:24:55","visibility":"public","showfootprint":"on","showembodied":"on","showtransport":"on","showprocess":"on","showendoflife":"on","showlastleg":"on","showuse":"on","showstats":"on","stops":{"origin":{"related_to":"143","part_or_object":"o","notes":null,"placename":"Missoula, Mt, USA","id":"8877","category":"1","lat":"46.872146","lon":"-113.9939982","name":"origin","hops":{"incoming":[{"transport_id":null,"id":"6194","transport_name":null,"transport_description":null,"transport_unit":null,"transport_co2_eq":null,"from_stop_id":"8878","from_stop_lat":"44.9799654","from_stop_lon":"-93.2638361","to_stop_id":"8877","to_stop_name":"origin","to_stop_lat":"46.872146","placename":"Minneapolis, MN, USA","to_stop_lon":"-113.9939982","to_stop":{"id":"8877","name":"origin","lat":"46.872146","placename":"Missoula, Mt, USA","lon":"-113.9939982"},"from_stop":{"name":"origin","id":"8878","lat":"44.9799654","lon":"-93.2638361","placename":"Minneapolis, MN, USA"}},{"transport_id":null,"id":"6195","transport_name":null,"transport_description":null,"transport_unit":null,"transport_co2_eq":null,"from_stop_id":"8879","from_stop_lat":"45.7832856","from_stop_lon":"-108.5006904","to_stop_id":"8877","to_stop_name":"origin","to_stop_lat":"46.872146","placename":"Billings, Mt, USA","to_stop_lon":"-113.9939982","to_stop":{"id":"8877","name":"origin","lat":"46.872146","placename":"Missoula, Mt, USA","lon":"-113.9939982"},"from_stop":{"name":"origin","id":"8879","lat":"45.7832856","lon":"-108.5006904","placename":"Billings, Mt, USA"}},{"transport_id":null,"id":"6196","transport_name":null,"transport_description":null,"transport_unit":null,"transport_co2_eq":null,"from_stop_id":"8880","from_stop_lat":"47.6062095","from_stop_lon":"-122.3320708","to_stop_id":"8877","to_stop_name":"origin","to_stop_lat":"46.872146","placename":"Seattle, WA, USA","to_stop_lon":"-113.9939982","to_stop":{"id":"8877","name":"origin","lat":"46.872146","placename":"Missoula, Mt, USA","lon":"-113.9939982"},"from_stop":{"name":"origin","id":"8880","lat":"47.6062095","lon":"-122.3320708","placename":"Seattle, WA, USA"}},{"transport_id":null,"id":"6197","transport_name":null,"transport_description":null,"transport_unit":null,"transport_co2_eq":null,"from_stop_id":"8881","from_stop_lat":"44.9132965","from_stop_lon":"-93.5032877","to_stop_id":"8877","to_stop_name":"origin","to_stop_lat":"46.872146","placename":"Minnetonka, MN, USA","to_stop_lon":"-113.9939982","to_stop":{"id":"8877","name":"origin","lat":"46.872146","placename":"Missoula, Mt, USA","lon":"-113.9939982"},"from_stop":{"name":"origin","id":"8881","lat":"44.9132965","lon":"-93.5032877","placename":"Minnetonka, MN, USA"}},{"transport_id":null,"id":"6198","transport_name":null,"transport_description":null,"transport_unit":null,"transport_co2_eq":null,"from_stop_id":"8882","from_stop_lat":"36.778261","from_stop_lon":"-119.4179324","to_stop_id":"8877","to_stop_name":"origin","to_stop_lat":"46.872146","placename":"California, USA","to_stop_lon":"-113.9939982","to_stop":{"id":"8877","name":"origin","lat":"46.872146","placename":"Missoula, Mt, USA","lon":"-113.9939982"},"from_stop":{"name":"origin","id":"8882","lat":"36.778261","lon":"-119.4179324","placename":"California, USA"}},{"transport_id":null,"id":"6199","transport_name":null,"transport_description":null,"transport_unit":null,"transport_co2_eq":null,"from_stop_id":"8883","from_stop_lat":"33.8030716","from_stop_lon":"-118.0725641","to_stop_id":"8877","to_stop_name":"origin","to_stop_lat":"46.872146","placename":"Los Alamitos, CA, USA","to_stop_lon":"-113.9939982","to_stop":{"id":"8877","name":"origin","lat":"46.872146","placename":"Missoula, Mt, USA","lon":"-113.9939982"},"from_stop":{"name":"origin","id":"8883","lat":"33.8030716","lon":"-118.0725641","placename":"Los Alamitos, CA, USA"}}],"outgoing":[]}}},"parts":[{"oid":"143","imid":"5030","linkid":"0","weight":"0","rawemissions":"0","emissions":"0","shipping":"1614.14","processemissions":"0","endoflifeemissions":"0","disposaltype":null,"disposalenergy":null,"disposalimpact":null,"disposalemissions":null,"description":"Used in making the bun. ","name":"Flour","id":"5030","stops":{"origin":{"related_to":"5030","part_or_object":"p","notes":null,"placename":"Minneapolis, MN, USA","id":8878,"name":"origin","lat":"44.9799654","lon":"-93.2638361","hops":{"incoming":[],"outgoing":[{"transport_id":null,"id":"6194","transport_name":null,"transport_description":null,"transport_unit":null,"transport_co2_eq":null,"from_stop_id":"8878","from_stop_lat":"44.9799654","from_stop_lon":"-93.2638361","from_stop_placename":"Minneapolis, MN, USA","to_stop_id":"8877","to_stop_name":"origin","to_stop_lat":"46.872146","to_stop_lon":"-113.9939982","to_stop_placename":"Missoula, Mt, USA","to_stop":{"id":"8877","name":"origin","lat":"46.872146","lon":"-113.9939982","placename":"Missoula, Mt, USA"},"from_stop":{"name":"origin","id":"8878","lat":"44.9799654","lon":"-93.2638361","placename":"Minneapolis, MN, USA"}}]}}},"processes":[],"eols":[]},{"oid":"143","imid":"5031","linkid":"0","weight":"0","rawemissions":"0","emissions":"0","shipping":"439.21","processemissions":"0","endoflifeemissions":"0","disposaltype":null,"disposalenergy":null,"disposalimpact":null,"disposalemissions":null,"description":"Used in making the bun. ","name":"Sugar ","id":"5031","stops":{"origin":{"related_to":"5031","part_or_object":"p","notes":null,"placename":"Billings, Mt, USA","id":8879,"name":"origin","lat":"45.7832856","lon":"-108.5006904","hops":{"incoming":[],"outgoing":[{"transport_id":null,"id":"6195","transport_name":null,"transport_description":null,"transport_unit":null,"transport_co2_eq":null,"from_stop_id":"8879","from_stop_lat":"45.7832856","from_stop_lon":"-108.5006904","from_stop_placename":"Billings, Mt, USA","to_stop_id":"8877","to_stop_name":"origin","to_stop_lat":"46.872146","to_stop_lon":"-113.9939982","to_stop_placename":"Missoula, Mt, USA","to_stop":{"id":"8877","name":"origin","lat":"46.872146","lon":"-113.9939982","placename":"Missoula, Mt, USA"},"from_stop":{"name":"origin","id":"8879","lat":"45.7832856","lon":"-108.5006904","placename":"Billings, Mt, USA"}}]}}},"processes":[],"eols":[]},{"oid":"143","imid":"5032","linkid":"0","weight":"0","rawemissions":"0","emissions":"0","shipping":"635.14","processemissions":"0","endoflifeemissions":"0","disposaltype":null,"disposalenergy":null,"disposalimpact":null,"disposalemissions":null,"description":"Used in making the bun. ","name":"Vegetable shortening","id":"5032","stops":{"origin":{"related_to":"5032","part_or_object":"p","notes":null,"placename":"Seattle, WA, USA","id":8880,"name":"origin","lat":"47.6062095","lon":"-122.3320708","hops":{"incoming":[],"outgoing":[{"transport_id":null,"id":"6196","transport_name":null,"transport_description":null,"transport_unit":null,"transport_co2_eq":null,"from_stop_id":"8880","from_stop_lat":"47.6062095","from_stop_lon":"-122.3320708","from_stop_placename":"Seattle, WA, USA","to_stop_id":"8877","to_stop_name":"origin","to_stop_lat":"46.872146","to_stop_lon":"-113.9939982","to_stop_placename":"Missoula, Mt, USA","to_stop":{"id":"8877","name":"origin","lat":"46.872146","lon":"-113.9939982","placename":"Missoula, Mt, USA"},"from_stop":{"name":"origin","id":"8880","lat":"47.6062095","lon":"-122.3320708","placename":"Seattle, WA, USA"}}]}}},"processes":[],"eols":[]},{"oid":"143","imid":"5033","linkid":"0","weight":"0","rawemissions":"0","emissions":"0","shipping":"1597.83","processemissions":"0","endoflifeemissions":"0","disposaltype":null,"disposalenergy":null,"disposalimpact":null,"disposalemissions":null,"description":"Used in making the bun. ","name":"Liquid egg","id":"5033","stops":{"origin":{"related_to":"5033","part_or_object":"p","notes":null,"placename":"Minnetonka, MN, USA","id":8881,"name":"origin","lat":"44.9132965","lon":"-93.5032877","hops":{"incoming":[],"outgoing":[{"transport_id":null,"id":"6197","transport_name":null,"transport_description":null,"transport_unit":null,"transport_co2_eq":null,"from_stop_id":"8881","from_stop_lat":"44.9132965","from_stop_lon":"-93.5032877","from_stop_placename":"Minnetonka, MN, USA","to_stop_id":"8877","to_stop_name":"origin","to_stop_lat":"46.872146","to_stop_lon":"-113.9939982","to_stop_placename":"Missoula, Mt, USA","to_stop":{"id":"8877","name":"origin","lat":"46.872146","lon":"-113.9939982","placename":"Missoula, Mt, USA"},"from_stop":{"name":"origin","id":"8881","lat":"44.9132965","lon":"-93.5032877","placename":"Minnetonka, MN, USA"}}]}}},"processes":[],"eols":[]},{"oid":"143","imid":"5034","linkid":"0","weight":"0","rawemissions":"0","emissions":"0","shipping":"1209.62","processemissions":"0","endoflifeemissions":"0","disposaltype":null,"disposalenergy":null,"disposalimpact":null,"disposalemissions":null,"description":"Processed and tested for E.  Coli at Burger Master. ","name":"Hamburger patty","id":"5034","stops":{"origin":{"related_to":"5034","part_or_object":"p","notes":null,"placename":"California, USA","id":8882,"name":"origin","lat":"36.778261","lon":"-119.4179324","hops":{"incoming":[],"outgoing":[{"transport_id":null,"id":"6198","transport_name":null,"transport_description":null,"transport_unit":null,"transport_co2_eq":null,"from_stop_id":"8882","from_stop_lat":"36.778261","from_stop_lon":"-119.4179324","from_stop_placename":"California, USA","to_stop_id":"8877","to_stop_name":"origin","to_stop_lat":"46.872146","to_stop_lon":"-113.9939982","to_stop_placename":"Missoula, Mt, USA","to_stop":{"id":"8877","name":"origin","lat":"46.872146","lon":"-113.9939982","placename":"Missoula, Mt, USA"},"from_stop":{"name":"origin","id":"8882","lat":"36.778261","lon":"-119.4179324","placename":"California, USA"}}]}}},"processes":[],"eols":[]},{"oid":"143","imid":"5035","linkid":"0","weight":"0","rawemissions":"0","emissions":"0","shipping":"1494.88","processemissions":"0","endoflifeemissions":"0","disposaltype":null,"disposalenergy":null,"disposalimpact":null,"disposalemissions":null,"description":"The lettuce,  tomato and onion for the hamburger. ","name":"Produce","id":"5035","stops":{"origin":{"related_to":"5035","part_or_object":"p","notes":null,"placename":"Los Alamitos, CA, USA","id":8883,"name":"origin","lat":"33.8030716","lon":"-118.0725641","hops":{"incoming":[],"outgoing":[{"transport_id":null,"id":"6199","transport_name":null,"transport_description":null,"transport_unit":null,"transport_co2_eq":null,"from_stop_id":"8883","from_stop_lat":"33.8030716","from_stop_lon":"-118.0725641","from_stop_placename":"Los Alamitos, CA, USA","to_stop_id":"8877","to_stop_name":"origin","to_stop_lat":"46.872146","to_stop_lon":"-113.9939982","to_stop_placename":"Missoula, Mt, USA","to_stop":{"id":"8877","name":"origin","lat":"46.872146","lon":"-113.9939982","placename":"Missoula, Mt, USA"},"from_stop":{"name":"origin","id":"8883","lat":"33.8030716","lon":"-118.0725641","placename":"Los Alamitos, CA, USA"}}]}}},"processes":[],"eols":[]}],"user":{"name":"mboatman","id":"11473"}}}