{"146":{"oid":"146","type":"object","flag":"","creator":"1","name":"TTT Spring 2008","upc":"","imagelink":"","description":"","slug":"ttt-spring-2008","category":"","weight":"22900","emissions":"176122","embodied":"0","transport":"176122","process":"0","endoflife":"0","shipping":"350236","lifetime":"0","usagetype":"","usageenergy":"0","usageemissions":"0","timecreated":"2010-02-24 22:03:35.411603","timemodified":"2009-03-24 04:46:35","visibility":"public","showfootprint":"on","showembodied":"on","showtransport":"on","showprocess":"on","showendoflife":"on","showlastleg":"on","showuse":"on","showstats":"on","stops":{"origin":{"related_to":"146","part_or_object":"o","notes":"","placename":"Cambridge MA","id":"17","category":"1","lat":"42.375392","lon":"-71.118487","name":"origin","hops":{"incoming":[{"transport_id":"13","id":"232","transport_name":"air, passenger, regional","transport_description":"within one continent, kg km from person-km","transport_unit":"kg km","transport_co2_eq":"2.262000","from_stop_id":"2411","from_stop_lat":"38.892091","from_stop_lon":"-77.024055","to_stop_id":"17","to_stop_name":"origin","to_stop_lat":"42.375392","placename":"Washington DC","to_stop_lon":"-71.118487","to_stop":{"id":"17","name":"origin","lat":"42.375392","placename":"Cambridge MA","lon":"-71.118487"},"from_stop":{"name":"origin","id":"2411","lat":"38.892091","lon":"-77.024055","placename":"Washington DC"}},{"transport_id":"14","id":"233","transport_name":"air, passenger, intercontinental","transport_description":"intercontinental, kg km from person-km","transport_unit":"kg km","transport_co2_eq":"1.189000","from_stop_id":"2412","from_stop_lat":"35.6894875","from_stop_lon":"139.6917064","to_stop_id":"17","to_stop_name":"origin","to_stop_lat":"42.375392","placename":"Tokyo Japan","to_stop_lon":"-71.118487","to_stop":{"id":"17","name":"origin","lat":"42.375392","placename":"Cambridge MA","lon":"-71.118487"},"from_stop":{"name":"origin","id":"2412","lat":"35.6894875","lon":"139.6917064","placename":"Tokyo Japan"}},{"transport_id":"14","id":"234","transport_name":"air, passenger, intercontinental","transport_description":"intercontinental, kg km from person-km","transport_unit":"kg km","transport_co2_eq":"1.189000","from_stop_id":"2413","from_stop_lat":"37.615223","from_stop_lon":"-122.389979","to_stop_id":"17","to_stop_name":"origin","to_stop_lat":"42.375392","placename":"SFO","to_stop_lon":"-71.118487","to_stop":{"id":"17","name":"origin","lat":"42.375392","placename":"Cambridge MA","lon":"-71.118487"},"from_stop":{"name":"origin","id":"2413","lat":"37.615223","lon":"-122.389979","placename":"SFO"}},{"transport_id":"13","id":"235","transport_name":"air, passenger, regional","transport_description":"within one continent, kg km from person-km","transport_unit":"kg km","transport_co2_eq":"2.262000","from_stop_id":"2414","from_stop_lat":"35.231402","from_stop_lon":"-80.845841","to_stop_id":"17","to_stop_name":"origin","to_stop_lat":"42.375392","placename":"Charlotte NC","to_stop_lon":"-71.118487","to_stop":{"id":"17","name":"origin","lat":"42.375392","placename":"Cambridge MA","lon":"-71.118487"},"from_stop":{"name":"origin","id":"2414","lat":"35.231402","lon":"-80.845841","placename":"Charlotte NC"}},{"transport_id":"14","id":"236","transport_name":"air, passenger, intercontinental","transport_description":"intercontinental, kg km from person-km","transport_unit":"kg km","transport_co2_eq":"1.189000","from_stop_id":"2415","from_stop_lat":"-14.235004","from_stop_lon":"-51.92528","to_stop_id":"17","to_stop_name":"origin","to_stop_lat":"42.375392","placename":"Brazil","to_stop_lon":"-71.118487","to_stop":{"id":"17","name":"origin","lat":"42.375392","placename":"Cambridge MA","lon":"-71.118487"},"from_stop":{"name":"origin","id":"2415","lat":"-14.235004","lon":"-51.92528","placename":"Brazil"}},{"transport_id":"14","id":"237","transport_name":"air, passenger, intercontinental","transport_description":"intercontinental, kg km from person-km","transport_unit":"kg km","transport_co2_eq":"1.189000","from_stop_id":"2416","from_stop_lat":"35.6894875","from_stop_lon":"139.6917064","to_stop_id":"17","to_stop_name":"origin","to_stop_lat":"42.375392","placename":"Tokyo","to_stop_lon":"-71.118487","to_stop":{"id":"17","name":"origin","lat":"42.375392","placename":"Cambridge MA","lon":"-71.118487"},"from_stop":{"name":"origin","id":"2416","lat":"35.6894875","lon":"139.6917064","placename":"Tokyo"}},{"transport_id":"14","id":"238","transport_name":"air, passenger, intercontinental","transport_description":"intercontinental, kg km from person-km","transport_unit":"kg km","transport_co2_eq":"1.189000","from_stop_id":"2417","from_stop_lat":"51.5001524","from_stop_lon":"-0.1262362","to_stop_id":"17","to_stop_name":"origin","to_stop_lat":"42.375392","placename":"London UK","to_stop_lon":"-71.118487","to_stop":{"id":"17","name":"origin","lat":"42.375392","placename":"Cambridge MA","lon":"-71.118487"},"from_stop":{"name":"origin","id":"2417","lat":"51.5001524","lon":"-0.1262362","placename":"London UK"}},{"transport_id":"14","id":"239","transport_name":"air, passenger, intercontinental","transport_description":"intercontinental, kg km from person-km","transport_unit":"kg km","transport_co2_eq":"1.189000","from_stop_id":"2418","from_stop_lat":"35.6894875","from_stop_lon":"139.6917064","to_stop_id":"17","to_stop_name":"origin","to_stop_lat":"42.375392","placename":"Tokyo Japan","to_stop_lon":"-71.118487","to_stop":{"id":"17","name":"origin","lat":"42.375392","placename":"Cambridge MA","lon":"-71.118487"},"from_stop":{"name":"origin","id":"2418","lat":"35.6894875","lon":"139.6917064","placename":"Tokyo Japan"}},{"transport_id":"14","id":"240","transport_name":"air, passenger, intercontinental","transport_description":"intercontinental, kg km from person-km","transport_unit":"kg km","transport_co2_eq":"1.189000","from_stop_id":"2419","from_stop_lat":"37.615223","from_stop_lon":"-122.389979","to_stop_id":"17","to_stop_name":"origin","to_stop_lat":"42.375392","placename":"SFO","to_stop_lon":"-71.118487","to_stop":{"id":"17","name":"origin","lat":"42.375392","placename":"Cambridge MA","lon":"-71.118487"},"from_stop":{"name":"origin","id":"2419","lat":"37.615223","lon":"-122.389979","placename":"SFO"}},{"transport_id":"14","id":"241","transport_name":"air, passenger, intercontinental","transport_description":"intercontinental, kg km from person-km","transport_unit":"kg km","transport_co2_eq":"1.189000","from_stop_id":"2420","from_stop_lat":"35.6894875","from_stop_lon":"139.6917064","to_stop_id":"17","to_stop_name":"origin","to_stop_lat":"42.375392","placename":"Tokyo","to_stop_lon":"-71.118487","to_stop":{"id":"17","name":"origin","lat":"42.375392","placename":"Cambridge MA","lon":"-71.118487"},"from_stop":{"name":"origin","id":"2420","lat":"35.6894875","lon":"139.6917064","placename":"Tokyo"}},{"transport_id":"14","id":"242","transport_name":"air, passenger, intercontinental","transport_description":"intercontinental, kg km from person-km","transport_unit":"kg km","transport_co2_eq":"1.189000","from_stop_id":"2421","from_stop_lat":"35.6894875","from_stop_lon":"139.6917064","to_stop_id":"17","to_stop_name":"origin","to_stop_lat":"42.375392","placename":"Tokyo","to_stop_lon":"-71.118487","to_stop":{"id":"17","name":"origin","lat":"42.375392","placename":"Cambridge MA","lon":"-71.118487"},"from_stop":{"name":"origin","id":"2421","lat":"35.6894875","lon":"139.6917064","placename":"Tokyo"}},{"transport_id":"14","id":"243","transport_name":"air, passenger, intercontinental","transport_description":"intercontinental, kg km from person-km","transport_unit":"kg km","transport_co2_eq":"1.189000","from_stop_id":"2422","from_stop_lat":"35.6894875","from_stop_lon":"139.6917064","to_stop_id":"17","to_stop_name":"origin","to_stop_lat":"42.375392","placename":"Tokyo","to_stop_lon":"-71.118487","to_stop":{"id":"17","name":"origin","lat":"42.375392","placename":"Cambridge MA","lon":"-71.118487"},"from_stop":{"name":"origin","id":"2422","lat":"35.6894875","lon":"139.6917064","placename":"Tokyo"}},{"transport_id":"14","id":"244","transport_name":"air, passenger, intercontinental","transport_description":"intercontinental, kg km from person-km","transport_unit":"kg km","transport_co2_eq":"1.189000","from_stop_id":"2423","from_stop_lat":"33.9440655","from_stop_lon":"-118.408294","to_stop_id":"17","to_stop_name":"origin","to_stop_lat":"42.375392","placename":"LAX","to_stop_lon":"-71.118487","to_stop":{"id":"17","name":"origin","lat":"42.375392","placename":"Cambridge MA","lon":"-71.118487"},"from_stop":{"name":"origin","id":"2423","lat":"33.9440655","lon":"-118.408294","placename":"LAX"}},{"transport_id":"14","id":"245","transport_name":"air, passenger, intercontinental","transport_description":"intercontinental, kg km from person-km","transport_unit":"kg km","transport_co2_eq":"1.189000","from_stop_id":"2424","from_stop_lat":"48.8566667","from_stop_lon":"2.3509871","to_stop_id":"17","to_stop_name":"origin","to_stop_lat":"42.375392","placename":"Paris","to_stop_lon":"-71.118487","to_stop":{"id":"17","name":"origin","lat":"42.375392","placename":"Cambridge MA","lon":"-71.118487"},"from_stop":{"name":"origin","id":"2424","lat":"48.8566667","lon":"2.3509871","placename":"Paris"}},{"transport_id":"13","id":"246","transport_name":"air, passenger, regional","transport_description":"within one continent, kg km from person-km","transport_unit":"kg km","transport_co2_eq":"2.262000","from_stop_id":"2425","from_stop_lat":"30.268735","from_stop_lon":"-97.745209","to_stop_id":"17","to_stop_name":"origin","to_stop_lat":"42.375392","placename":"Austin TX","to_stop_lon":"-71.118487","to_stop":{"id":"17","name":"origin","lat":"42.375392","placename":"Cambridge MA","lon":"-71.118487"},"from_stop":{"name":"origin","id":"2425","lat":"30.268735","lon":"-97.745209","placename":"Austin TX"}},{"transport_id":"13","id":"247","transport_name":"air, passenger, regional","transport_description":"within one continent, kg km from person-km","transport_unit":"kg km","transport_co2_eq":"2.262000","from_stop_id":"2426","from_stop_lat":"36.158887","from_stop_lon":"-86.782056","to_stop_id":"17","to_stop_name":"origin","to_stop_lat":"42.375392","placename":"Nashville TN","to_stop_lon":"-71.118487","to_stop":{"id":"17","name":"origin","lat":"42.375392","placename":"Cambridge MA","lon":"-71.118487"},"from_stop":{"name":"origin","id":"2426","lat":"36.158887","lon":"-86.782056","placename":"Nashville TN"}},{"transport_id":"13","id":"248","transport_name":"air, passenger, regional","transport_description":"within one continent, kg km from person-km","transport_unit":"kg km","transport_co2_eq":"2.262000","from_stop_id":"2427","from_stop_lat":"39.090432","from_stop_lon":"-94.583653","to_stop_id":"17","to_stop_name":"origin","to_stop_lat":"42.375392","placename":"Kansas City MO","to_stop_lon":"-71.118487","to_stop":{"id":"17","name":"origin","lat":"42.375392","placename":"Cambridge MA","lon":"-71.118487"},"from_stop":{"name":"origin","id":"2427","lat":"39.090432","lon":"-94.583653","placename":"Kansas City MO"}},{"transport_id":"13","id":"249","transport_name":"air, passenger, regional","transport_description":"within one continent, kg km from person-km","transport_unit":"kg km","transport_co2_eq":"2.262000","from_stop_id":"2428","from_stop_lat":"40.756054","from_stop_lon":"-73.986951","to_stop_id":"17","to_stop_name":"origin","to_stop_lat":"42.375392","placename":"NYC","to_stop_lon":"-71.118487","to_stop":{"id":"17","name":"origin","lat":"42.375392","placename":"Cambridge MA","lon":"-71.118487"},"from_stop":{"name":"origin","id":"2428","lat":"40.756054","lon":"-73.986951","placename":"NYC"}},{"transport_id":"14","id":"252","transport_name":"air, passenger, intercontinental","transport_description":"intercontinental, kg km from person-km","transport_unit":"kg km","transport_co2_eq":"1.189000","from_stop_id":"2431","from_stop_lat":"35.6894875","from_stop_lon":"139.6917064","to_stop_id":"17","to_stop_name":"origin","to_stop_lat":"42.375392","placename":"Tokyo","to_stop_lon":"-71.118487","to_stop":{"id":"17","name":"origin","lat":"42.375392","placename":"Cambridge MA","lon":"-71.118487"},"from_stop":{"name":"origin","id":"2431","lat":"35.6894875","lon":"139.6917064","placename":"Tokyo"}},{"transport_id":"13","id":"253","transport_name":"air, passenger, regional","transport_description":"within one continent, kg km from person-km","transport_unit":"kg km","transport_co2_eq":"2.262000","from_stop_id":"2432","from_stop_lat":"38.256065","from_stop_lon":"-85.75154","to_stop_id":"17","to_stop_name":"origin","to_stop_lat":"42.375392","placename":"Louisville KY","to_stop_lon":"-71.118487","to_stop":{"id":"17","name":"origin","lat":"42.375392","placename":"Cambridge MA","lon":"-71.118487"},"from_stop":{"name":"origin","id":"2432","lat":"38.256065","lon":"-85.75154","placename":"Louisville KY"}},{"transport_id":"13","id":"254","transport_name":"air, passenger, regional","transport_description":"within one continent, kg km from person-km","transport_unit":"kg km","transport_co2_eq":"2.262000","from_stop_id":"2433","from_stop_lat":"40.756054","from_stop_lon":"-73.986951","to_stop_id":"17","to_stop_name":"origin","to_stop_lat":"42.375392","placename":"NYC","to_stop_lon":"-71.118487","to_stop":{"id":"17","name":"origin","lat":"42.375392","placename":"Cambridge MA","lon":"-71.118487"},"from_stop":{"name":"origin","id":"2433","lat":"40.756054","lon":"-73.986951","placename":"NYC"}},{"transport_id":"14","id":"255","transport_name":"air, passenger, intercontinental","transport_description":"intercontinental, kg km from person-km","transport_unit":"kg km","transport_co2_eq":"1.189000","from_stop_id":"2434","from_stop_lat":"35.6894875","from_stop_lon":"139.6917064","to_stop_id":"17","to_stop_name":"origin","to_stop_lat":"42.375392","placename":"Tokyo","to_stop_lon":"-71.118487","to_stop":{"id":"17","name":"origin","lat":"42.375392","placename":"Cambridge MA","lon":"-71.118487"},"from_stop":{"name":"origin","id":"2434","lat":"35.6894875","lon":"139.6917064","placename":"Tokyo"}},{"transport_id":"14","id":"256","transport_name":"air, passenger, intercontinental","transport_description":"intercontinental, kg km from person-km","transport_unit":"kg km","transport_co2_eq":"1.189000","from_stop_id":"2435","from_stop_lat":"37.615223","from_stop_lon":"-122.389979","to_stop_id":"17","to_stop_name":"origin","to_stop_lat":"42.375392","placename":"SFO","to_stop_lon":"-71.118487","to_stop":{"id":"17","name":"origin","lat":"42.375392","placename":"Cambridge MA","lon":"-71.118487"},"from_stop":{"name":"origin","id":"2435","lat":"37.615223","lon":"-122.389979","placename":"SFO"}},{"transport_id":"14","id":"296","transport_name":"air, passenger, intercontinental","transport_description":"intercontinental, kg km from person-km","transport_unit":"kg km","transport_co2_eq":"1.189000","from_stop_id":"2475","from_stop_lat":"25.091075","from_stop_lon":"121.5598345","to_stop_id":"17","to_stop_name":"origin","to_stop_lat":"42.375392","placename":"Taipei","to_stop_lon":"-71.118487","to_stop":{"id":"17","name":"origin","lat":"42.375392","placename":"Cambridge MA","lon":"-71.118487"},"from_stop":{"name":"origin","id":"2475","lat":"25.091075","lon":"121.5598345","placename":"Taipei"}},{"transport_id":"14","id":"297","transport_name":"air, passenger, intercontinental","transport_description":"intercontinental, kg km from person-km","transport_unit":"kg km","transport_co2_eq":"1.189000","from_stop_id":"2476","from_stop_lat":"43.7844397","from_stop_lon":"-88.7878678","to_stop_id":"17","to_stop_name":"origin","to_stop_lat":"42.375392","placename":"Wisconsin","to_stop_lon":"-71.118487","to_stop":{"id":"17","name":"origin","lat":"42.375392","placename":"Cambridge MA","lon":"-71.118487"},"from_stop":{"name":"origin","id":"2476","lat":"43.7844397","lon":"-88.7878678","placename":"Wisconsin"}},{"transport_id":"14","id":"298","transport_name":"air, passenger, intercontinental","transport_description":"intercontinental, kg km from person-km","transport_unit":"kg km","transport_co2_eq":"1.189000","from_stop_id":"2477","from_stop_lat":"35.6894875","from_stop_lon":"139.6917064","to_stop_id":"17","to_stop_name":"origin","to_stop_lat":"42.375392","placename":"Tokyo","to_stop_lon":"-71.118487","to_stop":{"id":"17","name":"origin","lat":"42.375392","placename":"Cambridge MA","lon":"-71.118487"},"from_stop":{"name":"origin","id":"2477","lat":"35.6894875","lon":"139.6917064","placename":"Tokyo"}},{"transport_id":"14","id":"299","transport_name":"air, passenger, intercontinental","transport_description":"intercontinental, kg km from person-km","transport_unit":"kg km","transport_co2_eq":"1.189000","from_stop_id":"2478","from_stop_lat":"56.26392","from_stop_lon":"9.501785","to_stop_id":"17","to_stop_name":"origin","to_stop_lat":"42.375392","placename":"Denmark","to_stop_lon":"-71.118487","to_stop":{"id":"17","name":"origin","lat":"42.375392","placename":"Cambridge MA","lon":"-71.118487"},"from_stop":{"name":"origin","id":"2478","lat":"56.26392","lon":"9.501785","placename":"Denmark"}},{"transport_id":"14","id":"300","transport_name":"air, passenger, intercontinental","transport_description":"intercontinental, kg km from person-km","transport_unit":"kg km","transport_co2_eq":"1.189000","from_stop_id":"2479","from_stop_lat":"37.550263","from_stop_lon":"126.9970831","to_stop_id":"17","to_stop_name":"origin","to_stop_lat":"42.375392","placename":"Seoul","to_stop_lon":"-71.118487","to_stop":{"id":"17","name":"origin","lat":"42.375392","placename":"Cambridge MA","lon":"-71.118487"},"from_stop":{"name":"origin","id":"2479","lat":"37.550263","lon":"126.9970831","placename":"Seoul"}},{"transport_id":"14","id":"301","transport_name":"air, passenger, intercontinental","transport_description":"intercontinental, kg km from person-km","transport_unit":"kg km","transport_co2_eq":"1.189000","from_stop_id":"2480","from_stop_lat":"37.615223","from_stop_lon":"-122.389979","to_stop_id":"17","to_stop_name":"origin","to_stop_lat":"42.375392","placename":"SFO","to_stop_lon":"-71.118487","to_stop":{"id":"17","name":"origin","lat":"42.375392","placename":"Cambridge MA","lon":"-71.118487"},"from_stop":{"name":"origin","id":"2480","lat":"37.615223","lon":"-122.389979","placename":"SFO"}},{"transport_id":"14","id":"302","transport_name":"air, passenger, intercontinental","transport_description":"intercontinental, kg km from person-km","transport_unit":"kg km","transport_co2_eq":"1.189000","from_stop_id":"2481","from_stop_lat":"46.818188","from_stop_lon":"8.227512","to_stop_id":"17","to_stop_name":"origin","to_stop_lat":"42.375392","placename":"Switzerland","to_stop_lon":"-71.118487","to_stop":{"id":"17","name":"origin","lat":"42.375392","placename":"Cambridge MA","lon":"-71.118487"},"from_stop":{"name":"origin","id":"2481","lat":"46.818188","lon":"8.227512","placename":"Switzerland"}},{"transport_id":"14","id":"303","transport_name":"air, passenger, intercontinental","transport_description":"intercontinental, kg km from person-km","transport_unit":"kg km","transport_co2_eq":"1.189000","from_stop_id":"2482","from_stop_lat":"33.9440655","from_stop_lon":"-118.408294","to_stop_id":"17","to_stop_name":"origin","to_stop_lat":"42.375392","placename":"LAX","to_stop_lon":"-71.118487","to_stop":{"id":"17","name":"origin","lat":"42.375392","placename":"Cambridge MA","lon":"-71.118487"},"from_stop":{"name":"origin","id":"2482","lat":"33.9440655","lon":"-118.408294","placename":"LAX"}},{"transport_id":"14","id":"304","transport_name":"air, passenger, intercontinental","transport_description":"intercontinental, kg km from person-km","transport_unit":"kg km","transport_co2_eq":"1.189000","from_stop_id":"2483","from_stop_lat":"47.672229","from_stop_lon":"-122.115633","to_stop_id":"17","to_stop_name":"origin","to_stop_lat":"42.375392","placename":"Redmond WA","to_stop_lon":"-71.118487","to_stop":{"id":"17","name":"origin","lat":"42.375392","placename":"Cambridge MA","lon":"-71.118487"},"from_stop":{"name":"origin","id":"2483","lat":"47.672229","lon":"-122.115633","placename":"Redmond WA"}},{"transport_id":"14","id":"305","transport_name":"air, passenger, intercontinental","transport_description":"intercontinental, kg km from person-km","transport_unit":"kg km","transport_co2_eq":"1.189000","from_stop_id":"2484","from_stop_lat":"41.98012","from_stop_lon":"-87.906247","to_stop_id":"17","to_stop_name":"origin","to_stop_lat":"42.375392","placename":"ORD","to_stop_lon":"-71.118487","to_stop":{"id":"17","name":"origin","lat":"42.375392","placename":"Cambridge MA","lon":"-71.118487"},"from_stop":{"name":"origin","id":"2484","lat":"41.98012","lon":"-87.906247","placename":"ORD"}},{"transport_id":"14","id":"306","transport_name":"air, passenger, intercontinental","transport_description":"intercontinental, kg km from person-km","transport_unit":"kg km","transport_co2_eq":"1.189000","from_stop_id":"2485","from_stop_lat":"29.759956","from_stop_lon":"-95.362534","to_stop_id":"17","to_stop_name":"origin","to_stop_lat":"42.375392","placename":"Houston TX","to_stop_lon":"-71.118487","to_stop":{"id":"17","name":"origin","lat":"42.375392","placename":"Cambridge MA","lon":"-71.118487"},"from_stop":{"name":"origin","id":"2485","lat":"29.759956","lon":"-95.362534","placename":"Houston TX"}},{"transport_id":"14","id":"307","transport_name":"air, passenger, intercontinental","transport_description":"intercontinental, kg km from person-km","transport_unit":"kg km","transport_co2_eq":"1.189000","from_stop_id":"2486","from_stop_lat":"35.6894875","from_stop_lon":"139.6917064","to_stop_id":"17","to_stop_name":"origin","to_stop_lat":"42.375392","placename":"Tokyo","to_stop_lon":"-71.118487","to_stop":{"id":"17","name":"origin","lat":"42.375392","placename":"Cambridge MA","lon":"-71.118487"},"from_stop":{"name":"origin","id":"2486","lat":"35.6894875","lon":"139.6917064","placename":"Tokyo"}},{"transport_id":"13","id":"308","transport_name":"air, passenger, regional","transport_description":"within one continent, kg km from person-km","transport_unit":"kg km","transport_co2_eq":"2.262000","from_stop_id":"2487","from_stop_lat":"40.756054","from_stop_lon":"-73.986951","to_stop_id":"17","to_stop_name":"origin","to_stop_lat":"42.375392","placename":"NYC","to_stop_lon":"-71.118487","to_stop":{"id":"17","name":"origin","lat":"42.375392","placename":"Cambridge MA","lon":"-71.118487"},"from_stop":{"name":"origin","id":"2487","lat":"40.756054","lon":"-73.986951","placename":"NYC"}},{"transport_id":"14","id":"309","transport_name":"air, passenger, intercontinental","transport_description":"intercontinental, kg km from person-km","transport_unit":"kg km","transport_co2_eq":"1.189000","from_stop_id":"2488","from_stop_lat":"61.92411","from_stop_lon":"25.748151","to_stop_id":"17","to_stop_name":"origin","to_stop_lat":"42.375392","placename":"Finland","to_stop_lon":"-71.118487","to_stop":{"id":"17","name":"origin","lat":"42.375392","placename":"Cambridge MA","lon":"-71.118487"},"from_stop":{"name":"origin","id":"2488","lat":"61.92411","lon":"25.748151","placename":"Finland"}},{"transport_id":"14","id":"310","transport_name":"air, passenger, intercontinental","transport_description":"intercontinental, kg km from person-km","transport_unit":"kg km","transport_co2_eq":"1.189000","from_stop_id":"2489","from_stop_lat":"35.6894875","from_stop_lon":"139.6917064","to_stop_id":"17","to_stop_name":"origin","to_stop_lat":"42.375392","placename":"Tokyo","to_stop_lon":"-71.118487","to_stop":{"id":"17","name":"origin","lat":"42.375392","placename":"Cambridge MA","lon":"-71.118487"},"from_stop":{"name":"origin","id":"2489","lat":"35.6894875","lon":"139.6917064","placename":"Tokyo"}},{"transport_id":"14","id":"315","transport_name":"air, passenger, intercontinental","transport_description":"intercontinental, kg km from person-km","transport_unit":"kg km","transport_co2_eq":"1.189000","from_stop_id":"2499","from_stop_lat":"52.132633","from_stop_lon":"5.291266","to_stop_id":"17","to_stop_name":"origin","to_stop_lat":"42.375392","placename":"Holland","to_stop_lon":"-71.118487","to_stop":{"id":"17","name":"origin","lat":"42.375392","placename":"Cambridge MA","lon":"-71.118487"},"from_stop":{"name":"origin","id":"2499","lat":"52.132633","lon":"5.291266","placename":"Holland"}},{"transport_id":"1","id":"316","transport_name":"van, 3.5 tons","transport_description":"delivery van, half full","transport_unit":"kg km","transport_co2_eq":"0.053400","from_stop_id":"2500","from_stop_lat":"41.952751","from_stop_lon":"-70.66996","to_stop_id":"17","to_stop_name":"origin","to_stop_lat":"42.375392","placename":"Plymouth MA","to_stop_lon":"-71.118487","to_stop":{"id":"17","name":"origin","lat":"42.375392","placename":"Cambridge MA","lon":"-71.118487"},"from_stop":{"name":"origin","id":"2500","lat":"41.952751","lon":"-70.66996","placename":"Plymouth MA"}},{"transport_id":"14","id":"320","transport_name":"air, passenger, intercontinental","transport_description":"intercontinental, kg km from person-km","transport_unit":"kg km","transport_co2_eq":"1.189000","from_stop_id":"2504","from_stop_lat":"37.615223","from_stop_lon":"-122.389979","to_stop_id":"17","to_stop_name":"origin","to_stop_lat":"42.375392","placename":"SFO","to_stop_lon":"-71.118487","to_stop":{"id":"17","name":"origin","lat":"42.375392","placename":"Cambridge MA","lon":"-71.118487"},"from_stop":{"name":"origin","id":"2504","lat":"37.615223","lon":"-122.389979","placename":"SFO"}},{"transport_id":"14","id":"321","transport_name":"air, passenger, intercontinental","transport_description":"intercontinental, kg km from person-km","transport_unit":"kg km","transport_co2_eq":"1.189000","from_stop_id":"2505","from_stop_lat":"35.6894875","from_stop_lon":"139.6917064","to_stop_id":"17","to_stop_name":"origin","to_stop_lat":"42.375392","placename":"Tokyo","to_stop_lon":"-71.118487","to_stop":{"id":"17","name":"origin","lat":"42.375392","placename":"Cambridge MA","lon":"-71.118487"},"from_stop":{"name":"origin","id":"2505","lat":"35.6894875","lon":"139.6917064","placename":"Tokyo"}},{"transport_id":"14","id":"322","transport_name":"air, passenger, intercontinental","transport_description":"intercontinental, kg km from person-km","transport_unit":"kg km","transport_co2_eq":"1.189000","from_stop_id":"2506","from_stop_lat":"37.566535","from_stop_lon":"126.9779692","to_stop_id":"17","to_stop_name":"origin","to_stop_lat":"42.375392","placename":"Seoul","to_stop_lon":"-71.118487","to_stop":{"id":"17","name":"origin","lat":"42.375392","placename":"Cambridge MA","lon":"-71.118487"},"from_stop":{"name":"origin","id":"2506","lat":"37.566535","lon":"126.9779692","placename":"Seoul"}},{"transport_id":"13","id":"323","transport_name":"air, passenger, regional","transport_description":"within one continent, kg km from person-km","transport_unit":"kg km","transport_co2_eq":"2.262000","from_stop_id":"2507","from_stop_lat":"29.759956","from_stop_lon":"-95.362534","to_stop_id":"17","to_stop_name":"origin","to_stop_lat":"42.375392","placename":"Houston","to_stop_lon":"-71.118487","to_stop":{"id":"17","name":"origin","lat":"42.375392","placename":"Cambridge MA","lon":"-71.118487"},"from_stop":{"name":"origin","id":"2507","lat":"29.759956","lon":"-95.362534","placename":"Houston"}},{"transport_id":"14","id":"324","transport_name":"air, passenger, intercontinental","transport_description":"intercontinental, kg km from person-km","transport_unit":"kg km","transport_co2_eq":"1.189000","from_stop_id":"2508","from_stop_lat":"37.615223","from_stop_lon":"-122.389979","to_stop_id":"17","to_stop_name":"origin","to_stop_lat":"42.375392","placename":"SFO","to_stop_lon":"-71.118487","to_stop":{"id":"17","name":"origin","lat":"42.375392","placename":"Cambridge MA","lon":"-71.118487"},"from_stop":{"name":"origin","id":"2508","lat":"37.615223","lon":"-122.389979","placename":"SFO"}},{"transport_id":"13","id":"325","transport_name":"air, passenger, regional","transport_description":"within one continent, kg km from person-km","transport_unit":"kg km","transport_co2_eq":"2.262000","from_stop_id":"2509","from_stop_lat":"27.6648274","from_stop_lon":"-81.5157535","to_stop_id":"17","to_stop_name":"origin","to_stop_lat":"42.375392","placename":"FL","to_stop_lon":"-71.118487","to_stop":{"id":"17","name":"origin","lat":"42.375392","placename":"Cambridge MA","lon":"-71.118487"},"from_stop":{"name":"origin","id":"2509","lat":"27.6648274","lon":"-81.5157535","placename":"FL"}},{"transport_id":"13","id":"326","transport_name":"air, passenger, regional","transport_description":"within one continent, kg km from person-km","transport_unit":"kg km","transport_co2_eq":"2.262000","from_stop_id":"2510","from_stop_lat":"38.921679","from_stop_lon":"-97.221632","to_stop_id":"17","to_stop_name":"origin","to_stop_lat":"42.375392","placename":"Abilene Kansas","to_stop_lon":"-71.118487","to_stop":{"id":"17","name":"origin","lat":"42.375392","placename":"Cambridge MA","lon":"-71.118487"},"from_stop":{"name":"origin","id":"2510","lat":"38.921679","lon":"-97.221632","placename":"Abilene Kansas"}},{"transport_id":"13","id":"327","transport_name":"air, passenger, regional","transport_description":"within one continent, kg km from person-km","transport_unit":"kg km","transport_co2_eq":"2.262000","from_stop_id":"2511","from_stop_lat":"42.970471","from_stop_lon":"-85.668648","to_stop_id":"17","to_stop_name":"origin","to_stop_lat":"42.375392","placename":"Grand Rapids MI","to_stop_lon":"-71.118487","to_stop":{"id":"17","name":"origin","lat":"42.375392","placename":"Cambridge MA","lon":"-71.118487"},"from_stop":{"name":"origin","id":"2511","lat":"42.970471","lon":"-85.668648","placename":"Grand Rapids MI"}},{"transport_id":"14","id":"328","transport_name":"air, passenger, intercontinental","transport_description":"intercontinental, kg km from person-km","transport_unit":"kg km","transport_co2_eq":"1.189000","from_stop_id":"2512","from_stop_lat":"37.615223","from_stop_lon":"-122.389979","to_stop_id":"17","to_stop_name":"origin","to_stop_lat":"42.375392","placename":"SFO","to_stop_lon":"-71.118487","to_stop":{"id":"17","name":"origin","lat":"42.375392","placename":"Cambridge MA","lon":"-71.118487"},"from_stop":{"name":"origin","id":"2512","lat":"37.615223","lon":"-122.389979","placename":"SFO"}},{"transport_id":"13","id":"329","transport_name":"air, passenger, regional","transport_description":"within one continent, kg km from person-km","transport_unit":"kg km","transport_co2_eq":"2.262000","from_stop_id":"2513","from_stop_lat":"44.977482","from_stop_lon":"-93.264351","to_stop_id":"17","to_stop_name":"origin","to_stop_lat":"42.375392","placename":"Minneapolis","to_stop_lon":"-71.118487","to_stop":{"id":"17","name":"origin","lat":"42.375392","placename":"Cambridge MA","lon":"-71.118487"},"from_stop":{"name":"origin","id":"2513","lat":"44.977482","lon":"-93.264351","placename":"Minneapolis"}},{"transport_id":"14","id":"330","transport_name":"air, passenger, intercontinental","transport_description":"intercontinental, kg km from person-km","transport_unit":"kg km","transport_co2_eq":"1.189000","from_stop_id":"2514","from_stop_lat":"41.8954656","from_stop_lon":"12.4823243","to_stop_id":"17","to_stop_name":"origin","to_stop_lat":"42.375392","placename":"Rome","to_stop_lon":"-71.118487","to_stop":{"id":"17","name":"origin","lat":"42.375392","placename":"Cambridge MA","lon":"-71.118487"},"from_stop":{"name":"origin","id":"2514","lat":"41.8954656","lon":"12.4823243","placename":"Rome"}},{"transport_id":"13","id":"331","transport_name":"air, passenger, regional","transport_description":"within one continent, kg km from person-km","transport_unit":"kg km","transport_co2_eq":"2.262000","from_stop_id":"2515","from_stop_lat":"40.756054","from_stop_lon":"-73.986951","to_stop_id":"17","to_stop_name":"origin","to_stop_lat":"42.375392","placename":"NYC","to_stop_lon":"-71.118487","to_stop":{"id":"17","name":"origin","lat":"42.375392","placename":"Cambridge MA","lon":"-71.118487"},"from_stop":{"name":"origin","id":"2515","lat":"40.756054","lon":"-73.986951","placename":"NYC"}},{"transport_id":"14","id":"332","transport_name":"air, passenger, intercontinental","transport_description":"intercontinental, kg km from person-km","transport_unit":"kg km","transport_co2_eq":"1.189000","from_stop_id":"2516","from_stop_lat":"19.410636","from_stop_lon":"-99.130588","to_stop_id":"17","to_stop_name":"origin","to_stop_lat":"42.375392","placename":"Mexico City","to_stop_lon":"-71.118487","to_stop":{"id":"17","name":"origin","lat":"42.375392","placename":"Cambridge MA","lon":"-71.118487"},"from_stop":{"name":"origin","id":"2516","lat":"19.410636","lon":"-99.130588","placename":"Mexico City"}},{"transport_id":"14","id":"333","transport_name":"air, passenger, intercontinental","transport_description":"intercontinental, kg km from person-km","transport_unit":"kg km","transport_co2_eq":"1.189000","from_stop_id":"2517","from_stop_lat":"35.6894875","from_stop_lon":"139.6917064","to_stop_id":"17","to_stop_name":"origin","to_stop_lat":"42.375392","placename":"Tokyo","to_stop_lon":"-71.118487","to_stop":{"id":"17","name":"origin","lat":"42.375392","placename":"Cambridge MA","lon":"-71.118487"},"from_stop":{"name":"origin","id":"2517","lat":"35.6894875","lon":"139.6917064","placename":"Tokyo"}},{"transport_id":"14","id":"334","transport_name":"air, passenger, intercontinental","transport_description":"intercontinental, kg km from person-km","transport_unit":"kg km","transport_co2_eq":"1.189000","from_stop_id":"2518","from_stop_lat":"35.6894875","from_stop_lon":"139.6917064","to_stop_id":"17","to_stop_name":"origin","to_stop_lat":"42.375392","placename":"Tokyo","to_stop_lon":"-71.118487","to_stop":{"id":"17","name":"origin","lat":"42.375392","placename":"Cambridge MA","lon":"-71.118487"},"from_stop":{"name":"origin","id":"2518","lat":"35.6894875","lon":"139.6917064","placename":"Tokyo"}},{"transport_id":"14","id":"335","transport_name":"air, passenger, intercontinental","transport_description":"intercontinental, kg km from person-km","transport_unit":"kg km","transport_co2_eq":"1.189000","from_stop_id":"2519","from_stop_lat":"23.69781","from_stop_lon":"120.960515","to_stop_id":"17","to_stop_name":"origin","to_stop_lat":"42.375392","placename":"Taiwan","to_stop_lon":"-71.118487","to_stop":{"id":"17","name":"origin","lat":"42.375392","placename":"Cambridge MA","lon":"-71.118487"},"from_stop":{"name":"origin","id":"2519","lat":"23.69781","lon":"120.960515","placename":"Taiwan"}},{"transport_id":"14","id":"336","transport_name":"air, passenger, intercontinental","transport_description":"intercontinental, kg km from person-km","transport_unit":"kg km","transport_co2_eq":"1.189000","from_stop_id":"2520","from_stop_lat":"51.165691","from_stop_lon":"10.451526","to_stop_id":"17","to_stop_name":"origin","to_stop_lat":"42.375392","placename":"Germany","to_stop_lon":"-71.118487","to_stop":{"id":"17","name":"origin","lat":"42.375392","placename":"Cambridge MA","lon":"-71.118487"},"from_stop":{"name":"origin","id":"2520","lat":"51.165691","lon":"10.451526","placename":"Germany"}},{"transport_id":"14","id":"337","transport_name":"air, passenger, intercontinental","transport_description":"intercontinental, kg km from person-km","transport_unit":"kg km","transport_co2_eq":"1.189000","from_stop_id":"2521","from_stop_lat":"35.6894875","from_stop_lon":"139.6917064","to_stop_id":"17","to_stop_name":"origin","to_stop_lat":"42.375392","placename":"Tokyo","to_stop_lon":"-71.118487","to_stop":{"id":"17","name":"origin","lat":"42.375392","placename":"Cambridge MA","lon":"-71.118487"},"from_stop":{"name":"origin","id":"2521","lat":"35.6894875","lon":"139.6917064","placename":"Tokyo"}},{"transport_id":"17","id":"250","transport_name":"None Selected","transport_description":null,"transport_unit":"kg km","transport_co2_eq":"0.000000","from_stop_id":"2429","from_stop_lat":"57.4766949","from_stop_lon":"-4.2314535","to_stop_id":"17","to_stop_name":"origin","to_stop_lat":"42.375392","placename":"Inverness UK","to_stop_lon":"-71.118487","to_stop":{"id":"17","name":"origin","lat":"42.375392","placename":"Cambridge MA","lon":"-71.118487"},"from_stop":{"name":"origin","id":"2429","lat":"57.4766949","lon":"-4.2314535","placename":"Inverness UK"}},{"transport_id":"17","id":"251","transport_name":"None Selected","transport_description":null,"transport_unit":"kg km","transport_co2_eq":"0.000000","from_stop_id":"2430","from_stop_lat":"35.6894875","from_stop_lon":"139.6917064","to_stop_id":"17","to_stop_name":"origin","to_stop_lat":"42.375392","placename":"Tokyo","to_stop_lon":"-71.118487","to_stop":{"id":"17","name":"origin","lat":"42.375392","placename":"Cambridge MA","lon":"-71.118487"},"from_stop":{"name":"origin","id":"2430","lat":"35.6894875","lon":"139.6917064","placename":"Tokyo"}}],"outgoing":[]}}},"parts":[{"oid":"146","imid":"278","linkid":"","weight":"100","rawemissions":"0","emissions":"0","shipping":"631.6","processemissions":null,"endoflifeemissions":null,"disposaltype":null,"disposalenergy":null,"disposalimpact":null,"disposalemissions":null,"description":"Part Description","name":"AARP","id":"278","stops":{"origin":{"related_to":"278","part_or_object":"p","notes":"","placename":"Washington DC","id":2411,"name":"origin","lat":"38.892091","lon":"-77.024055","hops":{"incoming":[],"outgoing":[{"transport_id":"13","id":"232","transport_name":"air, passenger, regional","transport_description":"within one continent, kg km from person-km","transport_unit":"kg km","transport_co2_eq":"2.262000","from_stop_id":"2411","from_stop_lat":"38.892091","from_stop_lon":"-77.024055","from_stop_placename":"Washington DC","to_stop_id":"17","to_stop_name":"origin","to_stop_lat":"42.375392","to_stop_lon":"-71.118487","to_stop_placename":"Cambridge MA","to_stop":{"id":"17","name":"origin","lat":"42.375392","lon":"-71.118487","placename":"Cambridge MA"},"from_stop":{"name":"origin","id":"2411","lat":"38.892091","lon":"-77.024055","placename":"Washington DC"}}]}}},"processes":[],"eols":[]},{"oid":"146","imid":"279","linkid":"","weight":"200","rawemissions":"0","emissions":"0","shipping":"10799.6","processemissions":null,"endoflifeemissions":null,"disposaltype":null,"disposalenergy":null,"disposalimpact":null,"disposalemissions":null,"description":"Part Description","name":"ALPS Electric Co.","id":"279","stops":{"origin":{"related_to":"279","part_or_object":"p","notes":"","placename":"Tokyo Japan","id":2412,"name":"origin","lat":"35.6894875","lon":"139.6917064","hops":{"incoming":[],"outgoing":[{"transport_id":"14","id":"233","transport_name":"air, passenger, intercontinental","transport_description":"intercontinental, kg km from person-km","transport_unit":"kg km","transport_co2_eq":"1.189000","from_stop_id":"2412","from_stop_lat":"35.6894875","from_stop_lon":"139.6917064","from_stop_placename":"Tokyo Japan","to_stop_id":"17","to_stop_name":"origin","to_stop_lat":"42.375392","to_stop_lon":"-71.118487","to_stop_placename":"Cambridge MA","to_stop":{"id":"17","name":"origin","lat":"42.375392","lon":"-71.118487","placename":"Cambridge MA"},"from_stop":{"name":"origin","id":"2412","lat":"35.6894875","lon":"139.6917064","placename":"Tokyo Japan"}}]}}},"processes":[],"eols":[]},{"oid":"146","imid":"280","linkid":"","weight":"400","rawemissions":"0","emissions":"0","shipping":"4338.1","processemissions":null,"endoflifeemissions":null,"disposaltype":null,"disposalenergy":null,"disposalimpact":null,"disposalemissions":null,"description":"","name":"AMD","id":"280","stops":{"origin":{"related_to":"280","part_or_object":"p","notes":"","placename":"SFO","id":2413,"name":"origin","lat":"37.615223","lon":"-122.389979","hops":{"incoming":[],"outgoing":[{"transport_id":"14","id":"234","transport_name":"air, passenger, intercontinental","transport_description":"intercontinental, kg km from person-km","transport_unit":"kg km","transport_co2_eq":"1.189000","from_stop_id":"2413","from_stop_lat":"37.615223","from_stop_lon":"-122.389979","from_stop_placename":"SFO","to_stop_id":"17","to_stop_name":"origin","to_stop_lat":"42.375392","to_stop_lon":"-71.118487","to_stop_placename":"Cambridge MA","to_stop":{"id":"17","name":"origin","lat":"42.375392","lon":"-71.118487","placename":"Cambridge MA"},"from_stop":{"name":"origin","id":"2413","lat":"37.615223","lon":"-122.389979","placename":"SFO"}}]}}},"processes":[],"eols":[]},{"oid":"146","imid":"281","linkid":"","weight":"100","rawemissions":"0","emissions":"0","shipping":"1158.09","processemissions":null,"endoflifeemissions":null,"disposaltype":null,"disposalenergy":null,"disposalimpact":null,"disposalemissions":null,"description":"Part Description","name":"Bank of America","id":"281","stops":{"origin":{"related_to":"281","part_or_object":"p","notes":"","placename":"Charlotte NC","id":2414,"name":"origin","lat":"35.231402","lon":"-80.845841","hops":{"incoming":[],"outgoing":[{"transport_id":"13","id":"235","transport_name":"air, passenger, regional","transport_description":"within one continent, kg km from person-km","transport_unit":"kg km","transport_co2_eq":"2.262000","from_stop_id":"2414","from_stop_lat":"35.231402","from_stop_lon":"-80.845841","from_stop_placename":"Charlotte NC","to_stop_id":"17","to_stop_name":"origin","to_stop_lat":"42.375392","to_stop_lon":"-71.118487","to_stop_placename":"Cambridge MA","to_stop":{"id":"17","name":"origin","lat":"42.375392","lon":"-71.118487","placename":"Cambridge MA"},"from_stop":{"name":"origin","id":"2414","lat":"35.231402","lon":"-80.845841","placename":"Charlotte NC"}}]}}},"processes":[],"eols":[]},{"oid":"146","imid":"282","linkid":"","weight":"200","rawemissions":"0","emissions":"0","shipping":"6601.36","processemissions":null,"endoflifeemissions":null,"disposaltype":null,"disposalenergy":null,"disposalimpact":null,"disposalemissions":null,"description":"Part Description","name":"Bradesco Foundation","id":"282","stops":{"origin":{"related_to":"282","part_or_object":"p","notes":"","placename":"Brazil","id":2415,"name":"origin","lat":"-14.235004","lon":"-51.92528","hops":{"incoming":[],"outgoing":[{"transport_id":"14","id":"236","transport_name":"air, passenger, intercontinental","transport_description":"intercontinental, kg km from person-km","transport_unit":"kg km","transport_co2_eq":"1.189000","from_stop_id":"2415","from_stop_lat":"-14.235004","from_stop_lon":"-51.92528","from_stop_placename":"Brazil","to_stop_id":"17","to_stop_name":"origin","to_stop_lat":"42.375392","to_stop_lon":"-71.118487","to_stop_placename":"Cambridge MA","to_stop":{"id":"17","name":"origin","lat":"42.375392","lon":"-71.118487","placename":"Cambridge MA"},"from_stop":{"name":"origin","id":"2415","lat":"-14.235004","lon":"-51.92528","placename":"Brazil"}}]}}},"processes":[],"eols":[]},{"oid":"146","imid":"283","linkid":"","weight":"200","rawemissions":"0","emissions":"0","shipping":"10799.6","processemissions":null,"endoflifeemissions":null,"disposaltype":null,"disposalenergy":null,"disposalimpact":null,"disposalemissions":null,"description":"Part Description","name":"Brother Industries Ltd","id":"283","stops":{"origin":{"related_to":"283","part_or_object":"p","notes":"","placename":"Tokyo","id":2416,"name":"origin","lat":"35.6894875","lon":"139.6917064","hops":{"incoming":[],"outgoing":[{"transport_id":"14","id":"237","transport_name":"air, passenger, intercontinental","transport_description":"intercontinental, kg km from person-km","transport_unit":"kg km","transport_co2_eq":"1.189000","from_stop_id":"2416","from_stop_lat":"35.6894875","from_stop_lon":"139.6917064","from_stop_placename":"Tokyo","to_stop_id":"17","to_stop_name":"origin","to_stop_lat":"42.375392","to_stop_lon":"-71.118487","to_stop_placename":"Cambridge MA","to_stop":{"id":"17","name":"origin","lat":"42.375392","lon":"-71.118487","placename":"Cambridge MA"},"from_stop":{"name":"origin","id":"2416","lat":"35.6894875","lon":"139.6917064","placename":"Tokyo"}}]}}},"processes":[],"eols":[]},{"oid":"146","imid":"284","linkid":"","weight":"500","rawemissions":"0","emissions":"0","shipping":"5273.32","processemissions":null,"endoflifeemissions":null,"disposaltype":null,"disposalenergy":null,"disposalimpact":null,"disposalemissions":null,"description":"Part Description","name":"British Telecom","id":"284","stops":{"origin":{"related_to":"284","part_or_object":"p","notes":"","placename":"London UK","id":2417,"name":"origin","lat":"51.5001524","lon":"-0.1262362","hops":{"incoming":[],"outgoing":[{"transport_id":"14","id":"238","transport_name":"air, passenger, intercontinental","transport_description":"intercontinental, kg km from person-km","transport_unit":"kg km","transport_co2_eq":"1.189000","from_stop_id":"2417","from_stop_lat":"51.5001524","from_stop_lon":"-0.1262362","from_stop_placename":"London UK","to_stop_id":"17","to_stop_name":"origin","to_stop_lat":"42.375392","to_stop_lon":"-71.118487","to_stop_placename":"Cambridge MA","to_stop":{"id":"17","name":"origin","lat":"42.375392","lon":"-71.118487","placename":"Cambridge MA"},"from_stop":{"name":"origin","id":"2417","lat":"51.5001524","lon":"-0.1262362","placename":"London UK"}}]}}},"processes":[],"eols":[]},{"oid":"146","imid":"285","linkid":"","weight":"200","rawemissions":"0","emissions":"0","shipping":"10799.6","processemissions":null,"endoflifeemissions":null,"disposaltype":null,"disposalenergy":null,"disposalimpact":null,"disposalemissions":null,"description":"Part Description","name":"Canon Inc","id":"285","stops":{"origin":{"related_to":"285","part_or_object":"p","notes":"","placename":"Tokyo Japan","id":2418,"name":"origin","lat":"35.6894875","lon":"139.6917064","hops":{"incoming":[],"outgoing":[{"transport_id":"14","id":"239","transport_name":"air, passenger, intercontinental","transport_description":"intercontinental, kg km from person-km","transport_unit":"kg km","transport_co2_eq":"1.189000","from_stop_id":"2418","from_stop_lat":"35.6894875","from_stop_lon":"139.6917064","from_stop_placename":"Tokyo Japan","to_stop_id":"17","to_stop_name":"origin","to_stop_lat":"42.375392","to_stop_lon":"-71.118487","to_stop_placename":"Cambridge MA","to_stop":{"id":"17","name":"origin","lat":"42.375392","lon":"-71.118487","placename":"Cambridge MA"},"from_stop":{"name":"origin","id":"2418","lat":"35.6894875","lon":"139.6917064","placename":"Tokyo Japan"}}]}}},"processes":[],"eols":[]},{"oid":"146","imid":"286","linkid":"","weight":"800","rawemissions":"0","emissions":"0","shipping":"4338.1","processemissions":null,"endoflifeemissions":null,"disposaltype":null,"disposalenergy":null,"disposalimpact":null,"disposalemissions":null,"description":"Part Description","name":"Cisco Systems Inc","id":"286","stops":{"origin":{"related_to":"286","part_or_object":"p","notes":"","placename":"SFO","id":2419,"name":"origin","lat":"37.615223","lon":"-122.389979","hops":{"incoming":[],"outgoing":[{"transport_id":"14","id":"240","transport_name":"air, passenger, intercontinental","transport_description":"intercontinental, kg km from person-km","transport_unit":"kg km","transport_co2_eq":"1.189000","from_stop_id":"2419","from_stop_lat":"37.615223","from_stop_lon":"-122.389979","from_stop_placename":"SFO","to_stop_id":"17","to_stop_name":"origin","to_stop_lat":"42.375392","to_stop_lon":"-71.118487","to_stop_placename":"Cambridge MA","to_stop":{"id":"17","name":"origin","lat":"42.375392","lon":"-71.118487","placename":"Cambridge MA"},"from_stop":{"name":"origin","id":"2419","lat":"37.615223","lon":"-122.389979","placename":"SFO"}}]}}},"processes":[],"eols":[]},{"oid":"146","imid":"287","linkid":"","weight":"200","rawemissions":"0","emissions":"0","shipping":"10799.6","processemissions":null,"endoflifeemissions":null,"disposaltype":null,"disposalenergy":null,"disposalimpact":null,"disposalemissions":null,"description":"Part Description","name":"Cleanup Corp","id":"287","stops":{"origin":{"related_to":"287","part_or_object":"p","notes":"","placename":"Tokyo","id":2420,"name":"origin","lat":"35.6894875","lon":"139.6917064","hops":{"incoming":[],"outgoing":[{"transport_id":"14","id":"241","transport_name":"air, passenger, intercontinental","transport_description":"intercontinental, kg km from person-km","transport_unit":"kg km","transport_co2_eq":"1.189000","from_stop_id":"2420","from_stop_lat":"35.6894875","from_stop_lon":"139.6917064","from_stop_placename":"Tokyo","to_stop_id":"17","to_stop_name":"origin","to_stop_lat":"42.375392","to_stop_lon":"-71.118487","to_stop_placename":"Cambridge MA","to_stop":{"id":"17","name":"origin","lat":"42.375392","lon":"-71.118487","placename":"Cambridge MA"},"from_stop":{"name":"origin","id":"2420","lat":"35.6894875","lon":"139.6917064","placename":"Tokyo"}}]}}},"processes":[],"eols":[]},{"oid":"146","imid":"288","linkid":"","weight":"400","rawemissions":"0","emissions":"0","shipping":"10799.6","processemissions":null,"endoflifeemissions":null,"disposaltype":null,"disposalenergy":null,"disposalimpact":null,"disposalemissions":null,"description":"Part Description","name":"Dai Nippon Printing Co","id":"288","stops":{"origin":{"related_to":"288","part_or_object":"p","notes":"","placename":"Tokyo","id":2421,"name":"origin","lat":"35.6894875","lon":"139.6917064","hops":{"incoming":[],"outgoing":[{"transport_id":"14","id":"242","transport_name":"air, passenger, intercontinental","transport_description":"intercontinental, kg km from person-km","transport_unit":"kg km","transport_co2_eq":"1.189000","from_stop_id":"2421","from_stop_lat":"35.6894875","from_stop_lon":"139.6917064","from_stop_placename":"Tokyo","to_stop_id":"17","to_stop_name":"origin","to_stop_lat":"42.375392","to_stop_lon":"-71.118487","to_stop_placename":"Cambridge MA","to_stop":{"id":"17","name":"origin","lat":"42.375392","lon":"-71.118487","placename":"Cambridge MA"},"from_stop":{"name":"origin","id":"2421","lat":"35.6894875","lon":"139.6917064","placename":"Tokyo"}}]}}},"processes":[],"eols":[]},{"oid":"146","imid":"289","linkid":"","weight":"300","rawemissions":"0","emissions":"0","shipping":"10799.6","processemissions":null,"endoflifeemissions":null,"disposaltype":null,"disposalenergy":null,"disposalimpact":null,"disposalemissions":null,"description":"Part Description","name":"Dentsu Inc","id":"289","stops":{"origin":{"related_to":"289","part_or_object":"p","notes":"","placename":"Tokyo","id":2422,"name":"origin","lat":"35.6894875","lon":"139.6917064","hops":{"incoming":[],"outgoing":[{"transport_id":"14","id":"243","transport_name":"air, passenger, intercontinental","transport_description":"intercontinental, kg km from person-km","transport_unit":"kg km","transport_co2_eq":"1.189000","from_stop_id":"2422","from_stop_lat":"35.6894875","from_stop_lon":"139.6917064","from_stop_placename":"Tokyo","to_stop_id":"17","to_stop_name":"origin","to_stop_lat":"42.375392","to_stop_lon":"-71.118487","to_stop_placename":"Cambridge MA","to_stop":{"id":"17","name":"origin","lat":"42.375392","lon":"-71.118487","placename":"Cambridge MA"},"from_stop":{"name":"origin","id":"2422","lat":"35.6894875","lon":"139.6917064","placename":"Tokyo"}}]}}},"processes":[],"eols":[]},{"oid":"146","imid":"290","linkid":"","weight":"300","rawemissions":"0","emissions":"0","shipping":"4188.3","processemissions":null,"endoflifeemissions":null,"disposaltype":null,"disposalenergy":null,"disposalimpact":null,"disposalemissions":null,"description":"Part Description","name":"DirecTV","id":"290","stops":{"origin":{"related_to":"290","part_or_object":"p","notes":"","placename":"LAX","id":2423,"name":"origin","lat":"33.9440655","lon":"-118.408294","hops":{"incoming":[],"outgoing":[{"transport_id":"14","id":"244","transport_name":"air, passenger, intercontinental","transport_description":"intercontinental, kg km from person-km","transport_unit":"kg km","transport_co2_eq":"1.189000","from_stop_id":"2423","from_stop_lat":"33.9440655","from_stop_lon":"-118.408294","from_stop_placename":"LAX","to_stop_id":"17","to_stop_name":"origin","to_stop_lat":"42.375392","to_stop_lon":"-71.118487","to_stop_placename":"Cambridge MA","to_stop":{"id":"17","name":"origin","lat":"42.375392","lon":"-71.118487","placename":"Cambridge MA"},"from_stop":{"name":"origin","id":"2423","lat":"33.9440655","lon":"-118.408294","placename":"LAX"}}]}}},"processes":[],"eols":[]},{"oid":"146","imid":"291","linkid":"","weight":"500","rawemissions":"0","emissions":"0","shipping":"5540.43","processemissions":null,"endoflifeemissions":null,"disposaltype":null,"disposalenergy":null,"disposalimpact":null,"disposalemissions":null,"description":"Part Description","name":"France Telecom Orange","id":"291","stops":{"origin":{"related_to":"291","part_or_object":"p","notes":"","placename":"Paris","id":2424,"name":"origin","lat":"48.8566667","lon":"2.3509871","hops":{"incoming":[],"outgoing":[{"transport_id":"14","id":"245","transport_name":"air, passenger, intercontinental","transport_description":"intercontinental, kg km from person-km","transport_unit":"kg km","transport_co2_eq":"1.189000","from_stop_id":"2424","from_stop_lat":"48.8566667","from_stop_lon":"2.3509871","from_stop_placename":"Paris","to_stop_id":"17","to_stop_name":"origin","to_stop_lat":"42.375392","to_stop_lon":"-71.118487","to_stop_placename":"Cambridge MA","to_stop":{"id":"17","name":"origin","lat":"42.375392","lon":"-71.118487","placename":"Cambridge MA"},"from_stop":{"name":"origin","id":"2424","lat":"48.8566667","lon":"2.3509871","placename":"Paris"}}]}}},"processes":[],"eols":[]},{"oid":"146","imid":"292","linkid":"","weight":"100","rawemissions":"0","emissions":"0","shipping":"2725.31","processemissions":null,"endoflifeemissions":null,"disposaltype":null,"disposalenergy":null,"disposalimpact":null,"disposalemissions":null,"description":"Part Description","name":"Freescale Semiconductor","id":"292","stops":{"origin":{"related_to":"292","part_or_object":"p","notes":"","placename":"Austin TX","id":2425,"name":"origin","lat":"30.268735","lon":"-97.745209","hops":{"incoming":[],"outgoing":[{"transport_id":"13","id":"246","transport_name":"air, passenger, regional","transport_description":"within one continent, kg km from person-km","transport_unit":"kg km","transport_co2_eq":"2.262000","from_stop_id":"2425","from_stop_lat":"30.268735","from_stop_lon":"-97.745209","from_stop_placename":"Austin TX","to_stop_id":"17","to_stop_name":"origin","to_stop_lat":"42.375392","to_stop_lon":"-71.118487","to_stop_placename":"Cambridge MA","to_stop":{"id":"17","name":"origin","lat":"42.375392","lon":"-71.118487","placename":"Cambridge MA"},"from_stop":{"name":"origin","id":"2425","lat":"30.268735","lon":"-97.745209","placename":"Austin TX"}}]}}},"processes":[],"eols":[]},{"oid":"146","imid":"293","linkid":"","weight":"100","rawemissions":"0","emissions":"0","shipping":"1513.71","processemissions":null,"endoflifeemissions":null,"disposaltype":null,"disposalenergy":null,"disposalimpact":null,"disposalemissions":null,"description":"Part Description","name":"Gibson Guitar Corp","id":"293","stops":{"origin":{"related_to":"293","part_or_object":"p","notes":"","placename":"Nashville TN","id":2426,"name":"origin","lat":"36.158887","lon":"-86.782056","hops":{"incoming":[],"outgoing":[{"transport_id":"13","id":"247","transport_name":"air, passenger, regional","transport_description":"within one continent, kg km from person-km","transport_unit":"kg km","transport_co2_eq":"2.262000","from_stop_id":"2426","from_stop_lat":"36.158887","from_stop_lon":"-86.782056","from_stop_placename":"Nashville TN","to_stop_id":"17","to_stop_name":"origin","to_stop_lat":"42.375392","to_stop_lon":"-71.118487","to_stop_placename":"Cambridge MA","to_stop":{"id":"17","name":"origin","lat":"42.375392","lon":"-71.118487","placename":"Cambridge MA"},"from_stop":{"name":"origin","id":"2426","lat":"36.158887","lon":"-86.782056","placename":"Nashville TN"}}]}}},"processes":[],"eols":[]},{"oid":"146","imid":"294","linkid":"","weight":"1700","rawemissions":"0","emissions":"0","shipping":"2006.16","processemissions":null,"endoflifeemissions":null,"disposaltype":null,"disposalenergy":null,"disposalimpact":null,"disposalemissions":null,"description":"Part Description","name":"Hallmark Cards Inc","id":"294","stops":{"origin":{"related_to":"294","part_or_object":"p","notes":"","placename":"Kansas City MO","id":2427,"name":"origin","lat":"39.090432","lon":"-94.583653","hops":{"incoming":[],"outgoing":[{"transport_id":"13","id":"248","transport_name":"air, passenger, regional","transport_description":"within one continent, kg km from person-km","transport_unit":"kg km","transport_co2_eq":"2.262000","from_stop_id":"2427","from_stop_lat":"39.090432","from_stop_lon":"-94.583653","from_stop_placename":"Kansas City MO","to_stop_id":"17","to_stop_name":"origin","to_stop_lat":"42.375392","to_stop_lon":"-71.118487","to_stop_placename":"Cambridge MA","to_stop":{"id":"17","name":"origin","lat":"42.375392","lon":"-71.118487","placename":"Cambridge MA"},"from_stop":{"name":"origin","id":"2427","lat":"39.090432","lon":"-94.583653","placename":"Kansas City MO"}}]}}},"processes":[],"eols":[]},{"oid":"146","imid":"295","linkid":"","weight":"800","rawemissions":"0","emissions":"0","shipping":"299.26","processemissions":null,"endoflifeemissions":null,"disposaltype":null,"disposalenergy":null,"disposalimpact":null,"disposalemissions":null,"description":"Part Description","name":"Hearst Corp","id":"295","stops":{"origin":{"related_to":"295","part_or_object":"p","notes":"","placename":"NYC","id":2428,"name":"origin","lat":"40.756054","lon":"-73.986951","hops":{"incoming":[],"outgoing":[{"transport_id":"13","id":"249","transport_name":"air, passenger, regional","transport_description":"within one continent, kg km from person-km","transport_unit":"kg km","transport_co2_eq":"2.262000","from_stop_id":"2428","from_stop_lat":"40.756054","from_stop_lon":"-73.986951","from_stop_placename":"NYC","to_stop_id":"17","to_stop_name":"origin","to_stop_lat":"42.375392","to_stop_lon":"-71.118487","to_stop_placename":"Cambridge MA","to_stop":{"id":"17","name":"origin","lat":"42.375392","lon":"-71.118487","placename":"Cambridge MA"},"from_stop":{"name":"origin","id":"2428","lat":"40.756054","lon":"-73.986951","placename":"NYC"}}]}}},"processes":[],"eols":[]},{"oid":"146","imid":"296","linkid":"","weight":"600","rawemissions":"0","emissions":"0","shipping":"4853.29","processemissions":null,"endoflifeemissions":null,"disposaltype":null,"disposalenergy":null,"disposalimpact":null,"disposalemissions":null,"description":"Part Description","name":"Highlands and Islands Enterprise","id":"296","stops":{"origin":{"related_to":"296","part_or_object":"p","notes":"","placename":"Inverness UK","id":2429,"name":"origin","lat":"57.4766949","lon":"-4.2314535","hops":{"incoming":[],"outgoing":[{"transport_id":"17","id":"250","transport_name":"None Selected","transport_description":null,"transport_unit":"kg km","transport_co2_eq":"0.000000","from_stop_id":"2429","from_stop_lat":"57.4766949","from_stop_lon":"-4.2314535","from_stop_placename":"Inverness UK","to_stop_id":"17","to_stop_name":"origin","to_stop_lat":"42.375392","to_stop_lon":"-71.118487","to_stop_placename":"Cambridge MA","to_stop":{"id":"17","name":"origin","lat":"42.375392","lon":"-71.118487","placename":"Cambridge MA"},"from_stop":{"name":"origin","id":"2429","lat":"57.4766949","lon":"-4.2314535","placename":"Inverness UK"}}]}}},"processes":[],"eols":[]},{"oid":"146","imid":"297","linkid":"","weight":"100","rawemissions":"0","emissions":"0","shipping":"10799.6","processemissions":null,"endoflifeemissions":null,"disposaltype":null,"disposalenergy":null,"disposalimpact":null,"disposalemissions":null,"description":"Part Description","name":"Hitachi Ltd","id":"297","stops":{"origin":{"related_to":"297","part_or_object":"p","notes":"","placename":"Tokyo","id":2430,"name":"origin","lat":"35.6894875","lon":"139.6917064","hops":{"incoming":[],"outgoing":[{"transport_id":"17","id":"251","transport_name":"None Selected","transport_description":null,"transport_unit":"kg km","transport_co2_eq":"0.000000","from_stop_id":"2430","from_stop_lat":"35.6894875","from_stop_lon":"139.6917064","from_stop_placename":"Tokyo","to_stop_id":"17","to_stop_name":"origin","to_stop_lat":"42.375392","to_stop_lon":"-71.118487","to_stop_placename":"Cambridge MA","to_stop":{"id":"17","name":"origin","lat":"42.375392","lon":"-71.118487","placename":"Cambridge MA"},"from_stop":{"name":"origin","id":"2430","lat":"35.6894875","lon":"139.6917064","placename":"Tokyo"}}]}}},"processes":[],"eols":[]},{"oid":"146","imid":"298","linkid":"","weight":"100","rawemissions":"0","emissions":"0","shipping":"10799.6","processemissions":null,"endoflifeemissions":null,"disposaltype":null,"disposalenergy":null,"disposalimpact":null,"disposalemissions":null,"description":"Part Description","name":"Honda Research Institute Japan Co","id":"298","stops":{"origin":{"related_to":"298","part_or_object":"p","notes":"","placename":"Tokyo","id":2431,"name":"origin","lat":"35.6894875","lon":"139.6917064","hops":{"incoming":[],"outgoing":[{"transport_id":"14","id":"252","transport_name":"air, passenger, intercontinental","transport_description":"intercontinental, kg km from person-km","transport_unit":"kg km","transport_co2_eq":"1.189000","from_stop_id":"2431","from_stop_lat":"35.6894875","from_stop_lon":"139.6917064","from_stop_placename":"Tokyo","to_stop_id":"17","to_stop_name":"origin","to_stop_lat":"42.375392","to_stop_lon":"-71.118487","to_stop_placename":"Cambridge MA","to_stop":{"id":"17","name":"origin","lat":"42.375392","lon":"-71.118487","placename":"Cambridge MA"},"from_stop":{"name":"origin","id":"2431","lat":"35.6894875","lon":"139.6917064","placename":"Tokyo"}}]}}},"processes":[],"eols":[]},{"oid":"146","imid":"299","linkid":"","weight":"400","rawemissions":"0","emissions":"0","shipping":"1321.88","processemissions":null,"endoflifeemissions":null,"disposaltype":null,"disposalenergy":null,"disposalimpact":null,"disposalemissions":null,"description":"Part Description","name":"Humana Health","id":"299","stops":{"origin":{"related_to":"299","part_or_object":"p","notes":"","placename":"Louisville KY","id":2432,"name":"origin","lat":"38.256065","lon":"-85.75154","hops":{"incoming":[],"outgoing":[{"transport_id":"13","id":"253","transport_name":"air, passenger, regional","transport_description":"within one continent, kg km from person-km","transport_unit":"kg km","transport_co2_eq":"2.262000","from_stop_id":"2432","from_stop_lat":"38.256065","from_stop_lon":"-85.75154","from_stop_placename":"Louisville KY","to_stop_id":"17","to_stop_name":"origin","to_stop_lat":"42.375392","to_stop_lon":"-71.118487","to_stop_placename":"Cambridge MA","to_stop":{"id":"17","name":"origin","lat":"42.375392","lon":"-71.118487","placename":"Cambridge MA"},"from_stop":{"name":"origin","id":"2432","lat":"38.256065","lon":"-85.75154","placename":"Louisville KY"}}]}}},"processes":[],"eols":[]},{"oid":"146","imid":"300","linkid":"","weight":"300","rawemissions":"0","emissions":"0","shipping":"299.26","processemissions":null,"endoflifeemissions":null,"disposaltype":null,"disposalenergy":null,"disposalimpact":null,"disposalemissions":null,"description":"Part Description","name":"IBM Corporation","id":"300","stops":{"origin":{"related_to":"300","part_or_object":"p","notes":"","placename":"NYC","id":2433,"name":"origin","lat":"40.756054","lon":"-73.986951","hops":{"incoming":[],"outgoing":[{"transport_id":"13","id":"254","transport_name":"air, passenger, regional","transport_description":"within one continent, kg km from person-km","transport_unit":"kg km","transport_co2_eq":"2.262000","from_stop_id":"2433","from_stop_lat":"40.756054","from_stop_lon":"-73.986951","from_stop_placename":"NYC","to_stop_id":"17","to_stop_name":"origin","to_stop_lat":"42.375392","to_stop_lon":"-71.118487","to_stop_placename":"Cambridge MA","to_stop":{"id":"17","name":"origin","lat":"42.375392","lon":"-71.118487","placename":"Cambridge MA"},"from_stop":{"name":"origin","id":"2433","lat":"40.756054","lon":"-73.986951","placename":"NYC"}}]}}},"processes":[],"eols":[]},{"oid":"146","imid":"301","linkid":"","weight":"200","rawemissions":"0","emissions":"0","shipping":"10799.6","processemissions":null,"endoflifeemissions":null,"disposaltype":null,"disposalenergy":null,"disposalimpact":null,"disposalemissions":null,"description":"Part Description","name":"ISID","id":"301","stops":{"origin":{"related_to":"301","part_or_object":"p","notes":"","placename":"Tokyo","id":2434,"name":"origin","lat":"35.6894875","lon":"139.6917064","hops":{"incoming":[],"outgoing":[{"transport_id":"14","id":"255","transport_name":"air, passenger, intercontinental","transport_description":"intercontinental, kg km from person-km","transport_unit":"kg km","transport_co2_eq":"1.189000","from_stop_id":"2434","from_stop_lat":"35.6894875","from_stop_lon":"139.6917064","from_stop_placename":"Tokyo","to_stop_id":"17","to_stop_name":"origin","to_stop_lat":"42.375392","to_stop_lon":"-71.118487","to_stop_placename":"Cambridge MA","to_stop":{"id":"17","name":"origin","lat":"42.375392","lon":"-71.118487","placename":"Cambridge MA"},"from_stop":{"name":"origin","id":"2434","lat":"35.6894875","lon":"139.6917064","placename":"Tokyo"}}]}}},"processes":[],"eols":[]},{"oid":"146","imid":"302","linkid":"","weight":"500","rawemissions":"0","emissions":"0","shipping":"4338.1","processemissions":null,"endoflifeemissions":null,"disposaltype":null,"disposalenergy":null,"disposalimpact":null,"disposalemissions":null,"description":"Part Description","name":"Intel","id":"302","stops":{"origin":{"related_to":"302","part_or_object":"p","notes":"","placename":"SFO","id":2435,"name":"origin","lat":"37.615223","lon":"-122.389979","hops":{"incoming":[],"outgoing":[{"transport_id":"14","id":"256","transport_name":"air, passenger, intercontinental","transport_description":"intercontinental, kg km from person-km","transport_unit":"kg km","transport_co2_eq":"1.189000","from_stop_id":"2435","from_stop_lat":"37.615223","from_stop_lon":"-122.389979","from_stop_placename":"SFO","to_stop_id":"17","to_stop_name":"origin","to_stop_lat":"42.375392","to_stop_lon":"-71.118487","to_stop_placename":"Cambridge MA","to_stop":{"id":"17","name":"origin","lat":"42.375392","lon":"-71.118487","placename":"Cambridge MA"},"from_stop":{"name":"origin","id":"2435","lat":"37.615223","lon":"-122.389979","placename":"SFO"}}]}}},"processes":[],"eols":[]},{"oid":"146","imid":"348","linkid":"","weight":"1500","rawemissions":"0","emissions":"0","shipping":"12414.9","processemissions":null,"endoflifeemissions":null,"disposaltype":null,"disposalenergy":null,"disposalimpact":null,"disposalemissions":null,"description":"Part Description","name":"ITRI","id":"348","stops":{"origin":{"related_to":"348","part_or_object":"p","notes":"","placename":"Taipei","id":2475,"name":"origin","lat":"25.091075","lon":"121.5598345","hops":{"incoming":[],"outgoing":[{"transport_id":"14","id":"296","transport_name":"air, passenger, intercontinental","transport_description":"intercontinental, kg km from person-km","transport_unit":"kg km","transport_co2_eq":"1.189000","from_stop_id":"2475","from_stop_lat":"25.091075","from_stop_lon":"121.5598345","from_stop_placename":"Taipei","to_stop_id":"17","to_stop_name":"origin","to_stop_lat":"42.375392","to_stop_lon":"-71.118487","to_stop_placename":"Cambridge MA","to_stop":{"id":"17","name":"origin","lat":"42.375392","lon":"-71.118487","placename":"Cambridge MA"},"from_stop":{"name":"origin","id":"2475","lat":"25.091075","lon":"121.5598345","placename":"Taipei"}}]}}},"processes":[],"eols":[]},{"oid":"146","imid":"349","linkid":"","weight":"100","rawemissions":"0","emissions":"0","shipping":"1442.42","processemissions":null,"endoflifeemissions":null,"disposaltype":null,"disposalenergy":null,"disposalimpact":null,"disposalemissions":null,"description":"Part Description","name":"Johnson and Johnson","id":"349","stops":{"origin":{"related_to":"349","part_or_object":"p","notes":"","placename":"Wisconsin","id":2476,"name":"origin","lat":"43.7844397","lon":"-88.7878678","hops":{"incoming":[],"outgoing":[{"transport_id":"14","id":"297","transport_name":"air, passenger, intercontinental","transport_description":"intercontinental, kg km from person-km","transport_unit":"kg km","transport_co2_eq":"1.189000","from_stop_id":"2476","from_stop_lat":"43.7844397","from_stop_lon":"-88.7878678","from_stop_placename":"Wisconsin","to_stop_id":"17","to_stop_name":"origin","to_stop_lat":"42.375392","to_stop_lon":"-71.118487","to_stop_placename":"Cambridge MA","to_stop":{"id":"17","name":"origin","lat":"42.375392","lon":"-71.118487","placename":"Cambridge MA"},"from_stop":{"name":"origin","id":"2476","lat":"43.7844397","lon":"-88.7878678","placename":"Wisconsin"}}]}}},"processes":[],"eols":[]},{"oid":"146","imid":"350","linkid":"","weight":"300","rawemissions":"0","emissions":"0","shipping":"10799.6","processemissions":null,"endoflifeemissions":null,"disposaltype":null,"disposalenergy":null,"disposalimpact":null,"disposalemissions":null,"description":"Part Description","name":"KKE","id":"350","stops":{"origin":{"related_to":"350","part_or_object":"p","notes":"","placename":"Tokyo","id":2477,"name":"origin","lat":"35.6894875","lon":"139.6917064","hops":{"incoming":[],"outgoing":[{"transport_id":"14","id":"298","transport_name":"air, passenger, intercontinental","transport_description":"intercontinental, kg km from person-km","transport_unit":"kg km","transport_co2_eq":"1.189000","from_stop_id":"2477","from_stop_lat":"35.6894875","from_stop_lon":"139.6917064","from_stop_placename":"Tokyo","to_stop_id":"17","to_stop_name":"origin","to_stop_lat":"42.375392","to_stop_lon":"-71.118487","to_stop_placename":"Cambridge MA","to_stop":{"id":"17","name":"origin","lat":"42.375392","lon":"-71.118487","placename":"Cambridge MA"},"from_stop":{"name":"origin","id":"2477","lat":"35.6894875","lon":"139.6917064","placename":"Tokyo"}}]}}},"processes":[],"eols":[]},{"oid":"146","imid":"351","linkid":"","weight":"200","rawemissions":"0","emissions":"0","shipping":"5693.41","processemissions":null,"endoflifeemissions":null,"disposaltype":null,"disposalenergy":null,"disposalimpact":null,"disposalemissions":null,"description":"Part Description","name":"LEGO","id":"351","stops":{"origin":{"related_to":"351","part_or_object":"p","notes":"","placename":"Denmark","id":2478,"name":"origin","lat":"56.26392","lon":"9.501785","hops":{"incoming":[],"outgoing":[{"transport_id":"14","id":"299","transport_name":"air, passenger, intercontinental","transport_description":"intercontinental, kg km from person-km","transport_unit":"kg km","transport_co2_eq":"1.189000","from_stop_id":"2478","from_stop_lat":"56.26392","from_stop_lon":"9.501785","from_stop_placename":"Denmark","to_stop_id":"17","to_stop_name":"origin","to_stop_lat":"42.375392","to_stop_lon":"-71.118487","to_stop_placename":"Cambridge MA","to_stop":{"id":"17","name":"origin","lat":"42.375392","lon":"-71.118487","placename":"Cambridge MA"},"from_stop":{"name":"origin","id":"2478","lat":"56.26392","lon":"9.501785","placename":"Denmark"}}]}}},"processes":[],"eols":[]},{"oid":"146","imid":"352","linkid":"","weight":"200","rawemissions":"0","emissions":"0","shipping":"10952.6","processemissions":null,"endoflifeemissions":null,"disposaltype":null,"disposalenergy":null,"disposalimpact":null,"disposalemissions":null,"description":"Part Description","name":"LG Electronics","id":"352","stops":{"origin":{"related_to":"352","part_or_object":"p","notes":"","placename":"Seoul","id":2479,"name":"origin","lat":"37.550263","lon":"126.9970831","hops":{"incoming":[],"outgoing":[{"transport_id":"14","id":"300","transport_name":"air, passenger, intercontinental","transport_description":"intercontinental, kg km from person-km","transport_unit":"kg km","transport_co2_eq":"1.189000","from_stop_id":"2479","from_stop_lat":"37.550263","from_stop_lon":"126.9970831","from_stop_placename":"Seoul","to_stop_id":"17","to_stop_name":"origin","to_stop_lat":"42.375392","to_stop_lon":"-71.118487","to_stop_placename":"Cambridge MA","to_stop":{"id":"17","name":"origin","lat":"42.375392","lon":"-71.118487","placename":"Cambridge MA"},"from_stop":{"name":"origin","id":"2479","lat":"37.550263","lon":"126.9970831","placename":"Seoul"}}]}}},"processes":[],"eols":[]},{"oid":"146","imid":"353","linkid":"","weight":"100","rawemissions":"0","emissions":"0","shipping":"4338.1","processemissions":null,"endoflifeemissions":null,"disposaltype":null,"disposalenergy":null,"disposalimpact":null,"disposalemissions":null,"description":"Part Description","name":"Linden Lab","id":"353","stops":{"origin":{"related_to":"353","part_or_object":"p","notes":"","placename":"SFO","id":2480,"name":"origin","lat":"37.615223","lon":"-122.389979","hops":{"incoming":[],"outgoing":[{"transport_id":"14","id":"301","transport_name":"air, passenger, intercontinental","transport_description":"intercontinental, kg km from person-km","transport_unit":"kg km","transport_co2_eq":"1.189000","from_stop_id":"2480","from_stop_lat":"37.615223","from_stop_lon":"-122.389979","from_stop_placename":"SFO","to_stop_id":"17","to_stop_name":"origin","to_stop_lat":"42.375392","to_stop_lon":"-71.118487","to_stop_placename":"Cambridge MA","to_stop":{"id":"17","name":"origin","lat":"42.375392","lon":"-71.118487","placename":"Cambridge MA"},"from_stop":{"name":"origin","id":"2480","lat":"37.615223","lon":"-122.389979","placename":"SFO"}}]}}},"processes":[],"eols":[]},{"oid":"146","imid":"354","linkid":"","weight":"100","rawemissions":"0","emissions":"0","shipping":"6033.79","processemissions":null,"endoflifeemissions":null,"disposaltype":null,"disposalenergy":null,"disposalimpact":null,"disposalemissions":null,"description":"Part Description","name":"Logitech","id":"354","stops":{"origin":{"related_to":"354","part_or_object":"p","notes":"","placename":"Switzerland","id":2481,"name":"origin","lat":"46.818188","lon":"8.227512","hops":{"incoming":[],"outgoing":[{"transport_id":"14","id":"302","transport_name":"air, passenger, intercontinental","transport_description":"intercontinental, kg km from person-km","transport_unit":"kg km","transport_co2_eq":"1.189000","from_stop_id":"2481","from_stop_lat":"46.818188","from_stop_lon":"8.227512","from_stop_placename":"Switzerland","to_stop_id":"17","to_stop_name":"origin","to_stop_lat":"42.375392","to_stop_lon":"-71.118487","to_stop_placename":"Cambridge MA","to_stop":{"id":"17","name":"origin","lat":"42.375392","lon":"-71.118487","placename":"Cambridge MA"},"from_stop":{"name":"origin","id":"2481","lat":"46.818188","lon":"8.227512","placename":"Switzerland"}}]}}},"processes":[],"eols":[]},{"oid":"146","imid":"355","linkid":"","weight":"100","rawemissions":"0","emissions":"0","shipping":"4188.3","processemissions":null,"endoflifeemissions":null,"disposaltype":null,"disposalenergy":null,"disposalimpact":null,"disposalemissions":null,"description":"Part Description","name":"Marvell Semiconductor","id":"355","stops":{"origin":{"related_to":"355","part_or_object":"p","notes":"","placename":"LAX","id":2482,"name":"origin","lat":"33.9440655","lon":"-118.408294","hops":{"incoming":[],"outgoing":[{"transport_id":"14","id":"303","transport_name":"air, passenger, intercontinental","transport_description":"intercontinental, kg km from person-km","transport_unit":"kg km","transport_co2_eq":"1.189000","from_stop_id":"2482","from_stop_lat":"33.9440655","from_stop_lon":"-118.408294","from_stop_placename":"LAX","to_stop_id":"17","to_stop_name":"origin","to_stop_lat":"42.375392","to_stop_lon":"-71.118487","to_stop_placename":"Cambridge MA","to_stop":{"id":"17","name":"origin","lat":"42.375392","lon":"-71.118487","placename":"Cambridge MA"},"from_stop":{"name":"origin","id":"2482","lat":"33.9440655","lon":"-118.408294","placename":"LAX"}}]}}},"processes":[],"eols":[]},{"oid":"146","imid":"356","linkid":"","weight":"400","rawemissions":"0","emissions":"0","shipping":"3982.06","processemissions":null,"endoflifeemissions":null,"disposaltype":null,"disposalenergy":null,"disposalimpact":null,"disposalemissions":null,"description":"Part Description","name":"Microsoft","id":"356","stops":{"origin":{"related_to":"356","part_or_object":"p","notes":"","placename":"Redmond WA","id":2483,"name":"origin","lat":"47.672229","lon":"-122.115633","hops":{"incoming":[],"outgoing":[{"transport_id":"14","id":"304","transport_name":"air, passenger, intercontinental","transport_description":"intercontinental, kg km from person-km","transport_unit":"kg km","transport_co2_eq":"1.189000","from_stop_id":"2483","from_stop_lat":"47.672229","from_stop_lon":"-122.115633","from_stop_placename":"Redmond WA","to_stop_id":"17","to_stop_name":"origin","to_stop_lat":"42.375392","to_stop_lon":"-71.118487","to_stop_placename":"Cambridge MA","to_stop":{"id":"17","name":"origin","lat":"42.375392","lon":"-71.118487","placename":"Cambridge MA"},"from_stop":{"name":"origin","id":"2483","lat":"47.672229","lon":"-122.115633","placename":"Redmond WA"}}]}}},"processes":[],"eols":[]},{"oid":"146","imid":"357","linkid":"","weight":"500","rawemissions":"0","emissions":"0","shipping":"1383.35","processemissions":null,"endoflifeemissions":null,"disposaltype":null,"disposalenergy":null,"disposalimpact":null,"disposalemissions":null,"description":"Part Description","name":"Motorola","id":"357","stops":{"origin":{"related_to":"357","part_or_object":"p","notes":"","placename":"ORD","id":2484,"name":"origin","lat":"41.98012","lon":"-87.906247","hops":{"incoming":[],"outgoing":[{"transport_id":"14","id":"305","transport_name":"air, passenger, intercontinental","transport_description":"intercontinental, kg km from person-km","transport_unit":"kg km","transport_co2_eq":"1.189000","from_stop_id":"2484","from_stop_lat":"41.98012","from_stop_lon":"-87.906247","from_stop_placename":"ORD","to_stop_id":"17","to_stop_name":"origin","to_stop_lat":"42.375392","to_stop_lon":"-71.118487","to_stop_placename":"Cambridge MA","to_stop":{"id":"17","name":"origin","lat":"42.375392","lon":"-71.118487","placename":"Cambridge MA"},"from_stop":{"name":"origin","id":"2484","lat":"41.98012","lon":"-87.906247","placename":"ORD"}}]}}},"processes":[],"eols":[]},{"oid":"146","imid":"358","linkid":"","weight":"100","rawemissions":"0","emissions":"0","shipping":"2579.99","processemissions":null,"endoflifeemissions":null,"disposaltype":null,"disposalenergy":null,"disposalimpact":null,"disposalemissions":null,"description":"Part Description","name":"NASA","id":"358","stops":{"origin":{"related_to":"358","part_or_object":"p","notes":"","placename":"Houston TX","id":2485,"name":"origin","lat":"29.759956","lon":"-95.362534","hops":{"incoming":[],"outgoing":[{"transport_id":"14","id":"306","transport_name":"air, passenger, intercontinental","transport_description":"intercontinental, kg km from person-km","transport_unit":"kg km","transport_co2_eq":"1.189000","from_stop_id":"2485","from_stop_lat":"29.759956","from_stop_lon":"-95.362534","from_stop_placename":"Houston TX","to_stop_id":"17","to_stop_name":"origin","to_stop_lat":"42.375392","to_stop_lon":"-71.118487","to_stop_placename":"Cambridge MA","to_stop":{"id":"17","name":"origin","lat":"42.375392","lon":"-71.118487","placename":"Cambridge MA"},"from_stop":{"name":"origin","id":"2485","lat":"29.759956","lon":"-95.362534","placename":"Houston TX"}}]}}},"processes":[],"eols":[]},{"oid":"146","imid":"359","linkid":"","weight":"500","rawemissions":"0","emissions":"0","shipping":"10799.6","processemissions":null,"endoflifeemissions":null,"disposaltype":null,"disposalenergy":null,"disposalimpact":null,"disposalemissions":null,"description":"Part Description","name":"NEC","id":"359","stops":{"origin":{"related_to":"359","part_or_object":"p","notes":"","placename":"Tokyo","id":2486,"name":"origin","lat":"35.6894875","lon":"139.6917064","hops":{"incoming":[],"outgoing":[{"transport_id":"14","id":"307","transport_name":"air, passenger, intercontinental","transport_description":"intercontinental, kg km from person-km","transport_unit":"kg km","transport_co2_eq":"1.189000","from_stop_id":"2486","from_stop_lat":"35.6894875","from_stop_lon":"139.6917064","from_stop_placename":"Tokyo","to_stop_id":"17","to_stop_name":"origin","to_stop_lat":"42.375392","to_stop_lon":"-71.118487","to_stop_placename":"Cambridge MA","to_stop":{"id":"17","name":"origin","lat":"42.375392","lon":"-71.118487","placename":"Cambridge MA"},"from_stop":{"name":"origin","id":"2486","lat":"35.6894875","lon":"139.6917064","placename":"Tokyo"}}]}}},"processes":[],"eols":[]},{"oid":"146","imid":"360","linkid":"","weight":"200","rawemissions":"0","emissions":"0","shipping":"299.26","processemissions":null,"endoflifeemissions":null,"disposaltype":null,"disposalenergy":null,"disposalimpact":null,"disposalemissions":null,"description":"Part Description","name":"News Corp","id":"360","stops":{"origin":{"related_to":"360","part_or_object":"p","notes":"","placename":"NYC","id":2487,"name":"origin","lat":"40.756054","lon":"-73.986951","hops":{"incoming":[],"outgoing":[{"transport_id":"13","id":"308","transport_name":"air, passenger, regional","transport_description":"within one continent, kg km from person-km","transport_unit":"kg km","transport_co2_eq":"2.262000","from_stop_id":"2487","from_stop_lat":"40.756054","from_stop_lon":"-73.986951","from_stop_placename":"NYC","to_stop_id":"17","to_stop_name":"origin","to_stop_lat":"42.375392","to_stop_lon":"-71.118487","to_stop_placename":"Cambridge MA","to_stop":{"id":"17","name":"origin","lat":"42.375392","lon":"-71.118487","placename":"Cambridge MA"},"from_stop":{"name":"origin","id":"2487","lat":"40.756054","lon":"-73.986951","placename":"NYC"}}]}}},"processes":[],"eols":[]},{"oid":"146","imid":"361","linkid":"","weight":"800","rawemissions":"0","emissions":"0","shipping":"6280.61","processemissions":null,"endoflifeemissions":null,"disposaltype":null,"disposalenergy":null,"disposalimpact":null,"disposalemissions":null,"description":"Part Description","name":"Nokia","id":"361","stops":{"origin":{"related_to":"361","part_or_object":"p","notes":"","placename":"Finland","id":2488,"name":"origin","lat":"61.92411","lon":"25.748151","hops":{"incoming":[],"outgoing":[{"transport_id":"14","id":"309","transport_name":"air, passenger, intercontinental","transport_description":"intercontinental, kg km from person-km","transport_unit":"kg km","transport_co2_eq":"1.189000","from_stop_id":"2488","from_stop_lat":"61.92411","from_stop_lon":"25.748151","from_stop_placename":"Finland","to_stop_id":"17","to_stop_name":"origin","to_stop_lat":"42.375392","to_stop_lon":"-71.118487","to_stop_placename":"Cambridge MA","to_stop":{"id":"17","name":"origin","lat":"42.375392","lon":"-71.118487","placename":"Cambridge MA"},"from_stop":{"name":"origin","id":"2488","lat":"61.92411","lon":"25.748151","placename":"Finland"}}]}}},"processes":[],"eols":[]},{"oid":"146","imid":"362","linkid":"","weight":"900","rawemissions":"0","emissions":"0","shipping":"10799.6","processemissions":null,"endoflifeemissions":null,"disposaltype":null,"disposalenergy":null,"disposalimpact":null,"disposalemissions":null,"description":"Part Description","name":"NTT Comware","id":"362","stops":{"origin":{"related_to":"362","part_or_object":"p","notes":"","placename":"Tokyo","id":2489,"name":"origin","lat":"35.6894875","lon":"139.6917064","hops":{"incoming":[],"outgoing":[{"transport_id":"14","id":"310","transport_name":"air, passenger, intercontinental","transport_description":"intercontinental, kg km from person-km","transport_unit":"kg km","transport_co2_eq":"1.189000","from_stop_id":"2489","from_stop_lat":"35.6894875","from_stop_lon":"139.6917064","from_stop_placename":"Tokyo","to_stop_id":"17","to_stop_name":"origin","to_stop_lat":"42.375392","to_stop_lon":"-71.118487","to_stop_placename":"Cambridge MA","to_stop":{"id":"17","name":"origin","lat":"42.375392","lon":"-71.118487","placename":"Cambridge MA"},"from_stop":{"name":"origin","id":"2489","lat":"35.6894875","lon":"139.6917064","placename":"Tokyo"}}]}}},"processes":[],"eols":[]},{"oid":"146","imid":"379","linkid":"","weight":"400","rawemissions":"0","emissions":"0","shipping":"5600.59","processemissions":null,"endoflifeemissions":null,"disposaltype":null,"disposalenergy":null,"disposalimpact":null,"disposalemissions":null,"description":"Part Description","name":"Philips","id":"379","stops":{"origin":{"related_to":"379","part_or_object":"p","notes":"","placename":"Holland","id":2499,"name":"origin","lat":"52.132633","lon":"5.291266","hops":{"incoming":[],"outgoing":[{"transport_id":"14","id":"315","transport_name":"air, passenger, intercontinental","transport_description":"intercontinental, kg km from person-km","transport_unit":"kg km","transport_co2_eq":"1.189000","from_stop_id":"2499","from_stop_lat":"52.132633","from_stop_lon":"5.291266","from_stop_placename":"Holland","to_stop_id":"17","to_stop_name":"origin","to_stop_lat":"42.375392","to_stop_lon":"-71.118487","to_stop_placename":"Cambridge MA","to_stop":{"id":"17","name":"origin","lat":"42.375392","lon":"-71.118487","placename":"Cambridge MA"},"from_stop":{"name":"origin","id":"2499","lat":"52.132633","lon":"5.291266","placename":"Holland"}}]}}},"processes":[],"eols":[]},{"oid":"146","imid":"380","linkid":"","weight":"100","rawemissions":"0","emissions":"0","shipping":"59.86","processemissions":null,"endoflifeemissions":null,"disposaltype":null,"disposalenergy":null,"disposalimpact":null,"disposalemissions":null,"description":"Part Description","name":"Plymouth Rock Studios","id":"380","stops":{"origin":{"related_to":"380","part_or_object":"p","notes":"","placename":"Plymouth MA","id":2500,"name":"origin","lat":"41.952751","lon":"-70.66996","hops":{"incoming":[],"outgoing":[{"transport_id":"1","id":"316","transport_name":"van, 3.5 tons","transport_description":"delivery van, half full","transport_unit":"kg km","transport_co2_eq":"0.053400","from_stop_id":"2500","from_stop_lat":"41.952751","from_stop_lon":"-70.66996","from_stop_placename":"Plymouth MA","to_stop_id":"17","to_stop_name":"origin","to_stop_lat":"42.375392","to_stop_lon":"-71.118487","to_stop_placename":"Cambridge MA","to_stop":{"id":"17","name":"origin","lat":"42.375392","lon":"-71.118487","placename":"Cambridge MA"},"from_stop":{"name":"origin","id":"2500","lat":"41.952751","lon":"-70.66996","placename":"Plymouth MA"}}]}}},"processes":[],"eols":[]},{"oid":"146","imid":"381","linkid":"","weight":"300","rawemissions":"0","emissions":"0","shipping":"4338.1","processemissions":null,"endoflifeemissions":null,"disposaltype":null,"disposalenergy":null,"disposalimpact":null,"disposalemissions":null,"description":"Part Description","name":"QUALCOMM","id":"381","stops":{"origin":{"related_to":"381","part_or_object":"p","notes":"","placename":"SFO","id":2504,"name":"origin","lat":"37.615223","lon":"-122.389979","hops":{"incoming":[],"outgoing":[{"transport_id":"14","id":"320","transport_name":"air, passenger, intercontinental","transport_description":"intercontinental, kg km from person-km","transport_unit":"kg km","transport_co2_eq":"1.189000","from_stop_id":"2504","from_stop_lat":"37.615223","from_stop_lon":"-122.389979","from_stop_placename":"SFO","to_stop_id":"17","to_stop_name":"origin","to_stop_lat":"42.375392","to_stop_lon":"-71.118487","to_stop_placename":"Cambridge MA","to_stop":{"id":"17","name":"origin","lat":"42.375392","lon":"-71.118487","placename":"Cambridge MA"},"from_stop":{"name":"origin","id":"2504","lat":"37.615223","lon":"-122.389979","placename":"SFO"}}]}}},"processes":[],"eols":[]},{"oid":"146","imid":"382","linkid":"","weight":"900","rawemissions":"0","emissions":"0","shipping":"10799.6","processemissions":null,"endoflifeemissions":null,"disposaltype":null,"disposalenergy":null,"disposalimpact":null,"disposalemissions":null,"description":"Part Description","name":"RICOH","id":"382","stops":{"origin":{"related_to":"382","part_or_object":"p","notes":"","placename":"Tokyo","id":2505,"name":"origin","lat":"35.6894875","lon":"139.6917064","hops":{"incoming":[],"outgoing":[{"transport_id":"14","id":"321","transport_name":"air, passenger, intercontinental","transport_description":"intercontinental, kg km from person-km","transport_unit":"kg km","transport_co2_eq":"1.189000","from_stop_id":"2505","from_stop_lat":"35.6894875","from_stop_lon":"139.6917064","from_stop_placename":"Tokyo","to_stop_id":"17","to_stop_name":"origin","to_stop_lat":"42.375392","to_stop_lon":"-71.118487","to_stop_placename":"Cambridge MA","to_stop":{"id":"17","name":"origin","lat":"42.375392","lon":"-71.118487","placename":"Cambridge MA"},"from_stop":{"name":"origin","id":"2505","lat":"35.6894875","lon":"139.6917064","placename":"Tokyo"}}]}}},"processes":[],"eols":[]},{"oid":"146","imid":"383","linkid":"","weight":"1000","rawemissions":"0","emissions":"0","shipping":"10951.2","processemissions":null,"endoflifeemissions":null,"disposaltype":null,"disposalenergy":null,"disposalimpact":null,"disposalemissions":null,"description":"Part Description","name":"Samsung","id":"383","stops":{"origin":{"related_to":"383","part_or_object":"p","notes":"","placename":"Seoul","id":2506,"name":"origin","lat":"37.566535","lon":"126.9779692","hops":{"incoming":[],"outgoing":[{"transport_id":"14","id":"322","transport_name":"air, passenger, intercontinental","transport_description":"intercontinental, kg km from person-km","transport_unit":"kg km","transport_co2_eq":"1.189000","from_stop_id":"2506","from_stop_lat":"37.566535","from_stop_lon":"126.9779692","from_stop_placename":"Seoul","to_stop_id":"17","to_stop_name":"origin","to_stop_lat":"42.375392","to_stop_lon":"-71.118487","to_stop_placename":"Cambridge MA","to_stop":{"id":"17","name":"origin","lat":"42.375392","lon":"-71.118487","placename":"Cambridge MA"},"from_stop":{"name":"origin","id":"2506","lat":"37.566535","lon":"126.9779692","placename":"Seoul"}}]}}},"processes":[],"eols":[]},{"oid":"146","imid":"384","linkid":"","weight":"300","rawemissions":"0","emissions":"0","shipping":"2579.99","processemissions":null,"endoflifeemissions":null,"disposaltype":null,"disposalenergy":null,"disposalimpact":null,"disposalemissions":null,"description":"Part Description","name":"Schlumberger","id":"384","stops":{"origin":{"related_to":"384","part_or_object":"p","notes":"","placename":"Houston","id":2507,"name":"origin","lat":"29.759956","lon":"-95.362534","hops":{"incoming":[],"outgoing":[{"transport_id":"13","id":"323","transport_name":"air, passenger, regional","transport_description":"within one continent, kg km from person-km","transport_unit":"kg km","transport_co2_eq":"2.262000","from_stop_id":"2507","from_stop_lat":"29.759956","from_stop_lon":"-95.362534","from_stop_placename":"Houston","to_stop_id":"17","to_stop_name":"origin","to_stop_lat":"42.375392","to_stop_lon":"-71.118487","to_stop_placename":"Cambridge MA","to_stop":{"id":"17","name":"origin","lat":"42.375392","lon":"-71.118487","placename":"Cambridge MA"},"from_stop":{"name":"origin","id":"2507","lat":"29.759956","lon":"-95.362534","placename":"Houston"}}]}}},"processes":[],"eols":[]},{"oid":"146","imid":"385","linkid":"","weight":"300","rawemissions":"0","emissions":"0","shipping":"4338.1","processemissions":null,"endoflifeemissions":null,"disposaltype":null,"disposalenergy":null,"disposalimpact":null,"disposalemissions":null,"description":"Part Description","name":"Seagate","id":"385","stops":{"origin":{"related_to":"385","part_or_object":"p","notes":"","placename":"SFO","id":2508,"name":"origin","lat":"37.615223","lon":"-122.389979","hops":{"incoming":[],"outgoing":[{"transport_id":"14","id":"324","transport_name":"air, passenger, intercontinental","transport_description":"intercontinental, kg km from person-km","transport_unit":"kg km","transport_co2_eq":"1.189000","from_stop_id":"2508","from_stop_lat":"37.615223","from_stop_lon":"-122.389979","from_stop_placename":"SFO","to_stop_id":"17","to_stop_name":"origin","to_stop_lat":"42.375392","to_stop_lon":"-71.118487","to_stop_placename":"Cambridge MA","to_stop":{"id":"17","name":"origin","lat":"42.375392","lon":"-71.118487","placename":"Cambridge MA"},"from_stop":{"name":"origin","id":"2508","lat":"37.615223","lon":"-122.389979","placename":"SFO"}}]}}},"processes":[],"eols":[]},{"oid":"146","imid":"386","linkid":"","weight":"300","rawemissions":"0","emissions":"0","shipping":"1888.66","processemissions":null,"endoflifeemissions":null,"disposaltype":null,"disposalenergy":null,"disposalimpact":null,"disposalemissions":null,"description":"Part Description","name":"Sensormatic","id":"386","stops":{"origin":{"related_to":"386","part_or_object":"p","notes":"","placename":"FL","id":2509,"name":"origin","lat":"27.6648274","lon":"-81.5157535","hops":{"incoming":[],"outgoing":[{"transport_id":"13","id":"325","transport_name":"air, passenger, regional","transport_description":"within one continent, kg km from person-km","transport_unit":"kg km","transport_co2_eq":"2.262000","from_stop_id":"2509","from_stop_lat":"27.6648274","from_stop_lon":"-81.5157535","from_stop_placename":"FL","to_stop_id":"17","to_stop_name":"origin","to_stop_lat":"42.375392","to_stop_lon":"-71.118487","to_stop_placename":"Cambridge MA","to_stop":{"id":"17","name":"origin","lat":"42.375392","lon":"-71.118487","placename":"Cambridge MA"},"from_stop":{"name":"origin","id":"2509","lat":"27.6648274","lon":"-81.5157535","placename":"FL"}}]}}},"processes":[],"eols":[]},{"oid":"146","imid":"387","linkid":"","weight":"300","rawemissions":"0","emissions":"0","shipping":"2228.83","processemissions":null,"endoflifeemissions":null,"disposaltype":null,"disposalenergy":null,"disposalimpact":null,"disposalemissions":null,"description":"Part Description","name":"Sprint","id":"387","stops":{"origin":{"related_to":"387","part_or_object":"p","notes":"","placename":"Abilene Kansas","id":2510,"name":"origin","lat":"38.921679","lon":"-97.221632","hops":{"incoming":[],"outgoing":[{"transport_id":"13","id":"326","transport_name":"air, passenger, regional","transport_description":"within one continent, kg km from person-km","transport_unit":"kg km","transport_co2_eq":"2.262000","from_stop_id":"2510","from_stop_lat":"38.921679","from_stop_lon":"-97.221632","from_stop_placename":"Abilene Kansas","to_stop_id":"17","to_stop_name":"origin","to_stop_lat":"42.375392","to_stop_lon":"-71.118487","to_stop_placename":"Cambridge MA","to_stop":{"id":"17","name":"origin","lat":"42.375392","lon":"-71.118487","placename":"Cambridge MA"},"from_stop":{"name":"origin","id":"2510","lat":"38.921679","lon":"-97.221632","placename":"Abilene Kansas"}}]}}},"processes":[],"eols":[]},{"oid":"146","imid":"388","linkid":"","weight":"300","rawemissions":"0","emissions":"0","shipping":"1191.22","processemissions":null,"endoflifeemissions":null,"disposaltype":null,"disposalenergy":null,"disposalimpact":null,"disposalemissions":null,"description":"Part Description","name":"Steelcase","id":"388","stops":{"origin":{"related_to":"388","part_or_object":"p","notes":"","placename":"Grand Rapids MI","id":2511,"name":"origin","lat":"42.970471","lon":"-85.668648","hops":{"incoming":[],"outgoing":[{"transport_id":"13","id":"327","transport_name":"air, passenger, regional","transport_description":"within one continent, kg km from person-km","transport_unit":"kg km","transport_co2_eq":"2.262000","from_stop_id":"2511","from_stop_lat":"42.970471","from_stop_lon":"-85.668648","from_stop_placename":"Grand Rapids MI","to_stop_id":"17","to_stop_name":"origin","to_stop_lat":"42.375392","to_stop_lon":"-71.118487","to_stop_placename":"Cambridge MA","to_stop":{"id":"17","name":"origin","lat":"42.375392","lon":"-71.118487","placename":"Cambridge MA"},"from_stop":{"name":"origin","id":"2511","lat":"42.970471","lon":"-85.668648","placename":"Grand Rapids MI"}}]}}},"processes":[],"eols":[]},{"oid":"146","imid":"389","linkid":"","weight":"200","rawemissions":"0","emissions":"0","shipping":"4338.1","processemissions":null,"endoflifeemissions":null,"disposaltype":null,"disposalenergy":null,"disposalimpact":null,"disposalemissions":null,"description":"Part Description","name":"Sun","id":"389","stops":{"origin":{"related_to":"389","part_or_object":"p","notes":"","placename":"SFO","id":2512,"name":"origin","lat":"37.615223","lon":"-122.389979","hops":{"incoming":[],"outgoing":[{"transport_id":"14","id":"328","transport_name":"air, passenger, intercontinental","transport_description":"intercontinental, kg km from person-km","transport_unit":"kg km","transport_co2_eq":"1.189000","from_stop_id":"2512","from_stop_lat":"37.615223","from_stop_lon":"-122.389979","from_stop_placename":"SFO","to_stop_id":"17","to_stop_name":"origin","to_stop_lat":"42.375392","to_stop_lon":"-71.118487","to_stop_placename":"Cambridge MA","to_stop":{"id":"17","name":"origin","lat":"42.375392","lon":"-71.118487","placename":"Cambridge MA"},"from_stop":{"name":"origin","id":"2512","lat":"37.615223","lon":"-122.389979","placename":"SFO"}}]}}},"processes":[],"eols":[]},{"oid":"146","imid":"390","linkid":"","weight":"500","rawemissions":"0","emissions":"0","shipping":"1800.56","processemissions":null,"endoflifeemissions":null,"disposaltype":null,"disposalenergy":null,"disposalimpact":null,"disposalemissions":null,"description":"Part Description","name":"Target","id":"390","stops":{"origin":{"related_to":"390","part_or_object":"p","notes":"","placename":"Minneapolis","id":2513,"name":"origin","lat":"44.977482","lon":"-93.264351","hops":{"incoming":[],"outgoing":[{"transport_id":"13","id":"329","transport_name":"air, passenger, regional","transport_description":"within one continent, kg km from person-km","transport_unit":"kg km","transport_co2_eq":"2.262000","from_stop_id":"2513","from_stop_lat":"44.977482","from_stop_lon":"-93.264351","from_stop_placename":"Minneapolis","to_stop_id":"17","to_stop_name":"origin","to_stop_lat":"42.375392","to_stop_lon":"-71.118487","to_stop_placename":"Cambridge MA","to_stop":{"id":"17","name":"origin","lat":"42.375392","lon":"-71.118487","placename":"Cambridge MA"},"from_stop":{"name":"origin","id":"2513","lat":"44.977482","lon":"-93.264351","placename":"Minneapolis"}}]}}},"processes":[],"eols":[]},{"oid":"146","imid":"391","linkid":"","weight":"300","rawemissions":"0","emissions":"0","shipping":"6595.2","processemissions":null,"endoflifeemissions":null,"disposaltype":null,"disposalenergy":null,"disposalimpact":null,"disposalemissions":null,"description":"Part Description","name":"Telecom Italia","id":"391","stops":{"origin":{"related_to":"391","part_or_object":"p","notes":"","placename":"Rome","id":2514,"name":"origin","lat":"41.8954656","lon":"12.4823243","hops":{"incoming":[],"outgoing":[{"transport_id":"14","id":"330","transport_name":"air, passenger, intercontinental","transport_description":"intercontinental, kg km from person-km","transport_unit":"kg km","transport_co2_eq":"1.189000","from_stop_id":"2514","from_stop_lat":"41.8954656","from_stop_lon":"12.4823243","from_stop_placename":"Rome","to_stop_id":"17","to_stop_name":"origin","to_stop_lat":"42.375392","to_stop_lon":"-71.118487","to_stop_placename":"Cambridge MA","to_stop":{"id":"17","name":"origin","lat":"42.375392","lon":"-71.118487","placename":"Cambridge MA"},"from_stop":{"name":"origin","id":"2514","lat":"41.8954656","lon":"12.4823243","placename":"Rome"}}]}}},"processes":[],"eols":[]},{"oid":"146","imid":"392","linkid":"","weight":"400","rawemissions":"0","emissions":"0","shipping":"299.26","processemissions":null,"endoflifeemissions":null,"disposaltype":null,"disposalenergy":null,"disposalimpact":null,"disposalemissions":null,"description":"Part Description","name":"Time","id":"392","stops":{"origin":{"related_to":"392","part_or_object":"p","notes":"","placename":"NYC","id":2515,"name":"origin","lat":"40.756054","lon":"-73.986951","hops":{"incoming":[],"outgoing":[{"transport_id":"13","id":"331","transport_name":"air, passenger, regional","transport_description":"within one continent, kg km from person-km","transport_unit":"kg km","transport_co2_eq":"2.262000","from_stop_id":"2515","from_stop_lat":"40.756054","from_stop_lon":"-73.986951","from_stop_placename":"NYC","to_stop_id":"17","to_stop_name":"origin","to_stop_lat":"42.375392","to_stop_lon":"-71.118487","to_stop_placename":"Cambridge MA","to_stop":{"id":"17","name":"origin","lat":"42.375392","lon":"-71.118487","placename":"Cambridge MA"},"from_stop":{"name":"origin","id":"2515","lat":"40.756054","lon":"-73.986951","placename":"NYC"}}]}}},"processes":[],"eols":[]},{"oid":"146","imid":"393","linkid":"","weight":"100","rawemissions":"0","emissions":"0","shipping":"3668.29","processemissions":null,"endoflifeemissions":null,"disposaltype":null,"disposalenergy":null,"disposalimpact":null,"disposalemissions":null,"description":"Part Description","name":"Telmex","id":"393","stops":{"origin":{"related_to":"393","part_or_object":"p","notes":"","placename":"Mexico City","id":2516,"name":"origin","lat":"19.410636","lon":"-99.130588","hops":{"incoming":[],"outgoing":[{"transport_id":"14","id":"332","transport_name":"air, passenger, intercontinental","transport_description":"intercontinental, kg km from person-km","transport_unit":"kg km","transport_co2_eq":"1.189000","from_stop_id":"2516","from_stop_lat":"19.410636","from_stop_lon":"-99.130588","from_stop_placename":"Mexico City","to_stop_id":"17","to_stop_name":"origin","to_stop_lat":"42.375392","to_stop_lon":"-71.118487","to_stop_placename":"Cambridge MA","to_stop":{"id":"17","name":"origin","lat":"42.375392","lon":"-71.118487","placename":"Cambridge MA"},"from_stop":{"name":"origin","id":"2516","lat":"19.410636","lon":"-99.130588","placename":"Mexico City"}}]}}},"processes":[],"eols":[]},{"oid":"146","imid":"394","linkid":"","weight":"600","rawemissions":"0","emissions":"0","shipping":"10799.6","processemissions":null,"endoflifeemissions":null,"disposaltype":null,"disposalenergy":null,"disposalimpact":null,"disposalemissions":null,"description":"Part Description","name":"Toshiba","id":"394","stops":{"origin":{"related_to":"394","part_or_object":"p","notes":"","placename":"Tokyo","id":2517,"name":"origin","lat":"35.6894875","lon":"139.6917064","hops":{"incoming":[],"outgoing":[{"transport_id":"14","id":"333","transport_name":"air, passenger, intercontinental","transport_description":"intercontinental, kg km from person-km","transport_unit":"kg km","transport_co2_eq":"1.189000","from_stop_id":"2517","from_stop_lat":"35.6894875","from_stop_lon":"139.6917064","from_stop_placename":"Tokyo","to_stop_id":"17","to_stop_name":"origin","to_stop_lat":"42.375392","to_stop_lon":"-71.118487","to_stop_placename":"Cambridge MA","to_stop":{"id":"17","name":"origin","lat":"42.375392","lon":"-71.118487","placename":"Cambridge MA"},"from_stop":{"name":"origin","id":"2517","lat":"35.6894875","lon":"139.6917064","placename":"Tokyo"}}]}}},"processes":[],"eols":[]},{"oid":"146","imid":"395","linkid":"","weight":"300","rawemissions":"0","emissions":"0","shipping":"10799.6","processemissions":null,"endoflifeemissions":null,"disposaltype":null,"disposalenergy":null,"disposalimpact":null,"disposalemissions":null,"description":"Part Description","name":"Toyota","id":"395","stops":{"origin":{"related_to":"395","part_or_object":"p","notes":"","placename":"Tokyo","id":2518,"name":"origin","lat":"35.6894875","lon":"139.6917064","hops":{"incoming":[],"outgoing":[{"transport_id":"14","id":"334","transport_name":"air, passenger, intercontinental","transport_description":"intercontinental, kg km from person-km","transport_unit":"kg km","transport_co2_eq":"1.189000","from_stop_id":"2518","from_stop_lat":"35.6894875","from_stop_lon":"139.6917064","from_stop_placename":"Tokyo","to_stop_id":"17","to_stop_name":"origin","to_stop_lat":"42.375392","to_stop_lon":"-71.118487","to_stop_placename":"Cambridge MA","to_stop":{"id":"17","name":"origin","lat":"42.375392","lon":"-71.118487","placename":"Cambridge MA"},"from_stop":{"name":"origin","id":"2518","lat":"35.6894875","lon":"139.6917064","placename":"Tokyo"}}]}}},"processes":[],"eols":[]},{"oid":"146","imid":"396","linkid":"","weight":"400","rawemissions":"0","emissions":"0","shipping":"12578.1","processemissions":null,"endoflifeemissions":null,"disposaltype":null,"disposalenergy":null,"disposalimpact":null,"disposalemissions":null,"description":"Part Description","name":"VIA Technologies","id":"396","stops":{"origin":{"related_to":"396","part_or_object":"p","notes":"","placename":"Taiwan","id":2519,"name":"origin","lat":"23.69781","lon":"120.960515","hops":{"incoming":[],"outgoing":[{"transport_id":"14","id":"335","transport_name":"air, passenger, intercontinental","transport_description":"intercontinental, kg km from person-km","transport_unit":"kg km","transport_co2_eq":"1.189000","from_stop_id":"2519","from_stop_lat":"23.69781","from_stop_lon":"120.960515","from_stop_placename":"Taiwan","to_stop_id":"17","to_stop_name":"origin","to_stop_lat":"42.375392","to_stop_lon":"-71.118487","to_stop_placename":"Cambridge MA","to_stop":{"id":"17","name":"origin","lat":"42.375392","lon":"-71.118487","placename":"Cambridge MA"},"from_stop":{"name":"origin","id":"2519","lat":"23.69781","lon":"120.960515","placename":"Taiwan"}}]}}},"processes":[],"eols":[]},{"oid":"146","imid":"397","linkid":"","weight":"400","rawemissions":"0","emissions":"0","shipping":"5970.67","processemissions":null,"endoflifeemissions":null,"disposaltype":null,"disposalenergy":null,"disposalimpact":null,"disposalemissions":null,"description":"Part Description","name":"Volkswagen Audi","id":"397","stops":{"origin":{"related_to":"397","part_or_object":"p","notes":"","placename":"Germany","id":2520,"name":"origin","lat":"51.165691","lon":"10.451526","hops":{"incoming":[],"outgoing":[{"transport_id":"14","id":"336","transport_name":"air, passenger, intercontinental","transport_description":"intercontinental, kg km from person-km","transport_unit":"kg km","transport_co2_eq":"1.189000","from_stop_id":"2520","from_stop_lat":"51.165691","from_stop_lon":"10.451526","from_stop_placename":"Germany","to_stop_id":"17","to_stop_name":"origin","to_stop_lat":"42.375392","to_stop_lon":"-71.118487","to_stop_placename":"Cambridge MA","to_stop":{"id":"17","name":"origin","lat":"42.375392","lon":"-71.118487","placename":"Cambridge MA"},"from_stop":{"name":"origin","id":"2520","lat":"51.165691","lon":"10.451526","placename":"Germany"}}]}}},"processes":[],"eols":[]},{"oid":"146","imid":"398","linkid":"","weight":"200","rawemissions":"0","emissions":"0","shipping":"10799.6","processemissions":null,"endoflifeemissions":null,"disposaltype":null,"disposalenergy":null,"disposalimpact":null,"disposalemissions":null,"description":"Part Description","name":"Yamaha","id":"398","stops":{"origin":{"related_to":"398","part_or_object":"p","notes":"","placename":"Tokyo","id":2521,"name":"origin","lat":"35.6894875","lon":"139.6917064","hops":{"incoming":[],"outgoing":[{"transport_id":"14","id":"337","transport_name":"air, passenger, intercontinental","transport_description":"intercontinental, kg km from person-km","transport_unit":"kg km","transport_co2_eq":"1.189000","from_stop_id":"2521","from_stop_lat":"35.6894875","from_stop_lon":"139.6917064","from_stop_placename":"Tokyo","to_stop_id":"17","to_stop_name":"origin","to_stop_lat":"42.375392","to_stop_lon":"-71.118487","to_stop_placename":"Cambridge MA","to_stop":{"id":"17","name":"origin","lat":"42.375392","lon":"-71.118487","placename":"Cambridge MA"},"from_stop":{"name":"origin","id":"2521","lat":"35.6894875","lon":"139.6917064","placename":"Tokyo"}}]}}},"processes":[],"eols":[]}],"user":{"name":"leo","id":"1"}}}