{"1471":{"oid":"1471","type":"object","flag":"","creator":"8","name":"$750 Ralph Lauren Jeans","upc":"","imagelink":"","description":"The description of how a $750 pair of jeans is made by a former designer for Ralph Lauren. Description taken from <a href=\"https:\/\/www.npr.org\/templates\/transcript\/transcript.php?storyId=114164314\">NPR transcript of 'Fresh Air', 10\/26\/2009<\/a>","slug":"750-ralph-lauren-jeans","category":"","weight":"1.6","emissions":"0.48","embodied":"0.48","transport":"0","process":"0","endoflife":"0","shipping":"20725","lifetime":"0","usagetype":"","usageenergy":"0","usageemissions":"0","timecreated":"2010-02-24 22:03:35.805075","timemodified":"2009-10-27 18:43:40","visibility":"public","showfootprint":"on","showembodied":"on","showtransport":"on","showprocess":"on","showendoflife":"on","showlastleg":"on","showuse":"on","showstats":"on","stops":{"origin":{"related_to":"1471","part_or_object":"o","notes":"","placename":"Hong Kong","id":"272","category":"1","lat":"22.396428","lon":"114.109497","name":"origin","hops":{"incoming":[{"transport_id":"17","id":"1015","transport_name":"None Selected","transport_description":null,"transport_unit":"kg km","transport_co2_eq":"0.000000","from_stop_id":"3267","from_stop_lat":"32.3546679","from_stop_lon":"-89.3985283","to_stop_id":"272","to_stop_name":"origin","to_stop_lat":"22.396428","placename":"Mississippi, USA","to_stop_lon":"114.109497","to_stop":{"id":"272","name":"origin","lat":"22.396428","placename":"Hong Kong","lon":"114.109497"},"from_stop":{"name":"origin","id":"3267","lat":"32.3546679","lon":"-89.3985283","placename":"Mississippi, USA"}},{"transport_id":"17","id":"1016","transport_name":"None Selected","transport_description":null,"transport_unit":"kg km","transport_co2_eq":"0.000000","from_stop_id":"3268","from_stop_lat":"20.593684","from_stop_lon":"78.96288","to_stop_id":"272","to_stop_name":"origin","to_stop_lat":"22.396428","placename":"India","to_stop_lon":"114.109497","to_stop":{"id":"272","name":"origin","lat":"22.396428","placename":"Hong Kong","lon":"114.109497"},"from_stop":{"name":"origin","id":"3268","lat":"20.593684","lon":"78.96288","placename":"India"}},{"transport_id":"17","id":"1017","transport_name":"None Selected","transport_description":null,"transport_unit":"kg km","transport_co2_eq":"0.000000","from_stop_id":"3269","from_stop_lat":"20.593684","from_stop_lon":"78.96288","to_stop_id":"272","to_stop_name":"origin","to_stop_lat":"22.396428","placename":"India","to_stop_lon":"114.109497","to_stop":{"id":"272","name":"origin","lat":"22.396428","placename":"Hong Kong","lon":"114.109497"},"from_stop":{"name":"origin","id":"3269","lat":"20.593684","lon":"78.96288","placename":"India"}},{"transport_id":"17","id":"1018","transport_name":"None Selected","transport_description":null,"transport_unit":"kg km","transport_co2_eq":"0.000000","from_stop_id":"3270","from_stop_lat":"22.396428","from_stop_lon":"114.109497","to_stop_id":"272","to_stop_name":"origin","to_stop_lat":"22.396428","placename":"Hong Kong","to_stop_lon":"114.109497","to_stop":{"id":"272","name":"origin","lat":"22.396428","placename":"Hong Kong","lon":"114.109497"},"from_stop":{"name":"origin","id":"3270","lat":"22.396428","lon":"114.109497","placename":"Hong Kong"}}],"outgoing":[]}}},"parts":[{"oid":"1471","imid":"1209","linkid":"","weight":"0.5","rawemissions":"0.95","emissions":"0.48","shipping":"13449.4","processemissions":null,"endoflifeemissions":null,"disposaltype":null,"disposalenergy":null,"disposalimpact":null,"disposalemissions":null,"description":"insecticide free","name":"Cotton fabric organic","id":"1209","stops":{"origin":{"related_to":"1209","part_or_object":"p","notes":"","placename":"Mississippi, USA","id":3267,"name":"origin","lat":"32.3546679","lon":"-89.3985283","hops":{"incoming":[],"outgoing":[{"transport_id":"17","id":"1015","transport_name":"None Selected","transport_description":null,"transport_unit":"kg km","transport_co2_eq":"0.000000","from_stop_id":"3267","from_stop_lat":"32.3546679","from_stop_lon":"-89.3985283","from_stop_placename":"Mississippi, USA","to_stop_id":"272","to_stop_name":"origin","to_stop_lat":"22.396428","to_stop_lon":"114.109497","to_stop_placename":"Hong Kong","to_stop":{"id":"272","name":"origin","lat":"22.396428","lon":"114.109497","placename":"Hong Kong"},"from_stop":{"name":"origin","id":"3267","lat":"32.3546679","lon":"-89.3985283","placename":"Mississippi, USA"}}]}}},"processes":[],"eols":[]},{"oid":"1471","imid":"1210","linkid":"","weight":"0.5","rawemissions":"0","emissions":"0","shipping":"3637.79","processemissions":null,"endoflifeemissions":null,"disposaltype":null,"disposalenergy":null,"disposalimpact":null,"disposalemissions":null,"description":"","name":"Hand Embroidery","id":"1210","stops":{"origin":{"related_to":"1210","part_or_object":"p","notes":"","placename":"India","id":3268,"name":"origin","lat":"20.593684","lon":"78.96288","hops":{"incoming":[],"outgoing":[{"transport_id":"17","id":"1016","transport_name":"None Selected","transport_description":null,"transport_unit":"kg km","transport_co2_eq":"0.000000","from_stop_id":"3268","from_stop_lat":"20.593684","from_stop_lon":"78.96288","from_stop_placename":"India","to_stop_id":"272","to_stop_name":"origin","to_stop_lat":"22.396428","to_stop_lon":"114.109497","to_stop_placename":"Hong Kong","to_stop":{"id":"272","name":"origin","lat":"22.396428","lon":"114.109497","placename":"Hong Kong"},"from_stop":{"name":"origin","id":"3268","lat":"20.593684","lon":"78.96288","placename":"India"}}]}}},"processes":[],"eols":[]},{"oid":"1471","imid":"1211","linkid":"","weight":"0.1","rawemissions":"0","emissions":"0","shipping":"3637.79","processemissions":null,"endoflifeemissions":null,"disposaltype":null,"disposalenergy":null,"disposalimpact":null,"disposalemissions":null,"description":"Also handmade.","name":"A Little Purse","id":"1211","stops":{"origin":{"related_to":"1211","part_or_object":"p","notes":"","placename":"India","id":3269,"name":"origin","lat":"20.593684","lon":"78.96288","hops":{"incoming":[],"outgoing":[{"transport_id":"17","id":"1017","transport_name":"None Selected","transport_description":null,"transport_unit":"kg km","transport_co2_eq":"0.000000","from_stop_id":"3269","from_stop_lat":"20.593684","from_stop_lon":"78.96288","from_stop_placename":"India","to_stop_id":"272","to_stop_name":"origin","to_stop_lat":"22.396428","to_stop_lon":"114.109497","to_stop_placename":"Hong Kong","to_stop":{"id":"272","name":"origin","lat":"22.396428","lon":"114.109497","placename":"Hong Kong"},"from_stop":{"name":"origin","id":"3269","lat":"20.593684","lon":"78.96288","placename":"India"}}]}}},"processes":[],"eols":[]},{"oid":"1471","imid":"1212","linkid":"","weight":"0.5","rawemissions":"0","emissions":"0","shipping":"0","processemissions":null,"endoflifeemissions":null,"disposaltype":null,"disposalenergy":null,"disposalimpact":null,"disposalemissions":null,"description":"","name":"Cut Denim","id":"1212","stops":{"origin":{"related_to":"1212","part_or_object":"p","notes":"","placename":"Hong Kong","id":3270,"name":"origin","lat":"22.396428","lon":"114.109497","hops":{"incoming":[],"outgoing":[{"transport_id":"17","id":"1018","transport_name":"None Selected","transport_description":null,"transport_unit":"kg km","transport_co2_eq":"0.000000","from_stop_id":"3270","from_stop_lat":"22.396428","from_stop_lon":"114.109497","from_stop_placename":"Hong Kong","to_stop_id":"272","to_stop_name":"origin","to_stop_lat":"22.396428","to_stop_lon":"114.109497","to_stop_placename":"Hong Kong","to_stop":{"id":"272","name":"origin","lat":"22.396428","lon":"114.109497","placename":"Hong Kong"},"from_stop":{"name":"origin","id":"3270","lat":"22.396428","lon":"114.109497","placename":"Hong Kong"}}]}}},"processes":[],"eols":[]}],"user":{"name":"zwarg","id":"8"}}}