{"1475":{"oid":"1475","type":"trace","flag":"","creator":"13793","name":"Materials Optimization","upc":"","imagelink":"","description":"","slug":"Materials-Optimization","category":"","weight":"0","emissions":"0","embodied":"0","transport":"0","process":null,"endoflife":null,"shipping":"66527.12","lifetime":null,"usagetype":"","usageenergy":null,"usageemissions":null,"timecreated":"2011-07-26 10:35:21","timemodified":"2011-07-26 13:54:41","visibility":"private","showfootprint":"on","showembodied":"on","showtransport":"on","showprocess":"on","showendoflife":"on","showlastleg":"on","showuse":"on","showstats":"on","stops":{"origin":{"related_to":"1475","part_or_object":"o","notes":null,"placename":"South Jordan, UT, USA","id":"17342","category":"1","lat":"40.5621704","lon":"-111.929658","name":"origin","hops":{"incoming":[{"transport_id":null,"id":"12435","transport_name":null,"transport_description":null,"transport_unit":null,"transport_co2_eq":null,"from_stop_id":"17343","from_stop_lat":"33.8041667","from_stop_lon":"-118.1580556","to_stop_id":"17342","to_stop_name":"origin","to_stop_lat":"40.5621704","placename":"Long Beach, CA, USA","to_stop_lon":"-111.929658","to_stop":{"id":"17342","name":"origin","lat":"40.5621704","placename":"South Jordan, UT, USA","lon":"-111.929658"},"from_stop":{"name":"origin","id":"17343","lat":"33.8041667","lon":"-118.1580556","placename":"Long Beach, CA, USA"}},{"transport_id":null,"id":"12436","transport_name":null,"transport_description":null,"transport_unit":null,"transport_co2_eq":null,"from_stop_id":"17344","from_stop_lat":"35.6234367","from_stop_lon":"-95.9605502","to_stop_id":"17342","to_stop_name":"origin","to_stop_lat":"40.5621704","placename":"Okmulgee, OK, USA","to_stop_lon":"-111.929658","to_stop":{"id":"17342","name":"origin","lat":"40.5621704","placename":"South Jordan, UT, USA","lon":"-111.929658"},"from_stop":{"name":"origin","id":"17344","lat":"35.6234367","lon":"-95.9605502","placename":"Okmulgee, OK, USA"}},{"transport_id":null,"id":"12437","transport_name":null,"transport_description":null,"transport_unit":null,"transport_co2_eq":null,"from_stop_id":"17345","from_stop_lat":"60.5692","from_stop_lon":"27.1938","to_stop_id":"17342","to_stop_name":"origin","to_stop_lat":"40.5621704","placename":"Hamina, Finland","to_stop_lon":"-111.929658","to_stop":{"id":"17342","name":"origin","lat":"40.5621704","placename":"South Jordan, UT, USA","lon":"-111.929658"},"from_stop":{"name":"origin","id":"17345","lat":"60.5692","lon":"27.1938","placename":"Hamina, Finland"}},{"transport_id":null,"id":"12438","transport_name":null,"transport_description":null,"transport_unit":null,"transport_co2_eq":null,"from_stop_id":"17346","from_stop_lat":"35.3234065","from_stop_lon":"-84.5249307","to_stop_id":"17342","to_stop_name":"origin","to_stop_lat":"40.5621704","placename":"Etowah, TN, USA","to_stop_lon":"-111.929658","to_stop":{"id":"17342","name":"origin","lat":"40.5621704","placename":"South Jordan, UT, USA","lon":"-111.929658"},"from_stop":{"name":"origin","id":"17346","lat":"35.3234065","lon":"-84.5249307","placename":"Etowah, TN, USA"}},{"transport_id":null,"id":"12439","transport_name":null,"transport_description":null,"transport_unit":null,"transport_co2_eq":null,"from_stop_id":"17347","from_stop_lat":"35.3234065","from_stop_lon":"-84.5249307","to_stop_id":"17342","to_stop_name":"origin","to_stop_lat":"40.5621704","placename":"Etowah, TN, USA","to_stop_lon":"-111.929658","to_stop":{"id":"17342","name":"origin","lat":"40.5621704","placename":"South Jordan, UT, USA","lon":"-111.929658"},"from_stop":{"name":"origin","id":"17347","lat":"35.3234065","lon":"-84.5249307","placename":"Etowah, TN, USA"}},{"transport_id":null,"id":"12440","transport_name":null,"transport_description":null,"transport_unit":null,"transport_co2_eq":null,"from_stop_id":"17348","from_stop_lat":"39.5492792","from_stop_lon":"-76.091617","to_stop_id":"17342","to_stop_name":"origin","to_stop_lat":"40.5621704","placename":"Havre de Grace, MD, USA","to_stop_lon":"-111.929658","to_stop":{"id":"17342","name":"origin","lat":"40.5621704","placename":"South Jordan, UT, USA","lon":"-111.929658"},"from_stop":{"name":"origin","id":"17348","lat":"39.5492792","lon":"-76.091617","placename":"Havre de Grace, MD, USA"}},{"transport_id":null,"id":"12441","transport_name":null,"transport_description":null,"transport_unit":null,"transport_co2_eq":null,"from_stop_id":"17349","from_stop_lat":"55.510393","from_stop_lon":"12.135399","to_stop_id":"17342","to_stop_name":"origin","to_stop_lat":"40.5621704","placename":"4623 Lille Skensved, Denmark","to_stop_lon":"-111.929658","to_stop":{"id":"17342","name":"origin","lat":"40.5621704","placename":"South Jordan, UT, USA","lon":"-111.929658"},"from_stop":{"name":"origin","id":"17349","lat":"55.510393","lon":"12.135399","placename":"4623 Lille Skensved, Denmark"}},{"transport_id":null,"id":"12442","transport_name":null,"transport_description":null,"transport_unit":null,"transport_co2_eq":null,"from_stop_id":"17350","from_stop_lat":"33.474246","from_stop_lon":"-82.00967","to_stop_id":"17342","to_stop_name":"origin","to_stop_lat":"40.5621704","placename":"Augusta, GA, USA","to_stop_lon":"-111.929658","to_stop":{"id":"17342","name":"origin","lat":"40.5621704","placename":"South Jordan, UT, USA","lon":"-111.929658"},"from_stop":{"name":"origin","id":"17350","lat":"33.474246","lon":"-82.00967","placename":"Augusta, GA, USA"}},{"transport_id":null,"id":"12443","transport_name":null,"transport_description":null,"transport_unit":null,"transport_co2_eq":null,"from_stop_id":"17351","from_stop_lat":"40.6937099","from_stop_lon":"-75.1901761","to_stop_id":"17342","to_stop_name":"origin","to_stop_lat":"40.5621704","placename":"Phillipsburg, NJ, USA","to_stop_lon":"-111.929658","to_stop":{"id":"17342","name":"origin","lat":"40.5621704","placename":"South Jordan, UT, USA","lon":"-111.929658"},"from_stop":{"name":"origin","id":"17351","lat":"40.6937099","lon":"-75.1901761","placename":"Phillipsburg, NJ, USA"}},{"transport_id":null,"id":"12444","transport_name":null,"transport_description":null,"transport_unit":null,"transport_co2_eq":null,"from_stop_id":"17352","from_stop_lat":"24.9565694","from_stop_lon":"121.2240444","to_stop_id":"17342","to_stop_name":"origin","to_stop_lat":"40.5621704","placename":"Jhongli City, Taoyuan County, Taiwan 320","to_stop_lon":"-111.929658","to_stop":{"id":"17342","name":"origin","lat":"40.5621704","placename":"South Jordan, UT, USA","lon":"-111.929658"},"from_stop":{"name":"origin","id":"17352","lat":"24.9565694","lon":"121.2240444","placename":"Jhongli City, Taoyuan County, Taiwan 320"}},{"transport_id":null,"id":"12445","transport_name":null,"transport_description":null,"transport_unit":null,"transport_co2_eq":null,"from_stop_id":"17353","from_stop_lat":"37.4562557","from_stop_lon":"126.7052062","to_stop_id":"17342","to_stop_name":"origin","to_stop_lat":"40.5621704","placename":"Incheon, South Korea","to_stop_lon":"-111.929658","to_stop":{"id":"17342","name":"origin","lat":"40.5621704","placename":"South Jordan, UT, USA","lon":"-111.929658"},"from_stop":{"name":"origin","id":"17353","lat":"37.4562557","lon":"126.7052062","placename":"Incheon, South Korea"}},{"transport_id":null,"id":"12446","transport_name":null,"transport_description":null,"transport_unit":null,"transport_co2_eq":null,"from_stop_id":"17354","from_stop_lat":"51.312084","from_stop_lon":"6.276481","to_stop_id":"17342","to_stop_name":"origin","to_stop_lat":"40.5621704","placename":"41334 Nettetal, Germany","to_stop_lon":"-111.929658","to_stop":{"id":"17342","name":"origin","lat":"40.5621704","placename":"South Jordan, UT, USA","lon":"-111.929658"},"from_stop":{"name":"origin","id":"17354","lat":"51.312084","lon":"6.276481","placename":"41334 Nettetal, Germany"}},{"transport_id":null,"id":"12447","transport_name":null,"transport_description":null,"transport_unit":null,"transport_co2_eq":null,"from_stop_id":"17355","from_stop_lat":"39.1031182","from_stop_lon":"-84.5120196","to_stop_id":"17342","to_stop_name":"origin","to_stop_lat":"40.5621704","placename":"Cincinnati, OH, USA","to_stop_lon":"-111.929658","to_stop":{"id":"17342","name":"origin","lat":"40.5621704","placename":"South Jordan, UT, USA","lon":"-111.929658"},"from_stop":{"name":"origin","id":"17355","lat":"39.1031182","lon":"-84.5120196","placename":"Cincinnati, OH, USA"}},{"transport_id":null,"id":"12448","transport_name":null,"transport_description":null,"transport_unit":null,"transport_co2_eq":null,"from_stop_id":"17356","from_stop_lat":"28.0394654","from_stop_lon":"-81.9498042","to_stop_id":"17342","to_stop_name":"origin","to_stop_lat":"40.5621704","placename":"Lakeland, FL, USA","to_stop_lon":"-111.929658","to_stop":{"id":"17342","name":"origin","lat":"40.5621704","placename":"South Jordan, UT, USA","lon":"-111.929658"},"from_stop":{"name":"origin","id":"17356","lat":"28.0394654","lon":"-81.9498042","placename":"Lakeland, FL, USA"}}],"outgoing":[]}}},"parts":[{"oid":"1475","imid":"7946","linkid":"0","weight":"0","rawemissions":"0","emissions":"0","shipping":"932.74","processemissions":"0","endoflifeemissions":"0","disposaltype":null,"disposalenergy":null,"disposalimpact":null,"disposalemissions":null,"description":"Tankage at Vitusa, Long Beach","name":"Glycerine","id":"7946","stops":{"origin":{"related_to":"7946","part_or_object":"p","notes":null,"placename":"Long Beach, CA, USA","id":17343,"name":"origin","lat":"33.8041667","lon":"-118.1580556","hops":{"incoming":[],"outgoing":[{"transport_id":null,"id":"12435","transport_name":null,"transport_description":null,"transport_unit":null,"transport_co2_eq":null,"from_stop_id":"17343","from_stop_lat":"33.8041667","from_stop_lon":"-118.1580556","from_stop_placename":"Long Beach, CA, USA","to_stop_id":"17342","to_stop_name":"origin","to_stop_lat":"40.5621704","to_stop_lon":"-111.929658","to_stop_placename":"South Jordan, UT, USA","to_stop":{"id":"17342","name":"origin","lat":"40.5621704","lon":"-111.929658","placename":"South Jordan, UT, USA"},"from_stop":{"name":"origin","id":"17343","lat":"33.8041667","lon":"-118.1580556","placename":"Long Beach, CA, USA"}}]}}},"processes":[],"eols":[]},{"oid":"1475","imid":"7947","linkid":"0","weight":"0","rawemissions":"0","emissions":"0","shipping":"1500.44","processemissions":"0","endoflifeemissions":"0","disposaltype":null,"disposalenergy":null,"disposalimpact":null,"disposalemissions":null,"description":"CP Kelco","name":"Xanthan Gum","id":"7947","stops":{"origin":{"related_to":"7947","part_or_object":"p","notes":null,"placename":"Okmulgee, OK, USA","id":17344,"name":"origin","lat":"35.6234367","lon":"-95.9605502","hops":{"incoming":[],"outgoing":[{"transport_id":null,"id":"12436","transport_name":null,"transport_description":null,"transport_unit":null,"transport_co2_eq":null,"from_stop_id":"17344","from_stop_lat":"35.6234367","from_stop_lon":"-95.9605502","from_stop_placename":"Okmulgee, OK, USA","to_stop_id":"17342","to_stop_name":"origin","to_stop_lat":"40.5621704","to_stop_lon":"-111.929658","to_stop_placename":"South Jordan, UT, USA","to_stop":{"id":"17342","name":"origin","lat":"40.5621704","lon":"-111.929658","placename":"South Jordan, UT, USA"},"from_stop":{"name":"origin","id":"17344","lat":"35.6234367","lon":"-95.9605502","placename":"Okmulgee, OK, USA"}}]}}},"processes":[],"eols":[]},{"oid":"1475","imid":"7948","linkid":"0","weight":"0","rawemissions":"0","emissions":"0","shipping":"8181.43","processemissions":"0","endoflifeemissions":"0","disposaltype":null,"disposalenergy":null,"disposalimpact":null,"disposalemissions":null,"description":"","name":"Silica - Zeodent 116","id":"7948","stops":{"origin":{"related_to":"7948","part_or_object":"p","notes":null,"placename":"Hamina, Finland","id":17345,"name":"origin","lat":"60.5692","lon":"27.1938","hops":{"incoming":[],"outgoing":[{"transport_id":null,"id":"12437","transport_name":null,"transport_description":null,"transport_unit":null,"transport_co2_eq":null,"from_stop_id":"17345","from_stop_lat":"60.5692","from_stop_lon":"27.1938","from_stop_placename":"Hamina, Finland","to_stop_id":"17342","to_stop_name":"origin","to_stop_lat":"40.5621704","to_stop_lon":"-111.929658","to_stop_placename":"South Jordan, UT, USA","to_stop":{"id":"17342","name":"origin","lat":"40.5621704","lon":"-111.929658","placename":"South Jordan, UT, USA"},"from_stop":{"name":"origin","id":"17345","lat":"60.5692","lon":"27.1938","placename":"Hamina, Finland"}}]}}},"processes":[],"eols":[]},{"oid":"1475","imid":"7949","linkid":"0","weight":"0","rawemissions":"0","emissions":"0","shipping":"2464.67","processemissions":"0","endoflifeemissions":"0","disposaltype":null,"disposalenergy":null,"disposalimpact":null,"disposalemissions":null,"description":"","name":"Silica - Zeodent 113","id":"7949","stops":{"origin":{"related_to":"7949","part_or_object":"p","notes":null,"placename":"Etowah, TN, USA","id":17346,"name":"origin","lat":"35.3234065","lon":"-84.5249307","hops":{"incoming":[],"outgoing":[{"transport_id":null,"id":"12438","transport_name":null,"transport_description":null,"transport_unit":null,"transport_co2_eq":null,"from_stop_id":"17346","from_stop_lat":"35.3234065","from_stop_lon":"-84.5249307","from_stop_placename":"Etowah, TN, USA","to_stop_id":"17342","to_stop_name":"origin","to_stop_lat":"40.5621704","to_stop_lon":"-111.929658","to_stop_placename":"South Jordan, UT, USA","to_stop":{"id":"17342","name":"origin","lat":"40.5621704","lon":"-111.929658","placename":"South Jordan, UT, USA"},"from_stop":{"name":"origin","id":"17346","lat":"35.3234065","lon":"-84.5249307","placename":"Etowah, TN, USA"}}]}}},"processes":[],"eols":[]},{"oid":"1475","imid":"7950","linkid":"0","weight":"0","rawemissions":"0","emissions":"0","shipping":"2464.67","processemissions":"0","endoflifeemissions":"0","disposaltype":null,"disposalenergy":null,"disposalimpact":null,"disposalemissions":null,"description":"","name":"Silica - Zeodent 124","id":"7950","stops":{"origin":{"related_to":"7950","part_or_object":"p","notes":null,"placename":"Etowah, TN, USA","id":17347,"name":"origin","lat":"35.3234065","lon":"-84.5249307","hops":{"incoming":[],"outgoing":[{"transport_id":null,"id":"12439","transport_name":null,"transport_description":null,"transport_unit":null,"transport_co2_eq":null,"from_stop_id":"17347","from_stop_lat":"35.3234065","from_stop_lon":"-84.5249307","from_stop_placename":"Etowah, TN, USA","to_stop_id":"17342","to_stop_name":"origin","to_stop_lat":"40.5621704","to_stop_lon":"-111.929658","to_stop_placename":"South Jordan, UT, USA","to_stop":{"id":"17342","name":"origin","lat":"40.5621704","lon":"-111.929658","placename":"South Jordan, UT, USA"},"from_stop":{"name":"origin","id":"17347","lat":"35.3234065","lon":"-84.5249307","placename":"Etowah, TN, USA"}}]}}},"processes":[],"eols":[]},{"oid":"1475","imid":"7951","linkid":"0","weight":"0","rawemissions":"0","emissions":"0","shipping":"3034.54","processemissions":"0","endoflifeemissions":"0","disposaltype":null,"disposalenergy":null,"disposalimpact":null,"disposalemissions":null,"description":"","name":"Silica - Zeodent 153b","id":"7951","stops":{"origin":{"related_to":"7951","part_or_object":"p","notes":null,"placename":"Havre de Grace, MD, USA","id":17348,"name":"origin","lat":"39.5492792","lon":"-76.091617","hops":{"incoming":[],"outgoing":[{"transport_id":null,"id":"12440","transport_name":null,"transport_description":null,"transport_unit":null,"transport_co2_eq":null,"from_stop_id":"17348","from_stop_lat":"39.5492792","from_stop_lon":"-76.091617","from_stop_placename":"Havre de Grace, MD, USA","to_stop_id":"17342","to_stop_name":"origin","to_stop_lat":"40.5621704","to_stop_lon":"-111.929658","to_stop_placename":"South Jordan, UT, USA","to_stop":{"id":"17342","name":"origin","lat":"40.5621704","lon":"-111.929658","placename":"South Jordan, UT, USA"},"from_stop":{"name":"origin","id":"17348","lat":"39.5492792","lon":"-76.091617","placename":"Havre de Grace, MD, USA"}}]}}},"processes":[],"eols":[]},{"oid":"1475","imid":"7952","linkid":"0","weight":"0","rawemissions":"0","emissions":"0","shipping":"8108.71","processemissions":"0","endoflifeemissions":"0","disposaltype":null,"disposalenergy":null,"disposalimpact":null,"disposalemissions":null,"description":"","name":"Calcium Carrageenan","id":"7952","stops":{"origin":{"related_to":"7952","part_or_object":"p","notes":null,"placename":"4623 Lille Skensved, Denmark","id":17349,"name":"origin","lat":"55.510393","lon":"12.135399","hops":{"incoming":[],"outgoing":[{"transport_id":null,"id":"12441","transport_name":null,"transport_description":null,"transport_unit":null,"transport_co2_eq":null,"from_stop_id":"17349","from_stop_lat":"55.510393","from_stop_lon":"12.135399","from_stop_placename":"4623 Lille Skensved, Denmark","to_stop_id":"17342","to_stop_name":"origin","to_stop_lat":"40.5621704","to_stop_lon":"-111.929658","to_stop_placename":"South Jordan, UT, USA","to_stop":{"id":"17342","name":"origin","lat":"40.5621704","lon":"-111.929658","placename":"South Jordan, UT, USA"},"from_stop":{"name":"origin","id":"17349","lat":"55.510393","lon":"12.135399","placename":"4623 Lille Skensved, Denmark"}}]}}},"processes":[],"eols":[]},{"oid":"1475","imid":"7953","linkid":"0","weight":"0","rawemissions":"0","emissions":"0","shipping":"2758.84","processemissions":"0","endoflifeemissions":"0","disposaltype":null,"disposalenergy":null,"disposalimpact":null,"disposalemissions":null,"description":"","name":"Sodium Tripolyphosphate","id":"7953","stops":{"origin":{"related_to":"7953","part_or_object":"p","notes":null,"placename":"Augusta, GA, USA","id":17350,"name":"origin","lat":"33.474246","lon":"-82.00967","hops":{"incoming":[],"outgoing":[{"transport_id":null,"id":"12442","transport_name":null,"transport_description":null,"transport_unit":null,"transport_co2_eq":null,"from_stop_id":"17350","from_stop_lat":"33.474246","from_stop_lon":"-82.00967","from_stop_placename":"Augusta, GA, USA","to_stop_id":"17342","to_stop_name":"origin","to_stop_lat":"40.5621704","to_stop_lon":"-111.929658","to_stop_placename":"South Jordan, UT, USA","to_stop":{"id":"17342","name":"origin","lat":"40.5621704","lon":"-111.929658","placename":"South Jordan, UT, USA"},"from_stop":{"name":"origin","id":"17350","lat":"33.474246","lon":"-82.00967","placename":"Augusta, GA, USA"}}]}}},"processes":[],"eols":[]},{"oid":"1475","imid":"7954","linkid":"0","weight":"0","rawemissions":"0","emissions":"0","shipping":"3080.98","processemissions":"0","endoflifeemissions":"0","disposaltype":null,"disposalenergy":null,"disposalimpact":null,"disposalemissions":null,"description":"","name":"Potassium Nitrate","id":"7954","stops":{"origin":{"related_to":"7954","part_or_object":"p","notes":null,"placename":"Phillipsburg, NJ, USA","id":17351,"name":"origin","lat":"40.6937099","lon":"-75.1901761","hops":{"incoming":[],"outgoing":[{"transport_id":null,"id":"12443","transport_name":null,"transport_description":null,"transport_unit":null,"transport_co2_eq":null,"from_stop_id":"17351","from_stop_lat":"40.6937099","from_stop_lon":"-75.1901761","from_stop_placename":"Phillipsburg, NJ, USA","to_stop_id":"17342","to_stop_name":"origin","to_stop_lat":"40.5621704","to_stop_lon":"-111.929658","to_stop_placename":"South Jordan, UT, USA","to_stop":{"id":"17342","name":"origin","lat":"40.5621704","lon":"-111.929658","placename":"South Jordan, UT, USA"},"from_stop":{"name":"origin","id":"17351","lat":"40.6937099","lon":"-75.1901761","placename":"Phillipsburg, NJ, USA"}}]}}},"processes":[],"eols":[]},{"oid":"1475","imid":"7955","linkid":"0","weight":"0","rawemissions":"0","emissions":"0","shipping":"10906.02","processemissions":"0","endoflifeemissions":"0","disposaltype":null,"disposalenergy":null,"disposalimpact":null,"disposalemissions":null,"description":"","name":"Sodium Fluoride","id":"7955","stops":{"origin":{"related_to":"7955","part_or_object":"p","notes":null,"placename":"Jhongli City, Taoyuan County, Taiwan 320","id":17352,"name":"origin","lat":"24.9565694","lon":"121.2240444","hops":{"incoming":[],"outgoing":[{"transport_id":null,"id":"12444","transport_name":null,"transport_description":null,"transport_unit":null,"transport_co2_eq":null,"from_stop_id":"17352","from_stop_lat":"24.9565694","from_stop_lon":"121.2240444","from_stop_placename":"Jhongli City, Taoyuan County, Taiwan 320","to_stop_id":"17342","to_stop_name":"origin","to_stop_lat":"40.5621704","to_stop_lon":"-111.929658","to_stop_placename":"South Jordan, UT, USA","to_stop":{"id":"17342","name":"origin","lat":"40.5621704","lon":"-111.929658","placename":"South Jordan, UT, USA"},"from_stop":{"name":"origin","id":"17352","lat":"24.9565694","lon":"121.2240444","placename":"Jhongli City, Taoyuan County, Taiwan 320"}}]}}},"processes":[],"eols":[]},{"oid":"1475","imid":"7956","linkid":"0","weight":"0","rawemissions":"0","emissions":"0","shipping":"9497.86","processemissions":"0","endoflifeemissions":"0","disposaltype":null,"disposalenergy":null,"disposalimpact":null,"disposalemissions":null,"description":"","name":"Silica - Tixosil 73","id":"7956","stops":{"origin":{"related_to":"7956","part_or_object":"p","notes":null,"placename":"Incheon, South Korea","id":17353,"name":"origin","lat":"37.4562557","lon":"126.7052062","hops":{"incoming":[],"outgoing":[{"transport_id":null,"id":"12445","transport_name":null,"transport_description":null,"transport_unit":null,"transport_co2_eq":null,"from_stop_id":"17353","from_stop_lat":"37.4562557","from_stop_lon":"126.7052062","from_stop_placename":"Incheon, South Korea","to_stop_id":"17342","to_stop_name":"origin","to_stop_lat":"40.5621704","to_stop_lon":"-111.929658","to_stop_placename":"South Jordan, UT, USA","to_stop":{"id":"17342","name":"origin","lat":"40.5621704","lon":"-111.929658","placename":"South Jordan, UT, USA"},"from_stop":{"name":"origin","id":"17353","lat":"37.4562557","lon":"126.7052062","placename":"Incheon, South Korea"}}]}}},"processes":[],"eols":[]},{"oid":"1475","imid":"7957","linkid":"0","weight":"0","rawemissions":"0","emissions":"0","shipping":"8187.86","processemissions":"0","endoflifeemissions":"0","disposaltype":null,"disposalenergy":null,"disposalimpact":null,"disposalemissions":null,"description":"","name":"Surfactant - Adinol","id":"7957","stops":{"origin":{"related_to":"7957","part_or_object":"p","notes":null,"placename":"41334 Nettetal, Germany","id":17354,"name":"origin","lat":"51.312084","lon":"6.276481","hops":{"incoming":[],"outgoing":[{"transport_id":null,"id":"12446","transport_name":null,"transport_description":null,"transport_unit":null,"transport_co2_eq":null,"from_stop_id":"17354","from_stop_lat":"51.312084","from_stop_lon":"6.276481","from_stop_placename":"41334 Nettetal, Germany","to_stop_id":"17342","to_stop_name":"origin","to_stop_lat":"40.5621704","to_stop_lon":"-111.929658","to_stop_placename":"South Jordan, UT, USA","to_stop":{"id":"17342","name":"origin","lat":"40.5621704","lon":"-111.929658","placename":"South Jordan, UT, USA"},"from_stop":{"name":"origin","id":"17354","lat":"51.312084","lon":"6.276481","placename":"41334 Nettetal, Germany"}}]}}},"processes":[],"eols":[]},{"oid":"1475","imid":"7958","linkid":"0","weight":"0","rawemissions":"0","emissions":"0","shipping":"2339.94","processemissions":"0","endoflifeemissions":"0","disposaltype":null,"disposalenergy":null,"disposalimpact":null,"disposalemissions":null,"description":"","name":"Givaudan Flavors","id":"7958","stops":{"origin":{"related_to":"7958","part_or_object":"p","notes":null,"placename":"Cincinnati, OH, USA","id":17355,"name":"origin","lat":"39.1031182","lon":"-84.5120196","hops":{"incoming":[],"outgoing":[{"transport_id":null,"id":"12447","transport_name":null,"transport_description":null,"transport_unit":null,"transport_co2_eq":null,"from_stop_id":"17355","from_stop_lat":"39.1031182","from_stop_lon":"-84.5120196","from_stop_placename":"Cincinnati, OH, USA","to_stop_id":"17342","to_stop_name":"origin","to_stop_lat":"40.5621704","to_stop_lon":"-111.929658","to_stop_placename":"South Jordan, UT, USA","to_stop":{"id":"17342","name":"origin","lat":"40.5621704","lon":"-111.929658","placename":"South Jordan, UT, USA"},"from_stop":{"name":"origin","id":"17355","lat":"39.1031182","lon":"-84.5120196","placename":"Cincinnati, OH, USA"}}]}}},"processes":[],"eols":[]},{"oid":"1475","imid":"7959","linkid":"0","weight":"0","rawemissions":"0","emissions":"0","shipping":"3068.42","processemissions":"0","endoflifeemissions":"0","disposaltype":null,"disposalenergy":null,"disposalimpact":null,"disposalemissions":null,"description":"","name":"Firmenich Flavors","id":"7959","stops":{"origin":{"related_to":"7959","part_or_object":"p","notes":null,"placename":"Lakeland, FL, USA","id":17356,"name":"origin","lat":"28.0394654","lon":"-81.9498042","hops":{"incoming":[],"outgoing":[{"transport_id":null,"id":"12448","transport_name":null,"transport_description":null,"transport_unit":null,"transport_co2_eq":null,"from_stop_id":"17356","from_stop_lat":"28.0394654","from_stop_lon":"-81.9498042","from_stop_placename":"Lakeland, FL, USA","to_stop_id":"17342","to_stop_name":"origin","to_stop_lat":"40.5621704","to_stop_lon":"-111.929658","to_stop_placename":"South Jordan, UT, USA","to_stop":{"id":"17342","name":"origin","lat":"40.5621704","lon":"-111.929658","placename":"South Jordan, UT, USA"},"from_stop":{"name":"origin","id":"17356","lat":"28.0394654","lon":"-81.9498042","placename":"Lakeland, FL, USA"}}]}}},"processes":[],"eols":[]}],"user":{"name":"Scott-1","id":"13793"}}}