{"148":{"oid":"148","type":"trace","flag":"","creator":"1","name":"Airbus A380","upc":"","imagelink":"","description":"","slug":"Airbus-A380","category":"","weight":"0","emissions":"0","embodied":"0","transport":"0","process":null,"endoflife":null,"shipping":"20709.64","lifetime":null,"usagetype":"","usageenergy":null,"usageemissions":null,"timecreated":"2010-12-05 11:41:13","timemodified":"2010-12-05 12:05:37","visibility":"private","showfootprint":"on","showembodied":"on","showtransport":"on","showprocess":"on","showendoflife":"on","showlastleg":"on","showuse":"on","showstats":"on","stops":{"origin":{"related_to":"148","part_or_object":"o","notes":null,"placename":"Toulouse, France","id":"8248","category":"1","lat":"43.604363","lon":"1.4429513","name":"origin","hops":{"incoming":[{"transport_id":null,"id":"5658","transport_name":null,"transport_description":null,"transport_unit":null,"transport_co2_eq":null,"from_stop_id":"8249","from_stop_lat":"52.4829614","from_stop_lon":"-1.893592","to_stop_id":"8248","to_stop_name":"origin","to_stop_lat":"43.604363","placename":"Birmingham, West Midlands, UK","to_stop_lon":"1.4429513","to_stop":{"id":"8248","name":"origin","lat":"43.604363","placename":"Toulouse, France","lon":"1.4429513"},"from_stop":{"name":"origin","id":"8249","lat":"52.4829614","lon":"-1.893592","placename":"Birmingham, West Midlands, UK"}},{"transport_id":null,"id":"5659","transport_name":null,"transport_description":null,"transport_unit":null,"transport_co2_eq":null,"from_stop_id":"8250","from_stop_lat":"52.1319884","from_stop_lon":"-0.9884152","to_stop_id":"8248","to_stop_name":"origin","to_stop_lat":"43.604363","placename":"Towcester, Northamptonshire NN12, UK","to_stop_lon":"1.4429513","to_stop":{"id":"8248","name":"origin","lat":"43.604363","placename":"Toulouse, France","lon":"1.4429513"},"from_stop":{"name":"origin","id":"8250","lat":"52.1319884","lon":"-0.9884152","placename":"Towcester, Northamptonshire NN12, UK"}},{"transport_id":null,"id":"5660","transport_name":null,"transport_description":null,"transport_unit":null,"transport_co2_eq":null,"from_stop_id":"8251","from_stop_lat":"52.2671353","from_stop_lon":"-1.4675216","to_stop_id":"8248","to_stop_name":"origin","to_stop_lat":"43.604363","placename":"Warwickshire, UK","to_stop_lon":"1.4429513","to_stop":{"id":"8248","name":"origin","lat":"43.604363","placename":"Toulouse, France","lon":"1.4429513"},"from_stop":{"name":"origin","id":"8251","lat":"52.2671353","lon":"-1.4675216","placename":"Warwickshire, UK"}},{"transport_id":null,"id":"5661","transport_name":null,"transport_description":null,"transport_unit":null,"transport_co2_eq":null,"from_stop_id":"8252","from_stop_lat":"52.8444299","from_stop_lon":"-1.3376897","to_stop_id":"8248","to_stop_name":"origin","to_stop_lat":"43.604363","placename":"Castle Donington, Derby, Leicestershire, UK","to_stop_lon":"1.4429513","to_stop":{"id":"8248","name":"origin","lat":"43.604363","placename":"Toulouse, France","lon":"1.4429513"},"from_stop":{"name":"origin","id":"8252","lat":"52.8444299","lon":"-1.3376897","placename":"Castle Donington, Derby, Leicestershire, UK"}},{"transport_id":null,"id":"5662","transport_name":null,"transport_description":null,"transport_unit":null,"transport_co2_eq":null,"from_stop_id":"8253","from_stop_lat":"52.9253838","from_stop_lon":"-1.2129732","to_stop_id":"8248","to_stop_name":"origin","to_stop_lat":"43.604363","placename":"Beeston, Nottingham, UK","to_stop_lon":"1.4429513","to_stop":{"id":"8248","name":"origin","lat":"43.604363","placename":"Toulouse, France","lon":"1.4429513"},"from_stop":{"name":"origin","id":"8253","lat":"52.9253838","lon":"-1.2129732","placename":"Beeston, Nottingham, UK"}},{"transport_id":null,"id":"5663","transport_name":null,"transport_description":null,"transport_unit":null,"transport_co2_eq":null,"from_stop_id":"8254","from_stop_lat":"52.3065851","from_stop_lon":"-1.9440406","to_stop_id":"8248","to_stop_name":"origin","to_stop_lat":"43.604363","placename":"Redditch, Hereford and Worcester, UK","to_stop_lon":"1.4429513","to_stop":{"id":"8248","name":"origin","lat":"43.604363","placename":"Toulouse, France","lon":"1.4429513"},"from_stop":{"name":"origin","id":"8254","lat":"52.3065851","lon":"-1.9440406","placename":"Redditch, Hereford and Worcester, UK"}},{"transport_id":null,"id":"5664","transport_name":null,"transport_description":null,"transport_unit":null,"transport_co2_eq":null,"from_stop_id":"8255","from_stop_lat":"52.498105","from_stop_lon":"-2.16574","to_stop_id":"8248","to_stop_name":"origin","to_stop_lat":"43.604363","placename":"Kingswinford, West Midlands, UK","to_stop_lon":"1.4429513","to_stop":{"id":"8248","name":"origin","lat":"43.604363","placename":"Toulouse, France","lon":"1.4429513"},"from_stop":{"name":"origin","id":"8255","lat":"52.498105","lon":"-2.16574","placename":"Kingswinford, West Midlands, UK"}},{"transport_id":null,"id":"5665","transport_name":null,"transport_description":null,"transport_unit":null,"transport_co2_eq":null,"from_stop_id":"8256","from_stop_lat":"52.4829614","from_stop_lon":"-1.893592","to_stop_id":"8248","to_stop_name":"origin","to_stop_lat":"43.604363","placename":"Birmingham, West Midlands, UK","to_stop_lon":"1.4429513","to_stop":{"id":"8248","name":"origin","lat":"43.604363","placename":"Toulouse, France","lon":"1.4429513"},"from_stop":{"name":"origin","id":"8256","lat":"52.4829614","lon":"-1.893592","placename":"Birmingham, West Midlands, UK"}},{"transport_id":null,"id":"5666","transport_name":null,"transport_description":null,"transport_unit":null,"transport_co2_eq":null,"from_stop_id":"8257","from_stop_lat":"52.5857278","from_stop_lon":"-2.1292507","to_stop_id":"8248","to_stop_name":"origin","to_stop_lat":"43.604363","placename":"Wolverhampton, UK","to_stop_lon":"1.4429513","to_stop":{"id":"8248","name":"origin","lat":"43.604363","placename":"Toulouse, France","lon":"1.4429513"},"from_stop":{"name":"origin","id":"8257","lat":"52.5857278","lon":"-2.1292507","placename":"Wolverhampton, UK"}},{"transport_id":null,"id":"5667","transport_name":null,"transport_description":null,"transport_unit":null,"transport_co2_eq":null,"from_stop_id":"8258","from_stop_lat":"52.454175","from_stop_lon":"-2.154065","to_stop_id":"8248","to_stop_name":"origin","to_stop_lat":"43.604363","placename":"Stourbridge, Dudley, UK","to_stop_lon":"1.4429513","to_stop":{"id":"8248","name":"origin","lat":"43.604363","placename":"Toulouse, France","lon":"1.4429513"},"from_stop":{"name":"origin","id":"8258","lat":"52.454175","lon":"-2.154065","placename":"Stourbridge, Dudley, UK"}},{"transport_id":null,"id":"5668","transport_name":null,"transport_description":null,"transport_unit":null,"transport_co2_eq":null,"from_stop_id":"8259","from_stop_lat":"52.8926864","from_stop_lon":"-1.1495467","to_stop_id":"8248","to_stop_name":"origin","to_stop_lat":"43.604363","placename":"Ruddington, Nottingham, UK","to_stop_lon":"1.4429513","to_stop":{"id":"8248","name":"origin","lat":"43.604363","placename":"Toulouse, France","lon":"1.4429513"},"from_stop":{"name":"origin","id":"8259","lat":"52.8926864","lon":"-1.1495467","placename":"Ruddington, Nottingham, UK"}},{"transport_id":null,"id":"5669","transport_name":null,"transport_description":null,"transport_unit":null,"transport_co2_eq":null,"from_stop_id":"8260","from_stop_lat":"53.0909011","from_stop_lon":"-1.3283896","to_stop_id":"8248","to_stop_name":"origin","to_stop_lat":"43.604363","placename":"Pinxton, Nottingham, Derbyshire, UK","to_stop_lon":"1.4429513","to_stop":{"id":"8248","name":"origin","lat":"43.604363","placename":"Toulouse, France","lon":"1.4429513"},"from_stop":{"name":"origin","id":"8260","lat":"53.0909011","lon":"-1.3283896","placename":"Pinxton, Nottingham, Derbyshire, UK"}},{"transport_id":null,"id":"5670","transport_name":null,"transport_description":null,"transport_unit":null,"transport_co2_eq":null,"from_stop_id":"8261","from_stop_lat":"52.1920347","from_stop_lon":"-2.223532","to_stop_id":"8248","to_stop_name":"origin","to_stop_lat":"43.604363","placename":"Worcester, Hereford and Worcester, UK","to_stop_lon":"1.4429513","to_stop":{"id":"8248","name":"origin","lat":"43.604363","placename":"Toulouse, France","lon":"1.4429513"},"from_stop":{"name":"origin","id":"8261","lat":"52.1920347","lon":"-2.223532","placename":"Worcester, Hereford and Worcester, UK"}},{"transport_id":null,"id":"5671","transport_name":null,"transport_description":null,"transport_unit":null,"transport_co2_eq":null,"from_stop_id":"8262","from_stop_lat":"53.0265029","from_stop_lon":"-2.176636","to_stop_id":"8248","to_stop_name":"origin","to_stop_lat":"43.604363","placename":"Stoke-on-Trent, UK","to_stop_lon":"1.4429513","to_stop":{"id":"8248","name":"origin","lat":"43.604363","placename":"Toulouse, France","lon":"1.4429513"},"from_stop":{"name":"origin","id":"8262","lat":"53.0265029","lon":"-2.176636","placename":"Stoke-on-Trent, UK"}},{"transport_id":null,"id":"5672","transport_name":null,"transport_description":null,"transport_unit":null,"transport_co2_eq":null,"from_stop_id":"8263","from_stop_lat":"53.234863","from_stop_lon":"-0.538436","to_stop_id":"8248","to_stop_name":"origin","to_stop_lat":"43.604363","placename":"Lincoln, Lincolnshire, UK","to_stop_lon":"1.4429513","to_stop":{"id":"8248","name":"origin","lat":"43.604363","placename":"Toulouse, France","lon":"1.4429513"},"from_stop":{"name":"origin","id":"8263","lat":"53.234863","lon":"-0.538436","placename":"Lincoln, Lincolnshire, UK"}},{"transport_id":null,"id":"5673","transport_name":null,"transport_description":null,"transport_unit":null,"transport_co2_eq":null,"from_stop_id":"8264","from_stop_lat":"52.4058375","from_stop_lon":"-1.512661","to_stop_id":"8248","to_stop_name":"origin","to_stop_lat":"43.604363","placename":"Coventry, UK","to_stop_lon":"1.4429513","to_stop":{"id":"8248","name":"origin","lat":"43.604363","placename":"Toulouse, France","lon":"1.4429513"},"from_stop":{"name":"origin","id":"8264","lat":"52.4058375","lon":"-1.512661","placename":"Coventry, UK"}},{"transport_id":null,"id":"5674","transport_name":null,"transport_description":null,"transport_unit":null,"transport_co2_eq":null,"from_stop_id":"8265","from_stop_lat":"52.6835558","from_stop_lon":"-1.8223586","to_stop_id":"8248","to_stop_name":"origin","to_stop_lat":"43.604363","placename":"Lichfield, Staffordshire, UK","to_stop_lon":"1.4429513","to_stop":{"id":"8248","name":"origin","lat":"43.604363","placename":"Toulouse, France","lon":"1.4429513"},"from_stop":{"name":"origin","id":"8265","lat":"52.6835558","lon":"-1.8223586","placename":"Lichfield, Staffordshire, UK"}},{"transport_id":null,"id":"5675","transport_name":null,"transport_description":null,"transport_unit":null,"transport_co2_eq":null,"from_stop_id":"8266","from_stop_lat":"53.5538148","from_stop_lon":"9.9915752","to_stop_id":"8248","to_stop_name":"origin","to_stop_lat":"43.604363","placename":"Hamburg, Germany","to_stop_lon":"1.4429513","to_stop":{"id":"8248","name":"origin","lat":"43.604363","placename":"Toulouse, France","lon":"1.4429513"},"from_stop":{"name":"origin","id":"8266","lat":"53.5538148","lon":"9.9915752","placename":"Hamburg, Germany"}},{"transport_id":null,"id":"5676","transport_name":null,"transport_description":null,"transport_unit":null,"transport_co2_eq":null,"from_stop_id":"8267","from_stop_lat":"40.463667","from_stop_lon":"-3.74922","to_stop_id":"8248","to_stop_name":"origin","to_stop_lat":"43.604363","placename":"Spain","to_stop_lon":"1.4429513","to_stop":{"id":"8248","name":"origin","lat":"43.604363","placename":"Toulouse, France","lon":"1.4429513"},"from_stop":{"name":"origin","id":"8267","lat":"40.463667","lon":"-3.74922","placename":"Spain"}},{"transport_id":null,"id":"5677","transport_name":null,"transport_description":null,"transport_unit":null,"transport_co2_eq":null,"from_stop_id":"8268","from_stop_lat":"46.227638","from_stop_lon":"2.213749","to_stop_id":"8248","to_stop_name":"origin","to_stop_lat":"43.604363","placename":"France","to_stop_lon":"1.4429513","to_stop":{"id":"8248","name":"origin","lat":"43.604363","placename":"Toulouse, France","lon":"1.4429513"},"from_stop":{"name":"origin","id":"8268","lat":"46.227638","lon":"2.213749","placename":"France"}},{"transport_id":null,"id":"5678","transport_name":null,"transport_description":null,"transport_unit":null,"transport_co2_eq":null,"from_stop_id":"8269","from_stop_lat":"51.165691","from_stop_lon":"10.451526","to_stop_id":"8248","to_stop_name":"origin","to_stop_lat":"43.604363","placename":"Germany","to_stop_lon":"1.4429513","to_stop":{"id":"8248","name":"origin","lat":"43.604363","placename":"Toulouse, France","lon":"1.4429513"},"from_stop":{"name":"origin","id":"8269","lat":"51.165691","lon":"10.451526","placename":"Germany"}}],"outgoing":[]}}},"parts":[{"oid":"148","imid":"5056","linkid":"0","weight":"0","rawemissions":"0","emissions":"0","shipping":"1048.86","processemissions":"0","endoflifeemissions":"0","disposaltype":null,"disposalenergy":null,"disposalimpact":null,"disposalemissions":null,"description":"","name":"Part","id":"5056","stops":{"origin":{"related_to":"5056","part_or_object":"p","notes":null,"placename":"Castle Donington, Derby, Leicestershire, UK","id":8252,"name":"origin","lat":"52.8444299","lon":"-1.3376897","hops":{"incoming":[],"outgoing":[{"transport_id":null,"id":"5661","transport_name":null,"transport_description":null,"transport_unit":null,"transport_co2_eq":null,"from_stop_id":"8252","from_stop_lat":"52.8444299","from_stop_lon":"-1.3376897","from_stop_placename":"Castle Donington, Derby, Leicestershire, UK","to_stop_id":"8248","to_stop_name":"origin","to_stop_lat":"43.604363","to_stop_lon":"1.4429513","to_stop_placename":"Toulouse, France","to_stop":{"id":"8248","name":"origin","lat":"43.604363","lon":"1.4429513","placename":"Toulouse, France"},"from_stop":{"name":"origin","id":"8252","lat":"52.8444299","lon":"-1.3376897","placename":"Castle Donington, Derby, Leicestershire, UK"}}]}}},"processes":[],"eols":[]},{"oid":"148","imid":"5057","linkid":"0","weight":"0","rawemissions":"0","emissions":"0","shipping":"1055.92","processemissions":"0","endoflifeemissions":"0","disposaltype":null,"disposalenergy":null,"disposalimpact":null,"disposalemissions":null,"description":"","name":"Part","id":"5057","stops":{"origin":{"related_to":"5057","part_or_object":"p","notes":null,"placename":"Beeston, Nottingham, UK","id":8253,"name":"origin","lat":"52.9253838","lon":"-1.2129732","hops":{"incoming":[],"outgoing":[{"transport_id":null,"id":"5662","transport_name":null,"transport_description":null,"transport_unit":null,"transport_co2_eq":null,"from_stop_id":"8253","from_stop_lat":"52.9253838","from_stop_lon":"-1.2129732","from_stop_placename":"Beeston, Nottingham, UK","to_stop_id":"8248","to_stop_name":"origin","to_stop_lat":"43.604363","to_stop_lon":"1.4429513","to_stop_placename":"Toulouse, France","to_stop":{"id":"8248","name":"origin","lat":"43.604363","lon":"1.4429513","placename":"Toulouse, France"},"from_stop":{"name":"origin","id":"8253","lat":"52.9253838","lon":"-1.2129732","placename":"Beeston, Nottingham, UK"}}]}}},"processes":[],"eols":[]},{"oid":"148","imid":"5058","linkid":"0","weight":"0","rawemissions":"0","emissions":"0","shipping":"1000.8","processemissions":"0","endoflifeemissions":"0","disposaltype":null,"disposalenergy":null,"disposalimpact":null,"disposalemissions":null,"description":"","name":"Part","id":"5058","stops":{"origin":{"related_to":"5058","part_or_object":"p","notes":null,"placename":"Redditch, Hereford and Worcester, UK","id":8254,"name":"origin","lat":"52.3065851","lon":"-1.9440406","hops":{"incoming":[],"outgoing":[{"transport_id":null,"id":"5663","transport_name":null,"transport_description":null,"transport_unit":null,"transport_co2_eq":null,"from_stop_id":"8254","from_stop_lat":"52.3065851","from_stop_lon":"-1.9440406","from_stop_placename":"Redditch, Hereford and Worcester, UK","to_stop_id":"8248","to_stop_name":"origin","to_stop_lat":"43.604363","to_stop_lon":"1.4429513","to_stop_placename":"Toulouse, France","to_stop":{"id":"8248","name":"origin","lat":"43.604363","lon":"1.4429513","placename":"Toulouse, France"},"from_stop":{"name":"origin","id":"8254","lat":"52.3065851","lon":"-1.9440406","placename":"Redditch, Hereford and Worcester, UK"}}]}}},"processes":[],"eols":[]},{"oid":"148","imid":"5059","linkid":"0","weight":"0","rawemissions":"0","emissions":"0","shipping":"1025.48","processemissions":"0","endoflifeemissions":"0","disposaltype":null,"disposalenergy":null,"disposalimpact":null,"disposalemissions":null,"description":"","name":"Part","id":"5059","stops":{"origin":{"related_to":"5059","part_or_object":"p","notes":null,"placename":"Kingswinford, West Midlands, UK","id":8255,"name":"origin","lat":"52.498105","lon":"-2.16574","hops":{"incoming":[],"outgoing":[{"transport_id":null,"id":"5664","transport_name":null,"transport_description":null,"transport_unit":null,"transport_co2_eq":null,"from_stop_id":"8255","from_stop_lat":"52.498105","from_stop_lon":"-2.16574","from_stop_placename":"Kingswinford, West Midlands, UK","to_stop_id":"8248","to_stop_name":"origin","to_stop_lat":"43.604363","to_stop_lon":"1.4429513","to_stop_placename":"Toulouse, France","to_stop":{"id":"8248","name":"origin","lat":"43.604363","lon":"1.4429513","placename":"Toulouse, France"},"from_stop":{"name":"origin","id":"8255","lat":"52.498105","lon":"-2.16574","placename":"Kingswinford, West Midlands, UK"}}]}}},"processes":[],"eols":[]},{"oid":"148","imid":"5060","linkid":"0","weight":"0","rawemissions":"0","emissions":"0","shipping":"1018.79","processemissions":"0","endoflifeemissions":"0","disposaltype":null,"disposalenergy":null,"disposalimpact":null,"disposalemissions":null,"description":"","name":"Part","id":"5060","stops":{"origin":{"related_to":"5060","part_or_object":"p","notes":null,"placename":"Birmingham, West Midlands, UK","id":8256,"name":"origin","lat":"52.4829614","lon":"-1.893592","hops":{"incoming":[],"outgoing":[{"transport_id":null,"id":"5665","transport_name":null,"transport_description":null,"transport_unit":null,"transport_co2_eq":null,"from_stop_id":"8256","from_stop_lat":"52.4829614","from_stop_lon":"-1.893592","from_stop_placename":"Birmingham, West Midlands, UK","to_stop_id":"8248","to_stop_name":"origin","to_stop_lat":"43.604363","to_stop_lon":"1.4429513","to_stop_placename":"Toulouse, France","to_stop":{"id":"8248","name":"origin","lat":"43.604363","lon":"1.4429513","placename":"Toulouse, France"},"from_stop":{"name":"origin","id":"8256","lat":"52.4829614","lon":"-1.893592","placename":"Birmingham, West Midlands, UK"}}]}}},"processes":[],"eols":[]},{"oid":"148","imid":"5061","linkid":"0","weight":"0","rawemissions":"0","emissions":"0","shipping":"1034.14","processemissions":"0","endoflifeemissions":"0","disposaltype":null,"disposalenergy":null,"disposalimpact":null,"disposalemissions":null,"description":"","name":"Part","id":"5061","stops":{"origin":{"related_to":"5061","part_or_object":"p","notes":null,"placename":"Wolverhampton, UK","id":8257,"name":"origin","lat":"52.5857278","lon":"-2.1292507","hops":{"incoming":[],"outgoing":[{"transport_id":null,"id":"5666","transport_name":null,"transport_description":null,"transport_unit":null,"transport_co2_eq":null,"from_stop_id":"8257","from_stop_lat":"52.5857278","from_stop_lon":"-2.1292507","from_stop_placename":"Wolverhampton, UK","to_stop_id":"8248","to_stop_name":"origin","to_stop_lat":"43.604363","to_stop_lon":"1.4429513","to_stop_placename":"Toulouse, France","to_stop":{"id":"8248","name":"origin","lat":"43.604363","lon":"1.4429513","placename":"Toulouse, France"},"from_stop":{"name":"origin","id":"8257","lat":"52.5857278","lon":"-2.1292507","placename":"Wolverhampton, UK"}}]}}},"processes":[],"eols":[]},{"oid":"148","imid":"5062","linkid":"0","weight":"0","rawemissions":"0","emissions":"0","shipping":"1020.57","processemissions":"0","endoflifeemissions":"0","disposaltype":null,"disposalenergy":null,"disposalimpact":null,"disposalemissions":null,"description":"","name":"Part","id":"5062","stops":{"origin":{"related_to":"5062","part_or_object":"p","notes":null,"placename":"Stourbridge, Dudley, UK","id":8258,"name":"origin","lat":"52.454175","lon":"-2.154065","hops":{"incoming":[],"outgoing":[{"transport_id":null,"id":"5667","transport_name":null,"transport_description":null,"transport_unit":null,"transport_co2_eq":null,"from_stop_id":"8258","from_stop_lat":"52.454175","from_stop_lon":"-2.154065","from_stop_placename":"Stourbridge, Dudley, UK","to_stop_id":"8248","to_stop_name":"origin","to_stop_lat":"43.604363","to_stop_lon":"1.4429513","to_stop_placename":"Toulouse, France","to_stop":{"id":"8248","name":"origin","lat":"43.604363","lon":"1.4429513","placename":"Toulouse, France"},"from_stop":{"name":"origin","id":"8258","lat":"52.454175","lon":"-2.154065","placename":"Stourbridge, Dudley, UK"}}]}}},"processes":[],"eols":[]},{"oid":"148","imid":"5063","linkid":"0","weight":"0","rawemissions":"0","emissions":"0","shipping":"1051.49","processemissions":"0","endoflifeemissions":"0","disposaltype":null,"disposalenergy":null,"disposalimpact":null,"disposalemissions":null,"description":"","name":"Part","id":"5063","stops":{"origin":{"related_to":"5063","part_or_object":"p","notes":null,"placename":"Ruddington, Nottingham, UK","id":8259,"name":"origin","lat":"52.8926864","lon":"-1.1495467","hops":{"incoming":[],"outgoing":[{"transport_id":null,"id":"5668","transport_name":null,"transport_description":null,"transport_unit":null,"transport_co2_eq":null,"from_stop_id":"8259","from_stop_lat":"52.8926864","from_stop_lon":"-1.1495467","from_stop_placename":"Ruddington, Nottingham, UK","to_stop_id":"8248","to_stop_name":"origin","to_stop_lat":"43.604363","to_stop_lon":"1.4429513","to_stop_placename":"Toulouse, France","to_stop":{"id":"8248","name":"origin","lat":"43.604363","lon":"1.4429513","placename":"Toulouse, France"},"from_stop":{"name":"origin","id":"8259","lat":"52.8926864","lon":"-1.1495467","placename":"Ruddington, Nottingham, UK"}}]}}},"processes":[],"eols":[]},{"oid":"148","imid":"5064","linkid":"0","weight":"0","rawemissions":"0","emissions":"0","shipping":"1075.54","processemissions":"0","endoflifeemissions":"0","disposaltype":null,"disposalenergy":null,"disposalimpact":null,"disposalemissions":null,"description":"","name":"Part","id":"5064","stops":{"origin":{"related_to":"5064","part_or_object":"p","notes":null,"placename":"Pinxton, Nottingham, Derbyshire, UK","id":8260,"name":"origin","lat":"53.0909011","lon":"-1.3283896","hops":{"incoming":[],"outgoing":[{"transport_id":null,"id":"5669","transport_name":null,"transport_description":null,"transport_unit":null,"transport_co2_eq":null,"from_stop_id":"8260","from_stop_lat":"53.0909011","from_stop_lon":"-1.3283896","from_stop_placename":"Pinxton, Nottingham, Derbyshire, UK","to_stop_id":"8248","to_stop_name":"origin","to_stop_lat":"43.604363","to_stop_lon":"1.4429513","to_stop_placename":"Toulouse, France","to_stop":{"id":"8248","name":"origin","lat":"43.604363","lon":"1.4429513","placename":"Toulouse, France"},"from_stop":{"name":"origin","id":"8260","lat":"53.0909011","lon":"-1.3283896","placename":"Pinxton, Nottingham, Derbyshire, UK"}}]}}},"processes":[],"eols":[]},{"oid":"148","imid":"5065","linkid":"0","weight":"0","rawemissions":"0","emissions":"0","shipping":"994.03","processemissions":"0","endoflifeemissions":"0","disposaltype":null,"disposalenergy":null,"disposalimpact":null,"disposalemissions":null,"description":"","name":"Part","id":"5065","stops":{"origin":{"related_to":"5065","part_or_object":"p","notes":null,"placename":"Worcester, Hereford and Worcester, UK","id":8261,"name":"origin","lat":"52.1920347","lon":"-2.223532","hops":{"incoming":[],"outgoing":[{"transport_id":null,"id":"5670","transport_name":null,"transport_description":null,"transport_unit":null,"transport_co2_eq":null,"from_stop_id":"8261","from_stop_lat":"52.1920347","from_stop_lon":"-2.223532","from_stop_placename":"Worcester, Hereford and Worcester, UK","to_stop_id":"8248","to_stop_name":"origin","to_stop_lat":"43.604363","to_stop_lon":"1.4429513","to_stop_placename":"Toulouse, France","to_stop":{"id":"8248","name":"origin","lat":"43.604363","lon":"1.4429513","placename":"Toulouse, France"},"from_stop":{"name":"origin","id":"8261","lat":"52.1920347","lon":"-2.223532","placename":"Worcester, Hereford and Worcester, UK"}}]}}},"processes":[],"eols":[]},{"oid":"148","imid":"5066","linkid":"0","weight":"0","rawemissions":"0","emissions":"0","shipping":"1082.19","processemissions":"0","endoflifeemissions":"0","disposaltype":null,"disposalenergy":null,"disposalimpact":null,"disposalemissions":null,"description":"","name":"Part","id":"5066","stops":{"origin":{"related_to":"5066","part_or_object":"p","notes":null,"placename":"Stoke-on-Trent, UK","id":8262,"name":"origin","lat":"53.0265029","lon":"-2.176636","hops":{"incoming":[],"outgoing":[{"transport_id":null,"id":"5671","transport_name":null,"transport_description":null,"transport_unit":null,"transport_co2_eq":null,"from_stop_id":"8262","from_stop_lat":"53.0265029","from_stop_lon":"-2.176636","from_stop_placename":"Stoke-on-Trent, UK","to_stop_id":"8248","to_stop_name":"origin","to_stop_lat":"43.604363","to_stop_lon":"1.4429513","to_stop_placename":"Toulouse, France","to_stop":{"id":"8248","name":"origin","lat":"43.604363","lon":"1.4429513","placename":"Toulouse, France"},"from_stop":{"name":"origin","id":"8262","lat":"53.0265029","lon":"-2.176636","placename":"Stoke-on-Trent, UK"}}]}}},"processes":[],"eols":[]},{"oid":"148","imid":"5067","linkid":"0","weight":"0","rawemissions":"0","emissions":"0","shipping":"1081.9","processemissions":"0","endoflifeemissions":"0","disposaltype":null,"disposalenergy":null,"disposalimpact":null,"disposalemissions":null,"description":"","name":"Part","id":"5067","stops":{"origin":{"related_to":"5067","part_or_object":"p","notes":null,"placename":"Lincoln, Lincolnshire, UK","id":8263,"name":"origin","lat":"53.234863","lon":"-0.538436","hops":{"incoming":[],"outgoing":[{"transport_id":null,"id":"5672","transport_name":null,"transport_description":null,"transport_unit":null,"transport_co2_eq":null,"from_stop_id":"8263","from_stop_lat":"53.234863","from_stop_lon":"-0.538436","from_stop_placename":"Lincoln, Lincolnshire, UK","to_stop_id":"8248","to_stop_name":"origin","to_stop_lat":"43.604363","to_stop_lon":"1.4429513","to_stop_placename":"Toulouse, France","to_stop":{"id":"8248","name":"origin","lat":"43.604363","lon":"1.4429513","placename":"Toulouse, France"},"from_stop":{"name":"origin","id":"8263","lat":"53.234863","lon":"-0.538436","placename":"Lincoln, Lincolnshire, UK"}}]}}},"processes":[],"eols":[]},{"oid":"148","imid":"5068","linkid":"0","weight":"0","rawemissions":"0","emissions":"0","shipping":"1003.97","processemissions":"0","endoflifeemissions":"0","disposaltype":null,"disposalenergy":null,"disposalimpact":null,"disposalemissions":null,"description":"","name":"Part","id":"5068","stops":{"origin":{"related_to":"5068","part_or_object":"p","notes":null,"placename":"Coventry, UK","id":8264,"name":"origin","lat":"52.4058375","lon":"-1.512661","hops":{"incoming":[],"outgoing":[{"transport_id":null,"id":"5673","transport_name":null,"transport_description":null,"transport_unit":null,"transport_co2_eq":null,"from_stop_id":"8264","from_stop_lat":"52.4058375","from_stop_lon":"-1.512661","from_stop_placename":"Coventry, UK","to_stop_id":"8248","to_stop_name":"origin","to_stop_lat":"43.604363","to_stop_lon":"1.4429513","to_stop_placename":"Toulouse, France","to_stop":{"id":"8248","name":"origin","lat":"43.604363","lon":"1.4429513","placename":"Toulouse, France"},"from_stop":{"name":"origin","id":"8264","lat":"52.4058375","lon":"-1.512661","placename":"Coventry, UK"}}]}}},"processes":[],"eols":[]},{"oid":"148","imid":"5069","linkid":"0","weight":"0","rawemissions":"0","emissions":"0","shipping":"1039.1","processemissions":"0","endoflifeemissions":"0","disposaltype":null,"disposalenergy":null,"disposalimpact":null,"disposalemissions":null,"description":"","name":"Part","id":"5069","stops":{"origin":{"related_to":"5069","part_or_object":"p","notes":null,"placename":"Lichfield, Staffordshire, UK","id":8265,"name":"origin","lat":"52.6835558","lon":"-1.8223586","hops":{"incoming":[],"outgoing":[{"transport_id":null,"id":"5674","transport_name":null,"transport_description":null,"transport_unit":null,"transport_co2_eq":null,"from_stop_id":"8265","from_stop_lat":"52.6835558","from_stop_lon":"-1.8223586","from_stop_placename":"Lichfield, Staffordshire, UK","to_stop_id":"8248","to_stop_name":"origin","to_stop_lat":"43.604363","to_stop_lon":"1.4429513","to_stop_placename":"Toulouse, France","to_stop":{"id":"8248","name":"origin","lat":"43.604363","lon":"1.4429513","placename":"Toulouse, France"},"from_stop":{"name":"origin","id":"8265","lat":"52.6835558","lon":"-1.8223586","placename":"Lichfield, Staffordshire, UK"}}]}}},"processes":[],"eols":[]},{"oid":"148","imid":"5070","linkid":"0","weight":"0","rawemissions":"0","emissions":"0","shipping":"1271.94","processemissions":"0","endoflifeemissions":"0","disposaltype":null,"disposalenergy":null,"disposalimpact":null,"disposalemissions":null,"description":"","name":"Part","id":"5070","stops":{"origin":{"related_to":"5070","part_or_object":"p","notes":null,"placename":"Hamburg, Germany","id":8266,"name":"origin","lat":"53.5538148","lon":"9.9915752","hops":{"incoming":[],"outgoing":[{"transport_id":null,"id":"5675","transport_name":null,"transport_description":null,"transport_unit":null,"transport_co2_eq":null,"from_stop_id":"8266","from_stop_lat":"53.5538148","from_stop_lon":"9.9915752","from_stop_placename":"Hamburg, Germany","to_stop_id":"8248","to_stop_name":"origin","to_stop_lat":"43.604363","to_stop_lon":"1.4429513","to_stop_placename":"Toulouse, France","to_stop":{"id":"8248","name":"origin","lat":"43.604363","lon":"1.4429513","placename":"Toulouse, France"},"from_stop":{"name":"origin","id":"8266","lat":"53.5538148","lon":"9.9915752","placename":"Hamburg, Germany"}}]}}},"processes":[],"eols":[]},{"oid":"148","imid":"5071","linkid":"0","weight":"0","rawemissions":"0","emissions":"0","shipping":"553.46","processemissions":"0","endoflifeemissions":"0","disposaltype":null,"disposalenergy":null,"disposalimpact":null,"disposalemissions":null,"description":"","name":"Part","id":"5071","stops":{"origin":{"related_to":"5071","part_or_object":"p","notes":null,"placename":"Spain","id":8267,"name":"origin","lat":"40.463667","lon":"-3.74922","hops":{"incoming":[],"outgoing":[{"transport_id":null,"id":"5676","transport_name":null,"transport_description":null,"transport_unit":null,"transport_co2_eq":null,"from_stop_id":"8267","from_stop_lat":"40.463667","from_stop_lon":"-3.74922","from_stop_placename":"Spain","to_stop_id":"8248","to_stop_name":"origin","to_stop_lat":"43.604363","to_stop_lon":"1.4429513","to_stop_placename":"Toulouse, France","to_stop":{"id":"8248","name":"origin","lat":"43.604363","lon":"1.4429513","placename":"Toulouse, France"},"from_stop":{"name":"origin","id":"8267","lat":"40.463667","lon":"-3.74922","placename":"Spain"}}]}}},"processes":[],"eols":[]},{"oid":"148","imid":"5072","linkid":"0","weight":"0","rawemissions":"0","emissions":"0","shipping":"298.27","processemissions":"0","endoflifeemissions":"0","disposaltype":null,"disposalenergy":null,"disposalimpact":null,"disposalemissions":null,"description":"","name":"Part","id":"5072","stops":{"origin":{"related_to":"5072","part_or_object":"p","notes":null,"placename":"France","id":8268,"name":"origin","lat":"46.227638","lon":"2.213749","hops":{"incoming":[],"outgoing":[{"transport_id":null,"id":"5677","transport_name":null,"transport_description":null,"transport_unit":null,"transport_co2_eq":null,"from_stop_id":"8268","from_stop_lat":"46.227638","from_stop_lon":"2.213749","from_stop_placename":"France","to_stop_id":"8248","to_stop_name":"origin","to_stop_lat":"43.604363","to_stop_lon":"1.4429513","to_stop_placename":"Toulouse, France","to_stop":{"id":"8248","name":"origin","lat":"43.604363","lon":"1.4429513","placename":"Toulouse, France"},"from_stop":{"name":"origin","id":"8268","lat":"46.227638","lon":"2.213749","placename":"France"}}]}}},"processes":[],"eols":[]},{"oid":"148","imid":"5073","linkid":"0","weight":"0","rawemissions":"0","emissions":"0","shipping":"1079.8","processemissions":"0","endoflifeemissions":"0","disposaltype":null,"disposalenergy":null,"disposalimpact":null,"disposalemissions":null,"description":"","name":"Part","id":"5073","stops":{"origin":{"related_to":"5073","part_or_object":"p","notes":null,"placename":"Germany","id":8269,"name":"origin","lat":"51.165691","lon":"10.451526","hops":{"incoming":[],"outgoing":[{"transport_id":null,"id":"5678","transport_name":null,"transport_description":null,"transport_unit":null,"transport_co2_eq":null,"from_stop_id":"8269","from_stop_lat":"51.165691","from_stop_lon":"10.451526","from_stop_placename":"Germany","to_stop_id":"8248","to_stop_name":"origin","to_stop_lat":"43.604363","to_stop_lon":"1.4429513","to_stop_placename":"Toulouse, France","to_stop":{"id":"8248","name":"origin","lat":"43.604363","lon":"1.4429513","placename":"Toulouse, France"},"from_stop":{"name":"origin","id":"8269","lat":"51.165691","lon":"10.451526","placename":"Germany"}}]}}},"processes":[],"eols":[]},{"oid":"148","imid":"5036","linkid":"0","weight":"0","rawemissions":"0","emissions":"0","shipping":"1018.79","processemissions":"0","endoflifeemissions":"0","disposaltype":null,"disposalenergy":null,"disposalimpact":null,"disposalemissions":null,"description":"","name":"Part","id":"5036","stops":{"origin":{"related_to":"5036","part_or_object":"p","notes":null,"placename":"Birmingham, West Midlands, UK","id":8249,"name":"origin","lat":"52.4829614","lon":"-1.893592","hops":{"incoming":[],"outgoing":[{"transport_id":null,"id":"5658","transport_name":null,"transport_description":null,"transport_unit":null,"transport_co2_eq":null,"from_stop_id":"8249","from_stop_lat":"52.4829614","from_stop_lon":"-1.893592","from_stop_placename":"Birmingham, West Midlands, UK","to_stop_id":"8248","to_stop_name":"origin","to_stop_lat":"43.604363","to_stop_lon":"1.4429513","to_stop_placename":"Toulouse, France","to_stop":{"id":"8248","name":"origin","lat":"43.604363","lon":"1.4429513","placename":"Toulouse, France"},"from_stop":{"name":"origin","id":"8249","lat":"52.4829614","lon":"-1.893592","placename":"Birmingham, West Midlands, UK"}}]}}},"processes":[],"eols":[]},{"oid":"148","imid":"5037","linkid":"0","weight":"0","rawemissions":"0","emissions":"0","shipping":"966.35","processemissions":"0","endoflifeemissions":"0","disposaltype":null,"disposalenergy":null,"disposalimpact":null,"disposalemissions":null,"description":"","name":"Part","id":"5037","stops":{"origin":{"related_to":"5037","part_or_object":"p","notes":null,"placename":"Towcester, Northamptonshire NN12, UK","id":8250,"name":"origin","lat":"52.1319884","lon":"-0.9884152","hops":{"incoming":[],"outgoing":[{"transport_id":null,"id":"5659","transport_name":null,"transport_description":null,"transport_unit":null,"transport_co2_eq":null,"from_stop_id":"8250","from_stop_lat":"52.1319884","from_stop_lon":"-0.9884152","from_stop_placename":"Towcester, Northamptonshire NN12, UK","to_stop_id":"8248","to_stop_name":"origin","to_stop_lat":"43.604363","to_stop_lon":"1.4429513","to_stop_placename":"Toulouse, France","to_stop":{"id":"8248","name":"origin","lat":"43.604363","lon":"1.4429513","placename":"Toulouse, France"},"from_stop":{"name":"origin","id":"8250","lat":"52.1319884","lon":"-0.9884152","placename":"Towcester, Northamptonshire NN12, UK"}}]}}},"processes":[],"eols":[]},{"oid":"148","imid":"5038","linkid":"0","weight":"0","rawemissions":"0","emissions":"0","shipping":"988.25","processemissions":"0","endoflifeemissions":"0","disposaltype":null,"disposalenergy":null,"disposalimpact":null,"disposalemissions":null,"description":"","name":"Part","id":"5038","stops":{"origin":{"related_to":"5038","part_or_object":"p","notes":null,"placename":"Warwickshire, UK","id":8251,"name":"origin","lat":"52.2671353","lon":"-1.4675216","hops":{"incoming":[],"outgoing":[{"transport_id":null,"id":"5660","transport_name":null,"transport_description":null,"transport_unit":null,"transport_co2_eq":null,"from_stop_id":"8251","from_stop_lat":"52.2671353","from_stop_lon":"-1.4675216","from_stop_placename":"Warwickshire, UK","to_stop_id":"8248","to_stop_name":"origin","to_stop_lat":"43.604363","to_stop_lon":"1.4429513","to_stop_placename":"Toulouse, France","to_stop":{"id":"8248","name":"origin","lat":"43.604363","lon":"1.4429513","placename":"Toulouse, France"},"from_stop":{"name":"origin","id":"8251","lat":"52.2671353","lon":"-1.4675216","placename":"Warwickshire, UK"}}]}}},"processes":[],"eols":[]}],"user":{"name":"leo","id":"1"}}}