{"1485":{"oid":"1485","type":"trace","flag":"","creator":"13587","name":"Melissa and Tucker's Wedding","upc":"","imagelink":"","description":"","slug":"Melissa-and-Tucker-s-Wedding","category":"","weight":"0","emissions":"0","embodied":"0","transport":"0","process":null,"endoflife":null,"shipping":"2224.68","lifetime":null,"usagetype":"","usageenergy":null,"usageemissions":null,"timecreated":"2011-08-04 13:06:27","timemodified":"2011-08-05 10:13:55","visibility":"public","showfootprint":"on","showembodied":"on","showtransport":"on","showprocess":"on","showendoflife":"on","showlastleg":"on","showuse":"on","showstats":"on","stops":{"origin":{"related_to":"1485","part_or_object":"o","notes":null,"placename":"Cambridge, MA, USA","id":"17513","category":"1","lat":"42.3726399","lon":"-71.1096528","name":"origin","hops":{"incoming":[{"transport_id":null,"id":"12588","transport_name":null,"transport_description":null,"transport_unit":null,"transport_co2_eq":null,"from_stop_id":"17514","from_stop_lat":"42.3478601","from_stop_lon":"-71.0360174","to_stop_id":"17513","to_stop_name":"origin","to_stop_lat":"42.3726399","placename":"300 Northern Ave, Boston, MA 02210, USA","to_stop_lon":"-71.1096528","to_stop":{"id":"17513","name":"origin","lat":"42.3726399","placename":"Cambridge, MA, USA","lon":"-71.1096528"},"from_stop":{"name":"origin","id":"17514","lat":"42.3478601","lon":"-71.0360174","placename":"300 Northern Ave, Boston, MA 02210, USA"}},{"transport_id":null,"id":"12589","transport_name":null,"transport_description":null,"transport_unit":null,"transport_co2_eq":null,"from_stop_id":"17515","from_stop_lat":"41.6246889","from_stop_lon":"-70.91643","to_stop_id":"17513","to_stop_name":"origin","to_stop_lat":"42.3726399","placename":"11 Hassey St, New Bedford, MA 02740, USA","to_stop_lon":"-71.1096528","to_stop":{"id":"17513","name":"origin","lat":"42.3726399","placename":"Cambridge, MA, USA","lon":"-71.1096528"},"from_stop":{"name":"origin","id":"17515","lat":"41.6246889","lon":"-70.91643","placename":"11 Hassey St, New Bedford, MA 02740, USA"}},{"transport_id":null,"id":"12590","transport_name":null,"transport_description":null,"transport_unit":null,"transport_co2_eq":null,"from_stop_id":"17516","from_stop_lat":"42.37352","from_stop_lon":"-71.0983761","to_stop_id":"17513","to_stop_name":"origin","to_stop_lat":"42.3726399","placename":"1255 Cambridge St, Cambridge, MA 02139, USA","to_stop_lon":"-71.1096528","to_stop":{"id":"17513","name":"origin","lat":"42.3726399","placename":"Cambridge, MA, USA","lon":"-71.1096528"},"from_stop":{"name":"origin","id":"17516","lat":"42.37352","lon":"-71.0983761","placename":"1255 Cambridge St, Cambridge, MA 02139, USA"}},{"transport_id":null,"id":"12591","transport_name":null,"transport_description":null,"transport_unit":null,"transport_co2_eq":null,"from_stop_id":"17517","from_stop_lat":"41.5277302","from_stop_lon":"-70.9979514","to_stop_id":"17513","to_stop_name":"origin","to_stop_lat":"42.3726399","placename":"105 Jordan Rd, Dartmouth, MA 02748, USA","to_stop_lon":"-71.1096528","to_stop":{"id":"17513","name":"origin","lat":"42.3726399","placename":"Cambridge, MA, USA","lon":"-71.1096528"},"from_stop":{"name":"origin","id":"17517","lat":"41.5277302","lon":"-70.9979514","placename":"105 Jordan Rd, Dartmouth, MA 02748, USA"}},{"transport_id":null,"id":"12592","transport_name":null,"transport_description":null,"transport_unit":null,"transport_co2_eq":null,"from_stop_id":"17518","from_stop_lat":"42.2424685","from_stop_lon":"-72.1261548","to_stop_id":"17513","to_stop_name":"origin","to_stop_lat":"42.3726399","placename":"138 N Main St, West Brookfield, MA 01585, USA","to_stop_lon":"-71.1096528","to_stop":{"id":"17513","name":"origin","lat":"42.3726399","placename":"Cambridge, MA, USA","lon":"-71.1096528"},"from_stop":{"name":"origin","id":"17518","lat":"42.2424685","lon":"-72.1261548","placename":"138 N Main St, West Brookfield, MA 01585, USA"}},{"transport_id":null,"id":"12593","transport_name":null,"transport_description":null,"transport_unit":null,"transport_co2_eq":null,"from_stop_id":"17519","from_stop_lat":"42.6967888","from_stop_lon":"-71.5861054","to_stop_id":"17513","to_stop_name":"origin","to_stop_lat":"42.3726399","placename":"184 Hollis St, Pepperell, MA 01463, USA","to_stop_lon":"-71.1096528","to_stop":{"id":"17513","name":"origin","lat":"42.3726399","placename":"Cambridge, MA, USA","lon":"-71.1096528"},"from_stop":{"name":"origin","id":"17519","lat":"42.6967888","lon":"-71.5861054","placename":"184 Hollis St, Pepperell, MA 01463, USA"}},{"transport_id":null,"id":"12594","transport_name":null,"transport_description":null,"transport_unit":null,"transport_co2_eq":null,"from_stop_id":"17520","from_stop_lat":"42.4770684","from_stop_lon":"-72.5790967","to_stop_id":"17513","to_stop_name":"origin","to_stop_lat":"42.3726399","placename":"75 River Rd, South Deerfield, MA 01373, USA","to_stop_lon":"-71.1096528","to_stop":{"id":"17513","name":"origin","lat":"42.3726399","placename":"Cambridge, MA, USA","lon":"-71.1096528"},"from_stop":{"name":"origin","id":"17520","lat":"42.4770684","lon":"-72.5790967","placename":"75 River Rd, South Deerfield, MA 01373, USA"}},{"transport_id":null,"id":"12595","transport_name":null,"transport_description":null,"transport_unit":null,"transport_co2_eq":null,"from_stop_id":"17521","from_stop_lat":"42.3173028","from_stop_lon":"-73.2727753","to_stop_id":"17513","to_stop_name":"origin","to_stop_lat":"42.3726399","placename":"535 Summer St, Lee, MA 01238, USA","to_stop_lon":"-71.1096528","to_stop":{"id":"17513","name":"origin","lat":"42.3726399","placename":"Cambridge, MA, USA","lon":"-71.1096528"},"from_stop":{"name":"origin","id":"17521","lat":"42.3173028","lon":"-73.2727753","placename":"535 Summer St, Lee, MA 01238, USA"}},{"transport_id":null,"id":"12596","transport_name":null,"transport_description":null,"transport_unit":null,"transport_co2_eq":null,"from_stop_id":"17522","from_stop_lat":"42.8781345","from_stop_lon":"-73.1967741","to_stop_id":"17513","to_stop_name":"origin","to_stop_lat":"42.3726399","placename":"Bennington, VT 05201, USA","to_stop_lon":"-71.1096528","to_stop":{"id":"17513","name":"origin","lat":"42.3726399","placename":"Cambridge, MA, USA","lon":"-71.1096528"},"from_stop":{"name":"origin","id":"17522","lat":"42.8781345","lon":"-73.1967741","placename":"Bennington, VT 05201, USA"}},{"transport_id":null,"id":"12597","transport_name":null,"transport_description":null,"transport_unit":null,"transport_co2_eq":null,"from_stop_id":"17523","from_stop_lat":"42.393478","from_stop_lon":"-71.148088","to_stop_id":"17513","to_stop_name":"origin","to_stop_lat":"42.3726399","placename":"130 Fawcett St, Cambridge, MA 02138, USA","to_stop_lon":"-71.1096528","to_stop":{"id":"17513","name":"origin","lat":"42.3726399","placename":"Cambridge, MA, USA","lon":"-71.1096528"},"from_stop":{"name":"origin","id":"17523","lat":"42.393478","lon":"-71.148088","placename":"130 Fawcett St, Cambridge, MA 02138, USA"}},{"transport_id":null,"id":"12598","transport_name":null,"transport_description":null,"transport_unit":null,"transport_co2_eq":null,"from_stop_id":"17524","from_stop_lat":"42.3634321","from_stop_lon":"-71.0995491","to_stop_id":"17513","to_stop_name":"origin","to_stop_lat":"42.3726399","placename":"899 Main St, Cambridge, MA 02139, USA","to_stop_lon":"-71.1096528","to_stop":{"id":"17513","name":"origin","lat":"42.3726399","placename":"Cambridge, MA, USA","lon":"-71.1096528"},"from_stop":{"name":"origin","id":"17524","lat":"42.3634321","lon":"-71.0995491","placename":"899 Main St, Cambridge, MA 02139, USA"}},{"transport_id":null,"id":"12599","transport_name":null,"transport_description":null,"transport_unit":null,"transport_co2_eq":null,"from_stop_id":"17525","from_stop_lat":"44.400307","from_stop_lon":"-72.314499","to_stop_id":"17513","to_stop_name":"origin","to_stop_lat":"42.3726399","placename":"2878 Main St, Cabot, VT 05647, USA","to_stop_lon":"-71.1096528","to_stop":{"id":"17513","name":"origin","lat":"42.3726399","placename":"Cambridge, MA, USA","lon":"-71.1096528"},"from_stop":{"name":"origin","id":"17525","lat":"44.400307","lon":"-72.314499","placename":"2878 Main St, Cabot, VT 05647, USA"}},{"transport_id":null,"id":"12600","transport_name":null,"transport_description":null,"transport_unit":null,"transport_co2_eq":null,"from_stop_id":"17526","from_stop_lat":"44.186753","from_stop_lon":"-72.79574","to_stop_id":"17513","to_stop_name":"origin","to_stop_lat":"42.3726399","placename":"251 Common Rd, Waitsfield, VT 05673, USA","to_stop_lon":"-71.1096528","to_stop":{"id":"17513","name":"origin","lat":"42.3726399","placename":"Cambridge, MA, USA","lon":"-71.1096528"},"from_stop":{"name":"origin","id":"17526","lat":"44.186753","lon":"-72.79574","placename":"251 Common Rd, Waitsfield, VT 05673, USA"}},{"transport_id":null,"id":"12601","transport_name":null,"transport_description":null,"transport_unit":null,"transport_co2_eq":null,"from_stop_id":"17527","from_stop_lat":"44.1599158","from_stop_lon":"-72.4698282","to_stop_id":"17513","to_stop_name":"origin","to_stop_lat":"42.3726399","placename":"Websterville, VT 05678, USA","to_stop_lon":"-71.1096528","to_stop":{"id":"17513","name":"origin","lat":"42.3726399","placename":"Cambridge, MA, USA","lon":"-71.1096528"},"from_stop":{"name":"origin","id":"17527","lat":"44.1599158","lon":"-72.4698282","placename":"Websterville, VT 05678, USA"}},{"transport_id":null,"id":"12602","transport_name":null,"transport_description":null,"transport_unit":null,"transport_co2_eq":null,"from_stop_id":"17528","from_stop_lat":"42.1959225","from_stop_lon":"-73.3620564","to_stop_id":"17513","to_stop_name":"origin","to_stop_lat":"42.3726399","placename":"Great Barrington, MA 01230, USA","to_stop_lon":"-71.1096528","to_stop":{"id":"17513","name":"origin","lat":"42.3726399","placename":"Cambridge, MA, USA","lon":"-71.1096528"},"from_stop":{"name":"origin","id":"17528","lat":"42.1959225","lon":"-73.3620564","placename":"Great Barrington, MA 01230, USA"}},{"transport_id":null,"id":"12603","transport_name":null,"transport_description":null,"transport_unit":null,"transport_co2_eq":null,"from_stop_id":"17529","from_stop_lat":"42.4450711","from_stop_lon":"-73.5843909","to_stop_id":"17513","to_stop_name":"origin","to_stop_lat":"42.3726399","placename":"155 Shaker Museum Rd, Old Chatham, NY 12136, USA","to_stop_lon":"-71.1096528","to_stop":{"id":"17513","name":"origin","lat":"42.3726399","placename":"Cambridge, MA, USA","lon":"-71.1096528"},"from_stop":{"name":"origin","id":"17529","lat":"42.4450711","lon":"-73.5843909","placename":"155 Shaker Museum Rd, Old Chatham, NY 12136, USA"}},{"transport_id":null,"id":"12604","transport_name":null,"transport_description":null,"transport_unit":null,"transport_co2_eq":null,"from_stop_id":"17530","from_stop_lat":"43.084579","from_stop_lon":"-72.421547","to_stop_id":"17513","to_stop_name":"origin","to_stop_lat":"42.3726399","placename":"Walpole, NH, USA","to_stop_lon":"-71.1096528","to_stop":{"id":"17513","name":"origin","lat":"42.3726399","placename":"Cambridge, MA, USA","lon":"-71.1096528"},"from_stop":{"name":"origin","id":"17530","lat":"43.084579","lon":"-72.421547","placename":"Walpole, NH, USA"}},{"transport_id":null,"id":"12605","transport_name":null,"transport_description":null,"transport_unit":null,"transport_co2_eq":null,"from_stop_id":"17531","from_stop_lat":"42.6967888","from_stop_lon":"-71.5861054","to_stop_id":"17513","to_stop_name":"origin","to_stop_lat":"42.3726399","placename":"184 Hollis St, Pepperell, MA 01463, USA","to_stop_lon":"-71.1096528","to_stop":{"id":"17513","name":"origin","lat":"42.3726399","placename":"Cambridge, MA, USA","lon":"-71.1096528"},"from_stop":{"name":"origin","id":"17531","lat":"42.6967888","lon":"-71.5861054","placename":"184 Hollis St, Pepperell, MA 01463, USA"}},{"transport_id":null,"id":"12606","transport_name":null,"transport_description":null,"transport_unit":null,"transport_co2_eq":null,"from_stop_id":"17532","from_stop_lat":"42.4770684","from_stop_lon":"-72.5790967","to_stop_id":"17513","to_stop_name":"origin","to_stop_lat":"42.3726399","placename":"75 River Rd, South Deerfield, MA 01373, USA","to_stop_lon":"-71.1096528","to_stop":{"id":"17513","name":"origin","lat":"42.3726399","placename":"Cambridge, MA, USA","lon":"-71.1096528"},"from_stop":{"name":"origin","id":"17532","lat":"42.4770684","lon":"-72.5790967","placename":"75 River Rd, South Deerfield, MA 01373, USA"}}],"outgoing":[]}}},"parts":[{"oid":"1485","imid":"7963","linkid":"0","weight":"0","rawemissions":"0","emissions":"0","shipping":"6.66","processemissions":"0","endoflifeemissions":"0","disposaltype":null,"disposalenergy":null,"disposalimpact":null,"disposalemissions":null,"description":"Boston Crab Company","name":"Crab","id":"7963","stops":{"origin":{"related_to":"7963","part_or_object":"p","notes":null,"placename":"300 Northern Ave, Boston, MA 02210, USA","id":17514,"name":"origin","lat":"42.3478601","lon":"-71.0360174","hops":{"incoming":[],"outgoing":[{"transport_id":null,"id":"12588","transport_name":null,"transport_description":null,"transport_unit":null,"transport_co2_eq":null,"from_stop_id":"17514","from_stop_lat":"42.3478601","from_stop_lon":"-71.0360174","from_stop_placename":"300 Northern Ave, Boston, MA 02210, USA","to_stop_id":"17513","to_stop_name":"origin","to_stop_lat":"42.3726399","to_stop_lon":"-71.1096528","to_stop_placename":"Cambridge, MA, USA","to_stop":{"id":"17513","name":"origin","lat":"42.3726399","lon":"-71.1096528","placename":"Cambridge, MA, USA"},"from_stop":{"name":"origin","id":"17514","lat":"42.3478601","lon":"-71.0360174","placename":"300 Northern Ave, Boston, MA 02210, USA"}}]}}},"processes":[],"eols":[]},{"oid":"1485","imid":"7964","linkid":"0","weight":"0","rawemissions":"0","emissions":"0","shipping":"84.78","processemissions":"0","endoflifeemissions":"0","disposaltype":null,"disposalenergy":null,"disposalimpact":null,"disposalemissions":null,"description":"Oceans Alive Scallops","name":"Scallops","id":"7964","stops":{"origin":{"related_to":"7964","part_or_object":"p","notes":null,"placename":"11 Hassey St, New Bedford, MA 02740, USA","id":17515,"name":"origin","lat":"41.6246889","lon":"-70.91643","hops":{"incoming":[],"outgoing":[{"transport_id":null,"id":"12589","transport_name":null,"transport_description":null,"transport_unit":null,"transport_co2_eq":null,"from_stop_id":"17515","from_stop_lat":"41.6246889","from_stop_lon":"-70.91643","from_stop_placename":"11 Hassey St, New Bedford, MA 02740, USA","to_stop_id":"17513","to_stop_name":"origin","to_stop_lat":"42.3726399","to_stop_lon":"-71.1096528","to_stop_placename":"Cambridge, MA, USA","to_stop":{"id":"17513","name":"origin","lat":"42.3726399","lon":"-71.1096528","placename":"Cambridge, MA, USA"},"from_stop":{"name":"origin","id":"17515","lat":"41.6246889","lon":"-70.91643","placename":"11 Hassey St, New Bedford, MA 02740, USA"}}]}}},"processes":[],"eols":[]},{"oid":"1485","imid":"7965","linkid":"0","weight":"0","rawemissions":"0","emissions":"0","shipping":"0.93","processemissions":"0","endoflifeemissions":"0","disposaltype":null,"disposalenergy":null,"disposalimpact":null,"disposalemissions":null,"description":"Christinas","name":"Peppercorn Blend","id":"7965","stops":{"origin":{"related_to":"7965","part_or_object":"p","notes":null,"placename":"1255 Cambridge St, Cambridge, MA 02139, USA","id":17516,"name":"origin","lat":"42.37352","lon":"-71.0983761","hops":{"incoming":[],"outgoing":[{"transport_id":null,"id":"12590","transport_name":null,"transport_description":null,"transport_unit":null,"transport_co2_eq":null,"from_stop_id":"17516","from_stop_lat":"42.37352","from_stop_lon":"-71.0983761","from_stop_placename":"1255 Cambridge St, Cambridge, MA 02139, USA","to_stop_id":"17513","to_stop_name":"origin","to_stop_lat":"42.3726399","to_stop_lon":"-71.1096528","to_stop_placename":"Cambridge, MA, USA","to_stop":{"id":"17513","name":"origin","lat":"42.3726399","lon":"-71.1096528","placename":"Cambridge, MA, USA"},"from_stop":{"name":"origin","id":"17516","lat":"42.37352","lon":"-71.0983761","placename":"1255 Cambridge St, Cambridge, MA 02139, USA"}}]}}},"processes":[],"eols":[]},{"oid":"1485","imid":"7966","linkid":"0","weight":"0","rawemissions":"0","emissions":"0","shipping":"94.51","processemissions":"0","endoflifeemissions":"0","disposaltype":null,"disposalenergy":null,"disposalimpact":null,"disposalemissions":null,"description":"Eva's Garden","name":"Chervil, Spinach, Basil","id":"7966","stops":{"origin":{"related_to":"7966","part_or_object":"p","notes":null,"placename":"105 Jordan Rd, Dartmouth, MA 02748, USA","id":17517,"name":"origin","lat":"41.5277302","lon":"-70.9979514","hops":{"incoming":[],"outgoing":[{"transport_id":null,"id":"12591","transport_name":null,"transport_description":null,"transport_unit":null,"transport_co2_eq":null,"from_stop_id":"17517","from_stop_lat":"41.5277302","from_stop_lon":"-70.9979514","from_stop_placename":"105 Jordan Rd, Dartmouth, MA 02748, USA","to_stop_id":"17513","to_stop_name":"origin","to_stop_lat":"42.3726399","to_stop_lon":"-71.1096528","to_stop_placename":"Cambridge, MA, USA","to_stop":{"id":"17513","name":"origin","lat":"42.3726399","lon":"-71.1096528","placename":"Cambridge, MA, USA"},"from_stop":{"name":"origin","id":"17517","lat":"41.5277302","lon":"-70.9979514","placename":"105 Jordan Rd, Dartmouth, MA 02748, USA"}}]}}},"processes":[],"eols":[]},{"oid":"1485","imid":"7967","linkid":"0","weight":"0","rawemissions":"0","emissions":"0","shipping":"84.93","processemissions":"0","endoflifeemissions":"0","disposaltype":null,"disposalenergy":null,"disposalimpact":null,"disposalemissions":null,"description":"Double J Farms","name":"Beef","id":"7967","stops":{"origin":{"related_to":"7967","part_or_object":"p","notes":null,"placename":"138 N Main St, West Brookfield, MA 01585, USA","id":17518,"name":"origin","lat":"42.2424685","lon":"-72.1261548","hops":{"incoming":[],"outgoing":[{"transport_id":null,"id":"12592","transport_name":null,"transport_description":null,"transport_unit":null,"transport_co2_eq":null,"from_stop_id":"17518","from_stop_lat":"42.2424685","from_stop_lon":"-72.1261548","from_stop_placename":"138 N Main St, West Brookfield, MA 01585, USA","to_stop_id":"17513","to_stop_name":"origin","to_stop_lat":"42.3726399","to_stop_lon":"-71.1096528","to_stop_placename":"Cambridge, MA, USA","to_stop":{"id":"17513","name":"origin","lat":"42.3726399","lon":"-71.1096528","placename":"Cambridge, MA, USA"},"from_stop":{"name":"origin","id":"17518","lat":"42.2424685","lon":"-72.1261548","placename":"138 N Main St, West Brookfield, MA 01585, USA"}}]}}},"processes":[],"eols":[]},{"oid":"1485","imid":"7962","linkid":"0","weight":"0","rawemissions":"0","emissions":"0","shipping":"53.19","processemissions":"0","endoflifeemissions":"0","disposaltype":null,"disposalenergy":null,"disposalimpact":null,"disposalemissions":null,"description":"Kimball Fruit Farm","name":"Corn, Tomatoes, Berries","id":"7962","stops":{"origin":{"related_to":"7962","part_or_object":"p","notes":null,"placename":"184 Hollis St, Pepperell, MA 01463, USA","id":17519,"name":"origin","lat":"42.6967888","lon":"-71.5861054","hops":{"incoming":[],"outgoing":[{"transport_id":null,"id":"12593","transport_name":null,"transport_description":null,"transport_unit":null,"transport_co2_eq":null,"from_stop_id":"17519","from_stop_lat":"42.6967888","from_stop_lon":"-71.5861054","from_stop_placename":"184 Hollis St, Pepperell, MA 01463, USA","to_stop_id":"17513","to_stop_name":"origin","to_stop_lat":"42.3726399","to_stop_lon":"-71.1096528","to_stop_placename":"Cambridge, MA, USA","to_stop":{"id":"17513","name":"origin","lat":"42.3726399","lon":"-71.1096528","placename":"Cambridge, MA, USA"},"from_stop":{"name":"origin","id":"17519","lat":"42.6967888","lon":"-71.5861054","placename":"184 Hollis St, Pepperell, MA 01463, USA"}}]}}},"processes":[],"eols":[]},{"oid":"1485","imid":"7968","linkid":"0","weight":"0","rawemissions":"0","emissions":"0","shipping":"121.3","processemissions":"0","endoflifeemissions":"0","disposaltype":null,"disposalenergy":null,"disposalimpact":null,"disposalemissions":null,"description":"Enterprise Farms","name":"Horseradish, Red Peppers","id":"7968","stops":{"origin":{"related_to":"7968","part_or_object":"p","notes":null,"placename":"75 River Rd, South Deerfield, MA 01373, USA","id":17520,"name":"origin","lat":"42.4770684","lon":"-72.5790967","hops":{"incoming":[],"outgoing":[{"transport_id":null,"id":"12594","transport_name":null,"transport_description":null,"transport_unit":null,"transport_co2_eq":null,"from_stop_id":"17520","from_stop_lat":"42.4770684","from_stop_lon":"-72.5790967","from_stop_placename":"75 River Rd, South Deerfield, MA 01373, USA","to_stop_id":"17513","to_stop_name":"origin","to_stop_lat":"42.3726399","to_stop_lon":"-71.1096528","to_stop_placename":"Cambridge, MA, USA","to_stop":{"id":"17513","name":"origin","lat":"42.3726399","lon":"-71.1096528","placename":"Cambridge, MA, USA"},"from_stop":{"name":"origin","id":"17520","lat":"42.4770684","lon":"-72.5790967","placename":"75 River Rd, South Deerfield, MA 01373, USA"}}]}}},"processes":[],"eols":[]},{"oid":"1485","imid":"7969","linkid":"0","weight":"0","rawemissions":"0","emissions":"0","shipping":"178.08","processemissions":"0","endoflifeemissions":"0","disposaltype":null,"disposalenergy":null,"disposalimpact":null,"disposalemissions":null,"description":"High Lawn Dairy","name":"Cream, Milk","id":"7969","stops":{"origin":{"related_to":"7969","part_or_object":"p","notes":null,"placename":"535 Summer St, Lee, MA 01238, USA","id":17521,"name":"origin","lat":"42.3173028","lon":"-73.2727753","hops":{"incoming":[],"outgoing":[{"transport_id":null,"id":"12595","transport_name":null,"transport_description":null,"transport_unit":null,"transport_co2_eq":null,"from_stop_id":"17521","from_stop_lat":"42.3173028","from_stop_lon":"-73.2727753","from_stop_placename":"535 Summer St, Lee, MA 01238, USA","to_stop_id":"17513","to_stop_name":"origin","to_stop_lat":"42.3726399","to_stop_lon":"-71.1096528","to_stop_placename":"Cambridge, MA, USA","to_stop":{"id":"17513","name":"origin","lat":"42.3726399","lon":"-71.1096528","placename":"Cambridge, MA, USA"},"from_stop":{"name":"origin","id":"17521","lat":"42.3173028","lon":"-73.2727753","placename":"535 Summer St, Lee, MA 01238, USA"}}]}}},"processes":[],"eols":[]},{"oid":"1485","imid":"7970","linkid":"0","weight":"0","rawemissions":"0","emissions":"0","shipping":"179.97","processemissions":"0","endoflifeemissions":"0","disposaltype":null,"disposalenergy":null,"disposalimpact":null,"disposalemissions":null,"description":"Maplebrook Farms","name":"Mozzarella","id":"7970","stops":{"origin":{"related_to":"7970","part_or_object":"p","notes":null,"placename":"Bennington, VT 05201, USA","id":17522,"name":"origin","lat":"42.8781345","lon":"-73.1967741","hops":{"incoming":[],"outgoing":[{"transport_id":null,"id":"12596","transport_name":null,"transport_description":null,"transport_unit":null,"transport_co2_eq":null,"from_stop_id":"17522","from_stop_lat":"42.8781345","from_stop_lon":"-73.1967741","from_stop_placename":"Bennington, VT 05201, USA","to_stop_id":"17513","to_stop_name":"origin","to_stop_lat":"42.3726399","to_stop_lon":"-71.1096528","to_stop_placename":"Cambridge, MA, USA","to_stop":{"id":"17513","name":"origin","lat":"42.3726399","lon":"-71.1096528","placename":"Cambridge, MA, USA"},"from_stop":{"name":"origin","id":"17522","lat":"42.8781345","lon":"-73.1967741","placename":"Bennington, VT 05201, USA"}}]}}},"processes":[],"eols":[]},{"oid":"1485","imid":"7971","linkid":"0","weight":"0","rawemissions":"0","emissions":"0","shipping":"3.92","processemissions":"0","endoflifeemissions":"0","disposaltype":null,"disposalenergy":null,"disposalimpact":null,"disposalemissions":null,"description":"Iggy's Breads of the World","name":"Bread, Rolls, Crisps","id":"7971","stops":{"origin":{"related_to":"7971","part_or_object":"p","notes":null,"placename":"130 Fawcett St, Cambridge, MA 02138, USA","id":17523,"name":"origin","lat":"42.393478","lon":"-71.148088","hops":{"incoming":[],"outgoing":[{"transport_id":null,"id":"12597","transport_name":null,"transport_description":null,"transport_unit":null,"transport_co2_eq":null,"from_stop_id":"17523","from_stop_lat":"42.393478","from_stop_lon":"-71.148088","from_stop_placename":"130 Fawcett St, Cambridge, MA 02138, USA","to_stop_id":"17513","to_stop_name":"origin","to_stop_lat":"42.3726399","to_stop_lon":"-71.1096528","to_stop_placename":"Cambridge, MA, USA","to_stop":{"id":"17513","name":"origin","lat":"42.3726399","lon":"-71.1096528","placename":"Cambridge, MA, USA"},"from_stop":{"name":"origin","id":"17523","lat":"42.393478","lon":"-71.148088","placename":"130 Fawcett St, Cambridge, MA 02138, USA"}}]}}},"processes":[],"eols":[]},{"oid":"1485","imid":"7972","linkid":"0","weight":"0","rawemissions":"0","emissions":"0","shipping":"1.32","processemissions":"0","endoflifeemissions":"0","disposaltype":null,"disposalenergy":null,"disposalimpact":null,"disposalemissions":null,"description":"Toscanini's Ice Cream","name":"Ice Cream, Hot Fudge","id":"7972","stops":{"origin":{"related_to":"7972","part_or_object":"p","notes":null,"placename":"899 Main St, Cambridge, MA 02139, USA","id":17524,"name":"origin","lat":"42.3634321","lon":"-71.0995491","hops":{"incoming":[],"outgoing":[{"transport_id":null,"id":"12598","transport_name":null,"transport_description":null,"transport_unit":null,"transport_co2_eq":null,"from_stop_id":"17524","from_stop_lat":"42.3634321","from_stop_lon":"-71.0995491","from_stop_placename":"899 Main St, Cambridge, MA 02139, USA","to_stop_id":"17513","to_stop_name":"origin","to_stop_lat":"42.3726399","to_stop_lon":"-71.1096528","to_stop_placename":"Cambridge, MA, USA","to_stop":{"id":"17513","name":"origin","lat":"42.3726399","lon":"-71.1096528","placename":"Cambridge, MA, USA"},"from_stop":{"name":"origin","id":"17524","lat":"42.3634321","lon":"-71.0995491","placename":"899 Main St, Cambridge, MA 02139, USA"}}]}}},"processes":[],"eols":[]},{"oid":"1485","imid":"7973","linkid":"0","weight":"0","rawemissions":"0","emissions":"0","shipping":"245.86","processemissions":"0","endoflifeemissions":"0","disposaltype":null,"disposalenergy":null,"disposalimpact":null,"disposalemissions":null,"description":"Cabot Creamery","name":"Butter, Cheddar","id":"7973","stops":{"origin":{"related_to":"7973","part_or_object":"p","notes":null,"placename":"2878 Main St, Cabot, VT 05647, USA","id":17525,"name":"origin","lat":"44.400307","lon":"-72.314499","hops":{"incoming":[],"outgoing":[{"transport_id":null,"id":"12599","transport_name":null,"transport_description":null,"transport_unit":null,"transport_co2_eq":null,"from_stop_id":"17525","from_stop_lat":"44.400307","from_stop_lon":"-72.314499","from_stop_placename":"2878 Main St, Cabot, VT 05647, USA","to_stop_id":"17513","to_stop_name":"origin","to_stop_lat":"42.3726399","to_stop_lon":"-71.1096528","to_stop_placename":"Cambridge, MA, USA","to_stop":{"id":"17513","name":"origin","lat":"42.3726399","lon":"-71.1096528","placename":"Cambridge, MA, USA"},"from_stop":{"name":"origin","id":"17525","lat":"44.400307","lon":"-72.314499","placename":"2878 Main St, Cabot, VT 05647, USA"}}]}}},"processes":[],"eols":[]},{"oid":"1485","imid":"7974","linkid":"0","weight":"0","rawemissions":"0","emissions":"0","shipping":"243.82","processemissions":"0","endoflifeemissions":"0","disposaltype":null,"disposalenergy":null,"disposalimpact":null,"disposalemissions":null,"description":"Von Trapp Farmstead","name":"Von Trapp Oma","id":"7974","stops":{"origin":{"related_to":"7974","part_or_object":"p","notes":null,"placename":"251 Common Rd, Waitsfield, VT 05673, USA","id":17526,"name":"origin","lat":"44.186753","lon":"-72.79574","hops":{"incoming":[],"outgoing":[{"transport_id":null,"id":"12600","transport_name":null,"transport_description":null,"transport_unit":null,"transport_co2_eq":null,"from_stop_id":"17526","from_stop_lat":"44.186753","from_stop_lon":"-72.79574","from_stop_placename":"251 Common Rd, Waitsfield, VT 05673, USA","to_stop_id":"17513","to_stop_name":"origin","to_stop_lat":"42.3726399","to_stop_lon":"-71.1096528","to_stop_placename":"Cambridge, MA, USA","to_stop":{"id":"17513","name":"origin","lat":"42.3726399","lon":"-71.1096528","placename":"Cambridge, MA, USA"},"from_stop":{"name":"origin","id":"17526","lat":"44.186753","lon":"-72.79574","placename":"251 Common Rd, Waitsfield, VT 05673, USA"}}]}}},"processes":[],"eols":[]},{"oid":"1485","imid":"7975","linkid":"0","weight":"0","rawemissions":"0","emissions":"0","shipping":"227.46","processemissions":"0","endoflifeemissions":"0","disposaltype":null,"disposalenergy":null,"disposalimpact":null,"disposalemissions":null,"description":"Vermont Butter and Cheese Company","name":"Cupole, Chevre","id":"7975","stops":{"origin":{"related_to":"7975","part_or_object":"p","notes":null,"placename":"Websterville, VT 05678, USA","id":17527,"name":"origin","lat":"44.1599158","lon":"-72.4698282","hops":{"incoming":[],"outgoing":[{"transport_id":null,"id":"12601","transport_name":null,"transport_description":null,"transport_unit":null,"transport_co2_eq":null,"from_stop_id":"17527","from_stop_lat":"44.1599158","from_stop_lon":"-72.4698282","from_stop_placename":"Websterville, VT 05678, USA","to_stop_id":"17513","to_stop_name":"origin","to_stop_lat":"42.3726399","to_stop_lon":"-71.1096528","to_stop_placename":"Cambridge, MA, USA","to_stop":{"id":"17513","name":"origin","lat":"42.3726399","lon":"-71.1096528","placename":"Cambridge, MA, USA"},"from_stop":{"name":"origin","id":"17527","lat":"44.1599158","lon":"-72.4698282","placename":"Websterville, VT 05678, USA"}}]}}},"processes":[],"eols":[]},{"oid":"1485","imid":"7976","linkid":"0","weight":"0","rawemissions":"0","emissions":"0","shipping":"186.53","processemissions":"0","endoflifeemissions":"0","disposaltype":null,"disposalenergy":null,"disposalimpact":null,"disposalemissions":null,"description":"Berkshire Blue Cheese Company","name":"Berkshire Blue Cheese","id":"7976","stops":{"origin":{"related_to":"7976","part_or_object":"p","notes":null,"placename":"Great Barrington, MA 01230, USA","id":17528,"name":"origin","lat":"42.1959225","lon":"-73.3620564","hops":{"incoming":[],"outgoing":[{"transport_id":null,"id":"12602","transport_name":null,"transport_description":null,"transport_unit":null,"transport_co2_eq":null,"from_stop_id":"17528","from_stop_lat":"42.1959225","from_stop_lon":"-73.3620564","from_stop_placename":"Great Barrington, MA 01230, USA","to_stop_id":"17513","to_stop_name":"origin","to_stop_lat":"42.3726399","to_stop_lon":"-71.1096528","to_stop_placename":"Cambridge, MA, USA","to_stop":{"id":"17513","name":"origin","lat":"42.3726399","lon":"-71.1096528","placename":"Cambridge, MA, USA"},"from_stop":{"name":"origin","id":"17528","lat":"42.1959225","lon":"-73.3620564","placename":"Great Barrington, MA 01230, USA"}}]}}},"processes":[],"eols":[]},{"oid":"1485","imid":"7977","linkid":"0","weight":"0","rawemissions":"0","emissions":"0","shipping":"203.56","processemissions":"0","endoflifeemissions":"0","disposaltype":null,"disposalenergy":null,"disposalimpact":null,"disposalemissions":null,"description":"Old Chatham Sheepherding Company","name":"Camembert","id":"7977","stops":{"origin":{"related_to":"7977","part_or_object":"p","notes":null,"placename":"155 Shaker Museum Rd, Old Chatham, NY 12136, USA","id":17529,"name":"origin","lat":"42.4450711","lon":"-73.5843909","hops":{"incoming":[],"outgoing":[{"transport_id":null,"id":"12603","transport_name":null,"transport_description":null,"transport_unit":null,"transport_co2_eq":null,"from_stop_id":"17529","from_stop_lat":"42.4450711","from_stop_lon":"-73.5843909","from_stop_placename":"155 Shaker Museum Rd, Old Chatham, NY 12136, USA","to_stop_id":"17513","to_stop_name":"origin","to_stop_lat":"42.3726399","to_stop_lon":"-71.1096528","to_stop_placename":"Cambridge, MA, USA","to_stop":{"id":"17513","name":"origin","lat":"42.3726399","lon":"-71.1096528","placename":"Cambridge, MA, USA"},"from_stop":{"name":"origin","id":"17529","lat":"42.4450711","lon":"-73.5843909","placename":"155 Shaker Museum Rd, Old Chatham, NY 12136, USA"}}]}}},"processes":[],"eols":[]},{"oid":"1485","imid":"7978","linkid":"0","weight":"0","rawemissions":"0","emissions":"0","shipping":"133.37","processemissions":"0","endoflifeemissions":"0","disposaltype":null,"disposalenergy":null,"disposalimpact":null,"disposalemissions":null,"description":"Boggy Meadow Farm","name":"Fiddlehead Tomme","id":"7978","stops":{"origin":{"related_to":"7978","part_or_object":"p","notes":null,"placename":"Walpole, NH, USA","id":17530,"name":"origin","lat":"43.084579","lon":"-72.421547","hops":{"incoming":[],"outgoing":[{"transport_id":null,"id":"12604","transport_name":null,"transport_description":null,"transport_unit":null,"transport_co2_eq":null,"from_stop_id":"17530","from_stop_lat":"43.084579","from_stop_lon":"-72.421547","from_stop_placename":"Walpole, NH, USA","to_stop_id":"17513","to_stop_name":"origin","to_stop_lat":"42.3726399","to_stop_lon":"-71.1096528","to_stop_placename":"Cambridge, MA, USA","to_stop":{"id":"17513","name":"origin","lat":"42.3726399","lon":"-71.1096528","placename":"Cambridge, MA, USA"},"from_stop":{"name":"origin","id":"17530","lat":"43.084579","lon":"-72.421547","placename":"Walpole, NH, USA"}}]}}},"processes":[],"eols":[]},{"oid":"1485","imid":"7983","linkid":"0","weight":"0","rawemissions":"0","emissions":"0","shipping":"53.19","processemissions":"0","endoflifeemissions":"0","disposaltype":null,"disposalenergy":null,"disposalimpact":null,"disposalemissions":null,"description":"Kimball Fruit Farm","name":"Peaches, Squash, Berries","id":"7983","stops":{"origin":{"related_to":"7983","part_or_object":"p","notes":null,"placename":"184 Hollis St, Pepperell, MA 01463, USA","id":17531,"name":"origin","lat":"42.6967888","lon":"-71.5861054","hops":{"incoming":[],"outgoing":[{"transport_id":null,"id":"12605","transport_name":null,"transport_description":null,"transport_unit":null,"transport_co2_eq":null,"from_stop_id":"17531","from_stop_lat":"42.6967888","from_stop_lon":"-71.5861054","from_stop_placename":"184 Hollis St, Pepperell, MA 01463, USA","to_stop_id":"17513","to_stop_name":"origin","to_stop_lat":"42.3726399","to_stop_lon":"-71.1096528","to_stop_placename":"Cambridge, MA, USA","to_stop":{"id":"17513","name":"origin","lat":"42.3726399","lon":"-71.1096528","placename":"Cambridge, MA, USA"},"from_stop":{"name":"origin","id":"17531","lat":"42.6967888","lon":"-71.5861054","placename":"184 Hollis St, Pepperell, MA 01463, USA"}}]}}},"processes":[],"eols":[]},{"oid":"1485","imid":"7984","linkid":"0","weight":"0","rawemissions":"0","emissions":"0","shipping":"121.3","processemissions":"0","endoflifeemissions":"0","disposaltype":null,"disposalenergy":null,"disposalimpact":null,"disposalemissions":null,"description":"Enterprise Farms","name":"Sweet and Peruvian Potatoes","id":"7984","stops":{"origin":{"related_to":"7984","part_or_object":"p","notes":null,"placename":"75 River Rd, South Deerfield, MA 01373, USA","id":17532,"name":"origin","lat":"42.4770684","lon":"-72.5790967","hops":{"incoming":[],"outgoing":[{"transport_id":null,"id":"12606","transport_name":null,"transport_description":null,"transport_unit":null,"transport_co2_eq":null,"from_stop_id":"17532","from_stop_lat":"42.4770684","from_stop_lon":"-72.5790967","from_stop_placename":"75 River Rd, South Deerfield, MA 01373, USA","to_stop_id":"17513","to_stop_name":"origin","to_stop_lat":"42.3726399","to_stop_lon":"-71.1096528","to_stop_placename":"Cambridge, MA, USA","to_stop":{"id":"17513","name":"origin","lat":"42.3726399","lon":"-71.1096528","placename":"Cambridge, MA, USA"},"from_stop":{"name":"origin","id":"17532","lat":"42.4770684","lon":"-72.5790967","placename":"75 River Rd, South Deerfield, MA 01373, USA"}}]}}},"processes":[],"eols":[]}],"user":{"name":"seasontotaste","id":"13587"}}}