{"152":{"oid":"152","type":"food","flag":"","creator":"11440","name":"Common Roots Cafe -- chicken and white wine","upc":"","imagelink":"","description":"When you order chicken and white wine at the Common Roots Cafe in Minneapolis, MN, here's where the ingredients come from. Common Roots owner Danny Schwartzman, who stresses the use of local food, provided the information, and the map was created by Minnesota Public Radio News' Ground Level project. ","slug":"Common-Roots-Cafe----chicken-and-white-wine","category":"","weight":"0.548","emissions":"0.806943294","embodied":"0.77357","transport":"0.033373294","process":null,"endoflife":null,"shipping":"47894.67","lifetime":null,"usagetype":"","usageenergy":null,"usageemissions":null,"timecreated":"2010-12-06 11:04:45","timemodified":"2010-12-08 08:52:19","visibility":"public","showfootprint":"on","showembodied":"on","showtransport":"on","showprocess":"on","showendoflife":"on","showlastleg":"on","showuse":"on","showstats":"on","stops":{"origin":{"related_to":"152","part_or_object":"o","notes":null,"placename":"Minneapolis, MN, USA","id":"8682","category":"1","lat":"44.9799654","lon":"-93.2638361","name":"origin","hops":{"incoming":[{"transport_id":"20","id":"6041","transport_name":"Road","transport_description":"from the Greenhouse Gas Protocol Initiative - GHG emission from transport or mobile sources calculator 2.0 (jun 2009)","transport_unit":"kg km","transport_co2_eq":"0.000204","from_stop_id":"8683","from_stop_lat":"43.5569174","from_stop_lon":"-90.8887413","to_stop_id":"8682","to_stop_name":"origin","to_stop_lat":"44.9799654","placename":"Viroqua, WI 54665, USA","to_stop_lon":"-93.2638361","to_stop":{"id":"8682","name":"origin","lat":"44.9799654","placename":"Minneapolis, MN, USA","lon":"-93.2638361"},"from_stop":{"name":"origin","id":"8683","lat":"43.5569174","lon":"-90.8887413","placename":"Viroqua, WI 54665, USA"}},{"transport_id":"19","id":"6042","transport_name":"Rail","transport_description":"from the Greenhouse Gas Protocol Initiative - GHG emission from transport or mobile sources calculator 2.0 (jun 2009)","transport_unit":"kg km","transport_co2_eq":"0.000017","from_stop_id":"8684","from_stop_lat":"33.6803003","from_stop_lon":"-116.173894","to_stop_id":"8682","to_stop_name":"origin","to_stop_lat":"44.9799654","placename":"Coachella, CA, USA","to_stop_lon":"-93.2638361","to_stop":{"id":"8682","name":"origin","lat":"44.9799654","placename":"Minneapolis, MN, USA","lon":"-93.2638361"},"from_stop":{"name":"origin","id":"8684","lat":"33.6803003","lon":"-116.173894","placename":"Coachella, CA, USA"}},{"transport_id":"20","id":"6043","transport_name":"Road","transport_description":"from the Greenhouse Gas Protocol Initiative - GHG emission from transport or mobile sources calculator 2.0 (jun 2009)","transport_unit":"kg km","transport_co2_eq":"0.000204","from_stop_id":"8685","from_stop_lat":"43.9619062","from_stop_lon":"-93.2760439","to_stop_id":"8682","to_stop_name":"origin","to_stop_lat":"44.9799654","placename":"Hope, Somerset, MN 56046, USA","to_stop_lon":"-93.2638361","to_stop":{"id":"8682","name":"origin","lat":"44.9799654","placename":"Minneapolis, MN, USA","lon":"-93.2638361"},"from_stop":{"name":"origin","id":"8685","lat":"43.9619062","lon":"-93.2760439","placename":"Hope, Somerset, MN 56046, USA"}},{"transport_id":"19","id":"6044","transport_name":"Rail","transport_description":"from the Greenhouse Gas Protocol Initiative - GHG emission from transport or mobile sources calculator 2.0 (jun 2009)","transport_unit":"kg km","transport_co2_eq":"0.000017","from_stop_id":"8686","from_stop_lat":"36.910231","from_stop_lon":"-121.7568946","to_stop_id":"8682","to_stop_name":"origin","to_stop_lat":"44.9799654","placename":"Watsonville, CA, USA","to_stop_lon":"-93.2638361","to_stop":{"id":"8682","name":"origin","lat":"44.9799654","placename":"Minneapolis, MN, USA","lon":"-93.2638361"},"from_stop":{"name":"origin","id":"8686","lat":"36.910231","lon":"-121.7568946","placename":"Watsonville, CA, USA"}},{"transport_id":"18","id":"6045","transport_name":"Sea","transport_description":"from the Greenhouse Gas Protocol Initiative - GHG emission from transport or mobile sources calculator 2.0 (jun 2009)","transport_unit":"kg km","transport_co2_eq":"0.000222","from_stop_id":"8687","from_stop_lat":"37.7288679","from_stop_lon":"12.8897022","to_stop_id":"8682","to_stop_name":"origin","to_stop_lat":"44.9799654","placename":"91028 Partanna Trapani, Italy","to_stop_lon":"-93.2638361","to_stop":{"id":"8682","name":"origin","lat":"44.9799654","placename":"Minneapolis, MN, USA","lon":"-93.2638361"},"from_stop":{"name":"origin","id":"8687","lat":"37.7288679","lon":"12.8897022","placename":"91028 Partanna Trapani, Italy"}},{"transport_id":"18","id":"6046","transport_name":"Sea","transport_description":"from the Greenhouse Gas Protocol Initiative - GHG emission from transport or mobile sources calculator 2.0 (jun 2009)","transport_unit":"kg km","transport_co2_eq":"0.000222","from_stop_id":"8688","from_stop_lat":"20.593684","from_stop_lon":"78.96288","to_stop_id":"8682","to_stop_name":"origin","to_stop_lat":"44.9799654","placename":"India","to_stop_lon":"-93.2638361","to_stop":{"id":"8682","name":"origin","lat":"44.9799654","placename":"Minneapolis, MN, USA","lon":"-93.2638361"},"from_stop":{"name":"origin","id":"8688","lat":"20.593684","lon":"78.96288","placename":"India"}},{"transport_id":"18","id":"6047","transport_name":"Sea","transport_description":"from the Greenhouse Gas Protocol Initiative - GHG emission from transport or mobile sources calculator 2.0 (jun 2009)","transport_unit":"kg km","transport_co2_eq":"0.000222","from_stop_id":"8689","from_stop_lat":"44.543245","from_stop_lon":"6.5264736","to_stop_id":"8682","to_stop_name":"origin","to_stop_lat":"44.9799654","placename":"Roland, 05200 Saint-Sauveur, France","to_stop_lon":"-93.2638361","to_stop":{"id":"8682","name":"origin","lat":"44.9799654","placename":"Minneapolis, MN, USA","lon":"-93.2638361"},"from_stop":{"name":"origin","id":"8689","lat":"44.543245","lon":"6.5264736","placename":"Roland, 05200 Saint-Sauveur, France"}},{"transport_id":"18","id":"6048","transport_name":"Sea","transport_description":"from the Greenhouse Gas Protocol Initiative - GHG emission from transport or mobile sources calculator 2.0 (jun 2009)","transport_unit":"kg km","transport_co2_eq":"0.000222","from_stop_id":"8690","from_stop_lat":"38.963745","from_stop_lon":"35.243322","to_stop_id":"8682","to_stop_name":"origin","to_stop_lat":"44.9799654","placename":"Turkey","to_stop_lon":"-93.2638361","to_stop":{"id":"8682","name":"origin","lat":"44.9799654","placename":"Minneapolis, MN, USA","lon":"-93.2638361"},"from_stop":{"name":"origin","id":"8690","lat":"38.963745","lon":"35.243322","placename":"Turkey"}},{"transport_id":"20","id":"6049","transport_name":"Road","transport_description":"from the Greenhouse Gas Protocol Initiative - GHG emission from transport or mobile sources calculator 2.0 (jun 2009)","transport_unit":"kg km","transport_co2_eq":"0.000204","from_stop_id":"8691","from_stop_lat":"45.0419073","from_stop_lon":"-93.7891331","to_stop_id":"8682","to_stop_name":"origin","to_stop_lat":"44.9799654","placename":"Delano, MN 55328, USA","to_stop_lon":"-93.2638361","to_stop":{"id":"8682","name":"origin","lat":"44.9799654","placename":"Minneapolis, MN, USA","lon":"-93.2638361"},"from_stop":{"name":"origin","id":"8691","lat":"45.0419073","lon":"-93.7891331","placename":"Delano, MN 55328, USA"}},{"transport_id":"20","id":"6050","transport_name":"Road","transport_description":"from the Greenhouse Gas Protocol Initiative - GHG emission from transport or mobile sources calculator 2.0 (jun 2009)","transport_unit":"kg km","transport_co2_eq":"0.000204","from_stop_id":"8692","from_stop_lat":"44.0930184","from_stop_lon":"-93.2377113","to_stop_id":"8682","to_stop_name":"origin","to_stop_lat":"44.9799654","placename":"Owatonna, MN, USA","to_stop_lon":"-93.2638361","to_stop":{"id":"8682","name":"origin","lat":"44.9799654","placename":"Minneapolis, MN, USA","lon":"-93.2638361"},"from_stop":{"name":"origin","id":"8692","lat":"44.0930184","lon":"-93.2377113","placename":"Owatonna, MN, USA"}},{"transport_id":"19","id":"6051","transport_name":"Rail","transport_description":"from the Greenhouse Gas Protocol Initiative - GHG emission from transport or mobile sources calculator 2.0 (jun 2009)","transport_unit":"kg km","transport_co2_eq":"0.000017","from_stop_id":"8693","from_stop_lat":"45.53806","from_stop_lon":"-121.56722","to_stop_id":"8682","to_stop_name":"origin","to_stop_lat":"44.9799654","placename":"Mt Hood Parkdale, OR 97041, USA","to_stop_lon":"-93.2638361","to_stop":{"id":"8682","name":"origin","lat":"44.9799654","placename":"Minneapolis, MN, USA","lon":"-93.2638361"},"from_stop":{"name":"origin","id":"8693","lat":"45.53806","lon":"-121.56722","placename":"Mt Hood Parkdale, OR 97041, USA"}},{"transport_id":"19","id":"6052","transport_name":"Rail","transport_description":"from the Greenhouse Gas Protocol Initiative - GHG emission from transport or mobile sources calculator 2.0 (jun 2009)","transport_unit":"kg km","transport_co2_eq":"0.000017","from_stop_id":"8694","from_stop_lat":"36.6777372","from_stop_lon":"-121.6555013","to_stop_id":"8682","to_stop_name":"origin","to_stop_lat":"44.9799654","placename":"Salinas, CA, USA","to_stop_lon":"-93.2638361","to_stop":{"id":"8682","name":"origin","lat":"44.9799654","placename":"Minneapolis, MN, USA","lon":"-93.2638361"},"from_stop":{"name":"origin","id":"8694","lat":"36.6777372","lon":"-121.6555013","placename":"Salinas, CA, USA"}},{"transport_id":"20","id":"6053","transport_name":"Road","transport_description":"from the Greenhouse Gas Protocol Initiative - GHG emission from transport or mobile sources calculator 2.0 (jun 2009)","transport_unit":"kg km","transport_co2_eq":"0.000204","from_stop_id":"8695","from_stop_lat":"44.1319078","from_stop_lon":"-91.7187627","to_stop_id":"8682","to_stop_name":"origin","to_stop_lat":"44.9799654","placename":"Fountain City, WI, USA","to_stop_lon":"-93.2638361","to_stop":{"id":"8682","name":"origin","lat":"44.9799654","placename":"Minneapolis, MN, USA","lon":"-93.2638361"},"from_stop":{"name":"origin","id":"8695","lat":"44.1319078","lon":"-91.7187627","placename":"Fountain City, WI, USA"}}],"outgoing":[]}}},"parts":[{"oid":"152","imid":"5296","linkid":"parts\/carrots","weight":"0.057","rawemissions":"0.41","emissions":"0","shipping":"246.84","processemissions":"0","endoflifeemissions":"0","disposaltype":null,"disposalenergy":null,"disposalimpact":null,"disposalemissions":null,"description":"Harmony Valley Farm near Viroqua, Wis., which has become a center of activity in the local food movement.","name":"Parsnip","id":"5296","stops":{"origin":{"related_to":"5296","part_or_object":"p","notes":null,"placename":"Viroqua, WI 54665, USA","id":8683,"name":"origin","lat":"43.5569174","lon":"-90.8887413","hops":{"incoming":[],"outgoing":[{"transport_id":"20","id":"6041","transport_name":"Road","transport_description":"from the Greenhouse Gas Protocol Initiative - GHG emission from transport or mobile sources calculator 2.0 (jun 2009)","transport_unit":"kg km","transport_co2_eq":"0.000204","from_stop_id":"8683","from_stop_lat":"43.5569174","from_stop_lon":"-90.8887413","from_stop_placename":"Viroqua, WI 54665, USA","to_stop_id":"8682","to_stop_name":"origin","to_stop_lat":"44.9799654","to_stop_lon":"-93.2638361","to_stop_placename":"Minneapolis, MN, USA","to_stop":{"id":"8682","name":"origin","lat":"44.9799654","lon":"-93.2638361","placename":"Minneapolis, MN, USA"},"from_stop":{"name":"origin","id":"8683","lat":"43.5569174","lon":"-90.8887413","placename":"Viroqua, WI 54665, USA"}}]}}},"processes":[],"eols":[]},{"oid":"152","imid":"5297","linkid":"parts\/carrots","weight":"0.057","rawemissions":"0.41","emissions":"0","shipping":"2326.95","processemissions":"0","endoflifeemissions":"0","disposaltype":null,"disposalenergy":null,"disposalimpact":null,"disposalemissions":null,"description":"Carrots from Cal-Organic in California.","name":"Carrots","id":"5297","stops":{"origin":{"related_to":"5297","part_or_object":"p","notes":null,"placename":"Coachella, CA, USA","id":8684,"name":"origin","lat":"33.6803003","lon":"-116.173894","hops":{"incoming":[],"outgoing":[{"transport_id":"19","id":"6042","transport_name":"Rail","transport_description":"from the Greenhouse Gas Protocol Initiative - GHG emission from transport or mobile sources calculator 2.0 (jun 2009)","transport_unit":"kg km","transport_co2_eq":"0.000017","from_stop_id":"8684","from_stop_lat":"33.6803003","from_stop_lon":"-116.173894","from_stop_placename":"Coachella, CA, USA","to_stop_id":"8682","to_stop_name":"origin","to_stop_lat":"44.9799654","to_stop_lon":"-93.2638361","to_stop_placename":"Minneapolis, MN, USA","to_stop":{"id":"8682","name":"origin","lat":"44.9799654","lon":"-93.2638361","placename":"Minneapolis, MN, USA"},"from_stop":{"name":"origin","id":"8684","lat":"33.6803003","lon":"-116.173894","placename":"Coachella, CA, USA"}}]}}},"processes":[],"eols":[]},{"oid":"152","imid":"5298","linkid":"0","weight":"0.028","rawemissions":"0","emissions":"0","shipping":"113.33","processemissions":"0","endoflifeemissions":"0","disposaltype":null,"disposalenergy":null,"disposalimpact":null,"disposalemissions":null,"description":"Butter from Hope Creamery in Minnesota.","name":"Butter","id":"5298","stops":{"origin":{"related_to":"5298","part_or_object":"p","notes":null,"placename":"Hope, Somerset, MN 56046, USA","id":8685,"name":"origin","lat":"43.9619062","lon":"-93.2760439","hops":{"incoming":[],"outgoing":[{"transport_id":"20","id":"6043","transport_name":"Road","transport_description":"from the Greenhouse Gas Protocol Initiative - GHG emission from transport or mobile sources calculator 2.0 (jun 2009)","transport_unit":"kg km","transport_co2_eq":"0.000204","from_stop_id":"8685","from_stop_lat":"43.9619062","from_stop_lon":"-93.2760439","from_stop_placename":"Hope, Somerset, MN 56046, USA","to_stop_id":"8682","to_stop_name":"origin","to_stop_lat":"44.9799654","to_stop_lon":"-93.2638361","to_stop_placename":"Minneapolis, MN, USA","to_stop":{"id":"8682","name":"origin","lat":"44.9799654","lon":"-93.2638361","placename":"Minneapolis, MN, USA"},"from_stop":{"name":"origin","id":"8685","lat":"43.9619062","lon":"-93.2760439","placename":"Hope, Somerset, MN 56046, USA"}}]}}},"processes":[],"eols":[]},{"oid":"152","imid":"5299","linkid":"0","weight":"0.007","rawemissions":"0","emissions":"0","shipping":"2542.55","processemissions":"0","endoflifeemissions":"0","disposaltype":null,"disposalenergy":null,"disposalimpact":null,"disposalemissions":null,"description":"Parsley from Lakeside Organic Gardens in California.","name":"Parsley","id":"5299","stops":{"origin":{"related_to":"5299","part_or_object":"p","notes":null,"placename":"Watsonville, CA, USA","id":8686,"name":"origin","lat":"36.910231","lon":"-121.7568946","hops":{"incoming":[],"outgoing":[{"transport_id":"19","id":"6044","transport_name":"Rail","transport_description":"from the Greenhouse Gas Protocol Initiative - GHG emission from transport or mobile sources calculator 2.0 (jun 2009)","transport_unit":"kg km","transport_co2_eq":"0.000017","from_stop_id":"8686","from_stop_lat":"36.910231","from_stop_lon":"-121.7568946","from_stop_placename":"Watsonville, CA, USA","to_stop_id":"8682","to_stop_name":"origin","to_stop_lat":"44.9799654","to_stop_lon":"-93.2638361","to_stop_placename":"Minneapolis, MN, USA","to_stop":{"id":"8682","name":"origin","lat":"44.9799654","lon":"-93.2638361","placename":"Minneapolis, MN, USA"},"from_stop":{"name":"origin","id":"8686","lat":"36.910231","lon":"-121.7568946","placename":"Watsonville, CA, USA"}}]}}},"processes":[],"eols":[]},{"oid":"152","imid":"5300","linkid":"0","weight":"0.007","rawemissions":"0","emissions":"0","shipping":"8229.28","processemissions":"0","endoflifeemissions":"0","disposaltype":null,"disposalenergy":null,"disposalimpact":null,"disposalemissions":null,"description":"Olive oil from Italy.","name":"Olive oil","id":"5300","stops":{"origin":{"related_to":"5300","part_or_object":"p","notes":null,"placename":"91028 Partanna Trapani, Italy","id":8687,"name":"origin","lat":"37.7288679","lon":"12.8897022","hops":{"incoming":[],"outgoing":[{"transport_id":"18","id":"6045","transport_name":"Sea","transport_description":"from the Greenhouse Gas Protocol Initiative - GHG emission from transport or mobile sources calculator 2.0 (jun 2009)","transport_unit":"kg km","transport_co2_eq":"0.000222","from_stop_id":"8687","from_stop_lat":"37.7288679","from_stop_lon":"12.8897022","from_stop_placename":"91028 Partanna Trapani, Italy","to_stop_id":"8682","to_stop_name":"origin","to_stop_lat":"44.9799654","to_stop_lon":"-93.2638361","to_stop_placename":"Minneapolis, MN, USA","to_stop":{"id":"8682","name":"origin","lat":"44.9799654","lon":"-93.2638361","placename":"Minneapolis, MN, USA"},"from_stop":{"name":"origin","id":"8687","lat":"37.7288679","lon":"12.8897022","placename":"91028 Partanna Trapani, Italy"}}]}}},"processes":[],"eols":[]},{"oid":"152","imid":"5301","linkid":"parts\/black-and-white-pepper","weight":"0.003","rawemissions":"3.57","emissions":"0","shipping":"12695.32","processemissions":"0","endoflifeemissions":"0","disposaltype":null,"disposalenergy":null,"disposalimpact":null,"disposalemissions":null,"description":"Pepper from India.","name":"Black pepper","id":"5301","stops":{"origin":{"related_to":"5301","part_or_object":"p","notes":null,"placename":"India","id":8688,"name":"origin","lat":"20.593684","lon":"78.96288","hops":{"incoming":[],"outgoing":[{"transport_id":"18","id":"6046","transport_name":"Sea","transport_description":"from the Greenhouse Gas Protocol Initiative - GHG emission from transport or mobile sources calculator 2.0 (jun 2009)","transport_unit":"kg km","transport_co2_eq":"0.000222","from_stop_id":"8688","from_stop_lat":"20.593684","from_stop_lon":"78.96288","from_stop_placename":"India","to_stop_id":"8682","to_stop_name":"origin","to_stop_lat":"44.9799654","to_stop_lon":"-93.2638361","to_stop_placename":"Minneapolis, MN, USA","to_stop":{"id":"8682","name":"origin","lat":"44.9799654","lon":"-93.2638361","placename":"Minneapolis, MN, USA"},"from_stop":{"name":"origin","id":"8688","lat":"20.593684","lon":"78.96288","placename":"India"}}]}}},"processes":[],"eols":[]},{"oid":"152","imid":"5302","linkid":"0","weight":"0.003","rawemissions":"0","emissions":"0","shipping":"7323.6","processemissions":"0","endoflifeemissions":"0","disposaltype":null,"disposalenergy":null,"disposalimpact":null,"disposalemissions":null,"description":"Salt from Italy","name":"Salt","id":"5302","stops":{"origin":{"related_to":"5302","part_or_object":"p","notes":null,"placename":"Roland, 05200 Saint-Sauveur, France","id":8689,"name":"origin","lat":"44.543245","lon":"6.5264736","hops":{"incoming":[],"outgoing":[{"transport_id":"18","id":"6047","transport_name":"Sea","transport_description":"from the Greenhouse Gas Protocol Initiative - GHG emission from transport or mobile sources calculator 2.0 (jun 2009)","transport_unit":"kg km","transport_co2_eq":"0.000222","from_stop_id":"8689","from_stop_lat":"44.543245","from_stop_lon":"6.5264736","from_stop_placename":"Roland, 05200 Saint-Sauveur, France","to_stop_id":"8682","to_stop_name":"origin","to_stop_lat":"44.9799654","to_stop_lon":"-93.2638361","to_stop_placename":"Minneapolis, MN, USA","to_stop":{"id":"8682","name":"origin","lat":"44.9799654","lon":"-93.2638361","placename":"Minneapolis, MN, USA"},"from_stop":{"name":"origin","id":"8689","lat":"44.543245","lon":"6.5264736","placename":"Roland, 05200 Saint-Sauveur, France"}}]}}},"processes":[],"eols":[]},{"oid":"152","imid":"5303","linkid":"0","weight":"0","rawemissions":"0","emissions":"0","shipping":"9366.68","processemissions":"0","endoflifeemissions":"0","disposaltype":null,"disposalenergy":null,"disposalimpact":null,"disposalemissions":null,"description":"Bay leaf from Turkey","name":"Bay leaf","id":"5303","stops":{"origin":{"related_to":"5303","part_or_object":"p","notes":null,"placename":"Turkey","id":8690,"name":"origin","lat":"38.963745","lon":"35.243322","hops":{"incoming":[],"outgoing":[{"transport_id":"18","id":"6048","transport_name":"Sea","transport_description":"from the Greenhouse Gas Protocol Initiative - GHG emission from transport or mobile sources calculator 2.0 (jun 2009)","transport_unit":"kg km","transport_co2_eq":"0.000222","from_stop_id":"8690","from_stop_lat":"38.963745","from_stop_lon":"35.243322","from_stop_placename":"Turkey","to_stop_id":"8682","to_stop_name":"origin","to_stop_lat":"44.9799654","to_stop_lon":"-93.2638361","to_stop_placename":"Minneapolis, MN, USA","to_stop":{"id":"8682","name":"origin","lat":"44.9799654","lon":"-93.2638361","placename":"Minneapolis, MN, USA"},"from_stop":{"name":"origin","id":"8690","lat":"38.963745","lon":"35.243322","placename":"Turkey"}}]}}},"processes":[],"eols":[]},{"oid":"152","imid":"5304","linkid":"parts\/honey","weight":"0.003","rawemissions":"2.2","emissions":"0","shipping":"41.91","processemissions":"0","endoflifeemissions":"0","disposaltype":null,"disposalenergy":null,"disposalimpact":null,"disposalemissions":null,"description":"Honey from Ames Farm near Delano, Minn., a producer of honey and apples.","name":"Honey","id":"5304","stops":{"origin":{"related_to":"5304","part_or_object":"p","notes":null,"placename":"Delano, MN 55328, USA","id":8691,"name":"origin","lat":"45.0419073","lon":"-93.7891331","hops":{"incoming":[],"outgoing":[{"transport_id":"20","id":"6049","transport_name":"Road","transport_description":"from the Greenhouse Gas Protocol Initiative - GHG emission from transport or mobile sources calculator 2.0 (jun 2009)","transport_unit":"kg km","transport_co2_eq":"0.000204","from_stop_id":"8691","from_stop_lat":"45.0419073","from_stop_lon":"-93.7891331","from_stop_placename":"Delano, MN 55328, USA","to_stop_id":"8682","to_stop_name":"origin","to_stop_lat":"44.9799654","to_stop_lon":"-93.2638361","to_stop_placename":"Minneapolis, MN, USA","to_stop":{"id":"8682","name":"origin","lat":"44.9799654","lon":"-93.2638361","placename":"Minneapolis, MN, USA"},"from_stop":{"name":"origin","id":"8691","lat":"45.0419073","lon":"-93.7891331","placename":"Delano, MN 55328, USA"}}]}}},"processes":[],"eols":[]},{"oid":"152","imid":"5241","linkid":"parts\/chicken-broiler","weight":"0.255","rawemissions":"2.5","emissions":"0","shipping":"98.76","processemissions":"0","endoflifeemissions":"0","disposaltype":null,"disposalenergy":null,"disposalimpact":null,"disposalemissions":null,"description":"The chicken is from Larry Schulz, who raises poultry and eggs near Owatonna on a farm that has been in his family for several generations.","name":"Chicken","id":"5241","stops":{"origin":{"related_to":"5241","part_or_object":"p","notes":null,"placename":"Owatonna, MN, USA","id":8692,"name":"origin","lat":"44.0930184","lon":"-93.2377113","hops":{"incoming":[],"outgoing":[{"transport_id":"20","id":"6050","transport_name":"Road","transport_description":"from the Greenhouse Gas Protocol Initiative - GHG emission from transport or mobile sources calculator 2.0 (jun 2009)","transport_unit":"kg km","transport_co2_eq":"0.000204","from_stop_id":"8692","from_stop_lat":"44.0930184","from_stop_lon":"-93.2377113","from_stop_placename":"Owatonna, MN, USA","to_stop_id":"8682","to_stop_name":"origin","to_stop_lat":"44.9799654","to_stop_lon":"-93.2638361","to_stop_placename":"Minneapolis, MN, USA","to_stop":{"id":"8682","name":"origin","lat":"44.9799654","lon":"-93.2638361","placename":"Minneapolis, MN, USA"},"from_stop":{"name":"origin","id":"8692","lat":"44.0930184","lon":"-93.2377113","placename":"Owatonna, MN, USA"}}]}}},"processes":[],"eols":[]},{"oid":"152","imid":"5242","linkid":"parts\/pears","weight":"0.057","rawemissions":"0.46","emissions":"0","shipping":"2207.14","processemissions":"0","endoflifeemissions":"0","disposaltype":null,"disposalenergy":null,"disposalimpact":null,"disposalemissions":null,"description":"Schwarzman got his D'Anjou pears from Co-op Partners Warehouse, which obtained them from Mount Hood Organic Farms in Mt. Hood, Oregon.","name":"Pears","id":"5242","stops":{"origin":{"related_to":"5242","part_or_object":"p","notes":null,"placename":"Mt Hood Parkdale, OR 97041, USA","id":8693,"name":"origin","lat":"45.53806","lon":"-121.56722","hops":{"incoming":[],"outgoing":[{"transport_id":"19","id":"6051","transport_name":"Rail","transport_description":"from the Greenhouse Gas Protocol Initiative - GHG emission from transport or mobile sources calculator 2.0 (jun 2009)","transport_unit":"kg km","transport_co2_eq":"0.000017","from_stop_id":"8693","from_stop_lat":"45.53806","from_stop_lon":"-121.56722","from_stop_placename":"Mt Hood Parkdale, OR 97041, USA","to_stop_id":"8682","to_stop_name":"origin","to_stop_lat":"44.9799654","to_stop_lon":"-93.2638361","to_stop_placename":"Minneapolis, MN, USA","to_stop":{"id":"8682","name":"origin","lat":"44.9799654","lon":"-93.2638361","placename":"Minneapolis, MN, USA"},"from_stop":{"name":"origin","id":"8693","lat":"45.53806","lon":"-121.56722","placename":"Mt Hood Parkdale, OR 97041, USA"}}]}}},"processes":[],"eols":[]},{"oid":"152","imid":"5243","linkid":"parts\/spinach","weight":"0.028","rawemissions":"0.96","emissions":"0","shipping":"2547.61","processemissions":"0","endoflifeemissions":"0","disposaltype":null,"disposalenergy":null,"disposalimpact":null,"disposalemissions":null,"description":"Taylor Farms in Salinas California.","name":"Spinach","id":"5243","stops":{"origin":{"related_to":"5243","part_or_object":"p","notes":null,"placename":"Salinas, CA, USA","id":8694,"name":"origin","lat":"36.6777372","lon":"-121.6555013","hops":{"incoming":[],"outgoing":[{"transport_id":"19","id":"6052","transport_name":"Rail","transport_description":"from the Greenhouse Gas Protocol Initiative - GHG emission from transport or mobile sources calculator 2.0 (jun 2009)","transport_unit":"kg km","transport_co2_eq":"0.000017","from_stop_id":"8694","from_stop_lat":"36.6777372","from_stop_lon":"-121.6555013","from_stop_placename":"Salinas, CA, USA","to_stop_id":"8682","to_stop_name":"origin","to_stop_lat":"44.9799654","to_stop_lon":"-93.2638361","to_stop_placename":"Minneapolis, MN, USA","to_stop":{"id":"8682","name":"origin","lat":"44.9799654","lon":"-93.2638361","placename":"Minneapolis, MN, USA"},"from_stop":{"name":"origin","id":"8694","lat":"36.6777372","lon":"-121.6555013","placename":"Salinas, CA, USA"}}]}}},"processes":[],"eols":[]},{"oid":"152","imid":"5305","linkid":"parts\/wine-grapes","weight":"0.043","rawemissions":"0.44","emissions":"0","shipping":"154.7","processemissions":"0","endoflifeemissions":"0","disposaltype":null,"disposalenergy":null,"disposalimpact":null,"disposalemissions":null,"description":"Wine from Seven Hawks Vineyard in the Mississippi River Valley near Winona, Minn.","name":"White wine","id":"5305","stops":{"origin":{"related_to":"5305","part_or_object":"p","notes":null,"placename":"Fountain City, WI, USA","id":8695,"name":"origin","lat":"44.1319078","lon":"-91.7187627","hops":{"incoming":[],"outgoing":[{"transport_id":"20","id":"6053","transport_name":"Road","transport_description":"from the Greenhouse Gas Protocol Initiative - GHG emission from transport or mobile sources calculator 2.0 (jun 2009)","transport_unit":"kg km","transport_co2_eq":"0.000204","from_stop_id":"8695","from_stop_lat":"44.1319078","from_stop_lon":"-91.7187627","from_stop_placename":"Fountain City, WI, USA","to_stop_id":"8682","to_stop_name":"origin","to_stop_lat":"44.9799654","to_stop_lon":"-93.2638361","to_stop_placename":"Minneapolis, MN, USA","to_stop":{"id":"8682","name":"origin","lat":"44.9799654","lon":"-93.2638361","placename":"Minneapolis, MN, USA"},"from_stop":{"name":"origin","id":"8695","lat":"44.1319078","lon":"-91.7187627","placename":"Fountain City, WI, USA"}}]}}},"processes":[],"eols":[]}],"user":{"name":"dpeters","id":"11440"}}}