{"1529":{"oid":"1529","type":"food","flag":"","creator":"1","name":"bolognese","upc":"","imagelink":"","description":"","slug":"bolognese","category":"","weight":"1.55","emissions":"3.27281","embodied":"3.0665","transport":"0.206311","process":"0","endoflife":"0","shipping":"17803.3","lifetime":null,"usagetype":"","usageenergy":null,"usageemissions":null,"timecreated":"2010-02-24 22:03:35.859326","timemodified":"2009-10-30 21:41:15","visibility":"private","showfootprint":"on","showembodied":"on","showtransport":"on","showprocess":"on","showendoflife":"on","showlastleg":"on","showuse":"on","showstats":"on","stops":{"origin":{"related_to":"1529","part_or_object":"o","notes":"","placename":"Cambridge, MA, USA","id":"270","category":"1","lat":"42.3750969","lon":"-71.1056079","name":"origin","hops":{"incoming":[{"transport_id":"9","id":"1030","transport_name":"container ship","transport_description":"moving boxcar size containers","transport_unit":"kg km","transport_co2_eq":"0.047800","from_stop_id":"3283","from_stop_lat":"40.8400969","from_stop_lon":"14.2516357","to_stop_id":"270","to_stop_name":"origin","to_stop_lat":"42.3750969","placename":"Naples, Italy","to_stop_lon":"-71.1056079","to_stop":{"id":"270","name":"origin","lat":"42.3750969","placename":"Cambridge, MA, USA","lon":"-71.1056079"},"from_stop":{"name":"origin","id":"3283","lat":"40.8400969","lon":"14.2516357","placename":"Naples, Italy"}},{"transport_id":"3","id":"1031","transport_name":"truck, 40 tons","transport_description":"truck, half full","transport_unit":"kg km","transport_co2_eq":"0.030900","from_stop_id":"3284","from_stop_lat":"36.778261","from_stop_lon":"-119.4179324","to_stop_id":"270","to_stop_name":"origin","to_stop_lat":"42.3750969","placename":"California, USA","to_stop_lon":"-71.1056079","to_stop":{"id":"270","name":"origin","lat":"42.3750969","placename":"Cambridge, MA, USA","lon":"-71.1056079"},"from_stop":{"name":"origin","id":"3284","lat":"36.778261","lon":"-119.4179324","placename":"California, USA"}},{"transport_id":"3","id":"1032","transport_name":"truck, 40 tons","transport_description":"truck, half full","transport_unit":"kg km","transport_co2_eq":"0.030900","from_stop_id":"3285","from_stop_lat":"36.778261","from_stop_lon":"-119.4179324","to_stop_id":"270","to_stop_name":"origin","to_stop_lat":"42.3750969","placename":"California, USA","to_stop_lon":"-71.1056079","to_stop":{"id":"270","name":"origin","lat":"42.3750969","placename":"Cambridge, MA, USA","lon":"-71.1056079"},"from_stop":{"name":"origin","id":"3285","lat":"36.778261","lon":"-119.4179324","placename":"California, USA"}},{"transport_id":"3","id":"1033","transport_name":"truck, 40 tons","transport_description":"truck, half full","transport_unit":"kg km","transport_co2_eq":"0.030900","from_stop_id":"3286","from_stop_lat":"32.2176855","from_stop_lon":"-82.4134614","to_stop_id":"270","to_stop_name":"origin","to_stop_lat":"42.3750969","placename":"Vidalia, GA, USA","to_stop_lon":"-71.1056079","to_stop":{"id":"270","name":"origin","lat":"42.3750969","placename":"Cambridge, MA, USA","lon":"-71.1056079"},"from_stop":{"name":"origin","id":"3286","lat":"32.2176855","lon":"-82.4134614","placename":"Vidalia, GA, USA"}},{"transport_id":"17","id":"1029","transport_name":"None Selected","transport_description":null,"transport_unit":"kg km","transport_co2_eq":"0.000000","from_stop_id":"3282","from_stop_lat":"45.253783","from_stop_lon":"-69.4454689","to_stop_id":"270","to_stop_name":"origin","to_stop_lat":"42.3750969","placename":"Maine, USA","to_stop_lon":"-71.1056079","to_stop":{"id":"270","name":"origin","lat":"42.3750969","placename":"Cambridge, MA, USA","lon":"-71.1056079"},"from_stop":{"name":"origin","id":"3282","lat":"45.253783","lon":"-69.4454689","placename":"Maine, USA"}},{"transport_id":"17","id":"1034","transport_name":"None Selected","transport_description":null,"transport_unit":"kg km","transport_co2_eq":"0.000000","from_stop_id":"3287","from_stop_lat":"38.5976262","from_stop_lon":"-80.4549026","to_stop_id":"270","to_stop_name":"origin","to_stop_lat":"42.3750969","placename":"West Virginia, USA","to_stop_lon":"-71.1056079","to_stop":{"id":"270","name":"origin","lat":"42.3750969","placename":"Cambridge, MA, USA","lon":"-71.1056079"},"from_stop":{"name":"origin","id":"3287","lat":"38.5976262","lon":"-80.4549026","placename":"West Virginia, USA"}}],"outgoing":[]}}},"parts":[{"oid":"1529","imid":"1223","linkid":"parts\/beef-top-round-conventional","weight":"0.45","rawemissions":"4.37","emissions":"1.9665","shipping":"347.07","processemissions":null,"endoflifeemissions":null,"disposaltype":null,"disposalenergy":null,"disposalimpact":null,"disposalemissions":null,"description":"according to Danish averages","name":"Conventional Ground Beef","id":"1223","stops":{"origin":{"related_to":"1223","part_or_object":"p","notes":"","placename":"Maine, USA","id":3282,"name":"origin","lat":"45.253783","lon":"-69.4454689","hops":{"incoming":[],"outgoing":[{"transport_id":"17","id":"1029","transport_name":"None Selected","transport_description":null,"transport_unit":"kg km","transport_co2_eq":"0.000000","from_stop_id":"3282","from_stop_lat":"45.253783","from_stop_lon":"-69.4454689","from_stop_placename":"Maine, USA","to_stop_id":"270","to_stop_name":"origin","to_stop_lat":"42.3750969","to_stop_lon":"-71.1056079","to_stop_placename":"Cambridge, MA, USA","to_stop":{"id":"270","name":"origin","lat":"42.3750969","lon":"-71.1056079","placename":"Cambridge, MA, USA"},"from_stop":{"name":"origin","id":"3282","lat":"45.253783","lon":"-69.4454689","placename":"Maine, USA"}}]}}},"processes":[],"eols":[]},{"oid":"1529","imid":"1224","linkid":"","weight":"0.45","rawemissions":"1","emissions":"0.45","shipping":"6781.89","processemissions":null,"endoflifeemissions":null,"disposaltype":null,"disposalenergy":null,"disposalimpact":null,"disposalemissions":null,"description":"","name":"San Marzano Tomatoes","id":"1224","stops":{"origin":{"related_to":"1224","part_or_object":"p","notes":"","placename":"Naples, Italy","id":3283,"name":"origin","lat":"40.8400969","lon":"14.2516357","hops":{"incoming":[],"outgoing":[{"transport_id":"9","id":"1030","transport_name":"container ship","transport_description":"moving boxcar size containers","transport_unit":"kg km","transport_co2_eq":"0.047800","from_stop_id":"3283","from_stop_lat":"40.8400969","from_stop_lon":"14.2516357","from_stop_placename":"Naples, Italy","to_stop_id":"270","to_stop_name":"origin","to_stop_lat":"42.3750969","to_stop_lon":"-71.1056079","to_stop_placename":"Cambridge, MA, USA","to_stop":{"id":"270","name":"origin","lat":"42.3750969","lon":"-71.1056079","placename":"Cambridge, MA, USA"},"from_stop":{"name":"origin","id":"3283","lat":"40.8400969","lon":"14.2516357","placename":"Naples, Italy"}}]}}},"processes":[],"eols":[]},{"oid":"1529","imid":"1225","linkid":"","weight":"0.2","rawemissions":"1","emissions":"0.2","shipping":"4135.57","processemissions":null,"endoflifeemissions":null,"disposaltype":null,"disposalenergy":null,"disposalimpact":null,"disposalemissions":null,"description":"","name":"Carrots","id":"1225","stops":{"origin":{"related_to":"1225","part_or_object":"p","notes":"","placename":"California, USA","id":3284,"name":"origin","lat":"36.778261","lon":"-119.4179324","hops":{"incoming":[],"outgoing":[{"transport_id":"3","id":"1031","transport_name":"truck, 40 tons","transport_description":"truck, half full","transport_unit":"kg km","transport_co2_eq":"0.030900","from_stop_id":"3284","from_stop_lat":"36.778261","from_stop_lon":"-119.4179324","from_stop_placename":"California, USA","to_stop_id":"270","to_stop_name":"origin","to_stop_lat":"42.3750969","to_stop_lon":"-71.1056079","to_stop_placename":"Cambridge, MA, USA","to_stop":{"id":"270","name":"origin","lat":"42.3750969","lon":"-71.1056079","placename":"Cambridge, MA, USA"},"from_stop":{"name":"origin","id":"3284","lat":"36.778261","lon":"-119.4179324","placename":"California, USA"}}]}}},"processes":[],"eols":[]},{"oid":"1529","imid":"1226","linkid":"","weight":"0.2","rawemissions":"1","emissions":"0.2","shipping":"4135.57","processemissions":null,"endoflifeemissions":null,"disposaltype":null,"disposalenergy":null,"disposalimpact":null,"disposalemissions":null,"description":"","name":"Celery","id":"1226","stops":{"origin":{"related_to":"1226","part_or_object":"p","notes":"","placename":"California, USA","id":3285,"name":"origin","lat":"36.778261","lon":"-119.4179324","hops":{"incoming":[],"outgoing":[{"transport_id":"3","id":"1032","transport_name":"truck, 40 tons","transport_description":"truck, half full","transport_unit":"kg km","transport_co2_eq":"0.030900","from_stop_id":"3285","from_stop_lat":"36.778261","from_stop_lon":"-119.4179324","from_stop_placename":"California, USA","to_stop_id":"270","to_stop_name":"origin","to_stop_lat":"42.3750969","to_stop_lon":"-71.1056079","to_stop_placename":"Cambridge, MA, USA","to_stop":{"id":"270","name":"origin","lat":"42.3750969","lon":"-71.1056079","placename":"Cambridge, MA, USA"},"from_stop":{"name":"origin","id":"3285","lat":"36.778261","lon":"-119.4179324","placename":"California, USA"}}]}}},"processes":[],"eols":[]},{"oid":"1529","imid":"1227","linkid":"","weight":"0.2","rawemissions":"1","emissions":"0.2","shipping":"1507.6","processemissions":null,"endoflifeemissions":null,"disposaltype":null,"disposalenergy":null,"disposalimpact":null,"disposalemissions":null,"description":"","name":"Vidalia Onion","id":"1227","stops":{"origin":{"related_to":"1227","part_or_object":"p","notes":"","placename":"Vidalia, GA, USA","id":3286,"name":"origin","lat":"32.2176855","lon":"-82.4134614","hops":{"incoming":[],"outgoing":[{"transport_id":"3","id":"1033","transport_name":"truck, 40 tons","transport_description":"truck, half full","transport_unit":"kg km","transport_co2_eq":"0.030900","from_stop_id":"3286","from_stop_lat":"32.2176855","from_stop_lon":"-82.4134614","from_stop_placename":"Vidalia, GA, USA","to_stop_id":"270","to_stop_name":"origin","to_stop_lat":"42.3750969","to_stop_lon":"-71.1056079","to_stop_placename":"Cambridge, MA, USA","to_stop":{"id":"270","name":"origin","lat":"42.3750969","lon":"-71.1056079","placename":"Cambridge, MA, USA"},"from_stop":{"name":"origin","id":"3286","lat":"32.2176855","lon":"-82.4134614","placename":"Vidalia, GA, USA"}}]}}},"processes":[],"eols":[]},{"oid":"1529","imid":"1228","linkid":"","weight":"0.05","rawemissions":"1","emissions":"0.05","shipping":"895.59","processemissions":null,"endoflifeemissions":null,"disposaltype":null,"disposalenergy":null,"disposalimpact":null,"disposalemissions":null,"description":"","name":"Garlic","id":"1228","stops":{"origin":{"related_to":"1228","part_or_object":"p","notes":"","placename":"West Virginia, USA","id":3287,"name":"origin","lat":"38.5976262","lon":"-80.4549026","hops":{"incoming":[],"outgoing":[{"transport_id":"17","id":"1034","transport_name":"None Selected","transport_description":null,"transport_unit":"kg km","transport_co2_eq":"0.000000","from_stop_id":"3287","from_stop_lat":"38.5976262","from_stop_lon":"-80.4549026","from_stop_placename":"West Virginia, USA","to_stop_id":"270","to_stop_name":"origin","to_stop_lat":"42.3750969","to_stop_lon":"-71.1056079","to_stop_placename":"Cambridge, MA, USA","to_stop":{"id":"270","name":"origin","lat":"42.3750969","lon":"-71.1056079","placename":"Cambridge, MA, USA"},"from_stop":{"name":"origin","id":"3287","lat":"38.5976262","lon":"-80.4549026","placename":"West Virginia, USA"}}]}}},"processes":[],"eols":[]}],"user":{"name":"leo","id":"1"}}}