{"153":{"oid":"153","type":"object","flag":"","creator":"1","name":"Local Produce at Craigie on Main","upc":"","imagelink":"","description":"","slug":"local-produce-at-craigie-on-main","category":"","weight":"0","emissions":"0","embodied":"0","transport":"0","process":"0","endoflife":"0","shipping":"1108.17","lifetime":"0","usagetype":"","usageenergy":"0","usageemissions":"0","timecreated":"2010-02-24 22:03:35.414734","timemodified":"2009-04-02 20:45:08","visibility":"public","showfootprint":"on","showembodied":"on","showtransport":"on","showprocess":"on","showendoflife":"on","showlastleg":"on","showuse":"on","showstats":"on","stops":{"origin":{"related_to":"153","part_or_object":"o","notes":"","placename":"Cambridge MA","id":"19","category":"1","lat":"42.375392","lon":"-71.118487","name":"origin","hops":{"incoming":[{"transport_id":"1","id":"295","transport_name":"van, 3.5 tons","transport_description":"delivery van, half full","transport_unit":"kg km","transport_co2_eq":"0.053400","from_stop_id":"2474","from_stop_lat":"44.636391","from_stop_lon":"-72.373756","to_stop_id":"19","to_stop_name":"origin","to_stop_lat":"42.375392","placename":"Craftsbury VT","to_stop_lon":"-71.118487","to_stop":{"id":"19","name":"origin","lat":"42.375392","placename":"Cambridge MA","lon":"-71.118487"},"from_stop":{"name":"origin","id":"2474","lat":"44.636391","lon":"-72.373756","placename":"Craftsbury VT"}},{"transport_id":"17","id":"293","transport_name":"None Selected","transport_description":null,"transport_unit":"kg km","transport_co2_eq":"0.000000","from_stop_id":"2472","from_stop_lat":"43.277309","from_stop_lon":"-72.696198","to_stop_id":"19","to_stop_name":"origin","to_stop_lat":"42.375392","placename":"Andover VT","to_stop_lon":"-71.118487","to_stop":{"id":"19","name":"origin","lat":"42.375392","placename":"Cambridge MA","lon":"-71.118487"},"from_stop":{"name":"origin","id":"2472","lat":"43.277309","lon":"-72.696198","placename":"Andover VT"}},{"transport_id":"17","id":"294","transport_name":"None Selected","transport_description":null,"transport_unit":"kg km","transport_co2_eq":"0.000000","from_stop_id":"2473","from_stop_lat":"42.396449","from_stop_lon":"-71.177958","to_stop_id":"19","to_stop_name":"origin","to_stop_lat":"42.375392","placename":"Belmont MA","to_stop_lon":"-71.118487","to_stop":{"id":"19","name":"origin","lat":"42.375392","placename":"Cambridge MA","lon":"-71.118487"},"from_stop":{"name":"origin","id":"2473","lat":"42.396449","lon":"-71.177958","placename":"Belmont MA"}},{"transport_id":"17","id":"281","transport_name":"None Selected","transport_description":null,"transport_unit":"kg km","transport_co2_eq":"0.000000","from_stop_id":"2460","from_stop_lat":"42.4527187","from_stop_lon":"-71.3705616","to_stop_id":"19","to_stop_name":"origin","to_stop_lat":"42.375392","placename":"Concord MA","to_stop_lon":"-71.118487","to_stop":{"id":"19","name":"origin","lat":"42.375392","placename":"Cambridge MA","lon":"-71.118487"},"from_stop":{"name":"origin","id":"2460","lat":"42.4527187","lon":"-71.3705616","placename":"Concord MA"}},{"transport_id":"17","id":"282","transport_name":"None Selected","transport_description":null,"transport_unit":"kg km","transport_co2_eq":"0.000000","from_stop_id":"2461","from_stop_lat":"42.32647","from_stop_lon":"-71.14257","to_stop_id":"19","to_stop_name":"origin","to_stop_lat":"42.375392","placename":"Brookline MA","to_stop_lon":"-71.118487","to_stop":{"id":"19","name":"origin","lat":"42.375392","placename":"Cambridge MA","lon":"-71.118487"},"from_stop":{"name":"origin","id":"2461","lat":"42.32647","lon":"-71.14257","placename":"Brookline MA"}},{"transport_id":"17","id":"283","transport_name":"None Selected","transport_description":null,"transport_unit":"kg km","transport_co2_eq":"0.000000","from_stop_id":"2462","from_stop_lat":"41.7187944","from_stop_lon":"-70.5978846","to_stop_id":"19","to_stop_name":"origin","to_stop_lat":"42.375392","placename":"Bourne MA","to_stop_lon":"-71.118487","to_stop":{"id":"19","name":"origin","lat":"42.375392","placename":"Cambridge MA","lon":"-71.118487"},"from_stop":{"name":"origin","id":"2462","lat":"41.7187944","lon":"-70.5978846","placename":"Bourne MA"}},{"transport_id":"17","id":"284","transport_name":"None Selected","transport_description":null,"transport_unit":"kg km","transport_co2_eq":"0.000000","from_stop_id":"2463","from_stop_lat":"42.2592911","from_stop_lon":"-71.4655565","to_stop_id":"19","to_stop_name":"origin","to_stop_lat":"42.375392","placename":"Ashland MA","to_stop_lon":"-71.118487","to_stop":{"id":"19","name":"origin","lat":"42.375392","placename":"Cambridge MA","lon":"-71.118487"},"from_stop":{"name":"origin","id":"2463","lat":"42.2592911","lon":"-71.4655565","placename":"Ashland MA"}},{"transport_id":"17","id":"285","transport_name":"None Selected","transport_description":null,"transport_unit":"kg km","transport_co2_eq":"0.000000","from_stop_id":"2464","from_stop_lat":"41.591363","from_stop_lon":"-70.94304","to_stop_id":"19","to_stop_name":"origin","to_stop_lat":"42.375392","placename":"South Dartmouth MA","to_stop_lon":"-71.118487","to_stop":{"id":"19","name":"origin","lat":"42.375392","placename":"Cambridge MA","lon":"-71.118487"},"from_stop":{"name":"origin","id":"2464","lat":"41.591363","lon":"-70.94304","placename":"South Dartmouth MA"}},{"transport_id":"17","id":"286","transport_name":"None Selected","transport_description":null,"transport_unit":"kg km","transport_co2_eq":"0.000000","from_stop_id":"2465","from_stop_lat":"41.9442","from_stop_lon":"-70.02914","to_stop_id":"19","to_stop_name":"origin","to_stop_lat":"42.375392","placename":"Wellfleet MA","to_stop_lon":"-71.118487","to_stop":{"id":"19","name":"origin","lat":"42.375392","placename":"Cambridge MA","lon":"-71.118487"},"from_stop":{"name":"origin","id":"2465","lat":"41.9442","lon":"-70.02914","placename":"Wellfleet MA"}},{"transport_id":"17","id":"287","transport_name":"None Selected","transport_description":null,"transport_unit":"kg km","transport_co2_eq":"0.000000","from_stop_id":"2466","from_stop_lat":"42.384659","from_stop_lon":"-71.4180622","to_stop_id":"19","to_stop_name":"origin","to_stop_lat":"42.375392","placename":"Sudbury, MA","to_stop_lon":"-71.118487","to_stop":{"id":"19","name":"origin","lat":"42.375392","placename":"Cambridge MA","lon":"-71.118487"},"from_stop":{"name":"origin","id":"2466","lat":"42.384659","lon":"-71.4180622","placename":"Sudbury, MA"}},{"transport_id":"17","id":"288","transport_name":"None Selected","transport_description":null,"transport_unit":"kg km","transport_co2_eq":"0.000000","from_stop_id":"2467","from_stop_lat":"42.8471108","from_stop_lon":"-71.4655565","to_stop_id":"19","to_stop_name":"origin","to_stop_lat":"42.375392","placename":"Litchfield NH","to_stop_lon":"-71.118487","to_stop":{"id":"19","name":"origin","lat":"42.375392","placename":"Cambridge MA","lon":"-71.118487"},"from_stop":{"name":"origin","id":"2467","lat":"42.8471108","lon":"-71.4655565","placename":"Litchfield NH"}},{"transport_id":"17","id":"289","transport_name":"None Selected","transport_description":null,"transport_unit":"kg km","transport_co2_eq":"0.000000","from_stop_id":"2468","from_stop_lat":"42.08718","from_stop_lon":"-71.41149","to_stop_id":"19","to_stop_name":"origin","to_stop_lat":"42.375392","placename":"Franklin MA","to_stop_lon":"-71.118487","to_stop":{"id":"19","name":"origin","lat":"42.375392","placename":"Cambridge MA","lon":"-71.118487"},"from_stop":{"name":"origin","id":"2468","lat":"42.08718","lon":"-71.41149","placename":"Franklin MA"}},{"transport_id":"17","id":"290","transport_name":"None Selected","transport_description":null,"transport_unit":"kg km","transport_co2_eq":"0.000000","from_stop_id":"2469","from_stop_lat":"42.08718","from_stop_lon":"-71.41149","to_stop_id":"19","to_stop_name":"origin","to_stop_lat":"42.375392","placename":"Franklin MA","to_stop_lon":"-71.118487","to_stop":{"id":"19","name":"origin","lat":"42.375392","placename":"Cambridge MA","lon":"-71.118487"},"from_stop":{"name":"origin","id":"2469","lat":"42.08718","lon":"-71.41149","placename":"Franklin MA"}},{"transport_id":"17","id":"291","transport_name":"None Selected","transport_description":null,"transport_unit":"kg km","transport_co2_eq":"0.000000","from_stop_id":"2470","from_stop_lat":"43.277309","from_stop_lon":"-72.696198","to_stop_id":"19","to_stop_name":"origin","to_stop_lat":"42.375392","placename":"Andover VT","to_stop_lon":"-71.118487","to_stop":{"id":"19","name":"origin","lat":"42.375392","placename":"Cambridge MA","lon":"-71.118487"},"from_stop":{"name":"origin","id":"2470","lat":"43.277309","lon":"-72.696198","placename":"Andover VT"}},{"transport_id":"17","id":"292","transport_name":"None Selected","transport_description":null,"transport_unit":"kg km","transport_co2_eq":"0.000000","from_stop_id":"2471","from_stop_lat":"42.35892","from_stop_lon":"-71.05781","to_stop_id":"19","to_stop_name":"origin","to_stop_lat":"42.375392","placename":"Boston MA","to_stop_lon":"-71.118487","to_stop":{"id":"19","name":"origin","lat":"42.375392","placename":"Cambridge MA","lon":"-71.118487"},"from_stop":{"name":"origin","id":"2471","lat":"42.35892","lon":"-71.05781","placename":"Boston MA"}}],"outgoing":[]}}},"parts":[{"oid":"153","imid":"333","linkid":"","weight":"0","rawemissions":"0","emissions":"0","shipping":"22.43","processemissions":null,"endoflifeemissions":null,"disposaltype":null,"disposalenergy":null,"disposalimpact":null,"disposalemissions":null,"description":"Verrill Farm","name":"Vegetables and Fruit ","id":"333","stops":{"origin":{"related_to":"333","part_or_object":"p","notes":"","placename":"Concord MA","id":2460,"name":"origin","lat":"42.4527187","lon":"-71.3705616","hops":{"incoming":[],"outgoing":[{"transport_id":"17","id":"281","transport_name":"None Selected","transport_description":null,"transport_unit":"kg km","transport_co2_eq":"0.000000","from_stop_id":"2460","from_stop_lat":"42.4527187","from_stop_lon":"-71.3705616","from_stop_placename":"Concord MA","to_stop_id":"19","to_stop_name":"origin","to_stop_lat":"42.375392","to_stop_lon":"-71.118487","to_stop_placename":"Cambridge MA","to_stop":{"id":"19","name":"origin","lat":"42.375392","lon":"-71.118487","placename":"Cambridge MA"},"from_stop":{"name":"origin","id":"2460","lat":"42.4527187","lon":"-71.3705616","placename":"Concord MA"}}]}}},"processes":[],"eols":[]},{"oid":"153","imid":"334","linkid":"","weight":"0","rawemissions":"0","emissions":"0","shipping":"5.8","processemissions":null,"endoflifeemissions":null,"disposaltype":null,"disposalenergy":null,"disposalimpact":null,"disposalemissions":null,"description":"Allandale Farm","name":"Vegetables ","id":"334","stops":{"origin":{"related_to":"334","part_or_object":"p","notes":"","placename":"Brookline MA","id":2461,"name":"origin","lat":"42.32647","lon":"-71.14257","hops":{"incoming":[],"outgoing":[{"transport_id":"17","id":"282","transport_name":"None Selected","transport_description":null,"transport_unit":"kg km","transport_co2_eq":"0.000000","from_stop_id":"2461","from_stop_lat":"42.32647","from_stop_lon":"-71.14257","from_stop_placename":"Brookline MA","to_stop_id":"19","to_stop_name":"origin","to_stop_lat":"42.375392","to_stop_lon":"-71.118487","to_stop_placename":"Cambridge MA","to_stop":{"id":"19","name":"origin","lat":"42.375392","lon":"-71.118487","placename":"Cambridge MA"},"from_stop":{"name":"origin","id":"2461","lat":"42.32647","lon":"-71.14257","placename":"Brookline MA"}}]}}},"processes":[],"eols":[]},{"oid":"153","imid":"335","linkid":"","weight":"0","rawemissions":"0","emissions":"0","shipping":"84.82","processemissions":null,"endoflifeemissions":null,"disposaltype":null,"disposalenergy":null,"disposalimpact":null,"disposalemissions":null,"description":"Bay End Farm","name":"Vegetables and Flowers","id":"335","stops":{"origin":{"related_to":"335","part_or_object":"p","notes":"","placename":"Bourne MA","id":2462,"name":"origin","lat":"41.7187944","lon":"-70.5978846","hops":{"incoming":[],"outgoing":[{"transport_id":"17","id":"283","transport_name":"None Selected","transport_description":null,"transport_unit":"kg km","transport_co2_eq":"0.000000","from_stop_id":"2462","from_stop_lat":"41.7187944","from_stop_lon":"-70.5978846","from_stop_placename":"Bourne MA","to_stop_id":"19","to_stop_name":"origin","to_stop_lat":"42.375392","to_stop_lon":"-71.118487","to_stop_placename":"Cambridge MA","to_stop":{"id":"19","name":"origin","lat":"42.375392","lon":"-71.118487","placename":"Cambridge MA"},"from_stop":{"name":"origin","id":"2462","lat":"41.7187944","lon":"-70.5978846","placename":"Bourne MA"}}]}}},"processes":[],"eols":[]},{"oid":"153","imid":"336","linkid":"","weight":"0","rawemissions":"0","emissions":"0","shipping":"31.36","processemissions":null,"endoflifeemissions":null,"disposaltype":null,"disposalenergy":null,"disposalimpact":null,"disposalemissions":null,"description":"Pio Angelini","name":"Berries","id":"336","stops":{"origin":{"related_to":"336","part_or_object":"p","notes":"","placename":"Ashland MA","id":2463,"name":"origin","lat":"42.2592911","lon":"-71.4655565","hops":{"incoming":[],"outgoing":[{"transport_id":"17","id":"284","transport_name":"None Selected","transport_description":null,"transport_unit":"kg km","transport_co2_eq":"0.000000","from_stop_id":"2463","from_stop_lat":"42.2592911","from_stop_lon":"-71.4655565","from_stop_placename":"Ashland MA","to_stop_id":"19","to_stop_name":"origin","to_stop_lat":"42.375392","to_stop_lon":"-71.118487","to_stop_placename":"Cambridge MA","to_stop":{"id":"19","name":"origin","lat":"42.375392","lon":"-71.118487","placename":"Cambridge MA"},"from_stop":{"name":"origin","id":"2463","lat":"42.2592911","lon":"-71.4655565","placename":"Ashland MA"}}]}}},"processes":[],"eols":[]},{"oid":"153","imid":"337","linkid":"","weight":"0","rawemissions":"0","emissions":"0","shipping":"88.48","processemissions":null,"endoflifeemissions":null,"disposaltype":null,"disposalenergy":null,"disposalimpact":null,"disposalemissions":null,"description":"Evas Garden","name":"Specialty Herbs, Flowers and Wild Leaves","id":"337","stops":{"origin":{"related_to":"337","part_or_object":"p","notes":"","placename":"South Dartmouth MA","id":2464,"name":"origin","lat":"41.591363","lon":"-70.94304","hops":{"incoming":[],"outgoing":[{"transport_id":"17","id":"285","transport_name":"None Selected","transport_description":null,"transport_unit":"kg km","transport_co2_eq":"0.000000","from_stop_id":"2464","from_stop_lat":"41.591363","from_stop_lon":"-70.94304","from_stop_placename":"South Dartmouth MA","to_stop_id":"19","to_stop_name":"origin","to_stop_lat":"42.375392","to_stop_lon":"-71.118487","to_stop_placename":"Cambridge MA","to_stop":{"id":"19","name":"origin","lat":"42.375392","lon":"-71.118487","placename":"Cambridge MA"},"from_stop":{"name":"origin","id":"2464","lat":"41.591363","lon":"-70.94304","placename":"South Dartmouth MA"}}]}}},"processes":[],"eols":[]},{"oid":"153","imid":"338","linkid":"","weight":"0","rawemissions":"0","emissions":"0","shipping":"101.9","processemissions":null,"endoflifeemissions":null,"disposaltype":null,"disposalenergy":null,"disposalimpact":null,"disposalemissions":null,"description":"Pat Woodbury","name":"Shellfish","id":"338","stops":{"origin":{"related_to":"338","part_or_object":"p","notes":"","placename":"Wellfleet MA","id":2465,"name":"origin","lat":"41.9442","lon":"-70.02914","hops":{"incoming":[],"outgoing":[{"transport_id":"17","id":"286","transport_name":"None Selected","transport_description":null,"transport_unit":"kg km","transport_co2_eq":"0.000000","from_stop_id":"2465","from_stop_lat":"41.9442","from_stop_lon":"-70.02914","from_stop_placename":"Wellfleet MA","to_stop_id":"19","to_stop_name":"origin","to_stop_lat":"42.375392","to_stop_lon":"-71.118487","to_stop_placename":"Cambridge MA","to_stop":{"id":"19","name":"origin","lat":"42.375392","lon":"-71.118487","placename":"Cambridge MA"},"from_stop":{"name":"origin","id":"2465","lat":"41.9442","lon":"-70.02914","placename":"Wellfleet MA"}}]}}},"processes":[],"eols":[]},{"oid":"153","imid":"339","linkid":"","weight":"0","rawemissions":"0","emissions":"0","shipping":"24.66","processemissions":null,"endoflifeemissions":null,"disposaltype":null,"disposalenergy":null,"disposalimpact":null,"disposalemissions":null,"description":"","name":"Siena Farms","id":"339","stops":{"origin":{"related_to":"339","part_or_object":"p","notes":"","placename":"Sudbury, MA","id":2466,"name":"origin","lat":"42.384659","lon":"-71.4180622","hops":{"incoming":[],"outgoing":[{"transport_id":"17","id":"287","transport_name":"None Selected","transport_description":null,"transport_unit":"kg km","transport_co2_eq":"0.000000","from_stop_id":"2466","from_stop_lat":"42.384659","from_stop_lon":"-71.4180622","from_stop_placename":"Sudbury, MA","to_stop_id":"19","to_stop_name":"origin","to_stop_lat":"42.375392","to_stop_lon":"-71.118487","to_stop_placename":"Cambridge MA","to_stop":{"id":"19","name":"origin","lat":"42.375392","lon":"-71.118487","placename":"Cambridge MA"},"from_stop":{"name":"origin","id":"2466","lat":"42.384659","lon":"-71.4180622","placename":"Sudbury, MA"}}]}}},"processes":[],"eols":[]},{"oid":"153","imid":"340","linkid":"","weight":"0","rawemissions":"0","emissions":"0","shipping":"59.72","processemissions":null,"endoflifeemissions":null,"disposaltype":null,"disposalenergy":null,"disposalimpact":null,"disposalemissions":null,"description":"Nesenkef Farm","name":"Vegetables and Greens","id":"340","stops":{"origin":{"related_to":"340","part_or_object":"p","notes":"","placename":"Litchfield NH","id":2467,"name":"origin","lat":"42.8471108","lon":"-71.4655565","hops":{"incoming":[],"outgoing":[{"transport_id":"17","id":"288","transport_name":"None Selected","transport_description":null,"transport_unit":"kg km","transport_co2_eq":"0.000000","from_stop_id":"2467","from_stop_lat":"42.8471108","from_stop_lon":"-71.4655565","from_stop_placename":"Litchfield NH","to_stop_id":"19","to_stop_name":"origin","to_stop_lat":"42.375392","to_stop_lon":"-71.118487","to_stop_placename":"Cambridge MA","to_stop":{"id":"19","name":"origin","lat":"42.375392","lon":"-71.118487","placename":"Cambridge MA"},"from_stop":{"name":"origin","id":"2467","lat":"42.8471108","lon":"-71.4655565","placename":"Litchfield NH"}}]}}},"processes":[],"eols":[]},{"oid":"153","imid":"341","linkid":"","weight":"0","rawemissions":"0","emissions":"0","shipping":"40.16","processemissions":null,"endoflifeemissions":null,"disposaltype":null,"disposalenergy":null,"disposalimpact":null,"disposalemissions":null,"description":"Thatcher Farms","name":"Dairy","id":"341","stops":{"origin":{"related_to":"341","part_or_object":"p","notes":"","placename":"Franklin MA","id":2468,"name":"origin","lat":"42.08718","lon":"-71.41149","hops":{"incoming":[],"outgoing":[{"transport_id":"17","id":"289","transport_name":"None Selected","transport_description":null,"transport_unit":"kg km","transport_co2_eq":"0.000000","from_stop_id":"2468","from_stop_lat":"42.08718","from_stop_lon":"-71.41149","from_stop_placename":"Franklin MA","to_stop_id":"19","to_stop_name":"origin","to_stop_lat":"42.375392","to_stop_lon":"-71.118487","to_stop_placename":"Cambridge MA","to_stop":{"id":"19","name":"origin","lat":"42.375392","lon":"-71.118487","placename":"Cambridge MA"},"from_stop":{"name":"origin","id":"2468","lat":"42.08718","lon":"-71.41149","placename":"Franklin MA"}}]}}},"processes":[],"eols":[]},{"oid":"153","imid":"342","linkid":"","weight":"0","rawemissions":"0","emissions":"0","shipping":"40.16","processemissions":null,"endoflifeemissions":null,"disposaltype":null,"disposalenergy":null,"disposalimpact":null,"disposalemissions":null,"description":"","name":"Grateful Farm","id":"342","stops":{"origin":{"related_to":"342","part_or_object":"p","notes":"","placename":"Franklin MA","id":2469,"name":"origin","lat":"42.08718","lon":"-71.41149","hops":{"incoming":[],"outgoing":[{"transport_id":"17","id":"290","transport_name":"None Selected","transport_description":null,"transport_unit":"kg km","transport_co2_eq":"0.000000","from_stop_id":"2469","from_stop_lat":"42.08718","from_stop_lon":"-71.41149","from_stop_placename":"Franklin MA","to_stop_id":"19","to_stop_name":"origin","to_stop_lat":"42.375392","to_stop_lon":"-71.118487","to_stop_placename":"Cambridge MA","to_stop":{"id":"19","name":"origin","lat":"42.375392","lon":"-71.118487","placename":"Cambridge MA"},"from_stop":{"name":"origin","id":"2469","lat":"42.08718","lon":"-71.41149","placename":"Franklin MA"}}]}}},"processes":[],"eols":[]},{"oid":"153","imid":"343","linkid":"","weight":"0","rawemissions":"0","emissions":"0","shipping":"163.31","processemissions":null,"endoflifeemissions":null,"disposaltype":null,"disposalenergy":null,"disposalimpact":null,"disposalemissions":null,"description":"Fancy Meats of Vermont","name":"Meats, Poultry, Dairy","id":"343","stops":{"origin":{"related_to":"343","part_or_object":"p","notes":"","placename":"Andover VT","id":2470,"name":"origin","lat":"43.277309","lon":"-72.696198","hops":{"incoming":[],"outgoing":[{"transport_id":"17","id":"291","transport_name":"None Selected","transport_description":null,"transport_unit":"kg km","transport_co2_eq":"0.000000","from_stop_id":"2470","from_stop_lat":"43.277309","from_stop_lon":"-72.696198","from_stop_placename":"Andover VT","to_stop_id":"19","to_stop_name":"origin","to_stop_lat":"42.375392","to_stop_lon":"-71.118487","to_stop_placename":"Cambridge MA","to_stop":{"id":"19","name":"origin","lat":"42.375392","lon":"-71.118487","placename":"Cambridge MA"},"from_stop":{"name":"origin","id":"2470","lat":"43.277309","lon":"-72.696198","placename":"Andover VT"}}]}}},"processes":[],"eols":[]},{"oid":"153","imid":"344","linkid":"","weight":"0","rawemissions":"0","emissions":"0","shipping":"5.32","processemissions":null,"endoflifeemissions":null,"disposaltype":null,"disposalenergy":null,"disposalimpact":null,"disposalemissions":null,"description":"Bill Neill Stu Cohen","name":"Mushrooms","id":"344","stops":{"origin":{"related_to":"344","part_or_object":"p","notes":"","placename":"Boston MA","id":2471,"name":"origin","lat":"42.35892","lon":"-71.05781","hops":{"incoming":[],"outgoing":[{"transport_id":"17","id":"292","transport_name":"None Selected","transport_description":null,"transport_unit":"kg km","transport_co2_eq":"0.000000","from_stop_id":"2471","from_stop_lat":"42.35892","from_stop_lon":"-71.05781","from_stop_placename":"Boston MA","to_stop_id":"19","to_stop_name":"origin","to_stop_lat":"42.375392","to_stop_lon":"-71.118487","to_stop_placename":"Cambridge MA","to_stop":{"id":"19","name":"origin","lat":"42.375392","lon":"-71.118487","placename":"Cambridge MA"},"from_stop":{"name":"origin","id":"2471","lat":"42.35892","lon":"-71.05781","placename":"Boston MA"}}]}}},"processes":[],"eols":[]},{"oid":"153","imid":"345","linkid":"","weight":"0","rawemissions":"0","emissions":"0","shipping":"163.31","processemissions":null,"endoflifeemissions":null,"disposaltype":null,"disposalenergy":null,"disposalimpact":null,"disposalemissions":null,"description":"Fancy Meats of Vermont","name":"Meats, Poultry, Dairy","id":"345","stops":{"origin":{"related_to":"345","part_or_object":"p","notes":"","placename":"Andover VT","id":2472,"name":"origin","lat":"43.277309","lon":"-72.696198","hops":{"incoming":[],"outgoing":[{"transport_id":"17","id":"293","transport_name":"None Selected","transport_description":null,"transport_unit":"kg km","transport_co2_eq":"0.000000","from_stop_id":"2472","from_stop_lat":"43.277309","from_stop_lon":"-72.696198","from_stop_placename":"Andover VT","to_stop_id":"19","to_stop_name":"origin","to_stop_lat":"42.375392","to_stop_lon":"-71.118487","to_stop_placename":"Cambridge MA","to_stop":{"id":"19","name":"origin","lat":"42.375392","lon":"-71.118487","placename":"Cambridge MA"},"from_stop":{"name":"origin","id":"2472","lat":"43.277309","lon":"-72.696198","placename":"Andover VT"}}]}}},"processes":[],"eols":[]},{"oid":"153","imid":"346","linkid":"","weight":"0","rawemissions":"0","emissions":"0","shipping":"5.42","processemissions":null,"endoflifeemissions":null,"disposaltype":null,"disposalenergy":null,"disposalimpact":null,"disposalemissions":null,"description":"","name":"Belmont Farm","id":"346","stops":{"origin":{"related_to":"346","part_or_object":"p","notes":"","placename":"Belmont MA","id":2473,"name":"origin","lat":"42.396449","lon":"-71.177958","hops":{"incoming":[],"outgoing":[{"transport_id":"17","id":"294","transport_name":"None Selected","transport_description":null,"transport_unit":"kg km","transport_co2_eq":"0.000000","from_stop_id":"2473","from_stop_lat":"42.396449","from_stop_lon":"-71.177958","from_stop_placename":"Belmont MA","to_stop_id":"19","to_stop_name":"origin","to_stop_lat":"42.375392","to_stop_lon":"-71.118487","to_stop_placename":"Cambridge MA","to_stop":{"id":"19","name":"origin","lat":"42.375392","lon":"-71.118487","placename":"Cambridge MA"},"from_stop":{"name":"origin","id":"2473","lat":"42.396449","lon":"-71.177958","placename":"Belmont MA"}}]}}},"processes":[],"eols":[]},{"oid":"153","imid":"363","linkid":"","weight":"0","rawemissions":"0","emissions":"0","shipping":"271.32","processemissions":null,"endoflifeemissions":null,"disposaltype":null,"disposalenergy":null,"disposalimpact":null,"disposalemissions":null,"description":"Petes Greens","name":"Vegetables","id":"363","stops":{"origin":{"related_to":"363","part_or_object":"p","notes":"","placename":"Craftsbury VT","id":2474,"name":"origin","lat":"44.636391","lon":"-72.373756","hops":{"incoming":[],"outgoing":[{"transport_id":"1","id":"295","transport_name":"van, 3.5 tons","transport_description":"delivery van, half full","transport_unit":"kg km","transport_co2_eq":"0.053400","from_stop_id":"2474","from_stop_lat":"44.636391","from_stop_lon":"-72.373756","from_stop_placename":"Craftsbury VT","to_stop_id":"19","to_stop_name":"origin","to_stop_lat":"42.375392","to_stop_lon":"-71.118487","to_stop_placename":"Cambridge MA","to_stop":{"id":"19","name":"origin","lat":"42.375392","lon":"-71.118487","placename":"Cambridge MA"},"from_stop":{"name":"origin","id":"2474","lat":"44.636391","lon":"-72.373756","placename":"Craftsbury VT"}}]}}},"processes":[],"eols":[]}],"user":{"name":"leo","id":"1"}}}