{"1552":{"oid":"1552","type":"object","flag":"","creator":"1","name":"Bottle for wine with cork","upc":"","imagelink":"","description":"This is only the packaging (no wine included)","slug":"bottle-for-wine-with-cork","category":"","weight":"0.516","emissions":"0.142639","embodied":"0.14173","transport":"0.000909102","process":"0","endoflife":"0","shipping":"374.46","lifetime":null,"usagetype":"","usageenergy":null,"usageemissions":null,"timecreated":"2010-02-24 22:03:35.816094","timemodified":"2009-10-31 20:24:20","visibility":"public","showfootprint":"on","showembodied":"on","showtransport":"on","showprocess":"on","showendoflife":"on","showlastleg":"on","showuse":"on","showstats":"on","stops":{"origin":{"related_to":"1552","part_or_object":"o","notes":"","placename":"Tuscany, Italy","id":"279","category":"1","lat":"43.5671153","lon":"10.9807003","name":"origin","hops":{"incoming":[{"transport_id":"17","id":"1037","transport_name":"None Selected","transport_description":null,"transport_unit":"kg km","transport_co2_eq":"0.000000","from_stop_id":"3290","from_stop_lat":"43.7687324","from_stop_lon":"11.2569013","to_stop_id":"279","to_stop_name":"origin","to_stop_lat":"43.5671153","placename":"Florence, Italy","to_stop_lon":"10.9807003","to_stop":{"id":"279","name":"origin","lat":"43.5671153","placename":"Tuscany, Italy","lon":"10.9807003"},"from_stop":{"name":"origin","id":"3290","lat":"43.7687324","lon":"11.2569013","placename":"Florence, Italy"}},{"transport_id":"17","id":"1038","transport_name":"None Selected","transport_description":null,"transport_unit":"kg km","transport_co2_eq":"0.000000","from_stop_id":"3291","from_stop_lat":"43.3186614","from_stop_lon":"11.3305135","to_stop_id":"279","to_stop_name":"origin","to_stop_lat":"43.5671153","placename":"Sienna SI, Italy","to_stop_lon":"10.9807003","to_stop":{"id":"279","name":"origin","lat":"43.5671153","placename":"Tuscany, Italy","lon":"10.9807003"},"from_stop":{"name":"origin","id":"3291","lat":"43.3186614","lon":"11.3305135","placename":"Sienna SI, Italy"}},{"transport_id":"17","id":"1039","transport_name":"None Selected","transport_description":null,"transport_unit":"kg km","transport_co2_eq":"0.000000","from_stop_id":"3292","from_stop_lat":"41.8954656","from_stop_lon":"12.4823243","to_stop_id":"279","to_stop_name":"origin","to_stop_lat":"43.5671153","placename":"Rome, Italy","to_stop_lon":"10.9807003","to_stop":{"id":"279","name":"origin","lat":"43.5671153","placename":"Tuscany, Italy","lon":"10.9807003"},"from_stop":{"name":"origin","id":"3292","lat":"41.8954656","lon":"12.4823243","placename":"Rome, Italy"}},{"transport_id":"17","id":"1040","transport_name":"None Selected","transport_description":null,"transport_unit":"kg km","transport_co2_eq":"0.000000","from_stop_id":"3293","from_stop_lat":"42.925851","from_stop_lon":"10.525432","to_stop_id":"279","to_stop_name":"origin","to_stop_lat":"43.5671153","placename":"Piombino LI, Italy","to_stop_lon":"10.9807003","to_stop":{"id":"279","name":"origin","lat":"43.5671153","placename":"Tuscany, Italy","lon":"10.9807003"},"from_stop":{"name":"origin","id":"3293","lat":"42.925851","lon":"10.525432","placename":"Piombino LI, Italy"}}],"outgoing":[]}}},"parts":[{"oid":"1552","imid":"1231","linkid":"parts\/glass-virgin-clear","weight":"0.5","rawemissions":"0.27","emissions":"0.135","shipping":"31.6","processemissions":null,"endoflifeemissions":null,"disposaltype":null,"disposalenergy":null,"disposalimpact":null,"disposalemissions":null,"description":"Virgin clear bottle glass","name":"Glass clear virgin","id":"1231","stops":{"origin":{"related_to":"1231","part_or_object":"p","notes":"","placename":"Florence, Italy","id":3290,"name":"origin","lat":"43.7687324","lon":"11.2569013","hops":{"incoming":[],"outgoing":[{"transport_id":"17","id":"1037","transport_name":"None Selected","transport_description":null,"transport_unit":"kg km","transport_co2_eq":"0.000000","from_stop_id":"3290","from_stop_lat":"43.7687324","from_stop_lon":"11.2569013","from_stop_placename":"Florence, Italy","to_stop_id":"279","to_stop_name":"origin","to_stop_lat":"43.5671153","to_stop_lon":"10.9807003","to_stop_placename":"Tuscany, Italy","to_stop":{"id":"279","name":"origin","lat":"43.5671153","lon":"10.9807003","placename":"Tuscany, Italy"},"from_stop":{"name":"origin","id":"3290","lat":"43.7687324","lon":"11.2569013","placename":"Florence, Italy"}}]}}},"processes":[],"eols":[]},{"oid":"1552","imid":"1232","linkid":"parts\/cork","weight":"0.005","rawemissions":"0.19","emissions":"0.00095","shipping":"39.55","processemissions":null,"endoflifeemissions":null,"disposaltype":null,"disposalenergy":null,"disposalimpact":null,"disposalemissions":null,"description":"","name":"Cork","id":"1232","stops":{"origin":{"related_to":"1232","part_or_object":"p","notes":"","placename":"Sienna SI, Italy","id":3291,"name":"origin","lat":"43.3186614","lon":"11.3305135","hops":{"incoming":[],"outgoing":[{"transport_id":"17","id":"1038","transport_name":"None Selected","transport_description":null,"transport_unit":"kg km","transport_co2_eq":"0.000000","from_stop_id":"3291","from_stop_lat":"43.3186614","from_stop_lon":"11.3305135","from_stop_placename":"Sienna SI, Italy","to_stop_id":"279","to_stop_name":"origin","to_stop_lat":"43.5671153","to_stop_lon":"10.9807003","to_stop_placename":"Tuscany, Italy","to_stop":{"id":"279","name":"origin","lat":"43.5671153","lon":"10.9807003","placename":"Tuscany, Italy"},"from_stop":{"name":"origin","id":"3291","lat":"43.3186614","lon":"11.3305135","placename":"Sienna SI, Italy"}}]}}},"processes":[],"eols":[]},{"oid":"1552","imid":"1233","linkid":"parts\/paper-virgin-white","weight":"0.001","rawemissions":"0.48","emissions":"0.00048","shipping":"222.94","processemissions":null,"endoflifeemissions":null,"disposaltype":null,"disposalenergy":null,"disposalimpact":null,"disposalemissions":null,"description":"Virgin bleached white paper","name":"Paper white primary","id":"1233","stops":{"origin":{"related_to":"1233","part_or_object":"p","notes":"","placename":"Rome, Italy","id":3292,"name":"origin","lat":"41.8954656","lon":"12.4823243","hops":{"incoming":[],"outgoing":[{"transport_id":"17","id":"1039","transport_name":"None Selected","transport_description":null,"transport_unit":"kg km","transport_co2_eq":"0.000000","from_stop_id":"3292","from_stop_lat":"41.8954656","from_stop_lon":"12.4823243","from_stop_placename":"Rome, Italy","to_stop_id":"279","to_stop_name":"origin","to_stop_lat":"43.5671153","to_stop_lon":"10.9807003","to_stop_placename":"Tuscany, Italy","to_stop":{"id":"279","name":"origin","lat":"43.5671153","lon":"10.9807003","placename":"Tuscany, Italy"},"from_stop":{"name":"origin","id":"3292","lat":"41.8954656","lon":"12.4823243","placename":"Rome, Italy"}}]}}},"processes":[],"eols":[]},{"oid":"1552","imid":"1234","linkid":"parts\/lead-recycled","weight":"0.01","rawemissions":"0.53","emissions":"0.0053","shipping":"80.37","processemissions":null,"endoflifeemissions":null,"disposaltype":null,"disposalenergy":null,"disposalimpact":null,"disposalemissions":null,"description":"this is part of the foil","name":"Recycled Lead","id":"1234","stops":{"origin":{"related_to":"1234","part_or_object":"p","notes":"","placename":"Piombino LI, Italy","id":3293,"name":"origin","lat":"42.925851","lon":"10.525432","hops":{"incoming":[],"outgoing":[{"transport_id":"17","id":"1040","transport_name":"None Selected","transport_description":null,"transport_unit":"kg km","transport_co2_eq":"0.000000","from_stop_id":"3293","from_stop_lat":"42.925851","from_stop_lon":"10.525432","from_stop_placename":"Piombino LI, Italy","to_stop_id":"279","to_stop_name":"origin","to_stop_lat":"43.5671153","to_stop_lon":"10.9807003","to_stop_placename":"Tuscany, Italy","to_stop":{"id":"279","name":"origin","lat":"43.5671153","lon":"10.9807003","placename":"Tuscany, Italy"},"from_stop":{"name":"origin","id":"3293","lat":"42.925851","lon":"10.525432","placename":"Piombino LI, Italy"}}]}}},"processes":[],"eols":[]}],"user":{"name":"leo","id":"1"}}}