{"1557":{"oid":"1557","type":"food","flag":"","creator":"1","name":"Cheese Sauce Mix","upc":"","imagelink":"","description":"This is informed by thefoodmap.org","slug":"cheese-sauce-mix","category":"","weight":"0.0666","emissions":"1.01821","embodied":"1.0166","transport":"0.00161162","process":"0","endoflife":"0","shipping":"18008","lifetime":null,"usagetype":"","usageenergy":null,"usageemissions":null,"timecreated":"2010-02-24 22:03:35.808226","timemodified":"2009-11-01 01:19:08","visibility":"private","showfootprint":"on","showembodied":"on","showtransport":"on","showprocess":"on","showendoflife":"on","showlastleg":"on","showuse":"on","showstats":"on","stops":{"origin":{"related_to":"1557","part_or_object":"o","notes":"","placename":"S Glenstone Ave, Springfield, MO, USA","id":"274","category":"1","lat":"37.1692664","lon":"-93.2625315","name":"origin","hops":{"incoming":[{"transport_id":"3","id":"1049","transport_name":"truck, 40 tons","transport_description":"truck, half full","transport_unit":"kg km","transport_co2_eq":"0.030900","from_stop_id":"3302","from_stop_lat":"40.6331249","from_stop_lon":"-89.3985283","to_stop_id":"274","to_stop_name":"origin","to_stop_lat":"37.1692664","placename":"Ingredient Source","to_stop_lon":"-93.2625315","to_stop":{"id":"274","name":"origin","lat":"37.1692664","placename":"S Glenstone Ave, Springfield, MO, USA","lon":"-93.2625315"},"from_stop":{"name":"origin","id":"3302","lat":"40.6331249","lon":"-89.3985283","placename":"Ingredient Source"}},{"transport_id":"3","id":"1050","transport_name":"truck, 40 tons","transport_description":"truck, half full","transport_unit":"kg km","transport_co2_eq":"0.030900","from_stop_id":"3303","from_stop_lat":"40.6331249","from_stop_lon":"-89.3985283","to_stop_id":"274","to_stop_name":"origin","to_stop_lat":"37.1692664","placename":"Illinois, USA","to_stop_lon":"-93.2625315","to_stop":{"id":"274","name":"origin","lat":"37.1692664","placename":"S Glenstone Ave, Springfield, MO, USA","lon":"-93.2625315"},"from_stop":{"name":"origin","id":"3303","lat":"40.6331249","lon":"-89.3985283","placename":"Illinois, USA"}},{"transport_id":"3","id":"1051","transport_name":"truck, 40 tons","transport_description":"truck, half full","transport_unit":"kg km","transport_co2_eq":"0.030900","from_stop_id":"3304","from_stop_lat":"40.6331249","from_stop_lon":"-89.3985283","to_stop_id":"274","to_stop_name":"origin","to_stop_lat":"37.1692664","placename":"Illinois, USA","to_stop_lon":"-93.2625315","to_stop":{"id":"274","name":"origin","lat":"37.1692664","placename":"S Glenstone Ave, Springfield, MO, USA","lon":"-93.2625315"},"from_stop":{"name":"origin","id":"3304","lat":"40.6331249","lon":"-89.3985283","placename":"Illinois, USA"}},{"transport_id":"3","id":"1052","transport_name":"truck, 40 tons","transport_description":"truck, half full","transport_unit":"kg km","transport_co2_eq":"0.030900","from_stop_id":"3305","from_stop_lat":"42.6606177","from_stop_lon":"-78.0855638","to_stop_id":"274","to_stop_name":"origin","to_stop_lat":"37.1692664","placename":"Ingredient Source","to_stop_lon":"-93.2625315","to_stop":{"id":"274","name":"origin","lat":"37.1692664","placename":"S Glenstone Ave, Springfield, MO, USA","lon":"-93.2625315"},"from_stop":{"name":"origin","id":"3305","lat":"42.6606177","lon":"-78.0855638","placename":"Ingredient Source"}},{"transport_id":"9","id":"1053","transport_name":"container ship","transport_description":"moving boxcar size containers","transport_unit":"kg km","transport_co2_eq":"0.047800","from_stop_id":"3306","from_stop_lat":"35.86166","from_stop_lon":"104.195397","to_stop_id":"274","to_stop_name":"origin","to_stop_lat":"37.1692664","placename":"China","to_stop_lon":"-93.2625315","to_stop":{"id":"274","name":"origin","lat":"37.1692664","placename":"S Glenstone Ave, Springfield, MO, USA","lon":"-93.2625315"},"from_stop":{"name":"origin","id":"3306","lat":"35.86166","lon":"104.195397","placename":"China"}},{"transport_id":"17","id":"1054","transport_name":"None Selected","transport_description":null,"transport_unit":"kg km","transport_co2_eq":"0.000000","from_stop_id":"3307","from_stop_lat":"0","from_stop_lon":"0","to_stop_id":"274","to_stop_name":"origin","to_stop_lat":"37.1692664","placename":"Ingredient Source","to_stop_lon":"-93.2625315","to_stop":{"id":"274","name":"origin","lat":"37.1692664","placename":"S Glenstone Ave, Springfield, MO, USA","lon":"-93.2625315"},"from_stop":{"name":"origin","id":"3307","lat":"0","lon":"0","placename":"Ingredient Source"}},{"transport_id":"17","id":"1055","transport_name":"None Selected","transport_description":null,"transport_unit":"kg km","transport_co2_eq":"0.000000","from_stop_id":"3308","from_stop_lat":"0","from_stop_lon":"0","to_stop_id":"274","to_stop_name":"origin","to_stop_lat":"37.1692664","placename":"Ingredient Source","to_stop_lon":"-93.2625315","to_stop":{"id":"274","name":"origin","lat":"37.1692664","placename":"S Glenstone Ave, Springfield, MO, USA","lon":"-93.2625315"},"from_stop":{"name":"origin","id":"3308","lat":"0","lon":"0","placename":"Ingredient Source"}},{"transport_id":"17","id":"1056","transport_name":"None Selected","transport_description":null,"transport_unit":"kg km","transport_co2_eq":"0.000000","from_stop_id":"3309","from_stop_lat":"0","from_stop_lon":"0","to_stop_id":"274","to_stop_name":"origin","to_stop_lat":"37.1692664","placename":"Ingredient Source","to_stop_lon":"-93.2625315","to_stop":{"id":"274","name":"origin","lat":"37.1692664","placename":"S Glenstone Ave, Springfield, MO, USA","lon":"-93.2625315"},"from_stop":{"name":"origin","id":"3309","lat":"0","lon":"0","placename":"Ingredient Source"}},{"transport_id":"17","id":"1057","transport_name":"None Selected","transport_description":null,"transport_unit":"kg km","transport_co2_eq":"0.000000","from_stop_id":"3310","from_stop_lat":"0","from_stop_lon":"0","to_stop_id":"274","to_stop_name":"origin","to_stop_lat":"37.1692664","placename":"Ingredient Source","to_stop_lon":"-93.2625315","to_stop":{"id":"274","name":"origin","lat":"37.1692664","placename":"S Glenstone Ave, Springfield, MO, USA","lon":"-93.2625315"},"from_stop":{"name":"origin","id":"3310","lat":"0","lon":"0","placename":"Ingredient Source"}},{"transport_id":"17","id":"1058","transport_name":"None Selected","transport_description":null,"transport_unit":"kg km","transport_co2_eq":"0.000000","from_stop_id":"3311","from_stop_lat":"0","from_stop_lon":"0","to_stop_id":"274","to_stop_name":"origin","to_stop_lat":"37.1692664","placename":"Ingredient Source","to_stop_lon":"-93.2625315","to_stop":{"id":"274","name":"origin","lat":"37.1692664","placename":"S Glenstone Ave, Springfield, MO, USA","lon":"-93.2625315"},"from_stop":{"name":"origin","id":"3311","lat":"0","lon":"0","placename":"Ingredient Source"}},{"transport_id":"17","id":"1059","transport_name":"None Selected","transport_description":null,"transport_unit":"kg km","transport_co2_eq":"0.000000","from_stop_id":"3312","from_stop_lat":"40.0583238","from_stop_lon":"-74.4056612","to_stop_id":"274","to_stop_name":"origin","to_stop_lat":"37.1692664","placename":"New Jersey, USA","to_stop_lon":"-93.2625315","to_stop":{"id":"274","name":"origin","lat":"37.1692664","placename":"S Glenstone Ave, Springfield, MO, USA","lon":"-93.2625315"},"from_stop":{"name":"origin","id":"3312","lat":"40.0583238","lon":"-74.4056612","placename":"New Jersey, USA"}},{"transport_id":"17","id":"1060","transport_name":"None Selected","transport_description":null,"transport_unit":"kg km","transport_co2_eq":"0.000000","from_stop_id":"3313","from_stop_lat":"40.0583238","from_stop_lon":"-74.4056612","to_stop_id":"274","to_stop_name":"origin","to_stop_lat":"37.1692664","placename":"New Jersey, USA","to_stop_lon":"-93.2625315","to_stop":{"id":"274","name":"origin","lat":"37.1692664","placename":"S Glenstone Ave, Springfield, MO, USA","lon":"-93.2625315"},"from_stop":{"name":"origin","id":"3313","lat":"40.0583238","lon":"-74.4056612","placename":"New Jersey, USA"}},{"transport_id":"17","id":"1061","transport_name":"None Selected","transport_description":null,"transport_unit":"kg km","transport_co2_eq":"0.000000","from_stop_id":"3314","from_stop_lat":"0","from_stop_lon":"0","to_stop_id":"274","to_stop_name":"origin","to_stop_lat":"37.1692664","placename":"Ingredient Source","to_stop_lon":"-93.2625315","to_stop":{"id":"274","name":"origin","lat":"37.1692664","placename":"S Glenstone Ave, Springfield, MO, USA","lon":"-93.2625315"},"from_stop":{"name":"origin","id":"3314","lat":"0","lon":"0","placename":"Ingredient Source"}},{"transport_id":"17","id":"1062","transport_name":"None Selected","transport_description":null,"transport_unit":"kg km","transport_co2_eq":"0.000000","from_stop_id":"3315","from_stop_lat":"0","from_stop_lon":"0","to_stop_id":"274","to_stop_name":"origin","to_stop_lat":"37.1692664","placename":"Ingredient Source","to_stop_lon":"-93.2625315","to_stop":{"id":"274","name":"origin","lat":"37.1692664","placename":"S Glenstone Ave, Springfield, MO, USA","lon":"-93.2625315"},"from_stop":{"name":"origin","id":"3315","lat":"0","lon":"0","placename":"Ingredient Source"}}],"outgoing":[]}}},"parts":[{"oid":"1557","imid":"1243","linkid":"","weight":"0.04","rawemissions":"1","emissions":"0.04","shipping":"510.51","processemissions":null,"endoflifeemissions":null,"disposaltype":null,"disposalenergy":null,"disposalimpact":null,"disposalemissions":null,"description":"","name":"Whey","id":"1243","stops":{"origin":{"related_to":"1243","part_or_object":"p","notes":"","placename":"Ingredient Source","id":3302,"name":"origin","lat":"40.6331249","lon":"-89.3985283","hops":{"incoming":[],"outgoing":[{"transport_id":"3","id":"1049","transport_name":"truck, 40 tons","transport_description":"truck, half full","transport_unit":"kg km","transport_co2_eq":"0.030900","from_stop_id":"3302","from_stop_lat":"40.6331249","from_stop_lon":"-89.3985283","from_stop_placename":"Ingredient Source","to_stop_id":"274","to_stop_name":"origin","to_stop_lat":"37.1692664","to_stop_lon":"-93.2625315","to_stop_placename":"S Glenstone Ave, Springfield, MO, USA","to_stop":{"id":"274","name":"origin","lat":"37.1692664","lon":"-93.2625315","placename":"S Glenstone Ave, Springfield, MO, USA"},"from_stop":{"name":"origin","id":"3302","lat":"40.6331249","lon":"-89.3985283","placename":"Ingredient Source"}}]}}},"processes":[],"eols":[]},{"oid":"1557","imid":"1244","linkid":"","weight":"0.02","rawemissions":"1","emissions":"0.02","shipping":"510.51","processemissions":null,"endoflifeemissions":null,"disposaltype":null,"disposalenergy":null,"disposalimpact":null,"disposalemissions":null,"description":"","name":"Milkfat","id":"1244","stops":{"origin":{"related_to":"1244","part_or_object":"p","notes":"","placename":"Illinois, USA","id":3303,"name":"origin","lat":"40.6331249","lon":"-89.3985283","hops":{"incoming":[],"outgoing":[{"transport_id":"3","id":"1050","transport_name":"truck, 40 tons","transport_description":"truck, half full","transport_unit":"kg km","transport_co2_eq":"0.030900","from_stop_id":"3303","from_stop_lat":"40.6331249","from_stop_lon":"-89.3985283","from_stop_placename":"Illinois, USA","to_stop_id":"274","to_stop_name":"origin","to_stop_lat":"37.1692664","to_stop_lon":"-93.2625315","to_stop_placename":"S Glenstone Ave, Springfield, MO, USA","to_stop":{"id":"274","name":"origin","lat":"37.1692664","lon":"-93.2625315","placename":"S Glenstone Ave, Springfield, MO, USA"},"from_stop":{"name":"origin","id":"3303","lat":"40.6331249","lon":"-89.3985283","placename":"Illinois, USA"}}]}}},"processes":[],"eols":[]},{"oid":"1557","imid":"1245","linkid":"parts\/milk","weight":"0.005","rawemissions":"1","emissions":"0.005","shipping":"510.51","processemissions":null,"endoflifeemissions":null,"disposaltype":null,"disposalenergy":null,"disposalimpact":null,"disposalemissions":null,"description":"cow's milk, generic","name":"Milk Protein Concentrate","id":"1245","stops":{"origin":{"related_to":"1245","part_or_object":"p","notes":"","placename":"Illinois, USA","id":3304,"name":"origin","lat":"40.6331249","lon":"-89.3985283","hops":{"incoming":[],"outgoing":[{"transport_id":"3","id":"1051","transport_name":"truck, 40 tons","transport_description":"truck, half full","transport_unit":"kg km","transport_co2_eq":"0.030900","from_stop_id":"3304","from_stop_lat":"40.6331249","from_stop_lon":"-89.3985283","from_stop_placename":"Illinois, USA","to_stop_id":"274","to_stop_name":"origin","to_stop_lat":"37.1692664","to_stop_lon":"-93.2625315","to_stop_placename":"S Glenstone Ave, Springfield, MO, USA","to_stop":{"id":"274","name":"origin","lat":"37.1692664","lon":"-93.2625315","placename":"S Glenstone Ave, Springfield, MO, USA"},"from_stop":{"name":"origin","id":"3304","lat":"40.6331249","lon":"-89.3985283","placename":"Illinois, USA"}}]}}},"processes":[],"eols":[]},{"oid":"1557","imid":"1246","linkid":"","weight":"0.0006","rawemissions":"1","emissions":"0.0006","shipping":"1429.98","processemissions":null,"endoflifeemissions":null,"disposaltype":null,"disposalenergy":null,"disposalimpact":null,"disposalemissions":null,"description":"","name":"Salt","id":"1246","stops":{"origin":{"related_to":"1246","part_or_object":"p","notes":"","placename":"Ingredient Source","id":3305,"name":"origin","lat":"42.6606177","lon":"-78.0855638","hops":{"incoming":[],"outgoing":[{"transport_id":"3","id":"1052","transport_name":"truck, 40 tons","transport_description":"truck, half full","transport_unit":"kg km","transport_co2_eq":"0.030900","from_stop_id":"3305","from_stop_lat":"42.6606177","from_stop_lon":"-78.0855638","from_stop_placename":"Ingredient Source","to_stop_id":"274","to_stop_name":"origin","to_stop_lat":"37.1692664","to_stop_lon":"-93.2625315","to_stop_placename":"S Glenstone Ave, Springfield, MO, USA","to_stop":{"id":"274","name":"origin","lat":"37.1692664","lon":"-93.2625315","placename":"S Glenstone Ave, Springfield, MO, USA"},"from_stop":{"name":"origin","id":"3305","lat":"42.6606177","lon":"-78.0855638","placename":"Ingredient Source"}}]}}},"processes":[],"eols":[]},{"oid":"1557","imid":"1247","linkid":"","weight":"0.001","rawemissions":"1","emissions":"0.001","shipping":"11710.3","processemissions":null,"endoflifeemissions":null,"disposaltype":null,"disposalenergy":null,"disposalimpact":null,"disposalemissions":null,"description":"","name":"Sodium Tripolyphosphate","id":"1247","stops":{"origin":{"related_to":"1247","part_or_object":"p","notes":"","placename":"China","id":3306,"name":"origin","lat":"35.86166","lon":"104.195397","hops":{"incoming":[],"outgoing":[{"transport_id":"9","id":"1053","transport_name":"container ship","transport_description":"moving boxcar size containers","transport_unit":"kg km","transport_co2_eq":"0.047800","from_stop_id":"3306","from_stop_lat":"35.86166","from_stop_lon":"104.195397","from_stop_placename":"China","to_stop_id":"274","to_stop_name":"origin","to_stop_lat":"37.1692664","to_stop_lon":"-93.2625315","to_stop_placename":"S Glenstone Ave, Springfield, MO, USA","to_stop":{"id":"274","name":"origin","lat":"37.1692664","lon":"-93.2625315","placename":"S Glenstone Ave, Springfield, MO, USA"},"from_stop":{"name":"origin","id":"3306","lat":"35.86166","lon":"104.195397","placename":"China"}}]}}},"processes":[],"eols":[]},{"oid":"1557","imid":"1248","linkid":"","weight":"0","rawemissions":"0","emissions":"0","shipping":"0","processemissions":null,"endoflifeemissions":null,"disposaltype":null,"disposalenergy":null,"disposalimpact":null,"disposalemissions":null,"description":"","name":"Citric Acid","id":"1248","stops":{"origin":{"related_to":"1248","part_or_object":"p","notes":"","placename":"Ingredient Source","id":3307,"name":"origin","lat":"0","lon":"0","hops":{"incoming":[],"outgoing":[{"transport_id":"17","id":"1054","transport_name":"None Selected","transport_description":null,"transport_unit":"kg km","transport_co2_eq":"0.000000","from_stop_id":"3307","from_stop_lat":"0","from_stop_lon":"0","from_stop_placename":"Ingredient Source","to_stop_id":"274","to_stop_name":"origin","to_stop_lat":"37.1692664","to_stop_lon":"-93.2625315","to_stop_placename":"S Glenstone Ave, Springfield, MO, USA","to_stop":{"id":"274","name":"origin","lat":"37.1692664","lon":"-93.2625315","placename":"S Glenstone Ave, Springfield, MO, USA"},"from_stop":{"name":"origin","id":"3307","lat":"0","lon":"0","placename":"Ingredient Source"}}]}}},"processes":[],"eols":[]},{"oid":"1557","imid":"1249","linkid":"","weight":"0","rawemissions":"0","emissions":"0","shipping":"0","processemissions":null,"endoflifeemissions":null,"disposaltype":null,"disposalenergy":null,"disposalimpact":null,"disposalemissions":null,"description":"","name":"Lactic Acid","id":"1249","stops":{"origin":{"related_to":"1249","part_or_object":"p","notes":"","placename":"Ingredient Source","id":3308,"name":"origin","lat":"0","lon":"0","hops":{"incoming":[],"outgoing":[{"transport_id":"17","id":"1055","transport_name":"None Selected","transport_description":null,"transport_unit":"kg km","transport_co2_eq":"0.000000","from_stop_id":"3308","from_stop_lat":"0","from_stop_lon":"0","from_stop_placename":"Ingredient Source","to_stop_id":"274","to_stop_name":"origin","to_stop_lat":"37.1692664","to_stop_lon":"-93.2625315","to_stop_placename":"S Glenstone Ave, Springfield, MO, USA","to_stop":{"id":"274","name":"origin","lat":"37.1692664","lon":"-93.2625315","placename":"S Glenstone Ave, Springfield, MO, USA"},"from_stop":{"name":"origin","id":"3308","lat":"0","lon":"0","placename":"Ingredient Source"}}]}}},"processes":[],"eols":[]},{"oid":"1557","imid":"1250","linkid":"","weight":"0","rawemissions":"0","emissions":"0","shipping":"0","processemissions":null,"endoflifeemissions":null,"disposaltype":null,"disposalenergy":null,"disposalimpact":null,"disposalemissions":null,"description":"","name":"Sodium Phosphate","id":"1250","stops":{"origin":{"related_to":"1250","part_or_object":"p","notes":"","placename":"Ingredient Source","id":3309,"name":"origin","lat":"0","lon":"0","hops":{"incoming":[],"outgoing":[{"transport_id":"17","id":"1056","transport_name":"None Selected","transport_description":null,"transport_unit":"kg km","transport_co2_eq":"0.000000","from_stop_id":"3309","from_stop_lat":"0","from_stop_lon":"0","from_stop_placename":"Ingredient Source","to_stop_id":"274","to_stop_name":"origin","to_stop_lat":"37.1692664","to_stop_lon":"-93.2625315","to_stop_placename":"S Glenstone Ave, Springfield, MO, USA","to_stop":{"id":"274","name":"origin","lat":"37.1692664","lon":"-93.2625315","placename":"S Glenstone Ave, Springfield, MO, USA"},"from_stop":{"name":"origin","id":"3309","lat":"0","lon":"0","placename":"Ingredient Source"}}]}}},"processes":[],"eols":[]},{"oid":"1557","imid":"1251","linkid":"","weight":"0","rawemissions":"0","emissions":"0","shipping":"0","processemissions":null,"endoflifeemissions":null,"disposaltype":null,"disposalenergy":null,"disposalimpact":null,"disposalemissions":null,"description":"","name":"Calcium Phosphate","id":"1251","stops":{"origin":{"related_to":"1251","part_or_object":"p","notes":"","placename":"Ingredient Source","id":3310,"name":"origin","lat":"0","lon":"0","hops":{"incoming":[],"outgoing":[{"transport_id":"17","id":"1057","transport_name":"None Selected","transport_description":null,"transport_unit":"kg km","transport_co2_eq":"0.000000","from_stop_id":"3310","from_stop_lat":"0","from_stop_lon":"0","from_stop_placename":"Ingredient Source","to_stop_id":"274","to_stop_name":"origin","to_stop_lat":"37.1692664","to_stop_lon":"-93.2625315","to_stop_placename":"S Glenstone Ave, Springfield, MO, USA","to_stop":{"id":"274","name":"origin","lat":"37.1692664","lon":"-93.2625315","placename":"S Glenstone Ave, Springfield, MO, USA"},"from_stop":{"name":"origin","id":"3310","lat":"0","lon":"0","placename":"Ingredient Source"}}]}}},"processes":[],"eols":[]},{"oid":"1557","imid":"1252","linkid":"parts\/milk","weight":"0","rawemissions":"0.95","emissions":"0.95","shipping":"0","processemissions":null,"endoflifeemissions":null,"disposaltype":null,"disposalenergy":null,"disposalimpact":null,"disposalemissions":null,"description":"cow's milk, generic","name":"milk","id":"1252","stops":{"origin":{"related_to":"1252","part_or_object":"p","notes":"","placename":"Ingredient Source","id":3311,"name":"origin","lat":"0","lon":"0","hops":{"incoming":[],"outgoing":[{"transport_id":"17","id":"1058","transport_name":"None Selected","transport_description":null,"transport_unit":"kg km","transport_co2_eq":"0.000000","from_stop_id":"3311","from_stop_lat":"0","from_stop_lon":"0","from_stop_placename":"Ingredient Source","to_stop_id":"274","to_stop_name":"origin","to_stop_lat":"37.1692664","to_stop_lon":"-93.2625315","to_stop_placename":"S Glenstone Ave, Springfield, MO, USA","to_stop":{"id":"274","name":"origin","lat":"37.1692664","lon":"-93.2625315","placename":"S Glenstone Ave, Springfield, MO, USA"},"from_stop":{"name":"origin","id":"3311","lat":"0","lon":"0","placename":"Ingredient Source"}}]}}},"processes":[],"eols":[]},{"oid":"1557","imid":"1253","linkid":"","weight":"0","rawemissions":"0","emissions":"0","shipping":"1668.09","processemissions":null,"endoflifeemissions":null,"disposaltype":null,"disposalenergy":null,"disposalimpact":null,"disposalemissions":null,"description":"","name":"Yellow 5","id":"1253","stops":{"origin":{"related_to":"1253","part_or_object":"p","notes":"","placename":"New Jersey, USA","id":3312,"name":"origin","lat":"40.0583238","lon":"-74.4056612","hops":{"incoming":[],"outgoing":[{"transport_id":"17","id":"1059","transport_name":"None Selected","transport_description":null,"transport_unit":"kg km","transport_co2_eq":"0.000000","from_stop_id":"3312","from_stop_lat":"40.0583238","from_stop_lon":"-74.4056612","from_stop_placename":"New Jersey, USA","to_stop_id":"274","to_stop_name":"origin","to_stop_lat":"37.1692664","to_stop_lon":"-93.2625315","to_stop_placename":"S Glenstone Ave, Springfield, MO, USA","to_stop":{"id":"274","name":"origin","lat":"37.1692664","lon":"-93.2625315","placename":"S Glenstone Ave, Springfield, MO, USA"},"from_stop":{"name":"origin","id":"3312","lat":"40.0583238","lon":"-74.4056612","placename":"New Jersey, USA"}}]}}},"processes":[],"eols":[]},{"oid":"1557","imid":"1254","linkid":"","weight":"0","rawemissions":"0","emissions":"0","shipping":"1668.09","processemissions":null,"endoflifeemissions":null,"disposaltype":null,"disposalenergy":null,"disposalimpact":null,"disposalemissions":null,"description":"","name":"Yellow 6","id":"1254","stops":{"origin":{"related_to":"1254","part_or_object":"p","notes":"","placename":"New Jersey, USA","id":3313,"name":"origin","lat":"40.0583238","lon":"-74.4056612","hops":{"incoming":[],"outgoing":[{"transport_id":"17","id":"1060","transport_name":"None Selected","transport_description":null,"transport_unit":"kg km","transport_co2_eq":"0.000000","from_stop_id":"3313","from_stop_lat":"40.0583238","from_stop_lon":"-74.4056612","from_stop_placename":"New Jersey, USA","to_stop_id":"274","to_stop_name":"origin","to_stop_lat":"37.1692664","to_stop_lon":"-93.2625315","to_stop_placename":"S Glenstone Ave, Springfield, MO, USA","to_stop":{"id":"274","name":"origin","lat":"37.1692664","lon":"-93.2625315","placename":"S Glenstone Ave, Springfield, MO, USA"},"from_stop":{"name":"origin","id":"3313","lat":"40.0583238","lon":"-74.4056612","placename":"New Jersey, USA"}}]}}},"processes":[],"eols":[]},{"oid":"1557","imid":"1255","linkid":"","weight":"0","rawemissions":"0","emissions":"0","shipping":"0","processemissions":null,"endoflifeemissions":null,"disposaltype":null,"disposalenergy":null,"disposalimpact":null,"disposalemissions":null,"description":"","name":"Enzymes","id":"1255","stops":{"origin":{"related_to":"1255","part_or_object":"p","notes":"","placename":"Ingredient Source","id":3314,"name":"origin","lat":"0","lon":"0","hops":{"incoming":[],"outgoing":[{"transport_id":"17","id":"1061","transport_name":"None Selected","transport_description":null,"transport_unit":"kg km","transport_co2_eq":"0.000000","from_stop_id":"3314","from_stop_lat":"0","from_stop_lon":"0","from_stop_placename":"Ingredient Source","to_stop_id":"274","to_stop_name":"origin","to_stop_lat":"37.1692664","to_stop_lon":"-93.2625315","to_stop_placename":"S Glenstone Ave, Springfield, MO, USA","to_stop":{"id":"274","name":"origin","lat":"37.1692664","lon":"-93.2625315","placename":"S Glenstone Ave, Springfield, MO, USA"},"from_stop":{"name":"origin","id":"3314","lat":"0","lon":"0","placename":"Ingredient Source"}}]}}},"processes":[],"eols":[]},{"oid":"1557","imid":"1256","linkid":"","weight":"0","rawemissions":"0","emissions":"0","shipping":"0","processemissions":null,"endoflifeemissions":null,"disposaltype":null,"disposalenergy":null,"disposalimpact":null,"disposalemissions":null,"description":"","name":"Cheese Culture","id":"1256","stops":{"origin":{"related_to":"1256","part_or_object":"p","notes":"","placename":"Ingredient Source","id":3315,"name":"origin","lat":"0","lon":"0","hops":{"incoming":[],"outgoing":[{"transport_id":"17","id":"1062","transport_name":"None Selected","transport_description":null,"transport_unit":"kg km","transport_co2_eq":"0.000000","from_stop_id":"3315","from_stop_lat":"0","from_stop_lon":"0","from_stop_placename":"Ingredient Source","to_stop_id":"274","to_stop_name":"origin","to_stop_lat":"37.1692664","to_stop_lon":"-93.2625315","to_stop_placename":"S Glenstone Ave, Springfield, MO, USA","to_stop":{"id":"274","name":"origin","lat":"37.1692664","lon":"-93.2625315","placename":"S Glenstone Ave, Springfield, MO, USA"},"from_stop":{"name":"origin","id":"3315","lat":"0","lon":"0","placename":"Ingredient Source"}}]}}},"processes":[],"eols":[]}],"user":{"name":"leo","id":"1"}}}