{"1558":{"oid":"1558","type":"food","flag":"","creator":"1","name":"Kraft Macaroni & Cheese","upc":"","imagelink":"","description":"<a href=\"http:\/\/thefoodmap.org\/product.php?ProductID=9&End=\">LINK<\/a>","slug":"kraft-macaroni-cheese","category":"","weight":"0","emissions":"0","embodied":"0","transport":"0","process":"0","endoflife":"0","shipping":"70310.19","lifetime":null,"usagetype":"","usageenergy":null,"usageemissions":null,"timecreated":"2010-02-24 22:03:35.80344","timemodified":"2011-03-08 21:02:45","visibility":"public","showfootprint":"","showembodied":"","showtransport":"","showprocess":"","showendoflife":"","showlastleg":"on","showuse":"","showstats":"","stops":{"origin":{"related_to":"1558","part_or_object":"o","notes":null,"placename":"Louisville, MO, USA","id":"13184","category":"1","lat":"39.2425294","lon":"-92.8437977","name":"origin","hops":{"incoming":[{"transport_id":"17","id":"9583","transport_name":"None Selected","transport_description":null,"transport_unit":"kg km","transport_co2_eq":"0.000000","from_stop_id":"13185","from_stop_lat":"40.6331249","from_stop_lon":"-89.3985283","to_stop_id":"13184","to_stop_name":"origin","to_stop_lat":"39.2425294","placename":"Illinois, USA","to_stop_lon":"-92.8437977","to_stop":{"id":"13184","name":"origin","lat":"39.2425294","placename":"Louisville, MO, USA","lon":"-92.8437977"},"from_stop":{"name":"origin","id":"13185","lat":"40.6331249","lon":"-89.3985283","placename":"Illinois, USA"}},{"transport_id":"17","id":"9584","transport_name":"None Selected","transport_description":null,"transport_unit":"kg km","transport_co2_eq":"0.000000","from_stop_id":"13186","from_stop_lat":"41.8780025","from_stop_lon":"-93.097702","to_stop_id":"13184","to_stop_name":"origin","to_stop_lat":"39.2425294","placename":"Iowa, USA","to_stop_lon":"-92.8437977","to_stop":{"id":"13184","name":"origin","lat":"39.2425294","placename":"Louisville, MO, USA","lon":"-92.8437977"},"from_stop":{"name":"origin","id":"13186","lat":"41.8780025","lon":"-93.097702","placename":"Iowa, USA"}},{"transport_id":"17","id":"9585","transport_name":"None Selected","transport_description":null,"transport_unit":"kg km","transport_co2_eq":"0.000000","from_stop_id":"13187","from_stop_lat":"46.2922057","from_stop_lon":"7.8812394","to_stop_id":"13184","to_stop_name":"origin","to_stop_lat":"39.2425294","placename":"Visp, Switzerland","to_stop_lon":"-92.8437977","to_stop":{"id":"13184","name":"origin","lat":"39.2425294","placename":"Louisville, MO, USA","lon":"-92.8437977"},"from_stop":{"name":"origin","id":"13187","lat":"46.2922057","lon":"7.8812394","placename":"Visp, Switzerland"}},{"transport_id":"17","id":"9586","transport_name":"None Selected","transport_description":null,"transport_unit":"kg km","transport_co2_eq":"0.000000","from_stop_id":"13188","from_stop_lat":"39.767016","from_stop_lon":"-86.156255","to_stop_id":"13184","to_stop_name":"origin","to_stop_lat":"39.2425294","placename":"Indianapolis, IN, USA","to_stop_lon":"-92.8437977","to_stop":{"id":"13184","name":"origin","lat":"39.2425294","placename":"Louisville, MO, USA","lon":"-92.8437977"},"from_stop":{"name":"origin","id":"13188","lat":"39.767016","lon":"-86.156255","placename":"Indianapolis, IN, USA"}},{"transport_id":"17","id":"9587","transport_name":"None Selected","transport_description":null,"transport_unit":"kg km","transport_co2_eq":"0.000000","from_stop_id":"13189","from_stop_lat":"39.904667","from_stop_lon":"116.408198","to_stop_id":"13184","to_stop_name":"origin","to_stop_lat":"39.2425294","placename":"Beijing, China","to_stop_lon":"-92.8437977","to_stop":{"id":"13184","name":"origin","lat":"39.2425294","placename":"Louisville, MO, USA","lon":"-92.8437977"},"from_stop":{"name":"origin","id":"13189","lat":"39.904667","lon":"116.408198","placename":"Beijing, China"}},{"transport_id":"17","id":"9588","transport_name":"None Selected","transport_description":null,"transport_unit":"kg km","transport_co2_eq":"0.000000","from_stop_id":"13190","from_stop_lat":"30.54565","from_stop_lon":"114.341719","to_stop_id":"13184","to_stop_name":"origin","to_stop_lat":"39.2425294","placename":"Hubei, China","to_stop_lon":"-92.8437977","to_stop":{"id":"13184","name":"origin","lat":"39.2425294","placename":"Louisville, MO, USA","lon":"-92.8437977"},"from_stop":{"name":"origin","id":"13190","lat":"30.54565","lon":"114.341719","placename":"Hubei, China"}},{"transport_id":"17","id":"9589","transport_name":"None Selected","transport_description":null,"transport_unit":"kg km","transport_co2_eq":"0.000000","from_stop_id":"13191","from_stop_lat":"31.810077","from_stop_lon":"119.974454","to_stop_id":"13184","to_stop_name":"origin","to_stop_lat":"39.2425294","placename":"Changzhou, Jiangsu, China","to_stop_lon":"-92.8437977","to_stop":{"id":"13184","name":"origin","lat":"39.2425294","placename":"Louisville, MO, USA","lon":"-92.8437977"},"from_stop":{"name":"origin","id":"13191","lat":"31.810077","lon":"119.974454","placename":"Changzhou, Jiangsu, China"}},{"transport_id":"17","id":"9590","transport_name":"None Selected","transport_description":null,"transport_unit":"kg km","transport_co2_eq":"0.000000","from_stop_id":"13192","from_stop_lat":"40.6331249","from_stop_lon":"-89.3985283","to_stop_id":"13184","to_stop_name":"origin","to_stop_lat":"39.2425294","placename":"Illinois, USA","to_stop_lon":"-92.8437977","to_stop":{"id":"13184","name":"origin","lat":"39.2425294","placename":"Louisville, MO, USA","lon":"-92.8437977"},"from_stop":{"name":"origin","id":"13192","lat":"40.6331249","lon":"-89.3985283","placename":"Illinois, USA"}},{"transport_id":"17","id":"9591","transport_name":"None Selected","transport_description":null,"transport_unit":"kg km","transport_co2_eq":"0.000000","from_stop_id":"13193","from_stop_lat":"37.9642529","from_stop_lon":"-91.8318334","to_stop_id":"13184","to_stop_name":"origin","to_stop_lat":"39.2425294","placename":"Missouri, USA","to_stop_lon":"-92.8437977","to_stop":{"id":"13184","name":"origin","lat":"39.2425294","placename":"Louisville, MO, USA","lon":"-92.8437977"},"from_stop":{"name":"origin","id":"13193","lat":"37.9642529","lon":"-91.8318334","placename":"Missouri, USA"}},{"transport_id":"17","id":"9592","transport_name":"None Selected","transport_description":null,"transport_unit":"kg km","transport_co2_eq":"0.000000","from_stop_id":"13194","from_stop_lat":"42.6606177","from_stop_lon":"-78.0855638","to_stop_id":"13184","to_stop_name":"origin","to_stop_lat":"39.2425294","placename":"Silver Springs, NY, USA","to_stop_lon":"-92.8437977","to_stop":{"id":"13184","name":"origin","lat":"39.2425294","placename":"Louisville, MO, USA","lon":"-92.8437977"},"from_stop":{"name":"origin","id":"13194","lat":"42.6606177","lon":"-78.0855638","placename":"Silver Springs, NY, USA"}},{"transport_id":"17","id":"9593","transport_name":"None Selected","transport_description":null,"transport_unit":"kg km","transport_co2_eq":"0.000000","from_stop_id":"13195","from_stop_lat":"0","from_stop_lon":"0","to_stop_id":"13184","to_stop_name":"origin","to_stop_lat":"39.2425294","placename":"Ingredient Source","to_stop_lon":"-92.8437977","to_stop":{"id":"13184","name":"origin","lat":"39.2425294","placename":"Louisville, MO, USA","lon":"-92.8437977"},"from_stop":{"name":"origin","id":"13195","lat":"0","lon":"0","placename":"Ingredient Source"}},{"transport_id":"17","id":"9594","transport_name":"None Selected","transport_description":null,"transport_unit":"kg km","transport_co2_eq":"0.000000","from_stop_id":"13196","from_stop_lat":"0","from_stop_lon":"0","to_stop_id":"13184","to_stop_name":"origin","to_stop_lat":"39.2425294","placename":"Ingredient Source","to_stop_lon":"-92.8437977","to_stop":{"id":"13184","name":"origin","lat":"39.2425294","placename":"Louisville, MO, USA","lon":"-92.8437977"},"from_stop":{"name":"origin","id":"13196","lat":"0","lon":"0","placename":"Ingredient Source"}},{"transport_id":"17","id":"9595","transport_name":"None Selected","transport_description":null,"transport_unit":"kg km","transport_co2_eq":"0.000000","from_stop_id":"13197","from_stop_lat":"40.6331249","from_stop_lon":"-89.3985283","to_stop_id":"13184","to_stop_name":"origin","to_stop_lat":"39.2425294","placename":"Illinois, USA","to_stop_lon":"-92.8437977","to_stop":{"id":"13184","name":"origin","lat":"39.2425294","placename":"Louisville, MO, USA","lon":"-92.8437977"},"from_stop":{"name":"origin","id":"13197","lat":"40.6331249","lon":"-89.3985283","placename":"Illinois, USA"}},{"transport_id":"17","id":"9596","transport_name":"None Selected","transport_description":null,"transport_unit":"kg km","transport_co2_eq":"0.000000","from_stop_id":"13198","from_stop_lat":"40.6331249","from_stop_lon":"-89.3985283","to_stop_id":"13184","to_stop_name":"origin","to_stop_lat":"39.2425294","placename":"Illinois, USA","to_stop_lon":"-92.8437977","to_stop":{"id":"13184","name":"origin","lat":"39.2425294","placename":"Louisville, MO, USA","lon":"-92.8437977"},"from_stop":{"name":"origin","id":"13198","lat":"40.6331249","lon":"-89.3985283","placename":"Illinois, USA"}},{"transport_id":"17","id":"9597","transport_name":"None Selected","transport_description":null,"transport_unit":"kg km","transport_co2_eq":"0.000000","from_stop_id":"13199","from_stop_lat":"40.6331249","from_stop_lon":"-89.3985283","to_stop_id":"13184","to_stop_name":"origin","to_stop_lat":"39.2425294","placename":"Illinois, USA","to_stop_lon":"-92.8437977","to_stop":{"id":"13184","name":"origin","lat":"39.2425294","placename":"Louisville, MO, USA","lon":"-92.8437977"},"from_stop":{"name":"origin","id":"13199","lat":"40.6331249","lon":"-89.3985283","placename":"Illinois, USA"}},{"transport_id":"17","id":"9598","transport_name":"None Selected","transport_description":null,"transport_unit":"kg km","transport_co2_eq":"0.000000","from_stop_id":"13200","from_stop_lat":"40.6331249","from_stop_lon":"-89.3985283","to_stop_id":"13184","to_stop_name":"origin","to_stop_lat":"39.2425294","placename":"Illinois, USA","to_stop_lon":"-92.8437977","to_stop":{"id":"13184","name":"origin","lat":"39.2425294","placename":"Louisville, MO, USA","lon":"-92.8437977"},"from_stop":{"name":"origin","id":"13200","lat":"40.6331249","lon":"-89.3985283","placename":"Illinois, USA"}},{"transport_id":"17","id":"9599","transport_name":"None Selected","transport_description":null,"transport_unit":"kg km","transport_co2_eq":"0.000000","from_stop_id":"13201","from_stop_lat":"40.0583238","from_stop_lon":"-74.4056612","to_stop_id":"13184","to_stop_name":"origin","to_stop_lat":"39.2425294","placename":"New Jersey, USA","to_stop_lon":"-92.8437977","to_stop":{"id":"13184","name":"origin","lat":"39.2425294","placename":"Louisville, MO, USA","lon":"-92.8437977"},"from_stop":{"name":"origin","id":"13201","lat":"40.0583238","lon":"-74.4056612","placename":"New Jersey, USA"}},{"transport_id":"17","id":"9600","transport_name":"None Selected","transport_description":null,"transport_unit":"kg km","transport_co2_eq":"0.000000","from_stop_id":"13202","from_stop_lat":"40.0583238","from_stop_lon":"-74.4056612","to_stop_id":"13184","to_stop_name":"origin","to_stop_lat":"39.2425294","placename":"New Jersey, USA","to_stop_lon":"-92.8437977","to_stop":{"id":"13184","name":"origin","lat":"39.2425294","placename":"Louisville, MO, USA","lon":"-92.8437977"},"from_stop":{"name":"origin","id":"13202","lat":"40.0583238","lon":"-74.4056612","placename":"New Jersey, USA"}},{"transport_id":"17","id":"9601","transport_name":"None Selected","transport_description":null,"transport_unit":"kg km","transport_co2_eq":"0.000000","from_stop_id":"13203","from_stop_lat":"40.6331249","from_stop_lon":"-89.3985283","to_stop_id":"13184","to_stop_name":"origin","to_stop_lat":"39.2425294","placename":"Illinois, USA","to_stop_lon":"-92.8437977","to_stop":{"id":"13184","name":"origin","lat":"39.2425294","placename":"Louisville, MO, USA","lon":"-92.8437977"},"from_stop":{"name":"origin","id":"13203","lat":"40.6331249","lon":"-89.3985283","placename":"Illinois, USA"}},{"transport_id":"17","id":"9602","transport_name":"None Selected","transport_description":null,"transport_unit":"kg km","transport_co2_eq":"0.000000","from_stop_id":"13204","from_stop_lat":"40.6331249","from_stop_lon":"-89.3985283","to_stop_id":"13184","to_stop_name":"origin","to_stop_lat":"39.2425294","placename":"Illinois, USA","to_stop_lon":"-92.8437977","to_stop":{"id":"13184","name":"origin","lat":"39.2425294","placename":"Louisville, MO, USA","lon":"-92.8437977"},"from_stop":{"name":"origin","id":"13204","lat":"40.6331249","lon":"-89.3985283","placename":"Illinois, USA"}}],"outgoing":[]}}},"parts":[{"oid":"1558","imid":"1268","linkid":"","weight":"0","rawemissions":"0","emissions":"0","shipping":"10263.89","processemissions":null,"endoflifeemissions":null,"disposaltype":null,"disposalenergy":null,"disposalimpact":null,"disposalemissions":null,"description":"","name":"Citric Acid","id":"1268","stops":{"origin":{"related_to":"1268","part_or_object":"p","notes":null,"placename":"Ingredient Source","id":13196,"name":"origin","lat":"0","lon":"0","hops":{"incoming":[],"outgoing":[{"transport_id":"17","id":"9594","transport_name":"None Selected","transport_description":null,"transport_unit":"kg km","transport_co2_eq":"0.000000","from_stop_id":"13196","from_stop_lat":"0","from_stop_lon":"0","from_stop_placename":"Ingredient Source","to_stop_id":"13184","to_stop_name":"origin","to_stop_lat":"39.2425294","to_stop_lon":"-92.8437977","to_stop_placename":"Louisville, MO, USA","to_stop":{"id":"13184","name":"origin","lat":"39.2425294","lon":"-92.8437977","placename":"Louisville, MO, USA"},"from_stop":{"name":"origin","id":"13196","lat":"0","lon":"0","placename":"Ingredient Source"}}]}}},"processes":[],"eols":[]},{"oid":"1558","imid":"1269","linkid":"","weight":"0","rawemissions":"0","emissions":"0","shipping":"332.29","processemissions":null,"endoflifeemissions":null,"disposaltype":null,"disposalenergy":null,"disposalimpact":null,"disposalemissions":null,"description":"","name":"Lactic Acid","id":"1269","stops":{"origin":{"related_to":"1269","part_or_object":"p","notes":null,"placename":"Illinois, USA","id":13197,"name":"origin","lat":"40.6331249","lon":"-89.3985283","hops":{"incoming":[],"outgoing":[{"transport_id":"17","id":"9595","transport_name":"None Selected","transport_description":null,"transport_unit":"kg km","transport_co2_eq":"0.000000","from_stop_id":"13197","from_stop_lat":"40.6331249","from_stop_lon":"-89.3985283","from_stop_placename":"Illinois, USA","to_stop_id":"13184","to_stop_name":"origin","to_stop_lat":"39.2425294","to_stop_lon":"-92.8437977","to_stop_placename":"Louisville, MO, USA","to_stop":{"id":"13184","name":"origin","lat":"39.2425294","lon":"-92.8437977","placename":"Louisville, MO, USA"},"from_stop":{"name":"origin","id":"13197","lat":"40.6331249","lon":"-89.3985283","placename":"Illinois, USA"}}]}}},"processes":[],"eols":[]},{"oid":"1558","imid":"1270","linkid":"","weight":"0","rawemissions":"0","emissions":"0","shipping":"332.29","processemissions":null,"endoflifeemissions":null,"disposaltype":null,"disposalenergy":null,"disposalimpact":null,"disposalemissions":null,"description":"","name":"Sodium Phosphate","id":"1270","stops":{"origin":{"related_to":"1270","part_or_object":"p","notes":null,"placename":"Illinois, USA","id":13198,"name":"origin","lat":"40.6331249","lon":"-89.3985283","hops":{"incoming":[],"outgoing":[{"transport_id":"17","id":"9596","transport_name":"None Selected","transport_description":null,"transport_unit":"kg km","transport_co2_eq":"0.000000","from_stop_id":"13198","from_stop_lat":"40.6331249","from_stop_lon":"-89.3985283","from_stop_placename":"Illinois, USA","to_stop_id":"13184","to_stop_name":"origin","to_stop_lat":"39.2425294","to_stop_lon":"-92.8437977","to_stop_placename":"Louisville, MO, USA","to_stop":{"id":"13184","name":"origin","lat":"39.2425294","lon":"-92.8437977","placename":"Louisville, MO, USA"},"from_stop":{"name":"origin","id":"13198","lat":"40.6331249","lon":"-89.3985283","placename":"Illinois, USA"}}]}}},"processes":[],"eols":[]},{"oid":"1558","imid":"1271","linkid":"","weight":"0","rawemissions":"0","emissions":"0","shipping":"332.29","processemissions":null,"endoflifeemissions":null,"disposaltype":null,"disposalenergy":null,"disposalimpact":null,"disposalemissions":null,"description":"","name":"Calcium Phosphate","id":"1271","stops":{"origin":{"related_to":"1271","part_or_object":"p","notes":null,"placename":"Illinois, USA","id":13199,"name":"origin","lat":"40.6331249","lon":"-89.3985283","hops":{"incoming":[],"outgoing":[{"transport_id":"17","id":"9597","transport_name":"None Selected","transport_description":null,"transport_unit":"kg km","transport_co2_eq":"0.000000","from_stop_id":"13199","from_stop_lat":"40.6331249","from_stop_lon":"-89.3985283","from_stop_placename":"Illinois, USA","to_stop_id":"13184","to_stop_name":"origin","to_stop_lat":"39.2425294","to_stop_lon":"-92.8437977","to_stop_placename":"Louisville, MO, USA","to_stop":{"id":"13184","name":"origin","lat":"39.2425294","lon":"-92.8437977","placename":"Louisville, MO, USA"},"from_stop":{"name":"origin","id":"13199","lat":"40.6331249","lon":"-89.3985283","placename":"Illinois, USA"}}]}}},"processes":[],"eols":[]},{"oid":"1558","imid":"1272","linkid":"parts\/milk","weight":"0","rawemissions":"0.95","emissions":"0.95","shipping":"332.29","processemissions":null,"endoflifeemissions":null,"disposaltype":null,"disposalenergy":null,"disposalimpact":null,"disposalemissions":null,"description":"cow's milk, generic","name":"Milk","id":"1272","stops":{"origin":{"related_to":"1272","part_or_object":"p","notes":null,"placename":"Illinois, USA","id":13200,"name":"origin","lat":"40.6331249","lon":"-89.3985283","hops":{"incoming":[],"outgoing":[{"transport_id":"17","id":"9598","transport_name":"None Selected","transport_description":null,"transport_unit":"kg km","transport_co2_eq":"0.000000","from_stop_id":"13200","from_stop_lat":"40.6331249","from_stop_lon":"-89.3985283","from_stop_placename":"Illinois, USA","to_stop_id":"13184","to_stop_name":"origin","to_stop_lat":"39.2425294","to_stop_lon":"-92.8437977","to_stop_placename":"Louisville, MO, USA","to_stop":{"id":"13184","name":"origin","lat":"39.2425294","lon":"-92.8437977","placename":"Louisville, MO, USA"},"from_stop":{"name":"origin","id":"13200","lat":"40.6331249","lon":"-89.3985283","placename":"Illinois, USA"}}]}}},"processes":[],"eols":[]},{"oid":"1558","imid":"1273","linkid":"","weight":"0","rawemissions":"0","emissions":"0","shipping":"1580.12","processemissions":null,"endoflifeemissions":null,"disposaltype":null,"disposalenergy":null,"disposalimpact":null,"disposalemissions":null,"description":"","name":"Yellow 5","id":"1273","stops":{"origin":{"related_to":"1273","part_or_object":"p","notes":null,"placename":"New Jersey, USA","id":13201,"name":"origin","lat":"40.0583238","lon":"-74.4056612","hops":{"incoming":[],"outgoing":[{"transport_id":"17","id":"9599","transport_name":"None Selected","transport_description":null,"transport_unit":"kg km","transport_co2_eq":"0.000000","from_stop_id":"13201","from_stop_lat":"40.0583238","from_stop_lon":"-74.4056612","from_stop_placename":"New Jersey, USA","to_stop_id":"13184","to_stop_name":"origin","to_stop_lat":"39.2425294","to_stop_lon":"-92.8437977","to_stop_placename":"Louisville, MO, USA","to_stop":{"id":"13184","name":"origin","lat":"39.2425294","lon":"-92.8437977","placename":"Louisville, MO, USA"},"from_stop":{"name":"origin","id":"13201","lat":"40.0583238","lon":"-74.4056612","placename":"New Jersey, USA"}}]}}},"processes":[],"eols":[]},{"oid":"1558","imid":"1274","linkid":"","weight":"0","rawemissions":"0","emissions":"0","shipping":"1580.12","processemissions":null,"endoflifeemissions":null,"disposaltype":null,"disposalenergy":null,"disposalimpact":null,"disposalemissions":null,"description":"","name":"Yellow 6","id":"1274","stops":{"origin":{"related_to":"1274","part_or_object":"p","notes":null,"placename":"New Jersey, USA","id":13202,"name":"origin","lat":"40.0583238","lon":"-74.4056612","hops":{"incoming":[],"outgoing":[{"transport_id":"17","id":"9600","transport_name":"None Selected","transport_description":null,"transport_unit":"kg km","transport_co2_eq":"0.000000","from_stop_id":"13202","from_stop_lat":"40.0583238","from_stop_lon":"-74.4056612","from_stop_placename":"New Jersey, USA","to_stop_id":"13184","to_stop_name":"origin","to_stop_lat":"39.2425294","to_stop_lon":"-92.8437977","to_stop_placename":"Louisville, MO, USA","to_stop":{"id":"13184","name":"origin","lat":"39.2425294","lon":"-92.8437977","placename":"Louisville, MO, USA"},"from_stop":{"name":"origin","id":"13202","lat":"40.0583238","lon":"-74.4056612","placename":"New Jersey, USA"}}]}}},"processes":[],"eols":[]},{"oid":"1558","imid":"1275","linkid":"","weight":"0","rawemissions":"0","emissions":"0","shipping":"332.29","processemissions":null,"endoflifeemissions":null,"disposaltype":null,"disposalenergy":null,"disposalimpact":null,"disposalemissions":null,"description":"","name":"Enzymes","id":"1275","stops":{"origin":{"related_to":"1275","part_or_object":"p","notes":null,"placename":"Illinois, USA","id":13203,"name":"origin","lat":"40.6331249","lon":"-89.3985283","hops":{"incoming":[],"outgoing":[{"transport_id":"17","id":"9601","transport_name":"None Selected","transport_description":null,"transport_unit":"kg km","transport_co2_eq":"0.000000","from_stop_id":"13203","from_stop_lat":"40.6331249","from_stop_lon":"-89.3985283","from_stop_placename":"Illinois, USA","to_stop_id":"13184","to_stop_name":"origin","to_stop_lat":"39.2425294","to_stop_lon":"-92.8437977","to_stop_placename":"Louisville, MO, USA","to_stop":{"id":"13184","name":"origin","lat":"39.2425294","lon":"-92.8437977","placename":"Louisville, MO, USA"},"from_stop":{"name":"origin","id":"13203","lat":"40.6331249","lon":"-89.3985283","placename":"Illinois, USA"}}]}}},"processes":[],"eols":[]},{"oid":"1558","imid":"1325","linkid":"","weight":"0","rawemissions":"0","emissions":"0","shipping":"332.29","processemissions":null,"endoflifeemissions":null,"disposaltype":null,"disposalenergy":null,"disposalimpact":null,"disposalemissions":null,"description":"","name":"Cheese Culture","id":"1325","stops":{"origin":{"related_to":"1325","part_or_object":"p","notes":null,"placename":"Illinois, USA","id":13204,"name":"origin","lat":"40.6331249","lon":"-89.3985283","hops":{"incoming":[],"outgoing":[{"transport_id":"17","id":"9602","transport_name":"None Selected","transport_description":null,"transport_unit":"kg km","transport_co2_eq":"0.000000","from_stop_id":"13204","from_stop_lat":"40.6331249","from_stop_lon":"-89.3985283","from_stop_placename":"Illinois, USA","to_stop_id":"13184","to_stop_name":"origin","to_stop_lat":"39.2425294","to_stop_lon":"-92.8437977","to_stop_placename":"Louisville, MO, USA","to_stop":{"id":"13184","name":"origin","lat":"39.2425294","lon":"-92.8437977","placename":"Louisville, MO, USA"},"from_stop":{"name":"origin","id":"13204","lat":"40.6331249","lon":"-89.3985283","placename":"Illinois, USA"}}]}}},"processes":[],"eols":[]},{"oid":"1558","imid":"1263","linkid":"","weight":"0","rawemissions":"0","emissions":"0","shipping":"332.29","processemissions":null,"endoflifeemissions":null,"disposaltype":null,"disposalenergy":null,"disposalimpact":null,"disposalemissions":null,"description":"","name":"Whey","id":"1263","stops":{"origin":{"related_to":"1263","part_or_object":"p","notes":null,"placename":"Illinois, USA","id":13185,"name":"origin","lat":"40.6331249","lon":"-89.3985283","hops":{"incoming":[],"outgoing":[{"transport_id":"17","id":"9583","transport_name":"None Selected","transport_description":null,"transport_unit":"kg km","transport_co2_eq":"0.000000","from_stop_id":"13185","from_stop_lat":"40.6331249","from_stop_lon":"-89.3985283","from_stop_placename":"Illinois, USA","to_stop_id":"13184","to_stop_name":"origin","to_stop_lat":"39.2425294","to_stop_lon":"-92.8437977","to_stop_placename":"Louisville, MO, USA","to_stop":{"id":"13184","name":"origin","lat":"39.2425294","lon":"-92.8437977","placename":"Louisville, MO, USA"},"from_stop":{"name":"origin","id":"13185","lat":"40.6331249","lon":"-89.3985283","placename":"Illinois, USA"}}]}}},"processes":[],"eols":[]},{"oid":"1558","imid":"1257","linkid":"parts\/wheat-flour-at-retail","weight":"0","rawemissions":"1.13","emissions":"1.13","shipping":"294.16","processemissions":null,"endoflifeemissions":null,"disposaltype":null,"disposalenergy":null,"disposalimpact":null,"disposalemissions":null,"description":"according to Danish average","name":"Wheat Flour at retail","id":"1257","stops":{"origin":{"related_to":"1257","part_or_object":"p","notes":null,"placename":"Iowa, USA","id":13186,"name":"origin","lat":"41.8780025","lon":"-93.097702","hops":{"incoming":[],"outgoing":[{"transport_id":"17","id":"9584","transport_name":"None Selected","transport_description":null,"transport_unit":"kg km","transport_co2_eq":"0.000000","from_stop_id":"13186","from_stop_lat":"41.8780025","from_stop_lon":"-93.097702","from_stop_placename":"Iowa, USA","to_stop_id":"13184","to_stop_name":"origin","to_stop_lat":"39.2425294","to_stop_lon":"-92.8437977","to_stop_placename":"Louisville, MO, USA","to_stop":{"id":"13184","name":"origin","lat":"39.2425294","lon":"-92.8437977","placename":"Louisville, MO, USA"},"from_stop":{"name":"origin","id":"13186","lat":"41.8780025","lon":"-93.097702","placename":"Iowa, USA"}}]}}},"processes":[],"eols":[]},{"oid":"1558","imid":"1258","linkid":"","weight":"0","rawemissions":"0","emissions":"0","shipping":"7685.58","processemissions":null,"endoflifeemissions":null,"disposaltype":null,"disposalenergy":null,"disposalimpact":null,"disposalemissions":null,"description":"'Lonza produces most of the worlds supply of niacin. Its processing plant is located in Visp, Switzerland.' from http:\/\/thefoodmap.org\/ingredient.php?IngredientID=1","name":"Niacin","id":"1258","stops":{"origin":{"related_to":"1258","part_or_object":"p","notes":null,"placename":"Visp, Switzerland","id":13187,"name":"origin","lat":"46.2922057","lon":"7.8812394","hops":{"incoming":[],"outgoing":[{"transport_id":"17","id":"9585","transport_name":"None Selected","transport_description":null,"transport_unit":"kg km","transport_co2_eq":"0.000000","from_stop_id":"13187","from_stop_lat":"46.2922057","from_stop_lon":"7.8812394","from_stop_placename":"Visp, Switzerland","to_stop_id":"13184","to_stop_name":"origin","to_stop_lat":"39.2425294","to_stop_lon":"-92.8437977","to_stop_placename":"Louisville, MO, USA","to_stop":{"id":"13184","name":"origin","lat":"39.2425294","lon":"-92.8437977","placename":"Louisville, MO, USA"},"from_stop":{"name":"origin","id":"13187","lat":"46.2922057","lon":"7.8812394","placename":"Visp, Switzerland"}}]}}},"processes":[],"eols":[]},{"oid":"1558","imid":"1259","linkid":"","weight":"0","rawemissions":"0","emissions":"0","shipping":"577.22","processemissions":null,"endoflifeemissions":null,"disposaltype":null,"disposalenergy":null,"disposalimpact":null,"disposalemissions":null,"description":"' Crown Technology in Indianapolis, Indiana is the largest producer of ferrous sulfate in the U.S.' from http:\/\/thefoodmap.org\/ingredient.php?IngredientID=2","name":"Ferrous Sulfate (Iron)","id":"1259","stops":{"origin":{"related_to":"1259","part_or_object":"p","notes":null,"placename":"Indianapolis, IN, USA","id":13188,"name":"origin","lat":"39.767016","lon":"-86.156255","hops":{"incoming":[],"outgoing":[{"transport_id":"17","id":"9586","transport_name":"None Selected","transport_description":null,"transport_unit":"kg km","transport_co2_eq":"0.000000","from_stop_id":"13188","from_stop_lat":"39.767016","from_stop_lon":"-86.156255","from_stop_placename":"Indianapolis, IN, USA","to_stop_id":"13184","to_stop_name":"origin","to_stop_lat":"39.2425294","to_stop_lon":"-92.8437977","to_stop_placename":"Louisville, MO, USA","to_stop":{"id":"13184","name":"origin","lat":"39.2425294","lon":"-92.8437977","placename":"Louisville, MO, USA"},"from_stop":{"name":"origin","id":"13188","lat":"39.767016","lon":"-86.156255","placename":"Indianapolis, IN, USA"}}]}}},"processes":[],"eols":[]},{"oid":"1558","imid":"1260","linkid":"","weight":"0","rawemissions":"0","emissions":"0","shipping":"10737.98","processemissions":null,"endoflifeemissions":null,"disposaltype":null,"disposalenergy":null,"disposalimpact":null,"disposalemissions":null,"description":"'one of the most well known producers is the joint venture by the German company BASF and the Tianjin Zhongjin Pharmaceutical Company. They run the worlds largest thiamine mononitrate plant, which is located north of Beijing.' from http:\/\/thefoodmap.org\/ingredient.php?IngredientID=3","name":"Thiamin Mononitrate (Vitamin B1)","id":"1260","stops":{"origin":{"related_to":"1260","part_or_object":"p","notes":null,"placename":"Beijing, China","id":13189,"name":"origin","lat":"39.904667","lon":"116.408198","hops":{"incoming":[],"outgoing":[{"transport_id":"17","id":"9587","transport_name":"None Selected","transport_description":null,"transport_unit":"kg km","transport_co2_eq":"0.000000","from_stop_id":"13189","from_stop_lat":"39.904667","from_stop_lon":"116.408198","from_stop_placename":"Beijing, China","to_stop_id":"13184","to_stop_name":"origin","to_stop_lat":"39.2425294","to_stop_lon":"-92.8437977","to_stop_placename":"Louisville, MO, USA","to_stop":{"id":"13184","name":"origin","lat":"39.2425294","lon":"-92.8437977","placename":"Louisville, MO, USA"},"from_stop":{"name":"origin","id":"13189","lat":"39.904667","lon":"116.408198","placename":"Beijing, China"}}]}}},"processes":[],"eols":[]},{"oid":"1558","imid":"1261","linkid":"","weight":"0","rawemissions":"0","emissions":"0","shipping":"11774.48","processemissions":null,"endoflifeemissions":null,"disposaltype":null,"disposalenergy":null,"disposalimpact":null,"disposalemissions":null,"description":"'The largest producer of B2 in the world is Guangji Pharmaceuticals, located in Hubei, China ' from http:\/\/thefoodmap.org\/ingredient.php?IngredientID=4","name":"Riboflavin (VItamin B2)","id":"1261","stops":{"origin":{"related_to":"1261","part_or_object":"p","notes":null,"placename":"Hubei, China","id":13190,"name":"origin","lat":"30.54565","lon":"114.341719","hops":{"incoming":[],"outgoing":[{"transport_id":"17","id":"9588","transport_name":"None Selected","transport_description":null,"transport_unit":"kg km","transport_co2_eq":"0.000000","from_stop_id":"13190","from_stop_lat":"30.54565","from_stop_lon":"114.341719","from_stop_placename":"Hubei, China","to_stop_id":"13184","to_stop_name":"origin","to_stop_lat":"39.2425294","to_stop_lon":"-92.8437977","to_stop_placename":"Louisville, MO, USA","to_stop":{"id":"13184","name":"origin","lat":"39.2425294","lon":"-92.8437977","placename":"Louisville, MO, USA"},"from_stop":{"name":"origin","id":"13190","lat":"30.54565","lon":"114.341719","placename":"Hubei, China"}}]}}},"processes":[],"eols":[]},{"oid":"1558","imid":"1262","linkid":"","weight":"0","rawemissions":"0","emissions":"0","shipping":"11431.26","processemissions":null,"endoflifeemissions":null,"disposaltype":null,"disposalenergy":null,"disposalimpact":null,"disposalemissions":null,"description":"'The largest producer of B9 is Nuitang Chemical Inc, located in Changzhou, China' from http:\/\/thefoodmap.org\/ingredient.php?IngredientID=5","name":"Folic Acid","id":"1262","stops":{"origin":{"related_to":"1262","part_or_object":"p","notes":null,"placename":"Changzhou, Jiangsu, China","id":13191,"name":"origin","lat":"31.810077","lon":"119.974454","hops":{"incoming":[],"outgoing":[{"transport_id":"17","id":"9589","transport_name":"None Selected","transport_description":null,"transport_unit":"kg km","transport_co2_eq":"0.000000","from_stop_id":"13191","from_stop_lat":"31.810077","from_stop_lon":"119.974454","from_stop_placename":"Changzhou, Jiangsu, China","to_stop_id":"13184","to_stop_name":"origin","to_stop_lat":"39.2425294","to_stop_lon":"-92.8437977","to_stop_placename":"Louisville, MO, USA","to_stop":{"id":"13184","name":"origin","lat":"39.2425294","lon":"-92.8437977","placename":"Louisville, MO, USA"},"from_stop":{"name":"origin","id":"13191","lat":"31.810077","lon":"119.974454","placename":"Changzhou, Jiangsu, China"}}]}}},"processes":[],"eols":[]},{"oid":"1558","imid":"1264","linkid":"","weight":"0","rawemissions":"0","emissions":"0","shipping":"332.29","processemissions":null,"endoflifeemissions":null,"disposaltype":null,"disposalenergy":null,"disposalimpact":null,"disposalemissions":null,"description":"","name":"Milkfat","id":"1264","stops":{"origin":{"related_to":"1264","part_or_object":"p","notes":null,"placename":"Illinois, USA","id":13192,"name":"origin","lat":"40.6331249","lon":"-89.3985283","hops":{"incoming":[],"outgoing":[{"transport_id":"17","id":"9590","transport_name":"None Selected","transport_description":null,"transport_unit":"kg km","transport_co2_eq":"0.000000","from_stop_id":"13192","from_stop_lat":"40.6331249","from_stop_lon":"-89.3985283","from_stop_placename":"Illinois, USA","to_stop_id":"13184","to_stop_name":"origin","to_stop_lat":"39.2425294","to_stop_lon":"-92.8437977","to_stop_placename":"Louisville, MO, USA","to_stop":{"id":"13184","name":"origin","lat":"39.2425294","lon":"-92.8437977","placename":"Louisville, MO, USA"},"from_stop":{"name":"origin","id":"13192","lat":"40.6331249","lon":"-89.3985283","placename":"Illinois, USA"}}]}}},"processes":[],"eols":[]},{"oid":"1558","imid":"1265","linkid":"","weight":"0","rawemissions":"0","emissions":"0","shipping":"167.32","processemissions":null,"endoflifeemissions":null,"disposaltype":null,"disposalenergy":null,"disposalimpact":null,"disposalemissions":null,"description":"","name":"Milk Protein Concentrate","id":"1265","stops":{"origin":{"related_to":"1265","part_or_object":"p","notes":null,"placename":"Missouri, USA","id":13193,"name":"origin","lat":"37.9642529","lon":"-91.8318334","hops":{"incoming":[],"outgoing":[{"transport_id":"17","id":"9591","transport_name":"None Selected","transport_description":null,"transport_unit":"kg km","transport_co2_eq":"0.000000","from_stop_id":"13193","from_stop_lat":"37.9642529","from_stop_lon":"-91.8318334","from_stop_placename":"Missouri, USA","to_stop_id":"13184","to_stop_name":"origin","to_stop_lat":"39.2425294","to_stop_lon":"-92.8437977","to_stop_placename":"Louisville, MO, USA","to_stop":{"id":"13184","name":"origin","lat":"39.2425294","lon":"-92.8437977","placename":"Louisville, MO, USA"},"from_stop":{"name":"origin","id":"13193","lat":"37.9642529","lon":"-91.8318334","placename":"Missouri, USA"}}]}}},"processes":[],"eols":[]},{"oid":"1558","imid":"1266","linkid":"","weight":"0","rawemissions":"0","emissions":"0","shipping":"1295.85","processemissions":null,"endoflifeemissions":null,"disposaltype":null,"disposalenergy":null,"disposalimpact":null,"disposalemissions":null,"description":"","name":"Salt","id":"1266","stops":{"origin":{"related_to":"1266","part_or_object":"p","notes":null,"placename":"Silver Springs, NY, USA","id":13194,"name":"origin","lat":"42.6606177","lon":"-78.0855638","hops":{"incoming":[],"outgoing":[{"transport_id":"17","id":"9592","transport_name":"None Selected","transport_description":null,"transport_unit":"kg km","transport_co2_eq":"0.000000","from_stop_id":"13194","from_stop_lat":"42.6606177","from_stop_lon":"-78.0855638","from_stop_placename":"Silver Springs, NY, USA","to_stop_id":"13184","to_stop_name":"origin","to_stop_lat":"39.2425294","to_stop_lon":"-92.8437977","to_stop_placename":"Louisville, MO, USA","to_stop":{"id":"13184","name":"origin","lat":"39.2425294","lon":"-92.8437977","placename":"Louisville, MO, USA"},"from_stop":{"name":"origin","id":"13194","lat":"42.6606177","lon":"-78.0855638","placename":"Silver Springs, NY, USA"}}]}}},"processes":[],"eols":[]},{"oid":"1558","imid":"1267","linkid":"","weight":"0","rawemissions":"0","emissions":"0","shipping":"10263.89","processemissions":null,"endoflifeemissions":null,"disposaltype":null,"disposalenergy":null,"disposalimpact":null,"disposalemissions":null,"description":"","name":"Sodium Tripolyphosphate","id":"1267","stops":{"origin":{"related_to":"1267","part_or_object":"p","notes":null,"placename":"Ingredient Source","id":13195,"name":"origin","lat":"0","lon":"0","hops":{"incoming":[],"outgoing":[{"transport_id":"17","id":"9593","transport_name":"None Selected","transport_description":null,"transport_unit":"kg km","transport_co2_eq":"0.000000","from_stop_id":"13195","from_stop_lat":"0","from_stop_lon":"0","from_stop_placename":"Ingredient Source","to_stop_id":"13184","to_stop_name":"origin","to_stop_lat":"39.2425294","to_stop_lon":"-92.8437977","to_stop_placename":"Louisville, MO, USA","to_stop":{"id":"13184","name":"origin","lat":"39.2425294","lon":"-92.8437977","placename":"Louisville, MO, USA"},"from_stop":{"name":"origin","id":"13195","lat":"0","lon":"0","placename":"Ingredient Source"}}]}}},"processes":[],"eols":[]}],"user":{"name":"leo","id":"1"}}}