{"1566":{"oid":"1566","type":"object","flag":"","creator":"1","name":"C-17 Cargo Plane Job Creation","upc":"","imagelink":"","description":"This is from the Business Week article <a href='http:\/\/www.businessweek.com\/magazine\/content\/09_45\/b4154046738593.htm'>It's a Bird, It's a Plane, It's Pork!<\/a>. The article illustrates how essential this military aircraft manufacturing is to preserving the jobs of some 30,000 people in 43 states, and the US government continues to order the planes despite the fact that the Pentagon no longer needs them.","slug":"c-17-cargo-plane-job-creation-2","category":"","weight":"0","emissions":"0","embodied":"0","transport":"0","process":"0","endoflife":"0","shipping":"28332.8","lifetime":null,"usagetype":"","usageenergy":null,"usageemissions":null,"timecreated":"2010-02-24 22:03:35.797416","timemodified":"2009-11-02 02:14:26","visibility":"public","showfootprint":"","showembodied":"","showtransport":"","showprocess":"","showendoflife":"","showlastleg":"on","showuse":"","showstats":"","stops":{"origin":{"related_to":"1566","part_or_object":"o","notes":"","placename":"Washington, DC, USA","id":"265","category":"1","lat":"38.8951118","lon":"-77.0363658","name":"origin","hops":{"incoming":[{"transport_id":"17","id":"1084","transport_name":"None Selected","transport_description":null,"transport_unit":"kg km","transport_co2_eq":"0.000000","from_stop_id":"3337","from_stop_lat":"33.4222685","from_stop_lon":"-111.8226402","to_stop_id":"265","to_stop_name":"origin","to_stop_lat":"38.8951118","placename":"Mesa, AZ, USA","to_stop_lon":"-77.0363658","to_stop":{"id":"265","name":"origin","lat":"38.8951118","placename":"Washington, DC, USA","lon":"-77.0363658"},"from_stop":{"name":"origin","id":"3337","lat":"33.4222685","lon":"-111.8226402","placename":"Mesa, AZ, USA"}},{"transport_id":"17","id":"1085","transport_name":"None Selected","transport_description":null,"transport_unit":"kg km","transport_co2_eq":"0.000000","from_stop_id":"3338","from_stop_lat":"33.8883487","from_stop_lon":"-118.3089624","to_stop_id":"265","to_stop_name":"origin","to_stop_lat":"38.8951118","placename":"Gardena, CA, USA","to_stop_lon":"-77.0363658","to_stop":{"id":"265","name":"origin","lat":"38.8951118","placename":"Washington, DC, USA","lon":"-77.0363658"},"from_stop":{"name":"origin","id":"3338","lat":"33.8883487","lon":"-118.3089624","placename":"Gardena, CA, USA"}},{"transport_id":"17","id":"1086","transport_name":"None Selected","transport_description":null,"transport_unit":"kg km","transport_co2_eq":"0.000000","from_stop_id":"3339","from_stop_lat":"32.802955","from_stop_lon":"-96.769923","to_stop_id":"265","to_stop_name":"origin","to_stop_lat":"38.8951118","placename":"Dallas, TX, USA","to_stop_lon":"-77.0363658","to_stop":{"id":"265","name":"origin","lat":"38.8951118","placename":"Washington, DC, USA","lon":"-77.0363658"},"from_stop":{"name":"origin","id":"3339","lat":"32.802955","lon":"-96.769923","placename":"Dallas, TX, USA"}},{"transport_id":"17","id":"1091","transport_name":"None Selected","transport_description":null,"transport_unit":"kg km","transport_co2_eq":"0.000000","from_stop_id":"3344","from_stop_lat":"33.660297","from_stop_lon":"-117.9992265","to_stop_id":"265","to_stop_name":"origin","to_stop_lat":"38.8951118","placename":"Huntington Beach, CA, USA","to_stop_lon":"-77.0363658","to_stop":{"id":"265","name":"origin","lat":"38.8951118","placename":"Washington, DC, USA","lon":"-77.0363658"},"from_stop":{"name":"origin","id":"3344","lat":"33.660297","lon":"-117.9992265","placename":"Huntington Beach, CA, USA"}},{"transport_id":"17","id":"1092","transport_name":"None Selected","transport_description":null,"transport_unit":"kg km","transport_co2_eq":"0.000000","from_stop_id":"3345","from_stop_lat":"33.7669623","from_stop_lon":"-118.1892348","to_stop_id":"265","to_stop_name":"origin","to_stop_lat":"38.8951118","placename":"Long Beach, CA, USA","to_stop_lon":"-77.0363658","to_stop":{"id":"265","name":"origin","lat":"38.8951118","placename":"Washington, DC, USA","lon":"-77.0363658"},"from_stop":{"name":"origin","id":"3345","lat":"33.7669623","lon":"-118.1892348","placename":"Long Beach, CA, USA"}},{"transport_id":"17","id":"1093","transport_name":"None Selected","transport_description":null,"transport_unit":"kg km","transport_co2_eq":"0.000000","from_stop_id":"3346","from_stop_lat":"29.4241219","from_stop_lon":"-98.4936282","to_stop_id":"265","to_stop_name":"origin","to_stop_lat":"38.8951118","placename":"San Antonio, TX, USA","to_stop_lon":"-77.0363658","to_stop":{"id":"265","name":"origin","lat":"38.8951118","placename":"Washington, DC, USA","lon":"-77.0363658"},"from_stop":{"name":"origin","id":"3346","lat":"29.4241219","lon":"-98.4936282","placename":"San Antonio, TX, USA"}},{"transport_id":"17","id":"1094","transport_name":"None Selected","transport_description":null,"transport_unit":"kg km","transport_co2_eq":"0.000000","from_stop_id":"3347","from_stop_lat":"32.7459645","from_stop_lon":"-96.9977846","to_stop_id":"265","to_stop_name":"origin","to_stop_lat":"38.8951118","placename":"Grand Prairie, TX, USA","to_stop_lon":"-77.0363658","to_stop":{"id":"265","name":"origin","lat":"38.8951118","placename":"Washington, DC, USA","lon":"-77.0363658"},"from_stop":{"name":"origin","id":"3347","lat":"32.7459645","lon":"-96.9977846","placename":"Grand Prairie, TX, USA"}},{"transport_id":"17","id":"1095","transport_name":"None Selected","transport_description":null,"transport_unit":"kg km","transport_co2_eq":"0.000000","from_stop_id":"3348","from_stop_lat":"37.9642529","from_stop_lon":"-91.8318334","to_stop_id":"265","to_stop_name":"origin","to_stop_lat":"38.8951118","placename":"Missouri, USA","to_stop_lon":"-77.0363658","to_stop":{"id":"265","name":"origin","lat":"38.8951118","placename":"Washington, DC, USA","lon":"-77.0363658"},"from_stop":{"name":"origin","id":"3348","lat":"37.9642529","lon":"-91.8318334","placename":"Missouri, USA"}},{"transport_id":"17","id":"1096","transport_name":"None Selected","transport_description":null,"transport_unit":"kg km","transport_co2_eq":"0.000000","from_stop_id":"3349","from_stop_lat":"38.646991","from_stop_lon":"-90.224967","to_stop_id":"265","to_stop_name":"origin","to_stop_lat":"38.8951118","placename":"Saint Louis, MO, USA","to_stop_lon":"-77.0363658","to_stop":{"id":"265","name":"origin","lat":"38.8951118","placename":"Washington, DC, USA","lon":"-77.0363658"},"from_stop":{"name":"origin","id":"3349","lat":"38.646991","lon":"-90.224967","placename":"Saint Louis, MO, USA"}},{"transport_id":"17","id":"1097","transport_name":"None Selected","transport_description":null,"transport_unit":"kg km","transport_co2_eq":"0.000000","from_stop_id":"3350","from_stop_lat":"30.3321838","from_stop_lon":"-81.655651","to_stop_id":"265","to_stop_name":"origin","to_stop_lat":"38.8951118","placename":"Jacksonville, FL, USA","to_stop_lon":"-77.0363658","to_stop":{"id":"265","name":"origin","lat":"38.8951118","placename":"Washington, DC, USA","lon":"-77.0363658"},"from_stop":{"name":"origin","id":"3350","lat":"30.3321838","lon":"-81.655651","placename":"Jacksonville, FL, USA"}},{"transport_id":"17","id":"1098","transport_name":"None Selected","transport_description":null,"transport_unit":"kg km","transport_co2_eq":"0.000000","from_stop_id":"3351","from_stop_lat":"42.2711311","from_stop_lon":"-89.0939952","to_stop_id":"265","to_stop_name":"origin","to_stop_lat":"38.8951118","placename":"Rockford, IL, USA","to_stop_lon":"-77.0363658","to_stop":{"id":"265","name":"origin","lat":"38.8951118","placename":"Washington, DC, USA","lon":"-77.0363658"},"from_stop":{"name":"origin","id":"3351","lat":"42.2711311","lon":"-89.0939952","placename":"Rockford, IL, USA"}},{"transport_id":"17","id":"1099","transport_name":"None Selected","transport_description":null,"transport_unit":"kg km","transport_co2_eq":"0.000000","from_stop_id":"3352","from_stop_lat":"41.6833813","from_stop_lon":"-86.2500066","to_stop_id":"265","to_stop_name":"origin","to_stop_lat":"38.8951118","placename":"South Bend, IN, USA","to_stop_lon":"-77.0363658","to_stop":{"id":"265","name":"origin","lat":"38.8951118","placename":"Washington, DC, USA","lon":"-77.0363658"},"from_stop":{"name":"origin","id":"3352","lat":"41.6833813","lon":"-86.2500066","placename":"South Bend, IN, USA"}},{"transport_id":"17","id":"1100","transport_name":"None Selected","transport_description":null,"transport_unit":"kg km","transport_co2_eq":"0.000000","from_stop_id":"3353","from_stop_lat":"41.4994954","from_stop_lon":"-81.6954088","to_stop_id":"265","to_stop_name":"origin","to_stop_lat":"38.8951118","placename":"Cleveland, OH, USA","to_stop_lon":"-77.0363658","to_stop":{"id":"265","name":"origin","lat":"38.8951118","placename":"Washington, DC, USA","lon":"-77.0363658"},"from_stop":{"name":"origin","id":"3353","lat":"41.4994954","lon":"-81.6954088","placename":"Cleveland, OH, USA"}},{"transport_id":"17","id":"1101","transport_name":"None Selected","transport_description":null,"transport_unit":"kg km","transport_co2_eq":"0.000000","from_stop_id":"3354","from_stop_lat":"42.1156308","from_stop_lon":"-75.9588092","to_stop_id":"265","to_stop_name":"origin","to_stop_lat":"38.8951118","placename":"Johnson City, NY, USA","to_stop_lon":"-77.0363658","to_stop":{"id":"265","name":"origin","lat":"38.8951118","placename":"Washington, DC, USA","lon":"-77.0363658"},"from_stop":{"name":"origin","id":"3354","lat":"42.1156308","lon":"-75.9588092","placename":"Johnson City, NY, USA"}},{"transport_id":"17","id":"1102","transport_name":"None Selected","transport_description":null,"transport_unit":"kg km","transport_co2_eq":"0.000000","from_stop_id":"3355","from_stop_lat":"40.7325997","from_stop_lon":"-73.4454009","to_stop_id":"265","to_stop_name":"origin","to_stop_lat":"38.8951118","placename":"Farmingdale, NY, USA","to_stop_lon":"-77.0363658","to_stop":{"id":"265","name":"origin","lat":"38.8951118","placename":"Washington, DC, USA","lon":"-77.0363658"},"from_stop":{"name":"origin","id":"3355","lat":"40.7325997","lon":"-73.4454009","placename":"Farmingdale, NY, USA"}},{"transport_id":"17","id":"1103","transport_name":"None Selected","transport_description":null,"transport_unit":"kg km","transport_co2_eq":"0.000000","from_stop_id":"3356","from_stop_lat":"41.5623209","from_stop_lon":"-72.6506488","to_stop_id":"265","to_stop_name":"origin","to_stop_lat":"38.8951118","placename":"Middletown, CT, USA","to_stop_lon":"-77.0363658","to_stop":{"id":"265","name":"origin","lat":"38.8951118","placename":"Washington, DC, USA","lon":"-77.0363658"},"from_stop":{"name":"origin","id":"3356","lat":"41.5623209","lon":"-72.6506488","placename":"Middletown, CT, USA"}},{"transport_id":"17","id":"1104","transport_name":"None Selected","transport_description":null,"transport_unit":"kg km","transport_co2_eq":"0.000000","from_stop_id":"3357","from_stop_lat":"32.8406946","from_stop_lon":"-83.6324022","to_stop_id":"265","to_stop_name":"origin","to_stop_lat":"38.8951118","placename":"Macon, GA, USA","to_stop_lon":"-77.0363658","to_stop":{"id":"265","name":"origin","lat":"38.8951118","placename":"Washington, DC, USA","lon":"-77.0363658"},"from_stop":{"name":"origin","id":"3357","lat":"32.8406946","lon":"-83.6324022","placename":"Macon, GA, USA"}}],"outgoing":[]}}},"parts":[{"oid":"1566","imid":"1304","linkid":"","weight":"0","rawemissions":"0","emissions":"0","shipping":"3165.47","processemissions":null,"endoflifeemissions":null,"disposaltype":null,"disposalenergy":null,"disposalimpact":null,"disposalemissions":null,"description":"","name":"Wire Harness","id":"1304","stops":{"origin":{"related_to":"1304","part_or_object":"p","notes":"","placename":"Mesa, AZ, USA","id":3337,"name":"origin","lat":"33.4222685","lon":"-111.8226402","hops":{"incoming":[],"outgoing":[{"transport_id":"17","id":"1084","transport_name":"None Selected","transport_description":null,"transport_unit":"kg km","transport_co2_eq":"0.000000","from_stop_id":"3337","from_stop_lat":"33.4222685","from_stop_lon":"-111.8226402","from_stop_placename":"Mesa, AZ, USA","to_stop_id":"265","to_stop_name":"origin","to_stop_lat":"38.8951118","to_stop_lon":"-77.0363658","to_stop_placename":"Washington, DC, USA","to_stop":{"id":"265","name":"origin","lat":"38.8951118","lon":"-77.0363658","placename":"Washington, DC, USA"},"from_stop":{"name":"origin","id":"3337","lat":"33.4222685","lon":"-111.8226402","placename":"Mesa, AZ, USA"}}]}}},"processes":[],"eols":[]},{"oid":"1566","imid":"1303","linkid":"","weight":"0","rawemissions":"0","emissions":"0","shipping":"3708.37","processemissions":null,"endoflifeemissions":null,"disposaltype":null,"disposalenergy":null,"disposalimpact":null,"disposalemissions":null,"description":"Ducommun","name":"Fuselage Panels","id":"1303","stops":{"origin":{"related_to":"1303","part_or_object":"p","notes":"","placename":"Gardena, CA, USA","id":3338,"name":"origin","lat":"33.8883487","lon":"-118.3089624","hops":{"incoming":[],"outgoing":[{"transport_id":"17","id":"1085","transport_name":"None Selected","transport_description":null,"transport_unit":"kg km","transport_co2_eq":"0.000000","from_stop_id":"3338","from_stop_lat":"33.8883487","from_stop_lon":"-118.3089624","from_stop_placename":"Gardena, CA, USA","to_stop_id":"265","to_stop_name":"origin","to_stop_lat":"38.8951118","to_stop_lon":"-77.0363658","to_stop_placename":"Washington, DC, USA","to_stop":{"id":"265","name":"origin","lat":"38.8951118","lon":"-77.0363658","placename":"Washington, DC, USA"},"from_stop":{"name":"origin","id":"3338","lat":"33.8883487","lon":"-118.3089624","placename":"Gardena, CA, USA"}}]}}},"processes":[],"eols":[]},{"oid":"1566","imid":"1283","linkid":"","weight":"0","rawemissions":"0","emissions":"0","shipping":"1900.5","processemissions":null,"endoflifeemissions":null,"disposaltype":null,"disposalenergy":null,"disposalimpact":null,"disposalemissions":null,"description":"","name":"Structural Components","id":"1283","stops":{"origin":{"related_to":"1283","part_or_object":"p","notes":"","placename":"Dallas, TX, USA","id":3339,"name":"origin","lat":"32.802955","lon":"-96.769923","hops":{"incoming":[],"outgoing":[{"transport_id":"17","id":"1086","transport_name":"None Selected","transport_description":null,"transport_unit":"kg km","transport_co2_eq":"0.000000","from_stop_id":"3339","from_stop_lat":"32.802955","from_stop_lon":"-96.769923","from_stop_placename":"Dallas, TX, USA","to_stop_id":"265","to_stop_name":"origin","to_stop_lat":"38.8951118","to_stop_lon":"-77.0363658","to_stop_placename":"Washington, DC, USA","to_stop":{"id":"265","name":"origin","lat":"38.8951118","lon":"-77.0363658","placename":"Washington, DC, USA"},"from_stop":{"name":"origin","id":"3339","lat":"32.802955","lon":"-96.769923","placename":"Dallas, TX, USA"}}]}}},"processes":[],"eols":[]},{"oid":"1566","imid":"1289","linkid":"","weight":"0","rawemissions":"0","emissions":"0","shipping":"3690.68","processemissions":null,"endoflifeemissions":null,"disposaltype":null,"disposalenergy":null,"disposalimpact":null,"disposalemissions":null,"description":"Boeing","name":"Quick Response Center","id":"1289","stops":{"origin":{"related_to":"1289","part_or_object":"p","notes":"","placename":"Huntington Beach, CA, USA","id":3344,"name":"origin","lat":"33.660297","lon":"-117.9992265","hops":{"incoming":[],"outgoing":[{"transport_id":"17","id":"1091","transport_name":"None Selected","transport_description":null,"transport_unit":"kg km","transport_co2_eq":"0.000000","from_stop_id":"3344","from_stop_lat":"33.660297","from_stop_lon":"-117.9992265","from_stop_placename":"Huntington Beach, CA, USA","to_stop_id":"265","to_stop_name":"origin","to_stop_lat":"38.8951118","to_stop_lon":"-77.0363658","to_stop_placename":"Washington, DC, USA","to_stop":{"id":"265","name":"origin","lat":"38.8951118","lon":"-77.0363658","placename":"Washington, DC, USA"},"from_stop":{"name":"origin","id":"3344","lat":"33.660297","lon":"-117.9992265","placename":"Huntington Beach, CA, USA"}}]}}},"processes":[],"eols":[]},{"oid":"1566","imid":"1290","linkid":"","weight":"0","rawemissions":"0","emissions":"0","shipping":"3702.84","processemissions":null,"endoflifeemissions":null,"disposaltype":null,"disposalenergy":null,"disposalimpact":null,"disposalemissions":null,"description":"","name":"Final Assembly","id":"1290","stops":{"origin":{"related_to":"1290","part_or_object":"p","notes":"","placename":"Long Beach, CA, USA","id":3345,"name":"origin","lat":"33.7669623","lon":"-118.1892348","hops":{"incoming":[],"outgoing":[{"transport_id":"17","id":"1092","transport_name":"None Selected","transport_description":null,"transport_unit":"kg km","transport_co2_eq":"0.000000","from_stop_id":"3345","from_stop_lat":"33.7669623","from_stop_lon":"-118.1892348","from_stop_placename":"Long Beach, CA, USA","to_stop_id":"265","to_stop_name":"origin","to_stop_lat":"38.8951118","to_stop_lon":"-77.0363658","to_stop_placename":"Washington, DC, USA","to_stop":{"id":"265","name":"origin","lat":"38.8951118","lon":"-77.0363658","placename":"Washington, DC, USA"},"from_stop":{"name":"origin","id":"3345","lat":"33.7669623","lon":"-118.1892348","placename":"Long Beach, CA, USA"}}]}}},"processes":[],"eols":[]},{"oid":"1566","imid":"1291","linkid":"","weight":"0","rawemissions":"0","emissions":"0","shipping":"2232.14","processemissions":null,"endoflifeemissions":null,"disposaltype":null,"disposalenergy":null,"disposalimpact":null,"disposalemissions":null,"description":"Boeing","name":"Inspections","id":"1291","stops":{"origin":{"related_to":"1291","part_or_object":"p","notes":"","placename":"San Antonio, TX, USA","id":3346,"name":"origin","lat":"29.4241219","lon":"-98.4936282","hops":{"incoming":[],"outgoing":[{"transport_id":"17","id":"1093","transport_name":"None Selected","transport_description":null,"transport_unit":"kg km","transport_co2_eq":"0.000000","from_stop_id":"3346","from_stop_lat":"29.4241219","from_stop_lon":"-98.4936282","from_stop_placename":"San Antonio, TX, USA","to_stop_id":"265","to_stop_name":"origin","to_stop_lat":"38.8951118","to_stop_lon":"-77.0363658","to_stop_placename":"Washington, DC, USA","to_stop":{"id":"265","name":"origin","lat":"38.8951118","lon":"-77.0363658","placename":"Washington, DC, USA"},"from_stop":{"name":"origin","id":"3346","lat":"29.4241219","lon":"-98.4936282","placename":"San Antonio, TX, USA"}}]}}},"processes":[],"eols":[]},{"oid":"1566","imid":"1292","linkid":"","weight":"0","rawemissions":"0","emissions":"0","shipping":"1922.42","processemissions":null,"endoflifeemissions":null,"disposaltype":null,"disposalenergy":null,"disposalimpact":null,"disposalemissions":null,"description":"","name":"Windshield Panels","id":"1292","stops":{"origin":{"related_to":"1292","part_or_object":"p","notes":"","placename":"Grand Prairie, TX, USA","id":3347,"name":"origin","lat":"32.7459645","lon":"-96.9977846","hops":{"incoming":[],"outgoing":[{"transport_id":"17","id":"1094","transport_name":"None Selected","transport_description":null,"transport_unit":"kg km","transport_co2_eq":"0.000000","from_stop_id":"3347","from_stop_lat":"32.7459645","from_stop_lon":"-96.9977846","from_stop_placename":"Grand Prairie, TX, USA","to_stop_id":"265","to_stop_name":"origin","to_stop_lat":"38.8951118","to_stop_lon":"-77.0363658","to_stop_placename":"Washington, DC, USA","to_stop":{"id":"265","name":"origin","lat":"38.8951118","lon":"-77.0363658","placename":"Washington, DC, USA"},"from_stop":{"name":"origin","id":"3347","lat":"32.7459645","lon":"-96.9977846","placename":"Grand Prairie, TX, USA"}}]}}},"processes":[],"eols":[]},{"oid":"1566","imid":"1293","linkid":"","weight":"0","rawemissions":"0","emissions":"0","shipping":"1292.96","processemissions":null,"endoflifeemissions":null,"disposaltype":null,"disposalenergy":null,"disposalimpact":null,"disposalemissions":null,"description":"","name":"Cockpit Structures","id":"1293","stops":{"origin":{"related_to":"1293","part_or_object":"p","notes":"","placename":"Missouri, USA","id":3348,"name":"origin","lat":"37.9642529","lon":"-91.8318334","hops":{"incoming":[],"outgoing":[{"transport_id":"17","id":"1095","transport_name":"None Selected","transport_description":null,"transport_unit":"kg km","transport_co2_eq":"0.000000","from_stop_id":"3348","from_stop_lat":"37.9642529","from_stop_lon":"-91.8318334","from_stop_placename":"Missouri, USA","to_stop_id":"265","to_stop_name":"origin","to_stop_lat":"38.8951118","to_stop_lon":"-77.0363658","to_stop_placename":"Washington, DC, USA","to_stop":{"id":"265","name":"origin","lat":"38.8951118","lon":"-77.0363658","placename":"Washington, DC, USA"},"from_stop":{"name":"origin","id":"3348","lat":"37.9642529","lon":"-91.8318334","placename":"Missouri, USA"}}]}}},"processes":[],"eols":[]},{"oid":"1566","imid":"1294","linkid":"","weight":"0","rawemissions":"0","emissions":"0","shipping":"1143.99","processemissions":null,"endoflifeemissions":null,"disposaltype":null,"disposalenergy":null,"disposalimpact":null,"disposalemissions":null,"description":"","name":"Cargo Door and Ramp Assembly","id":"1294","stops":{"origin":{"related_to":"1294","part_or_object":"p","notes":"","placename":"Saint Louis, MO, USA","id":3349,"name":"origin","lat":"38.646991","lon":"-90.224967","hops":{"incoming":[],"outgoing":[{"transport_id":"17","id":"1096","transport_name":"None Selected","transport_description":null,"transport_unit":"kg km","transport_co2_eq":"0.000000","from_stop_id":"3349","from_stop_lat":"38.646991","from_stop_lon":"-90.224967","from_stop_placename":"Saint Louis, MO, USA","to_stop_id":"265","to_stop_name":"origin","to_stop_lat":"38.8951118","to_stop_lon":"-77.0363658","to_stop_placename":"Washington, DC, USA","to_stop":{"id":"265","name":"origin","lat":"38.8951118","lon":"-77.0363658","placename":"Washington, DC, USA"},"from_stop":{"name":"origin","id":"3349","lat":"38.646991","lon":"-90.224967","placename":"Saint Louis, MO, USA"}}]}}},"processes":[],"eols":[]},{"oid":"1566","imid":"1295","linkid":"","weight":"0","rawemissions":"0","emissions":"0","shipping":"1042.54","processemissions":null,"endoflifeemissions":null,"disposaltype":null,"disposalenergy":null,"disposalimpact":null,"disposalemissions":null,"description":"","name":"Internal Wing Stuctures","id":"1295","stops":{"origin":{"related_to":"1295","part_or_object":"p","notes":"","placename":"Jacksonville, FL, USA","id":3350,"name":"origin","lat":"30.3321838","lon":"-81.655651","hops":{"incoming":[],"outgoing":[{"transport_id":"17","id":"1097","transport_name":"None Selected","transport_description":null,"transport_unit":"kg km","transport_co2_eq":"0.000000","from_stop_id":"3350","from_stop_lat":"30.3321838","from_stop_lon":"-81.655651","from_stop_placename":"Jacksonville, FL, USA","to_stop_id":"265","to_stop_name":"origin","to_stop_lat":"38.8951118","to_stop_lon":"-77.0363658","to_stop_placename":"Washington, DC, USA","to_stop":{"id":"265","name":"origin","lat":"38.8951118","lon":"-77.0363658","placename":"Washington, DC, USA"},"from_stop":{"name":"origin","id":"3350","lat":"30.3321838","lon":"-81.655651","placename":"Jacksonville, FL, USA"}}]}}},"processes":[],"eols":[]},{"oid":"1566","imid":"1296","linkid":"","weight":"0","rawemissions":"0","emissions":"0","shipping":"1085.27","processemissions":null,"endoflifeemissions":null,"disposaltype":null,"disposalenergy":null,"disposalimpact":null,"disposalemissions":null,"description":"","name":"Electric Power System","id":"1296","stops":{"origin":{"related_to":"1296","part_or_object":"p","notes":"","placename":"Rockford, IL, USA","id":3351,"name":"origin","lat":"42.2711311","lon":"-89.0939952","hops":{"incoming":[],"outgoing":[{"transport_id":"17","id":"1098","transport_name":"None Selected","transport_description":null,"transport_unit":"kg km","transport_co2_eq":"0.000000","from_stop_id":"3351","from_stop_lat":"42.2711311","from_stop_lon":"-89.0939952","from_stop_placename":"Rockford, IL, USA","to_stop_id":"265","to_stop_name":"origin","to_stop_lat":"38.8951118","to_stop_lon":"-77.0363658","to_stop_placename":"Washington, DC, USA","to_stop":{"id":"265","name":"origin","lat":"38.8951118","lon":"-77.0363658","placename":"Washington, DC, USA"},"from_stop":{"name":"origin","id":"3351","lat":"42.2711311","lon":"-89.0939952","placename":"Rockford, IL, USA"}}]}}},"processes":[],"eols":[]},{"oid":"1566","imid":"1297","linkid":"","weight":"0","rawemissions":"0","emissions":"0","shipping":"841.13","processemissions":null,"endoflifeemissions":null,"disposaltype":null,"disposalenergy":null,"disposalimpact":null,"disposalemissions":null,"description":"Honeywell","name":"Wheel and Brake Components","id":"1297","stops":{"origin":{"related_to":"1297","part_or_object":"p","notes":"","placename":"South Bend, IN, USA","id":3352,"name":"origin","lat":"41.6833813","lon":"-86.2500066","hops":{"incoming":[],"outgoing":[{"transport_id":"17","id":"1099","transport_name":"None Selected","transport_description":null,"transport_unit":"kg km","transport_co2_eq":"0.000000","from_stop_id":"3352","from_stop_lat":"41.6833813","from_stop_lon":"-86.2500066","from_stop_placename":"South Bend, IN, USA","to_stop_id":"265","to_stop_name":"origin","to_stop_lat":"38.8951118","to_stop_lon":"-77.0363658","to_stop_placename":"Washington, DC, USA","to_stop":{"id":"265","name":"origin","lat":"38.8951118","lon":"-77.0363658","placename":"Washington, DC, USA"},"from_stop":{"name":"origin","id":"3352","lat":"41.6833813","lon":"-86.2500066","placename":"South Bend, IN, USA"}}]}}},"processes":[],"eols":[]},{"oid":"1566","imid":"1298","linkid":"","weight":"0","rawemissions":"0","emissions":"0","shipping":"490.78","processemissions":null,"endoflifeemissions":null,"disposaltype":null,"disposalenergy":null,"disposalimpact":null,"disposalemissions":null,"description":"Goodrich","name":"Landing Gear","id":"1298","stops":{"origin":{"related_to":"1298","part_or_object":"p","notes":"","placename":"Cleveland, OH, USA","id":3353,"name":"origin","lat":"41.4994954","lon":"-81.6954088","hops":{"incoming":[],"outgoing":[{"transport_id":"17","id":"1100","transport_name":"None Selected","transport_description":null,"transport_unit":"kg km","transport_co2_eq":"0.000000","from_stop_id":"3353","from_stop_lat":"41.4994954","from_stop_lon":"-81.6954088","from_stop_placename":"Cleveland, OH, USA","to_stop_id":"265","to_stop_name":"origin","to_stop_lat":"38.8951118","to_stop_lon":"-77.0363658","to_stop_placename":"Washington, DC, USA","to_stop":{"id":"265","name":"origin","lat":"38.8951118","lon":"-77.0363658","placename":"Washington, DC, USA"},"from_stop":{"name":"origin","id":"3353","lat":"41.4994954","lon":"-81.6954088","placename":"Cleveland, OH, USA"}}]}}},"processes":[],"eols":[]},{"oid":"1566","imid":"1299","linkid":"","weight":"0","rawemissions":"0","emissions":"0","shipping":"369.92","processemissions":null,"endoflifeemissions":null,"disposaltype":null,"disposalenergy":null,"disposalimpact":null,"disposalemissions":null,"description":"BAE Systems","name":"Electronics","id":"1299","stops":{"origin":{"related_to":"1299","part_or_object":"p","notes":"","placename":"Johnson City, NY, USA","id":3354,"name":"origin","lat":"42.1156308","lon":"-75.9588092","hops":{"incoming":[],"outgoing":[{"transport_id":"17","id":"1101","transport_name":"None Selected","transport_description":null,"transport_unit":"kg km","transport_co2_eq":"0.000000","from_stop_id":"3354","from_stop_lat":"42.1156308","from_stop_lon":"-75.9588092","from_stop_placename":"Johnson City, NY, USA","to_stop_id":"265","to_stop_name":"origin","to_stop_lat":"38.8951118","to_stop_lon":"-77.0363658","to_stop_placename":"Washington, DC, USA","to_stop":{"id":"265","name":"origin","lat":"38.8951118","lon":"-77.0363658","placename":"Washington, DC, USA"},"from_stop":{"name":"origin","id":"3354","lat":"42.1156308","lon":"-75.9588092","placename":"Johnson City, NY, USA"}}]}}},"processes":[],"eols":[]},{"oid":"1566","imid":"1300","linkid":"","weight":"0","rawemissions":"0","emissions":"0","shipping":"368.9","processemissions":null,"endoflifeemissions":null,"disposaltype":null,"disposalenergy":null,"disposalimpact":null,"disposalemissions":null,"description":"Telephonics","name":"Radio Management Systems","id":"1300","stops":{"origin":{"related_to":"1300","part_or_object":"p","notes":"","placename":"Farmingdale, NY, USA","id":3355,"name":"origin","lat":"40.7325997","lon":"-73.4454009","hops":{"incoming":[],"outgoing":[{"transport_id":"17","id":"1102","transport_name":"None Selected","transport_description":null,"transport_unit":"kg km","transport_co2_eq":"0.000000","from_stop_id":"3355","from_stop_lat":"40.7325997","from_stop_lon":"-73.4454009","from_stop_placename":"Farmingdale, NY, USA","to_stop_id":"265","to_stop_name":"origin","to_stop_lat":"38.8951118","to_stop_lon":"-77.0363658","to_stop_placename":"Washington, DC, USA","to_stop":{"id":"265","name":"origin","lat":"38.8951118","lon":"-77.0363658","placename":"Washington, DC, USA"},"from_stop":{"name":"origin","id":"3355","lat":"40.7325997","lon":"-73.4454009","placename":"Farmingdale, NY, USA"}}]}}},"processes":[],"eols":[]},{"oid":"1566","imid":"1301","linkid":"","weight":"0","rawemissions":"0","emissions":"0","shipping":"476.43","processemissions":null,"endoflifeemissions":null,"disposaltype":null,"disposalenergy":null,"disposalimpact":null,"disposalemissions":null,"description":"Pratt & Whitney","name":"Engines","id":"1301","stops":{"origin":{"related_to":"1301","part_or_object":"p","notes":"","placename":"Middletown, CT, USA","id":3356,"name":"origin","lat":"41.5623209","lon":"-72.6506488","hops":{"incoming":[],"outgoing":[{"transport_id":"17","id":"1103","transport_name":"None Selected","transport_description":null,"transport_unit":"kg km","transport_co2_eq":"0.000000","from_stop_id":"3356","from_stop_lat":"41.5623209","from_stop_lon":"-72.6506488","from_stop_placename":"Middletown, CT, USA","to_stop_id":"265","to_stop_name":"origin","to_stop_lat":"38.8951118","to_stop_lon":"-77.0363658","to_stop_placename":"Washington, DC, USA","to_stop":{"id":"265","name":"origin","lat":"38.8951118","lon":"-77.0363658","placename":"Washington, DC, USA"},"from_stop":{"name":"origin","id":"3356","lat":"41.5623209","lon":"-72.6506488","placename":"Middletown, CT, USA"}}]}}},"processes":[],"eols":[]},{"oid":"1566","imid":"1302","linkid":"","weight":"0","rawemissions":"0","emissions":"0","shipping":"898.51","processemissions":null,"endoflifeemissions":null,"disposaltype":null,"disposalenergy":null,"disposalimpact":null,"disposalemissions":null,"description":"Boeing","name":"Sub Assembly Work","id":"1302","stops":{"origin":{"related_to":"1302","part_or_object":"p","notes":"","placename":"Macon, GA, USA","id":3357,"name":"origin","lat":"32.8406946","lon":"-83.6324022","hops":{"incoming":[],"outgoing":[{"transport_id":"17","id":"1104","transport_name":"None Selected","transport_description":null,"transport_unit":"kg km","transport_co2_eq":"0.000000","from_stop_id":"3357","from_stop_lat":"32.8406946","from_stop_lon":"-83.6324022","from_stop_placename":"Macon, GA, USA","to_stop_id":"265","to_stop_name":"origin","to_stop_lat":"38.8951118","to_stop_lon":"-77.0363658","to_stop_placename":"Washington, DC, USA","to_stop":{"id":"265","name":"origin","lat":"38.8951118","lon":"-77.0363658","placename":"Washington, DC, USA"},"from_stop":{"name":"origin","id":"3357","lat":"32.8406946","lon":"-83.6324022","placename":"Macon, GA, USA"}}]}}},"processes":[],"eols":[]}],"user":{"name":"leo","id":"1"}}}