{"1568":{"oid":"1568","type":"object","flag":"","creator":"1","name":"C-17 Cargo Plane Job Creation","upc":"","imagelink":"","description":"","slug":"c-17-cargo-plane-job-creation","category":"","weight":"0","emissions":"0","embodied":"0","transport":"0","process":"0","endoflife":"0","shipping":"3708.37","lifetime":null,"usagetype":"","usageenergy":null,"usageemissions":null,"timecreated":"2010-02-24 22:03:35.793047","timemodified":"2009-11-01 23:04:23","visibility":"private","showfootprint":"on","showembodied":"on","showtransport":"on","showprocess":"on","showendoflife":"on","showlastleg":"on","showuse":"on","showstats":"on","stops":{"origin":{"related_to":"1568","part_or_object":"o","notes":"","placename":"Washington, DC, USA","id":"263","category":"1","lat":"38.8951118","lon":"-77.0363658","name":"origin","hops":{"incoming":[{"transport_id":"17","id":"1087","transport_name":"None Selected","transport_description":null,"transport_unit":"kg km","transport_co2_eq":"0.000000","from_stop_id":"3340","from_stop_lat":"33.8883487","from_stop_lon":"-118.3089624","to_stop_id":"263","to_stop_name":"origin","to_stop_lat":"38.8951118","placename":"Gardena, CA, USA","to_stop_lon":"-77.0363658","to_stop":{"id":"263","name":"origin","lat":"38.8951118","placename":"Washington, DC, USA","lon":"-77.0363658"},"from_stop":{"name":"origin","id":"3340","lat":"33.8883487","lon":"-118.3089624","placename":"Gardena, CA, USA"}},{"transport_id":"17","id":"1088","transport_name":"None Selected","transport_description":null,"transport_unit":"kg km","transport_co2_eq":"0.000000","from_stop_id":"3341","from_stop_lat":"0","from_stop_lon":"0","to_stop_id":"263","to_stop_name":"origin","to_stop_lat":"38.8951118","placename":"Part Location","to_stop_lon":"-77.0363658","to_stop":{"id":"263","name":"origin","lat":"38.8951118","placename":"Washington, DC, USA","lon":"-77.0363658"},"from_stop":{"name":"origin","id":"3341","lat":"0","lon":"0","placename":"Part Location"}}],"outgoing":[]}}},"parts":[{"oid":"1568","imid":"1285","linkid":"","weight":"0","rawemissions":"0","emissions":"0","shipping":"3708.37","processemissions":null,"endoflifeemissions":null,"disposaltype":null,"disposalenergy":null,"disposalimpact":null,"disposalemissions":null,"description":"Ducommun","name":"Fuselage Panels","id":"1285","stops":{"origin":{"related_to":"1285","part_or_object":"p","notes":"","placename":"Gardena, CA, USA","id":3340,"name":"origin","lat":"33.8883487","lon":"-118.3089624","hops":{"incoming":[],"outgoing":[{"transport_id":"17","id":"1087","transport_name":"None Selected","transport_description":null,"transport_unit":"kg km","transport_co2_eq":"0.000000","from_stop_id":"3340","from_stop_lat":"33.8883487","from_stop_lon":"-118.3089624","from_stop_placename":"Gardena, CA, USA","to_stop_id":"263","to_stop_name":"origin","to_stop_lat":"38.8951118","to_stop_lon":"-77.0363658","to_stop_placename":"Washington, DC, USA","to_stop":{"id":"263","name":"origin","lat":"38.8951118","lon":"-77.0363658","placename":"Washington, DC, USA"},"from_stop":{"name":"origin","id":"3340","lat":"33.8883487","lon":"-118.3089624","placename":"Gardena, CA, USA"}}]}}},"processes":[],"eols":[]},{"oid":"1568","imid":"1286","linkid":"","weight":"0","rawemissions":"0","emissions":"0","shipping":"0","processemissions":null,"endoflifeemissions":null,"disposaltype":null,"disposalenergy":null,"disposalimpact":null,"disposalemissions":null,"description":"","name":"Wire Harness","id":"1286","stops":{"origin":{"related_to":"1286","part_or_object":"p","notes":"","placename":"Part Location","id":3341,"name":"origin","lat":"0","lon":"0","hops":{"incoming":[],"outgoing":[{"transport_id":"17","id":"1088","transport_name":"None Selected","transport_description":null,"transport_unit":"kg km","transport_co2_eq":"0.000000","from_stop_id":"3341","from_stop_lat":"0","from_stop_lon":"0","from_stop_placename":"Part Location","to_stop_id":"263","to_stop_name":"origin","to_stop_lat":"38.8951118","to_stop_lon":"-77.0363658","to_stop_placename":"Washington, DC, USA","to_stop":{"id":"263","name":"origin","lat":"38.8951118","lon":"-77.0363658","placename":"Washington, DC, USA"},"from_stop":{"name":"origin","id":"3341","lat":"0","lon":"0","placename":"Part Location"}}]}}},"processes":[],"eols":[]}],"user":{"name":"leo","id":"1"}}}