{"1594":{"oid":"1594","type":"trace","flag":"","creator":"6551","name":"Sofa","upc":"","imagelink":"","description":"Manufactured for a UK Retailer","slug":"Sofa","category":"","weight":"0","emissions":"0","embodied":"0","transport":"0","process":null,"endoflife":null,"shipping":"2128.78","lifetime":null,"usagetype":"","usageenergy":null,"usageemissions":null,"timecreated":"2011-08-19 11:21:04","timemodified":"2011-08-19 11:32:28","visibility":"public","showfootprint":"on","showembodied":"on","showtransport":"on","showprocess":"on","showendoflife":"on","showlastleg":"on","showuse":"on","showstats":"on","stops":{"origin":{"related_to":"1594","part_or_object":"o","notes":null,"placename":"United Kingdom","id":"17737","category":"1","lat":"55.378051","lon":"-3.435973","name":"origin","hops":{"incoming":[{"transport_id":null,"id":"12706","transport_name":null,"transport_description":null,"transport_unit":null,"transport_co2_eq":null,"from_stop_id":"17738","from_stop_lat":"58.595272","from_stop_lon":"25.013607","to_stop_id":"17737","to_stop_name":"origin","to_stop_lat":"55.378051","placename":"Estonia","to_stop_lon":"-3.435973","to_stop":{"id":"17737","name":"origin","lat":"55.378051","placename":"United Kingdom","lon":"-3.435973"},"from_stop":{"name":"origin","id":"17738","lat":"58.595272","lon":"25.013607","placename":"Estonia"}},{"transport_id":null,"id":"12707","transport_name":null,"transport_description":null,"transport_unit":null,"transport_co2_eq":null,"from_stop_id":"17739","from_stop_lat":"55.378051","from_stop_lon":"-3.435973","to_stop_id":"17737","to_stop_name":"origin","to_stop_lat":"55.378051","placename":"United Kingdom","to_stop_lon":"-3.435973","to_stop":{"id":"17737","name":"origin","lat":"55.378051","placename":"United Kingdom","lon":"-3.435973"},"from_stop":{"name":"origin","id":"17739","lat":"55.378051","lon":"-3.435973","placename":"United Kingdom"}},{"transport_id":null,"id":"12708","transport_name":null,"transport_description":null,"transport_unit":null,"transport_co2_eq":null,"from_stop_id":"17740","from_stop_lat":"53.41291","from_stop_lon":"-8.24389","to_stop_id":"17737","to_stop_name":"origin","to_stop_lat":"55.378051","placename":"Ireland","to_stop_lon":"-3.435973","to_stop":{"id":"17737","name":"origin","lat":"55.378051","placename":"United Kingdom","lon":"-3.435973"},"from_stop":{"name":"origin","id":"17740","lat":"53.41291","lon":"-8.24389","placename":"Ireland"}}],"outgoing":[]}}},"parts":[{"oid":"1594","imid":"8028","linkid":"0","weight":"0","rawemissions":"0","emissions":"0","shipping":"1748.2","processemissions":"0","endoflifeemissions":"0","disposaltype":null,"disposalenergy":null,"disposalimpact":null,"disposalemissions":null,"description":"","name":"Frame rails","id":"8028","stops":{"origin":{"related_to":"8028","part_or_object":"p","notes":null,"placename":"Estonia","id":17738,"name":"origin","lat":"58.595272","lon":"25.013607","hops":{"incoming":[],"outgoing":[{"transport_id":null,"id":"12706","transport_name":null,"transport_description":null,"transport_unit":null,"transport_co2_eq":null,"from_stop_id":"17738","from_stop_lat":"58.595272","from_stop_lon":"25.013607","from_stop_placename":"Estonia","to_stop_id":"17737","to_stop_name":"origin","to_stop_lat":"55.378051","to_stop_lon":"-3.435973","to_stop_placename":"United Kingdom","to_stop":{"id":"17737","name":"origin","lat":"55.378051","lon":"-3.435973","placename":"United Kingdom"},"from_stop":{"name":"origin","id":"17738","lat":"58.595272","lon":"25.013607","placename":"Estonia"}}]}}},"processes":[],"eols":[]},{"oid":"1594","imid":"8029","linkid":"0","weight":"0","rawemissions":"0","emissions":"0","shipping":"0","processemissions":"0","endoflifeemissions":"0","disposaltype":null,"disposalenergy":null,"disposalimpact":null,"disposalemissions":null,"description":"","name":"Panels","id":"8029","stops":{"origin":{"related_to":"8029","part_or_object":"p","notes":null,"placename":"United Kingdom","id":17739,"name":"origin","lat":"55.378051","lon":"-3.435973","hops":{"incoming":[],"outgoing":[{"transport_id":null,"id":"12707","transport_name":null,"transport_description":null,"transport_unit":null,"transport_co2_eq":null,"from_stop_id":"17739","from_stop_lat":"55.378051","from_stop_lon":"-3.435973","from_stop_placename":"United Kingdom","to_stop_id":"17737","to_stop_name":"origin","to_stop_lat":"55.378051","to_stop_lon":"-3.435973","to_stop_placename":"United Kingdom","to_stop":{"id":"17737","name":"origin","lat":"55.378051","lon":"-3.435973","placename":"United Kingdom"},"from_stop":{"name":"origin","id":"17739","lat":"55.378051","lon":"-3.435973","placename":"United Kingdom"}}]}}},"processes":[],"eols":[]},{"oid":"1594","imid":"8030","linkid":"0","weight":"0","rawemissions":"0","emissions":"0","shipping":"380.58","processemissions":"0","endoflifeemissions":"0","disposaltype":null,"disposalenergy":null,"disposalimpact":null,"disposalemissions":null,"description":"","name":"Front Scroll","id":"8030","stops":{"origin":{"related_to":"8030","part_or_object":"p","notes":null,"placename":"Ireland","id":17740,"name":"origin","lat":"53.41291","lon":"-8.24389","hops":{"incoming":[],"outgoing":[{"transport_id":null,"id":"12708","transport_name":null,"transport_description":null,"transport_unit":null,"transport_co2_eq":null,"from_stop_id":"17740","from_stop_lat":"53.41291","from_stop_lon":"-8.24389","from_stop_placename":"Ireland","to_stop_id":"17737","to_stop_name":"origin","to_stop_lat":"55.378051","to_stop_lon":"-3.435973","to_stop_placename":"United Kingdom","to_stop":{"id":"17737","name":"origin","lat":"55.378051","lon":"-3.435973","placename":"United Kingdom"},"from_stop":{"name":"origin","id":"17740","lat":"53.41291","lon":"-8.24389","placename":"Ireland"}}]}}},"processes":[],"eols":[]}],"user":{"name":"Kiro2023","id":"6551"}}}