{"164":{"oid":"164","type":"trace","flag":"","creator":"11535","name":"ETA","upc":"","imagelink":"","description":"","slug":"ETA","category":"","weight":"0","emissions":"0","embodied":"0","transport":"0","process":null,"endoflife":null,"shipping":"52864.21","lifetime":null,"usagetype":"","usageenergy":null,"usageemissions":null,"timecreated":"2010-12-09 04:43:44","timemodified":"2010-12-16 02:48:36","visibility":"public","showfootprint":"on","showembodied":"on","showtransport":"on","showprocess":"on","showendoflife":"on","showlastleg":"on","showuse":"on","showstats":"on","stops":{"origin":{"related_to":"164","part_or_object":"o","notes":null,"placename":"Hlinsko, \u010cesk\u00e1 republika","id":"8963","category":"1","lat":"49.7610828","lon":"15.9083082","name":"origin","hops":{"incoming":[{"transport_id":null,"id":"6252","transport_name":null,"transport_description":null,"transport_unit":null,"transport_co2_eq":null,"from_stop_id":"8964","from_stop_lat":"48.1483765","from_stop_lon":"17.1073105","to_stop_id":"8963","to_stop_name":"origin","to_stop_lat":"49.7610828","placename":"Bratislava, Slovakia","to_stop_lon":"15.9083082","to_stop":{"id":"8963","name":"origin","lat":"49.7610828","placename":"Hlinsko, \u010cesk\u00e1 republika","lon":"15.9083082"},"from_stop":{"name":"origin","id":"8964","lat":"48.1483765","lon":"17.1073105","placename":"Bratislava, Slovakia"}},{"transport_id":null,"id":"6253","transport_name":null,"transport_description":null,"transport_unit":null,"transport_co2_eq":null,"from_stop_id":"8965","from_stop_lat":"52.2296756","from_stop_lon":"21.0122287","to_stop_id":"8963","to_stop_name":"origin","to_stop_lat":"49.7610828","placename":"Warsaw, Poland","to_stop_lon":"15.9083082","to_stop":{"id":"8963","name":"origin","lat":"49.7610828","placename":"Hlinsko, \u010cesk\u00e1 republika","lon":"15.9083082"},"from_stop":{"name":"origin","id":"8965","lat":"52.2296756","lon":"21.0122287","placename":"Warsaw, Poland"}},{"transport_id":null,"id":"6254","transport_name":null,"transport_description":null,"transport_unit":null,"transport_co2_eq":null,"from_stop_id":"8966","from_stop_lat":"41.33","from_stop_lon":"19.82","to_stop_id":"8963","to_stop_name":"origin","to_stop_lat":"49.7610828","placename":"Tirana 1000, Albania","to_stop_lon":"15.9083082","to_stop":{"id":"8963","name":"origin","lat":"49.7610828","placename":"Hlinsko, \u010cesk\u00e1 republika","lon":"15.9083082"},"from_stop":{"name":"origin","id":"8966","lat":"41.33","lon":"19.82","placename":"Tirana 1000, Albania"}},{"transport_id":null,"id":"6255","transport_name":null,"transport_description":null,"transport_unit":null,"transport_co2_eq":null,"from_stop_id":"8967","from_stop_lat":"43.8476","from_stop_lon":"18.3564","to_stop_id":"8963","to_stop_name":"origin","to_stop_lat":"49.7610828","placename":"Sarajevo, Bosnia and Herzegovina","to_stop_lon":"15.9083082","to_stop":{"id":"8963","name":"origin","lat":"49.7610828","placename":"Hlinsko, \u010cesk\u00e1 republika","lon":"15.9083082"},"from_stop":{"name":"origin","id":"8967","lat":"43.8476","lon":"18.3564","placename":"Sarajevo, Bosnia and Herzegovina"}},{"transport_id":null,"id":"6256","transport_name":null,"transport_description":null,"transport_unit":null,"transport_co2_eq":null,"from_stop_id":"8968","from_stop_lat":"45.814912","from_stop_lon":"15.9785145","to_stop_id":"8963","to_stop_name":"origin","to_stop_lat":"49.7610828","placename":"City of Zagreb, Croatia","to_stop_lon":"15.9083082","to_stop":{"id":"8963","name":"origin","lat":"49.7610828","placename":"Hlinsko, \u010cesk\u00e1 republika","lon":"15.9083082"},"from_stop":{"name":"origin","id":"8968","lat":"45.814912","lon":"15.9785145","placename":"City of Zagreb, Croatia"}},{"transport_id":null,"id":"6257","transport_name":null,"transport_description":null,"transport_unit":null,"transport_co2_eq":null,"from_stop_id":"8969","from_stop_lat":"46.0514263","from_stop_lon":"14.5059655","to_stop_id":"8963","to_stop_name":"origin","to_stop_lat":"49.7610828","placename":"Ljubljana, Slovenia","to_stop_lon":"15.9083082","to_stop":{"id":"8963","name":"origin","lat":"49.7610828","placename":"Hlinsko, \u010cesk\u00e1 republika","lon":"15.9083082"},"from_stop":{"name":"origin","id":"8969","lat":"46.0514263","lon":"14.5059655","placename":"Ljubljana, Slovenia"}},{"transport_id":null,"id":"6258","transport_name":null,"transport_description":null,"transport_unit":null,"transport_co2_eq":null,"from_stop_id":"8970","from_stop_lat":"47.4984056","from_stop_lon":"19.0187851438","to_stop_id":"8963","to_stop_name":"origin","to_stop_lat":"49.7610828","placename":"1122 Budapest, \u00dcgy\u00e9sz St 1-7, Hungary","to_stop_lon":"15.9083082","to_stop":{"id":"8963","name":"origin","lat":"49.7610828","placename":"Hlinsko, \u010cesk\u00e1 republika","lon":"15.9083082"},"from_stop":{"name":"origin","id":"8970","lat":"47.4984056","lon":"19.0187851438","placename":"1122 Budapest, \u00dcgy\u00e9sz St 1-7, Hungary"}},{"transport_id":null,"id":"6259","transport_name":null,"transport_description":null,"transport_unit":null,"transport_co2_eq":null,"from_stop_id":"8971","from_stop_lat":"44.437711","from_stop_lon":"26.097367","to_stop_id":"8963","to_stop_name":"origin","to_stop_lat":"49.7610828","placename":"Bucuresti, Romania","to_stop_lon":"15.9083082","to_stop":{"id":"8963","name":"origin","lat":"49.7610828","placename":"Hlinsko, \u010cesk\u00e1 republika","lon":"15.9083082"},"from_stop":{"name":"origin","id":"8971","lat":"44.437711","lon":"26.097367","placename":"Bucuresti, Romania"}},{"transport_id":null,"id":"6260","transport_name":null,"transport_description":null,"transport_unit":null,"transport_co2_eq":null,"from_stop_id":"8972","from_stop_lat":"42.2438186809","from_stop_lon":"26.1347838999","to_stop_id":"8963","to_stop_name":"origin","to_stop_lat":"49.7610828","placename":"55, Radnevo, Bulgaria","to_stop_lon":"15.9083082","to_stop":{"id":"8963","name":"origin","lat":"49.7610828","placename":"Hlinsko, \u010cesk\u00e1 republika","lon":"15.9083082"},"from_stop":{"name":"origin","id":"8972","lat":"42.2438186809","lon":"26.1347838999","placename":"55, Radnevo, Bulgaria"}},{"transport_id":null,"id":"6261","transport_name":null,"transport_description":null,"transport_unit":null,"transport_co2_eq":null,"from_stop_id":"8973","from_stop_lat":"37.97918","from_stop_lon":"23.716647","to_stop_id":"8963","to_stop_name":"origin","to_stop_lat":"49.7610828","placename":"Athens, Greece","to_stop_lon":"15.9083082","to_stop":{"id":"8963","name":"origin","lat":"49.7610828","placename":"Hlinsko, \u010cesk\u00e1 republika","lon":"15.9083082"},"from_stop":{"name":"origin","id":"8973","lat":"37.97918","lon":"23.716647","placename":"Athens, Greece"}},{"transport_id":null,"id":"6262","transport_name":null,"transport_description":null,"transport_unit":null,"transport_co2_eq":null,"from_stop_id":"8974","from_stop_lat":"52.5234051","from_stop_lon":"13.4113999","to_stop_id":"8963","to_stop_name":"origin","to_stop_lat":"49.7610828","placename":"Berlin, Germany","to_stop_lon":"15.9083082","to_stop":{"id":"8963","name":"origin","lat":"49.7610828","placename":"Hlinsko, \u010cesk\u00e1 republika","lon":"15.9083082"},"from_stop":{"name":"origin","id":"8974","lat":"52.5234051","lon":"13.4113999","placename":"Berlin, Germany"}},{"transport_id":null,"id":"6263","transport_name":null,"transport_description":null,"transport_unit":null,"transport_co2_eq":null,"from_stop_id":"8975","from_stop_lat":"48.8566667","from_stop_lon":"2.3509871","to_stop_id":"8963","to_stop_name":"origin","to_stop_lat":"49.7610828","placename":"Paris, France","to_stop_lon":"15.9083082","to_stop":{"id":"8963","name":"origin","lat":"49.7610828","placename":"Hlinsko, \u010cesk\u00e1 republika","lon":"15.9083082"},"from_stop":{"name":"origin","id":"8975","lat":"48.8566667","lon":"2.3509871","placename":"Paris, France"}},{"transport_id":null,"id":"6264","transport_name":null,"transport_description":null,"transport_unit":null,"transport_co2_eq":null,"from_stop_id":"8976","from_stop_lat":"51.5001524","from_stop_lon":"-0.1262362","to_stop_id":"8963","to_stop_name":"origin","to_stop_lat":"49.7610828","placename":"Westminster, London, UK","to_stop_lon":"15.9083082","to_stop":{"id":"8963","name":"origin","lat":"49.7610828","placename":"Hlinsko, \u010cesk\u00e1 republika","lon":"15.9083082"},"from_stop":{"name":"origin","id":"8976","lat":"51.5001524","lon":"-0.1262362","placename":"Westminster, London, UK"}},{"transport_id":null,"id":"6265","transport_name":null,"transport_description":null,"transport_unit":null,"transport_co2_eq":null,"from_stop_id":"8977","from_stop_lat":"55.755786","from_stop_lon":"37.617633","to_stop_id":"8963","to_stop_name":"origin","to_stop_lat":"49.7610828","placename":"Moscow, Russia","to_stop_lon":"15.9083082","to_stop":{"id":"8963","name":"origin","lat":"49.7610828","placename":"Hlinsko, \u010cesk\u00e1 republika","lon":"15.9083082"},"from_stop":{"name":"origin","id":"8977","lat":"55.755786","lon":"37.617633","placename":"Moscow, Russia"}},{"transport_id":null,"id":"6266","transport_name":null,"transport_description":null,"transport_unit":null,"transport_co2_eq":null,"from_stop_id":"8978","from_stop_lat":"59.4388619","from_stop_lon":"24.7544715","to_stop_id":"8963","to_stop_name":"origin","to_stop_lat":"49.7610828","placename":"Tallinn, Estonia","to_stop_lon":"15.9083082","to_stop":{"id":"8963","name":"origin","lat":"49.7610828","placename":"Hlinsko, \u010cesk\u00e1 republika","lon":"15.9083082"},"from_stop":{"name":"origin","id":"8978","lat":"59.4388619","lon":"24.7544715","placename":"Tallinn, Estonia"}},{"transport_id":null,"id":"6267","transport_name":null,"transport_description":null,"transport_unit":null,"transport_co2_eq":null,"from_stop_id":"8979","from_stop_lat":"56.9465363","from_stop_lon":"24.1048503","to_stop_id":"8963","to_stop_name":"origin","to_stop_lat":"49.7610828","placename":"Riga, Latvia","to_stop_lon":"15.9083082","to_stop":{"id":"8963","name":"origin","lat":"49.7610828","placename":"Hlinsko, \u010cesk\u00e1 republika","lon":"15.9083082"},"from_stop":{"name":"origin","id":"8979","lat":"56.9465363","lon":"24.1048503","placename":"Riga, Latvia"}},{"transport_id":null,"id":"6268","transport_name":null,"transport_description":null,"transport_unit":null,"transport_co2_eq":null,"from_stop_id":"8980","from_stop_lat":"54.6893865","from_stop_lon":"25.2800243","to_stop_id":"8963","to_stop_name":"origin","to_stop_lat":"49.7610828","placename":"Vilnius, Lithuania","to_stop_lon":"15.9083082","to_stop":{"id":"8963","name":"origin","lat":"49.7610828","placename":"Hlinsko, \u010cesk\u00e1 republika","lon":"15.9083082"},"from_stop":{"name":"origin","id":"8980","lat":"54.6893865","lon":"25.2800243","placename":"Vilnius, Lithuania"}},{"transport_id":null,"id":"6269","transport_name":null,"transport_description":null,"transport_unit":null,"transport_co2_eq":null,"from_stop_id":"8981","from_stop_lat":"51.179852","from_stop_lon":"71.446682","to_stop_id":"8963","to_stop_name":"origin","to_stop_lat":"49.7610828","placename":"Astana 010000, Kazakhstan","to_stop_lon":"15.9083082","to_stop":{"id":"8963","name":"origin","lat":"49.7610828","placename":"Hlinsko, \u010cesk\u00e1 republika","lon":"15.9083082"},"from_stop":{"name":"origin","id":"8981","lat":"51.179852","lon":"71.446682","placename":"Astana 010000, Kazakhstan"}},{"transport_id":null,"id":"6270","transport_name":null,"transport_description":null,"transport_unit":null,"transport_co2_eq":null,"from_stop_id":"8982","from_stop_lat":"42.870022","from_stop_lon":"74.587883","to_stop_id":"8963","to_stop_name":"origin","to_stop_lat":"49.7610828","placename":"Bishkek, Kyrgyzstan","to_stop_lon":"15.9083082","to_stop":{"id":"8963","name":"origin","lat":"49.7610828","placename":"Hlinsko, \u010cesk\u00e1 republika","lon":"15.9083082"},"from_stop":{"name":"origin","id":"8982","lat":"42.870022","lon":"74.587883","placename":"Bishkek, Kyrgyzstan"}},{"transport_id":null,"id":"6271","transport_name":null,"transport_description":null,"transport_unit":null,"transport_co2_eq":null,"from_stop_id":"8983","from_stop_lat":"41.2666667","from_stop_lon":"69.2166667","to_stop_id":"8963","to_stop_name":"origin","to_stop_lat":"49.7610828","placename":"Tashkent, Uzbekistan","to_stop_lon":"15.9083082","to_stop":{"id":"8963","name":"origin","lat":"49.7610828","placename":"Hlinsko, \u010cesk\u00e1 republika","lon":"15.9083082"},"from_stop":{"name":"origin","id":"8983","lat":"41.2666667","lon":"69.2166667","placename":"Tashkent, Uzbekistan"}},{"transport_id":null,"id":"6272","transport_name":null,"transport_description":null,"transport_unit":null,"transport_co2_eq":null,"from_stop_id":"8984","from_stop_lat":"41.709981","from_stop_lon":"44.792998","to_stop_id":"8963","to_stop_name":"origin","to_stop_lat":"49.7610828","placename":"Tbilisi, Georgia","to_stop_lon":"15.9083082","to_stop":{"id":"8963","name":"origin","lat":"49.7610828","placename":"Hlinsko, \u010cesk\u00e1 republika","lon":"15.9083082"},"from_stop":{"name":"origin","id":"8984","lat":"41.709981","lon":"44.792998","placename":"Tbilisi, Georgia"}},{"transport_id":null,"id":"6273","transport_name":null,"transport_description":null,"transport_unit":null,"transport_co2_eq":null,"from_stop_id":"8985","from_stop_lat":"40.3952778","from_stop_lon":"49.8822222","to_stop_id":"8963","to_stop_name":"origin","to_stop_lat":"49.7610828","placename":"Baku, Azerbaijan","to_stop_lon":"15.9083082","to_stop":{"id":"8963","name":"origin","lat":"49.7610828","placename":"Hlinsko, \u010cesk\u00e1 republika","lon":"15.9083082"},"from_stop":{"name":"origin","id":"8985","lat":"40.3952778","lon":"49.8822222","placename":"Baku, Azerbaijan"}},{"transport_id":null,"id":"6274","transport_name":null,"transport_description":null,"transport_unit":null,"transport_co2_eq":null,"from_stop_id":"8986","from_stop_lat":"40.183333","from_stop_lon":"44.516667","to_stop_id":"8963","to_stop_name":"origin","to_stop_lat":"49.7610828","placename":"Yerevan, Armenia","to_stop_lon":"15.9083082","to_stop":{"id":"8963","name":"origin","lat":"49.7610828","placename":"Hlinsko, \u010cesk\u00e1 republika","lon":"15.9083082"},"from_stop":{"name":"origin","id":"8986","lat":"40.183333","lon":"44.516667","placename":"Yerevan, Armenia"}},{"transport_id":null,"id":"6275","transport_name":null,"transport_description":null,"transport_unit":null,"transport_co2_eq":null,"from_stop_id":"8987","from_stop_lat":"38.5366667","from_stop_lon":"68.78","to_stop_id":"8963","to_stop_name":"origin","to_stop_lat":"49.7610828","placename":"Dushanbe, Tajikistan","to_stop_lon":"15.9083082","to_stop":{"id":"8963","name":"origin","lat":"49.7610828","placename":"Hlinsko, \u010cesk\u00e1 republika","lon":"15.9083082"},"from_stop":{"name":"origin","id":"8987","lat":"38.5366667","lon":"68.78","placename":"Dushanbe, Tajikistan"}},{"transport_id":null,"id":"6276","transport_name":null,"transport_description":null,"transport_unit":null,"transport_co2_eq":null,"from_stop_id":"8988","from_stop_lat":"37.950197","from_stop_lon":"58.380223","to_stop_id":"8963","to_stop_name":"origin","to_stop_lat":"49.7610828","placename":"Ashgabat, Turkmenistan","to_stop_lon":"15.9083082","to_stop":{"id":"8963","name":"origin","lat":"49.7610828","placename":"Hlinsko, \u010cesk\u00e1 republika","lon":"15.9083082"},"from_stop":{"name":"origin","id":"8988","lat":"37.950197","lon":"58.380223","placename":"Ashgabat, Turkmenistan"}},{"transport_id":null,"id":"6277","transport_name":null,"transport_description":null,"transport_unit":null,"transport_co2_eq":null,"from_stop_id":"8989","from_stop_lat":"53.9","from_stop_lon":"27.5666667","to_stop_id":"8963","to_stop_name":"origin","to_stop_lat":"49.7610828","placename":"Minsk, Belarus","to_stop_lon":"15.9083082","to_stop":{"id":"8963","name":"origin","lat":"49.7610828","placename":"Hlinsko, \u010cesk\u00e1 republika","lon":"15.9083082"},"from_stop":{"name":"origin","id":"8989","lat":"53.9","lon":"27.5666667","placename":"Minsk, Belarus"}},{"transport_id":null,"id":"6278","transport_name":null,"transport_description":null,"transport_unit":null,"transport_co2_eq":null,"from_stop_id":"8990","from_stop_lat":"50.45","from_stop_lon":"30.5233333","to_stop_id":"8963","to_stop_name":"origin","to_stop_lat":"49.7610828","placename":"Kiev, Kyiv, Ukraine","to_stop_lon":"15.9083082","to_stop":{"id":"8963","name":"origin","lat":"49.7610828","placename":"Hlinsko, \u010cesk\u00e1 republika","lon":"15.9083082"},"from_stop":{"name":"origin","id":"8990","lat":"50.45","lon":"30.5233333","placename":"Kiev, Kyiv, Ukraine"}}],"outgoing":[]}}},"parts":[{"oid":"164","imid":"5370","linkid":"0","weight":"0","rawemissions":"0","emissions":"0","shipping":"199.77","processemissions":"0","endoflifeemissions":"0","disposaltype":null,"disposalenergy":null,"disposalimpact":null,"disposalemissions":null,"description":"","name":"Part","id":"5370","stops":{"origin":{"related_to":"5370","part_or_object":"p","notes":null,"placename":"Bratislava, Slovakia","id":8964,"name":"origin","lat":"48.1483765","lon":"17.1073105","hops":{"incoming":[],"outgoing":[{"transport_id":null,"id":"6252","transport_name":null,"transport_description":null,"transport_unit":null,"transport_co2_eq":null,"from_stop_id":"8964","from_stop_lat":"48.1483765","from_stop_lon":"17.1073105","from_stop_placename":"Bratislava, Slovakia","to_stop_id":"8963","to_stop_name":"origin","to_stop_lat":"49.7610828","to_stop_lon":"15.9083082","to_stop_placename":"Hlinsko, \u010cesk\u00e1 republika","to_stop":{"id":"8963","name":"origin","lat":"49.7610828","lon":"15.9083082","placename":"Hlinsko, \u010cesk\u00e1 republika"},"from_stop":{"name":"origin","id":"8964","lat":"48.1483765","lon":"17.1073105","placename":"Bratislava, Slovakia"}}]}}},"processes":[],"eols":[]},{"oid":"164","imid":"5371","linkid":"0","weight":"0","rawemissions":"0","emissions":"0","shipping":"450.81","processemissions":"0","endoflifeemissions":"0","disposaltype":null,"disposalenergy":null,"disposalimpact":null,"disposalemissions":null,"description":"","name":"","id":"5371","stops":{"origin":{"related_to":"5371","part_or_object":"p","notes":null,"placename":"Warsaw, Poland","id":8965,"name":"origin","lat":"52.2296756","lon":"21.0122287","hops":{"incoming":[],"outgoing":[{"transport_id":null,"id":"6253","transport_name":null,"transport_description":null,"transport_unit":null,"transport_co2_eq":null,"from_stop_id":"8965","from_stop_lat":"52.2296756","from_stop_lon":"21.0122287","from_stop_placename":"Warsaw, Poland","to_stop_id":"8963","to_stop_name":"origin","to_stop_lat":"49.7610828","to_stop_lon":"15.9083082","to_stop_placename":"Hlinsko, \u010cesk\u00e1 republika","to_stop":{"id":"8963","name":"origin","lat":"49.7610828","lon":"15.9083082","placename":"Hlinsko, \u010cesk\u00e1 republika"},"from_stop":{"name":"origin","id":"8965","lat":"52.2296756","lon":"21.0122287","placename":"Warsaw, Poland"}}]}}},"processes":[],"eols":[]},{"oid":"164","imid":"5372","linkid":"0","weight":"0","rawemissions":"0","emissions":"0","shipping":"986.49","processemissions":"0","endoflifeemissions":"0","disposaltype":null,"disposalenergy":null,"disposalimpact":null,"disposalemissions":null,"description":"","name":"Part","id":"5372","stops":{"origin":{"related_to":"5372","part_or_object":"p","notes":null,"placename":"Tirana 1000, Albania","id":8966,"name":"origin","lat":"41.33","lon":"19.82","hops":{"incoming":[],"outgoing":[{"transport_id":null,"id":"6254","transport_name":null,"transport_description":null,"transport_unit":null,"transport_co2_eq":null,"from_stop_id":"8966","from_stop_lat":"41.33","from_stop_lon":"19.82","from_stop_placename":"Tirana 1000, Albania","to_stop_id":"8963","to_stop_name":"origin","to_stop_lat":"49.7610828","to_stop_lon":"15.9083082","to_stop_placename":"Hlinsko, \u010cesk\u00e1 republika","to_stop":{"id":"8963","name":"origin","lat":"49.7610828","lon":"15.9083082","placename":"Hlinsko, \u010cesk\u00e1 republika"},"from_stop":{"name":"origin","id":"8966","lat":"41.33","lon":"19.82","placename":"Tirana 1000, Albania"}}]}}},"processes":[],"eols":[]},{"oid":"164","imid":"5373","linkid":"0","weight":"0","rawemissions":"0","emissions":"0","shipping":"684.1","processemissions":"0","endoflifeemissions":"0","disposaltype":null,"disposalenergy":null,"disposalimpact":null,"disposalemissions":null,"description":"","name":"Part","id":"5373","stops":{"origin":{"related_to":"5373","part_or_object":"p","notes":null,"placename":"Sarajevo, Bosnia and Herzegovina","id":8967,"name":"origin","lat":"43.8476","lon":"18.3564","hops":{"incoming":[],"outgoing":[{"transport_id":null,"id":"6255","transport_name":null,"transport_description":null,"transport_unit":null,"transport_co2_eq":null,"from_stop_id":"8967","from_stop_lat":"43.8476","from_stop_lon":"18.3564","from_stop_placename":"Sarajevo, Bosnia and Herzegovina","to_stop_id":"8963","to_stop_name":"origin","to_stop_lat":"49.7610828","to_stop_lon":"15.9083082","to_stop_placename":"Hlinsko, \u010cesk\u00e1 republika","to_stop":{"id":"8963","name":"origin","lat":"49.7610828","lon":"15.9083082","placename":"Hlinsko, \u010cesk\u00e1 republika"},"from_stop":{"name":"origin","id":"8967","lat":"43.8476","lon":"18.3564","placename":"Sarajevo, Bosnia and Herzegovina"}}]}}},"processes":[],"eols":[]},{"oid":"164","imid":"5374","linkid":"0","weight":"0","rawemissions":"0","emissions":"0","shipping":"439.32","processemissions":"0","endoflifeemissions":"0","disposaltype":null,"disposalenergy":null,"disposalimpact":null,"disposalemissions":null,"description":"","name":"Zagreb","id":"5374","stops":{"origin":{"related_to":"5374","part_or_object":"p","notes":null,"placename":"City of Zagreb, Croatia","id":8968,"name":"origin","lat":"45.814912","lon":"15.9785145","hops":{"incoming":[],"outgoing":[{"transport_id":null,"id":"6256","transport_name":null,"transport_description":null,"transport_unit":null,"transport_co2_eq":null,"from_stop_id":"8968","from_stop_lat":"45.814912","from_stop_lon":"15.9785145","from_stop_placename":"City of Zagreb, Croatia","to_stop_id":"8963","to_stop_name":"origin","to_stop_lat":"49.7610828","to_stop_lon":"15.9083082","to_stop_placename":"Hlinsko, \u010cesk\u00e1 republika","to_stop":{"id":"8963","name":"origin","lat":"49.7610828","lon":"15.9083082","placename":"Hlinsko, \u010cesk\u00e1 republika"},"from_stop":{"name":"origin","id":"8968","lat":"45.814912","lon":"15.9785145","placename":"City of Zagreb, Croatia"}}]}}},"processes":[],"eols":[]},{"oid":"164","imid":"5375","linkid":"0","weight":"0","rawemissions":"0","emissions":"0","shipping":"425.99","processemissions":"0","endoflifeemissions":"0","disposaltype":null,"disposalenergy":null,"disposalimpact":null,"disposalemissions":null,"description":"","name":"Part","id":"5375","stops":{"origin":{"related_to":"5375","part_or_object":"p","notes":null,"placename":"Ljubljana, Slovenia","id":8969,"name":"origin","lat":"46.0514263","lon":"14.5059655","hops":{"incoming":[],"outgoing":[{"transport_id":null,"id":"6257","transport_name":null,"transport_description":null,"transport_unit":null,"transport_co2_eq":null,"from_stop_id":"8969","from_stop_lat":"46.0514263","from_stop_lon":"14.5059655","from_stop_placename":"Ljubljana, Slovenia","to_stop_id":"8963","to_stop_name":"origin","to_stop_lat":"49.7610828","to_stop_lon":"15.9083082","to_stop_placename":"Hlinsko, \u010cesk\u00e1 republika","to_stop":{"id":"8963","name":"origin","lat":"49.7610828","lon":"15.9083082","placename":"Hlinsko, \u010cesk\u00e1 republika"},"from_stop":{"name":"origin","id":"8969","lat":"46.0514263","lon":"14.5059655","placename":"Ljubljana, Slovenia"}}]}}},"processes":[],"eols":[]},{"oid":"164","imid":"5376","linkid":"0","weight":"0","rawemissions":"0","emissions":"0","shipping":"340.26","processemissions":"0","endoflifeemissions":"0","disposaltype":null,"disposalenergy":null,"disposalimpact":null,"disposalemissions":null,"description":"","name":"","id":"5376","stops":{"origin":{"related_to":"5376","part_or_object":"p","notes":null,"placename":"1122 Budapest, \u00dcgy\u00e9sz St 1-7, Hungary","id":8970,"name":"origin","lat":"47.4984056","lon":"19.0187851438","hops":{"incoming":[],"outgoing":[{"transport_id":null,"id":"6258","transport_name":null,"transport_description":null,"transport_unit":null,"transport_co2_eq":null,"from_stop_id":"8970","from_stop_lat":"47.4984056","from_stop_lon":"19.0187851438","from_stop_placename":"1122 Budapest, \u00dcgy\u00e9sz St 1-7, Hungary","to_stop_id":"8963","to_stop_name":"origin","to_stop_lat":"49.7610828","to_stop_lon":"15.9083082","to_stop_placename":"Hlinsko, \u010cesk\u00e1 republika","to_stop":{"id":"8963","name":"origin","lat":"49.7610828","lon":"15.9083082","placename":"Hlinsko, \u010cesk\u00e1 republika"},"from_stop":{"name":"origin","id":"8970","lat":"47.4984056","lon":"19.0187851438","placename":"1122 Budapest, \u00dcgy\u00e9sz St 1-7, Hungary"}}]}}},"processes":[],"eols":[]},{"oid":"164","imid":"5377","linkid":"0","weight":"0","rawemissions":"0","emissions":"0","shipping":"971.88","processemissions":"0","endoflifeemissions":"0","disposaltype":null,"disposalenergy":null,"disposalimpact":null,"disposalemissions":null,"description":"","name":"Part","id":"5377","stops":{"origin":{"related_to":"5377","part_or_object":"p","notes":null,"placename":"Bucuresti, Romania","id":8971,"name":"origin","lat":"44.437711","lon":"26.097367","hops":{"incoming":[],"outgoing":[{"transport_id":null,"id":"6259","transport_name":null,"transport_description":null,"transport_unit":null,"transport_co2_eq":null,"from_stop_id":"8971","from_stop_lat":"44.437711","from_stop_lon":"26.097367","from_stop_placename":"Bucuresti, Romania","to_stop_id":"8963","to_stop_name":"origin","to_stop_lat":"49.7610828","to_stop_lon":"15.9083082","to_stop_placename":"Hlinsko, \u010cesk\u00e1 republika","to_stop":{"id":"8963","name":"origin","lat":"49.7610828","lon":"15.9083082","placename":"Hlinsko, \u010cesk\u00e1 republika"},"from_stop":{"name":"origin","id":"8971","lat":"44.437711","lon":"26.097367","placename":"Bucuresti, Romania"}}]}}},"processes":[],"eols":[]},{"oid":"164","imid":"5378","linkid":"0","weight":"0","rawemissions":"0","emissions":"0","shipping":"1149.32","processemissions":"0","endoflifeemissions":"0","disposaltype":null,"disposalenergy":null,"disposalimpact":null,"disposalemissions":null,"description":"","name":"","id":"5378","stops":{"origin":{"related_to":"5378","part_or_object":"p","notes":null,"placename":"55, Radnevo, Bulgaria","id":8972,"name":"origin","lat":"42.2438186809","lon":"26.1347838999","hops":{"incoming":[],"outgoing":[{"transport_id":null,"id":"6260","transport_name":null,"transport_description":null,"transport_unit":null,"transport_co2_eq":null,"from_stop_id":"8972","from_stop_lat":"42.2438186809","from_stop_lon":"26.1347838999","from_stop_placename":"55, Radnevo, Bulgaria","to_stop_id":"8963","to_stop_name":"origin","to_stop_lat":"49.7610828","to_stop_lon":"15.9083082","to_stop_placename":"Hlinsko, \u010cesk\u00e1 republika","to_stop":{"id":"8963","name":"origin","lat":"49.7610828","lon":"15.9083082","placename":"Hlinsko, \u010cesk\u00e1 republika"},"from_stop":{"name":"origin","id":"8972","lat":"42.2438186809","lon":"26.1347838999","placename":"55, Radnevo, Bulgaria"}}]}}},"processes":[],"eols":[]},{"oid":"164","imid":"5379","linkid":"0","weight":"0","rawemissions":"0","emissions":"0","shipping":"1451.66","processemissions":"0","endoflifeemissions":"0","disposaltype":null,"disposalenergy":null,"disposalimpact":null,"disposalemissions":null,"description":"","name":"Part","id":"5379","stops":{"origin":{"related_to":"5379","part_or_object":"p","notes":null,"placename":"Athens, Greece","id":8973,"name":"origin","lat":"37.97918","lon":"23.716647","hops":{"incoming":[],"outgoing":[{"transport_id":null,"id":"6261","transport_name":null,"transport_description":null,"transport_unit":null,"transport_co2_eq":null,"from_stop_id":"8973","from_stop_lat":"37.97918","from_stop_lon":"23.716647","from_stop_placename":"Athens, Greece","to_stop_id":"8963","to_stop_name":"origin","to_stop_lat":"49.7610828","to_stop_lon":"15.9083082","to_stop_placename":"Hlinsko, \u010cesk\u00e1 republika","to_stop":{"id":"8963","name":"origin","lat":"49.7610828","lon":"15.9083082","placename":"Hlinsko, \u010cesk\u00e1 republika"},"from_stop":{"name":"origin","id":"8973","lat":"37.97918","lon":"23.716647","placename":"Athens, Greece"}}]}}},"processes":[],"eols":[]},{"oid":"164","imid":"5380","linkid":"0","weight":"0","rawemissions":"0","emissions":"0","shipping":"353.46","processemissions":"0","endoflifeemissions":"0","disposaltype":null,"disposalenergy":null,"disposalimpact":null,"disposalemissions":null,"description":"","name":"Part","id":"5380","stops":{"origin":{"related_to":"5380","part_or_object":"p","notes":null,"placename":"Berlin, Germany","id":8974,"name":"origin","lat":"52.5234051","lon":"13.4113999","hops":{"incoming":[],"outgoing":[{"transport_id":null,"id":"6262","transport_name":null,"transport_description":null,"transport_unit":null,"transport_co2_eq":null,"from_stop_id":"8974","from_stop_lat":"52.5234051","from_stop_lon":"13.4113999","from_stop_placename":"Berlin, Germany","to_stop_id":"8963","to_stop_name":"origin","to_stop_lat":"49.7610828","to_stop_lon":"15.9083082","to_stop_placename":"Hlinsko, \u010cesk\u00e1 republika","to_stop":{"id":"8963","name":"origin","lat":"49.7610828","lon":"15.9083082","placename":"Hlinsko, \u010cesk\u00e1 republika"},"from_stop":{"name":"origin","id":"8974","lat":"52.5234051","lon":"13.4113999","placename":"Berlin, Germany"}}]}}},"processes":[],"eols":[]},{"oid":"164","imid":"5381","linkid":"0","weight":"0","rawemissions":"0","emissions":"0","shipping":"987.74","processemissions":"0","endoflifeemissions":"0","disposaltype":null,"disposalenergy":null,"disposalimpact":null,"disposalemissions":null,"description":"","name":"Part","id":"5381","stops":{"origin":{"related_to":"5381","part_or_object":"p","notes":null,"placename":"Paris, France","id":8975,"name":"origin","lat":"48.8566667","lon":"2.3509871","hops":{"incoming":[],"outgoing":[{"transport_id":null,"id":"6263","transport_name":null,"transport_description":null,"transport_unit":null,"transport_co2_eq":null,"from_stop_id":"8975","from_stop_lat":"48.8566667","from_stop_lon":"2.3509871","from_stop_placename":"Paris, France","to_stop_id":"8963","to_stop_name":"origin","to_stop_lat":"49.7610828","to_stop_lon":"15.9083082","to_stop_placename":"Hlinsko, \u010cesk\u00e1 republika","to_stop":{"id":"8963","name":"origin","lat":"49.7610828","lon":"15.9083082","placename":"Hlinsko, \u010cesk\u00e1 republika"},"from_stop":{"name":"origin","id":"8975","lat":"48.8566667","lon":"2.3509871","placename":"Paris, France"}}]}}},"processes":[],"eols":[]},{"oid":"164","imid":"5382","linkid":"0","weight":"0","rawemissions":"0","emissions":"0","shipping":"1146.25","processemissions":"0","endoflifeemissions":"0","disposaltype":null,"disposalenergy":null,"disposalimpact":null,"disposalemissions":null,"description":"","name":"Part","id":"5382","stops":{"origin":{"related_to":"5382","part_or_object":"p","notes":null,"placename":"Westminster, London, UK","id":8976,"name":"origin","lat":"51.5001524","lon":"-0.1262362","hops":{"incoming":[],"outgoing":[{"transport_id":null,"id":"6264","transport_name":null,"transport_description":null,"transport_unit":null,"transport_co2_eq":null,"from_stop_id":"8976","from_stop_lat":"51.5001524","from_stop_lon":"-0.1262362","from_stop_placename":"Westminster, London, UK","to_stop_id":"8963","to_stop_name":"origin","to_stop_lat":"49.7610828","to_stop_lon":"15.9083082","to_stop_placename":"Hlinsko, \u010cesk\u00e1 republika","to_stop":{"id":"8963","name":"origin","lat":"49.7610828","lon":"15.9083082","placename":"Hlinsko, \u010cesk\u00e1 republika"},"from_stop":{"name":"origin","id":"8976","lat":"51.5001524","lon":"-0.1262362","placename":"Westminster, London, UK"}}]}}},"processes":[],"eols":[]},{"oid":"164","imid":"5383","linkid":"0","weight":"0","rawemissions":"0","emissions":"0","shipping":"1598.74","processemissions":"0","endoflifeemissions":"0","disposaltype":null,"disposalenergy":null,"disposalimpact":null,"disposalemissions":null,"description":"","name":"Part","id":"5383","stops":{"origin":{"related_to":"5383","part_or_object":"p","notes":null,"placename":"Moscow, Russia","id":8977,"name":"origin","lat":"55.755786","lon":"37.617633","hops":{"incoming":[],"outgoing":[{"transport_id":null,"id":"6265","transport_name":null,"transport_description":null,"transport_unit":null,"transport_co2_eq":null,"from_stop_id":"8977","from_stop_lat":"55.755786","from_stop_lon":"37.617633","from_stop_placename":"Moscow, Russia","to_stop_id":"8963","to_stop_name":"origin","to_stop_lat":"49.7610828","to_stop_lon":"15.9083082","to_stop_placename":"Hlinsko, \u010cesk\u00e1 republika","to_stop":{"id":"8963","name":"origin","lat":"49.7610828","lon":"15.9083082","placename":"Hlinsko, \u010cesk\u00e1 republika"},"from_stop":{"name":"origin","id":"8977","lat":"55.755786","lon":"37.617633","placename":"Moscow, Russia"}}]}}},"processes":[],"eols":[]},{"oid":"164","imid":"5384","linkid":"0","weight":"0","rawemissions":"0","emissions":"0","shipping":"1216.65","processemissions":"0","endoflifeemissions":"0","disposaltype":null,"disposalenergy":null,"disposalimpact":null,"disposalemissions":null,"description":"","name":"Part","id":"5384","stops":{"origin":{"related_to":"5384","part_or_object":"p","notes":null,"placename":"Tallinn, Estonia","id":8978,"name":"origin","lat":"59.4388619","lon":"24.7544715","hops":{"incoming":[],"outgoing":[{"transport_id":null,"id":"6266","transport_name":null,"transport_description":null,"transport_unit":null,"transport_co2_eq":null,"from_stop_id":"8978","from_stop_lat":"59.4388619","from_stop_lon":"24.7544715","from_stop_placename":"Tallinn, Estonia","to_stop_id":"8963","to_stop_name":"origin","to_stop_lat":"49.7610828","to_stop_lon":"15.9083082","to_stop_placename":"Hlinsko, \u010cesk\u00e1 republika","to_stop":{"id":"8963","name":"origin","lat":"49.7610828","lon":"15.9083082","placename":"Hlinsko, \u010cesk\u00e1 republika"},"from_stop":{"name":"origin","id":"8978","lat":"59.4388619","lon":"24.7544715","placename":"Tallinn, Estonia"}}]}}},"processes":[],"eols":[]},{"oid":"164","imid":"5385","linkid":"0","weight":"0","rawemissions":"0","emissions":"0","shipping":"966.22","processemissions":"0","endoflifeemissions":"0","disposaltype":null,"disposalenergy":null,"disposalimpact":null,"disposalemissions":null,"description":"","name":"Part","id":"5385","stops":{"origin":{"related_to":"5385","part_or_object":"p","notes":null,"placename":"Riga, Latvia","id":8979,"name":"origin","lat":"56.9465363","lon":"24.1048503","hops":{"incoming":[],"outgoing":[{"transport_id":null,"id":"6267","transport_name":null,"transport_description":null,"transport_unit":null,"transport_co2_eq":null,"from_stop_id":"8979","from_stop_lat":"56.9465363","from_stop_lon":"24.1048503","from_stop_placename":"Riga, Latvia","to_stop_id":"8963","to_stop_name":"origin","to_stop_lat":"49.7610828","to_stop_lon":"15.9083082","to_stop_placename":"Hlinsko, \u010cesk\u00e1 republika","to_stop":{"id":"8963","name":"origin","lat":"49.7610828","lon":"15.9083082","placename":"Hlinsko, \u010cesk\u00e1 republika"},"from_stop":{"name":"origin","id":"8979","lat":"56.9465363","lon":"24.1048503","placename":"Riga, Latvia"}}]}}},"processes":[],"eols":[]},{"oid":"164","imid":"5386","linkid":"0","weight":"0","rawemissions":"0","emissions":"0","shipping":"841.01","processemissions":"0","endoflifeemissions":"0","disposaltype":null,"disposalenergy":null,"disposalimpact":null,"disposalemissions":null,"description":"","name":"Part","id":"5386","stops":{"origin":{"related_to":"5386","part_or_object":"p","notes":null,"placename":"Vilnius, Lithuania","id":8980,"name":"origin","lat":"54.6893865","lon":"25.2800243","hops":{"incoming":[],"outgoing":[{"transport_id":null,"id":"6268","transport_name":null,"transport_description":null,"transport_unit":null,"transport_co2_eq":null,"from_stop_id":"8980","from_stop_lat":"54.6893865","from_stop_lon":"25.2800243","from_stop_placename":"Vilnius, Lithuania","to_stop_id":"8963","to_stop_name":"origin","to_stop_lat":"49.7610828","to_stop_lon":"15.9083082","to_stop_placename":"Hlinsko, \u010cesk\u00e1 republika","to_stop":{"id":"8963","name":"origin","lat":"49.7610828","lon":"15.9083082","placename":"Hlinsko, \u010cesk\u00e1 republika"},"from_stop":{"name":"origin","id":"8980","lat":"54.6893865","lon":"25.2800243","placename":"Vilnius, Lithuania"}}]}}},"processes":[],"eols":[]},{"oid":"164","imid":"5387","linkid":"0","weight":"0","rawemissions":"0","emissions":"0","shipping":"3843.22","processemissions":"0","endoflifeemissions":"0","disposaltype":null,"disposalenergy":null,"disposalimpact":null,"disposalemissions":null,"description":"","name":"Part","id":"5387","stops":{"origin":{"related_to":"5387","part_or_object":"p","notes":null,"placename":"Astana 010000, Kazakhstan","id":8981,"name":"origin","lat":"51.179852","lon":"71.446682","hops":{"incoming":[],"outgoing":[{"transport_id":null,"id":"6269","transport_name":null,"transport_description":null,"transport_unit":null,"transport_co2_eq":null,"from_stop_id":"8981","from_stop_lat":"51.179852","from_stop_lon":"71.446682","from_stop_placename":"Astana 010000, Kazakhstan","to_stop_id":"8963","to_stop_name":"origin","to_stop_lat":"49.7610828","to_stop_lon":"15.9083082","to_stop_placename":"Hlinsko, \u010cesk\u00e1 republika","to_stop":{"id":"8963","name":"origin","lat":"49.7610828","lon":"15.9083082","placename":"Hlinsko, \u010cesk\u00e1 republika"},"from_stop":{"name":"origin","id":"8981","lat":"51.179852","lon":"71.446682","placename":"Astana 010000, Kazakhstan"}}]}}},"processes":[],"eols":[]},{"oid":"164","imid":"5388","linkid":"0","weight":"0","rawemissions":"0","emissions":"0","shipping":"4458.74","processemissions":"0","endoflifeemissions":"0","disposaltype":null,"disposalenergy":null,"disposalimpact":null,"disposalemissions":null,"description":"","name":"","id":"5388","stops":{"origin":{"related_to":"5388","part_or_object":"p","notes":null,"placename":"Bishkek, Kyrgyzstan","id":8982,"name":"origin","lat":"42.870022","lon":"74.587883","hops":{"incoming":[],"outgoing":[{"transport_id":null,"id":"6270","transport_name":null,"transport_description":null,"transport_unit":null,"transport_co2_eq":null,"from_stop_id":"8982","from_stop_lat":"42.870022","from_stop_lon":"74.587883","from_stop_placename":"Bishkek, Kyrgyzstan","to_stop_id":"8963","to_stop_name":"origin","to_stop_lat":"49.7610828","to_stop_lon":"15.9083082","to_stop_placename":"Hlinsko, \u010cesk\u00e1 republika","to_stop":{"id":"8963","name":"origin","lat":"49.7610828","lon":"15.9083082","placename":"Hlinsko, \u010cesk\u00e1 republika"},"from_stop":{"name":"origin","id":"8982","lat":"42.870022","lon":"74.587883","placename":"Bishkek, Kyrgyzstan"}}]}}},"processes":[],"eols":[]},{"oid":"164","imid":"5389","linkid":"0","weight":"0","rawemissions":"0","emissions":"0","shipping":"4171.88","processemissions":"0","endoflifeemissions":"0","disposaltype":null,"disposalenergy":null,"disposalimpact":null,"disposalemissions":null,"description":"","name":"Part","id":"5389","stops":{"origin":{"related_to":"5389","part_or_object":"p","notes":null,"placename":"Tashkent, Uzbekistan","id":8983,"name":"origin","lat":"41.2666667","lon":"69.2166667","hops":{"incoming":[],"outgoing":[{"transport_id":null,"id":"6271","transport_name":null,"transport_description":null,"transport_unit":null,"transport_co2_eq":null,"from_stop_id":"8983","from_stop_lat":"41.2666667","from_stop_lon":"69.2166667","from_stop_placename":"Tashkent, Uzbekistan","to_stop_id":"8963","to_stop_name":"origin","to_stop_lat":"49.7610828","to_stop_lon":"15.9083082","to_stop_placename":"Hlinsko, \u010cesk\u00e1 republika","to_stop":{"id":"8963","name":"origin","lat":"49.7610828","lon":"15.9083082","placename":"Hlinsko, \u010cesk\u00e1 republika"},"from_stop":{"name":"origin","id":"8983","lat":"41.2666667","lon":"69.2166667","placename":"Tashkent, Uzbekistan"}}]}}},"processes":[],"eols":[]},{"oid":"164","imid":"5390","linkid":"0","weight":"0","rawemissions":"0","emissions":"0","shipping":"2398.02","processemissions":"0","endoflifeemissions":"0","disposaltype":null,"disposalenergy":null,"disposalimpact":null,"disposalemissions":null,"description":"","name":"Part","id":"5390","stops":{"origin":{"related_to":"5390","part_or_object":"p","notes":null,"placename":"Tbilisi, Georgia","id":8984,"name":"origin","lat":"41.709981","lon":"44.792998","hops":{"incoming":[],"outgoing":[{"transport_id":null,"id":"6272","transport_name":null,"transport_description":null,"transport_unit":null,"transport_co2_eq":null,"from_stop_id":"8984","from_stop_lat":"41.709981","from_stop_lon":"44.792998","from_stop_placename":"Tbilisi, Georgia","to_stop_id":"8963","to_stop_name":"origin","to_stop_lat":"49.7610828","to_stop_lon":"15.9083082","to_stop_placename":"Hlinsko, \u010cesk\u00e1 republika","to_stop":{"id":"8963","name":"origin","lat":"49.7610828","lon":"15.9083082","placename":"Hlinsko, \u010cesk\u00e1 republika"},"from_stop":{"name":"origin","id":"8984","lat":"41.709981","lon":"44.792998","placename":"Tbilisi, Georgia"}}]}}},"processes":[],"eols":[]},{"oid":"164","imid":"5391","linkid":"0","weight":"0","rawemissions":"0","emissions":"0","shipping":"2837.15","processemissions":"0","endoflifeemissions":"0","disposaltype":null,"disposalenergy":null,"disposalimpact":null,"disposalemissions":null,"description":"","name":"Part","id":"5391","stops":{"origin":{"related_to":"5391","part_or_object":"p","notes":null,"placename":"Baku, Azerbaijan","id":8985,"name":"origin","lat":"40.3952778","lon":"49.8822222","hops":{"incoming":[],"outgoing":[{"transport_id":null,"id":"6273","transport_name":null,"transport_description":null,"transport_unit":null,"transport_co2_eq":null,"from_stop_id":"8985","from_stop_lat":"40.3952778","from_stop_lon":"49.8822222","from_stop_placename":"Baku, Azerbaijan","to_stop_id":"8963","to_stop_name":"origin","to_stop_lat":"49.7610828","to_stop_lon":"15.9083082","to_stop_placename":"Hlinsko, \u010cesk\u00e1 republika","to_stop":{"id":"8963","name":"origin","lat":"49.7610828","lon":"15.9083082","placename":"Hlinsko, \u010cesk\u00e1 republika"},"from_stop":{"name":"origin","id":"8985","lat":"40.3952778","lon":"49.8822222","placename":"Baku, Azerbaijan"}}]}}},"processes":[],"eols":[]},{"oid":"164","imid":"5392","linkid":"0","weight":"0","rawemissions":"0","emissions":"0","shipping":"2472.33","processemissions":"0","endoflifeemissions":"0","disposaltype":null,"disposalenergy":null,"disposalimpact":null,"disposalemissions":null,"description":"","name":"Part","id":"5392","stops":{"origin":{"related_to":"5392","part_or_object":"p","notes":null,"placename":"Yerevan, Armenia","id":8986,"name":"origin","lat":"40.183333","lon":"44.516667","hops":{"incoming":[],"outgoing":[{"transport_id":null,"id":"6274","transport_name":null,"transport_description":null,"transport_unit":null,"transport_co2_eq":null,"from_stop_id":"8986","from_stop_lat":"40.183333","from_stop_lon":"44.516667","from_stop_placename":"Yerevan, Armenia","to_stop_id":"8963","to_stop_name":"origin","to_stop_lat":"49.7610828","to_stop_lon":"15.9083082","to_stop_placename":"Hlinsko, \u010cesk\u00e1 republika","to_stop":{"id":"8963","name":"origin","lat":"49.7610828","lon":"15.9083082","placename":"Hlinsko, \u010cesk\u00e1 republika"},"from_stop":{"name":"origin","id":"8986","lat":"40.183333","lon":"44.516667","placename":"Yerevan, Armenia"}}]}}},"processes":[],"eols":[]},{"oid":"164","imid":"5393","linkid":"0","weight":"0","rawemissions":"0","emissions":"0","shipping":"4306.57","processemissions":"0","endoflifeemissions":"0","disposaltype":null,"disposalenergy":null,"disposalimpact":null,"disposalemissions":null,"description":"","name":"Part","id":"5393","stops":{"origin":{"related_to":"5393","part_or_object":"p","notes":null,"placename":"Dushanbe, Tajikistan","id":8987,"name":"origin","lat":"38.5366667","lon":"68.78","hops":{"incoming":[],"outgoing":[{"transport_id":null,"id":"6275","transport_name":null,"transport_description":null,"transport_unit":null,"transport_co2_eq":null,"from_stop_id":"8987","from_stop_lat":"38.5366667","from_stop_lon":"68.78","from_stop_placename":"Dushanbe, Tajikistan","to_stop_id":"8963","to_stop_name":"origin","to_stop_lat":"49.7610828","to_stop_lon":"15.9083082","to_stop_placename":"Hlinsko, \u010cesk\u00e1 republika","to_stop":{"id":"8963","name":"origin","lat":"49.7610828","lon":"15.9083082","placename":"Hlinsko, \u010cesk\u00e1 republika"},"from_stop":{"name":"origin","id":"8987","lat":"38.5366667","lon":"68.78","placename":"Dushanbe, Tajikistan"}}]}}},"processes":[],"eols":[]},{"oid":"164","imid":"5394","linkid":"0","weight":"0","rawemissions":"0","emissions":"0","shipping":"3596.7","processemissions":"0","endoflifeemissions":"0","disposaltype":null,"disposalenergy":null,"disposalimpact":null,"disposalemissions":null,"description":"","name":"Part","id":"5394","stops":{"origin":{"related_to":"5394","part_or_object":"p","notes":null,"placename":"Ashgabat, Turkmenistan","id":8988,"name":"origin","lat":"37.950197","lon":"58.380223","hops":{"incoming":[],"outgoing":[{"transport_id":null,"id":"6276","transport_name":null,"transport_description":null,"transport_unit":null,"transport_co2_eq":null,"from_stop_id":"8988","from_stop_lat":"37.950197","from_stop_lon":"58.380223","from_stop_placename":"Ashgabat, Turkmenistan","to_stop_id":"8963","to_stop_name":"origin","to_stop_lat":"49.7610828","to_stop_lon":"15.9083082","to_stop_placename":"Hlinsko, \u010cesk\u00e1 republika","to_stop":{"id":"8963","name":"origin","lat":"49.7610828","lon":"15.9083082","placename":"Hlinsko, \u010cesk\u00e1 republika"},"from_stop":{"name":"origin","id":"8988","lat":"37.950197","lon":"58.380223","placename":"Ashgabat, Turkmenistan"}}]}}},"processes":[],"eols":[]},{"oid":"164","imid":"5395","linkid":"0","weight":"0","rawemissions":"0","emissions":"0","shipping":"923.32","processemissions":"0","endoflifeemissions":"0","disposaltype":null,"disposalenergy":null,"disposalimpact":null,"disposalemissions":null,"description":"","name":"Part","id":"5395","stops":{"origin":{"related_to":"5395","part_or_object":"p","notes":null,"placename":"Minsk, Belarus","id":8989,"name":"origin","lat":"53.9","lon":"27.5666667","hops":{"incoming":[],"outgoing":[{"transport_id":null,"id":"6277","transport_name":null,"transport_description":null,"transport_unit":null,"transport_co2_eq":null,"from_stop_id":"8989","from_stop_lat":"53.9","from_stop_lon":"27.5666667","from_stop_placename":"Minsk, Belarus","to_stop_id":"8963","to_stop_name":"origin","to_stop_lat":"49.7610828","to_stop_lon":"15.9083082","to_stop_placename":"Hlinsko, \u010cesk\u00e1 republika","to_stop":{"id":"8963","name":"origin","lat":"49.7610828","lon":"15.9083082","placename":"Hlinsko, \u010cesk\u00e1 republika"},"from_stop":{"name":"origin","id":"8989","lat":"53.9","lon":"27.5666667","placename":"Minsk, Belarus"}}]}}},"processes":[],"eols":[]},{"oid":"164","imid":"5396","linkid":"0","weight":"0","rawemissions":"0","emissions":"0","shipping":"1044.59","processemissions":"0","endoflifeemissions":"0","disposaltype":null,"disposalenergy":null,"disposalimpact":null,"disposalemissions":null,"description":"","name":"Part","id":"5396","stops":{"origin":{"related_to":"5396","part_or_object":"p","notes":null,"placename":"Kiev, Kyiv, Ukraine","id":8990,"name":"origin","lat":"50.45","lon":"30.5233333","hops":{"incoming":[],"outgoing":[{"transport_id":null,"id":"6278","transport_name":null,"transport_description":null,"transport_unit":null,"transport_co2_eq":null,"from_stop_id":"8990","from_stop_lat":"50.45","from_stop_lon":"30.5233333","from_stop_placename":"Kiev, Kyiv, Ukraine","to_stop_id":"8963","to_stop_name":"origin","to_stop_lat":"49.7610828","to_stop_lon":"15.9083082","to_stop_placename":"Hlinsko, \u010cesk\u00e1 republika","to_stop":{"id":"8963","name":"origin","lat":"49.7610828","lon":"15.9083082","placename":"Hlinsko, \u010cesk\u00e1 republika"},"from_stop":{"name":"origin","id":"8990","lat":"50.45","lon":"30.5233333","placename":"Kiev, Kyiv, Ukraine"}}]}}},"processes":[],"eols":[]}],"user":{"name":"luk\u00e1\u0161","id":"11535"}}}