{"169":{"oid":"169","type":"object","flag":"","creator":"1","name":"Foods to avoid during winter in the US","upc":"","imagelink":"","description":"These are taken from the article \\\"<a href=\\\"http:\/\/www.farmlandinfo.org\/documents\/37291\/foodmiles.pdf\\\">Food miles: How far your food travels has serious consequences for your health and the climate<\/a>\\\" together with the annual per capita consumption of these ingredients in the US.","slug":"foods-to-avoid-during-winter-in-the-us","category":"","weight":"3.84","emissions":"13.1267","embodied":"0","transport":"13.1267","process":"0","endoflife":"0","shipping":"68598.3","lifetime":"0","usagetype":"","usageenergy":"0","usageemissions":"0","timecreated":"2010-02-24 22:03:35.417861","timemodified":"2009-03-25 23:26:05","visibility":"public","showfootprint":"on","showembodied":"on","showtransport":"on","showprocess":"on","showendoflife":"on","showlastleg":"on","showuse":"on","showstats":"on","stops":{"origin":{"related_to":"169","part_or_object":"o","notes":"","placename":"USA","id":"29","category":"1","lat":"37.09024","lon":"-95.712891","name":"origin","hops":{"incoming":[{"transport_id":"16","id":"338","transport_name":"air, freight, intercontinental","transport_description":"intercontinental freight","transport_unit":"kg km","transport_co2_eq":"0.450000","from_stop_id":"2522","from_stop_lat":"-9.189967","from_stop_lon":"-75.015152","to_stop_id":"29","to_stop_name":"origin","to_stop_lat":"37.09024","placename":"Peru","to_stop_lon":"-95.712891","to_stop":{"id":"29","name":"origin","lat":"37.09024","placename":"USA","lon":"-95.712891"},"from_stop":{"name":"origin","id":"2522","lat":"-9.189967","lon":"-75.015152","placename":"Peru"}},{"transport_id":"16","id":"339","transport_name":"air, freight, intercontinental","transport_description":"intercontinental freight","transport_unit":"kg km","transport_co2_eq":"0.450000","from_stop_id":"2523","from_stop_lat":"52.132633","from_stop_lon":"5.291266","to_stop_id":"29","to_stop_name":"origin","to_stop_lat":"37.09024","placename":"Holland","to_stop_lon":"-95.712891","to_stop":{"id":"29","name":"origin","lat":"37.09024","placename":"USA","lon":"-95.712891"},"from_stop":{"name":"origin","id":"2523","lat":"52.132633","lon":"5.291266","placename":"Holland"}},{"transport_id":"16","id":"340","transport_name":"air, freight, intercontinental","transport_description":"intercontinental freight","transport_unit":"kg km","transport_co2_eq":"0.450000","from_stop_id":"2524","from_stop_lat":"-35.675147","from_stop_lon":"-71.542969","to_stop_id":"29","to_stop_name":"origin","to_stop_lat":"37.09024","placename":"Chile","to_stop_lon":"-95.712891","to_stop":{"id":"29","name":"origin","lat":"37.09024","placename":"USA","lon":"-95.712891"},"from_stop":{"name":"origin","id":"2524","lat":"-35.675147","lon":"-71.542969","placename":"Chile"}},{"transport_id":"16","id":"341","transport_name":"air, freight, intercontinental","transport_description":"intercontinental freight","transport_unit":"kg km","transport_co2_eq":"0.450000","from_stop_id":"2525","from_stop_lat":"-35.675147","from_stop_lon":"-71.542969","to_stop_id":"29","to_stop_name":"origin","to_stop_lat":"37.09024","placename":"Chile","to_stop_lon":"-95.712891","to_stop":{"id":"29","name":"origin","lat":"37.09024","placename":"USA","lon":"-95.712891"},"from_stop":{"name":"origin","id":"2525","lat":"-35.675147","lon":"-71.542969","placename":"Chile"}},{"transport_id":"16","id":"342","transport_name":"air, freight, intercontinental","transport_description":"intercontinental freight","transport_unit":"kg km","transport_co2_eq":"0.450000","from_stop_id":"2526","from_stop_lat":"-40.900557","from_stop_lon":"174.885971","to_stop_id":"29","to_stop_name":"origin","to_stop_lat":"37.09024","placename":"New Zealand","to_stop_lon":"-95.712891","to_stop":{"id":"29","name":"origin","lat":"37.09024","placename":"USA","lon":"-95.712891"},"from_stop":{"name":"origin","id":"2526","lat":"-40.900557","lon":"174.885971","placename":"New Zealand"}},{"transport_id":"16","id":"343","transport_name":"air, freight, intercontinental","transport_description":"intercontinental freight","transport_unit":"kg km","transport_co2_eq":"0.450000","from_stop_id":"2527","from_stop_lat":"-38.416097","from_stop_lon":"-63.616672","to_stop_id":"29","to_stop_name":"origin","to_stop_lat":"37.09024","placename":"Argentina","to_stop_lon":"-95.712891","to_stop":{"id":"29","name":"origin","lat":"37.09024","placename":"USA","lon":"-95.712891"},"from_stop":{"name":"origin","id":"2527","lat":"-38.416097","lon":"-63.616672","placename":"Argentina"}},{"transport_id":"16","id":"344","transport_name":"air, freight, intercontinental","transport_description":"intercontinental freight","transport_unit":"kg km","transport_co2_eq":"0.450000","from_stop_id":"2528","from_stop_lat":"-35.675147","from_stop_lon":"-71.542969","to_stop_id":"29","to_stop_name":"origin","to_stop_lat":"37.09024","placename":"Chile","to_stop_lon":"-95.712891","to_stop":{"id":"29","name":"origin","lat":"37.09024","placename":"USA","lon":"-95.712891"},"from_stop":{"name":"origin","id":"2528","lat":"-35.675147","lon":"-71.542969","placename":"Chile"}},{"transport_id":"14","id":"345","transport_name":"air, passenger, intercontinental","transport_description":"intercontinental, kg km from person-km","transport_unit":"kg km","transport_co2_eq":"1.189000","from_stop_id":"2529","from_stop_lat":"-35.675147","from_stop_lon":"-71.542969","to_stop_id":"29","to_stop_name":"origin","to_stop_lat":"37.09024","placename":"Chile","to_stop_lon":"-95.712891","to_stop":{"id":"29","name":"origin","lat":"37.09024","placename":"USA","lon":"-95.712891"},"from_stop":{"name":"origin","id":"2529","lat":"-35.675147","lon":"-71.542969","placename":"Chile"}}],"outgoing":[]}}},"parts":[{"oid":"169","imid":"399","linkid":"","weight":"0.64","rawemissions":"0","emissions":"0","shipping":"5586.59","processemissions":null,"endoflifeemissions":null,"disposaltype":null,"disposalenergy":null,"disposalimpact":null,"disposalemissions":null,"description":"Part Description","name":"Asparagus","id":"399","stops":{"origin":{"related_to":"399","part_or_object":"p","notes":"","placename":"Peru","id":2522,"name":"origin","lat":"-9.189967","lon":"-75.015152","hops":{"incoming":[],"outgoing":[{"transport_id":"16","id":"338","transport_name":"air, freight, intercontinental","transport_description":"intercontinental freight","transport_unit":"kg km","transport_co2_eq":"0.450000","from_stop_id":"2522","from_stop_lat":"-9.189967","from_stop_lon":"-75.015152","from_stop_placename":"Peru","to_stop_id":"29","to_stop_name":"origin","to_stop_lat":"37.09024","to_stop_lon":"-95.712891","to_stop_placename":"USA","to_stop":{"id":"29","name":"origin","lat":"37.09024","lon":"-95.712891","placename":"USA"},"from_stop":{"name":"origin","id":"2522","lat":"-9.189967","lon":"-75.015152","placename":"Peru"}}]}}},"processes":[],"eols":[]},{"oid":"169","imid":"400","linkid":"","weight":"3.06","rawemissions":"0","emissions":"0","shipping":"7514.49","processemissions":null,"endoflifeemissions":null,"disposaltype":null,"disposalenergy":null,"disposalimpact":null,"disposalemissions":null,"description":"Part Description","name":"Bell Peppers","id":"400","stops":{"origin":{"related_to":"400","part_or_object":"p","notes":"","placename":"Holland","id":2523,"name":"origin","lat":"52.132633","lon":"5.291266","hops":{"incoming":[],"outgoing":[{"transport_id":"16","id":"339","transport_name":"air, freight, intercontinental","transport_description":"intercontinental freight","transport_unit":"kg km","transport_co2_eq":"0.450000","from_stop_id":"2523","from_stop_lat":"52.132633","from_stop_lon":"5.291266","from_stop_placename":"Holland","to_stop_id":"29","to_stop_name":"origin","to_stop_lat":"37.09024","to_stop_lon":"-95.712891","to_stop_placename":"USA","to_stop":{"id":"29","name":"origin","lat":"37.09024","lon":"-95.712891","placename":"USA"},"from_stop":{"name":"origin","id":"2523","lat":"52.132633","lon":"5.291266","placename":"Holland"}}]}}},"processes":[],"eols":[]},{"oid":"169","imid":"401","linkid":"","weight":"0","rawemissions":"0","emissions":"0","shipping":"8476.33","processemissions":null,"endoflifeemissions":null,"disposaltype":null,"disposalenergy":null,"disposalimpact":null,"disposalemissions":null,"description":"Part Description","name":"Blackberries","id":"401","stops":{"origin":{"related_to":"401","part_or_object":"p","notes":"","placename":"Chile","id":2524,"name":"origin","lat":"-35.675147","lon":"-71.542969","hops":{"incoming":[],"outgoing":[{"transport_id":"16","id":"340","transport_name":"air, freight, intercontinental","transport_description":"intercontinental freight","transport_unit":"kg km","transport_co2_eq":"0.450000","from_stop_id":"2524","from_stop_lat":"-35.675147","from_stop_lon":"-71.542969","from_stop_placename":"Chile","to_stop_id":"29","to_stop_name":"origin","to_stop_lat":"37.09024","to_stop_lon":"-95.712891","to_stop_placename":"USA","to_stop":{"id":"29","name":"origin","lat":"37.09024","lon":"-95.712891","placename":"USA"},"from_stop":{"name":"origin","id":"2524","lat":"-35.675147","lon":"-71.542969","placename":"Chile"}}]}}},"processes":[],"eols":[]},{"oid":"169","imid":"402","linkid":"","weight":"0","rawemissions":"0","emissions":"0","shipping":"8476.33","processemissions":null,"endoflifeemissions":null,"disposaltype":null,"disposalenergy":null,"disposalimpact":null,"disposalemissions":null,"description":"Part Description","name":"Blueberries","id":"402","stops":{"origin":{"related_to":"402","part_or_object":"p","notes":"","placename":"Chile","id":2525,"name":"origin","lat":"-35.675147","lon":"-71.542969","hops":{"incoming":[],"outgoing":[{"transport_id":"16","id":"341","transport_name":"air, freight, intercontinental","transport_description":"intercontinental freight","transport_unit":"kg km","transport_co2_eq":"0.450000","from_stop_id":"2525","from_stop_lat":"-35.675147","from_stop_lon":"-71.542969","from_stop_placename":"Chile","to_stop_id":"29","to_stop_name":"origin","to_stop_lat":"37.09024","to_stop_lon":"-95.712891","to_stop_placename":"USA","to_stop":{"id":"29","name":"origin","lat":"37.09024","lon":"-95.712891","placename":"USA"},"from_stop":{"name":"origin","id":"2525","lat":"-35.675147","lon":"-71.542969","placename":"Chile"}}]}}},"processes":[],"eols":[]},{"oid":"169","imid":"403","linkid":"","weight":"0","rawemissions":"0","emissions":"0","shipping":"12564.1","processemissions":null,"endoflifeemissions":null,"disposaltype":null,"disposalenergy":null,"disposalimpact":null,"disposalemissions":null,"description":"Part Description","name":"Blueberries","id":"403","stops":{"origin":{"related_to":"403","part_or_object":"p","notes":"","placename":"New Zealand","id":2526,"name":"origin","lat":"-40.900557","lon":"174.885971","hops":{"incoming":[],"outgoing":[{"transport_id":"16","id":"342","transport_name":"air, freight, intercontinental","transport_description":"intercontinental freight","transport_unit":"kg km","transport_co2_eq":"0.450000","from_stop_id":"2526","from_stop_lat":"-40.900557","from_stop_lon":"174.885971","from_stop_placename":"New Zealand","to_stop_id":"29","to_stop_name":"origin","to_stop_lat":"37.09024","to_stop_lon":"-95.712891","to_stop_placename":"USA","to_stop":{"id":"29","name":"origin","lat":"37.09024","lon":"-95.712891","placename":"USA"},"from_stop":{"name":"origin","id":"2526","lat":"-40.900557","lon":"174.885971","placename":"New Zealand"}}]}}},"processes":[],"eols":[]},{"oid":"169","imid":"404","linkid":"","weight":"0.04","rawemissions":"0","emissions":"0","shipping":"9027.78","processemissions":null,"endoflifeemissions":null,"disposaltype":null,"disposalenergy":null,"disposalimpact":null,"disposalemissions":null,"description":"Part Description","name":"Blackberries","id":"404","stops":{"origin":{"related_to":"404","part_or_object":"p","notes":"","placename":"Argentina","id":2527,"name":"origin","lat":"-38.416097","lon":"-63.616672","hops":{"incoming":[],"outgoing":[{"transport_id":"16","id":"343","transport_name":"air, freight, intercontinental","transport_description":"intercontinental freight","transport_unit":"kg km","transport_co2_eq":"0.450000","from_stop_id":"2527","from_stop_lat":"-38.416097","from_stop_lon":"-63.616672","from_stop_placename":"Argentina","to_stop_id":"29","to_stop_name":"origin","to_stop_lat":"37.09024","to_stop_lon":"-95.712891","to_stop_placename":"USA","to_stop":{"id":"29","name":"origin","lat":"37.09024","lon":"-95.712891","placename":"USA"},"from_stop":{"name":"origin","id":"2527","lat":"-38.416097","lon":"-63.616672","placename":"Argentina"}}]}}},"processes":[],"eols":[]},{"oid":"169","imid":"405","linkid":"","weight":"0","rawemissions":"0","emissions":"0","shipping":"8476.33","processemissions":null,"endoflifeemissions":null,"disposaltype":null,"disposalenergy":null,"disposalimpact":null,"disposalemissions":null,"description":"Part Description","name":"Cherries","id":"405","stops":{"origin":{"related_to":"405","part_or_object":"p","notes":"","placename":"Chile","id":2528,"name":"origin","lat":"-35.675147","lon":"-71.542969","hops":{"incoming":[],"outgoing":[{"transport_id":"16","id":"344","transport_name":"air, freight, intercontinental","transport_description":"intercontinental freight","transport_unit":"kg km","transport_co2_eq":"0.450000","from_stop_id":"2528","from_stop_lat":"-35.675147","from_stop_lon":"-71.542969","from_stop_placename":"Chile","to_stop_id":"29","to_stop_name":"origin","to_stop_lat":"37.09024","to_stop_lon":"-95.712891","to_stop_placename":"USA","to_stop":{"id":"29","name":"origin","lat":"37.09024","lon":"-95.712891","placename":"USA"},"from_stop":{"name":"origin","id":"2528","lat":"-35.675147","lon":"-71.542969","placename":"Chile"}}]}}},"processes":[],"eols":[]},{"oid":"169","imid":"406","linkid":"","weight":"0.1","rawemissions":"0","emissions":"0","shipping":"8476.33","processemissions":null,"endoflifeemissions":null,"disposaltype":null,"disposalenergy":null,"disposalimpact":null,"disposalemissions":null,"description":"Part Description","name":"Raspberries","id":"406","stops":{"origin":{"related_to":"406","part_or_object":"p","notes":"","placename":"Chile","id":2529,"name":"origin","lat":"-35.675147","lon":"-71.542969","hops":{"incoming":[],"outgoing":[{"transport_id":"14","id":"345","transport_name":"air, passenger, intercontinental","transport_description":"intercontinental, kg km from person-km","transport_unit":"kg km","transport_co2_eq":"1.189000","from_stop_id":"2529","from_stop_lat":"-35.675147","from_stop_lon":"-71.542969","from_stop_placename":"Chile","to_stop_id":"29","to_stop_name":"origin","to_stop_lat":"37.09024","to_stop_lon":"-95.712891","to_stop_placename":"USA","to_stop":{"id":"29","name":"origin","lat":"37.09024","lon":"-95.712891","placename":"USA"},"from_stop":{"name":"origin","id":"2529","lat":"-35.675147","lon":"-71.542969","placename":"Chile"}}]}}},"processes":[],"eols":[]}],"user":{"name":"leo","id":"1"}}}