{"172":{"oid":"172","type":"object","flag":"","creator":"1","name":"Oil Flows and Checkpoints","upc":"","imagelink":"","description":"Sketch of an energy map for world oil supplies - Numbers represent Mbd traffic. (<a href=\\\"http:\/\/people.hofstra.edu\/geotrans\/eng\/ch5en\/appl5en\/img\/Map_Oilmovements.pdf\\\">Source<\/a>)","slug":"oil-flows-and-checkpoints","category":"","weight":"0","emissions":"0","embodied":"0","transport":"0","process":"0","endoflife":"0","shipping":"24504.4","lifetime":"0","usagetype":"","usageenergy":"0","usageemissions":"0","timecreated":"2010-02-24 22:03:35.422633","timemodified":"2009-04-10 19:30:56","visibility":"public","showfootprint":"on","showembodied":"on","showtransport":"on","showprocess":"on","showendoflife":"on","showlastleg":"on","showuse":"on","showstats":"on","stops":{"origin":{"related_to":"172","part_or_object":"o","notes":"","placename":"Middle East","id":"32","category":"1","lat":"26.9105955","lon":"44.0073295","name":"origin","hops":{"incoming":[{"transport_id":"17","id":"365","transport_name":"None Selected","transport_description":null,"transport_unit":"kg km","transport_co2_eq":"0.000000","from_stop_id":"2549","from_stop_lat":"26.566667","from_stop_lon":"56.25","to_stop_id":"32","to_stop_name":"origin","to_stop_lat":"26.9105955","placename":"Straight of Hormuz","to_stop_lon":"44.0073295","to_stop":{"id":"32","name":"origin","lat":"26.9105955","placename":"Middle East","lon":"44.0073295"},"from_stop":{"name":"origin","id":"2549","lat":"26.566667","lon":"56.25","placename":"Straight of Hormuz"}},{"transport_id":"17","id":"366","transport_name":"None Selected","transport_description":null,"transport_unit":"kg km","transport_co2_eq":"0.000000","from_stop_id":"2550","from_stop_lat":"30.755018","from_stop_lon":"32.344179","to_stop_id":"32","to_stop_name":"origin","to_stop_lat":"26.9105955","placename":"Suez Canal","to_stop_lon":"44.0073295","to_stop":{"id":"32","name":"origin","lat":"26.9105955","placename":"Middle East","lon":"44.0073295"},"from_stop":{"name":"origin","id":"2550","lat":"30.755018","lon":"32.344179","placename":"Suez Canal"}},{"transport_id":"17","id":"367","transport_name":"None Selected","transport_description":null,"transport_unit":"kg km","transport_co2_eq":"0.000000","from_stop_id":"2551","from_stop_lat":"9.170382","from_stop_lon":"92.808853","to_stop_id":"32","to_stop_name":"origin","to_stop_lat":"26.9105955","placename":"Malacca","to_stop_lon":"44.0073295","to_stop":{"id":"32","name":"origin","lat":"26.9105955","placename":"Middle East","lon":"44.0073295"},"from_stop":{"name":"origin","id":"2551","lat":"9.170382","lon":"92.808853","placename":"Malacca"}},{"transport_id":"17","id":"368","transport_name":"None Selected","transport_description":null,"transport_unit":"kg km","transport_co2_eq":"0.000000","from_stop_id":"2552","from_stop_lat":"12.583333","from_stop_lon":"43.333333","to_stop_id":"32","to_stop_name":"origin","to_stop_lat":"26.9105955","placename":"Bab El-Mandab","to_stop_lon":"44.0073295","to_stop":{"id":"32","name":"origin","lat":"26.9105955","placename":"Middle East","lon":"44.0073295"},"from_stop":{"name":"origin","id":"2552","lat":"12.583333","lon":"43.333333","placename":"Bab El-Mandab"}},{"transport_id":"17","id":"369","transport_name":"None Selected","transport_description":null,"transport_unit":"kg km","transport_co2_eq":"0.000000","from_stop_id":"2553","from_stop_lat":"41.119444","from_stop_lon":"29.075278","to_stop_id":"32","to_stop_name":"origin","to_stop_lat":"26.9105955","placename":"Bosporus","to_stop_lon":"44.0073295","to_stop":{"id":"32","name":"origin","lat":"26.9105955","placename":"Middle East","lon":"44.0073295"},"from_stop":{"name":"origin","id":"2553","lat":"41.119444","lon":"29.075278","placename":"Bosporus"}},{"transport_id":"17","id":"370","transport_name":"None Selected","transport_description":null,"transport_unit":"kg km","transport_co2_eq":"0.000000","from_stop_id":"2554","from_stop_lat":"8.537981","from_stop_lon":"-80.782127","to_stop_id":"32","to_stop_name":"origin","to_stop_lat":"26.9105955","placename":"Panama","to_stop_lon":"44.0073295","to_stop":{"id":"32","name":"origin","lat":"26.9105955","placename":"Middle East","lon":"44.0073295"},"from_stop":{"name":"origin","id":"2554","lat":"8.537981","lon":"-80.782127","placename":"Panama"}}],"outgoing":[]}}},"parts":[{"oid":"172","imid":"426","linkid":"","weight":"0","rawemissions":"0","emissions":"0","shipping":"1217.24","processemissions":null,"endoflifeemissions":null,"disposaltype":null,"disposalenergy":null,"disposalimpact":null,"disposalemissions":null,"description":"16.5 Mbd","name":"Straight of Hormuz","id":"426","stops":{"origin":{"related_to":"426","part_or_object":"p","notes":"","placename":"Straight of Hormuz","id":2549,"name":"origin","lat":"26.566667","lon":"56.25","hops":{"incoming":[],"outgoing":[{"transport_id":"17","id":"365","transport_name":"None Selected","transport_description":null,"transport_unit":"kg km","transport_co2_eq":"0.000000","from_stop_id":"2549","from_stop_lat":"26.566667","from_stop_lon":"56.25","from_stop_placename":"Straight of Hormuz","to_stop_id":"32","to_stop_name":"origin","to_stop_lat":"26.9105955","to_stop_lon":"44.0073295","to_stop_placename":"Middle East","to_stop":{"id":"32","name":"origin","lat":"26.9105955","lon":"44.0073295","placename":"Middle East"},"from_stop":{"name":"origin","id":"2549","lat":"26.566667","lon":"56.25","placename":"Straight of Hormuz"}}]}}},"processes":[],"eols":[]},{"oid":"172","imid":"427","linkid":"","weight":"0","rawemissions":"0","emissions":"0","shipping":"1214.42","processemissions":null,"endoflifeemissions":null,"disposaltype":null,"disposalenergy":null,"disposalimpact":null,"disposalemissions":null,"description":"4.5 Mbd","name":"Suez Canal","id":"427","stops":{"origin":{"related_to":"427","part_or_object":"p","notes":"","placename":"Suez Canal","id":2550,"name":"origin","lat":"30.755018","lon":"32.344179","hops":{"incoming":[],"outgoing":[{"transport_id":"17","id":"366","transport_name":"None Selected","transport_description":null,"transport_unit":"kg km","transport_co2_eq":"0.000000","from_stop_id":"2550","from_stop_lat":"30.755018","from_stop_lon":"32.344179","from_stop_placename":"Suez Canal","to_stop_id":"32","to_stop_name":"origin","to_stop_lat":"26.9105955","to_stop_lon":"44.0073295","to_stop_placename":"Middle East","to_stop":{"id":"32","name":"origin","lat":"26.9105955","lon":"44.0073295","placename":"Middle East"},"from_stop":{"name":"origin","id":"2550","lat":"30.755018","lon":"32.344179","placename":"Suez Canal"}}]}}},"processes":[],"eols":[]},{"oid":"172","imid":"428","linkid":"","weight":"0","rawemissions":"0","emissions":"0","shipping":"5489.14","processemissions":null,"endoflifeemissions":null,"disposaltype":null,"disposalenergy":null,"disposalimpact":null,"disposalemissions":null,"description":"15 Mbd","name":"Malacca","id":"428","stops":{"origin":{"related_to":"428","part_or_object":"p","notes":"","placename":"Malacca","id":2551,"name":"origin","lat":"9.170382","lon":"92.808853","hops":{"incoming":[],"outgoing":[{"transport_id":"17","id":"367","transport_name":"None Selected","transport_description":null,"transport_unit":"kg km","transport_co2_eq":"0.000000","from_stop_id":"2551","from_stop_lat":"9.170382","from_stop_lon":"92.808853","from_stop_placename":"Malacca","to_stop_id":"32","to_stop_name":"origin","to_stop_lat":"26.9105955","to_stop_lon":"44.0073295","to_stop_placename":"Middle East","to_stop":{"id":"32","name":"origin","lat":"26.9105955","lon":"44.0073295","placename":"Middle East"},"from_stop":{"name":"origin","id":"2551","lat":"9.170382","lon":"92.808853","placename":"Malacca"}}]}}},"processes":[],"eols":[]},{"oid":"172","imid":"429","linkid":"","weight":"0","rawemissions":"0","emissions":"0","shipping":"1596.45","processemissions":null,"endoflifeemissions":null,"disposaltype":null,"disposalenergy":null,"disposalimpact":null,"disposalemissions":null,"description":"3.3 Mbd","name":"Bab El-Mandab","id":"429","stops":{"origin":{"related_to":"429","part_or_object":"p","notes":"","placename":"Bab El-Mandab","id":2552,"name":"origin","lat":"12.583333","lon":"43.333333","hops":{"incoming":[],"outgoing":[{"transport_id":"17","id":"368","transport_name":"None Selected","transport_description":null,"transport_unit":"kg km","transport_co2_eq":"0.000000","from_stop_id":"2552","from_stop_lat":"12.583333","from_stop_lon":"43.333333","from_stop_placename":"Bab El-Mandab","to_stop_id":"32","to_stop_name":"origin","to_stop_lat":"26.9105955","to_stop_lon":"44.0073295","to_stop_placename":"Middle East","to_stop":{"id":"32","name":"origin","lat":"26.9105955","lon":"44.0073295","placename":"Middle East"},"from_stop":{"name":"origin","id":"2552","lat":"12.583333","lon":"43.333333","placename":"Bab El-Mandab"}}]}}},"processes":[],"eols":[]},{"oid":"172","imid":"430","linkid":"","weight":"0","rawemissions":"0","emissions":"0","shipping":"2091.34","processemissions":null,"endoflifeemissions":null,"disposaltype":null,"disposalenergy":null,"disposalimpact":null,"disposalemissions":null,"description":"2.4 Mbd","name":"Bosporus","id":"430","stops":{"origin":{"related_to":"430","part_or_object":"p","notes":"","placename":"Bosporus","id":2553,"name":"origin","lat":"41.119444","lon":"29.075278","hops":{"incoming":[],"outgoing":[{"transport_id":"17","id":"369","transport_name":"None Selected","transport_description":null,"transport_unit":"kg km","transport_co2_eq":"0.000000","from_stop_id":"2553","from_stop_lat":"41.119444","from_stop_lon":"29.075278","from_stop_placename":"Bosporus","to_stop_id":"32","to_stop_name":"origin","to_stop_lat":"26.9105955","to_stop_lon":"44.0073295","to_stop_placename":"Middle East","to_stop":{"id":"32","name":"origin","lat":"26.9105955","lon":"44.0073295","placename":"Middle East"},"from_stop":{"name":"origin","id":"2553","lat":"41.119444","lon":"29.075278","placename":"Bosporus"}}]}}},"processes":[],"eols":[]},{"oid":"172","imid":"431","linkid":"","weight":"0","rawemissions":"0","emissions":"0","shipping":"12895.8","processemissions":null,"endoflifeemissions":null,"disposaltype":null,"disposalenergy":null,"disposalimpact":null,"disposalemissions":null,"description":"0.5 Mbd","name":"Panama","id":"431","stops":{"origin":{"related_to":"431","part_or_object":"p","notes":"","placename":"Panama","id":2554,"name":"origin","lat":"8.537981","lon":"-80.782127","hops":{"incoming":[],"outgoing":[{"transport_id":"17","id":"370","transport_name":"None Selected","transport_description":null,"transport_unit":"kg km","transport_co2_eq":"0.000000","from_stop_id":"2554","from_stop_lat":"8.537981","from_stop_lon":"-80.782127","from_stop_placename":"Panama","to_stop_id":"32","to_stop_name":"origin","to_stop_lat":"26.9105955","to_stop_lon":"44.0073295","to_stop_placename":"Middle East","to_stop":{"id":"32","name":"origin","lat":"26.9105955","lon":"44.0073295","placename":"Middle East"},"from_stop":{"name":"origin","id":"2554","lat":"8.537981","lon":"-80.782127","placename":"Panama"}}]}}},"processes":[],"eols":[]}],"user":{"name":"leo","id":"1"}}}