{"173":{"oid":"173","type":"object","flag":"","creator":"4","name":"iPhone (First Gen)","upc":"","imagelink":"","description":"See: <a href=\\\"http:\/\/www.shmula.com\/304\/the-apple-iphone-supply-chain\\\">source<\/a>","slug":"iphone-first-gen","category":"","weight":"0","emissions":"0","embodied":"0","transport":"0","process":"0","endoflife":"0","shipping":"35338.1","lifetime":"0","usagetype":"","usageenergy":"0","usageemissions":"0","timecreated":"2010-02-24 22:03:35.421128","timemodified":"2009-04-12 21:54:00","visibility":"public","showfootprint":"on","showembodied":"on","showtransport":"on","showprocess":"on","showendoflife":"on","showlastleg":"on","showuse":"on","showstats":"on","stops":{"origin":{"related_to":"173","part_or_object":"o","notes":"","placename":"Shenzhen, China","id":"31","category":"1","lat":"22.5442297","lon":"114.0577948","name":"origin","hops":{"incoming":[{"transport_id":"17","id":"371","transport_name":"None Selected","transport_description":null,"transport_unit":"kg km","transport_co2_eq":"0.000000","from_stop_id":"2555","from_stop_lat":"1.352083","from_stop_lon":"103.819836","to_stop_id":"31","to_stop_name":"origin","to_stop_lat":"22.5442297","placename":"Singapore","to_stop_lon":"114.0577948","to_stop":{"id":"31","name":"origin","lat":"22.5442297","placename":"Shenzhen, China","lon":"114.0577948"},"from_stop":{"name":"origin","id":"2555","lat":"1.352083","lon":"103.819836","placename":"Singapore"}},{"transport_id":"17","id":"372","transport_name":"None Selected","transport_description":null,"transport_unit":"kg km","transport_co2_eq":"0.000000","from_stop_id":"2556","from_stop_lat":"1.352083","from_stop_lon":"103.819836","to_stop_id":"31","to_stop_name":"origin","to_stop_lat":"22.5442297","placename":"Singapore","to_stop_lon":"114.0577948","to_stop":{"id":"31","name":"origin","lat":"22.5442297","placename":"Shenzhen, China","lon":"114.0577948"},"from_stop":{"name":"origin","id":"2556","lat":"1.352083","lon":"103.819836","placename":"Singapore"}},{"transport_id":"17","id":"373","transport_name":"None Selected","transport_description":null,"transport_unit":"kg km","transport_co2_eq":"0.000000","from_stop_id":"2557","from_stop_lat":"37.09024","from_stop_lon":"-95.712891","to_stop_id":"31","to_stop_name":"origin","to_stop_lat":"22.5442297","placename":"USA","to_stop_lon":"114.0577948","to_stop":{"id":"31","name":"origin","lat":"22.5442297","placename":"Shenzhen, China","lon":"114.0577948"},"from_stop":{"name":"origin","id":"2557","lat":"37.09024","lon":"-95.712891","placename":"USA"}},{"transport_id":"17","id":"374","transport_name":"None Selected","transport_description":null,"transport_unit":"kg km","transport_co2_eq":"0.000000","from_stop_id":"2558","from_stop_lat":"37.09024","from_stop_lon":"-95.712891","to_stop_id":"31","to_stop_name":"origin","to_stop_lat":"22.5442297","placename":"USA","to_stop_lon":"114.0577948","to_stop":{"id":"31","name":"origin","lat":"22.5442297","placename":"Shenzhen, China","lon":"114.0577948"},"from_stop":{"name":"origin","id":"2558","lat":"37.09024","lon":"-95.712891","placename":"USA"}},{"transport_id":"17","id":"375","transport_name":"None Selected","transport_description":null,"transport_unit":"kg km","transport_co2_eq":"0.000000","from_stop_id":"2559","from_stop_lat":"24.9157122","from_stop_lon":"121.6739371","to_stop_id":"31","to_stop_name":"origin","to_stop_lat":"22.5442297","placename":"Taipei, Taiwan","to_stop_lon":"114.0577948","to_stop":{"id":"31","name":"origin","lat":"22.5442297","placename":"Shenzhen, China","lon":"114.0577948"},"from_stop":{"name":"origin","id":"2559","lat":"24.9157122","lon":"121.6739371","placename":"Taipei, Taiwan"}},{"transport_id":"17","id":"376","transport_name":"None Selected","transport_description":null,"transport_unit":"kg km","transport_co2_eq":"0.000000","from_stop_id":"2560","from_stop_lat":"24.9157122","from_stop_lon":"121.6739371","to_stop_id":"31","to_stop_name":"origin","to_stop_lat":"22.5442297","placename":"Taipei, Taiwan","to_stop_lon":"114.0577948","to_stop":{"id":"31","name":"origin","lat":"22.5442297","placename":"Shenzhen, China","lon":"114.0577948"},"from_stop":{"name":"origin","id":"2560","lat":"24.9157122","lon":"121.6739371","placename":"Taipei, Taiwan"}},{"transport_id":"17","id":"377","transport_name":"None Selected","transport_description":null,"transport_unit":"kg km","transport_co2_eq":"0.000000","from_stop_id":"2561","from_stop_lat":"24.9157122","from_stop_lon":"121.6739371","to_stop_id":"31","to_stop_name":"origin","to_stop_lat":"22.5442297","placename":"Taipei, Taiwan","to_stop_lon":"114.0577948","to_stop":{"id":"31","name":"origin","lat":"22.5442297","placename":"Shenzhen, China","lon":"114.0577948"},"from_stop":{"name":"origin","id":"2561","lat":"24.9157122","lon":"121.6739371","placename":"Taipei, Taiwan"}},{"transport_id":"17","id":"378","transport_name":"None Selected","transport_description":null,"transport_unit":"kg km","transport_co2_eq":"0.000000","from_stop_id":"2562","from_stop_lat":"23.1748941","from_stop_lon":"120.2974199","to_stop_id":"31","to_stop_name":"origin","to_stop_lat":"22.5442297","placename":"Tainan, Taiwan","to_stop_lon":"114.0577948","to_stop":{"id":"31","name":"origin","lat":"22.5442297","placename":"Shenzhen, China","lon":"114.0577948"},"from_stop":{"name":"origin","id":"2562","lat":"23.1748941","lon":"120.2974199","placename":"Tainan, Taiwan"}},{"transport_id":"17","id":"379","transport_name":"None Selected","transport_description":null,"transport_unit":"kg km","transport_co2_eq":"0.000000","from_stop_id":"2563","from_stop_lat":"24.9157122","from_stop_lon":"121.6739371","to_stop_id":"31","to_stop_name":"origin","to_stop_lat":"22.5442297","placename":"Taipei, Taiwan","to_stop_lon":"114.0577948","to_stop":{"id":"31","name":"origin","lat":"22.5442297","placename":"Shenzhen, China","lon":"114.0577948"},"from_stop":{"name":"origin","id":"2563","lat":"24.9157122","lon":"121.6739371","placename":"Taipei, Taiwan"}},{"transport_id":"17","id":"380","transport_name":"None Selected","transport_description":null,"transport_unit":"kg km","transport_co2_eq":"0.000000","from_stop_id":"2564","from_stop_lat":"24.9772803","from_stop_lon":"121.4570447","to_stop_id":"31","to_stop_name":"origin","to_stop_lat":"22.5442297","placename":"Tucheng, Taiwan","to_stop_lon":"114.0577948","to_stop":{"id":"31","name":"origin","lat":"22.5442297","placename":"Shenzhen, China","lon":"114.0577948"},"from_stop":{"name":"origin","id":"2564","lat":"24.9772803","lon":"121.4570447","placename":"Tucheng, Taiwan"}}],"outgoing":[]}}},"parts":[{"oid":"173","imid":"432","linkid":"","weight":"0","rawemissions":"0","emissions":"0","shipping":"2606.2","processemissions":null,"endoflifeemissions":null,"disposaltype":null,"disposalenergy":null,"disposalimpact":null,"disposalemissions":null,"description":"Samsung","name":"CPU and Video Processor","id":"432","stops":{"origin":{"related_to":"432","part_or_object":"p","notes":"","placename":"Singapore","id":2555,"name":"origin","lat":"1.352083","lon":"103.819836","hops":{"incoming":[],"outgoing":[{"transport_id":"17","id":"371","transport_name":"None Selected","transport_description":null,"transport_unit":"kg km","transport_co2_eq":"0.000000","from_stop_id":"2555","from_stop_lat":"1.352083","from_stop_lon":"103.819836","from_stop_placename":"Singapore","to_stop_id":"31","to_stop_name":"origin","to_stop_lat":"22.5442297","to_stop_lon":"114.0577948","to_stop_placename":"Shenzhen, China","to_stop":{"id":"31","name":"origin","lat":"22.5442297","lon":"114.0577948","placename":"Shenzhen, China"},"from_stop":{"name":"origin","id":"2555","lat":"1.352083","lon":"103.819836","placename":"Singapore"}}]}}},"processes":[],"eols":[]},{"oid":"173","imid":"433","linkid":"","weight":"0","rawemissions":"0","emissions":"0","shipping":"2606.2","processemissions":null,"endoflifeemissions":null,"disposaltype":null,"disposalenergy":null,"disposalimpact":null,"disposalemissions":null,"description":"","name":"Infineon Baseband Communications","id":"433","stops":{"origin":{"related_to":"433","part_or_object":"p","notes":"","placename":"Singapore","id":2556,"name":"origin","lat":"1.352083","lon":"103.819836","hops":{"incoming":[],"outgoing":[{"transport_id":"17","id":"372","transport_name":"None Selected","transport_description":null,"transport_unit":"kg km","transport_co2_eq":"0.000000","from_stop_id":"2556","from_stop_lat":"1.352083","from_stop_lon":"103.819836","from_stop_placename":"Singapore","to_stop_id":"31","to_stop_name":"origin","to_stop_lat":"22.5442297","to_stop_lon":"114.0577948","to_stop_placename":"Shenzhen, China","to_stop":{"id":"31","name":"origin","lat":"22.5442297","lon":"114.0577948","placename":"Shenzhen, China"},"from_stop":{"name":"origin","id":"2556","lat":"1.352083","lon":"103.819836","placename":"Singapore"}}]}}},"processes":[],"eols":[]},{"oid":"173","imid":"434","linkid":"","weight":"0","rawemissions":"0","emissions":"0","shipping":"12701.2","processemissions":null,"endoflifeemissions":null,"disposaltype":null,"disposalenergy":null,"disposalimpact":null,"disposalemissions":null,"description":"Broadcomm","name":"Touchscreen Controllers","id":"434","stops":{"origin":{"related_to":"434","part_or_object":"p","notes":"","placename":"USA","id":2557,"name":"origin","lat":"37.09024","lon":"-95.712891","hops":{"incoming":[],"outgoing":[{"transport_id":"17","id":"373","transport_name":"None Selected","transport_description":null,"transport_unit":"kg km","transport_co2_eq":"0.000000","from_stop_id":"2557","from_stop_lat":"37.09024","from_stop_lon":"-95.712891","from_stop_placename":"USA","to_stop_id":"31","to_stop_name":"origin","to_stop_lat":"22.5442297","to_stop_lon":"114.0577948","to_stop_placename":"Shenzhen, China","to_stop":{"id":"31","name":"origin","lat":"22.5442297","lon":"114.0577948","placename":"Shenzhen, China"},"from_stop":{"name":"origin","id":"2557","lat":"37.09024","lon":"-95.712891","placename":"USA"}}]}}},"processes":[],"eols":[]},{"oid":"173","imid":"435","linkid":"","weight":"0","rawemissions":"0","emissions":"0","shipping":"12701.2","processemissions":null,"endoflifeemissions":null,"disposaltype":null,"disposalenergy":null,"disposalimpact":null,"disposalemissions":null,"description":"Marvell","name":"802.11 Wireless","id":"435","stops":{"origin":{"related_to":"435","part_or_object":"p","notes":"","placename":"USA","id":2558,"name":"origin","lat":"37.09024","lon":"-95.712891","hops":{"incoming":[],"outgoing":[{"transport_id":"17","id":"374","transport_name":"None Selected","transport_description":null,"transport_unit":"kg km","transport_co2_eq":"0.000000","from_stop_id":"2558","from_stop_lat":"37.09024","from_stop_lon":"-95.712891","from_stop_placename":"USA","to_stop_id":"31","to_stop_name":"origin","to_stop_lat":"22.5442297","to_stop_lon":"114.0577948","to_stop_placename":"Shenzhen, China","to_stop":{"id":"31","name":"origin","lat":"22.5442297","lon":"114.0577948","placename":"Shenzhen, China"},"from_stop":{"name":"origin","id":"2558","lat":"37.09024","lon":"-95.712891","placename":"USA"}}]}}},"processes":[],"eols":[]},{"oid":"173","imid":"436","linkid":"","weight":"0","rawemissions":"0","emissions":"0","shipping":"819.64","processemissions":null,"endoflifeemissions":null,"disposaltype":null,"disposalenergy":null,"disposalimpact":null,"disposalemissions":null,"description":"Primax Electronics","name":"Digital Camera Modules","id":"436","stops":{"origin":{"related_to":"436","part_or_object":"p","notes":"","placename":"Taipei, Taiwan","id":2559,"name":"origin","lat":"24.9157122","lon":"121.6739371","hops":{"incoming":[],"outgoing":[{"transport_id":"17","id":"375","transport_name":"None Selected","transport_description":null,"transport_unit":"kg km","transport_co2_eq":"0.000000","from_stop_id":"2559","from_stop_lat":"24.9157122","from_stop_lon":"121.6739371","from_stop_placename":"Taipei, Taiwan","to_stop_id":"31","to_stop_name":"origin","to_stop_lat":"22.5442297","to_stop_lon":"114.0577948","to_stop_placename":"Shenzhen, China","to_stop":{"id":"31","name":"origin","lat":"22.5442297","lon":"114.0577948","placename":"Shenzhen, China"},"from_stop":{"name":"origin","id":"2559","lat":"24.9157122","lon":"121.6739371","placename":"Taipei, Taiwan"}}]}}},"processes":[],"eols":[]},{"oid":"173","imid":"437","linkid":"","weight":"0","rawemissions":"0","emissions":"0","shipping":"819.64","processemissions":null,"endoflifeemissions":null,"disposaltype":null,"disposalenergy":null,"disposalimpact":null,"disposalemissions":null,"description":"Entery Industrial","name":"Connectors","id":"437","stops":{"origin":{"related_to":"437","part_or_object":"p","notes":"","placename":"Taipei, Taiwan","id":2560,"name":"origin","lat":"24.9157122","lon":"121.6739371","hops":{"incoming":[],"outgoing":[{"transport_id":"17","id":"376","transport_name":"None Selected","transport_description":null,"transport_unit":"kg km","transport_co2_eq":"0.000000","from_stop_id":"2560","from_stop_lat":"24.9157122","from_stop_lon":"121.6739371","from_stop_placename":"Taipei, Taiwan","to_stop_id":"31","to_stop_name":"origin","to_stop_lat":"22.5442297","to_stop_lon":"114.0577948","to_stop_placename":"Shenzhen, China","to_stop":{"id":"31","name":"origin","lat":"22.5442297","lon":"114.0577948","placename":"Shenzhen, China"},"from_stop":{"name":"origin","id":"2560","lat":"24.9157122","lon":"121.6739371","placename":"Taipei, Taiwan"}}]}}},"processes":[],"eols":[]},{"oid":"173","imid":"438","linkid":"","weight":"0","rawemissions":"0","emissions":"0","shipping":"819.64","processemissions":null,"endoflifeemissions":null,"disposaltype":null,"disposalenergy":null,"disposalimpact":null,"disposalemissions":null,"description":"Umicron Technology Corp","name":"Printed Circuit Boards","id":"438","stops":{"origin":{"related_to":"438","part_or_object":"p","notes":"","placename":"Taipei, Taiwan","id":2561,"name":"origin","lat":"24.9157122","lon":"121.6739371","hops":{"incoming":[],"outgoing":[{"transport_id":"17","id":"377","transport_name":"None Selected","transport_description":null,"transport_unit":"kg km","transport_co2_eq":"0.000000","from_stop_id":"2561","from_stop_lat":"24.9157122","from_stop_lon":"121.6739371","from_stop_placename":"Taipei, Taiwan","to_stop_id":"31","to_stop_name":"origin","to_stop_lat":"22.5442297","to_stop_lon":"114.0577948","to_stop_placename":"Shenzhen, China","to_stop":{"id":"31","name":"origin","lat":"22.5442297","lon":"114.0577948","placename":"Shenzhen, China"},"from_stop":{"name":"origin","id":"2561","lat":"24.9157122","lon":"121.6739371","placename":"Taipei, Taiwan"}}]}}},"processes":[],"eols":[]},{"oid":"173","imid":"439","linkid":"","weight":"0","rawemissions":"0","emissions":"0","shipping":"643.82","processemissions":null,"endoflifeemissions":null,"disposaltype":null,"disposalenergy":null,"disposalimpact":null,"disposalemissions":null,"description":"Catcher Technology","name":"Stainless Metal Casings","id":"439","stops":{"origin":{"related_to":"439","part_or_object":"p","notes":"","placename":"Tainan, Taiwan","id":2562,"name":"origin","lat":"23.1748941","lon":"120.2974199","hops":{"incoming":[],"outgoing":[{"transport_id":"17","id":"378","transport_name":"None Selected","transport_description":null,"transport_unit":"kg km","transport_co2_eq":"0.000000","from_stop_id":"2562","from_stop_lat":"23.1748941","from_stop_lon":"120.2974199","from_stop_placename":"Tainan, Taiwan","to_stop_id":"31","to_stop_name":"origin","to_stop_lat":"22.5442297","to_stop_lon":"114.0577948","to_stop_placename":"Shenzhen, China","to_stop":{"id":"31","name":"origin","lat":"22.5442297","lon":"114.0577948","placename":"Shenzhen, China"},"from_stop":{"name":"origin","id":"2562","lat":"23.1748941","lon":"120.2974199","placename":"Tainan, Taiwan"}}]}}},"processes":[],"eols":[]},{"oid":"173","imid":"440","linkid":"","weight":"0","rawemissions":"0","emissions":"0","shipping":"819.64","processemissions":null,"endoflifeemissions":null,"disposaltype":null,"disposalenergy":null,"disposalimpact":null,"disposalemissions":null,"description":"Cambridge Silicon Radio","name":"Bluetooth Chipsets","id":"440","stops":{"origin":{"related_to":"440","part_or_object":"p","notes":"","placename":"Taipei, Taiwan","id":2563,"name":"origin","lat":"24.9157122","lon":"121.6739371","hops":{"incoming":[],"outgoing":[{"transport_id":"17","id":"379","transport_name":"None Selected","transport_description":null,"transport_unit":"kg km","transport_co2_eq":"0.000000","from_stop_id":"2563","from_stop_lat":"24.9157122","from_stop_lon":"121.6739371","from_stop_placename":"Taipei, Taiwan","to_stop_id":"31","to_stop_name":"origin","to_stop_lat":"22.5442297","to_stop_lon":"114.0577948","to_stop_placename":"Shenzhen, China","to_stop":{"id":"31","name":"origin","lat":"22.5442297","lon":"114.0577948","placename":"Shenzhen, China"},"from_stop":{"name":"origin","id":"2563","lat":"24.9157122","lon":"121.6739371","placename":"Taipei, Taiwan"}}]}}},"processes":[],"eols":[]},{"oid":"173","imid":"441","linkid":"","weight":"0","rawemissions":"0","emissions":"0","shipping":"800.88","processemissions":null,"endoflifeemissions":null,"disposaltype":null,"disposalenergy":null,"disposalimpact":null,"disposalemissions":null,"description":"Foxconn International Holdings","name":"Circuitry","id":"441","stops":{"origin":{"related_to":"441","part_or_object":"p","notes":"","placename":"Tucheng, Taiwan","id":2564,"name":"origin","lat":"24.9772803","lon":"121.4570447","hops":{"incoming":[],"outgoing":[{"transport_id":"17","id":"380","transport_name":"None Selected","transport_description":null,"transport_unit":"kg km","transport_co2_eq":"0.000000","from_stop_id":"2564","from_stop_lat":"24.9772803","from_stop_lon":"121.4570447","from_stop_placename":"Tucheng, Taiwan","to_stop_id":"31","to_stop_name":"origin","to_stop_lat":"22.5442297","to_stop_lon":"114.0577948","to_stop_placename":"Shenzhen, China","to_stop":{"id":"31","name":"origin","lat":"22.5442297","lon":"114.0577948","placename":"Shenzhen, China"},"from_stop":{"name":"origin","id":"2564","lat":"24.9772803","lon":"121.4570447","placename":"Tucheng, Taiwan"}}]}}},"processes":[],"eols":[]}],"user":{"name":"hock","id":"4"}}}