{"1749":{"oid":"1749","type":"object","flag":"","creator":"7058","name":"NotePC-14\"","upc":"","imagelink":"","description":"Assuming Sony NotePC","slug":"notepc-14","category":"","weight":"3.085","emissions":"52.4598","embodied":"52.08","transport":"0.379759","process":"0","endoflife":"0","shipping":"85802.9","lifetime":"0","usagetype":"","usageenergy":"0","usageemissions":"0","timecreated":"2010-02-24 22:03:35.711574","timemodified":"2009-11-05 19:25:25","visibility":"private","showfootprint":"on","showembodied":"on","showtransport":"on","showprocess":"on","showendoflife":"on","showlastleg":"on","showuse":"on","showstats":"on","stops":{"origin":{"related_to":"1749","part_or_object":"o","notes":"","placename":"T?ky? Metropolis, Japan","id":"209","category":"1","lat":"35.6894875","lon":"139.6917064","name":"origin","hops":{"incoming":[{"transport_id":"11","id":"1172","transport_name":"train, regional","transport_description":"< 640 km, diesel, kg km from person-km","transport_unit":"kg km","transport_co2_eq":"0.080400","from_stop_id":"3430","from_stop_lat":"34.573262","from_stop_lon":"135.482998","to_stop_id":"209","to_stop_name":"origin","to_stop_lat":"35.6894875","placename":"Sakai City, ?saka Prefecture, Japan","to_stop_lon":"139.6917064","to_stop":{"id":"209","name":"origin","lat":"35.6894875","placename":"T?ky? Metropolis, Japan","lon":"139.6917064"},"from_stop":{"name":"origin","id":"3430","lat":"34.573262","lon":"135.482998","placename":"Sakai City, ?saka Prefecture, Japan"}},{"transport_id":"8","id":"1173","transport_name":"freighter, oceanic","transport_description":"","transport_unit":"kg km","transport_co2_eq":"0.004200","from_stop_id":"3431","from_stop_lat":"23.69781","from_stop_lon":"120.960515","to_stop_id":"209","to_stop_name":"origin","to_stop_lat":"35.6894875","placename":"Taiwan","to_stop_lon":"139.6917064","to_stop":{"id":"209","name":"origin","lat":"35.6894875","placename":"T?ky? Metropolis, Japan","lon":"139.6917064"},"from_stop":{"name":"origin","id":"3431","lat":"23.69781","lon":"120.960515","placename":"Taiwan"}},{"transport_id":"9","id":"1187","transport_name":"container ship","transport_description":"moving boxcar size containers","transport_unit":"kg km","transport_co2_eq":"0.047800","from_stop_id":"3445","from_stop_lat":"23.69781","from_stop_lon":"120.960515","to_stop_id":"209","to_stop_name":"origin","to_stop_lat":"35.6894875","placename":"Taiwan","to_stop_lon":"139.6917064","to_stop":{"id":"209","name":"origin","lat":"35.6894875","placename":"T?ky? Metropolis, Japan","lon":"139.6917064"},"from_stop":{"name":"origin","id":"3445","lat":"23.69781","lon":"120.960515","placename":"Taiwan"}},{"transport_id":"16","id":"1199","transport_name":"air, freight, intercontinental","transport_description":"intercontinental freight","transport_unit":"kg km","transport_co2_eq":"0.450000","from_stop_id":"3457","from_stop_lat":"37.3541079","from_stop_lon":"-121.9552356","to_stop_id":"209","to_stop_name":"origin","to_stop_lat":"35.6894875","placename":"Santa Clara, CA, USA","to_stop_lon":"139.6917064","to_stop":{"id":"209","name":"origin","lat":"35.6894875","placename":"T?ky? Metropolis, Japan","lon":"139.6917064"},"from_stop":{"name":"origin","id":"3457","lat":"37.3541079","lon":"-121.9552356","placename":"Santa Clara, CA, USA"}},{"transport_id":"10","id":"1200","transport_name":"train, freight","transport_description":"diesel freight locomotive","transport_unit":"kg km","transport_co2_eq":"0.005600","from_stop_id":"3458","from_stop_lat":"34.573262","from_stop_lon":"135.482998","to_stop_id":"209","to_stop_name":"origin","to_stop_lat":"35.6894875","placename":"Sakai City, ?saka Prefecture, Japan","to_stop_lon":"139.6917064","to_stop":{"id":"209","name":"origin","lat":"35.6894875","placename":"T?ky? Metropolis, Japan","lon":"139.6917064"},"from_stop":{"name":"origin","id":"3458","lat":"34.573262","lon":"135.482998","placename":"Sakai City, ?saka Prefecture, Japan"}},{"transport_id":"16","id":"1201","transport_name":"air, freight, intercontinental","transport_description":"intercontinental freight","transport_unit":"kg km","transport_co2_eq":"0.450000","from_stop_id":"3459","from_stop_lat":"37.2635727","from_stop_lon":"127.0286009","to_stop_id":"209","to_stop_name":"origin","to_stop_lat":"35.6894875","placename":"Suwon-si, Gyeonggi-do, South Korea","to_stop_lon":"139.6917064","to_stop":{"id":"209","name":"origin","lat":"35.6894875","placename":"T?ky? Metropolis, Japan","lon":"139.6917064"},"from_stop":{"name":"origin","id":"3459","lat":"37.2635727","lon":"127.0286009","placename":"Suwon-si, Gyeonggi-do, South Korea"}},{"transport_id":"10","id":"1202","transport_name":"train, freight","transport_description":"diesel freight locomotive","transport_unit":"kg km","transport_co2_eq":"0.005600","from_stop_id":"3460","from_stop_lat":"0","from_stop_lon":"0","to_stop_id":"209","to_stop_name":"origin","to_stop_lat":"35.6894875","placename":"Part Location","to_stop_lon":"139.6917064","to_stop":{"id":"209","name":"origin","lat":"35.6894875","placename":"T?ky? Metropolis, Japan","lon":"139.6917064"},"from_stop":{"name":"origin","id":"3460","lat":"0","lon":"0","placename":"Part Location"}},{"transport_id":"9","id":"1203","transport_name":"container ship","transport_description":"moving boxcar size containers","transport_unit":"kg km","transport_co2_eq":"0.047800","from_stop_id":"3461","from_stop_lat":"23.69781","from_stop_lon":"120.960515","to_stop_id":"209","to_stop_name":"origin","to_stop_lat":"35.6894875","placename":"Taiwan","to_stop_lon":"139.6917064","to_stop":{"id":"209","name":"origin","lat":"35.6894875","placename":"T?ky? Metropolis, Japan","lon":"139.6917064"},"from_stop":{"name":"origin","id":"3461","lat":"23.69781","lon":"120.960515","placename":"Taiwan"}},{"transport_id":"9","id":"1204","transport_name":"container ship","transport_description":"moving boxcar size containers","transport_unit":"kg km","transport_co2_eq":"0.047800","from_stop_id":"3462","from_stop_lat":"23.69781","from_stop_lon":"120.960515","to_stop_id":"209","to_stop_name":"origin","to_stop_lat":"35.6894875","placename":"Taiwan","to_stop_lon":"139.6917064","to_stop":{"id":"209","name":"origin","lat":"35.6894875","placename":"T?ky? Metropolis, Japan","lon":"139.6917064"},"from_stop":{"name":"origin","id":"3462","lat":"23.69781","lon":"120.960515","placename":"Taiwan"}},{"transport_id":"10","id":"1205","transport_name":"train, freight","transport_description":"diesel freight locomotive","transport_unit":"kg km","transport_co2_eq":"0.005600","from_stop_id":"3463","from_stop_lat":"35.4475073","from_stop_lon":"139.6423446","to_stop_id":"209","to_stop_name":"origin","to_stop_lat":"35.6894875","placename":"Kanagawa Prefecture, Japan","to_stop_lon":"139.6917064","to_stop":{"id":"209","name":"origin","lat":"35.6894875","placename":"T?ky? Metropolis, Japan","lon":"139.6917064"},"from_stop":{"name":"origin","id":"3463","lat":"35.4475073","lon":"139.6423446","placename":"Kanagawa Prefecture, Japan"}},{"transport_id":"8","id":"1206","transport_name":"freighter, oceanic","transport_description":"","transport_unit":"kg km","transport_co2_eq":"0.004200","from_stop_id":"3464","from_stop_lat":"23.69781","from_stop_lon":"120.960515","to_stop_id":"209","to_stop_name":"origin","to_stop_lat":"35.6894875","placename":"Taiwan","to_stop_lon":"139.6917064","to_stop":{"id":"209","name":"origin","lat":"35.6894875","placename":"T?ky? Metropolis, Japan","lon":"139.6917064"},"from_stop":{"name":"origin","id":"3464","lat":"23.69781","lon":"120.960515","placename":"Taiwan"}},{"transport_id":"10","id":"1207","transport_name":"train, freight","transport_description":"diesel freight locomotive","transport_unit":"kg km","transport_co2_eq":"0.005600","from_stop_id":"3465","from_stop_lat":"34.6937378","from_stop_lon":"135.5021651","to_stop_id":"209","to_stop_name":"origin","to_stop_lat":"35.6894875","placename":"?saka City, ?saka Prefecture, Japan","to_stop_lon":"139.6917064","to_stop":{"id":"209","name":"origin","lat":"35.6894875","placename":"T?ky? Metropolis, Japan","lon":"139.6917064"},"from_stop":{"name":"origin","id":"3465","lat":"34.6937378","lon":"135.5021651","placename":"?saka City, ?saka Prefecture, Japan"}},{"transport_id":"2","id":"1208","transport_name":"truck, 16 tons","transport_description":"truck, half full","transport_unit":"kg km","transport_co2_eq":"0.020300","from_stop_id":"3466","from_stop_lat":"35.4475073","from_stop_lon":"139.6423446","to_stop_id":"209","to_stop_name":"origin","to_stop_lat":"35.6894875","placename":"Kanagawa Prefecture, Japan","to_stop_lon":"139.6917064","to_stop":{"id":"209","name":"origin","lat":"35.6894875","placename":"T?ky? Metropolis, Japan","lon":"139.6917064"},"from_stop":{"name":"origin","id":"3466","lat":"35.4475073","lon":"139.6423446","placename":"Kanagawa Prefecture, Japan"}},{"transport_id":"8","id":"1209","transport_name":"freighter, oceanic","transport_description":"","transport_unit":"kg km","transport_co2_eq":"0.004200","from_stop_id":"3467","from_stop_lat":"23.69781","from_stop_lon":"120.960515","to_stop_id":"209","to_stop_name":"origin","to_stop_lat":"35.6894875","placename":"Taiwan","to_stop_lon":"139.6917064","to_stop":{"id":"209","name":"origin","lat":"35.6894875","placename":"T?ky? Metropolis, Japan","lon":"139.6917064"},"from_stop":{"name":"origin","id":"3467","lat":"23.69781","lon":"120.960515","placename":"Taiwan"}},{"transport_id":"8","id":"1210","transport_name":"freighter, oceanic","transport_description":"","transport_unit":"kg km","transport_co2_eq":"0.004200","from_stop_id":"3468","from_stop_lat":"22.543447","from_stop_lon":"114.057818","to_stop_id":"209","to_stop_name":"origin","to_stop_lat":"35.6894875","placename":"Shenzhen, Guangdong, China","to_stop_lon":"139.6917064","to_stop":{"id":"209","name":"origin","lat":"35.6894875","placename":"T?ky? Metropolis, Japan","lon":"139.6917064"},"from_stop":{"name":"origin","id":"3468","lat":"22.543447","lon":"114.057818","placename":"Shenzhen, Guangdong, China"}},{"transport_id":"8","id":"1211","transport_name":"freighter, oceanic","transport_description":"","transport_unit":"kg km","transport_co2_eq":"0.004200","from_stop_id":"3469","from_stop_lat":"22.543447","from_stop_lon":"114.057818","to_stop_id":"209","to_stop_name":"origin","to_stop_lat":"35.6894875","placename":"Shenzhen, Guangdong, China","to_stop_lon":"139.6917064","to_stop":{"id":"209","name":"origin","lat":"35.6894875","placename":"T?ky? Metropolis, Japan","lon":"139.6917064"},"from_stop":{"name":"origin","id":"3469","lat":"22.543447","lon":"114.057818","placename":"Shenzhen, Guangdong, China"}},{"transport_id":"8","id":"1212","transport_name":"freighter, oceanic","transport_description":"","transport_unit":"kg km","transport_co2_eq":"0.004200","from_stop_id":"3470","from_stop_lat":"22.543447","from_stop_lon":"114.057818","to_stop_id":"209","to_stop_name":"origin","to_stop_lat":"35.6894875","placename":"Shenzhen, Guangdong, China","to_stop_lon":"139.6917064","to_stop":{"id":"209","name":"origin","lat":"35.6894875","placename":"T?ky? Metropolis, Japan","lon":"139.6917064"},"from_stop":{"name":"origin","id":"3470","lat":"22.543447","lon":"114.057818","placename":"Shenzhen, Guangdong, China"}},{"transport_id":"9","id":"1213","transport_name":"container ship","transport_description":"moving boxcar size containers","transport_unit":"kg km","transport_co2_eq":"0.047800","from_stop_id":"3471","from_stop_lat":"23.69781","from_stop_lon":"120.960515","to_stop_id":"209","to_stop_name":"origin","to_stop_lat":"35.6894875","placename":"Taiwan","to_stop_lon":"139.6917064","to_stop":{"id":"209","name":"origin","lat":"35.6894875","placename":"T?ky? Metropolis, Japan","lon":"139.6917064"},"from_stop":{"name":"origin","id":"3471","lat":"23.69781","lon":"120.960515","placename":"Taiwan"}},{"transport_id":"9","id":"1214","transport_name":"container ship","transport_description":"moving boxcar size containers","transport_unit":"kg km","transport_co2_eq":"0.047800","from_stop_id":"3472","from_stop_lat":"39.120876","from_stop_lon":"117.21503","to_stop_id":"209","to_stop_name":"origin","to_stop_lat":"35.6894875","placename":"Tianjin, China","to_stop_lon":"139.6917064","to_stop":{"id":"209","name":"origin","lat":"35.6894875","placename":"T?ky? Metropolis, Japan","lon":"139.6917064"},"from_stop":{"name":"origin","id":"3472","lat":"39.120876","lon":"117.21503","placename":"Tianjin, China"}},{"transport_id":"9","id":"1215","transport_name":"container ship","transport_description":"moving boxcar size containers","transport_unit":"kg km","transport_co2_eq":"0.047800","from_stop_id":"3473","from_stop_lat":"39.120876","from_stop_lon":"117.21503","to_stop_id":"209","to_stop_name":"origin","to_stop_lat":"35.6894875","placename":"Tianjin, China","to_stop_lon":"139.6917064","to_stop":{"id":"209","name":"origin","lat":"35.6894875","placename":"T?ky? Metropolis, Japan","lon":"139.6917064"},"from_stop":{"name":"origin","id":"3473","lat":"39.120876","lon":"117.21503","placename":"Tianjin, China"}},{"transport_id":"16","id":"1216","transport_name":"air, freight, intercontinental","transport_description":"intercontinental freight","transport_unit":"kg km","transport_co2_eq":"0.450000","from_stop_id":"3474","from_stop_lat":"47.6062095","from_stop_lon":"-122.3320708","to_stop_id":"209","to_stop_name":"origin","to_stop_lat":"35.6894875","placename":"Seattle, WA, USA","to_stop_lon":"139.6917064","to_stop":{"id":"209","name":"origin","lat":"35.6894875","placename":"T?ky? Metropolis, Japan","lon":"139.6917064"},"from_stop":{"name":"origin","id":"3474","lat":"47.6062095","lon":"-122.3320708","placename":"Seattle, WA, USA"}},{"transport_id":"2","id":"1217","transport_name":"truck, 16 tons","transport_description":"truck, half full","transport_unit":"kg km","transport_co2_eq":"0.020300","from_stop_id":"3475","from_stop_lat":"35.4475073","from_stop_lon":"139.6423446","to_stop_id":"209","to_stop_name":"origin","to_stop_lat":"35.6894875","placename":"Kanagawa Prefecture, Japan","to_stop_lon":"139.6917064","to_stop":{"id":"209","name":"origin","lat":"35.6894875","placename":"T?ky? Metropolis, Japan","lon":"139.6917064"},"from_stop":{"name":"origin","id":"3475","lat":"35.4475073","lon":"139.6423446","placename":"Kanagawa Prefecture, Japan"}},{"transport_id":"16","id":"1218","transport_name":"air, freight, intercontinental","transport_description":"intercontinental freight","transport_unit":"kg km","transport_co2_eq":"0.450000","from_stop_id":"3476","from_stop_lat":"1.352083","from_stop_lon":"103.819836","to_stop_id":"209","to_stop_name":"origin","to_stop_lat":"35.6894875","placename":"Singapore","to_stop_lon":"139.6917064","to_stop":{"id":"209","name":"origin","lat":"35.6894875","placename":"T?ky? Metropolis, Japan","lon":"139.6917064"},"from_stop":{"name":"origin","id":"3476","lat":"1.352083","lon":"103.819836","placename":"Singapore"}},{"transport_id":"8","id":"1219","transport_name":"freighter, oceanic","transport_description":"","transport_unit":"kg km","transport_co2_eq":"0.004200","from_stop_id":"3477","from_stop_lat":"23.69781","from_stop_lon":"120.960515","to_stop_id":"209","to_stop_name":"origin","to_stop_lat":"35.6894875","placename":"Taiwan","to_stop_lon":"139.6917064","to_stop":{"id":"209","name":"origin","lat":"35.6894875","placename":"T?ky? Metropolis, Japan","lon":"139.6917064"},"from_stop":{"name":"origin","id":"3477","lat":"23.69781","lon":"120.960515","placename":"Taiwan"}},{"transport_id":"8","id":"1220","transport_name":"freighter, oceanic","transport_description":"","transport_unit":"kg km","transport_co2_eq":"0.004200","from_stop_id":"3478","from_stop_lat":"23.129075","from_stop_lon":"113.264423","to_stop_id":"209","to_stop_name":"origin","to_stop_lat":"35.6894875","placename":"Guangzhou, Guangdong, China","to_stop_lon":"139.6917064","to_stop":{"id":"209","name":"origin","lat":"35.6894875","placename":"T?ky? Metropolis, Japan","lon":"139.6917064"},"from_stop":{"name":"origin","id":"3478","lat":"23.129075","lon":"113.264423","placename":"Guangzhou, Guangdong, China"}},{"transport_id":"10","id":"1239","transport_name":"train, freight","transport_description":"diesel freight locomotive","transport_unit":"kg km","transport_co2_eq":"0.005600","from_stop_id":"3499","from_stop_lat":"0","from_stop_lon":"0","to_stop_id":"209","to_stop_name":"origin","to_stop_lat":"35.6894875","placename":"Part Location","to_stop_lon":"139.6917064","to_stop":{"id":"209","name":"origin","lat":"35.6894875","placename":"T?ky? Metropolis, Japan","lon":"139.6917064"},"from_stop":{"name":"origin","id":"3499","lat":"0","lon":"0","placename":"Part Location"}},{"transport_id":"17","id":"1185","transport_name":"None Selected","transport_description":null,"transport_unit":"kg km","transport_co2_eq":"0.000000","from_stop_id":"3443","from_stop_lat":"23.69781","from_stop_lon":"120.960515","to_stop_id":"209","to_stop_name":"origin","to_stop_lat":"35.6894875","placename":"Taiwan","to_stop_lon":"139.6917064","to_stop":{"id":"209","name":"origin","lat":"35.6894875","placename":"T?ky? Metropolis, Japan","lon":"139.6917064"},"from_stop":{"name":"origin","id":"3443","lat":"23.69781","lon":"120.960515","placename":"Taiwan"}},{"transport_id":"17","id":"1186","transport_name":"None Selected","transport_description":null,"transport_unit":"kg km","transport_co2_eq":"0.000000","from_stop_id":"3444","from_stop_lat":"23.69781","from_stop_lon":"120.960515","to_stop_id":"209","to_stop_name":"origin","to_stop_lat":"35.6894875","placename":"Taiwan","to_stop_lon":"139.6917064","to_stop":{"id":"209","name":"origin","lat":"35.6894875","placename":"T?ky? Metropolis, Japan","lon":"139.6917064"},"from_stop":{"name":"origin","id":"3444","lat":"23.69781","lon":"120.960515","placename":"Taiwan"}},{"transport_id":"17","id":"1188","transport_name":"None Selected","transport_description":null,"transport_unit":"kg km","transport_co2_eq":"0.000000","from_stop_id":"3446","from_stop_lat":"36.589031","from_stop_lon":"140.659607","to_stop_id":"209","to_stop_name":"origin","to_stop_lat":"35.6894875","placename":"Hitachi Japan","to_stop_lon":"139.6917064","to_stop":{"id":"209","name":"origin","lat":"35.6894875","placename":"T?ky? Metropolis, Japan","lon":"139.6917064"},"from_stop":{"name":"origin","id":"3446","lat":"36.589031","lon":"140.659607","placename":"Hitachi Japan"}},{"transport_id":"17","id":"1189","transport_name":"None Selected","transport_description":null,"transport_unit":"kg km","transport_co2_eq":"0.000000","from_stop_id":"3447","from_stop_lat":"23.69781","from_stop_lon":"120.960515","to_stop_id":"209","to_stop_name":"origin","to_stop_lat":"35.6894875","placename":"Taiwan","to_stop_lon":"139.6917064","to_stop":{"id":"209","name":"origin","lat":"35.6894875","placename":"T?ky? Metropolis, Japan","lon":"139.6917064"},"from_stop":{"name":"origin","id":"3447","lat":"23.69781","lon":"120.960515","placename":"Taiwan"}},{"transport_id":"17","id":"1190","transport_name":"None Selected","transport_description":null,"transport_unit":"kg km","transport_co2_eq":"0.000000","from_stop_id":"3448","from_stop_lat":"22.543447","from_stop_lon":"114.057818","to_stop_id":"209","to_stop_name":"origin","to_stop_lat":"35.6894875","placename":"Shenzhen, Guangdong, China","to_stop_lon":"139.6917064","to_stop":{"id":"209","name":"origin","lat":"35.6894875","placename":"T?ky? Metropolis, Japan","lon":"139.6917064"},"from_stop":{"name":"origin","id":"3448","lat":"22.543447","lon":"114.057818","placename":"Shenzhen, Guangdong, China"}},{"transport_id":"17","id":"1191","transport_name":"None Selected","transport_description":null,"transport_unit":"kg km","transport_co2_eq":"0.000000","from_stop_id":"3449","from_stop_lat":"22.543447","from_stop_lon":"114.057818","to_stop_id":"209","to_stop_name":"origin","to_stop_lat":"35.6894875","placename":"Shenzhen, Guangdong, China","to_stop_lon":"139.6917064","to_stop":{"id":"209","name":"origin","lat":"35.6894875","placename":"T?ky? Metropolis, Japan","lon":"139.6917064"},"from_stop":{"name":"origin","id":"3449","lat":"22.543447","lon":"114.057818","placename":"Shenzhen, Guangdong, China"}},{"transport_id":"17","id":"1192","transport_name":"None Selected","transport_description":null,"transport_unit":"kg km","transport_co2_eq":"0.000000","from_stop_id":"3450","from_stop_lat":"22.543447","from_stop_lon":"114.057818","to_stop_id":"209","to_stop_name":"origin","to_stop_lat":"35.6894875","placename":"Shenzhen, Guangdong, China","to_stop_lon":"139.6917064","to_stop":{"id":"209","name":"origin","lat":"35.6894875","placename":"T?ky? Metropolis, Japan","lon":"139.6917064"},"from_stop":{"name":"origin","id":"3450","lat":"22.543447","lon":"114.057818","placename":"Shenzhen, Guangdong, China"}},{"transport_id":"17","id":"1193","transport_name":"None Selected","transport_description":null,"transport_unit":"kg km","transport_co2_eq":"0.000000","from_stop_id":"3451","from_stop_lat":"22.543447","from_stop_lon":"114.057818","to_stop_id":"209","to_stop_name":"origin","to_stop_lat":"35.6894875","placename":"Shenzhen, Guangdong, China","to_stop_lon":"139.6917064","to_stop":{"id":"209","name":"origin","lat":"35.6894875","placename":"T?ky? Metropolis, Japan","lon":"139.6917064"},"from_stop":{"name":"origin","id":"3451","lat":"22.543447","lon":"114.057818","placename":"Shenzhen, Guangdong, China"}},{"transport_id":"17","id":"1194","transport_name":"None Selected","transport_description":null,"transport_unit":"kg km","transport_co2_eq":"0.000000","from_stop_id":"3452","from_stop_lat":"22.543447","from_stop_lon":"114.057818","to_stop_id":"209","to_stop_name":"origin","to_stop_lat":"35.6894875","placename":"Shenzhen, Guangdong, China","to_stop_lon":"139.6917064","to_stop":{"id":"209","name":"origin","lat":"35.6894875","placename":"T?ky? Metropolis, Japan","lon":"139.6917064"},"from_stop":{"name":"origin","id":"3452","lat":"22.543447","lon":"114.057818","placename":"Shenzhen, Guangdong, China"}},{"transport_id":"17","id":"1195","transport_name":"None Selected","transport_description":null,"transport_unit":"kg km","transport_co2_eq":"0.000000","from_stop_id":"3453","from_stop_lat":"22.543447","from_stop_lon":"114.057818","to_stop_id":"209","to_stop_name":"origin","to_stop_lat":"35.6894875","placename":"Shenzhen, Guangdong, China","to_stop_lon":"139.6917064","to_stop":{"id":"209","name":"origin","lat":"35.6894875","placename":"T?ky? Metropolis, Japan","lon":"139.6917064"},"from_stop":{"name":"origin","id":"3453","lat":"22.543447","lon":"114.057818","placename":"Shenzhen, Guangdong, China"}},{"transport_id":"17","id":"1196","transport_name":"None Selected","transport_description":null,"transport_unit":"kg km","transport_co2_eq":"0.000000","from_stop_id":"3454","from_stop_lat":"22.543447","from_stop_lon":"114.057818","to_stop_id":"209","to_stop_name":"origin","to_stop_lat":"35.6894875","placename":"Shenzhen, Guangdong, China","to_stop_lon":"139.6917064","to_stop":{"id":"209","name":"origin","lat":"35.6894875","placename":"T?ky? Metropolis, Japan","lon":"139.6917064"},"from_stop":{"name":"origin","id":"3454","lat":"22.543447","lon":"114.057818","placename":"Shenzhen, Guangdong, China"}},{"transport_id":"17","id":"1197","transport_name":"None Selected","transport_description":null,"transport_unit":"kg km","transport_co2_eq":"0.000000","from_stop_id":"3455","from_stop_lat":"22.543447","from_stop_lon":"114.057818","to_stop_id":"209","to_stop_name":"origin","to_stop_lat":"35.6894875","placename":"Shenzhen, Guangdong, China","to_stop_lon":"139.6917064","to_stop":{"id":"209","name":"origin","lat":"35.6894875","placename":"T?ky? Metropolis, Japan","lon":"139.6917064"},"from_stop":{"name":"origin","id":"3455","lat":"22.543447","lon":"114.057818","placename":"Shenzhen, Guangdong, China"}},{"transport_id":"17","id":"1198","transport_name":"None Selected","transport_description":null,"transport_unit":"kg km","transport_co2_eq":"0.000000","from_stop_id":"3456","from_stop_lat":"35.4475073","from_stop_lon":"139.6423446","to_stop_id":"209","to_stop_name":"origin","to_stop_lat":"35.6894875","placename":"Kanagawa Prefecture, Japan","to_stop_lon":"139.6917064","to_stop":{"id":"209","name":"origin","lat":"35.6894875","placename":"T?ky? Metropolis, Japan","lon":"139.6917064"},"from_stop":{"name":"origin","id":"3456","lat":"35.4475073","lon":"139.6423446","placename":"Kanagawa Prefecture, Japan"}}],"outgoing":[]}}},"parts":[{"oid":"1749","imid":"1379","linkid":"","weight":"0.3","rawemissions":"6","emissions":"1.8","shipping":"402.77","processemissions":null,"endoflifeemissions":null,"disposaltype":null,"disposalenergy":null,"disposalimpact":null,"disposalemissions":null,"description":"","name":"Battery Li-Ion","id":"1379","stops":{"origin":{"related_to":"1379","part_or_object":"p","notes":"","placename":"Sakai City, ?saka Prefecture, Japan","id":3430,"name":"origin","lat":"34.573262","lon":"135.482998","hops":{"incoming":[],"outgoing":[{"transport_id":"11","id":"1172","transport_name":"train, regional","transport_description":"< 640 km, diesel, kg km from person-km","transport_unit":"kg km","transport_co2_eq":"0.080400","from_stop_id":"3430","from_stop_lat":"34.573262","from_stop_lon":"135.482998","from_stop_placename":"Sakai City, ?saka Prefecture, Japan","to_stop_id":"209","to_stop_name":"origin","to_stop_lat":"35.6894875","to_stop_lon":"139.6917064","to_stop_placename":"T?ky? Metropolis, Japan","to_stop":{"id":"209","name":"origin","lat":"35.6894875","lon":"139.6917064","placename":"T?ky? Metropolis, Japan"},"from_stop":{"name":"origin","id":"3430","lat":"34.573262","lon":"135.482998","placename":"Sakai City, ?saka Prefecture, Japan"}}]}}},"processes":[],"eols":[]},{"oid":"1749","imid":"1380","linkid":"","weight":"0.01","rawemissions":"3","emissions":"0.03","shipping":"2243.2","processemissions":null,"endoflifeemissions":null,"disposaltype":null,"disposalenergy":null,"disposalimpact":null,"disposalemissions":null,"description":"","name":"Optical Drive Flex Cable","id":"1380","stops":{"origin":{"related_to":"1380","part_or_object":"p","notes":"","placename":"Taiwan","id":3431,"name":"origin","lat":"23.69781","lon":"120.960515","hops":{"incoming":[],"outgoing":[{"transport_id":"8","id":"1173","transport_name":"freighter, oceanic","transport_description":"","transport_unit":"kg km","transport_co2_eq":"0.004200","from_stop_id":"3431","from_stop_lat":"23.69781","from_stop_lon":"120.960515","from_stop_placename":"Taiwan","to_stop_id":"209","to_stop_name":"origin","to_stop_lat":"35.6894875","to_stop_lon":"139.6917064","to_stop_placename":"T?ky? Metropolis, Japan","to_stop":{"id":"209","name":"origin","lat":"35.6894875","lon":"139.6917064","placename":"T?ky? Metropolis, Japan"},"from_stop":{"name":"origin","id":"3431","lat":"23.69781","lon":"120.960515","placename":"Taiwan"}}]}}},"processes":[],"eols":[]},{"oid":"1749","imid":"1391","linkid":"","weight":"0.02","rawemissions":"6","emissions":"0.12","shipping":"2243.2","processemissions":null,"endoflifeemissions":null,"disposaltype":null,"disposalenergy":null,"disposalimpact":null,"disposalemissions":null,"description":"","name":"DC Jack Harness","id":"1391","stops":{"origin":{"related_to":"1391","part_or_object":"p","notes":"","placename":"Taiwan","id":3443,"name":"origin","lat":"23.69781","lon":"120.960515","hops":{"incoming":[],"outgoing":[{"transport_id":"17","id":"1185","transport_name":"None Selected","transport_description":null,"transport_unit":"kg km","transport_co2_eq":"0.000000","from_stop_id":"3443","from_stop_lat":"23.69781","from_stop_lon":"120.960515","from_stop_placename":"Taiwan","to_stop_id":"209","to_stop_name":"origin","to_stop_lat":"35.6894875","to_stop_lon":"139.6917064","to_stop_placename":"T?ky? Metropolis, Japan","to_stop":{"id":"209","name":"origin","lat":"35.6894875","lon":"139.6917064","placename":"T?ky? Metropolis, Japan"},"from_stop":{"name":"origin","id":"3443","lat":"23.69781","lon":"120.960515","placename":"Taiwan"}}]}}},"processes":[],"eols":[]},{"oid":"1749","imid":"1392","linkid":"","weight":"0.01","rawemissions":"3","emissions":"0.03","shipping":"2243.2","processemissions":null,"endoflifeemissions":null,"disposaltype":null,"disposalenergy":null,"disposalimpact":null,"disposalemissions":null,"description":"","name":"Ethernet Harness Cable","id":"1392","stops":{"origin":{"related_to":"1392","part_or_object":"p","notes":"","placename":"Taiwan","id":3444,"name":"origin","lat":"23.69781","lon":"120.960515","hops":{"incoming":[],"outgoing":[{"transport_id":"17","id":"1186","transport_name":"None Selected","transport_description":null,"transport_unit":"kg km","transport_co2_eq":"0.000000","from_stop_id":"3444","from_stop_lat":"23.69781","from_stop_lon":"120.960515","from_stop_placename":"Taiwan","to_stop_id":"209","to_stop_name":"origin","to_stop_lat":"35.6894875","to_stop_lon":"139.6917064","to_stop_placename":"T?ky? Metropolis, Japan","to_stop":{"id":"209","name":"origin","lat":"35.6894875","lon":"139.6917064","placename":"T?ky? Metropolis, Japan"},"from_stop":{"name":"origin","id":"3444","lat":"23.69781","lon":"120.960515","placename":"Taiwan"}}]}}},"processes":[],"eols":[]},{"oid":"1749","imid":"1393","linkid":"","weight":"0.01","rawemissions":"3","emissions":"0.03","shipping":"2243.2","processemissions":null,"endoflifeemissions":null,"disposaltype":null,"disposalenergy":null,"disposalimpact":null,"disposalemissions":null,"description":"","name":"Hard Drive Cable","id":"1393","stops":{"origin":{"related_to":"1393","part_or_object":"p","notes":"","placename":"Taiwan","id":3445,"name":"origin","lat":"23.69781","lon":"120.960515","hops":{"incoming":[],"outgoing":[{"transport_id":"9","id":"1187","transport_name":"container ship","transport_description":"moving boxcar size containers","transport_unit":"kg km","transport_co2_eq":"0.047800","from_stop_id":"3445","from_stop_lat":"23.69781","from_stop_lon":"120.960515","from_stop_placename":"Taiwan","to_stop_id":"209","to_stop_name":"origin","to_stop_lat":"35.6894875","to_stop_lon":"139.6917064","to_stop_placename":"T?ky? Metropolis, Japan","to_stop":{"id":"209","name":"origin","lat":"35.6894875","lon":"139.6917064","placename":"T?ky? Metropolis, Japan"},"from_stop":{"name":"origin","id":"3445","lat":"23.69781","lon":"120.960515","placename":"Taiwan"}}]}}},"processes":[],"eols":[]},{"oid":"1749","imid":"1394","linkid":"","weight":"0.01","rawemissions":"3","emissions":"0.03","shipping":"219.84","processemissions":null,"endoflifeemissions":null,"disposaltype":null,"disposalenergy":null,"disposalimpact":null,"disposalemissions":null,"description":"","name":"LCD Harness Cable","id":"1394","stops":{"origin":{"related_to":"1394","part_or_object":"p","notes":"","placename":"Hitachi Japan","id":3446,"name":"origin","lat":"36.589031","lon":"140.659607","hops":{"incoming":[],"outgoing":[{"transport_id":"17","id":"1188","transport_name":"None Selected","transport_description":null,"transport_unit":"kg km","transport_co2_eq":"0.000000","from_stop_id":"3446","from_stop_lat":"36.589031","from_stop_lon":"140.659607","from_stop_placename":"Hitachi Japan","to_stop_id":"209","to_stop_name":"origin","to_stop_lat":"35.6894875","to_stop_lon":"139.6917064","to_stop_placename":"T?ky? Metropolis, Japan","to_stop":{"id":"209","name":"origin","lat":"35.6894875","lon":"139.6917064","placename":"T?ky? Metropolis, Japan"},"from_stop":{"name":"origin","id":"3446","lat":"36.589031","lon":"140.659607","placename":"Hitachi Japan"}}]}}},"processes":[],"eols":[]},{"oid":"1749","imid":"1395","linkid":"","weight":"0.01","rawemissions":"3","emissions":"0.03","shipping":"2166.31","processemissions":null,"endoflifeemissions":null,"disposaltype":null,"disposalenergy":null,"disposalimpact":null,"disposalemissions":null,"description":"","name":"Power Button Board Cable","id":"1395","stops":{"origin":{"related_to":"1395","part_or_object":"p","notes":"","placename":"Taiwan","id":3447,"name":"origin","lat":"23.69781","lon":"120.960515","hops":{"incoming":[],"outgoing":[{"transport_id":"17","id":"1189","transport_name":"None Selected","transport_description":null,"transport_unit":"kg km","transport_co2_eq":"0.000000","from_stop_id":"3447","from_stop_lat":"23.69781","from_stop_lon":"120.960515","from_stop_placename":"Taiwan","to_stop_id":"209","to_stop_name":"origin","to_stop_lat":"35.6894875","to_stop_lon":"139.6917064","to_stop_placename":"T?ky? Metropolis, Japan","to_stop":{"id":"209","name":"origin","lat":"35.6894875","lon":"139.6917064","placename":"T?ky? Metropolis, Japan"},"from_stop":{"name":"origin","id":"3447","lat":"23.69781","lon":"120.960515","placename":"Taiwan"}}]}}},"processes":[],"eols":[]},{"oid":"1749","imid":"1396","linkid":"","weight":"0.09","rawemissions":"1.08","emissions":"0.1","shipping":"2783.98","processemissions":null,"endoflifeemissions":null,"disposaltype":null,"disposalenergy":null,"disposalimpact":null,"disposalemissions":null,"description":"","name":"Bezel Assembly","id":"1396","stops":{"origin":{"related_to":"1396","part_or_object":"p","notes":"","placename":"Shenzhen, Guangdong, China","id":3448,"name":"origin","lat":"22.543447","lon":"114.057818","hops":{"incoming":[],"outgoing":[{"transport_id":"17","id":"1190","transport_name":"None Selected","transport_description":null,"transport_unit":"kg km","transport_co2_eq":"0.000000","from_stop_id":"3448","from_stop_lat":"22.543447","from_stop_lon":"114.057818","from_stop_placename":"Shenzhen, Guangdong, China","to_stop_id":"209","to_stop_name":"origin","to_stop_lat":"35.6894875","to_stop_lon":"139.6917064","to_stop_placename":"T?ky? Metropolis, Japan","to_stop":{"id":"209","name":"origin","lat":"35.6894875","lon":"139.6917064","placename":"T?ky? Metropolis, Japan"},"from_stop":{"name":"origin","id":"3448","lat":"22.543447","lon":"114.057818","placename":"Shenzhen, Guangdong, China"}}]}}},"processes":[],"eols":[]},{"oid":"1749","imid":"1397","linkid":"","weight":"0.17","rawemissions":"2.04","emissions":"0.35","shipping":"2783.98","processemissions":null,"endoflifeemissions":null,"disposaltype":null,"disposalenergy":null,"disposalimpact":null,"disposalemissions":null,"description":"","name":"Bottom Cover","id":"1397","stops":{"origin":{"related_to":"1397","part_or_object":"p","notes":"","placename":"Shenzhen, Guangdong, China","id":3449,"name":"origin","lat":"22.543447","lon":"114.057818","hops":{"incoming":[],"outgoing":[{"transport_id":"17","id":"1191","transport_name":"None Selected","transport_description":null,"transport_unit":"kg km","transport_co2_eq":"0.000000","from_stop_id":"3449","from_stop_lat":"22.543447","from_stop_lon":"114.057818","from_stop_placename":"Shenzhen, Guangdong, China","to_stop_id":"209","to_stop_name":"origin","to_stop_lat":"35.6894875","to_stop_lon":"139.6917064","to_stop_placename":"T?ky? Metropolis, Japan","to_stop":{"id":"209","name":"origin","lat":"35.6894875","lon":"139.6917064","placename":"T?ky? Metropolis, Japan"},"from_stop":{"name":"origin","id":"3449","lat":"22.543447","lon":"114.057818","placename":"Shenzhen, Guangdong, China"}}]}}},"processes":[],"eols":[]},{"oid":"1749","imid":"1398","linkid":"","weight":"0.06","rawemissions":"0.72","emissions":"0.04","shipping":"2783.98","processemissions":null,"endoflifeemissions":null,"disposaltype":null,"disposalenergy":null,"disposalimpact":null,"disposalemissions":null,"description":"","name":"Display Cover","id":"1398","stops":{"origin":{"related_to":"1398","part_or_object":"p","notes":"","placename":"Shenzhen, Guangdong, China","id":3450,"name":"origin","lat":"22.543447","lon":"114.057818","hops":{"incoming":[],"outgoing":[{"transport_id":"17","id":"1192","transport_name":"None Selected","transport_description":null,"transport_unit":"kg km","transport_co2_eq":"0.000000","from_stop_id":"3450","from_stop_lat":"22.543447","from_stop_lon":"114.057818","from_stop_placename":"Shenzhen, Guangdong, China","to_stop_id":"209","to_stop_name":"origin","to_stop_lat":"35.6894875","to_stop_lon":"139.6917064","to_stop_placename":"T?ky? Metropolis, Japan","to_stop":{"id":"209","name":"origin","lat":"35.6894875","lon":"139.6917064","placename":"T?ky? Metropolis, Japan"},"from_stop":{"name":"origin","id":"3450","lat":"22.543447","lon":"114.057818","placename":"Shenzhen, Guangdong, China"}}]}}},"processes":[],"eols":[]},{"oid":"1749","imid":"1399","linkid":"","weight":"0.05","rawemissions":"0.6","emissions":"0.03","shipping":"2783.98","processemissions":null,"endoflifeemissions":null,"disposaltype":null,"disposalenergy":null,"disposalimpact":null,"disposalemissions":null,"description":"","name":"Drive Bezel Assembly","id":"1399","stops":{"origin":{"related_to":"1399","part_or_object":"p","notes":"","placename":"Shenzhen, Guangdong, China","id":3451,"name":"origin","lat":"22.543447","lon":"114.057818","hops":{"incoming":[],"outgoing":[{"transport_id":"17","id":"1193","transport_name":"None Selected","transport_description":null,"transport_unit":"kg km","transport_co2_eq":"0.000000","from_stop_id":"3451","from_stop_lat":"22.543447","from_stop_lon":"114.057818","from_stop_placename":"Shenzhen, Guangdong, China","to_stop_id":"209","to_stop_name":"origin","to_stop_lat":"35.6894875","to_stop_lon":"139.6917064","to_stop_placename":"T?ky? Metropolis, Japan","to_stop":{"id":"209","name":"origin","lat":"35.6894875","lon":"139.6917064","placename":"T?ky? Metropolis, Japan"},"from_stop":{"name":"origin","id":"3451","lat":"22.543447","lon":"114.057818","placename":"Shenzhen, Guangdong, China"}}]}}},"processes":[],"eols":[]},{"oid":"1749","imid":"1400","linkid":"","weight":"0.07","rawemissions":"0.84","emissions":"0.06","shipping":"2783.98","processemissions":null,"endoflifeemissions":null,"disposaltype":null,"disposalenergy":null,"disposalimpact":null,"disposalemissions":null,"description":"","name":"Hinge Cover","id":"1400","stops":{"origin":{"related_to":"1400","part_or_object":"p","notes":"","placename":"Shenzhen, Guangdong, China","id":3452,"name":"origin","lat":"22.543447","lon":"114.057818","hops":{"incoming":[],"outgoing":[{"transport_id":"17","id":"1194","transport_name":"None Selected","transport_description":null,"transport_unit":"kg km","transport_co2_eq":"0.000000","from_stop_id":"3452","from_stop_lat":"22.543447","from_stop_lon":"114.057818","from_stop_placename":"Shenzhen, Guangdong, China","to_stop_id":"209","to_stop_name":"origin","to_stop_lat":"35.6894875","to_stop_lon":"139.6917064","to_stop_placename":"T?ky? Metropolis, Japan","to_stop":{"id":"209","name":"origin","lat":"35.6894875","lon":"139.6917064","placename":"T?ky? Metropolis, Japan"},"from_stop":{"name":"origin","id":"3452","lat":"22.543447","lon":"114.057818","placename":"Shenzhen, Guangdong, China"}}]}}},"processes":[],"eols":[]},{"oid":"1749","imid":"1401","linkid":"","weight":"0.06","rawemissions":"0.72","emissions":"0.04","shipping":"2783.98","processemissions":null,"endoflifeemissions":null,"disposaltype":null,"disposalenergy":null,"disposalimpact":null,"disposalemissions":null,"description":"","name":"LCD Cover","id":"1401","stops":{"origin":{"related_to":"1401","part_or_object":"p","notes":"","placename":"Shenzhen, Guangdong, China","id":3453,"name":"origin","lat":"22.543447","lon":"114.057818","hops":{"incoming":[],"outgoing":[{"transport_id":"17","id":"1195","transport_name":"None Selected","transport_description":null,"transport_unit":"kg km","transport_co2_eq":"0.000000","from_stop_id":"3453","from_stop_lat":"22.543447","from_stop_lon":"114.057818","from_stop_placename":"Shenzhen, Guangdong, China","to_stop_id":"209","to_stop_name":"origin","to_stop_lat":"35.6894875","to_stop_lon":"139.6917064","to_stop_placename":"T?ky? Metropolis, Japan","to_stop":{"id":"209","name":"origin","lat":"35.6894875","lon":"139.6917064","placename":"T?ky? Metropolis, Japan"},"from_stop":{"name":"origin","id":"3453","lat":"22.543447","lon":"114.057818","placename":"Shenzhen, Guangdong, China"}}]}}},"processes":[],"eols":[]},{"oid":"1749","imid":"1402","linkid":"","weight":"0.05","rawemissions":"0.6","emissions":"0.03","shipping":"2783.98","processemissions":null,"endoflifeemissions":null,"disposaltype":null,"disposalenergy":null,"disposalimpact":null,"disposalemissions":null,"description":"","name":"Palm Rest Assembly","id":"1402","stops":{"origin":{"related_to":"1402","part_or_object":"p","notes":"","placename":"Shenzhen, Guangdong, China","id":3454,"name":"origin","lat":"22.543447","lon":"114.057818","hops":{"incoming":[],"outgoing":[{"transport_id":"17","id":"1196","transport_name":"None Selected","transport_description":null,"transport_unit":"kg km","transport_co2_eq":"0.000000","from_stop_id":"3454","from_stop_lat":"22.543447","from_stop_lon":"114.057818","from_stop_placename":"Shenzhen, Guangdong, China","to_stop_id":"209","to_stop_name":"origin","to_stop_lat":"35.6894875","to_stop_lon":"139.6917064","to_stop_placename":"T?ky? Metropolis, Japan","to_stop":{"id":"209","name":"origin","lat":"35.6894875","lon":"139.6917064","placename":"T?ky? Metropolis, Japan"},"from_stop":{"name":"origin","id":"3454","lat":"22.543447","lon":"114.057818","placename":"Shenzhen, Guangdong, China"}}]}}},"processes":[],"eols":[]},{"oid":"1749","imid":"1403","linkid":"","weight":"0.05","rawemissions":"0.36","emissions":"0.02","shipping":"2783.98","processemissions":null,"endoflifeemissions":null,"disposaltype":null,"disposalenergy":null,"disposalimpact":null,"disposalemissions":null,"description":"","name":"Rear I\/O Door","id":"1403","stops":{"origin":{"related_to":"1403","part_or_object":"p","notes":"","placename":"Shenzhen, Guangdong, China","id":3455,"name":"origin","lat":"22.543447","lon":"114.057818","hops":{"incoming":[],"outgoing":[{"transport_id":"17","id":"1197","transport_name":"None Selected","transport_description":null,"transport_unit":"kg km","transport_co2_eq":"0.000000","from_stop_id":"3455","from_stop_lat":"22.543447","from_stop_lon":"114.057818","from_stop_placename":"Shenzhen, Guangdong, China","to_stop_id":"209","to_stop_name":"origin","to_stop_lat":"35.6894875","to_stop_lon":"139.6917064","to_stop_placename":"T?ky? Metropolis, Japan","to_stop":{"id":"209","name":"origin","lat":"35.6894875","lon":"139.6917064","placename":"T?ky? Metropolis, Japan"},"from_stop":{"name":"origin","id":"3455","lat":"22.543447","lon":"114.057818","placename":"Shenzhen, Guangdong, China"}}]}}},"processes":[],"eols":[]},{"oid":"1749","imid":"1404","linkid":"","weight":"0.09","rawemissions":"27","emissions":"2.43","shipping":"27.31","processemissions":null,"endoflifeemissions":null,"disposaltype":null,"disposalenergy":null,"disposalimpact":null,"disposalemissions":null,"description":"","name":"Logic board","id":"1404","stops":{"origin":{"related_to":"1404","part_or_object":"p","notes":"","placename":"Kanagawa Prefecture, Japan","id":3456,"name":"origin","lat":"35.4475073","lon":"139.6423446","hops":{"incoming":[],"outgoing":[{"transport_id":"17","id":"1198","transport_name":"None Selected","transport_description":null,"transport_unit":"kg km","transport_co2_eq":"0.000000","from_stop_id":"3456","from_stop_lat":"35.4475073","from_stop_lon":"139.6423446","from_stop_placename":"Kanagawa Prefecture, Japan","to_stop_id":"209","to_stop_name":"origin","to_stop_lat":"35.6894875","to_stop_lon":"139.6917064","to_stop_placename":"T?ky? Metropolis, Japan","to_stop":{"id":"209","name":"origin","lat":"35.6894875","lon":"139.6917064","placename":"T?ky? Metropolis, Japan"},"from_stop":{"name":"origin","id":"3456","lat":"35.4475073","lon":"139.6423446","placename":"Kanagawa Prefecture, Japan"}}]}}},"processes":[],"eols":[]},{"oid":"1749","imid":"1405","linkid":"","weight":"0.03","rawemissions":"9","emissions":"0.27","shipping":"8411.73","processemissions":null,"endoflifeemissions":null,"disposaltype":null,"disposalenergy":null,"disposalimpact":null,"disposalemissions":null,"description":"","name":"Pentium4 1.8GHz","id":"1405","stops":{"origin":{"related_to":"1405","part_or_object":"p","notes":"","placename":"Santa Clara, CA, USA","id":3457,"name":"origin","lat":"37.3541079","lon":"-121.9552356","hops":{"incoming":[],"outgoing":[{"transport_id":"16","id":"1199","transport_name":"air, freight, intercontinental","transport_description":"intercontinental freight","transport_unit":"kg km","transport_co2_eq":"0.450000","from_stop_id":"3457","from_stop_lat":"37.3541079","from_stop_lon":"-121.9552356","from_stop_placename":"Santa Clara, CA, USA","to_stop_id":"209","to_stop_name":"origin","to_stop_lat":"35.6894875","to_stop_lon":"139.6917064","to_stop_placename":"T?ky? Metropolis, Japan","to_stop":{"id":"209","name":"origin","lat":"35.6894875","lon":"139.6917064","placename":"T?ky? Metropolis, Japan"},"from_stop":{"name":"origin","id":"3457","lat":"37.3541079","lon":"-121.9552356","placename":"Santa Clara, CA, USA"}}]}}},"processes":[],"eols":[]},{"oid":"1749","imid":"1406","linkid":"","weight":"0.05","rawemissions":"15","emissions":"0.75","shipping":"402.77","processemissions":null,"endoflifeemissions":null,"disposaltype":null,"disposalenergy":null,"disposalimpact":null,"disposalemissions":null,"description":"","name":"CPU Cooling fan","id":"1406","stops":{"origin":{"related_to":"1406","part_or_object":"p","notes":"","placename":"Sakai City, ?saka Prefecture, Japan","id":3458,"name":"origin","lat":"34.573262","lon":"135.482998","hops":{"incoming":[],"outgoing":[{"transport_id":"10","id":"1200","transport_name":"train, freight","transport_description":"diesel freight locomotive","transport_unit":"kg km","transport_co2_eq":"0.005600","from_stop_id":"3458","from_stop_lat":"34.573262","from_stop_lon":"135.482998","from_stop_placename":"Sakai City, ?saka Prefecture, Japan","to_stop_id":"209","to_stop_name":"origin","to_stop_lat":"35.6894875","to_stop_lon":"139.6917064","to_stop_placename":"T?ky? Metropolis, Japan","to_stop":{"id":"209","name":"origin","lat":"35.6894875","lon":"139.6917064","placename":"T?ky? Metropolis, Japan"},"from_stop":{"name":"origin","id":"3458","lat":"34.573262","lon":"135.482998","placename":"Sakai City, ?saka Prefecture, Japan"}}]}}},"processes":[],"eols":[]},{"oid":"1749","imid":"1407","linkid":"","weight":"0.03","rawemissions":"9","emissions":"0.27","shipping":"1007.67","processemissions":null,"endoflifeemissions":null,"disposaltype":null,"disposalenergy":null,"disposalimpact":null,"disposalemissions":null,"description":"","name":"2G DDR Ram","id":"1407","stops":{"origin":{"related_to":"1407","part_or_object":"p","notes":"","placename":"Suwon-si, Gyeonggi-do, South Korea","id":3459,"name":"origin","lat":"37.2635727","lon":"127.0286009","hops":{"incoming":[],"outgoing":[{"transport_id":"16","id":"1201","transport_name":"air, freight, intercontinental","transport_description":"intercontinental freight","transport_unit":"kg km","transport_co2_eq":"0.450000","from_stop_id":"3459","from_stop_lat":"37.2635727","from_stop_lon":"127.0286009","from_stop_placename":"Suwon-si, Gyeonggi-do, South Korea","to_stop_id":"209","to_stop_name":"origin","to_stop_lat":"35.6894875","to_stop_lon":"139.6917064","to_stop_placename":"T?ky? Metropolis, Japan","to_stop":{"id":"209","name":"origin","lat":"35.6894875","lon":"139.6917064","placename":"T?ky? Metropolis, Japan"},"from_stop":{"name":"origin","id":"3459","lat":"37.2635727","lon":"127.0286009","placename":"Suwon-si, Gyeonggi-do, South Korea"}}]}}},"processes":[],"eols":[]},{"oid":"1749","imid":"1408","linkid":"","weight":"0.2","rawemissions":"60","emissions":"12","shipping":"0","processemissions":null,"endoflifeemissions":null,"disposaltype":null,"disposalenergy":null,"disposalimpact":null,"disposalemissions":null,"description":"","name":"60GB IEEE HDD","id":"1408","stops":{"origin":{"related_to":"1408","part_or_object":"p","notes":"","placename":"Part Location","id":3460,"name":"origin","lat":"0","lon":"0","hops":{"incoming":[],"outgoing":[{"transport_id":"10","id":"1202","transport_name":"train, freight","transport_description":"diesel freight locomotive","transport_unit":"kg km","transport_co2_eq":"0.005600","from_stop_id":"3460","from_stop_lat":"0","from_stop_lon":"0","from_stop_placename":"Part Location","to_stop_id":"209","to_stop_name":"origin","to_stop_lat":"35.6894875","to_stop_lon":"139.6917064","to_stop_placename":"T?ky? Metropolis, Japan","to_stop":{"id":"209","name":"origin","lat":"35.6894875","lon":"139.6917064","placename":"T?ky? Metropolis, Japan"},"from_stop":{"name":"origin","id":"3460","lat":"0","lon":"0","placename":"Part Location"}}]}}},"processes":[],"eols":[]},{"oid":"1749","imid":"1409","linkid":"","weight":"0.08","rawemissions":"24","emissions":"1.92","shipping":"2166.31","processemissions":null,"endoflifeemissions":null,"disposaltype":null,"disposalenergy":null,"disposalimpact":null,"disposalemissions":null,"description":"","name":"Heatshink Fan DC","id":"1409","stops":{"origin":{"related_to":"1409","part_or_object":"p","notes":"","placename":"Taiwan","id":3461,"name":"origin","lat":"23.69781","lon":"120.960515","hops":{"incoming":[],"outgoing":[{"transport_id":"9","id":"1203","transport_name":"container ship","transport_description":"moving boxcar size containers","transport_unit":"kg km","transport_co2_eq":"0.047800","from_stop_id":"3461","from_stop_lat":"23.69781","from_stop_lon":"120.960515","from_stop_placename":"Taiwan","to_stop_id":"209","to_stop_name":"origin","to_stop_lat":"35.6894875","to_stop_lon":"139.6917064","to_stop_placename":"T?ky? Metropolis, Japan","to_stop":{"id":"209","name":"origin","lat":"35.6894875","lon":"139.6917064","placename":"T?ky? Metropolis, Japan"},"from_stop":{"name":"origin","id":"3461","lat":"23.69781","lon":"120.960515","placename":"Taiwan"}}]}}},"processes":[],"eols":[]},{"oid":"1749","imid":"1410","linkid":"","weight":"0.05","rawemissions":"15","emissions":"0.75","shipping":"2166.31","processemissions":null,"endoflifeemissions":null,"disposaltype":null,"disposalenergy":null,"disposalimpact":null,"disposalemissions":null,"description":"","name":"Internal Network Card","id":"1410","stops":{"origin":{"related_to":"1410","part_or_object":"p","notes":"","placename":"Taiwan","id":3462,"name":"origin","lat":"23.69781","lon":"120.960515","hops":{"incoming":[],"outgoing":[{"transport_id":"9","id":"1204","transport_name":"container ship","transport_description":"moving boxcar size containers","transport_unit":"kg km","transport_co2_eq":"0.047800","from_stop_id":"3462","from_stop_lat":"23.69781","from_stop_lon":"120.960515","from_stop_placename":"Taiwan","to_stop_id":"209","to_stop_name":"origin","to_stop_lat":"35.6894875","to_stop_lon":"139.6917064","to_stop_placename":"T?ky? Metropolis, Japan","to_stop":{"id":"209","name":"origin","lat":"35.6894875","lon":"139.6917064","placename":"T?ky? Metropolis, Japan"},"from_stop":{"name":"origin","id":"3462","lat":"23.69781","lon":"120.960515","placename":"Taiwan"}}]}}},"processes":[],"eols":[]},{"oid":"1749","imid":"1411","linkid":"","weight":"0.07","rawemissions":"21","emissions":"1.47","shipping":"151.11","processemissions":null,"endoflifeemissions":null,"disposaltype":null,"disposalenergy":null,"disposalimpact":null,"disposalemissions":null,"description":"","name":"Inverter Board","id":"1411","stops":{"origin":{"related_to":"1411","part_or_object":"p","notes":"","placename":"Kanagawa Prefecture, Japan","id":3463,"name":"origin","lat":"35.4475073","lon":"139.6423446","hops":{"incoming":[],"outgoing":[{"transport_id":"10","id":"1205","transport_name":"train, freight","transport_description":"diesel freight locomotive","transport_unit":"kg km","transport_co2_eq":"0.005600","from_stop_id":"3463","from_stop_lat":"35.4475073","from_stop_lon":"139.6423446","from_stop_placename":"Kanagawa Prefecture, Japan","to_stop_id":"209","to_stop_name":"origin","to_stop_lat":"35.6894875","to_stop_lon":"139.6917064","to_stop_placename":"T?ky? Metropolis, Japan","to_stop":{"id":"209","name":"origin","lat":"35.6894875","lon":"139.6917064","placename":"T?ky? Metropolis, Japan"},"from_stop":{"name":"origin","id":"3463","lat":"35.4475073","lon":"139.6423446","placename":"Kanagawa Prefecture, Japan"}}]}}},"processes":[],"eols":[]},{"oid":"1749","imid":"1412","linkid":"","weight":"0.11","rawemissions":"33","emissions":"3.63","shipping":"2166.31","processemissions":null,"endoflifeemissions":null,"disposaltype":null,"disposalenergy":null,"disposalimpact":null,"disposalemissions":null,"description":"","name":"Keyboard","id":"1412","stops":{"origin":{"related_to":"1412","part_or_object":"p","notes":"","placename":"Taiwan","id":3464,"name":"origin","lat":"23.69781","lon":"120.960515","hops":{"incoming":[],"outgoing":[{"transport_id":"8","id":"1206","transport_name":"freighter, oceanic","transport_description":"","transport_unit":"kg km","transport_co2_eq":"0.004200","from_stop_id":"3464","from_stop_lat":"23.69781","from_stop_lon":"120.960515","from_stop_placename":"Taiwan","to_stop_id":"209","to_stop_name":"origin","to_stop_lat":"35.6894875","to_stop_lon":"139.6917064","to_stop_placename":"T?ky? Metropolis, Japan","to_stop":{"id":"209","name":"origin","lat":"35.6894875","lon":"139.6917064","placename":"T?ky? Metropolis, Japan"},"from_stop":{"name":"origin","id":"3464","lat":"23.69781","lon":"120.960515","placename":"Taiwan"}}]}}},"processes":[],"eols":[]},{"oid":"1749","imid":"1413","linkid":"","weight":"0.3","rawemissions":"21","emissions":"6.3","shipping":"300.85","processemissions":null,"endoflifeemissions":null,"disposaltype":null,"disposalenergy":null,"disposalimpact":null,"disposalemissions":null,"description":"","name":"LCD Display","id":"1413","stops":{"origin":{"related_to":"1413","part_or_object":"p","notes":"","placename":"?saka City, ?saka Prefecture, Japan","id":3465,"name":"origin","lat":"34.6937378","lon":"135.5021651","hops":{"incoming":[],"outgoing":[{"transport_id":"10","id":"1207","transport_name":"train, freight","transport_description":"diesel freight locomotive","transport_unit":"kg km","transport_co2_eq":"0.005600","from_stop_id":"3465","from_stop_lat":"34.6937378","from_stop_lon":"135.5021651","from_stop_placename":"?saka City, ?saka Prefecture, Japan","to_stop_id":"209","to_stop_name":"origin","to_stop_lat":"35.6894875","to_stop_lon":"139.6917064","to_stop_placename":"T?ky? Metropolis, Japan","to_stop":{"id":"209","name":"origin","lat":"35.6894875","lon":"139.6917064","placename":"T?ky? Metropolis, Japan"},"from_stop":{"name":"origin","id":"3465","lat":"34.6937378","lon":"135.5021651","placename":"?saka City, ?saka Prefecture, Japan"}}]}}},"processes":[],"eols":[]},{"oid":"1749","imid":"1414","linkid":"","weight":"0.015","rawemissions":"4.5","emissions":"0.07","shipping":"151.11","processemissions":null,"endoflifeemissions":null,"disposaltype":null,"disposalenergy":null,"disposalimpact":null,"disposalemissions":null,"description":"","name":"Power button board","id":"1414","stops":{"origin":{"related_to":"1414","part_or_object":"p","notes":"","placename":"Kanagawa Prefecture, Japan","id":3466,"name":"origin","lat":"35.4475073","lon":"139.6423446","hops":{"incoming":[],"outgoing":[{"transport_id":"2","id":"1208","transport_name":"truck, 16 tons","transport_description":"truck, half full","transport_unit":"kg km","transport_co2_eq":"0.020300","from_stop_id":"3466","from_stop_lat":"35.4475073","from_stop_lon":"139.6423446","from_stop_placename":"Kanagawa Prefecture, Japan","to_stop_id":"209","to_stop_name":"origin","to_stop_lat":"35.6894875","to_stop_lon":"139.6917064","to_stop_placename":"T?ky? Metropolis, Japan","to_stop":{"id":"209","name":"origin","lat":"35.6894875","lon":"139.6917064","placename":"T?ky? Metropolis, Japan"},"from_stop":{"name":"origin","id":"3466","lat":"35.4475073","lon":"139.6423446","placename":"Kanagawa Prefecture, Japan"}}]}}},"processes":[],"eols":[]},{"oid":"1749","imid":"1415","linkid":"","weight":"0.03","rawemissions":"9","emissions":"0.27","shipping":"2166.31","processemissions":null,"endoflifeemissions":null,"disposaltype":null,"disposalenergy":null,"disposalimpact":null,"disposalemissions":null,"description":"","name":"Touchpad button board","id":"1415","stops":{"origin":{"related_to":"1415","part_or_object":"p","notes":"","placename":"Taiwan","id":3467,"name":"origin","lat":"23.69781","lon":"120.960515","hops":{"incoming":[],"outgoing":[{"transport_id":"8","id":"1209","transport_name":"freighter, oceanic","transport_description":"","transport_unit":"kg km","transport_co2_eq":"0.004200","from_stop_id":"3467","from_stop_lat":"23.69781","from_stop_lon":"120.960515","from_stop_placename":"Taiwan","to_stop_id":"209","to_stop_name":"origin","to_stop_lat":"35.6894875","to_stop_lon":"139.6917064","to_stop_placename":"T?ky? Metropolis, Japan","to_stop":{"id":"209","name":"origin","lat":"35.6894875","lon":"139.6917064","placename":"T?ky? Metropolis, Japan"},"from_stop":{"name":"origin","id":"3467","lat":"23.69781","lon":"120.960515","placename":"Taiwan"}}]}}},"processes":[],"eols":[]},{"oid":"1749","imid":"1416","linkid":"","weight":"0.01","rawemissions":"0.12","emissions":"0","shipping":"2783.98","processemissions":null,"endoflifeemissions":null,"disposaltype":null,"disposalenergy":null,"disposalimpact":null,"disposalemissions":null,"description":"","name":"Latch Hook","id":"1416","stops":{"origin":{"related_to":"1416","part_or_object":"p","notes":"","placename":"Shenzhen, Guangdong, China","id":3468,"name":"origin","lat":"22.543447","lon":"114.057818","hops":{"incoming":[],"outgoing":[{"transport_id":"8","id":"1210","transport_name":"freighter, oceanic","transport_description":"","transport_unit":"kg km","transport_co2_eq":"0.004200","from_stop_id":"3468","from_stop_lat":"22.543447","from_stop_lon":"114.057818","from_stop_placename":"Shenzhen, Guangdong, China","to_stop_id":"209","to_stop_name":"origin","to_stop_lat":"35.6894875","to_stop_lon":"139.6917064","to_stop_placename":"T?ky? Metropolis, Japan","to_stop":{"id":"209","name":"origin","lat":"35.6894875","lon":"139.6917064","placename":"T?ky? Metropolis, Japan"},"from_stop":{"name":"origin","id":"3468","lat":"22.543447","lon":"114.057818","placename":"Shenzhen, Guangdong, China"}}]}}},"processes":[],"eols":[]},{"oid":"1749","imid":"1417","linkid":"","weight":"0.01","rawemissions":"0.12","emissions":"0","shipping":"2783.98","processemissions":null,"endoflifeemissions":null,"disposaltype":null,"disposalenergy":null,"disposalimpact":null,"disposalemissions":null,"description":"","name":"Left Latch Knob","id":"1417","stops":{"origin":{"related_to":"1417","part_or_object":"p","notes":"","placename":"Shenzhen, Guangdong, China","id":3469,"name":"origin","lat":"22.543447","lon":"114.057818","hops":{"incoming":[],"outgoing":[{"transport_id":"8","id":"1211","transport_name":"freighter, oceanic","transport_description":"","transport_unit":"kg km","transport_co2_eq":"0.004200","from_stop_id":"3469","from_stop_lat":"22.543447","from_stop_lon":"114.057818","from_stop_placename":"Shenzhen, Guangdong, China","to_stop_id":"209","to_stop_name":"origin","to_stop_lat":"35.6894875","to_stop_lon":"139.6917064","to_stop_placename":"T?ky? Metropolis, Japan","to_stop":{"id":"209","name":"origin","lat":"35.6894875","lon":"139.6917064","placename":"T?ky? Metropolis, Japan"},"from_stop":{"name":"origin","id":"3469","lat":"22.543447","lon":"114.057818","placename":"Shenzhen, Guangdong, China"}}]}}},"processes":[],"eols":[]},{"oid":"1749","imid":"1418","linkid":"","weight":"0.02","rawemissions":"0.3","emissions":"0.01","shipping":"2783.98","processemissions":null,"endoflifeemissions":null,"disposaltype":null,"disposalenergy":null,"disposalimpact":null,"disposalemissions":null,"description":"","name":"Right Latch Knob","id":"1418","stops":{"origin":{"related_to":"1418","part_or_object":"p","notes":"","placename":"Shenzhen, Guangdong, China","id":3470,"name":"origin","lat":"22.543447","lon":"114.057818","hops":{"incoming":[],"outgoing":[{"transport_id":"8","id":"1212","transport_name":"freighter, oceanic","transport_description":"","transport_unit":"kg km","transport_co2_eq":"0.004200","from_stop_id":"3470","from_stop_lat":"22.543447","from_stop_lon":"114.057818","from_stop_placename":"Shenzhen, Guangdong, China","to_stop_id":"209","to_stop_name":"origin","to_stop_lat":"35.6894875","to_stop_lon":"139.6917064","to_stop_placename":"T?ky? Metropolis, Japan","to_stop":{"id":"209","name":"origin","lat":"35.6894875","lon":"139.6917064","placename":"T?ky? Metropolis, Japan"},"from_stop":{"name":"origin","id":"3470","lat":"22.543447","lon":"114.057818","placename":"Shenzhen, Guangdong, China"}}]}}},"processes":[],"eols":[]},{"oid":"1749","imid":"1419","linkid":"","weight":"0.08","rawemissions":"15","emissions":"1.2","shipping":"2166.31","processemissions":null,"endoflifeemissions":null,"disposaltype":null,"disposalenergy":null,"disposalimpact":null,"disposalemissions":null,"description":"","name":"Mouse","id":"1419","stops":{"origin":{"related_to":"1419","part_or_object":"p","notes":"","placename":"Taiwan","id":3471,"name":"origin","lat":"23.69781","lon":"120.960515","hops":{"incoming":[],"outgoing":[{"transport_id":"9","id":"1213","transport_name":"container ship","transport_description":"moving boxcar size containers","transport_unit":"kg km","transport_co2_eq":"0.047800","from_stop_id":"3471","from_stop_lat":"23.69781","from_stop_lon":"120.960515","from_stop_placename":"Taiwan","to_stop_id":"209","to_stop_name":"origin","to_stop_lat":"35.6894875","to_stop_lon":"139.6917064","to_stop_placename":"T?ky? Metropolis, Japan","to_stop":{"id":"209","name":"origin","lat":"35.6894875","lon":"139.6917064","placename":"T?ky? Metropolis, Japan"},"from_stop":{"name":"origin","id":"3471","lat":"23.69781","lon":"120.960515","placename":"Taiwan"}}]}}},"processes":[],"eols":[]},{"oid":"1749","imid":"1420","linkid":"","weight":"0.1","rawemissions":"30","emissions":"3","shipping":"1877.71","processemissions":null,"endoflifeemissions":null,"disposaltype":null,"disposalenergy":null,"disposalimpact":null,"disposalemissions":null,"description":"","name":"AC Cord","id":"1420","stops":{"origin":{"related_to":"1420","part_or_object":"p","notes":"","placename":"Tianjin, China","id":3472,"name":"origin","lat":"39.120876","lon":"117.21503","hops":{"incoming":[],"outgoing":[{"transport_id":"9","id":"1214","transport_name":"container ship","transport_description":"moving boxcar size containers","transport_unit":"kg km","transport_co2_eq":"0.047800","from_stop_id":"3472","from_stop_lat":"39.120876","from_stop_lon":"117.21503","from_stop_placename":"Tianjin, China","to_stop_id":"209","to_stop_name":"origin","to_stop_lat":"35.6894875","to_stop_lon":"139.6917064","to_stop_placename":"T?ky? Metropolis, Japan","to_stop":{"id":"209","name":"origin","lat":"35.6894875","lon":"139.6917064","placename":"T?ky? Metropolis, Japan"},"from_stop":{"name":"origin","id":"3472","lat":"39.120876","lon":"117.21503","placename":"Tianjin, China"}}]}}},"processes":[],"eols":[]},{"oid":"1749","imid":"1421","linkid":"","weight":"0.15","rawemissions":"45","emissions":"6.75","shipping":"1877.71","processemissions":null,"endoflifeemissions":null,"disposaltype":null,"disposalenergy":null,"disposalimpact":null,"disposalemissions":null,"description":"","name":"AC Adapter","id":"1421","stops":{"origin":{"related_to":"1421","part_or_object":"p","notes":"","placename":"Tianjin, China","id":3473,"name":"origin","lat":"39.120876","lon":"117.21503","hops":{"incoming":[],"outgoing":[{"transport_id":"9","id":"1215","transport_name":"container ship","transport_description":"moving boxcar size containers","transport_unit":"kg km","transport_co2_eq":"0.047800","from_stop_id":"3473","from_stop_lat":"39.120876","from_stop_lon":"117.21503","from_stop_placename":"Tianjin, China","to_stop_id":"209","to_stop_name":"origin","to_stop_lat":"35.6894875","to_stop_lon":"139.6917064","to_stop_placename":"T?ky? Metropolis, Japan","to_stop":{"id":"209","name":"origin","lat":"35.6894875","lon":"139.6917064","placename":"T?ky? Metropolis, Japan"},"from_stop":{"name":"origin","id":"3473","lat":"39.120876","lon":"117.21503","placename":"Tianjin, China"}}]}}},"processes":[],"eols":[]},{"oid":"1749","imid":"1422","linkid":"","weight":"0.02","rawemissions":"0.24","emissions":"0","shipping":"7756.94","processemissions":null,"endoflifeemissions":null,"disposaltype":null,"disposalenergy":null,"disposalimpact":null,"disposalemissions":null,"description":"","name":"MS Windows","id":"1422","stops":{"origin":{"related_to":"1422","part_or_object":"p","notes":"","placename":"Seattle, WA, USA","id":3474,"name":"origin","lat":"47.6062095","lon":"-122.3320708","hops":{"incoming":[],"outgoing":[{"transport_id":"16","id":"1216","transport_name":"air, freight, intercontinental","transport_description":"intercontinental freight","transport_unit":"kg km","transport_co2_eq":"0.450000","from_stop_id":"3474","from_stop_lat":"47.6062095","from_stop_lon":"-122.3320708","from_stop_placename":"Seattle, WA, USA","to_stop_id":"209","to_stop_name":"origin","to_stop_lat":"35.6894875","to_stop_lon":"139.6917064","to_stop_placename":"T?ky? Metropolis, Japan","to_stop":{"id":"209","name":"origin","lat":"35.6894875","lon":"139.6917064","placename":"T?ky? Metropolis, Japan"},"from_stop":{"name":"origin","id":"3474","lat":"47.6062095","lon":"-122.3320708","placename":"Seattle, WA, USA"}}]}}},"processes":[],"eols":[]},{"oid":"1749","imid":"1423","linkid":"","weight":"0.02","rawemissions":"0.24","emissions":"0","shipping":"151.11","processemissions":null,"endoflifeemissions":null,"disposaltype":null,"disposalenergy":null,"disposalimpact":null,"disposalemissions":null,"description":"","name":"Application SW","id":"1423","stops":{"origin":{"related_to":"1423","part_or_object":"p","notes":"","placename":"Kanagawa Prefecture, Japan","id":3475,"name":"origin","lat":"35.4475073","lon":"139.6423446","hops":{"incoming":[],"outgoing":[{"transport_id":"2","id":"1217","transport_name":"truck, 16 tons","transport_description":"truck, half full","transport_unit":"kg km","transport_co2_eq":"0.020300","from_stop_id":"3475","from_stop_lat":"35.4475073","from_stop_lon":"139.6423446","from_stop_placename":"Kanagawa Prefecture, Japan","to_stop_id":"209","to_stop_name":"origin","to_stop_lat":"35.6894875","to_stop_lon":"139.6917064","to_stop_placename":"T?ky? Metropolis, Japan","to_stop":{"id":"209","name":"origin","lat":"35.6894875","lon":"139.6917064","placename":"T?ky? Metropolis, Japan"},"from_stop":{"name":"origin","id":"3475","lat":"35.4475073","lon":"139.6423446","placename":"Kanagawa Prefecture, Japan"}}]}}},"processes":[],"eols":[]},{"oid":"1749","imid":"1424","linkid":"","weight":"0.05","rawemissions":"15","emissions":"0.75","shipping":"5321.04","processemissions":null,"endoflifeemissions":null,"disposaltype":null,"disposalenergy":null,"disposalimpact":null,"disposalemissions":null,"description":"","name":"Audio card","id":"1424","stops":{"origin":{"related_to":"1424","part_or_object":"p","notes":"","placename":"Singapore","id":3476,"name":"origin","lat":"1.352083","lon":"103.819836","hops":{"incoming":[],"outgoing":[{"transport_id":"16","id":"1218","transport_name":"air, freight, intercontinental","transport_description":"intercontinental freight","transport_unit":"kg km","transport_co2_eq":"0.450000","from_stop_id":"3476","from_stop_lat":"1.352083","from_stop_lon":"103.819836","from_stop_placename":"Singapore","to_stop_id":"209","to_stop_name":"origin","to_stop_lat":"35.6894875","to_stop_lon":"139.6917064","to_stop_placename":"T?ky? Metropolis, Japan","to_stop":{"id":"209","name":"origin","lat":"35.6894875","lon":"139.6917064","placename":"T?ky? Metropolis, Japan"},"from_stop":{"name":"origin","id":"3476","lat":"1.352083","lon":"103.819836","placename":"Singapore"}}]}}},"processes":[],"eols":[]},{"oid":"1749","imid":"1425","linkid":"","weight":"0.05","rawemissions":"15","emissions":"0.75","shipping":"2243.2","processemissions":null,"endoflifeemissions":null,"disposaltype":null,"disposalenergy":null,"disposalimpact":null,"disposalemissions":null,"description":"","name":"Speaker Kit","id":"1425","stops":{"origin":{"related_to":"1425","part_or_object":"p","notes":"","placename":"Taiwan","id":3477,"name":"origin","lat":"23.69781","lon":"120.960515","hops":{"incoming":[],"outgoing":[{"transport_id":"8","id":"1219","transport_name":"freighter, oceanic","transport_description":"","transport_unit":"kg km","transport_co2_eq":"0.004200","from_stop_id":"3477","from_stop_lat":"23.69781","from_stop_lon":"120.960515","from_stop_placename":"Taiwan","to_stop_id":"209","to_stop_name":"origin","to_stop_lat":"35.6894875","to_stop_lon":"139.6917064","to_stop_placename":"T?ky? Metropolis, Japan","to_stop":{"id":"209","name":"origin","lat":"35.6894875","lon":"139.6917064","placename":"T?ky? Metropolis, Japan"},"from_stop":{"name":"origin","id":"3477","lat":"23.69781","lon":"120.960515","placename":"Taiwan"}}]}}},"processes":[],"eols":[]},{"oid":"1749","imid":"1426","linkid":"","weight":"0.4","rawemissions":"10","emissions":"4","shipping":"2905.62","processemissions":null,"endoflifeemissions":null,"disposaltype":null,"disposalenergy":null,"disposalimpact":null,"disposalemissions":null,"description":"","name":"Bag","id":"1426","stops":{"origin":{"related_to":"1426","part_or_object":"p","notes":"","placename":"Guangzhou, Guangdong, China","id":3478,"name":"origin","lat":"23.129075","lon":"113.264423","hops":{"incoming":[],"outgoing":[{"transport_id":"8","id":"1220","transport_name":"freighter, oceanic","transport_description":"","transport_unit":"kg km","transport_co2_eq":"0.004200","from_stop_id":"3478","from_stop_lat":"23.129075","from_stop_lon":"113.264423","from_stop_placename":"Guangzhou, Guangdong, China","to_stop_id":"209","to_stop_name":"origin","to_stop_lat":"35.6894875","to_stop_lon":"139.6917064","to_stop_placename":"T?ky? Metropolis, Japan","to_stop":{"id":"209","name":"origin","lat":"35.6894875","lon":"139.6917064","placename":"T?ky? Metropolis, Japan"},"from_stop":{"name":"origin","id":"3478","lat":"23.129075","lon":"113.264423","placename":"Guangzhou, Guangdong, China"}}]}}},"processes":[],"eols":[]},{"oid":"1749","imid":"1450","linkid":"","weight":"0.15","rawemissions":"45","emissions":"6.75","shipping":"0","processemissions":null,"endoflifeemissions":null,"disposaltype":null,"disposalenergy":null,"disposalimpact":null,"disposalemissions":null,"description":"","name":"DVD\/CDRW Drive","id":"1450","stops":{"origin":{"related_to":"1450","part_or_object":"p","notes":"","placename":"Part Location","id":3499,"name":"origin","lat":"0","lon":"0","hops":{"incoming":[],"outgoing":[{"transport_id":"10","id":"1239","transport_name":"train, freight","transport_description":"diesel freight locomotive","transport_unit":"kg km","transport_co2_eq":"0.005600","from_stop_id":"3499","from_stop_lat":"0","from_stop_lon":"0","from_stop_placename":"Part Location","to_stop_id":"209","to_stop_name":"origin","to_stop_lat":"35.6894875","to_stop_lon":"139.6917064","to_stop_placename":"T?ky? Metropolis, Japan","to_stop":{"id":"209","name":"origin","lat":"35.6894875","lon":"139.6917064","placename":"T?ky? Metropolis, Japan"},"from_stop":{"name":"origin","id":"3499","lat":"0","lon":"0","placename":"Part Location"}}]}}},"processes":[],"eols":[]}],"user":{"name":"Kong","id":"7058"}}}