{"1760":{"oid":"1760","type":"object","flag":"","creator":"6983","name":"Water fountain","upc":"","imagelink":"","description":"","slug":"water-fountain","category":"","weight":"37","emissions":"1830.83","embodied":"1830.83","transport":"0","process":"0","endoflife":"0","shipping":"0","lifetime":"0","usagetype":"","usageenergy":"0","usageemissions":"0","timecreated":"2010-02-24 22:03:35.70522","timemodified":"2009-11-05 00:48:36","visibility":"public","showfootprint":"on","showembodied":"on","showtransport":"on","showprocess":"on","showendoflife":"on","showlastleg":"on","showuse":"on","showstats":"on","stops":{"origin":{"related_to":"1760","part_or_object":"o","notes":"","placename":"Berkeley, CA, USA","id":"205","category":"1","lat":"37.8715926","lon":"-122.272747","name":"origin","hops":{"incoming":[{"transport_id":"12","id":"1178","transport_name":"train, long-distance","transport_description":"> 640 km, diesel, kg km from person-km","transport_unit":"kg km","transport_co2_eq":"0.043500","from_stop_id":"3436","from_stop_lat":"45.423494","from_stop_lon":"-75.697933","to_stop_id":"205","to_stop_name":"origin","to_stop_lat":"37.8715926","placename":"Ottawa, ON, Canada","to_stop_lon":"-122.272747","to_stop":{"id":"205","name":"origin","lat":"37.8715926","placename":"Berkeley, CA, USA","lon":"-122.272747"},"from_stop":{"name":"origin","id":"3436","lat":"45.423494","lon":"-75.697933","placename":"Ottawa, ON, Canada"}},{"transport_id":"2","id":"1179","transport_name":"truck, 16 tons","transport_description":"truck, half full","transport_unit":"kg km","transport_co2_eq":"0.020300","from_stop_id":"3437","from_stop_lat":"32.7153292","from_stop_lon":"-117.1572551","to_stop_id":"205","to_stop_name":"origin","to_stop_lat":"37.8715926","placename":"San Diego, CA, USA","to_stop_lon":"-122.272747","to_stop":{"id":"205","name":"origin","lat":"37.8715926","placename":"Berkeley, CA, USA","lon":"-122.272747"},"from_stop":{"name":"origin","id":"3437","lat":"32.7153292","lon":"-117.1572551","placename":"San Diego, CA, USA"}},{"transport_id":"3","id":"1180","transport_name":"truck, 40 tons","transport_description":"truck, half full","transport_unit":"kg km","transport_co2_eq":"0.030900","from_stop_id":"3438","from_stop_lat":"33.4483771","from_stop_lon":"-112.0740373","to_stop_id":"205","to_stop_name":"origin","to_stop_lat":"37.8715926","placename":"Phoenix, AZ, USA","to_stop_lon":"-122.272747","to_stop":{"id":"205","name":"origin","lat":"37.8715926","placename":"Berkeley, CA, USA","lon":"-122.272747"},"from_stop":{"name":"origin","id":"3438","lat":"33.4483771","lon":"-112.0740373","placename":"Phoenix, AZ, USA"}},{"transport_id":"8","id":"1181","transport_name":"freighter, oceanic","transport_description":"","transport_unit":"kg km","transport_co2_eq":"0.004200","from_stop_id":"3439","from_stop_lat":"37.566535","from_stop_lon":"126.9779692","to_stop_id":"205","to_stop_name":"origin","to_stop_lat":"37.8715926","placename":"Seoul, South Korea","to_stop_lon":"-122.272747","to_stop":{"id":"205","name":"origin","lat":"37.8715926","placename":"Berkeley, CA, USA","lon":"-122.272747"},"from_stop":{"name":"origin","id":"3439","lat":"37.566535","lon":"126.9779692","placename":"Seoul, South Korea"}},{"transport_id":"1","id":"1182","transport_name":"van, 3.5 tons","transport_description":"delivery van, half full","transport_unit":"kg km","transport_co2_eq":"0.053400","from_stop_id":"3440","from_stop_lat":"33.2000368","from_stop_lon":"-117.2425355","to_stop_id":"205","to_stop_name":"origin","to_stop_lat":"37.8715926","placename":"Vista, CA, USA","to_stop_lon":"-122.272747","to_stop":{"id":"205","name":"origin","lat":"37.8715926","placename":"Berkeley, CA, USA","lon":"-122.272747"},"from_stop":{"name":"origin","id":"3440","lat":"33.2000368","lon":"-117.2425355","placename":"Vista, CA, USA"}},{"transport_id":"14","id":"1183","transport_name":"air, passenger, intercontinental","transport_description":"intercontinental, kg km from person-km","transport_unit":"kg km","transport_co2_eq":"1.189000","from_stop_id":"3441","from_stop_lat":"13.7234186","from_stop_lon":"100.4762319","to_stop_id":"205","to_stop_name":"origin","to_stop_lat":"37.8715926","placename":"Bangkok, thailand","to_stop_lon":"-122.272747","to_stop":{"id":"205","name":"origin","lat":"37.8715926","placename":"Berkeley, CA, USA","lon":"-122.272747"},"from_stop":{"name":"origin","id":"3441","lat":"13.7234186","lon":"100.4762319","placename":"Bangkok, thailand"}}],"outgoing":[]}}},"parts":[{"oid":"1760","imid":"1385","linkid":"","weight":"20","rawemissions":"6.63","emissions":"132.6","shipping":"0","processemissions":null,"endoflifeemissions":null,"disposaltype":null,"disposalenergy":null,"disposalimpact":null,"disposalemissions":null,"description":"Superaustenitic 18 8 stainless steel","name":"Steel, Stainless","id":"1385","stops":{"origin":{"related_to":"1385","part_or_object":"p","notes":"","placename":"Ottawa, ON, Canada","id":3436,"name":"origin","lat":"45.423494","lon":"-75.697933","hops":{"incoming":[],"outgoing":[{"transport_id":"12","id":"1178","transport_name":"train, long-distance","transport_description":"> 640 km, diesel, kg km from person-km","transport_unit":"kg km","transport_co2_eq":"0.043500","from_stop_id":"3436","from_stop_lat":"45.423494","from_stop_lon":"-75.697933","from_stop_placename":"Ottawa, ON, Canada","to_stop_id":"205","to_stop_name":"origin","to_stop_lat":"37.8715926","to_stop_lon":"-122.272747","to_stop_placename":"Berkeley, CA, USA","to_stop":{"id":"205","name":"origin","lat":"37.8715926","lon":"-122.272747","placename":"Berkeley, CA, USA"},"from_stop":{"name":"origin","id":"3436","lat":"45.423494","lon":"-75.697933","placename":"Ottawa, ON, Canada"}}]}}},"processes":[],"eols":[]},{"oid":"1760","imid":"1386","linkid":"","weight":"1","rawemissions":"1.7","emissions":"1.7","shipping":"0","processemissions":null,"endoflifeemissions":null,"disposaltype":null,"disposalenergy":null,"disposalimpact":null,"disposalemissions":null,"description":"Rigid polyvinyl chloride","name":"PVC, rigid ","id":"1386","stops":{"origin":{"related_to":"1386","part_or_object":"p","notes":"","placename":"San Diego, CA, USA","id":3437,"name":"origin","lat":"32.7153292","lon":"-117.1572551","hops":{"incoming":[],"outgoing":[{"transport_id":"2","id":"1179","transport_name":"truck, 16 tons","transport_description":"truck, half full","transport_unit":"kg km","transport_co2_eq":"0.020300","from_stop_id":"3437","from_stop_lat":"32.7153292","from_stop_lon":"-117.1572551","from_stop_placename":"San Diego, CA, USA","to_stop_id":"205","to_stop_name":"origin","to_stop_lat":"37.8715926","to_stop_lon":"-122.272747","to_stop_placename":"Berkeley, CA, USA","to_stop":{"id":"205","name":"origin","lat":"37.8715926","lon":"-122.272747","placename":"Berkeley, CA, USA"},"from_stop":{"name":"origin","id":"3437","lat":"32.7153292","lon":"-117.1572551","placename":"San Diego, CA, USA"}}]}}},"processes":[],"eols":[]},{"oid":"1760","imid":"1387","linkid":"","weight":"2","rawemissions":"2.15","emissions":"4.3","shipping":"0","processemissions":null,"endoflifeemissions":null,"disposaltype":null,"disposalenergy":null,"disposalimpact":null,"disposalemissions":null,"description":"","name":"Copper, Virgin","id":"1387","stops":{"origin":{"related_to":"1387","part_or_object":"p","notes":"","placename":"Phoenix, AZ, USA","id":3438,"name":"origin","lat":"33.4483771","lon":"-112.0740373","hops":{"incoming":[],"outgoing":[{"transport_id":"3","id":"1180","transport_name":"truck, 40 tons","transport_description":"truck, half full","transport_unit":"kg km","transport_co2_eq":"0.030900","from_stop_id":"3438","from_stop_lat":"33.4483771","from_stop_lon":"-112.0740373","from_stop_placename":"Phoenix, AZ, USA","to_stop_id":"205","to_stop_name":"origin","to_stop_lat":"37.8715926","to_stop_lon":"-122.272747","to_stop_placename":"Berkeley, CA, USA","to_stop":{"id":"205","name":"origin","lat":"37.8715926","lon":"-122.272747","placename":"Berkeley, CA, USA"},"from_stop":{"name":"origin","id":"3438","lat":"33.4483771","lon":"-112.0740373","placename":"Phoenix, AZ, USA"}}]}}},"processes":[],"eols":[]},{"oid":"1760","imid":"1388","linkid":"","weight":"10","rawemissions":"169","emissions":"1690","shipping":"0","processemissions":null,"endoflifeemissions":null,"disposaltype":null,"disposalenergy":null,"disposalimpact":null,"disposalemissions":null,"description":"","name":"Refrigeration system","id":"1388","stops":{"origin":{"related_to":"1388","part_or_object":"p","notes":"","placename":"Seoul, South Korea","id":3439,"name":"origin","lat":"37.566535","lon":"126.9779692","hops":{"incoming":[],"outgoing":[{"transport_id":"8","id":"1181","transport_name":"freighter, oceanic","transport_description":"","transport_unit":"kg km","transport_co2_eq":"0.004200","from_stop_id":"3439","from_stop_lat":"37.566535","from_stop_lon":"126.9779692","from_stop_placename":"Seoul, South Korea","to_stop_id":"205","to_stop_name":"origin","to_stop_lat":"37.8715926","to_stop_lon":"-122.272747","to_stop_placename":"Berkeley, CA, USA","to_stop":{"id":"205","name":"origin","lat":"37.8715926","lon":"-122.272747","placename":"Berkeley, CA, USA"},"from_stop":{"name":"origin","id":"3439","lat":"37.566535","lon":"126.9779692","placename":"Seoul, South Korea"}}]}}},"processes":[],"eols":[]},{"oid":"1760","imid":"1389","linkid":"","weight":"3","rawemissions":"0.47","emissions":"1.41","shipping":"0","processemissions":null,"endoflifeemissions":null,"disposaltype":null,"disposalenergy":null,"disposalimpact":null,"disposalemissions":null,"description":"Corrugated cardboard from wood","name":"Cardboard, Virgin","id":"1389","stops":{"origin":{"related_to":"1389","part_or_object":"p","notes":"","placename":"Vista, CA, USA","id":3440,"name":"origin","lat":"33.2000368","lon":"-117.2425355","hops":{"incoming":[],"outgoing":[{"transport_id":"1","id":"1182","transport_name":"van, 3.5 tons","transport_description":"delivery van, half full","transport_unit":"kg km","transport_co2_eq":"0.053400","from_stop_id":"3440","from_stop_lat":"33.2000368","from_stop_lon":"-117.2425355","from_stop_placename":"Vista, CA, USA","to_stop_id":"205","to_stop_name":"origin","to_stop_lat":"37.8715926","to_stop_lon":"-122.272747","to_stop_placename":"Berkeley, CA, USA","to_stop":{"id":"205","name":"origin","lat":"37.8715926","lon":"-122.272747","placename":"Berkeley, CA, USA"},"from_stop":{"name":"origin","id":"3440","lat":"33.2000368","lon":"-117.2425355","placename":"Vista, CA, USA"}}]}}},"processes":[],"eols":[]},{"oid":"1760","imid":"1390","linkid":"","weight":"1","rawemissions":"0.82","emissions":"0.82","shipping":"0","processemissions":null,"endoflifeemissions":null,"disposaltype":null,"disposalenergy":null,"disposalimpact":null,"disposalemissions":null,"description":"Expanded Polystyrene, rigid packaging foam or styrofoam","name":"EPS, Recycled","id":"1390","stops":{"origin":{"related_to":"1390","part_or_object":"p","notes":"","placename":"Bangkok, thailand","id":3441,"name":"origin","lat":"13.7234186","lon":"100.4762319","hops":{"incoming":[],"outgoing":[{"transport_id":"14","id":"1183","transport_name":"air, passenger, intercontinental","transport_description":"intercontinental, kg km from person-km","transport_unit":"kg km","transport_co2_eq":"1.189000","from_stop_id":"3441","from_stop_lat":"13.7234186","from_stop_lon":"100.4762319","from_stop_placename":"Bangkok, thailand","to_stop_id":"205","to_stop_name":"origin","to_stop_lat":"37.8715926","to_stop_lon":"-122.272747","to_stop_placename":"Berkeley, CA, USA","to_stop":{"id":"205","name":"origin","lat":"37.8715926","lon":"-122.272747","placename":"Berkeley, CA, USA"},"from_stop":{"name":"origin","id":"3441","lat":"13.7234186","lon":"100.4762319","placename":"Bangkok, thailand"}}]}}},"processes":[],"eols":[]}],"user":{"name":"camkinne","id":"6983"}}}