{"179":{"oid":"179","type":"object","flag":"","creator":"1","name":"test","upc":"","imagelink":"","description":"test","slug":"test","category":"","weight":"2","emissions":"34.9313","embodied":"7.2","transport":"27.7313","process":"0","endoflife":"0","shipping":"21522.1","lifetime":"0","usagetype":"","usageenergy":"0","usageemissions":"0","timecreated":"2010-02-24 22:03:35.425726","timemodified":"2009-04-21 22:57:34","visibility":"public","showfootprint":"on","showembodied":"on","showtransport":"on","showprocess":"on","showendoflife":"on","showlastleg":"on","showuse":"on","showstats":"on","stops":{"origin":{"related_to":"179","part_or_object":"o","notes":"","placename":"shanghai","id":"34","category":"1","lat":"31.2243531","lon":"121.4759159","name":"origin","hops":{"incoming":[{"transport_id":"13","id":"410","transport_name":"air, passenger, regional","transport_description":"within one continent, kg km from person-km","transport_unit":"kg km","transport_co2_eq":"2.262000","from_stop_id":"2594","from_stop_lat":"12.3569","from_stop_lon":"-1.5352","to_stop_id":"34","to_stop_name":"origin","to_stop_lat":"31.2243531","placename":"ouagadougou","to_stop_lon":"121.4759159","to_stop":{"id":"34","name":"origin","lat":"31.2243531","placename":"shanghai","lon":"121.4759159"},"from_stop":{"name":"origin","id":"2594","lat":"12.3569","lon":"-1.5352","placename":"ouagadougou"}},{"transport_id":"17","id":"409","transport_name":"None Selected","transport_description":null,"transport_unit":"kg km","transport_co2_eq":"0.000000","from_stop_id":"2593","from_stop_lat":"37.3979297","from_stop_lon":"14.6587821","to_stop_id":"34","to_stop_name":"origin","to_stop_lat":"31.2243531","placename":"sicily","to_stop_lon":"121.4759159","to_stop":{"id":"34","name":"origin","lat":"31.2243531","placename":"shanghai","lon":"121.4759159"},"from_stop":{"name":"origin","id":"2593","lat":"37.3979297","lon":"14.6587821","placename":"sicily"}}],"outgoing":[]}}},"parts":[{"oid":"179","imid":"474","linkid":"","weight":"1","rawemissions":"7.2","emissions":"7.2","shipping":"9262.5","processemissions":null,"endoflifeemissions":null,"disposaltype":null,"disposalenergy":null,"disposalimpact":null,"disposalemissions":null,"description":"Regular non reinforced concrete","name":"Concrete","id":"474","stops":{"origin":{"related_to":"474","part_or_object":"p","notes":"","placename":"sicily","id":2593,"name":"origin","lat":"37.3979297","lon":"14.6587821","hops":{"incoming":[],"outgoing":[{"transport_id":"17","id":"409","transport_name":"None Selected","transport_description":null,"transport_unit":"kg km","transport_co2_eq":"0.000000","from_stop_id":"2593","from_stop_lat":"37.3979297","from_stop_lon":"14.6587821","from_stop_placename":"sicily","to_stop_id":"34","to_stop_name":"origin","to_stop_lat":"31.2243531","to_stop_lon":"121.4759159","to_stop_placename":"shanghai","to_stop":{"id":"34","name":"origin","lat":"31.2243531","lon":"121.4759159","placename":"shanghai"},"from_stop":{"name":"origin","id":"2593","lat":"37.3979297","lon":"14.6587821","placename":"sicily"}}]}}},"processes":[],"eols":[]},{"oid":"179","imid":"475","linkid":"","weight":"1","rawemissions":"0","emissions":"0","shipping":"12259.6","processemissions":null,"endoflifeemissions":null,"disposaltype":null,"disposalenergy":null,"disposalimpact":null,"disposalemissions":null,"description":"","name":"poson","id":"475","stops":{"origin":{"related_to":"475","part_or_object":"p","notes":"","placename":"ouagadougou","id":2594,"name":"origin","lat":"12.3569","lon":"-1.5352","hops":{"incoming":[],"outgoing":[{"transport_id":"13","id":"410","transport_name":"air, passenger, regional","transport_description":"within one continent, kg km from person-km","transport_unit":"kg km","transport_co2_eq":"2.262000","from_stop_id":"2594","from_stop_lat":"12.3569","from_stop_lon":"-1.5352","from_stop_placename":"ouagadougou","to_stop_id":"34","to_stop_name":"origin","to_stop_lat":"31.2243531","to_stop_lon":"121.4759159","to_stop_placename":"shanghai","to_stop":{"id":"34","name":"origin","lat":"31.2243531","lon":"121.4759159","placename":"shanghai"},"from_stop":{"name":"origin","id":"2594","lat":"12.3569","lon":"-1.5352","placename":"ouagadougou"}}]}}},"processes":[],"eols":[]}],"user":{"name":"leo","id":"1"}}}