{"182":{"oid":"182","type":"object","flag":"","creator":"1","name":"Typical Laptop Computer","upc":"","imagelink":"","description":"","slug":"typical-laptop-computer-1","category":"","weight":"2.76","emissions":"3608.31","embodied":"3608.02","transport":"0.294685","process":"0","endoflife":"0","shipping":"8197.39","lifetime":"0","usagetype":"","usageenergy":"0","usageemissions":"0","timecreated":"2010-02-24 22:03:35.427758","timemodified":"2009-09-13 17:26:15","visibility":"public","showfootprint":"on","showembodied":"on","showtransport":"on","showprocess":"on","showendoflife":"on","showlastleg":"on","showuse":"on","showstats":"on","stops":{"origin":{"related_to":"182","part_or_object":"o","notes":"","placename":"Shanghai","id":"35","category":"1","lat":"31.2243531","lon":"121.4759159","name":"origin","hops":{"incoming":[{"transport_id":"10","id":"412","transport_name":"train, freight","transport_description":"diesel freight locomotive","transport_unit":"kg km","transport_co2_eq":"0.005600","from_stop_id":"2596","from_stop_lat":"39.9081726","from_stop_lon":"116.3979471","to_stop_id":"35","to_stop_name":"origin","to_stop_lat":"31.2243531","placename":"Beijing","to_stop_lon":"121.4759159","to_stop":{"id":"35","name":"origin","lat":"31.2243531","placename":"Shanghai","lon":"121.4759159"},"from_stop":{"name":"origin","id":"2596","lat":"39.9081726","lon":"116.3979471","placename":"Beijing"}},{"transport_id":"9","id":"413","transport_name":"container ship","transport_description":"moving boxcar size containers","transport_unit":"kg km","transport_co2_eq":"0.047800","from_stop_id":"2597","from_stop_lat":"36.204824","from_stop_lon":"138.252924","to_stop_id":"35","to_stop_name":"origin","to_stop_lat":"31.2243531","placename":"Japan","to_stop_lon":"121.4759159","to_stop":{"id":"35","name":"origin","lat":"31.2243531","placename":"Shanghai","lon":"121.4759159"},"from_stop":{"name":"origin","id":"2597","lat":"36.204824","lon":"138.252924","placename":"Japan"}},{"transport_id":"15","id":"600","transport_name":"air, freight, regional","transport_description":"freight within one continent","transport_unit":"kg km","transport_co2_eq":"0.787500","from_stop_id":"2823","from_stop_lat":"23.69781","from_stop_lon":"120.960515","to_stop_id":"35","to_stop_name":"origin","to_stop_lat":"31.2243531","placename":"Taiwan","to_stop_lon":"121.4759159","to_stop":{"id":"35","name":"origin","lat":"31.2243531","placename":"Shanghai","lon":"121.4759159"},"from_stop":{"name":"origin","id":"2823","lat":"23.69781","lon":"120.960515","placename":"Taiwan"}},{"transport_id":"10","id":"601","transport_name":"train, freight","transport_description":"diesel freight locomotive","transport_unit":"kg km","transport_co2_eq":"0.005600","from_stop_id":"2824","from_stop_lat":"61.52401","from_stop_lon":"105.318756","to_stop_id":"35","to_stop_name":"origin","to_stop_lat":"31.2243531","placename":"Russian Federation","to_stop_lon":"121.4759159","to_stop":{"id":"35","name":"origin","lat":"31.2243531","placename":"Shanghai","lon":"121.4759159"},"from_stop":{"name":"origin","id":"2824","lat":"61.52401","lon":"105.318756","placename":"Russian Federation"}},{"transport_id":"3","id":"602","transport_name":"truck, 40 tons","transport_description":"truck, half full","transport_unit":"kg km","transport_co2_eq":"0.030900","from_stop_id":"2825","from_stop_lat":"39.9081726","from_stop_lon":"116.3979471","to_stop_id":"35","to_stop_name":"origin","to_stop_lat":"31.2243531","placename":"Beijing, China","to_stop_lon":"121.4759159","to_stop":{"id":"35","name":"origin","lat":"31.2243531","placename":"Shanghai","lon":"121.4759159"},"from_stop":{"name":"origin","id":"2825","lat":"39.9081726","lon":"116.3979471","placename":"Beijing, China"}}],"outgoing":[]}}},"parts":[{"oid":"182","imid":"480","linkid":"","weight":"1.01","rawemissions":"1.4","emissions":"1.41","shipping":"1069.97","processemissions":null,"endoflifeemissions":null,"disposaltype":null,"disposalenergy":null,"disposalimpact":null,"disposalemissions":null,"description":"Acrylonitrile butadiene styrene","name":"ABS ","id":"480","stops":{"origin":{"related_to":"480","part_or_object":"p","notes":"","placename":"Beijing","id":2596,"name":"origin","lat":"39.9081726","lon":"116.3979471","hops":{"incoming":[],"outgoing":[{"transport_id":"10","id":"412","transport_name":"train, freight","transport_description":"diesel freight locomotive","transport_unit":"kg km","transport_co2_eq":"0.005600","from_stop_id":"2596","from_stop_lat":"39.9081726","from_stop_lon":"116.3979471","from_stop_placename":"Beijing","to_stop_id":"35","to_stop_name":"origin","to_stop_lat":"31.2243531","to_stop_lon":"121.4759159","to_stop_placename":"Shanghai","to_stop":{"id":"35","name":"origin","lat":"31.2243531","lon":"121.4759159","placename":"Shanghai"},"from_stop":{"name":"origin","id":"2596","lat":"39.9081726","lon":"116.3979471","placename":"Beijing"}}]}}},"processes":[],"eols":[]},{"oid":"182","imid":"742","linkid":"","weight":"1","rawemissions":"3.2","emissions":"3.2","shipping":"1646.77","processemissions":null,"endoflifeemissions":null,"disposaltype":null,"disposalenergy":null,"disposalimpact":null,"disposalemissions":null,"description":"rechargeable, one AA battery weighs approx. 25g","name":"Battery lithium ion","id":"742","stops":{"origin":{"related_to":"742","part_or_object":"p","notes":"","placename":"Japan","id":2597,"name":"origin","lat":"36.204824","lon":"138.252924","hops":{"incoming":[],"outgoing":[{"transport_id":"9","id":"413","transport_name":"container ship","transport_description":"moving boxcar size containers","transport_unit":"kg km","transport_co2_eq":"0.047800","from_stop_id":"2597","from_stop_lat":"36.204824","from_stop_lon":"138.252924","from_stop_placename":"Japan","to_stop_id":"35","to_stop_name":"origin","to_stop_lat":"31.2243531","to_stop_lon":"121.4759159","to_stop_placename":"Shanghai","to_stop":{"id":"35","name":"origin","lat":"31.2243531","lon":"121.4759159","placename":"Shanghai"},"from_stop":{"name":"origin","id":"2597","lat":"36.204824","lon":"138.252924","placename":"Japan"}}]}}},"processes":[],"eols":[]},{"oid":"182","imid":"743","linkid":"","weight":"0.3","rawemissions":"12000","emissions":"3600","shipping":"839.39","processemissions":null,"endoflifeemissions":null,"disposaltype":null,"disposalenergy":null,"disposalimpact":null,"disposalemissions":null,"description":"IC board RoHS compliant","name":"Integrated circuitry RoHS","id":"743","stops":{"origin":{"related_to":"743","part_or_object":"p","notes":"","placename":"Taiwan","id":2823,"name":"origin","lat":"23.69781","lon":"120.960515","hops":{"incoming":[],"outgoing":[{"transport_id":"15","id":"600","transport_name":"air, freight, regional","transport_description":"freight within one continent","transport_unit":"kg km","transport_co2_eq":"0.787500","from_stop_id":"2823","from_stop_lat":"23.69781","from_stop_lon":"120.960515","from_stop_placename":"Taiwan","to_stop_id":"35","to_stop_name":"origin","to_stop_lat":"31.2243531","to_stop_lon":"121.4759159","to_stop_placename":"Shanghai","to_stop":{"id":"35","name":"origin","lat":"31.2243531","lon":"121.4759159","placename":"Shanghai"},"from_stop":{"name":"origin","id":"2823","lat":"23.69781","lon":"120.960515","placename":"Taiwan"}}]}}},"processes":[],"eols":[]},{"oid":"182","imid":"744","linkid":"","weight":"0.25","rawemissions":"8.33","emissions":"2.08","shipping":"3571.29","processemissions":null,"endoflifeemissions":null,"disposaltype":null,"disposalenergy":null,"disposalimpact":null,"disposalemissions":null,"description":"Virgin aluminum from bauxite","name":"Virgin Aluminum","id":"744","stops":{"origin":{"related_to":"744","part_or_object":"p","notes":"","placename":"Russian Federation","id":2824,"name":"origin","lat":"61.52401","lon":"105.318756","hops":{"incoming":[],"outgoing":[{"transport_id":"10","id":"601","transport_name":"train, freight","transport_description":"diesel freight locomotive","transport_unit":"kg km","transport_co2_eq":"0.005600","from_stop_id":"2824","from_stop_lat":"61.52401","from_stop_lon":"105.318756","from_stop_placename":"Russian Federation","to_stop_id":"35","to_stop_name":"origin","to_stop_lat":"31.2243531","to_stop_lon":"121.4759159","to_stop_placename":"Shanghai","to_stop":{"id":"35","name":"origin","lat":"31.2243531","lon":"121.4759159","placename":"Shanghai"},"from_stop":{"name":"origin","id":"2824","lat":"61.52401","lon":"105.318756","placename":"Russian Federation"}}]}}},"processes":[],"eols":[]},{"oid":"182","imid":"745","linkid":"","weight":"0.2","rawemissions":"6.63","emissions":"1.33","shipping":"1069.97","processemissions":null,"endoflifeemissions":null,"disposaltype":null,"disposalenergy":null,"disposalimpact":null,"disposalemissions":null,"description":"Superaustenitic 18 8 stainless steel","name":"Stainless Steel","id":"745","stops":{"origin":{"related_to":"745","part_or_object":"p","notes":"","placename":"Beijing, China","id":2825,"name":"origin","lat":"39.9081726","lon":"116.3979471","hops":{"incoming":[],"outgoing":[{"transport_id":"3","id":"602","transport_name":"truck, 40 tons","transport_description":"truck, half full","transport_unit":"kg km","transport_co2_eq":"0.030900","from_stop_id":"2825","from_stop_lat":"39.9081726","from_stop_lon":"116.3979471","from_stop_placename":"Beijing, China","to_stop_id":"35","to_stop_name":"origin","to_stop_lat":"31.2243531","to_stop_lon":"121.4759159","to_stop_placename":"Shanghai","to_stop":{"id":"35","name":"origin","lat":"31.2243531","lon":"121.4759159","placename":"Shanghai"},"from_stop":{"name":"origin","id":"2825","lat":"39.9081726","lon":"116.3979471","placename":"Beijing, China"}}]}}},"processes":[],"eols":[]}],"user":{"name":"leo","id":"1"}}}