{"1824":{"oid":"1824","type":"object","flag":"","creator":"7024","name":"Giant TCR '04 Bicycle","upc":"","imagelink":"","description":"Giant TCR '04 bicycle based on data from weightweenies.starbike.com.","slug":"giant-tcr-04-bicycle","category":"featured","weight":"6.335","emissions":"60.5235","embodied":"39.01","transport":"21.5135","process":"0","endoflife":"0","shipping":"145361","lifetime":"0","usagetype":"","usageenergy":"0","usageemissions":"0","timecreated":"2010-02-24 22:03:35.685705","timemodified":"2009-11-05 21:10:25","visibility":"public","showfootprint":"on","showembodied":"on","showtransport":"on","showprocess":"on","showendoflife":"on","showlastleg":"on","showuse":"on","showstats":"on","stops":{"origin":{"related_to":"1824","part_or_object":"o","notes":"","placename":"Taiwan","id":"192","category":"1","lat":"23.69781","lon":"120.960515","name":"origin","hops":{"incoming":[{"transport_id":"2","id":"1241","transport_name":"truck, 16 tons","transport_description":"truck, half full","transport_unit":"kg km","transport_co2_eq":"0.020300","from_stop_id":"3501","from_stop_lat":"23.69781","from_stop_lon":"120.960515","to_stop_id":"192","to_stop_name":"origin","to_stop_lat":"23.69781","placename":"Taiwan","to_stop_lon":"120.960515","to_stop":{"id":"192","name":"origin","lat":"23.69781","placename":"Taiwan","lon":"120.960515"},"from_stop":{"name":"origin","id":"3501","lat":"23.69781","lon":"120.960515","placename":"Taiwan"}},{"transport_id":"2","id":"1242","transport_name":"truck, 16 tons","transport_description":"truck, half full","transport_unit":"kg km","transport_co2_eq":"0.020300","from_stop_id":"3502","from_stop_lat":"23.69781","from_stop_lon":"120.960515","to_stop_id":"192","to_stop_name":"origin","to_stop_lat":"23.69781","placename":"Taiwan","to_stop_lon":"120.960515","to_stop":{"id":"192","name":"origin","lat":"23.69781","placename":"Taiwan","lon":"120.960515"},"from_stop":{"name":"origin","id":"3502","lat":"23.69781","lon":"120.960515","placename":"Taiwan"}},{"transport_id":"2","id":"1243","transport_name":"truck, 16 tons","transport_description":"truck, half full","transport_unit":"kg km","transport_co2_eq":"0.020300","from_stop_id":"3503","from_stop_lat":"23.69781","from_stop_lon":"120.960515","to_stop_id":"192","to_stop_name":"origin","to_stop_lat":"23.69781","placename":"Taiwan","to_stop_lon":"120.960515","to_stop":{"id":"192","name":"origin","lat":"23.69781","placename":"Taiwan","lon":"120.960515"},"from_stop":{"name":"origin","id":"3503","lat":"23.69781","lon":"120.960515","placename":"Taiwan"}},{"transport_id":"2","id":"1244","transport_name":"truck, 16 tons","transport_description":"truck, half full","transport_unit":"kg km","transport_co2_eq":"0.020300","from_stop_id":"3504","from_stop_lat":"23.69781","from_stop_lon":"120.960515","to_stop_id":"192","to_stop_name":"origin","to_stop_lat":"23.69781","placename":"Taiwan","to_stop_lon":"120.960515","to_stop":{"id":"192","name":"origin","lat":"23.69781","placename":"Taiwan","lon":"120.960515"},"from_stop":{"name":"origin","id":"3504","lat":"23.69781","lon":"120.960515","placename":"Taiwan"}},{"transport_id":"16","id":"1245","transport_name":"air, freight, intercontinental","transport_description":"intercontinental freight","transport_unit":"kg km","transport_co2_eq":"0.450000","from_stop_id":"3505","from_stop_lat":"46.227638","from_stop_lon":"2.213749","to_stop_id":"192","to_stop_name":"origin","to_stop_lat":"23.69781","placename":"France","to_stop_lon":"120.960515","to_stop":{"id":"192","name":"origin","lat":"23.69781","placename":"Taiwan","lon":"120.960515"},"from_stop":{"name":"origin","id":"3505","lat":"46.227638","lon":"2.213749","placename":"France"}},{"transport_id":"16","id":"1246","transport_name":"air, freight, intercontinental","transport_description":"intercontinental freight","transport_unit":"kg km","transport_co2_eq":"0.450000","from_stop_id":"3506","from_stop_lat":"41.87194","from_stop_lon":"12.56738","to_stop_id":"192","to_stop_name":"origin","to_stop_lat":"23.69781","placename":"Italy","to_stop_lon":"120.960515","to_stop":{"id":"192","name":"origin","lat":"23.69781","placename":"Taiwan","lon":"120.960515"},"from_stop":{"name":"origin","id":"3506","lat":"41.87194","lon":"12.56738","placename":"Italy"}},{"transport_id":"16","id":"1247","transport_name":"air, freight, intercontinental","transport_description":"intercontinental freight","transport_unit":"kg km","transport_co2_eq":"0.450000","from_stop_id":"3507","from_stop_lat":"41.87194","from_stop_lon":"12.56738","to_stop_id":"192","to_stop_name":"origin","to_stop_lat":"23.69781","placename":"Italy","to_stop_lon":"120.960515","to_stop":{"id":"192","name":"origin","lat":"23.69781","placename":"Taiwan","lon":"120.960515"},"from_stop":{"name":"origin","id":"3507","lat":"41.87194","lon":"12.56738","placename":"Italy"}},{"transport_id":"16","id":"1248","transport_name":"air, freight, intercontinental","transport_description":"intercontinental freight","transport_unit":"kg km","transport_co2_eq":"0.450000","from_stop_id":"3508","from_stop_lat":"41.87194","from_stop_lon":"12.56738","to_stop_id":"192","to_stop_name":"origin","to_stop_lat":"23.69781","placename":"Italy","to_stop_lon":"120.960515","to_stop":{"id":"192","name":"origin","lat":"23.69781","placename":"Taiwan","lon":"120.960515"},"from_stop":{"name":"origin","id":"3508","lat":"41.87194","lon":"12.56738","placename":"Italy"}},{"transport_id":"16","id":"1249","transport_name":"air, freight, intercontinental","transport_description":"intercontinental freight","transport_unit":"kg km","transport_co2_eq":"0.450000","from_stop_id":"3509","from_stop_lat":"41.87194","from_stop_lon":"12.56738","to_stop_id":"192","to_stop_name":"origin","to_stop_lat":"23.69781","placename":"Italy","to_stop_lon":"120.960515","to_stop":{"id":"192","name":"origin","lat":"23.69781","placename":"Taiwan","lon":"120.960515"},"from_stop":{"name":"origin","id":"3509","lat":"41.87194","lon":"12.56738","placename":"Italy"}},{"transport_id":"16","id":"1250","transport_name":"air, freight, intercontinental","transport_description":"intercontinental freight","transport_unit":"kg km","transport_co2_eq":"0.450000","from_stop_id":"3510","from_stop_lat":"46.227638","from_stop_lon":"2.213749","to_stop_id":"192","to_stop_name":"origin","to_stop_lat":"23.69781","placename":"France","to_stop_lon":"120.960515","to_stop":{"id":"192","name":"origin","lat":"23.69781","placename":"Taiwan","lon":"120.960515"},"from_stop":{"name":"origin","id":"3510","lat":"46.227638","lon":"2.213749","placename":"France"}},{"transport_id":"16","id":"1251","transport_name":"air, freight, intercontinental","transport_description":"intercontinental freight","transport_unit":"kg km","transport_co2_eq":"0.450000","from_stop_id":"3511","from_stop_lat":"41.87194","from_stop_lon":"12.56738","to_stop_id":"192","to_stop_name":"origin","to_stop_lat":"23.69781","placename":"Italy","to_stop_lon":"120.960515","to_stop":{"id":"192","name":"origin","lat":"23.69781","placename":"Taiwan","lon":"120.960515"},"from_stop":{"name":"origin","id":"3511","lat":"41.87194","lon":"12.56738","placename":"Italy"}},{"transport_id":"16","id":"1252","transport_name":"air, freight, intercontinental","transport_description":"intercontinental freight","transport_unit":"kg km","transport_co2_eq":"0.450000","from_stop_id":"3512","from_stop_lat":"41.87194","from_stop_lon":"12.56738","to_stop_id":"192","to_stop_name":"origin","to_stop_lat":"23.69781","placename":"Italy","to_stop_lon":"120.960515","to_stop":{"id":"192","name":"origin","lat":"23.69781","placename":"Taiwan","lon":"120.960515"},"from_stop":{"name":"origin","id":"3512","lat":"41.87194","lon":"12.56738","placename":"Italy"}},{"transport_id":"16","id":"1253","transport_name":"air, freight, intercontinental","transport_description":"intercontinental freight","transport_unit":"kg km","transport_co2_eq":"0.450000","from_stop_id":"3513","from_stop_lat":"41.87194","from_stop_lon":"12.56738","to_stop_id":"192","to_stop_name":"origin","to_stop_lat":"23.69781","placename":"Italy","to_stop_lon":"120.960515","to_stop":{"id":"192","name":"origin","lat":"23.69781","placename":"Taiwan","lon":"120.960515"},"from_stop":{"name":"origin","id":"3513","lat":"41.87194","lon":"12.56738","placename":"Italy"}},{"transport_id":"16","id":"1254","transport_name":"air, freight, intercontinental","transport_description":"intercontinental freight","transport_unit":"kg km","transport_co2_eq":"0.450000","from_stop_id":"3514","from_stop_lat":"41.87194","from_stop_lon":"12.56738","to_stop_id":"192","to_stop_name":"origin","to_stop_lat":"23.69781","placename":"Italy","to_stop_lon":"120.960515","to_stop":{"id":"192","name":"origin","lat":"23.69781","placename":"Taiwan","lon":"120.960515"},"from_stop":{"name":"origin","id":"3514","lat":"41.87194","lon":"12.56738","placename":"Italy"}},{"transport_id":"16","id":"1255","transport_name":"air, freight, intercontinental","transport_description":"intercontinental freight","transport_unit":"kg km","transport_co2_eq":"0.450000","from_stop_id":"3515","from_stop_lat":"46.227638","from_stop_lon":"2.213749","to_stop_id":"192","to_stop_name":"origin","to_stop_lat":"23.69781","placename":"France","to_stop_lon":"120.960515","to_stop":{"id":"192","name":"origin","lat":"23.69781","placename":"Taiwan","lon":"120.960515"},"from_stop":{"name":"origin","id":"3515","lat":"46.227638","lon":"2.213749","placename":"France"}},{"transport_id":"16","id":"1256","transport_name":"air, freight, intercontinental","transport_description":"intercontinental freight","transport_unit":"kg km","transport_co2_eq":"0.450000","from_stop_id":"3516","from_stop_lat":"51.165691","from_stop_lon":"10.451526","to_stop_id":"192","to_stop_name":"origin","to_stop_lat":"23.69781","placename":"Germany","to_stop_lon":"120.960515","to_stop":{"id":"192","name":"origin","lat":"23.69781","placename":"Taiwan","lon":"120.960515"},"from_stop":{"name":"origin","id":"3516","lat":"51.165691","lon":"10.451526","placename":"Germany"}},{"transport_id":"16","id":"1257","transport_name":"air, freight, intercontinental","transport_description":"intercontinental freight","transport_unit":"kg km","transport_co2_eq":"0.450000","from_stop_id":"3517","from_stop_lat":"41.87194","from_stop_lon":"12.56738","to_stop_id":"192","to_stop_name":"origin","to_stop_lat":"23.69781","placename":"Italy","to_stop_lon":"120.960515","to_stop":{"id":"192","name":"origin","lat":"23.69781","placename":"Taiwan","lon":"120.960515"},"from_stop":{"name":"origin","id":"3517","lat":"41.87194","lon":"12.56738","placename":"Italy"}},{"transport_id":"2","id":"1258","transport_name":"truck, 16 tons","transport_description":"truck, half full","transport_unit":"kg km","transport_co2_eq":"0.020300","from_stop_id":"3518","from_stop_lat":"23.69781","from_stop_lon":"120.960515","to_stop_id":"192","to_stop_name":"origin","to_stop_lat":"23.69781","placename":"Taiwan","to_stop_lon":"120.960515","to_stop":{"id":"192","name":"origin","lat":"23.69781","placename":"Taiwan","lon":"120.960515"},"from_stop":{"name":"origin","id":"3518","lat":"23.69781","lon":"120.960515","placename":"Taiwan"}},{"transport_id":"16","id":"1259","transport_name":"air, freight, intercontinental","transport_description":"intercontinental freight","transport_unit":"kg km","transport_co2_eq":"0.450000","from_stop_id":"3519","from_stop_lat":"51.165691","from_stop_lon":"10.451526","to_stop_id":"192","to_stop_name":"origin","to_stop_lat":"23.69781","placename":"Germany","to_stop_lon":"120.960515","to_stop":{"id":"192","name":"origin","lat":"23.69781","placename":"Taiwan","lon":"120.960515"},"from_stop":{"name":"origin","id":"3519","lat":"51.165691","lon":"10.451526","placename":"Germany"}},{"transport_id":"16","id":"1260","transport_name":"air, freight, intercontinental","transport_description":"intercontinental freight","transport_unit":"kg km","transport_co2_eq":"0.450000","from_stop_id":"3520","from_stop_lat":"51.165691","from_stop_lon":"10.451526","to_stop_id":"192","to_stop_name":"origin","to_stop_lat":"23.69781","placename":"Germany","to_stop_lon":"120.960515","to_stop":{"id":"192","name":"origin","lat":"23.69781","placename":"Taiwan","lon":"120.960515"},"from_stop":{"name":"origin","id":"3520","lat":"51.165691","lon":"10.451526","placename":"Germany"}},{"transport_id":"2","id":"1261","transport_name":"truck, 16 tons","transport_description":"truck, half full","transport_unit":"kg km","transport_co2_eq":"0.020300","from_stop_id":"3521","from_stop_lat":"23.69781","from_stop_lon":"120.960515","to_stop_id":"192","to_stop_name":"origin","to_stop_lat":"23.69781","placename":"Taiwan","to_stop_lon":"120.960515","to_stop":{"id":"192","name":"origin","lat":"23.69781","placename":"Taiwan","lon":"120.960515"},"from_stop":{"name":"origin","id":"3521","lat":"23.69781","lon":"120.960515","placename":"Taiwan"}}],"outgoing":[]}}},"parts":[{"oid":"1824","imid":"1452","linkid":"","weight":"1.012","rawemissions":"5.7","emissions":"5.77","shipping":"0","processemissions":null,"endoflifeemissions":null,"disposaltype":null,"disposalenergy":null,"disposalimpact":null,"disposalemissions":null,"description":"carbon fiber for composites","name":"Carbon Fiber, frame","id":"1452","stops":{"origin":{"related_to":"1452","part_or_object":"p","notes":"","placename":"Taiwan","id":3501,"name":"origin","lat":"23.69781","lon":"120.960515","hops":{"incoming":[],"outgoing":[{"transport_id":"2","id":"1241","transport_name":"truck, 16 tons","transport_description":"truck, half full","transport_unit":"kg km","transport_co2_eq":"0.020300","from_stop_id":"3501","from_stop_lat":"23.69781","from_stop_lon":"120.960515","from_stop_placename":"Taiwan","to_stop_id":"192","to_stop_name":"origin","to_stop_lat":"23.69781","to_stop_lon":"120.960515","to_stop_placename":"Taiwan","to_stop":{"id":"192","name":"origin","lat":"23.69781","lon":"120.960515","placename":"Taiwan"},"from_stop":{"name":"origin","id":"3501","lat":"23.69781","lon":"120.960515","placename":"Taiwan"}}]}}},"processes":[],"eols":[]},{"oid":"1824","imid":"1453","linkid":"","weight":"0.338","rawemissions":"5.7","emissions":"1.93","shipping":"0","processemissions":null,"endoflifeemissions":null,"disposaltype":null,"disposalenergy":null,"disposalimpact":null,"disposalemissions":null,"description":"carbon fiber for composites","name":"Carbon Fiber, Fork","id":"1453","stops":{"origin":{"related_to":"1453","part_or_object":"p","notes":"","placename":"Taiwan","id":3502,"name":"origin","lat":"23.69781","lon":"120.960515","hops":{"incoming":[],"outgoing":[{"transport_id":"2","id":"1242","transport_name":"truck, 16 tons","transport_description":"truck, half full","transport_unit":"kg km","transport_co2_eq":"0.020300","from_stop_id":"3502","from_stop_lat":"23.69781","from_stop_lon":"120.960515","from_stop_placename":"Taiwan","to_stop_id":"192","to_stop_name":"origin","to_stop_lat":"23.69781","to_stop_lon":"120.960515","to_stop_placename":"Taiwan","to_stop":{"id":"192","name":"origin","lat":"23.69781","lon":"120.960515","placename":"Taiwan"},"from_stop":{"name":"origin","id":"3502","lat":"23.69781","lon":"120.960515","placename":"Taiwan"}}]}}},"processes":[],"eols":[]},{"oid":"1824","imid":"1454","linkid":"","weight":"0.066","rawemissions":"6.63","emissions":"0.44","shipping":"0","processemissions":null,"endoflifeemissions":null,"disposaltype":null,"disposalenergy":null,"disposalimpact":null,"disposalemissions":null,"description":"Superaustenitic 18 8 stainless steel","name":"Steel, Stainless, Headset","id":"1454","stops":{"origin":{"related_to":"1454","part_or_object":"p","notes":"","placename":"Taiwan","id":3503,"name":"origin","lat":"23.69781","lon":"120.960515","hops":{"incoming":[],"outgoing":[{"transport_id":"2","id":"1243","transport_name":"truck, 16 tons","transport_description":"truck, half full","transport_unit":"kg km","transport_co2_eq":"0.020300","from_stop_id":"3503","from_stop_lat":"23.69781","from_stop_lon":"120.960515","from_stop_placename":"Taiwan","to_stop_id":"192","to_stop_name":"origin","to_stop_lat":"23.69781","to_stop_lon":"120.960515","to_stop_placename":"Taiwan","to_stop":{"id":"192","name":"origin","lat":"23.69781","lon":"120.960515","placename":"Taiwan"},"from_stop":{"name":"origin","id":"3503","lat":"23.69781","lon":"120.960515","placename":"Taiwan"}}]}}},"processes":[],"eols":[]},{"oid":"1824","imid":"1455","linkid":"","weight":"0.009","rawemissions":"8.33","emissions":"0.07","shipping":"0","processemissions":null,"endoflifeemissions":null,"disposaltype":null,"disposalenergy":null,"disposalimpact":null,"disposalemissions":null,"description":"Virgin aluminum from bauxite","name":"Aluminum, Virgin, headset spacers","id":"1455","stops":{"origin":{"related_to":"1455","part_or_object":"p","notes":"","placename":"Taiwan","id":3504,"name":"origin","lat":"23.69781","lon":"120.960515","hops":{"incoming":[],"outgoing":[{"transport_id":"2","id":"1244","transport_name":"truck, 16 tons","transport_description":"truck, half full","transport_unit":"kg km","transport_co2_eq":"0.020300","from_stop_id":"3504","from_stop_lat":"23.69781","from_stop_lon":"120.960515","from_stop_placename":"Taiwan","to_stop_id":"192","to_stop_name":"origin","to_stop_lat":"23.69781","to_stop_lon":"120.960515","to_stop_placename":"Taiwan","to_stop":{"id":"192","name":"origin","lat":"23.69781","lon":"120.960515","placename":"Taiwan"},"from_stop":{"name":"origin","id":"3504","lat":"23.69781","lon":"120.960515","placename":"Taiwan"}}]}}},"processes":[],"eols":[]},{"oid":"1824","imid":"1456","linkid":"","weight":"0.161","rawemissions":"5.7","emissions":"0.92","shipping":"10110.8","processemissions":null,"endoflifeemissions":null,"disposaltype":null,"disposalenergy":null,"disposalimpact":null,"disposalemissions":null,"description":"carbon fiber for composites","name":"Carbon Fiber, Stem","id":"1456","stops":{"origin":{"related_to":"1456","part_or_object":"p","notes":"","placename":"France","id":3505,"name":"origin","lat":"46.227638","lon":"2.213749","hops":{"incoming":[],"outgoing":[{"transport_id":"16","id":"1245","transport_name":"air, freight, intercontinental","transport_description":"intercontinental freight","transport_unit":"kg km","transport_co2_eq":"0.450000","from_stop_id":"3505","from_stop_lat":"46.227638","from_stop_lon":"2.213749","from_stop_placename":"France","to_stop_id":"192","to_stop_name":"origin","to_stop_lat":"23.69781","to_stop_lon":"120.960515","to_stop_placename":"Taiwan","to_stop":{"id":"192","name":"origin","lat":"23.69781","lon":"120.960515","placename":"Taiwan"},"from_stop":{"name":"origin","id":"3505","lat":"46.227638","lon":"2.213749","placename":"France"}}]}}},"processes":[],"eols":[]},{"oid":"1824","imid":"1457","linkid":"","weight":"0.263","rawemissions":"5.7","emissions":"1.5","shipping":"9679.81","processemissions":null,"endoflifeemissions":null,"disposaltype":null,"disposalenergy":null,"disposalimpact":null,"disposalemissions":null,"description":"carbon fiber for composites","name":"Carbon Fiber, handle bar","id":"1457","stops":{"origin":{"related_to":"1457","part_or_object":"p","notes":"","placename":"Italy","id":3506,"name":"origin","lat":"41.87194","lon":"12.56738","hops":{"incoming":[],"outgoing":[{"transport_id":"16","id":"1246","transport_name":"air, freight, intercontinental","transport_description":"intercontinental freight","transport_unit":"kg km","transport_co2_eq":"0.450000","from_stop_id":"3506","from_stop_lat":"41.87194","from_stop_lon":"12.56738","from_stop_placename":"Italy","to_stop_id":"192","to_stop_name":"origin","to_stop_lat":"23.69781","to_stop_lon":"120.960515","to_stop_placename":"Taiwan","to_stop":{"id":"192","name":"origin","lat":"23.69781","lon":"120.960515","placename":"Taiwan"},"from_stop":{"name":"origin","id":"3506","lat":"41.87194","lon":"12.56738","placename":"Italy"}}]}}},"processes":[],"eols":[]},{"oid":"1824","imid":"1458","linkid":"","weight":"0.326","rawemissions":"5.7","emissions":"1.86","shipping":"9679.81","processemissions":null,"endoflifeemissions":null,"disposaltype":null,"disposalenergy":null,"disposalimpact":null,"disposalemissions":null,"description":"carbon fiber for composites","name":"Carbon Fiber, shift\/brake lever","id":"1458","stops":{"origin":{"related_to":"1458","part_or_object":"p","notes":"","placename":"Italy","id":3507,"name":"origin","lat":"41.87194","lon":"12.56738","hops":{"incoming":[],"outgoing":[{"transport_id":"16","id":"1247","transport_name":"air, freight, intercontinental","transport_description":"intercontinental freight","transport_unit":"kg km","transport_co2_eq":"0.450000","from_stop_id":"3507","from_stop_lat":"41.87194","from_stop_lon":"12.56738","from_stop_placename":"Italy","to_stop_id":"192","to_stop_name":"origin","to_stop_lat":"23.69781","to_stop_lon":"120.960515","to_stop_placename":"Taiwan","to_stop":{"id":"192","name":"origin","lat":"23.69781","lon":"120.960515","placename":"Taiwan"},"from_stop":{"name":"origin","id":"3507","lat":"41.87194","lon":"12.56738","placename":"Italy"}}]}}},"processes":[],"eols":[]},{"oid":"1824","imid":"1459","linkid":"","weight":"0.282","rawemissions":"3.6","emissions":"1.02","shipping":"9679.81","processemissions":null,"endoflifeemissions":null,"disposaltype":null,"disposalenergy":null,"disposalimpact":null,"disposalemissions":null,"description":"Average of aluminum alloys","name":"Aluminum, Typical, brakes","id":"1459","stops":{"origin":{"related_to":"1459","part_or_object":"p","notes":"","placename":"Italy","id":3508,"name":"origin","lat":"41.87194","lon":"12.56738","hops":{"incoming":[],"outgoing":[{"transport_id":"16","id":"1248","transport_name":"air, freight, intercontinental","transport_description":"intercontinental freight","transport_unit":"kg km","transport_co2_eq":"0.450000","from_stop_id":"3508","from_stop_lat":"41.87194","from_stop_lon":"12.56738","from_stop_placename":"Italy","to_stop_id":"192","to_stop_name":"origin","to_stop_lat":"23.69781","to_stop_lon":"120.960515","to_stop_placename":"Taiwan","to_stop":{"id":"192","name":"origin","lat":"23.69781","lon":"120.960515","placename":"Taiwan"},"from_stop":{"name":"origin","id":"3508","lat":"41.87194","lon":"12.56738","placename":"Italy"}}]}}},"processes":[],"eols":[]},{"oid":"1824","imid":"1460","linkid":"","weight":"0.263","rawemissions":"2.08","emissions":"0.55","shipping":"9679.81","processemissions":null,"endoflifeemissions":null,"disposaltype":null,"disposalenergy":null,"disposalimpact":null,"disposalemissions":null,"description":"Virgin low alloy steel","name":"Steel, Virgin, Chain","id":"1460","stops":{"origin":{"related_to":"1460","part_or_object":"p","notes":"","placename":"Italy","id":3509,"name":"origin","lat":"41.87194","lon":"12.56738","hops":{"incoming":[],"outgoing":[{"transport_id":"16","id":"1249","transport_name":"air, freight, intercontinental","transport_description":"intercontinental freight","transport_unit":"kg km","transport_co2_eq":"0.450000","from_stop_id":"3509","from_stop_lat":"41.87194","from_stop_lon":"12.56738","from_stop_placename":"Italy","to_stop_id":"192","to_stop_name":"origin","to_stop_lat":"23.69781","to_stop_lon":"120.960515","to_stop_placename":"Taiwan","to_stop":{"id":"192","name":"origin","lat":"23.69781","lon":"120.960515","placename":"Taiwan"},"from_stop":{"name":"origin","id":"3509","lat":"41.87194","lon":"12.56738","placename":"Italy"}}]}}},"processes":[],"eols":[]},{"oid":"1824","imid":"1461","linkid":"","weight":"0.228","rawemissions":"3.6","emissions":"0.82","shipping":"10110.8","processemissions":null,"endoflifeemissions":null,"disposaltype":null,"disposalenergy":null,"disposalimpact":null,"disposalemissions":null,"description":"Average of aluminum alloys","name":"Aluminum, Typical, pedal","id":"1461","stops":{"origin":{"related_to":"1461","part_or_object":"p","notes":"","placename":"France","id":3510,"name":"origin","lat":"46.227638","lon":"2.213749","hops":{"incoming":[],"outgoing":[{"transport_id":"16","id":"1250","transport_name":"air, freight, intercontinental","transport_description":"intercontinental freight","transport_unit":"kg km","transport_co2_eq":"0.450000","from_stop_id":"3510","from_stop_lat":"46.227638","from_stop_lon":"2.213749","from_stop_placename":"France","to_stop_id":"192","to_stop_name":"origin","to_stop_lat":"23.69781","to_stop_lon":"120.960515","to_stop_placename":"Taiwan","to_stop":{"id":"192","name":"origin","lat":"23.69781","lon":"120.960515","placename":"Taiwan"},"from_stop":{"name":"origin","id":"3510","lat":"46.227638","lon":"2.213749","placename":"France"}}]}}},"processes":[],"eols":[]},{"oid":"1824","imid":"1462","linkid":"","weight":"0.543","rawemissions":"5.7","emissions":"3.1","shipping":"9679.81","processemissions":null,"endoflifeemissions":null,"disposaltype":null,"disposalenergy":null,"disposalimpact":null,"disposalemissions":null,"description":"carbon fiber for composites","name":"Carbon Fiber, crankset","id":"1462","stops":{"origin":{"related_to":"1462","part_or_object":"p","notes":"","placename":"Italy","id":3511,"name":"origin","lat":"41.87194","lon":"12.56738","hops":{"incoming":[],"outgoing":[{"transport_id":"16","id":"1251","transport_name":"air, freight, intercontinental","transport_description":"intercontinental freight","transport_unit":"kg km","transport_co2_eq":"0.450000","from_stop_id":"3511","from_stop_lat":"41.87194","from_stop_lon":"12.56738","from_stop_placename":"Italy","to_stop_id":"192","to_stop_name":"origin","to_stop_lat":"23.69781","to_stop_lon":"120.960515","to_stop_placename":"Taiwan","to_stop":{"id":"192","name":"origin","lat":"23.69781","lon":"120.960515","placename":"Taiwan"},"from_stop":{"name":"origin","id":"3511","lat":"41.87194","lon":"12.56738","placename":"Italy"}}]}}},"processes":[],"eols":[]},{"oid":"1824","imid":"1463","linkid":"","weight":"0.19","rawemissions":"2.08","emissions":"0.4","shipping":"9679.81","processemissions":null,"endoflifeemissions":null,"disposaltype":null,"disposalenergy":null,"disposalimpact":null,"disposalemissions":null,"description":"Virgin low alloy steel","name":"Steel, Virgin, bottom bracket","id":"1463","stops":{"origin":{"related_to":"1463","part_or_object":"p","notes":"","placename":"Italy","id":3512,"name":"origin","lat":"41.87194","lon":"12.56738","hops":{"incoming":[],"outgoing":[{"transport_id":"16","id":"1252","transport_name":"air, freight, intercontinental","transport_description":"intercontinental freight","transport_unit":"kg km","transport_co2_eq":"0.450000","from_stop_id":"3512","from_stop_lat":"41.87194","from_stop_lon":"12.56738","from_stop_placename":"Italy","to_stop_id":"192","to_stop_name":"origin","to_stop_lat":"23.69781","to_stop_lon":"120.960515","to_stop_placename":"Taiwan","to_stop":{"id":"192","name":"origin","lat":"23.69781","lon":"120.960515","placename":"Taiwan"},"from_stop":{"name":"origin","id":"3512","lat":"41.87194","lon":"12.56738","placename":"Italy"}}]}}},"processes":[],"eols":[]},{"oid":"1824","imid":"1464","linkid":"","weight":"0.256","rawemissions":"5.7","emissions":"1.46","shipping":"9679.81","processemissions":null,"endoflifeemissions":null,"disposaltype":null,"disposalenergy":null,"disposalimpact":null,"disposalemissions":null,"description":"carbon fiber for composites","name":"Carbon Fiber, derlr","id":"1464","stops":{"origin":{"related_to":"1464","part_or_object":"p","notes":"","placename":"Italy","id":3513,"name":"origin","lat":"41.87194","lon":"12.56738","hops":{"incoming":[],"outgoing":[{"transport_id":"16","id":"1253","transport_name":"air, freight, intercontinental","transport_description":"intercontinental freight","transport_unit":"kg km","transport_co2_eq":"0.450000","from_stop_id":"3513","from_stop_lat":"41.87194","from_stop_lon":"12.56738","from_stop_placename":"Italy","to_stop_id":"192","to_stop_name":"origin","to_stop_lat":"23.69781","to_stop_lon":"120.960515","to_stop_placename":"Taiwan","to_stop":{"id":"192","name":"origin","lat":"23.69781","lon":"120.960515","placename":"Taiwan"},"from_stop":{"name":"origin","id":"3513","lat":"41.87194","lon":"12.56738","placename":"Italy"}}]}}},"processes":[],"eols":[]},{"oid":"1824","imid":"1465","linkid":"","weight":"0.168","rawemissions":"20","emissions":"3.36","shipping":"9679.81","processemissions":null,"endoflifeemissions":null,"disposaltype":null,"disposalenergy":null,"disposalimpact":null,"disposalemissions":null,"description":"","name":"Titanium, cassette","id":"1465","stops":{"origin":{"related_to":"1465","part_or_object":"p","notes":"","placename":"Italy","id":3514,"name":"origin","lat":"41.87194","lon":"12.56738","hops":{"incoming":[],"outgoing":[{"transport_id":"16","id":"1254","transport_name":"air, freight, intercontinental","transport_description":"intercontinental freight","transport_unit":"kg km","transport_co2_eq":"0.450000","from_stop_id":"3514","from_stop_lat":"41.87194","from_stop_lon":"12.56738","from_stop_placename":"Italy","to_stop_id":"192","to_stop_name":"origin","to_stop_lat":"23.69781","to_stop_lon":"120.960515","to_stop_placename":"Taiwan","to_stop":{"id":"192","name":"origin","lat":"23.69781","lon":"120.960515","placename":"Taiwan"},"from_stop":{"name":"origin","id":"3514","lat":"41.87194","lon":"12.56738","placename":"Italy"}}]}}},"processes":[],"eols":[]},{"oid":"1824","imid":"1466","linkid":"","weight":"1.525","rawemissions":"8.33","emissions":"12.7","shipping":"10110.8","processemissions":null,"endoflifeemissions":null,"disposaltype":null,"disposalenergy":null,"disposalimpact":null,"disposalemissions":null,"description":"Virgin aluminum from bauxite","name":"Aluminum, Virgin, wheelset","id":"1466","stops":{"origin":{"related_to":"1466","part_or_object":"p","notes":"","placename":"France","id":3515,"name":"origin","lat":"46.227638","lon":"2.213749","hops":{"incoming":[],"outgoing":[{"transport_id":"16","id":"1255","transport_name":"air, freight, intercontinental","transport_description":"intercontinental freight","transport_unit":"kg km","transport_co2_eq":"0.450000","from_stop_id":"3515","from_stop_lat":"46.227638","from_stop_lon":"2.213749","from_stop_placename":"France","to_stop_id":"192","to_stop_name":"origin","to_stop_lat":"23.69781","to_stop_lon":"120.960515","to_stop_placename":"Taiwan","to_stop":{"id":"192","name":"origin","lat":"23.69781","lon":"120.960515","placename":"Taiwan"},"from_stop":{"name":"origin","id":"3515","lat":"46.227638","lon":"2.213749","placename":"France"}}]}}},"processes":[],"eols":[]},{"oid":"1824","imid":"1467","linkid":"","weight":"0.078","rawemissions":"5.7","emissions":"0.44","shipping":"9303.52","processemissions":null,"endoflifeemissions":null,"disposaltype":null,"disposalenergy":null,"disposalimpact":null,"disposalemissions":null,"description":"carbon fiber for composites","name":"Carbon Fiber, saddle","id":"1467","stops":{"origin":{"related_to":"1467","part_or_object":"p","notes":"","placename":"Germany","id":3516,"name":"origin","lat":"51.165691","lon":"10.451526","hops":{"incoming":[],"outgoing":[{"transport_id":"16","id":"1256","transport_name":"air, freight, intercontinental","transport_description":"intercontinental freight","transport_unit":"kg km","transport_co2_eq":"0.450000","from_stop_id":"3516","from_stop_lat":"51.165691","from_stop_lon":"10.451526","from_stop_placename":"Germany","to_stop_id":"192","to_stop_name":"origin","to_stop_lat":"23.69781","to_stop_lon":"120.960515","to_stop_placename":"Taiwan","to_stop":{"id":"192","name":"origin","lat":"23.69781","lon":"120.960515","placename":"Taiwan"},"from_stop":{"name":"origin","id":"3516","lat":"51.165691","lon":"10.451526","placename":"Germany"}}]}}},"processes":[],"eols":[]},{"oid":"1824","imid":"1468","linkid":"","weight":"0.196","rawemissions":"5.7","emissions":"1.12","shipping":"9679.81","processemissions":null,"endoflifeemissions":null,"disposaltype":null,"disposalenergy":null,"disposalimpact":null,"disposalemissions":null,"description":"carbon fiber for composites","name":"Carbon Fiber, seatpost","id":"1468","stops":{"origin":{"related_to":"1468","part_or_object":"p","notes":"","placename":"Italy","id":3517,"name":"origin","lat":"41.87194","lon":"12.56738","hops":{"incoming":[],"outgoing":[{"transport_id":"16","id":"1257","transport_name":"air, freight, intercontinental","transport_description":"intercontinental freight","transport_unit":"kg km","transport_co2_eq":"0.450000","from_stop_id":"3517","from_stop_lat":"41.87194","from_stop_lon":"12.56738","from_stop_placename":"Italy","to_stop_id":"192","to_stop_name":"origin","to_stop_lat":"23.69781","to_stop_lon":"120.960515","to_stop_placename":"Taiwan","to_stop":{"id":"192","name":"origin","lat":"23.69781","lon":"120.960515","placename":"Taiwan"},"from_stop":{"name":"origin","id":"3517","lat":"41.87194","lon":"12.56738","placename":"Italy"}}]}}},"processes":[],"eols":[]},{"oid":"1824","imid":"1469","linkid":"","weight":"0.017","rawemissions":"20","emissions":"0.34","shipping":"0","processemissions":null,"endoflifeemissions":null,"disposaltype":null,"disposalenergy":null,"disposalimpact":null,"disposalemissions":null,"description":"","name":"Titanium, seat binder","id":"1469","stops":{"origin":{"related_to":"1469","part_or_object":"p","notes":"","placename":"Taiwan","id":3518,"name":"origin","lat":"23.69781","lon":"120.960515","hops":{"incoming":[],"outgoing":[{"transport_id":"2","id":"1258","transport_name":"truck, 16 tons","transport_description":"truck, half full","transport_unit":"kg km","transport_co2_eq":"0.020300","from_stop_id":"3518","from_stop_lat":"23.69781","from_stop_lon":"120.960515","from_stop_placename":"Taiwan","to_stop_id":"192","to_stop_name":"origin","to_stop_lat":"23.69781","to_stop_lon":"120.960515","to_stop_placename":"Taiwan","to_stop":{"id":"192","name":"origin","lat":"23.69781","lon":"120.960515","placename":"Taiwan"},"from_stop":{"name":"origin","id":"3518","lat":"23.69781","lon":"120.960515","placename":"Taiwan"}}]}}},"processes":[],"eols":[]},{"oid":"1824","imid":"1470","linkid":"","weight":"0.292","rawemissions":"2.76","emissions":"0.81","shipping":"9303.52","processemissions":null,"endoflifeemissions":null,"disposaltype":null,"disposalenergy":null,"disposalimpact":null,"disposalemissions":null,"description":"polybutadiene synthetic rubber","name":"PBR Elastomer, tire","id":"1470","stops":{"origin":{"related_to":"1470","part_or_object":"p","notes":"","placename":"Germany","id":3519,"name":"origin","lat":"51.165691","lon":"10.451526","hops":{"incoming":[],"outgoing":[{"transport_id":"16","id":"1259","transport_name":"air, freight, intercontinental","transport_description":"intercontinental freight","transport_unit":"kg km","transport_co2_eq":"0.450000","from_stop_id":"3519","from_stop_lat":"51.165691","from_stop_lon":"10.451526","from_stop_placename":"Germany","to_stop_id":"192","to_stop_name":"origin","to_stop_lat":"23.69781","to_stop_lon":"120.960515","to_stop_placename":"Taiwan","to_stop":{"id":"192","name":"origin","lat":"23.69781","lon":"120.960515","placename":"Taiwan"},"from_stop":{"name":"origin","id":"3519","lat":"51.165691","lon":"10.451526","placename":"Germany"}}]}}},"processes":[],"eols":[]},{"oid":"1824","imid":"1471","linkid":"","weight":"0.101","rawemissions":"2.76","emissions":"0.28","shipping":"9303.52","processemissions":null,"endoflifeemissions":null,"disposaltype":null,"disposalenergy":null,"disposalimpact":null,"disposalemissions":null,"description":"polybutadiene synthetic rubber","name":"PBR Elastomer, tube","id":"1471","stops":{"origin":{"related_to":"1471","part_or_object":"p","notes":"","placename":"Germany","id":3520,"name":"origin","lat":"51.165691","lon":"10.451526","hops":{"incoming":[],"outgoing":[{"transport_id":"16","id":"1260","transport_name":"air, freight, intercontinental","transport_description":"intercontinental freight","transport_unit":"kg km","transport_co2_eq":"0.450000","from_stop_id":"3520","from_stop_lat":"51.165691","from_stop_lon":"10.451526","from_stop_placename":"Germany","to_stop_id":"192","to_stop_name":"origin","to_stop_lat":"23.69781","to_stop_lon":"120.960515","to_stop_placename":"Taiwan","to_stop":{"id":"192","name":"origin","lat":"23.69781","lon":"120.960515","placename":"Taiwan"},"from_stop":{"name":"origin","id":"3520","lat":"51.165691","lon":"10.451526","placename":"Germany"}}]}}},"processes":[],"eols":[]},{"oid":"1824","imid":"1472","linkid":"","weight":"0.021","rawemissions":"5.7","emissions":"0.12","shipping":"0","processemissions":null,"endoflifeemissions":null,"disposaltype":null,"disposalenergy":null,"disposalimpact":null,"disposalemissions":null,"description":"carbon fiber for composites","name":"Carbon Fiber, bottle cages","id":"1472","stops":{"origin":{"related_to":"1472","part_or_object":"p","notes":"","placename":"Taiwan","id":3521,"name":"origin","lat":"23.69781","lon":"120.960515","hops":{"incoming":[],"outgoing":[{"transport_id":"2","id":"1261","transport_name":"truck, 16 tons","transport_description":"truck, half full","transport_unit":"kg km","transport_co2_eq":"0.020300","from_stop_id":"3521","from_stop_lat":"23.69781","from_stop_lon":"120.960515","from_stop_placename":"Taiwan","to_stop_id":"192","to_stop_name":"origin","to_stop_lat":"23.69781","to_stop_lon":"120.960515","to_stop_placename":"Taiwan","to_stop":{"id":"192","name":"origin","lat":"23.69781","lon":"120.960515","placename":"Taiwan"},"from_stop":{"name":"origin","id":"3521","lat":"23.69781","lon":"120.960515","placename":"Taiwan"}}]}}},"processes":[],"eols":[]}],"user":{"name":"richardcccc","id":"7024"}}}