{"1852":{"oid":"1852","type":"object","flag":"","creator":"7114","name":"Hurley Sweater","upc":"","imagelink":"","description":"This is for the assignment for Acadia University class RECR 1163 X1, by Andrew Barnard 100098614","slug":"hurley-sweater","category":"","weight":"1","emissions":"5.85","embodied":"5.85","transport":"0","process":"0","endoflife":"0","shipping":"0","lifetime":"0","usagetype":"","usageenergy":"0","usageemissions":"0","timecreated":"2010-02-24 22:03:35.668943","timemodified":"2009-11-08 00:35:20","visibility":"public","showfootprint":"on","showembodied":"on","showtransport":"on","showprocess":"on","showendoflife":"on","showlastleg":"on","showuse":"on","showstats":"on","stops":{"origin":{"related_to":"1852","part_or_object":"o","notes":"","placename":"China","id":"182","category":"1","lat":"35.86166","lon":"104.195397","name":"origin","hops":{"incoming":[{"transport_id":"17","id":"1269","transport_name":"None Selected","transport_description":null,"transport_unit":"kg km","transport_co2_eq":"0.000000","from_stop_id":"3529","from_stop_lat":"35.86166","from_stop_lon":"104.195397","to_stop_id":"182","to_stop_name":"origin","to_stop_lat":"35.86166","placename":"China","to_stop_lon":"104.195397","to_stop":{"id":"182","name":"origin","lat":"35.86166","placename":"China","lon":"104.195397"},"from_stop":{"name":"origin","id":"3529","lat":"35.86166","lon":"104.195397","placename":"China"}},{"transport_id":"17","id":"1270","transport_name":"None Selected","transport_description":null,"transport_unit":"kg km","transport_co2_eq":"0.000000","from_stop_id":"3530","from_stop_lat":"35.86166","from_stop_lon":"104.195397","to_stop_id":"182","to_stop_name":"origin","to_stop_lat":"35.86166","placename":"China","to_stop_lon":"104.195397","to_stop":{"id":"182","name":"origin","lat":"35.86166","placename":"China","lon":"104.195397"},"from_stop":{"name":"origin","id":"3530","lat":"35.86166","lon":"104.195397","placename":"China"}},{"transport_id":"17","id":"1271","transport_name":"None Selected","transport_description":null,"transport_unit":"kg km","transport_co2_eq":"0.000000","from_stop_id":"3531","from_stop_lat":"35.86166","from_stop_lon":"104.195397","to_stop_id":"182","to_stop_name":"origin","to_stop_lat":"35.86166","placename":"China","to_stop_lon":"104.195397","to_stop":{"id":"182","name":"origin","lat":"35.86166","placename":"China","lon":"104.195397"},"from_stop":{"name":"origin","id":"3531","lat":"35.86166","lon":"104.195397","placename":"China"}}],"outgoing":[]}}},"parts":[{"oid":"1852","imid":"1481","linkid":"","weight":"0.1","rawemissions":"0","emissions":"0","shipping":"0","processemissions":null,"endoflifeemissions":null,"disposaltype":null,"disposalenergy":null,"disposalimpact":null,"disposalemissions":null,"description":"20% of the Shell is Made From Polyester","name":"Polyester","id":"1481","stops":{"origin":{"related_to":"1481","part_or_object":"p","notes":"","placename":"China","id":3529,"name":"origin","lat":"35.86166","lon":"104.195397","hops":{"incoming":[],"outgoing":[{"transport_id":"17","id":"1269","transport_name":"None Selected","transport_description":null,"transport_unit":"kg km","transport_co2_eq":"0.000000","from_stop_id":"3529","from_stop_lat":"35.86166","from_stop_lon":"104.195397","from_stop_placename":"China","to_stop_id":"182","to_stop_name":"origin","to_stop_lat":"35.86166","to_stop_lon":"104.195397","to_stop_placename":"China","to_stop":{"id":"182","name":"origin","lat":"35.86166","lon":"104.195397","placename":"China"},"from_stop":{"name":"origin","id":"3529","lat":"35.86166","lon":"104.195397","placename":"China"}}]}}},"processes":[],"eols":[]},{"oid":"1852","imid":"1482","linkid":"","weight":"0.4","rawemissions":"3.5","emissions":"1.4","shipping":"0","processemissions":null,"endoflifeemissions":null,"disposaltype":null,"disposalenergy":null,"disposalimpact":null,"disposalemissions":null,"description":"chemical intensive cultivation, 80% of the shell is made from cottom","name":"Cotton fabric","id":"1482","stops":{"origin":{"related_to":"1482","part_or_object":"p","notes":"","placename":"China","id":3530,"name":"origin","lat":"35.86166","lon":"104.195397","hops":{"incoming":[],"outgoing":[{"transport_id":"17","id":"1270","transport_name":"None Selected","transport_description":null,"transport_unit":"kg km","transport_co2_eq":"0.000000","from_stop_id":"3530","from_stop_lat":"35.86166","from_stop_lon":"104.195397","from_stop_placename":"China","to_stop_id":"182","to_stop_name":"origin","to_stop_lat":"35.86166","to_stop_lon":"104.195397","to_stop_placename":"China","to_stop":{"id":"182","name":"origin","lat":"35.86166","lon":"104.195397","placename":"China"},"from_stop":{"name":"origin","id":"3530","lat":"35.86166","lon":"104.195397","placename":"China"}}]}}},"processes":[],"eols":[]},{"oid":"1852","imid":"1483","linkid":"","weight":"0.5","rawemissions":"8.9","emissions":"4.45","shipping":"0","processemissions":null,"endoflifeemissions":null,"disposaltype":null,"disposalenergy":null,"disposalimpact":null,"disposalemissions":null,"description":"high global warming impacts, 100% of the lining is made from Polyester","name":"Polyester fabric","id":"1483","stops":{"origin":{"related_to":"1483","part_or_object":"p","notes":"","placename":"China","id":3531,"name":"origin","lat":"35.86166","lon":"104.195397","hops":{"incoming":[],"outgoing":[{"transport_id":"17","id":"1271","transport_name":"None Selected","transport_description":null,"transport_unit":"kg km","transport_co2_eq":"0.000000","from_stop_id":"3531","from_stop_lat":"35.86166","from_stop_lon":"104.195397","from_stop_placename":"China","to_stop_id":"182","to_stop_name":"origin","to_stop_lat":"35.86166","to_stop_lon":"104.195397","to_stop_placename":"China","to_stop":{"id":"182","name":"origin","lat":"35.86166","lon":"104.195397","placename":"China"},"from_stop":{"name":"origin","id":"3531","lat":"35.86166","lon":"104.195397","placename":"China"}}]}}},"processes":[],"eols":[]}],"user":{"name":"Andrew.Barnard","id":"7114"}}}