{"1857":{"oid":"1857","type":"object","flag":"","creator":"1","name":"8 oz. Tomato Sauce","upc":"","imagelink":"","description":"","slug":"8-oz--tomato-sauce","category":"","weight":"0","emissions":"0","embodied":"0","transport":"0","process":"0","endoflife":"0","shipping":"60499.4","lifetime":null,"usagetype":"","usageenergy":null,"usageemissions":null,"timecreated":"2010-02-24 22:03:35.667439","timemodified":"2009-11-10 04:48:11","visibility":"private","showfootprint":"","showembodied":"","showtransport":"","showprocess":"","showendoflife":"","showlastleg":"on","showuse":"","showstats":"","stops":{"origin":{"related_to":"1857","part_or_object":"o","notes":"","placename":"1376 Lemen Ave, Woodland, CA 95776, USA","id":"181","category":"1","lat":"38.67897","lon":"-121.757946","name":"origin","hops":{"incoming":[{"transport_id":"17","id":"1272","transport_name":"None Selected","transport_description":null,"transport_unit":"kg km","transport_co2_eq":"0.000000","from_stop_id":"3532","from_stop_lat":"38.5914412","from_stop_lon":"-121.9749563","to_stop_id":"181","to_stop_name":"origin","to_stop_lat":"38.67897","placename":"28682-28998 Co Road 29, Winters, CA 95694, USA","to_stop_lon":"-121.757946","to_stop":{"id":"181","name":"origin","lat":"38.67897","placename":"1376 Lemen Ave, Woodland, CA 95776, USA","lon":"-121.757946"},"from_stop":{"name":"origin","id":"3532","lat":"38.5914412","lon":"-121.9749563","placename":"28682-28998 Co Road 29, Winters, CA 95694, USA"}},{"transport_id":"17","id":"1273","transport_name":"None Selected","transport_description":null,"transport_unit":"kg km","transport_co2_eq":"0.000000","from_stop_id":"3533","from_stop_lat":"37.5212549","from_stop_lon":"-122.029126","to_stop_id":"181","to_stop_name":"origin","to_stop_lat":"38.67897","placename":"7220 Central Ave, Newark, CA 94560, USA","to_stop_lon":"-121.757946","to_stop":{"id":"181","name":"origin","lat":"38.67897","placename":"1376 Lemen Ave, Woodland, CA 95776, USA","lon":"-121.757946"},"from_stop":{"name":"origin","id":"3533","lat":"37.5212549","lon":"-122.029126","placename":"7220 Central Ave, Newark, CA 94560, USA"}},{"transport_id":"17","id":"1274","transport_name":"None Selected","transport_description":null,"transport_unit":"kg km","transport_co2_eq":"0.000000","from_stop_id":"3534","from_stop_lat":"14.058324","from_stop_lon":"108.277199","to_stop_id":"181","to_stop_name":"origin","to_stop_lat":"38.67897","placename":"Vietnam","to_stop_lon":"-121.757946","to_stop":{"id":"181","name":"origin","lat":"38.67897","placename":"1376 Lemen Ave, Woodland, CA 95776, USA","lon":"-121.757946"},"from_stop":{"name":"origin","id":"3534","lat":"14.058324","lon":"108.277199","placename":"Vietnam"}},{"transport_id":"17","id":"1275","transport_name":"None Selected","transport_description":null,"transport_unit":"kg km","transport_co2_eq":"0.000000","from_stop_id":"3535","from_stop_lat":"35.86166","from_stop_lon":"104.195397","to_stop_id":"181","to_stop_name":"origin","to_stop_lat":"38.67897","placename":"China","to_stop_lon":"-121.757946","to_stop":{"id":"181","name":"origin","lat":"38.67897","placename":"1376 Lemen Ave, Woodland, CA 95776, USA","lon":"-121.757946"},"from_stop":{"name":"origin","id":"3535","lat":"35.86166","lon":"104.195397","placename":"China"}},{"transport_id":"17","id":"1276","transport_name":"None Selected","transport_description":null,"transport_unit":"kg km","transport_co2_eq":"0.000000","from_stop_id":"3536","from_stop_lat":"-9.189967","from_stop_lon":"-75.015152","to_stop_id":"181","to_stop_name":"origin","to_stop_lat":"38.67897","placename":"Peru","to_stop_lon":"-121.757946","to_stop":{"id":"181","name":"origin","lat":"38.67897","placename":"1376 Lemen Ave, Woodland, CA 95776, USA","lon":"-121.757946"},"from_stop":{"name":"origin","id":"3536","lat":"-9.189967","lon":"-75.015152","placename":"Peru"}},{"transport_id":"17","id":"1277","transport_name":"None Selected","transport_description":null,"transport_unit":"kg km","transport_co2_eq":"0.000000","from_stop_id":"3537","from_stop_lat":"4.210484","from_stop_lon":"101.975766","to_stop_id":"181","to_stop_name":"origin","to_stop_lat":"38.67897","placename":"Malaysia","to_stop_lon":"-121.757946","to_stop":{"id":"181","name":"origin","lat":"38.67897","placename":"1376 Lemen Ave, Woodland, CA 95776, USA","lon":"-121.757946"},"from_stop":{"name":"origin","id":"3537","lat":"4.210484","lon":"101.975766","placename":"Malaysia"}},{"transport_id":"17","id":"1278","transport_name":"None Selected","transport_description":null,"transport_unit":"kg km","transport_co2_eq":"0.000000","from_stop_id":"3538","from_stop_lat":"37.4932114","from_stop_lon":"127.0567416","to_stop_id":"181","to_stop_name":"origin","to_stop_lat":"38.67897","placename":"Daechi-dong, Gangnam-gu, Seoul, South Korea","to_stop_lon":"-121.757946","to_stop":{"id":"181","name":"origin","lat":"38.67897","placename":"1376 Lemen Ave, Woodland, CA 95776, USA","lon":"-121.757946"},"from_stop":{"name":"origin","id":"3538","lat":"37.4932114","lon":"127.0567416","placename":"Daechi-dong, Gangnam-gu, Seoul, South Korea"}},{"transport_id":"17","id":"1279","transport_name":"None Selected","transport_description":null,"transport_unit":"kg km","transport_co2_eq":"0.000000","from_stop_id":"3539","from_stop_lat":"34.0023293","from_stop_lon":"-95.0938386","to_stop_id":"181","to_stop_name":"origin","to_stop_lat":"38.67897","placename":"Valliant, OK, USA","to_stop_lon":"-121.757946","to_stop":{"id":"181","name":"origin","lat":"38.67897","placename":"1376 Lemen Ave, Woodland, CA 95776, USA","lon":"-121.757946"},"from_stop":{"name":"origin","id":"3539","lat":"34.0023293","lon":"-95.0938386","placename":"Valliant, OK, USA"}},{"transport_id":"17","id":"1280","transport_name":"None Selected","transport_description":null,"transport_unit":"kg km","transport_co2_eq":"0.000000","from_stop_id":"3540","from_stop_lat":"33.9985969","from_stop_lon":"-117.698662","to_stop_id":"181","to_stop_name":"origin","to_stop_lat":"38.67897","placename":"14000 Monte Vista Ave, Chino, CA 91710, USA","to_stop_lon":"-121.757946","to_stop":{"id":"181","name":"origin","lat":"38.67897","placename":"1376 Lemen Ave, Woodland, CA 95776, USA","lon":"-121.757946"},"from_stop":{"name":"origin","id":"3540","lat":"33.9985969","lon":"-117.698662","placename":"14000 Monte Vista Ave, Chino, CA 91710, USA"}},{"transport_id":"17","id":"1281","transport_name":"None Selected","transport_description":null,"transport_unit":"kg km","transport_co2_eq":"0.000000","from_stop_id":"3541","from_stop_lat":"33.995088","from_stop_lon":"-117.345222","to_stop_id":"181","to_stop_name":"origin","to_stop_lat":"38.67897","placename":"1576 Omaha Ct, Riverside, CA 92507, USA","to_stop_lon":"-121.757946","to_stop":{"id":"181","name":"origin","lat":"38.67897","placename":"1376 Lemen Ave, Woodland, CA 95776, USA","lon":"-121.757946"},"from_stop":{"name":"origin","id":"3541","lat":"33.995088","lon":"-117.345222","placename":"1576 Omaha Ct, Riverside, CA 92507, USA"}},{"transport_id":"17","id":"1282","transport_name":"None Selected","transport_description":null,"transport_unit":"kg km","transport_co2_eq":"0.000000","from_stop_id":"3542","from_stop_lat":"44.5459969","from_stop_lon":"-70.5451384","to_stop_id":"181","to_stop_name":"origin","to_stop_lat":"38.67897","placename":"Hartford St, Rumford, ME 04276, USA","to_stop_lon":"-121.757946","to_stop":{"id":"181","name":"origin","lat":"38.67897","placename":"1376 Lemen Ave, Woodland, CA 95776, USA","lon":"-121.757946"},"from_stop":{"name":"origin","id":"3542","lat":"44.5459969","lon":"-70.5451384","placename":"Hartford St, Rumford, ME 04276, USA"}}],"outgoing":[]}}},"parts":[{"oid":"1857","imid":"1484","linkid":"","weight":"0","rawemissions":"0","emissions":"0","shipping":"21.24","processemissions":null,"endoflifeemissions":null,"disposaltype":null,"disposalenergy":null,"disposalimpact":null,"disposalemissions":null,"description":"<object width='560' height='340'><param name='movie' value='http:\/\/www.youtube.com\/v\/iam2brDR7_I&hl=en&fs=1&rel=0'><\/param><param name='allowFullScreen' value='true'><\/param><param name='allowscriptaccess' value='always'><\/param><embed src='http:\/\/www.youtube.com\/v\/iam2brDR7_I&hl=en&fs=1&rel=0' type='application\/x-shockwave-flash' allowscriptaccess='always' allowfullscreen='true' width='560' height='340'><\/embed><\/object>","name":"Tomatoes","id":"1484","stops":{"origin":{"related_to":"1484","part_or_object":"p","notes":"","placename":"28682-28998 Co Road 29, Winters, CA 95694, USA","id":3532,"name":"origin","lat":"38.5914412","lon":"-121.9749563","hops":{"incoming":[],"outgoing":[{"transport_id":"17","id":"1272","transport_name":"None Selected","transport_description":null,"transport_unit":"kg km","transport_co2_eq":"0.000000","from_stop_id":"3532","from_stop_lat":"38.5914412","from_stop_lon":"-121.9749563","from_stop_placename":"28682-28998 Co Road 29, Winters, CA 95694, USA","to_stop_id":"181","to_stop_name":"origin","to_stop_lat":"38.67897","to_stop_lon":"-121.757946","to_stop_placename":"1376 Lemen Ave, Woodland, CA 95776, USA","to_stop":{"id":"181","name":"origin","lat":"38.67897","lon":"-121.757946","placename":"1376 Lemen Ave, Woodland, CA 95776, USA"},"from_stop":{"name":"origin","id":"3532","lat":"38.5914412","lon":"-121.9749563","placename":"28682-28998 Co Road 29, Winters, CA 95694, USA"}}]}}},"processes":[],"eols":[]},{"oid":"1857","imid":"1485","linkid":"","weight":"0","rawemissions":"0","emissions":"0","shipping":"131.05","processemissions":null,"endoflifeemissions":null,"disposaltype":null,"disposalenergy":null,"disposalimpact":null,"disposalemissions":null,"description":"Supplied by Cargill\n\n","name":"Salt","id":"1485","stops":{"origin":{"related_to":"1485","part_or_object":"p","notes":"","placename":"7220 Central Ave, Newark, CA 94560, USA","id":3533,"name":"origin","lat":"37.5212549","lon":"-122.029126","hops":{"incoming":[],"outgoing":[{"transport_id":"17","id":"1273","transport_name":"None Selected","transport_description":null,"transport_unit":"kg km","transport_co2_eq":"0.000000","from_stop_id":"3533","from_stop_lat":"37.5212549","from_stop_lon":"-122.029126","from_stop_placename":"7220 Central Ave, Newark, CA 94560, USA","to_stop_id":"181","to_stop_name":"origin","to_stop_lat":"38.67897","to_stop_lon":"-121.757946","to_stop_placename":"1376 Lemen Ave, Woodland, CA 95776, USA","to_stop":{"id":"181","name":"origin","lat":"38.67897","lon":"-121.757946","placename":"1376 Lemen Ave, Woodland, CA 95776, USA"},"from_stop":{"name":"origin","id":"3533","lat":"37.5212549","lon":"-122.029126","placename":"7220 Central Ave, Newark, CA 94560, USA"}}]}}},"processes":[],"eols":[]},{"oid":"1857","imid":"1486","linkid":"","weight":"0","rawemissions":"0","emissions":"0","shipping":"12194.9","processemissions":null,"endoflifeemissions":null,"disposaltype":null,"disposalenergy":null,"disposalimpact":null,"disposalemissions":null,"description":"Supplied by Chesapeake Spice\n","name":"Dehydrated Onions","id":"1486","stops":{"origin":{"related_to":"1486","part_or_object":"p","notes":"","placename":"Vietnam","id":3534,"name":"origin","lat":"14.058324","lon":"108.277199","hops":{"incoming":[],"outgoing":[{"transport_id":"17","id":"1274","transport_name":"None Selected","transport_description":null,"transport_unit":"kg km","transport_co2_eq":"0.000000","from_stop_id":"3534","from_stop_lat":"14.058324","from_stop_lon":"108.277199","from_stop_placename":"Vietnam","to_stop_id":"181","to_stop_name":"origin","to_stop_lat":"38.67897","to_stop_lon":"-121.757946","to_stop_placename":"1376 Lemen Ave, Woodland, CA 95776, USA","to_stop":{"id":"181","name":"origin","lat":"38.67897","lon":"-121.757946","placename":"1376 Lemen Ave, Woodland, CA 95776, USA"},"from_stop":{"name":"origin","id":"3534","lat":"14.058324","lon":"108.277199","placename":"Vietnam"}}]}}},"processes":[],"eols":[]},{"oid":"1857","imid":"1487","linkid":"","weight":"0","rawemissions":"0","emissions":"0","shipping":"10489.5","processemissions":null,"endoflifeemissions":null,"disposaltype":null,"disposalenergy":null,"disposalimpact":null,"disposalemissions":null,"description":"Supplied by Chesapeake Spice\n","name":"Dehydrated Garlic","id":"1487","stops":{"origin":{"related_to":"1487","part_or_object":"p","notes":"","placename":"China","id":3535,"name":"origin","lat":"35.86166","lon":"104.195397","hops":{"incoming":[],"outgoing":[{"transport_id":"17","id":"1275","transport_name":"None Selected","transport_description":null,"transport_unit":"kg km","transport_co2_eq":"0.000000","from_stop_id":"3535","from_stop_lat":"35.86166","from_stop_lon":"104.195397","from_stop_placename":"China","to_stop_id":"181","to_stop_name":"origin","to_stop_lat":"38.67897","to_stop_lon":"-121.757946","to_stop_placename":"1376 Lemen Ave, Woodland, CA 95776, USA","to_stop":{"id":"181","name":"origin","lat":"38.67897","lon":"-121.757946","placename":"1376 Lemen Ave, Woodland, CA 95776, USA"},"from_stop":{"name":"origin","id":"3535","lat":"35.86166","lon":"104.195397","placename":"China"}}]}}},"processes":[],"eols":[]},{"oid":"1857","imid":"1488","linkid":"","weight":"0","rawemissions":"0","emissions":"0","shipping":"7195.8","processemissions":null,"endoflifeemissions":null,"disposaltype":null,"disposalenergy":null,"disposalimpact":null,"disposalemissions":null,"description":"Supplied by Chesapeake Spice\n","name":"Spices","id":"1488","stops":{"origin":{"related_to":"1488","part_or_object":"p","notes":"","placename":"Peru","id":3536,"name":"origin","lat":"-9.189967","lon":"-75.015152","hops":{"incoming":[],"outgoing":[{"transport_id":"17","id":"1276","transport_name":"None Selected","transport_description":null,"transport_unit":"kg km","transport_co2_eq":"0.000000","from_stop_id":"3536","from_stop_lat":"-9.189967","from_stop_lon":"-75.015152","from_stop_placename":"Peru","to_stop_id":"181","to_stop_name":"origin","to_stop_lat":"38.67897","to_stop_lon":"-121.757946","to_stop_placename":"1376 Lemen Ave, Woodland, CA 95776, USA","to_stop":{"id":"181","name":"origin","lat":"38.67897","lon":"-121.757946","placename":"1376 Lemen Ave, Woodland, CA 95776, USA"},"from_stop":{"name":"origin","id":"3536","lat":"-9.189967","lon":"-75.015152","placename":"Peru"}}]}}},"processes":[],"eols":[]},{"oid":"1857","imid":"1489","linkid":"","weight":"0","rawemissions":"0","emissions":"0","shipping":"13481.8","processemissions":null,"endoflifeemissions":null,"disposaltype":null,"disposalenergy":null,"disposalimpact":null,"disposalemissions":null,"description":"Supplied by Chesapeake Spice\n","name":"Sweet Bell Pepper","id":"1489","stops":{"origin":{"related_to":"1489","part_or_object":"p","notes":"","placename":"Malaysia","id":3537,"name":"origin","lat":"4.210484","lon":"101.975766","hops":{"incoming":[],"outgoing":[{"transport_id":"17","id":"1277","transport_name":"None Selected","transport_description":null,"transport_unit":"kg km","transport_co2_eq":"0.000000","from_stop_id":"3537","from_stop_lat":"4.210484","from_stop_lon":"101.975766","from_stop_placename":"Malaysia","to_stop_id":"181","to_stop_name":"origin","to_stop_lat":"38.67897","to_stop_lon":"-121.757946","to_stop_placename":"1376 Lemen Ave, Woodland, CA 95776, USA","to_stop":{"id":"181","name":"origin","lat":"38.67897","lon":"-121.757946","placename":"1376 Lemen Ave, Woodland, CA 95776, USA"},"from_stop":{"name":"origin","id":"3537","lat":"4.210484","lon":"101.975766","placename":"Malaysia"}}]}}},"processes":[],"eols":[]},{"oid":"1857","imid":"1490","linkid":"","weight":"0","rawemissions":"0","emissions":"0","shipping":"9016.13","processemissions":null,"endoflifeemissions":null,"disposaltype":null,"disposalenergy":null,"disposalimpact":null,"disposalemissions":null,"description":"<p><img src='http:\/\/www.danthegardener.co.uk\/Image\/9964005.jpg' width='200'><\/p>\nSupplied by Silgan Container Corporation\n<a href='http:\/\/google.com\/'>MATERIAL BLOG<\/a>\n\n","name":"8 oz Tin-plate Steel can","id":"1490","stops":{"origin":{"related_to":"1490","part_or_object":"p","notes":"","placename":"Daechi-dong, Gangnam-gu, Seoul, South Korea","id":3538,"name":"origin","lat":"37.4932114","lon":"127.0567416","hops":{"incoming":[],"outgoing":[{"transport_id":"17","id":"1278","transport_name":"None Selected","transport_description":null,"transport_unit":"kg km","transport_co2_eq":"0.000000","from_stop_id":"3538","from_stop_lat":"37.4932114","from_stop_lon":"127.0567416","from_stop_placename":"Daechi-dong, Gangnam-gu, Seoul, South Korea","to_stop_id":"181","to_stop_name":"origin","to_stop_lat":"38.67897","to_stop_lon":"-121.757946","to_stop_placename":"1376 Lemen Ave, Woodland, CA 95776, USA","to_stop":{"id":"181","name":"origin","lat":"38.67897","lon":"-121.757946","placename":"1376 Lemen Ave, Woodland, CA 95776, USA"},"from_stop":{"name":"origin","id":"3538","lat":"37.4932114","lon":"127.0567416","placename":"Daechi-dong, Gangnam-gu, Seoul, South Korea"}}]}}},"processes":[],"eols":[]},{"oid":"1857","imid":"1491","linkid":"","weight":"0","rawemissions":"0","emissions":"0","shipping":"2437.75","processemissions":null,"endoflifeemissions":null,"disposaltype":null,"disposalenergy":null,"disposalimpact":null,"disposalemissions":null,"description":"Supplied by International Paper\n","name":"Fibre Tray","id":"1491","stops":{"origin":{"related_to":"1491","part_or_object":"p","notes":"","placename":"Valliant, OK, USA","id":3539,"name":"origin","lat":"34.0023293","lon":"-95.0938386","hops":{"incoming":[],"outgoing":[{"transport_id":"17","id":"1279","transport_name":"None Selected","transport_description":null,"transport_unit":"kg km","transport_co2_eq":"0.000000","from_stop_id":"3539","from_stop_lat":"34.0023293","from_stop_lon":"-95.0938386","from_stop_placename":"Valliant, OK, USA","to_stop_id":"181","to_stop_name":"origin","to_stop_lat":"38.67897","to_stop_lon":"-121.757946","to_stop_placename":"1376 Lemen Ave, Woodland, CA 95776, USA","to_stop":{"id":"181","name":"origin","lat":"38.67897","lon":"-121.757946","placename":"1376 Lemen Ave, Woodland, CA 95776, USA"},"from_stop":{"name":"origin","id":"3539","lat":"34.0023293","lon":"-95.0938386","placename":"Valliant, OK, USA"}}]}}},"processes":[],"eols":[]},{"oid":"1857","imid":"1492","linkid":"","weight":"0","rawemissions":"0","emissions":"0","shipping":"635.41","processemissions":null,"endoflifeemissions":null,"disposaltype":null,"disposalenergy":null,"disposalimpact":null,"disposalemissions":null,"description":"Low density polyethylene (LDPE) 100% recycleable, supplied by AEP Industrial\n","name":"Shrink Wrap","id":"1492","stops":{"origin":{"related_to":"1492","part_or_object":"p","notes":"","placename":"14000 Monte Vista Ave, Chino, CA 91710, USA","id":3540,"name":"origin","lat":"33.9985969","lon":"-117.698662","hops":{"incoming":[],"outgoing":[{"transport_id":"17","id":"1280","transport_name":"None Selected","transport_description":null,"transport_unit":"kg km","transport_co2_eq":"0.000000","from_stop_id":"3540","from_stop_lat":"33.9985969","from_stop_lon":"-117.698662","from_stop_placename":"14000 Monte Vista Ave, Chino, CA 91710, USA","to_stop_id":"181","to_stop_name":"origin","to_stop_lat":"38.67897","to_stop_lon":"-121.757946","to_stop_placename":"1376 Lemen Ave, Woodland, CA 95776, USA","to_stop":{"id":"181","name":"origin","lat":"38.67897","lon":"-121.757946","placename":"1376 Lemen Ave, Woodland, CA 95776, USA"},"from_stop":{"name":"origin","id":"3540","lat":"33.9985969","lon":"-117.698662","placename":"14000 Monte Vista Ave, Chino, CA 91710, USA"}}]}}},"processes":[],"eols":[]},{"oid":"1857","imid":"1493","linkid":"","weight":"0","rawemissions":"0","emissions":"0","shipping":"654.36","processemissions":null,"endoflifeemissions":null,"disposaltype":null,"disposalenergy":null,"disposalimpact":null,"disposalemissions":null,"description":"30' 80 gage 6000 ft per roll stretch film supplied by Sigma Industrial\n","name":"Stretch Wrap","id":"1493","stops":{"origin":{"related_to":"1493","part_or_object":"p","notes":"","placename":"1576 Omaha Ct, Riverside, CA 92507, USA","id":3541,"name":"origin","lat":"33.995088","lon":"-117.345222","hops":{"incoming":[],"outgoing":[{"transport_id":"17","id":"1281","transport_name":"None Selected","transport_description":null,"transport_unit":"kg km","transport_co2_eq":"0.000000","from_stop_id":"3541","from_stop_lat":"33.995088","from_stop_lon":"-117.345222","from_stop_placename":"1576 Omaha Ct, Riverside, CA 92507, USA","to_stop_id":"181","to_stop_name":"origin","to_stop_lat":"38.67897","to_stop_lon":"-121.757946","to_stop_placename":"1376 Lemen Ave, Woodland, CA 95776, USA","to_stop":{"id":"181","name":"origin","lat":"38.67897","lon":"-121.757946","placename":"1376 Lemen Ave, Woodland, CA 95776, USA"},"from_stop":{"name":"origin","id":"3541","lat":"33.995088","lon":"-117.345222","placename":"1576 Omaha Ct, Riverside, CA 92507, USA"}}]}}},"processes":[],"eols":[]},{"oid":"1857","imid":"1494","linkid":"","weight":"0","rawemissions":"0","emissions":"0","shipping":"4241.43","processemissions":null,"endoflifeemissions":null,"disposaltype":null,"disposalenergy":null,"disposalimpact":null,"disposalemissions":null,"description":"60lb C1S Coated, one-sided paper labels supplied by NCL Graphic Specialties, Inc\n","name":"Labels","id":"1494","stops":{"origin":{"related_to":"1494","part_or_object":"p","notes":"","placename":"Hartford St, Rumford, ME 04276, USA","id":3542,"name":"origin","lat":"44.5459969","lon":"-70.5451384","hops":{"incoming":[],"outgoing":[{"transport_id":"17","id":"1282","transport_name":"None Selected","transport_description":null,"transport_unit":"kg km","transport_co2_eq":"0.000000","from_stop_id":"3542","from_stop_lat":"44.5459969","from_stop_lon":"-70.5451384","from_stop_placename":"Hartford St, Rumford, ME 04276, USA","to_stop_id":"181","to_stop_name":"origin","to_stop_lat":"38.67897","to_stop_lon":"-121.757946","to_stop_placename":"1376 Lemen Ave, Woodland, CA 95776, USA","to_stop":{"id":"181","name":"origin","lat":"38.67897","lon":"-121.757946","placename":"1376 Lemen Ave, Woodland, CA 95776, USA"},"from_stop":{"name":"origin","id":"3542","lat":"44.5459969","lon":"-70.5451384","placename":"Hartford St, Rumford, ME 04276, USA"}}]}}},"processes":[],"eols":[]}],"user":{"name":"leo","id":"1"}}}