{"186":{"oid":"186","type":"object","flag":"","creator":"8","name":"Toothbrush","upc":"","imagelink":"","description":"A Toothbrush","slug":"toothbrush","category":"","weight":"0.2561","emissions":"3.12839542293","embodied":"2.92","transport":"0.208395422925","process":"0","endoflife":"0","shipping":"46901.86","lifetime":"0","usagetype":"","usageenergy":"0","usageemissions":"0","timecreated":"2010-02-24 22:03:35.43365","timemodified":"2010-03-01 19:43:30","visibility":"private","showfootprint":"on","showembodied":"on","showtransport":"on","showprocess":"on","showendoflife":"on","showlastleg":"on","showuse":"on","showstats":"on","stops":{"origin":{"related_to":"186","part_or_object":"o","notes":"","placename":"China","id":"1589","category":"1","lat":"35.86166","lon":"104.195397","name":"origin","hops":{"incoming":[{"transport_id":"6","id":"431","transport_name":"tanker ship","transport_description":"tanker for mobing liquids","transport_unit":"kg km","transport_co2_eq":"0.171600","from_stop_id":"2615","from_stop_lat":"28.033886","from_stop_lon":"1.659626","to_stop_id":"1589","to_stop_name":"origin","to_stop_lat":"35.86166","placename":"Algeria","to_stop_lon":"104.195397","to_stop":{"id":"1589","name":"origin","lat":"35.86166","placename":"China","lon":"104.195397"},"from_stop":{"name":"origin","id":"2615","lat":"28.033886","lon":"1.659626","placename":"Algeria"}},{"transport_id":"4","id":"432","transport_name":"automobile, 20 mpg","transport_description":"low efficiency automobile","transport_unit":"kg km","transport_co2_eq":"0.067500","from_stop_id":"2616","from_stop_lat":"23.684994","from_stop_lon":"90.356331","to_stop_id":"1589","to_stop_name":"origin","to_stop_lat":"35.86166","placename":"Bangledesh","to_stop_lon":"104.195397","to_stop":{"id":"1589","name":"origin","lat":"35.86166","placename":"China","lon":"104.195397"},"from_stop":{"name":"origin","id":"2616","lat":"23.684994","lon":"90.356331","placename":"Bangledesh"}},{"transport_id":"13","id":"433","transport_name":"air, passenger, regional","transport_description":"within one continent, kg km from person-km","transport_unit":"kg km","transport_co2_eq":"2.262000","from_stop_id":"2617","from_stop_lat":"38.237943","from_stop_lon":"-86.733597","to_stop_id":"1589","to_stop_name":"origin","to_stop_lat":"35.86166","placename":"Siberia","to_stop_lon":"104.195397","to_stop":{"id":"1589","name":"origin","lat":"35.86166","placename":"China","lon":"104.195397"},"from_stop":{"name":"origin","id":"2617","lat":"38.237943","lon":"-86.733597","placename":"Siberia"}},{"transport_id":"1","id":"434","transport_name":"van, 3.5 tons","transport_description":"delivery van, half full","transport_unit":"kg km","transport_co2_eq":"0.053400","from_stop_id":"2618","from_stop_lat":"38.301628","from_stop_lon":"-80.738559","to_stop_id":"1589","to_stop_name":"origin","to_stop_lat":"35.86166","placename":"Nile","to_stop_lon":"104.195397","to_stop":{"id":"1589","name":"origin","lat":"35.86166","placename":"China","lon":"104.195397"},"from_stop":{"name":"origin","id":"2618","lat":"38.301628","lon":"-80.738559","placename":"Nile"}},{"transport_id":"10","id":"499","transport_name":"train, freight","transport_description":"diesel freight locomotive","transport_unit":"kg km","transport_co2_eq":"0.005600","from_stop_id":"2688","from_stop_lat":"32.771621","from_stop_lon":"-89.116498","to_stop_id":"1589","to_stop_name":"origin","to_stop_lat":"35.86166","placename":"Philadelphia,MS","to_stop_lon":"104.195397","to_stop":{"id":"1589","name":"origin","lat":"35.86166","placename":"China","lon":"104.195397"},"from_stop":{"name":"origin","id":"2688","lat":"32.771621","lon":"-89.116498","placename":"Philadelphia,MS"}}],"outgoing":[]}}},"parts":[{"oid":"186","imid":"499","linkid":"","weight":"0.05","rawemissions":"5.7","emissions":"0.29","shipping":"9251.07","processemissions":null,"endoflifeemissions":null,"disposaltype":null,"disposalenergy":null,"disposalimpact":null,"disposalemissions":null,"description":"carbon fiber for composites","name":"carbon fiber","id":"499","stops":{"origin":{"related_to":"499","part_or_object":"p","notes":"","placename":"Algeria","id":2615,"name":"origin","lat":"28.033886","lon":"1.659626","hops":{"incoming":[],"outgoing":[{"transport_id":"6","id":"431","transport_name":"tanker ship","transport_description":"tanker for mobing liquids","transport_unit":"kg km","transport_co2_eq":"0.171600","from_stop_id":"2615","from_stop_lat":"28.033886","from_stop_lon":"1.659626","from_stop_placename":"Algeria","to_stop_id":"1589","to_stop_name":"origin","to_stop_lat":"35.86166","to_stop_lon":"104.195397","to_stop_placename":"China","to_stop":{"id":"1589","name":"origin","lat":"35.86166","lon":"104.195397","placename":"China"},"from_stop":{"name":"origin","id":"2615","lat":"28.033886","lon":"1.659626","placename":"Algeria"}}]}}},"processes":[],"eols":[]},{"oid":"186","imid":"500","linkid":"","weight":"0.005","rawemissions":"2.3","emissions":"0.01","shipping":"1899.99","processemissions":null,"endoflifeemissions":null,"disposaltype":null,"disposalenergy":null,"disposalimpact":null,"disposalemissions":null,"description":"Polycarbonate aka Lexan","name":"PC","id":"500","stops":{"origin":{"related_to":"500","part_or_object":"p","notes":"","placename":"Bangledesh","id":2616,"name":"origin","lat":"23.684994","lon":"90.356331","hops":{"incoming":[],"outgoing":[{"transport_id":"4","id":"432","transport_name":"automobile, 20 mpg","transport_description":"low efficiency automobile","transport_unit":"kg km","transport_co2_eq":"0.067500","from_stop_id":"2616","from_stop_lat":"23.684994","from_stop_lon":"90.356331","from_stop_placename":"Bangledesh","to_stop_id":"1589","to_stop_name":"origin","to_stop_lat":"35.86166","to_stop_lon":"104.195397","to_stop_placename":"China","to_stop":{"id":"1589","name":"origin","lat":"35.86166","lon":"104.195397","placename":"China"},"from_stop":{"name":"origin","id":"2616","lat":"23.684994","lon":"90.356331","placename":"Bangledesh"}}]}}},"processes":[],"eols":[]},{"oid":"186","imid":"501","linkid":"","weight":"0.0001","rawemissions":"19000","emissions":"1.9","shipping":"11712.3","processemissions":null,"endoflifeemissions":null,"disposaltype":null,"disposalenergy":null,"disposalimpact":null,"disposalemissions":null,"description":"Virgin rhodium used for fuel cell catalyst","name":"Rhodium virgin","id":"501","stops":{"origin":{"related_to":"501","part_or_object":"p","notes":"","placename":"Siberia","id":2617,"name":"origin","lat":"38.237943","lon":"-86.733597","hops":{"incoming":[],"outgoing":[{"transport_id":"13","id":"433","transport_name":"air, passenger, regional","transport_description":"within one continent, kg km from person-km","transport_unit":"kg km","transport_co2_eq":"2.262000","from_stop_id":"2617","from_stop_lat":"38.237943","from_stop_lon":"-86.733597","from_stop_placename":"Siberia","to_stop_id":"1589","to_stop_name":"origin","to_stop_lat":"35.86166","to_stop_lon":"104.195397","to_stop_placename":"China","to_stop":{"id":"1589","name":"origin","lat":"35.86166","lon":"104.195397","placename":"China"},"from_stop":{"name":"origin","id":"2617","lat":"38.237943","lon":"-86.733597","placename":"Siberia"}}]}}},"processes":[],"eols":[]},{"oid":"186","imid":"502","linkid":"","weight":"0.2","rawemissions":"3.6","emissions":"0.72","shipping":"11766.1","processemissions":null,"endoflifeemissions":null,"disposaltype":null,"disposalenergy":null,"disposalimpact":null,"disposalemissions":null,"description":"Average of aluminum alloys","name":"Aluminum typical","id":"502","stops":{"origin":{"related_to":"502","part_or_object":"p","notes":"","placename":"Nile","id":2618,"name":"origin","lat":"38.301628","lon":"-80.738559","hops":{"incoming":[],"outgoing":[{"transport_id":"1","id":"434","transport_name":"van, 3.5 tons","transport_description":"delivery van, half full","transport_unit":"kg km","transport_co2_eq":"0.053400","from_stop_id":"2618","from_stop_lat":"38.301628","from_stop_lon":"-80.738559","from_stop_placename":"Nile","to_stop_id":"1589","to_stop_name":"origin","to_stop_lat":"35.86166","to_stop_lon":"104.195397","to_stop_placename":"China","to_stop":{"id":"1589","name":"origin","lat":"35.86166","lon":"104.195397","placename":"China"},"from_stop":{"name":"origin","id":"2618","lat":"38.301628","lon":"-80.738559","placename":"Nile"}}]}}},"processes":[],"eols":[]},{"oid":"186","imid":"598","linkid":"","weight":"0.001","rawemissions":"0.3","emissions":"0","shipping":"12272.4","processemissions":null,"endoflifeemissions":null,"disposaltype":null,"disposalenergy":null,"disposalimpact":null,"disposalemissions":null,"description":"chemical intensive cultivation","name":"Cotton fabric","id":"598","stops":{"origin":{"related_to":"598","part_or_object":"p","notes":"","placename":"Philadelphia,MS","id":2688,"name":"origin","lat":"32.771621","lon":"-89.116498","hops":{"incoming":[],"outgoing":[{"transport_id":"10","id":"499","transport_name":"train, freight","transport_description":"diesel freight locomotive","transport_unit":"kg km","transport_co2_eq":"0.005600","from_stop_id":"2688","from_stop_lat":"32.771621","from_stop_lon":"-89.116498","from_stop_placename":"Philadelphia,MS","to_stop_id":"1589","to_stop_name":"origin","to_stop_lat":"35.86166","to_stop_lon":"104.195397","to_stop_placename":"China","to_stop":{"id":"1589","name":"origin","lat":"35.86166","lon":"104.195397","placename":"China"},"from_stop":{"name":"origin","id":"2688","lat":"32.771621","lon":"-89.116498","placename":"Philadelphia,MS"}}]}}},"processes":[],"eols":[]}],"user":{"name":"zwarg","id":"8"}}}