{"187":{"oid":"187","type":"trace","flag":"","creator":"11564","name":"Preserve Toothbrush","upc":"","imagelink":"","description":"","slug":"PTB","category":"","weight":"0","emissions":"0","embodied":"0","transport":"0","process":null,"endoflife":null,"shipping":"15808.85","lifetime":null,"usagetype":"","usageenergy":null,"usageemissions":null,"timecreated":"2010-12-11 08:33:23","timemodified":"2010-12-11 13:57:12","visibility":"public","showfootprint":"on","showembodied":"on","showtransport":"on","showprocess":"on","showendoflife":"on","showlastleg":"on","showuse":"on","showstats":"on","stops":{"origin":{"related_to":"187","part_or_object":"o","notes":null,"placename":"Grand Rapids, MI, USA","id":"8864","category":"1","lat":"42.9633599","lon":"-85.6680863","name":"origin","hops":{"incoming":[{"transport_id":null,"id":"6188","transport_name":null,"transport_description":null,"transport_unit":null,"transport_co2_eq":null,"from_stop_id":"8865","from_stop_lat":"42.5250906","from_stop_lon":"-71.759794","to_stop_id":"8864","to_stop_name":"origin","to_stop_lat":"42.9633599","placename":"Leominster, MA, USA","to_stop_lon":"-85.6680863","to_stop":{"id":"8864","name":"origin","lat":"42.9633599","placename":"Grand Rapids, MI, USA","lon":"-85.6680863"},"from_stop":{"name":"origin","id":"8865","lat":"42.5250906","lon":"-71.759794","placename":"Leominster, MA, USA"}},{"transport_id":null,"id":"6189","transport_name":null,"transport_description":null,"transport_unit":null,"transport_co2_eq":null,"from_stop_id":"8866","from_stop_lat":"42.351667","from_stop_lon":"-71.863889","to_stop_id":"8864","to_stop_name":"origin","to_stop_lat":"42.9633599","placename":"Holden, MA, USA","to_stop_lon":"-85.6680863","to_stop":{"id":"8864","name":"origin","lat":"42.9633599","placename":"Grand Rapids, MI, USA","lon":"-85.6680863"},"from_stop":{"name":"origin","id":"8866","lat":"42.351667","lon":"-71.863889","placename":"Holden, MA, USA"}},{"transport_id":null,"id":"6190","transport_name":null,"transport_description":null,"transport_unit":null,"transport_co2_eq":null,"from_stop_id":"8867","from_stop_lat":"22.543099","from_stop_lon":"114.057868","to_stop_id":"8864","to_stop_name":"origin","to_stop_lat":"42.9633599","placename":"Shenzhen, Guangdong, China","to_stop_lon":"-85.6680863","to_stop":{"id":"8864","name":"origin","lat":"42.9633599","placename":"Grand Rapids, MI, USA","lon":"-85.6680863"},"from_stop":{"name":"origin","id":"8867","lat":"22.543099","lon":"114.057868","placename":"Shenzhen, Guangdong, China"}},{"transport_id":null,"id":"6191","transport_name":null,"transport_description":null,"transport_unit":null,"transport_co2_eq":null,"from_stop_id":"8868","from_stop_lat":"41.4570418","from_stop_lon":"-72.8231552","to_stop_id":"8864","to_stop_name":"origin","to_stop_lat":"42.9633599","placename":"Wallingford, CT, USA","to_stop_lon":"-85.6680863","to_stop":{"id":"8864","name":"origin","lat":"42.9633599","placename":"Grand Rapids, MI, USA","lon":"-85.6680863"},"from_stop":{"name":"origin","id":"8868","lat":"41.4570418","lon":"-72.8231552","placename":"Wallingford, CT, USA"}}],"outgoing":[]}}},"parts":[{"oid":"187","imid":"5323","linkid":"0","weight":"0","rawemissions":"0","emissions":"0","shipping":"1136.78","processemissions":"0","endoflifeemissions":"0","disposaltype":null,"disposalenergy":null,"disposalimpact":null,"disposalemissions":null,"description":"","name":"Recycled PP","id":"5323","stops":{"origin":{"related_to":"5323","part_or_object":"p","notes":null,"placename":"Leominster, MA, USA","id":8865,"name":"origin","lat":"42.5250906","lon":"-71.759794","hops":{"incoming":[],"outgoing":[{"transport_id":null,"id":"6188","transport_name":null,"transport_description":null,"transport_unit":null,"transport_co2_eq":null,"from_stop_id":"8865","from_stop_lat":"42.5250906","from_stop_lon":"-71.759794","from_stop_placename":"Leominster, MA, USA","to_stop_id":"8864","to_stop_name":"origin","to_stop_lat":"42.9633599","to_stop_lon":"-85.6680863","to_stop_placename":"Grand Rapids, MI, USA","to_stop":{"id":"8864","name":"origin","lat":"42.9633599","lon":"-85.6680863","placename":"Grand Rapids, MI, USA"},"from_stop":{"name":"origin","id":"8865","lat":"42.5250906","lon":"-71.759794","placename":"Leominster, MA, USA"}}]}}},"processes":[],"eols":[]},{"oid":"187","imid":"5324","linkid":"0","weight":"0","rawemissions":"0","emissions":"0","shipping":"1130.87","processemissions":"0","endoflifeemissions":"0","disposaltype":null,"disposalenergy":null,"disposalimpact":null,"disposalemissions":null,"description":"","name":"Colorant","id":"5324","stops":{"origin":{"related_to":"5324","part_or_object":"p","notes":null,"placename":"Holden, MA, USA","id":8866,"name":"origin","lat":"42.351667","lon":"-71.863889","hops":{"incoming":[],"outgoing":[{"transport_id":null,"id":"6189","transport_name":null,"transport_description":null,"transport_unit":null,"transport_co2_eq":null,"from_stop_id":"8866","from_stop_lat":"42.351667","from_stop_lon":"-71.863889","from_stop_placename":"Holden, MA, USA","to_stop_id":"8864","to_stop_name":"origin","to_stop_lat":"42.9633599","to_stop_lon":"-85.6680863","to_stop_placename":"Grand Rapids, MI, USA","to_stop":{"id":"8864","name":"origin","lat":"42.9633599","lon":"-85.6680863","placename":"Grand Rapids, MI, USA"},"from_stop":{"name":"origin","id":"8866","lat":"42.351667","lon":"-71.863889","placename":"Holden, MA, USA"}}]}}},"processes":[],"eols":[]},{"oid":"187","imid":"5325","linkid":"0","weight":"0","rawemissions":"0","emissions":"0","shipping":"12470","processemissions":"0","endoflifeemissions":"0","disposaltype":null,"disposalenergy":null,"disposalimpact":null,"disposalemissions":null,"description":"http:\/\/www2.dupont.com\/Filaments\/en_US\/products\/toothbrush.html","name":"Nylon Bristles","id":"5325","stops":{"origin":{"related_to":"5325","part_or_object":"p","notes":null,"placename":"Shenzhen, Guangdong, China","id":8867,"name":"origin","lat":"22.543099","lon":"114.057868","hops":{"incoming":[],"outgoing":[{"transport_id":null,"id":"6190","transport_name":null,"transport_description":null,"transport_unit":null,"transport_co2_eq":null,"from_stop_id":"8867","from_stop_lat":"22.543099","from_stop_lon":"114.057868","from_stop_placename":"Shenzhen, Guangdong, China","to_stop_id":"8864","to_stop_name":"origin","to_stop_lat":"42.9633599","to_stop_lon":"-85.6680863","to_stop_placename":"Grand Rapids, MI, USA","to_stop":{"id":"8864","name":"origin","lat":"42.9633599","lon":"-85.6680863","placename":"Grand Rapids, MI, USA"},"from_stop":{"name":"origin","id":"8867","lat":"22.543099","lon":"114.057868","placename":"Shenzhen, Guangdong, China"}}]}}},"processes":[],"eols":[]},{"oid":"187","imid":"5326","linkid":"0","weight":"0","rawemissions":"0","emissions":"0","shipping":"1071.2","processemissions":"0","endoflifeemissions":"0","disposaltype":null,"disposalenergy":null,"disposalimpact":null,"disposalemissions":null,"description":"ametekmetals.com","name":"Metal Staples","id":"5326","stops":{"origin":{"related_to":"5326","part_or_object":"p","notes":null,"placename":"Wallingford, CT, USA","id":8868,"name":"origin","lat":"41.4570418","lon":"-72.8231552","hops":{"incoming":[],"outgoing":[{"transport_id":null,"id":"6191","transport_name":null,"transport_description":null,"transport_unit":null,"transport_co2_eq":null,"from_stop_id":"8868","from_stop_lat":"41.4570418","from_stop_lon":"-72.8231552","from_stop_placename":"Wallingford, CT, USA","to_stop_id":"8864","to_stop_name":"origin","to_stop_lat":"42.9633599","to_stop_lon":"-85.6680863","to_stop_placename":"Grand Rapids, MI, USA","to_stop":{"id":"8864","name":"origin","lat":"42.9633599","lon":"-85.6680863","placename":"Grand Rapids, MI, USA"},"from_stop":{"name":"origin","id":"8868","lat":"41.4570418","lon":"-72.8231552","placename":"Wallingford, CT, USA"}}]}}},"processes":[],"eols":[]}],"user":{"name":"John Lively","id":"11564"}}}