{"190":{"oid":"190","type":"object","flag":"","creator":"1","name":"0.5L Bottle of Fiji Water","upc":"","imagelink":"","description":"<a href=\"http:\/\/www.triplepundit.com\/pages\/askpablo-exotic-1.php\">Ask Pablo<\/a> estimates this impact at 250g per 1 L bottle. By my estimation, the bottle in Fiji has 140g of CO2e, and this balloons to 460g CO2e once it arrives in Boston.","slug":"0-5l-bottle-of-fiji-water","category":"","weight":"1.018","emissions":"0.13845","embodied":"0.13","transport":"0.0084499","process":"0","endoflife":"0","shipping":"19641.8","lifetime":"0","usagetype":"","usageenergy":"0","usageemissions":"0","timecreated":"2010-02-24 22:03:35.438231","timemodified":"2009-07-25 01:27:46","visibility":"public","showfootprint":"on","showembodied":"on","showtransport":"on","showprocess":"on","showendoflife":"on","showlastleg":"on","showuse":"on","showstats":"on","stops":{"origin":{"related_to":"190","part_or_object":"o","notes":"","placename":"Fiji","id":"42","category":"1","lat":"-16.578193","lon":"179.414413","name":"origin","hops":{"incoming":[{"transport_id":"9","id":"441","transport_name":"container ship","transport_description":"moving boxcar size containers","transport_unit":"kg km","transport_co2_eq":"0.047800","from_stop_id":"2625","from_stop_lat":"35.86166","from_stop_lon":"104.195397","to_stop_id":"42","to_stop_name":"origin","to_stop_lat":"-16.578193","placename":"China","to_stop_lon":"179.414413","to_stop":{"id":"42","name":"origin","lat":"-16.578193","placename":"Fiji","lon":"179.414413"},"from_stop":{"name":"origin","id":"2625","lat":"35.86166","lon":"104.195397","placename":"China"}},{"transport_id":"9","id":"442","transport_name":"container ship","transport_description":"moving boxcar size containers","transport_unit":"kg km","transport_co2_eq":"0.047800","from_stop_id":"2626","from_stop_lat":"-16.578193","from_stop_lon":"179.414413","to_stop_id":"42","to_stop_name":"origin","to_stop_lat":"-16.578193","placename":"Fiji","to_stop_lon":"179.414413","to_stop":{"id":"42","name":"origin","lat":"-16.578193","placename":"Fiji","lon":"179.414413"},"from_stop":{"name":"origin","id":"2626","lat":"-16.578193","lon":"179.414413","placename":"Fiji"}},{"transport_id":"9","id":"497","transport_name":"container ship","transport_description":"moving boxcar size containers","transport_unit":"kg km","transport_co2_eq":"0.047800","from_stop_id":"2686","from_stop_lat":"35.86166","from_stop_lon":"104.195397","to_stop_id":"42","to_stop_name":"origin","to_stop_lat":"-16.578193","placename":"China","to_stop_lon":"179.414413","to_stop":{"id":"42","name":"origin","lat":"-16.578193","placename":"Fiji","lon":"179.414413"},"from_stop":{"name":"origin","id":"2686","lat":"35.86166","lon":"104.195397","placename":"China"}}],"outgoing":[]}}},"parts":[{"oid":"190","imid":"509","linkid":"","weight":"0.015","rawemissions":"1.1","emissions":"0.02","shipping":"9820.9","processemissions":null,"endoflifeemissions":null,"disposaltype":null,"disposalenergy":null,"disposalimpact":null,"disposalemissions":null,"description":"Virgin polyethylene terephthalate","name":"PET virgin","id":"509","stops":{"origin":{"related_to":"509","part_or_object":"p","notes":"","placename":"China","id":2625,"name":"origin","lat":"35.86166","lon":"104.195397","hops":{"incoming":[],"outgoing":[{"transport_id":"9","id":"441","transport_name":"container ship","transport_description":"moving boxcar size containers","transport_unit":"kg km","transport_co2_eq":"0.047800","from_stop_id":"2625","from_stop_lat":"35.86166","from_stop_lon":"104.195397","from_stop_placename":"China","to_stop_id":"42","to_stop_name":"origin","to_stop_lat":"-16.578193","to_stop_lon":"179.414413","to_stop_placename":"Fiji","to_stop":{"id":"42","name":"origin","lat":"-16.578193","lon":"179.414413","placename":"Fiji"},"from_stop":{"name":"origin","id":"2625","lat":"35.86166","lon":"104.195397","placename":"China"}}]}}},"processes":[],"eols":[]},{"oid":"190","imid":"510","linkid":"","weight":"1","rawemissions":"0.1076","emissions":"0.11","shipping":"0","processemissions":null,"endoflifeemissions":null,"disposaltype":null,"disposalenergy":null,"disposalimpact":null,"disposalemissions":null,"description":"Water from a local source renewed annually","name":"Water","id":"510","stops":{"origin":{"related_to":"510","part_or_object":"p","notes":"","placename":"Fiji","id":2626,"name":"origin","lat":"-16.578193","lon":"179.414413","hops":{"incoming":[],"outgoing":[{"transport_id":"9","id":"442","transport_name":"container ship","transport_description":"moving boxcar size containers","transport_unit":"kg km","transport_co2_eq":"0.047800","from_stop_id":"2626","from_stop_lat":"-16.578193","from_stop_lon":"179.414413","from_stop_placename":"Fiji","to_stop_id":"42","to_stop_name":"origin","to_stop_lat":"-16.578193","to_stop_lon":"179.414413","to_stop_placename":"Fiji","to_stop":{"id":"42","name":"origin","lat":"-16.578193","lon":"179.414413","placename":"Fiji"},"from_stop":{"name":"origin","id":"2626","lat":"-16.578193","lon":"179.414413","placename":"Fiji"}}]}}},"processes":[],"eols":[]},{"oid":"190","imid":"592","linkid":"","weight":"0.003","rawemissions":"0.84","emissions":"0","shipping":"9820.9","processemissions":null,"endoflifeemissions":null,"disposaltype":null,"disposalenergy":null,"disposalimpact":null,"disposalemissions":null,"description":"Virgin polypropylene","name":"PP virgin","id":"592","stops":{"origin":{"related_to":"592","part_or_object":"p","notes":"","placename":"China","id":2686,"name":"origin","lat":"35.86166","lon":"104.195397","hops":{"incoming":[],"outgoing":[{"transport_id":"9","id":"497","transport_name":"container ship","transport_description":"moving boxcar size containers","transport_unit":"kg km","transport_co2_eq":"0.047800","from_stop_id":"2686","from_stop_lat":"35.86166","from_stop_lon":"104.195397","from_stop_placename":"China","to_stop_id":"42","to_stop_name":"origin","to_stop_lat":"-16.578193","to_stop_lon":"179.414413","to_stop_placename":"Fiji","to_stop":{"id":"42","name":"origin","lat":"-16.578193","lon":"179.414413","placename":"Fiji"},"from_stop":{"name":"origin","id":"2686","lat":"35.86166","lon":"104.195397","placename":"China"}}]}}},"processes":[],"eols":[]}],"user":{"name":"leo","id":"1"}}}