{"195":{"oid":"195","type":"object","flag":"","creator":"1","name":"iPod","upc":"","imagelink":"","description":"","slug":"ipod","category":"","weight":"4.71","emissions":"601.624","embodied":"601.52","transport":"0.104215","process":"0","endoflife":"0","shipping":"9521.8","lifetime":"0","usagetype":"","usageenergy":"0","usageemissions":"0","timecreated":"2010-02-24 22:03:35.441563","timemodified":"2009-05-20 20:25:03","visibility":"public","showfootprint":"on","showembodied":"on","showtransport":"on","showprocess":"on","showendoflife":"on","showlastleg":"on","showuse":"on","showstats":"on","stops":{"origin":{"related_to":"195","part_or_object":"o","notes":"","placename":"Shenzen China","id":"44","category":"1","lat":"31.7199904","lon":"121.3007633","name":"origin","hops":{"incoming":[{"transport_id":"3","id":"444","transport_name":"truck, 40 tons","transport_description":"truck, half full","transport_unit":"kg km","transport_co2_eq":"0.030900","from_stop_id":"2628","from_stop_lat":"35.86166","from_stop_lon":"104.195397","to_stop_id":"44","to_stop_name":"origin","to_stop_lat":"31.7199904","placename":"China","to_stop_lon":"121.3007633","to_stop":{"id":"44","name":"origin","lat":"31.7199904","placename":"Shenzen China","lon":"121.3007633"},"from_stop":{"name":"origin","id":"2628","lat":"35.86166","lon":"104.195397","placename":"China"}},{"transport_id":"3","id":"445","transport_name":"truck, 40 tons","transport_description":"truck, half full","transport_unit":"kg km","transport_co2_eq":"0.030900","from_stop_id":"2629","from_stop_lat":"61.52401","from_stop_lon":"105.318756","to_stop_id":"44","to_stop_name":"origin","to_stop_lat":"31.7199904","placename":"Russia","to_stop_lon":"121.3007633","to_stop":{"id":"44","name":"origin","lat":"31.7199904","placename":"Shenzen China","lon":"121.3007633"},"from_stop":{"name":"origin","id":"2629","lat":"61.52401","lon":"105.318756","placename":"Russia"}},{"transport_id":"15","id":"446","transport_name":"air, freight, regional","transport_description":"freight within one continent","transport_unit":"kg km","transport_co2_eq":"0.787500","from_stop_id":"2630","from_stop_lat":"23.69781","from_stop_lon":"120.960515","to_stop_id":"44","to_stop_name":"origin","to_stop_lat":"31.7199904","placename":"Taiwan","to_stop_lon":"121.3007633","to_stop":{"id":"44","name":"origin","lat":"31.7199904","placename":"Shenzen China","lon":"121.3007633"},"from_stop":{"name":"origin","id":"2630","lat":"23.69781","lon":"120.960515","placename":"Taiwan"}},{"transport_id":"9","id":"447","transport_name":"container ship","transport_description":"moving boxcar size containers","transport_unit":"kg km","transport_co2_eq":"0.047800","from_stop_id":"2631","from_stop_lat":"35.907757","from_stop_lon":"127.766922","to_stop_id":"44","to_stop_name":"origin","to_stop_lat":"31.7199904","placename":"Korea","to_stop_lon":"121.3007633","to_stop":{"id":"44","name":"origin","lat":"31.7199904","placename":"Shenzen China","lon":"121.3007633"},"from_stop":{"name":"origin","id":"2631","lat":"35.907757","lon":"127.766922","placename":"Korea"}},{"transport_id":"8","id":"448","transport_name":"freighter, oceanic","transport_description":"","transport_unit":"kg km","transport_co2_eq":"0.004200","from_stop_id":"2632","from_stop_lat":"36.204824","from_stop_lon":"138.252924","to_stop_id":"44","to_stop_name":"origin","to_stop_lat":"31.7199904","placename":"Japan","to_stop_lon":"121.3007633","to_stop":{"id":"44","name":"origin","lat":"31.7199904","placename":"Shenzen China","lon":"121.3007633"},"from_stop":{"name":"origin","id":"2632","lat":"36.204824","lon":"138.252924","placename":"Japan"}},{"transport_id":"5","id":"449","transport_name":"automobile, 50 mpg","transport_description":"high efficiency automobile","transport_unit":"kg km","transport_co2_eq":"0.026400","from_stop_id":"2633","from_stop_lat":"39.9081726","from_stop_lon":"116.3979471","to_stop_id":"44","to_stop_name":"origin","to_stop_lat":"31.7199904","placename":"Beijing","to_stop_lon":"121.3007633","to_stop":{"id":"44","name":"origin","lat":"31.7199904","placename":"Shenzen China","lon":"121.3007633"},"from_stop":{"name":"origin","id":"2633","lat":"39.9081726","lon":"116.3979471","placename":"Beijing"}},{"transport_id":"12","id":"450","transport_name":"train, long-distance","transport_description":"> 640 km, diesel, kg km from person-km","transport_unit":"kg km","transport_co2_eq":"0.043500","from_stop_id":"2634","from_stop_lat":"31.2243531","from_stop_lon":"121.4759159","to_stop_id":"44","to_stop_name":"origin","to_stop_lat":"31.7199904","placename":"Shanghai","to_stop_lon":"121.3007633","to_stop":{"id":"44","name":"origin","lat":"31.7199904","placename":"Shenzen China","lon":"121.3007633"},"from_stop":{"name":"origin","id":"2634","lat":"31.2243531","lon":"121.4759159","placename":"Shanghai"}}],"outgoing":[]}}},"parts":[{"oid":"195","imid":"512","linkid":"","weight":"0.15","rawemissions":"2.3","emissions":"0.35","shipping":"1645.76","processemissions":null,"endoflifeemissions":null,"disposaltype":null,"disposalenergy":null,"disposalimpact":null,"disposalemissions":null,"description":"Polycarbonate aka Lexan","name":"PC","id":"512","stops":{"origin":{"related_to":"512","part_or_object":"p","notes":"","placename":"China","id":2628,"name":"origin","lat":"35.86166","lon":"104.195397","hops":{"incoming":[],"outgoing":[{"transport_id":"3","id":"444","transport_name":"truck, 40 tons","transport_description":"truck, half full","transport_unit":"kg km","transport_co2_eq":"0.030900","from_stop_id":"2628","from_stop_lat":"35.86166","from_stop_lon":"104.195397","from_stop_placename":"China","to_stop_id":"44","to_stop_name":"origin","to_stop_lat":"31.7199904","to_stop_lon":"121.3007633","to_stop_placename":"Shenzen China","to_stop":{"id":"44","name":"origin","lat":"31.7199904","lon":"121.3007633","placename":"Shenzen China"},"from_stop":{"name":"origin","id":"2628","lat":"35.86166","lon":"104.195397","placename":"China"}}]}}},"processes":[],"eols":[]},{"oid":"195","imid":"513","linkid":"","weight":"0.25","rawemissions":"2.2","emissions":"0.55","shipping":"3513.71","processemissions":null,"endoflifeemissions":null,"disposaltype":null,"disposalenergy":null,"disposalimpact":null,"disposalemissions":null,"description":"Superaustenitic 18 8 stainless steel","name":"Stainless Steel","id":"513","stops":{"origin":{"related_to":"513","part_or_object":"p","notes":"","placename":"Russia","id":2629,"name":"origin","lat":"61.52401","lon":"105.318756","hops":{"incoming":[],"outgoing":[{"transport_id":"3","id":"445","transport_name":"truck, 40 tons","transport_description":"truck, half full","transport_unit":"kg km","transport_co2_eq":"0.030900","from_stop_id":"2629","from_stop_lat":"61.52401","from_stop_lon":"105.318756","from_stop_placename":"Russia","to_stop_id":"44","to_stop_name":"origin","to_stop_lat":"31.7199904","to_stop_lon":"121.3007633","to_stop_placename":"Shenzen China","to_stop":{"id":"44","name":"origin","lat":"31.7199904","lon":"121.3007633","placename":"Shenzen China"},"from_stop":{"name":"origin","id":"2629","lat":"61.52401","lon":"105.318756","placename":"Russia"}}]}}},"processes":[],"eols":[]},{"oid":"195","imid":"514","linkid":"","weight":"0.05","rawemissions":"12000","emissions":"600","shipping":"893.65","processemissions":null,"endoflifeemissions":null,"disposaltype":null,"disposalenergy":null,"disposalimpact":null,"disposalemissions":null,"description":"IC board RoHS compliant","name":"Integrated circuitry RoHS","id":"514","stops":{"origin":{"related_to":"514","part_or_object":"p","notes":"","placename":"Taiwan","id":2630,"name":"origin","lat":"23.69781","lon":"120.960515","hops":{"incoming":[],"outgoing":[{"transport_id":"15","id":"446","transport_name":"air, freight, regional","transport_description":"freight within one continent","transport_unit":"kg km","transport_co2_eq":"0.787500","from_stop_id":"2630","from_stop_lat":"23.69781","from_stop_lon":"120.960515","from_stop_placename":"Taiwan","to_stop_id":"44","to_stop_name":"origin","to_stop_lat":"31.7199904","to_stop_lon":"121.3007633","to_stop_placename":"Shenzen China","to_stop":{"id":"44","name":"origin","lat":"31.7199904","lon":"121.3007633","placename":"Shenzen China"},"from_stop":{"name":"origin","id":"2630","lat":"23.69781","lon":"120.960515","placename":"Taiwan"}}]}}},"processes":[],"eols":[]},{"oid":"195","imid":"515","linkid":"","weight":"0.05","rawemissions":"0.29","emissions":"0.01","shipping":"757.96","processemissions":null,"endoflifeemissions":null,"disposaltype":null,"disposalenergy":null,"disposalimpact":null,"disposalemissions":null,"description":"Thermal coated float glass","name":"Glass type e window","id":"515","stops":{"origin":{"related_to":"515","part_or_object":"p","notes":"","placename":"Korea","id":2631,"name":"origin","lat":"35.907757","lon":"127.766922","hops":{"incoming":[],"outgoing":[{"transport_id":"9","id":"447","transport_name":"container ship","transport_description":"moving boxcar size containers","transport_unit":"kg km","transport_co2_eq":"0.047800","from_stop_id":"2631","from_stop_lat":"35.907757","from_stop_lon":"127.766922","from_stop_placename":"Korea","to_stop_id":"44","to_stop_name":"origin","to_stop_lat":"31.7199904","to_stop_lon":"121.3007633","to_stop_placename":"Shenzen China","to_stop":{"id":"44","name":"origin","lat":"31.7199904","lon":"121.3007633","placename":"Shenzen China"},"from_stop":{"name":"origin","id":"2631","lat":"35.907757","lon":"127.766922","placename":"Korea"}}]}}},"processes":[],"eols":[]},{"oid":"195","imid":"516","linkid":"","weight":"4","rawemissions":"0.081","emissions":"0.32","shipping":"1640.26","processemissions":null,"endoflifeemissions":null,"disposaltype":null,"disposalenergy":null,"disposalimpact":null,"disposalemissions":null,"description":"rechargeable","name":"Battery lithium ion","id":"516","stops":{"origin":{"related_to":"516","part_or_object":"p","notes":"","placename":"Japan","id":2632,"name":"origin","lat":"36.204824","lon":"138.252924","hops":{"incoming":[],"outgoing":[{"transport_id":"8","id":"448","transport_name":"freighter, oceanic","transport_description":"","transport_unit":"kg km","transport_co2_eq":"0.004200","from_stop_id":"2632","from_stop_lat":"36.204824","from_stop_lon":"138.252924","from_stop_placename":"Japan","to_stop_id":"44","to_stop_name":"origin","to_stop_lat":"31.7199904","to_stop_lon":"121.3007633","to_stop_placename":"Shenzen China","to_stop":{"id":"44","name":"origin","lat":"31.7199904","lon":"121.3007633","placename":"Shenzen China"},"from_stop":{"name":"origin","id":"2632","lat":"36.204824","lon":"138.252924","placename":"Japan"}}]}}},"processes":[],"eols":[]},{"oid":"195","imid":"517","linkid":"","weight":"0.18","rawemissions":"1.4","emissions":"0.25","shipping":"1012.83","processemissions":null,"endoflifeemissions":null,"disposaltype":null,"disposalenergy":null,"disposalimpact":null,"disposalemissions":null,"description":"Acrylonitrile butadiene styrene","name":"ABS ","id":"517","stops":{"origin":{"related_to":"517","part_or_object":"p","notes":"","placename":"Beijing","id":2633,"name":"origin","lat":"39.9081726","lon":"116.3979471","hops":{"incoming":[],"outgoing":[{"transport_id":"5","id":"449","transport_name":"automobile, 50 mpg","transport_description":"high efficiency automobile","transport_unit":"kg km","transport_co2_eq":"0.026400","from_stop_id":"2633","from_stop_lat":"39.9081726","from_stop_lon":"116.3979471","from_stop_placename":"Beijing","to_stop_id":"44","to_stop_name":"origin","to_stop_lat":"31.7199904","to_stop_lon":"121.3007633","to_stop_placename":"Shenzen China","to_stop":{"id":"44","name":"origin","lat":"31.7199904","lon":"121.3007633","placename":"Shenzen China"},"from_stop":{"name":"origin","id":"2633","lat":"39.9081726","lon":"116.3979471","placename":"Beijing"}}]}}},"processes":[],"eols":[]},{"oid":"195","imid":"518","linkid":"","weight":"0.03","rawemissions":"1.2","emissions":"0.04","shipping":"57.63","processemissions":null,"endoflifeemissions":null,"disposaltype":null,"disposalenergy":null,"disposalimpact":null,"disposalemissions":null,"description":"Flexible polyvinyl chloride without lead phthalates or DEHP","name":"PVC flexible","id":"518","stops":{"origin":{"related_to":"518","part_or_object":"p","notes":"","placename":"Shanghai","id":2634,"name":"origin","lat":"31.2243531","lon":"121.4759159","hops":{"incoming":[],"outgoing":[{"transport_id":"12","id":"450","transport_name":"train, long-distance","transport_description":"> 640 km, diesel, kg km from person-km","transport_unit":"kg km","transport_co2_eq":"0.043500","from_stop_id":"2634","from_stop_lat":"31.2243531","from_stop_lon":"121.4759159","from_stop_placename":"Shanghai","to_stop_id":"44","to_stop_name":"origin","to_stop_lat":"31.7199904","to_stop_lon":"121.3007633","to_stop_placename":"Shenzen China","to_stop":{"id":"44","name":"origin","lat":"31.7199904","lon":"121.3007633","placename":"Shenzen China"},"from_stop":{"name":"origin","id":"2634","lat":"31.2243531","lon":"121.4759159","placename":"Shanghai"}}]}}},"processes":[],"eols":[]}],"user":{"name":"leo","id":"1"}}}