{"200":{"oid":"200","type":"trace","flag":"","creator":"11602","name":"SABMiller -Flagship brands","upc":"","imagelink":"","description":"Colombia","slug":"SABMiller","category":"","weight":"0","emissions":"0","embodied":"0","transport":"0","process":null,"endoflife":null,"shipping":"76307.98","lifetime":null,"usagetype":"","usageenergy":null,"usageemissions":null,"timecreated":"2010-12-13 13:54:47","timemodified":"2011-01-02 07:48:14","visibility":"public","showfootprint":"on","showembodied":"on","showtransport":"on","showprocess":"on","showendoflife":"on","showlastleg":"on","showuse":"on","showstats":"on","stops":{"origin":{"related_to":"200","part_or_object":"o","notes":null,"placename":"Westminster, Lond\u00fdn, Velk\u00e1 Brit\u00e1nie","id":"9277","category":"1","lat":"51.5001524","lon":"-0.1262362","name":"origin","hops":{"incoming":[{"transport_id":null,"id":"6524","transport_name":null,"transport_description":null,"transport_unit":null,"transport_co2_eq":null,"from_stop_id":"9278","from_stop_lat":"4.570868","from_stop_lon":"-74.297333","to_stop_id":"9277","to_stop_name":"origin","to_stop_lat":"51.5001524","placename":"Kolumbie","to_stop_lon":"-0.1262362","to_stop":{"id":"9277","name":"origin","lat":"51.5001524","placename":"Westminster, Lond\u00fdn, Velk\u00e1 Brit\u00e1nie","lon":"-0.1262362"},"from_stop":{"name":"origin","id":"9278","lat":"4.570868","lon":"-74.297333","placename":"Kolumbie"}},{"transport_id":null,"id":"6525","transport_name":null,"transport_description":null,"transport_unit":null,"transport_co2_eq":null,"from_stop_id":"9279","from_stop_lat":"37.09024","from_stop_lon":"-95.712891","to_stop_id":"9277","to_stop_name":"origin","to_stop_lat":"51.5001524","placename":"Spojen\u00e9 st\u00e1ty americk\u00e9","to_stop_lon":"-0.1262362","to_stop":{"id":"9277","name":"origin","lat":"51.5001524","placename":"Westminster, Lond\u00fdn, Velk\u00e1 Brit\u00e1nie","lon":"-0.1262362"},"from_stop":{"name":"origin","id":"9279","lat":"37.09024","lon":"-95.712891","placename":"Spojen\u00e9 st\u00e1ty americk\u00e9"}},{"transport_id":null,"id":"6526","transport_name":null,"transport_description":null,"transport_unit":null,"transport_co2_eq":null,"from_stop_id":"9280","from_stop_lat":"-30.559482","from_stop_lon":"22.937506","to_stop_id":"9277","to_stop_name":"origin","to_stop_lat":"51.5001524","placename":"Jihoafrick\u00e1 republika","to_stop_lon":"-0.1262362","to_stop":{"id":"9277","name":"origin","lat":"51.5001524","placename":"Westminster, Lond\u00fdn, Velk\u00e1 Brit\u00e1nie","lon":"-0.1262362"},"from_stop":{"name":"origin","id":"9280","lat":"-30.559482","lon":"22.937506","placename":"Jihoafrick\u00e1 republika"}},{"transport_id":null,"id":"6527","transport_name":null,"transport_description":null,"transport_unit":null,"transport_co2_eq":null,"from_stop_id":"9281","from_stop_lat":"47.162494","from_stop_lon":"19.503304","to_stop_id":"9277","to_stop_name":"origin","to_stop_lat":"51.5001524","placename":"Ma\u010farsko","to_stop_lon":"-0.1262362","to_stop":{"id":"9277","name":"origin","lat":"51.5001524","placename":"Westminster, Lond\u00fdn, Velk\u00e1 Brit\u00e1nie","lon":"-0.1262362"},"from_stop":{"name":"origin","id":"9281","lat":"47.162494","lon":"19.503304","placename":"Ma\u010farsko"}},{"transport_id":null,"id":"6528","transport_name":null,"transport_description":null,"transport_unit":null,"transport_co2_eq":null,"from_stop_id":"9282","from_stop_lat":"49.817492","from_stop_lon":"15.472962","to_stop_id":"9277","to_stop_name":"origin","to_stop_lat":"51.5001524","placename":"\u010cesk\u00e1 republika","to_stop_lon":"-0.1262362","to_stop":{"id":"9277","name":"origin","lat":"51.5001524","placename":"Westminster, Lond\u00fdn, Velk\u00e1 Brit\u00e1nie","lon":"-0.1262362"},"from_stop":{"name":"origin","id":"9282","lat":"49.817492","lon":"15.472962","placename":"\u010cesk\u00e1 republika"}},{"transport_id":null,"id":"6529","transport_name":null,"transport_description":null,"transport_unit":null,"transport_co2_eq":null,"from_stop_id":"9283","from_stop_lat":"52.132633","from_stop_lon":"5.291266","to_stop_id":"9277","to_stop_name":"origin","to_stop_lat":"51.5001524","placename":"Nizozemsko","to_stop_lon":"-0.1262362","to_stop":{"id":"9277","name":"origin","lat":"51.5001524","placename":"Westminster, Lond\u00fdn, Velk\u00e1 Brit\u00e1nie","lon":"-0.1262362"},"from_stop":{"name":"origin","id":"9283","lat":"52.132633","lon":"5.291266","placename":"Nizozemsko"}},{"transport_id":null,"id":"6530","transport_name":null,"transport_description":null,"transport_unit":null,"transport_co2_eq":null,"from_stop_id":"9284","from_stop_lat":"20.593684","from_stop_lon":"78.96288","to_stop_id":"9277","to_stop_name":"origin","to_stop_lat":"51.5001524","placename":"Indie","to_stop_lon":"-0.1262362","to_stop":{"id":"9277","name":"origin","lat":"51.5001524","placename":"Westminster, Lond\u00fdn, Velk\u00e1 Brit\u00e1nie","lon":"-0.1262362"},"from_stop":{"name":"origin","id":"9284","lat":"20.593684","lon":"78.96288","placename":"Indie"}},{"transport_id":null,"id":"6531","transport_name":null,"transport_description":null,"transport_unit":null,"transport_co2_eq":null,"from_stop_id":"9285","from_stop_lat":"15.199999","from_stop_lon":"-86.241905","to_stop_id":"9277","to_stop_name":"origin","to_stop_lat":"51.5001524","placename":"Honduras","to_stop_lon":"-0.1262362","to_stop":{"id":"9277","name":"origin","lat":"51.5001524","placename":"Westminster, Lond\u00fdn, Velk\u00e1 Brit\u00e1nie","lon":"-0.1262362"},"from_stop":{"name":"origin","id":"9285","lat":"15.199999","lon":"-86.241905","placename":"Honduras"}},{"transport_id":null,"id":"6532","transport_name":null,"transport_description":null,"transport_unit":null,"transport_co2_eq":null,"from_stop_id":"9286","from_stop_lat":"-11.202692","from_stop_lon":"17.873887","to_stop_id":"9277","to_stop_name":"origin","to_stop_lat":"51.5001524","placename":"Angola","to_stop_lon":"-0.1262362","to_stop":{"id":"9277","name":"origin","lat":"51.5001524","placename":"Westminster, Lond\u00fdn, Velk\u00e1 Brit\u00e1nie","lon":"-0.1262362"},"from_stop":{"name":"origin","id":"9286","lat":"-11.202692","lon":"17.873887","placename":"Angola"}},{"transport_id":null,"id":"6533","transport_name":null,"transport_description":null,"transport_unit":null,"transport_co2_eq":null,"from_stop_id":"9287","from_stop_lat":"41.87194","from_stop_lon":"12.56738","to_stop_id":"9277","to_stop_name":"origin","to_stop_lat":"51.5001524","placename":"It\u00e1lie","to_stop_lon":"-0.1262362","to_stop":{"id":"9277","name":"origin","lat":"51.5001524","placename":"Westminster, Lond\u00fdn, Velk\u00e1 Brit\u00e1nie","lon":"-0.1262362"},"from_stop":{"name":"origin","id":"9287","lat":"41.87194","lon":"12.56738","placename":"It\u00e1lie"}},{"transport_id":null,"id":"6534","transport_name":null,"transport_description":null,"transport_unit":null,"transport_co2_eq":null,"from_stop_id":"9288","from_stop_lat":"35.86166","from_stop_lon":"104.195397","to_stop_id":"9277","to_stop_name":"origin","to_stop_lat":"51.5001524","placename":"\u010c\u00ednsk\u00e1 lidov\u00e1 republika","to_stop_lon":"-0.1262362","to_stop":{"id":"9277","name":"origin","lat":"51.5001524","placename":"Westminster, Lond\u00fdn, Velk\u00e1 Brit\u00e1nie","lon":"-0.1262362"},"from_stop":{"name":"origin","id":"9288","lat":"35.86166","lon":"104.195397","placename":"\u010c\u00ednsk\u00e1 lidov\u00e1 republika"}},{"transport_id":null,"id":"6535","transport_name":null,"transport_description":null,"transport_unit":null,"transport_co2_eq":null,"from_stop_id":"9289","from_stop_lat":"-22.328474","from_stop_lon":"24.684866","to_stop_id":"9277","to_stop_name":"origin","to_stop_lat":"51.5001524","placename":"Botswana","to_stop_lon":"-0.1262362","to_stop":{"id":"9277","name":"origin","lat":"51.5001524","placename":"Westminster, Lond\u00fdn, Velk\u00e1 Brit\u00e1nie","lon":"-0.1262362"},"from_stop":{"name":"origin","id":"9289","lat":"-22.328474","lon":"24.684866","placename":"Botswana"}},{"transport_id":null,"id":"6536","transport_name":null,"transport_description":null,"transport_unit":null,"transport_co2_eq":null,"from_stop_id":"9290","from_stop_lat":"51.919438","from_stop_lon":"19.145136","to_stop_id":"9277","to_stop_name":"origin","to_stop_lat":"51.5001524","placename":"Polsko","to_stop_lon":"-0.1262362","to_stop":{"id":"9277","name":"origin","lat":"51.5001524","placename":"Westminster, Lond\u00fdn, Velk\u00e1 Brit\u00e1nie","lon":"-0.1262362"},"from_stop":{"name":"origin","id":"9290","lat":"51.919438","lon":"19.145136","placename":"Polsko"}},{"transport_id":null,"id":"6537","transport_name":null,"transport_description":null,"transport_unit":null,"transport_co2_eq":null,"from_stop_id":"9291","from_stop_lat":"61.52401","from_stop_lon":"105.318756","to_stop_id":"9277","to_stop_name":"origin","to_stop_lat":"51.5001524","placename":"Rusko","to_stop_lon":"-0.1262362","to_stop":{"id":"9277","name":"origin","lat":"51.5001524","placename":"Westminster, Lond\u00fdn, Velk\u00e1 Brit\u00e1nie","lon":"-0.1262362"},"from_stop":{"name":"origin","id":"9291","lat":"61.52401","lon":"105.318756","placename":"Rusko"}}],"outgoing":[]}}},"parts":[{"oid":"200","imid":"5497","linkid":"0","weight":"0","rawemissions":"0","emissions":"0","shipping":"8527.86","processemissions":"0","endoflifeemissions":"0","disposaltype":null,"disposalenergy":null,"disposalimpact":null,"disposalemissions":null,"description":"","name":"Aguila","id":"5497","stops":{"origin":{"related_to":"5497","part_or_object":"p","notes":null,"placename":"Kolumbie","id":9278,"name":"origin","lat":"4.570868","lon":"-74.297333","hops":{"incoming":[],"outgoing":[{"transport_id":null,"id":"6524","transport_name":null,"transport_description":null,"transport_unit":null,"transport_co2_eq":null,"from_stop_id":"9278","from_stop_lat":"4.570868","from_stop_lon":"-74.297333","from_stop_placename":"Kolumbie","to_stop_id":"9277","to_stop_name":"origin","to_stop_lat":"51.5001524","to_stop_lon":"-0.1262362","to_stop_placename":"Westminster, Lond\u00fdn, Velk\u00e1 Brit\u00e1nie","to_stop":{"id":"9277","name":"origin","lat":"51.5001524","lon":"-0.1262362","placename":"Westminster, Lond\u00fdn, Velk\u00e1 Brit\u00e1nie"},"from_stop":{"name":"origin","id":"9278","lat":"4.570868","lon":"-74.297333","placename":"Kolumbie"}}]}}},"processes":[],"eols":[]},{"oid":"200","imid":"5498","linkid":"0","weight":"0","rawemissions":"0","emissions":"0","shipping":"7228.66","processemissions":"0","endoflifeemissions":"0","disposaltype":null,"disposalenergy":null,"disposalimpact":null,"disposalemissions":null,"description":"","name":"Blue Moon","id":"5498","stops":{"origin":{"related_to":"5498","part_or_object":"p","notes":null,"placename":"Spojen\u00e9 st\u00e1ty americk\u00e9","id":9279,"name":"origin","lat":"37.09024","lon":"-95.712891","hops":{"incoming":[],"outgoing":[{"transport_id":null,"id":"6525","transport_name":null,"transport_description":null,"transport_unit":null,"transport_co2_eq":null,"from_stop_id":"9279","from_stop_lat":"37.09024","from_stop_lon":"-95.712891","from_stop_placename":"Spojen\u00e9 st\u00e1ty americk\u00e9","to_stop_id":"9277","to_stop_name":"origin","to_stop_lat":"51.5001524","to_stop_lon":"-0.1262362","to_stop_placename":"Westminster, Lond\u00fdn, Velk\u00e1 Brit\u00e1nie","to_stop":{"id":"9277","name":"origin","lat":"51.5001524","lon":"-0.1262362","placename":"Westminster, Lond\u00fdn, Velk\u00e1 Brit\u00e1nie"},"from_stop":{"name":"origin","id":"9279","lat":"37.09024","lon":"-95.712891","placename":"Spojen\u00e9 st\u00e1ty americk\u00e9"}}]}}},"processes":[],"eols":[]},{"oid":"200","imid":"5499","linkid":"0","weight":"0","rawemissions":"0","emissions":"0","shipping":"9410.02","processemissions":"0","endoflifeemissions":"0","disposaltype":null,"disposalenergy":null,"disposalimpact":null,"disposalemissions":null,"description":"","name":"Castle Lager","id":"5499","stops":{"origin":{"related_to":"5499","part_or_object":"p","notes":null,"placename":"Jihoafrick\u00e1 republika","id":9280,"name":"origin","lat":"-30.559482","lon":"22.937506","hops":{"incoming":[],"outgoing":[{"transport_id":null,"id":"6526","transport_name":null,"transport_description":null,"transport_unit":null,"transport_co2_eq":null,"from_stop_id":"9280","from_stop_lat":"-30.559482","from_stop_lon":"22.937506","from_stop_placename":"Jihoafrick\u00e1 republika","to_stop_id":"9277","to_stop_name":"origin","to_stop_lat":"51.5001524","to_stop_lon":"-0.1262362","to_stop_placename":"Westminster, Lond\u00fdn, Velk\u00e1 Brit\u00e1nie","to_stop":{"id":"9277","name":"origin","lat":"51.5001524","lon":"-0.1262362","placename":"Westminster, Lond\u00fdn, Velk\u00e1 Brit\u00e1nie"},"from_stop":{"name":"origin","id":"9280","lat":"-30.559482","lon":"22.937506","placename":"Jihoafrick\u00e1 republika"}}]}}},"processes":[],"eols":[]},{"oid":"200","imid":"5500","linkid":"0","weight":"0","rawemissions":"0","emissions":"0","shipping":"1498.22","processemissions":"0","endoflifeemissions":"0","disposaltype":null,"disposalenergy":null,"disposalimpact":null,"disposalemissions":null,"description":"","name":"Dreher Classic","id":"5500","stops":{"origin":{"related_to":"5500","part_or_object":"p","notes":null,"placename":"Ma\u010farsko","id":9281,"name":"origin","lat":"47.162494","lon":"19.503304","hops":{"incoming":[],"outgoing":[{"transport_id":null,"id":"6527","transport_name":null,"transport_description":null,"transport_unit":null,"transport_co2_eq":null,"from_stop_id":"9281","from_stop_lat":"47.162494","from_stop_lon":"19.503304","from_stop_placename":"Ma\u010farsko","to_stop_id":"9277","to_stop_name":"origin","to_stop_lat":"51.5001524","to_stop_lon":"-0.1262362","to_stop_placename":"Westminster, Lond\u00fdn, Velk\u00e1 Brit\u00e1nie","to_stop":{"id":"9277","name":"origin","lat":"51.5001524","lon":"-0.1262362","placename":"Westminster, Lond\u00fdn, Velk\u00e1 Brit\u00e1nie"},"from_stop":{"name":"origin","id":"9281","lat":"47.162494","lon":"19.503304","placename":"Ma\u010farsko"}}]}}},"processes":[],"eols":[]},{"oid":"200","imid":"5501","linkid":"0","weight":"0","rawemissions":"0","emissions":"0","shipping":"1114.43","processemissions":"0","endoflifeemissions":"0","disposaltype":null,"disposalenergy":null,"disposalimpact":null,"disposalemissions":null,"description":"","name":"Gambrinus","id":"5501","stops":{"origin":{"related_to":"5501","part_or_object":"p","notes":null,"placename":"\u010cesk\u00e1 republika","id":9282,"name":"origin","lat":"49.817492","lon":"15.472962","hops":{"incoming":[],"outgoing":[{"transport_id":null,"id":"6528","transport_name":null,"transport_description":null,"transport_unit":null,"transport_co2_eq":null,"from_stop_id":"9282","from_stop_lat":"49.817492","from_stop_lon":"15.472962","from_stop_placename":"\u010cesk\u00e1 republika","to_stop_id":"9277","to_stop_name":"origin","to_stop_lat":"51.5001524","to_stop_lon":"-0.1262362","to_stop_placename":"Westminster, Lond\u00fdn, Velk\u00e1 Brit\u00e1nie","to_stop":{"id":"9277","name":"origin","lat":"51.5001524","lon":"-0.1262362","placename":"Westminster, Lond\u00fdn, Velk\u00e1 Brit\u00e1nie"},"from_stop":{"name":"origin","id":"9282","lat":"49.817492","lon":"15.472962","placename":"\u010cesk\u00e1 republika"}}]}}},"processes":[],"eols":[]},{"oid":"200","imid":"5502","linkid":"0","weight":"0","rawemissions":"0","emissions":"0","shipping":"379.31","processemissions":"0","endoflifeemissions":"0","disposaltype":null,"disposalenergy":null,"disposalimpact":null,"disposalemissions":null,"description":"","name":"Grolsch","id":"5502","stops":{"origin":{"related_to":"5502","part_or_object":"p","notes":null,"placename":"Nizozemsko","id":9283,"name":"origin","lat":"52.132633","lon":"5.291266","hops":{"incoming":[],"outgoing":[{"transport_id":null,"id":"6529","transport_name":null,"transport_description":null,"transport_unit":null,"transport_co2_eq":null,"from_stop_id":"9283","from_stop_lat":"52.132633","from_stop_lon":"5.291266","from_stop_placename":"Nizozemsko","to_stop_id":"9277","to_stop_name":"origin","to_stop_lat":"51.5001524","to_stop_lon":"-0.1262362","to_stop_placename":"Westminster, Lond\u00fdn, Velk\u00e1 Brit\u00e1nie","to_stop":{"id":"9277","name":"origin","lat":"51.5001524","lon":"-0.1262362","placename":"Westminster, Lond\u00fdn, Velk\u00e1 Brit\u00e1nie"},"from_stop":{"name":"origin","id":"9283","lat":"52.132633","lon":"5.291266","placename":"Nizozemsko"}}]}}},"processes":[],"eols":[]},{"oid":"200","imid":"5503","linkid":"0","weight":"0","rawemissions":"0","emissions":"0","shipping":"7494.09","processemissions":"0","endoflifeemissions":"0","disposaltype":null,"disposalenergy":null,"disposalimpact":null,"disposalemissions":null,"description":"","name":"Haywards 5000","id":"5503","stops":{"origin":{"related_to":"5503","part_or_object":"p","notes":null,"placename":"Indie","id":9284,"name":"origin","lat":"20.593684","lon":"78.96288","hops":{"incoming":[],"outgoing":[{"transport_id":null,"id":"6530","transport_name":null,"transport_description":null,"transport_unit":null,"transport_co2_eq":null,"from_stop_id":"9284","from_stop_lat":"20.593684","from_stop_lon":"78.96288","from_stop_placename":"Indie","to_stop_id":"9277","to_stop_name":"origin","to_stop_lat":"51.5001524","to_stop_lon":"-0.1262362","to_stop_placename":"Westminster, Lond\u00fdn, Velk\u00e1 Brit\u00e1nie","to_stop":{"id":"9277","name":"origin","lat":"51.5001524","lon":"-0.1262362","placename":"Westminster, Lond\u00fdn, Velk\u00e1 Brit\u00e1nie"},"from_stop":{"name":"origin","id":"9284","lat":"20.593684","lon":"78.96288","placename":"Indie"}}]}}},"processes":[],"eols":[]},{"oid":"200","imid":"5504","linkid":"0","weight":"0","rawemissions":"0","emissions":"0","shipping":"8434.2","processemissions":"0","endoflifeemissions":"0","disposaltype":null,"disposalenergy":null,"disposalimpact":null,"disposalemissions":null,"description":"","name":"Imperial","id":"5504","stops":{"origin":{"related_to":"5504","part_or_object":"p","notes":null,"placename":"Honduras","id":9285,"name":"origin","lat":"15.199999","lon":"-86.241905","hops":{"incoming":[],"outgoing":[{"transport_id":null,"id":"6531","transport_name":null,"transport_description":null,"transport_unit":null,"transport_co2_eq":null,"from_stop_id":"9285","from_stop_lat":"15.199999","from_stop_lon":"-86.241905","from_stop_placename":"Honduras","to_stop_id":"9277","to_stop_name":"origin","to_stop_lat":"51.5001524","to_stop_lon":"-0.1262362","to_stop_placename":"Westminster, Lond\u00fdn, Velk\u00e1 Brit\u00e1nie","to_stop":{"id":"9277","name":"origin","lat":"51.5001524","lon":"-0.1262362","placename":"Westminster, Lond\u00fdn, Velk\u00e1 Brit\u00e1nie"},"from_stop":{"name":"origin","id":"9285","lat":"15.199999","lon":"-86.241905","placename":"Honduras"}}]}}},"processes":[],"eols":[]},{"oid":"200","imid":"5505","linkid":"0","weight":"0","rawemissions":"0","emissions":"0","shipping":"7192.77","processemissions":"0","endoflifeemissions":"0","disposaltype":null,"disposalenergy":null,"disposalimpact":null,"disposalemissions":null,"description":"","name":"NGOLA","id":"5505","stops":{"origin":{"related_to":"5505","part_or_object":"p","notes":null,"placename":"Angola","id":9286,"name":"origin","lat":"-11.202692","lon":"17.873887","hops":{"incoming":[],"outgoing":[{"transport_id":null,"id":"6532","transport_name":null,"transport_description":null,"transport_unit":null,"transport_co2_eq":null,"from_stop_id":"9286","from_stop_lat":"-11.202692","from_stop_lon":"17.873887","from_stop_placename":"Angola","to_stop_id":"9277","to_stop_name":"origin","to_stop_lat":"51.5001524","to_stop_lon":"-0.1262362","to_stop_placename":"Westminster, Lond\u00fdn, Velk\u00e1 Brit\u00e1nie","to_stop":{"id":"9277","name":"origin","lat":"51.5001524","lon":"-0.1262362","placename":"Westminster, Lond\u00fdn, Velk\u00e1 Brit\u00e1nie"},"from_stop":{"name":"origin","id":"9286","lat":"-11.202692","lon":"17.873887","placename":"Angola"}}]}}},"processes":[],"eols":[]},{"oid":"200","imid":"5506","linkid":"0","weight":"0","rawemissions":"0","emissions":"0","shipping":"1441.07","processemissions":"0","endoflifeemissions":"0","disposaltype":null,"disposalenergy":null,"disposalimpact":null,"disposalemissions":null,"description":"","name":"Peroni Nastro Azzurro","id":"5506","stops":{"origin":{"related_to":"5506","part_or_object":"p","notes":null,"placename":"It\u00e1lie","id":9287,"name":"origin","lat":"41.87194","lon":"12.56738","hops":{"incoming":[],"outgoing":[{"transport_id":null,"id":"6533","transport_name":null,"transport_description":null,"transport_unit":null,"transport_co2_eq":null,"from_stop_id":"9287","from_stop_lat":"41.87194","from_stop_lon":"12.56738","from_stop_placename":"It\u00e1lie","to_stop_id":"9277","to_stop_name":"origin","to_stop_lat":"51.5001524","to_stop_lon":"-0.1262362","to_stop_placename":"Westminster, Lond\u00fdn, Velk\u00e1 Brit\u00e1nie","to_stop":{"id":"9277","name":"origin","lat":"51.5001524","lon":"-0.1262362","placename":"Westminster, Lond\u00fdn, Velk\u00e1 Brit\u00e1nie"},"from_stop":{"name":"origin","id":"9287","lat":"41.87194","lon":"12.56738","placename":"It\u00e1lie"}}]}}},"processes":[],"eols":[]},{"oid":"200","imid":"5507","linkid":"0","weight":"0","rawemissions":"0","emissions":"0","shipping":"7848.89","processemissions":"0","endoflifeemissions":"0","disposaltype":null,"disposalenergy":null,"disposalimpact":null,"disposalemissions":null,"description":"","name":"Snow","id":"5507","stops":{"origin":{"related_to":"5507","part_or_object":"p","notes":null,"placename":"\u010c\u00ednsk\u00e1 lidov\u00e1 republika","id":9288,"name":"origin","lat":"35.86166","lon":"104.195397","hops":{"incoming":[],"outgoing":[{"transport_id":null,"id":"6534","transport_name":null,"transport_description":null,"transport_unit":null,"transport_co2_eq":null,"from_stop_id":"9288","from_stop_lat":"35.86166","from_stop_lon":"104.195397","from_stop_placename":"\u010c\u00ednsk\u00e1 lidov\u00e1 republika","to_stop_id":"9277","to_stop_name":"origin","to_stop_lat":"51.5001524","to_stop_lon":"-0.1262362","to_stop_placename":"Westminster, Lond\u00fdn, Velk\u00e1 Brit\u00e1nie","to_stop":{"id":"9277","name":"origin","lat":"51.5001524","lon":"-0.1262362","placename":"Westminster, Lond\u00fdn, Velk\u00e1 Brit\u00e1nie"},"from_stop":{"name":"origin","id":"9288","lat":"35.86166","lon":"104.195397","placename":"\u010c\u00ednsk\u00e1 lidov\u00e1 republika"}}]}}},"processes":[],"eols":[]},{"oid":"200","imid":"5508","linkid":"0","weight":"0","rawemissions":"0","emissions":"0","shipping":"8568.93","processemissions":"0","endoflifeemissions":"0","disposaltype":null,"disposalenergy":null,"disposalimpact":null,"disposalemissions":null,"description":"","name":"St Louis","id":"5508","stops":{"origin":{"related_to":"5508","part_or_object":"p","notes":null,"placename":"Botswana","id":9289,"name":"origin","lat":"-22.328474","lon":"24.684866","hops":{"incoming":[],"outgoing":[{"transport_id":null,"id":"6535","transport_name":null,"transport_description":null,"transport_unit":null,"transport_co2_eq":null,"from_stop_id":"9289","from_stop_lat":"-22.328474","from_stop_lon":"24.684866","from_stop_placename":"Botswana","to_stop_id":"9277","to_stop_name":"origin","to_stop_lat":"51.5001524","to_stop_lon":"-0.1262362","to_stop_placename":"Westminster, Lond\u00fdn, Velk\u00e1 Brit\u00e1nie","to_stop":{"id":"9277","name":"origin","lat":"51.5001524","lon":"-0.1262362","placename":"Westminster, Lond\u00fdn, Velk\u00e1 Brit\u00e1nie"},"from_stop":{"name":"origin","id":"9289","lat":"-22.328474","lon":"24.684866","placename":"Botswana"}}]}}},"processes":[],"eols":[]},{"oid":"200","imid":"5509","linkid":"0","weight":"0","rawemissions":"0","emissions":"0","shipping":"1326.24","processemissions":"0","endoflifeemissions":"0","disposaltype":null,"disposalenergy":null,"disposalimpact":null,"disposalemissions":null,"description":"","name":"Tyskie","id":"5509","stops":{"origin":{"related_to":"5509","part_or_object":"p","notes":null,"placename":"Polsko","id":9290,"name":"origin","lat":"51.919438","lon":"19.145136","hops":{"incoming":[],"outgoing":[{"transport_id":null,"id":"6536","transport_name":null,"transport_description":null,"transport_unit":null,"transport_co2_eq":null,"from_stop_id":"9290","from_stop_lat":"51.919438","from_stop_lon":"19.145136","from_stop_placename":"Polsko","to_stop_id":"9277","to_stop_name":"origin","to_stop_lat":"51.5001524","to_stop_lon":"-0.1262362","to_stop_placename":"Westminster, Lond\u00fdn, Velk\u00e1 Brit\u00e1nie","to_stop":{"id":"9277","name":"origin","lat":"51.5001524","lon":"-0.1262362","placename":"Westminster, Lond\u00fdn, Velk\u00e1 Brit\u00e1nie"},"from_stop":{"name":"origin","id":"9290","lat":"51.919438","lon":"19.145136","placename":"Polsko"}}]}}},"processes":[],"eols":[]},{"oid":"200","imid":"5510","linkid":"0","weight":"0","rawemissions":"0","emissions":"0","shipping":"5843.29","processemissions":"0","endoflifeemissions":"0","disposaltype":null,"disposalenergy":null,"disposalimpact":null,"disposalemissions":null,"description":"","name":"Zolotaya Bochka Klassicheskoye","id":"5510","stops":{"origin":{"related_to":"5510","part_or_object":"p","notes":null,"placename":"Rusko","id":9291,"name":"origin","lat":"61.52401","lon":"105.318756","hops":{"incoming":[],"outgoing":[{"transport_id":null,"id":"6537","transport_name":null,"transport_description":null,"transport_unit":null,"transport_co2_eq":null,"from_stop_id":"9291","from_stop_lat":"61.52401","from_stop_lon":"105.318756","from_stop_placename":"Rusko","to_stop_id":"9277","to_stop_name":"origin","to_stop_lat":"51.5001524","to_stop_lon":"-0.1262362","to_stop_placename":"Westminster, Lond\u00fdn, Velk\u00e1 Brit\u00e1nie","to_stop":{"id":"9277","name":"origin","lat":"51.5001524","lon":"-0.1262362","placename":"Westminster, Lond\u00fdn, Velk\u00e1 Brit\u00e1nie"},"from_stop":{"name":"origin","id":"9291","lat":"61.52401","lon":"105.318756","placename":"Rusko"}}]}}},"processes":[],"eols":[]}],"user":{"name":"faflis","id":"11602"}}}