{"2006":{"oid":"2006","type":"object","flag":"","creator":"6434","name":"Exercise Machine","upc":"","imagelink":"","description":"Map to build machine, and then deliver to the US and other parts of the world","slug":"exercise-machine","category":"","weight":"69.3","emissions":"5.65093","embodied":"0","transport":"5.65093","process":"0","endoflife":"0","shipping":"18918.7","lifetime":"0","usagetype":"US Electric Grid","usageenergy":"0","usageemissions":"0","timecreated":"2010-02-24 22:03:35.875951","timemodified":"2009-11-23 17:27:35","visibility":"private","showfootprint":"on","showembodied":"on","showtransport":"on","showprocess":"on","showendoflife":"on","showlastleg":"on","showuse":"on","showstats":"on","stops":{"origin":{"related_to":"2006","part_or_object":"o","notes":"","placename":"Sz?kesfeh?rv?r, Hungary","id":"303","category":"1","lat":"47.1887157","lon":"18.4138088","name":"origin","hops":{"incoming":[{"transport_id":"2","id":"1318","transport_name":"truck, 16 tons","transport_description":"truck, half full","transport_unit":"kg km","transport_co2_eq":"0.020300","from_stop_id":"3578","from_stop_lat":"46.620386","from_stop_lon":"19.283827","to_stop_id":"303","to_stop_name":"origin","to_stop_lat":"47.1887157","placename":"Kisk?r?s, Hungary","to_stop_lon":"18.4138088","to_stop":{"id":"303","name":"origin","lat":"47.1887157","placename":"Sz?kesfeh?rv?r, Hungary","lon":"18.4138088"},"from_stop":{"name":"origin","id":"3578","lat":"46.620386","lon":"19.283827","placename":"Kisk?r?s, Hungary"}},{"transport_id":"9","id":"1319","transport_name":"container ship","transport_description":"moving boxcar size containers","transport_unit":"kg km","transport_co2_eq":"0.047800","from_stop_id":"3579","from_stop_lat":"35.907757","from_stop_lon":"127.766922","to_stop_id":"303","to_stop_name":"origin","to_stop_lat":"47.1887157","placename":"South Korea","to_stop_lon":"18.4138088","to_stop":{"id":"303","name":"origin","lat":"47.1887157","placename":"Sz?kesfeh?rv?r, Hungary","lon":"18.4138088"},"from_stop":{"name":"origin","id":"3579","lat":"35.907757","lon":"127.766922","placename":"South Korea"}},{"transport_id":"2","id":"1320","transport_name":"truck, 16 tons","transport_description":"truck, half full","transport_unit":"kg km","transport_co2_eq":"0.020300","from_stop_id":"3580","from_stop_lat":"46.620386","from_stop_lon":"19.283827","to_stop_id":"303","to_stop_name":"origin","to_stop_lat":"47.1887157","placename":"Kisk?r?s, Hungary","to_stop_lon":"18.4138088","to_stop":{"id":"303","name":"origin","lat":"47.1887157","placename":"Sz?kesfeh?rv?r, Hungary","lon":"18.4138088"},"from_stop":{"name":"origin","id":"3580","lat":"46.620386","lon":"19.283827","placename":"Kisk?r?s, Hungary"}},{"transport_id":"2","id":"1321","transport_name":"truck, 16 tons","transport_description":"truck, half full","transport_unit":"kg km","transport_co2_eq":"0.020300","from_stop_id":"3581","from_stop_lat":"46.620386","from_stop_lon":"19.283827","to_stop_id":"303","to_stop_name":"origin","to_stop_lat":"47.1887157","placename":"Kisk?r?s, Hungary","to_stop_lon":"18.4138088","to_stop":{"id":"303","name":"origin","lat":"47.1887157","placename":"Sz?kesfeh?rv?r, Hungary","lon":"18.4138088"},"from_stop":{"name":"origin","id":"3581","lat":"46.620386","lon":"19.283827","placename":"Kisk?r?s, Hungary"}},{"transport_id":"2","id":"1322","transport_name":"truck, 16 tons","transport_description":"truck, half full","transport_unit":"kg km","transport_co2_eq":"0.020300","from_stop_id":"3582","from_stop_lat":"46.620386","from_stop_lon":"19.283827","to_stop_id":"303","to_stop_name":"origin","to_stop_lat":"47.1887157","placename":"Kisk?r?s, Hungary","to_stop_lon":"18.4138088","to_stop":{"id":"303","name":"origin","lat":"47.1887157","placename":"Sz?kesfeh?rv?r, Hungary","lon":"18.4138088"},"from_stop":{"name":"origin","id":"3582","lat":"46.620386","lon":"19.283827","placename":"Kisk?r?s, Hungary"}},{"transport_id":"16","id":"1323","transport_name":"air, freight, intercontinental","transport_description":"intercontinental freight","transport_unit":"kg km","transport_co2_eq":"0.450000","from_stop_id":"3583","from_stop_lat":"1.0456264","from_stop_lon":"104.0304535","to_stop_id":"303","to_stop_name":"origin","to_stop_lat":"47.1887157","placename":"Batam, Indonesia","to_stop_lon":"18.4138088","to_stop":{"id":"303","name":"origin","lat":"47.1887157","placename":"Sz?kesfeh?rv?r, Hungary","lon":"18.4138088"},"from_stop":{"name":"origin","id":"3583","lat":"1.0456264","lon":"104.0304535","placename":"Batam, Indonesia"}},{"transport_id":"17","id":"1324","transport_name":"None Selected","transport_description":null,"transport_unit":"kg km","transport_co2_eq":"0.000000","from_stop_id":"3584","from_stop_lat":"0","from_stop_lon":"0","to_stop_id":"303","to_stop_name":"origin","to_stop_lat":"47.1887157","placename":"Part Location","to_stop_lon":"18.4138088","to_stop":{"id":"303","name":"origin","lat":"47.1887157","placename":"Sz?kesfeh?rv?r, Hungary","lon":"18.4138088"},"from_stop":{"name":"origin","id":"3584","lat":"0","lon":"0","placename":"Part Location"}}],"outgoing":[]}}},"parts":[{"oid":"2006","imid":"1535","linkid":"","weight":"34.5","rawemissions":"0","emissions":"0","shipping":"91.55","processemissions":null,"endoflifeemissions":null,"disposaltype":null,"disposalenergy":null,"disposalimpact":null,"disposalemissions":null,"description":"Cost: $120 USD","name":"Frame Weldment","id":"1535","stops":{"origin":{"related_to":"1535","part_or_object":"p","notes":"","placename":"Kisk?r?s, Hungary","id":3578,"name":"origin","lat":"46.620386","lon":"19.283827","hops":{"incoming":[],"outgoing":[{"transport_id":"2","id":"1318","transport_name":"truck, 16 tons","transport_description":"truck, half full","transport_unit":"kg km","transport_co2_eq":"0.020300","from_stop_id":"3578","from_stop_lat":"46.620386","from_stop_lon":"19.283827","from_stop_placename":"Kisk?r?s, Hungary","to_stop_id":"303","to_stop_name":"origin","to_stop_lat":"47.1887157","to_stop_lon":"18.4138088","to_stop_placename":"Sz?kesfeh?rv?r, Hungary","to_stop":{"id":"303","name":"origin","lat":"47.1887157","lon":"18.4138088","placename":"Sz?kesfeh?rv?r, Hungary"},"from_stop":{"name":"origin","id":"3578","lat":"46.620386","lon":"19.283827","placename":"Kisk?r?s, Hungary"}}]}}},"processes":[],"eols":[]},{"oid":"2006","imid":"1536","linkid":"","weight":"3","rawemissions":"0","emissions":"0","shipping":"8421.41","processemissions":null,"endoflifeemissions":null,"disposaltype":null,"disposalenergy":null,"disposalimpact":null,"disposalemissions":null,"description":"","name":"Alternator","id":"1536","stops":{"origin":{"related_to":"1536","part_or_object":"p","notes":"","placename":"South Korea","id":3579,"name":"origin","lat":"35.907757","lon":"127.766922","hops":{"incoming":[],"outgoing":[{"transport_id":"9","id":"1319","transport_name":"container ship","transport_description":"moving boxcar size containers","transport_unit":"kg km","transport_co2_eq":"0.047800","from_stop_id":"3579","from_stop_lat":"35.907757","from_stop_lon":"127.766922","from_stop_placename":"South Korea","to_stop_id":"303","to_stop_name":"origin","to_stop_lat":"47.1887157","to_stop_lon":"18.4138088","to_stop_placename":"Sz?kesfeh?rv?r, Hungary","to_stop":{"id":"303","name":"origin","lat":"47.1887157","lon":"18.4138088","placename":"Sz?kesfeh?rv?r, Hungary"},"from_stop":{"name":"origin","id":"3579","lat":"35.907757","lon":"127.766922","placename":"South Korea"}}]}}},"processes":[],"eols":[]},{"oid":"2006","imid":"1537","linkid":"","weight":"4","rawemissions":"0","emissions":"0","shipping":"91.55","processemissions":null,"endoflifeemissions":null,"disposaltype":null,"disposalenergy":null,"disposalimpact":null,"disposalemissions":null,"description":"","name":"Moving Arm Weldments","id":"1537","stops":{"origin":{"related_to":"1537","part_or_object":"p","notes":"","placename":"Kisk?r?s, Hungary","id":3580,"name":"origin","lat":"46.620386","lon":"19.283827","hops":{"incoming":[],"outgoing":[{"transport_id":"2","id":"1320","transport_name":"truck, 16 tons","transport_description":"truck, half full","transport_unit":"kg km","transport_co2_eq":"0.020300","from_stop_id":"3580","from_stop_lat":"46.620386","from_stop_lon":"19.283827","from_stop_placename":"Kisk?r?s, Hungary","to_stop_id":"303","to_stop_name":"origin","to_stop_lat":"47.1887157","to_stop_lon":"18.4138088","to_stop_placename":"Sz?kesfeh?rv?r, Hungary","to_stop":{"id":"303","name":"origin","lat":"47.1887157","lon":"18.4138088","placename":"Sz?kesfeh?rv?r, Hungary"},"from_stop":{"name":"origin","id":"3580","lat":"46.620386","lon":"19.283827","placename":"Kisk?r?s, Hungary"}}]}}},"processes":[],"eols":[]},{"oid":"2006","imid":"1538","linkid":"","weight":"17","rawemissions":"0","emissions":"0","shipping":"91.55","processemissions":null,"endoflifeemissions":null,"disposaltype":null,"disposalenergy":null,"disposalimpact":null,"disposalemissions":null,"description":"","name":"Pedal Lever Weldments","id":"1538","stops":{"origin":{"related_to":"1538","part_or_object":"p","notes":"","placename":"Kisk?r?s, Hungary","id":3581,"name":"origin","lat":"46.620386","lon":"19.283827","hops":{"incoming":[],"outgoing":[{"transport_id":"2","id":"1321","transport_name":"truck, 16 tons","transport_description":"truck, half full","transport_unit":"kg km","transport_co2_eq":"0.020300","from_stop_id":"3581","from_stop_lat":"46.620386","from_stop_lon":"19.283827","from_stop_placename":"Kisk?r?s, Hungary","to_stop_id":"303","to_stop_name":"origin","to_stop_lat":"47.1887157","to_stop_lon":"18.4138088","to_stop_placename":"Sz?kesfeh?rv?r, Hungary","to_stop":{"id":"303","name":"origin","lat":"47.1887157","lon":"18.4138088","placename":"Sz?kesfeh?rv?r, Hungary"},"from_stop":{"name":"origin","id":"3581","lat":"46.620386","lon":"19.283827","placename":"Kisk?r?s, Hungary"}}]}}},"processes":[],"eols":[]},{"oid":"2006","imid":"1539","linkid":"","weight":"8.8","rawemissions":"0","emissions":"0","shipping":"91.55","processemissions":null,"endoflifeemissions":null,"disposaltype":null,"disposalenergy":null,"disposalimpact":null,"disposalemissions":null,"description":"","name":"Rocker Arm Weldments","id":"1539","stops":{"origin":{"related_to":"1539","part_or_object":"p","notes":"","placename":"Kisk?r?s, Hungary","id":3582,"name":"origin","lat":"46.620386","lon":"19.283827","hops":{"incoming":[],"outgoing":[{"transport_id":"2","id":"1322","transport_name":"truck, 16 tons","transport_description":"truck, half full","transport_unit":"kg km","transport_co2_eq":"0.020300","from_stop_id":"3582","from_stop_lat":"46.620386","from_stop_lon":"19.283827","from_stop_placename":"Kisk?r?s, Hungary","to_stop_id":"303","to_stop_name":"origin","to_stop_lat":"47.1887157","to_stop_lon":"18.4138088","to_stop_placename":"Sz?kesfeh?rv?r, Hungary","to_stop":{"id":"303","name":"origin","lat":"47.1887157","lon":"18.4138088","placename":"Sz?kesfeh?rv?r, Hungary"},"from_stop":{"name":"origin","id":"3582","lat":"46.620386","lon":"19.283827","placename":"Kisk?r?s, Hungary"}}]}}},"processes":[],"eols":[]},{"oid":"2006","imid":"1540","linkid":"","weight":"1","rawemissions":"0","emissions":"0","shipping":"9601.85","processemissions":null,"endoflifeemissions":null,"disposaltype":null,"disposalenergy":null,"disposalimpact":null,"disposalemissions":null,"description":"","name":"Alternator Control Board","id":"1540","stops":{"origin":{"related_to":"1540","part_or_object":"p","notes":"","placename":"Batam, Indonesia","id":3583,"name":"origin","lat":"1.0456264","lon":"104.0304535","hops":{"incoming":[],"outgoing":[{"transport_id":"16","id":"1323","transport_name":"air, freight, intercontinental","transport_description":"intercontinental freight","transport_unit":"kg km","transport_co2_eq":"0.450000","from_stop_id":"3583","from_stop_lat":"1.0456264","from_stop_lon":"104.0304535","from_stop_placename":"Batam, Indonesia","to_stop_id":"303","to_stop_name":"origin","to_stop_lat":"47.1887157","to_stop_lon":"18.4138088","to_stop_placename":"Sz?kesfeh?rv?r, Hungary","to_stop":{"id":"303","name":"origin","lat":"47.1887157","lon":"18.4138088","placename":"Sz?kesfeh?rv?r, Hungary"},"from_stop":{"name":"origin","id":"3583","lat":"1.0456264","lon":"104.0304535","placename":"Batam, Indonesia"}}]}}},"processes":[],"eols":[]},{"oid":"2006","imid":"1541","linkid":"","weight":"0","rawemissions":"0","emissions":"0","shipping":"0","processemissions":null,"endoflifeemissions":null,"disposaltype":null,"disposalenergy":null,"disposalimpact":null,"disposalemissions":null,"description":"","name":"Part","id":"1541","stops":{"origin":{"related_to":"1541","part_or_object":"p","notes":"","placename":"Part Location","id":3584,"name":"origin","lat":"0","lon":"0","hops":{"incoming":[],"outgoing":[{"transport_id":"17","id":"1324","transport_name":"None Selected","transport_description":null,"transport_unit":"kg km","transport_co2_eq":"0.000000","from_stop_id":"3584","from_stop_lat":"0","from_stop_lon":"0","from_stop_placename":"Part Location","to_stop_id":"303","to_stop_name":"origin","to_stop_lat":"47.1887157","to_stop_lon":"18.4138088","to_stop_placename":"Sz?kesfeh?rv?r, Hungary","to_stop":{"id":"303","name":"origin","lat":"47.1887157","lon":"18.4138088","placename":"Sz?kesfeh?rv?r, Hungary"},"from_stop":{"name":"origin","id":"3584","lat":"0","lon":"0","placename":"Part Location"}}]}}},"processes":[],"eols":[]}],"user":{"name":"wytman","id":"6434"}}}