{"205":{"oid":"205","type":"food","flag":"","creator":"11610","name":"Lindt","upc":"","imagelink":"","description":"\u010dokol\u00e1da","slug":"Lindt","category":"","weight":"0","emissions":"0","embodied":"0","transport":"0","process":null,"endoflife":null,"shipping":"22731.06","lifetime":null,"usagetype":"","usageenergy":null,"usageemissions":null,"timecreated":"2010-12-13 23:18:50","timemodified":"2010-12-14 00:04:18","visibility":"public","showfootprint":"on","showembodied":"on","showtransport":"on","showprocess":"on","showendoflife":"on","showlastleg":"on","showuse":"on","showstats":"on","stops":{"origin":{"related_to":"205","part_or_object":"o","notes":null,"placename":"Kilchberg, \u0160v\u00fdcarsko","id":"8941","category":"1","lat":"47.32532","lon":"8.54882","name":"origin","hops":{"incoming":[{"transport_id":null,"id":"6244","transport_name":null,"transport_description":null,"transport_unit":null,"transport_co2_eq":null,"from_stop_id":"8942","from_stop_lat":"7.946527","from_stop_lon":"-1.023194","to_stop_id":"8941","to_stop_name":"origin","to_stop_lat":"47.32532","placename":"Ghana","to_stop_lon":"8.54882","to_stop":{"id":"8941","name":"origin","lat":"47.32532","placename":"Kilchberg, \u0160v\u00fdcarsko","lon":"8.54882"},"from_stop":{"name":"origin","id":"8942","lat":"7.946527","lon":"-1.023194","placename":"Ghana"}},{"transport_id":null,"id":"6245","transport_name":null,"transport_description":null,"transport_unit":null,"transport_co2_eq":null,"from_stop_id":"8943","from_stop_lat":"15.870032","from_stop_lon":"100.992541","to_stop_id":"8941","to_stop_name":"origin","to_stop_lat":"47.32532","placename":"Thajsko","to_stop_lon":"8.54882","to_stop":{"id":"8941","name":"origin","lat":"47.32532","placename":"Kilchberg, \u0160v\u00fdcarsko","lon":"8.54882"},"from_stop":{"name":"origin","id":"8943","lat":"15.870032","lon":"100.992541","placename":"Thajsko"}},{"transport_id":null,"id":"6246","transport_name":null,"transport_description":null,"transport_unit":null,"transport_co2_eq":null,"from_stop_id":"8944","from_stop_lat":"46.818188","from_stop_lon":"8.227512","to_stop_id":"8941","to_stop_name":"origin","to_stop_lat":"47.32532","placename":"\u0160v\u00fdcarsko","to_stop_lon":"8.54882","to_stop":{"id":"8941","name":"origin","lat":"47.32532","placename":"Kilchberg, \u0160v\u00fdcarsko","lon":"8.54882"},"from_stop":{"name":"origin","id":"8944","lat":"46.818188","lon":"8.227512","placename":"\u0160v\u00fdcarsko"}},{"transport_id":null,"id":"6247","transport_name":null,"transport_description":null,"transport_unit":null,"transport_co2_eq":null,"from_stop_id":"8945","from_stop_lat":"45.767299","from_stop_lon":"4.8343287","to_stop_id":"8941","to_stop_name":"origin","to_stop_lat":"47.32532","placename":"Lyon, Francie","to_stop_lon":"8.54882","to_stop":{"id":"8941","name":"origin","lat":"47.32532","placename":"Kilchberg, \u0160v\u00fdcarsko","lon":"8.54882"},"from_stop":{"name":"origin","id":"8945","lat":"45.767299","lon":"4.8343287","placename":"Lyon, Francie"}},{"transport_id":null,"id":"6248","transport_name":null,"transport_description":null,"transport_unit":null,"transport_co2_eq":null,"from_stop_id":"8946","from_stop_lat":"-3.1071923","from_stop_lon":"-60.0261267","to_stop_id":"8941","to_stop_name":"origin","to_stop_lat":"47.32532","placename":"Manaus - Amazonas, Braz\u00edlie","to_stop_lon":"8.54882","to_stop":{"id":"8941","name":"origin","lat":"47.32532","placename":"Kilchberg, \u0160v\u00fdcarsko","lon":"8.54882"},"from_stop":{"name":"origin","id":"8946","lat":"-3.1071923","lon":"-60.0261267","placename":"Manaus - Amazonas, Braz\u00edlie"}},{"transport_id":null,"id":"6249","transport_name":null,"transport_description":null,"transport_unit":null,"transport_co2_eq":null,"from_stop_id":"8947","from_stop_lat":"45.0522366","from_stop_lon":"7.5153885","to_stop_id":"8941","to_stop_name":"origin","to_stop_lat":"47.32532","placename":"Piemont, It\u00e1lie","to_stop_lon":"8.54882","to_stop":{"id":"8941","name":"origin","lat":"47.32532","placename":"Kilchberg, \u0160v\u00fdcarsko","lon":"8.54882"},"from_stop":{"name":"origin","id":"8947","lat":"45.0522366","lon":"7.5153885","placename":"Piemont, It\u00e1lie"}}],"outgoing":[]}}},"parts":[{"oid":"205","imid":"5362","linkid":"0","weight":"0","rawemissions":"0","emissions":"0","shipping":"4476.76","processemissions":"0","endoflifeemissions":"0","disposaltype":null,"disposalenergy":null,"disposalimpact":null,"disposalemissions":null,"description":"","name":"kakao","id":"5362","stops":{"origin":{"related_to":"5362","part_or_object":"p","notes":null,"placename":"Ghana","id":8942,"name":"origin","lat":"7.946527","lon":"-1.023194","hops":{"incoming":[],"outgoing":[{"transport_id":null,"id":"6244","transport_name":null,"transport_description":null,"transport_unit":null,"transport_co2_eq":null,"from_stop_id":"8942","from_stop_lat":"7.946527","from_stop_lon":"-1.023194","from_stop_placename":"Ghana","to_stop_id":"8941","to_stop_name":"origin","to_stop_lat":"47.32532","to_stop_lon":"8.54882","to_stop_placename":"Kilchberg, \u0160v\u00fdcarsko","to_stop":{"id":"8941","name":"origin","lat":"47.32532","lon":"8.54882","placename":"Kilchberg, \u0160v\u00fdcarsko"},"from_stop":{"name":"origin","id":"8942","lat":"7.946527","lon":"-1.023194","placename":"Ghana"}}]}}},"processes":[],"eols":[]},{"oid":"205","imid":"5363","linkid":"0","weight":"0","rawemissions":"0","emissions":"0","shipping":"8908.15","processemissions":"0","endoflifeemissions":"0","disposaltype":null,"disposalenergy":null,"disposalimpact":null,"disposalemissions":null,"description":"","name":"palmov\u00fd olej","id":"5363","stops":{"origin":{"related_to":"5363","part_or_object":"p","notes":null,"placename":"Thajsko","id":8943,"name":"origin","lat":"15.870032","lon":"100.992541","hops":{"incoming":[],"outgoing":[{"transport_id":null,"id":"6245","transport_name":null,"transport_description":null,"transport_unit":null,"transport_co2_eq":null,"from_stop_id":"8943","from_stop_lat":"15.870032","from_stop_lon":"100.992541","from_stop_placename":"Thajsko","to_stop_id":"8941","to_stop_name":"origin","to_stop_lat":"47.32532","to_stop_lon":"8.54882","to_stop_placename":"Kilchberg, \u0160v\u00fdcarsko","to_stop":{"id":"8941","name":"origin","lat":"47.32532","lon":"8.54882","placename":"Kilchberg, \u0160v\u00fdcarsko"},"from_stop":{"name":"origin","id":"8943","lat":"15.870032","lon":"100.992541","placename":"Thajsko"}}]}}},"processes":[],"eols":[]},{"oid":"205","imid":"5364","linkid":"0","weight":"0","rawemissions":"0","emissions":"0","shipping":"61.49","processemissions":"0","endoflifeemissions":"0","disposaltype":null,"disposalenergy":null,"disposalimpact":null,"disposalemissions":null,"description":"","name":"ml\u00e9ko","id":"5364","stops":{"origin":{"related_to":"5364","part_or_object":"p","notes":null,"placename":"\u0160v\u00fdcarsko","id":8944,"name":"origin","lat":"46.818188","lon":"8.227512","hops":{"incoming":[],"outgoing":[{"transport_id":null,"id":"6246","transport_name":null,"transport_description":null,"transport_unit":null,"transport_co2_eq":null,"from_stop_id":"8944","from_stop_lat":"46.818188","from_stop_lon":"8.227512","from_stop_placename":"\u0160v\u00fdcarsko","to_stop_id":"8941","to_stop_name":"origin","to_stop_lat":"47.32532","to_stop_lon":"8.54882","to_stop_placename":"Kilchberg, \u0160v\u00fdcarsko","to_stop":{"id":"8941","name":"origin","lat":"47.32532","lon":"8.54882","placename":"Kilchberg, \u0160v\u00fdcarsko"},"from_stop":{"name":"origin","id":"8944","lat":"46.818188","lon":"8.227512","placename":"\u0160v\u00fdcarsko"}}]}}},"processes":[],"eols":[]},{"oid":"205","imid":"5365","linkid":"0","weight":"0","rawemissions":"0","emissions":"0","shipping":"333.05","processemissions":"0","endoflifeemissions":"0","disposaltype":null,"disposalenergy":null,"disposalimpact":null,"disposalemissions":null,"description":"","name":"syrov\u00e1tka","id":"5365","stops":{"origin":{"related_to":"5365","part_or_object":"p","notes":null,"placename":"Lyon, Francie","id":8945,"name":"origin","lat":"45.767299","lon":"4.8343287","hops":{"incoming":[],"outgoing":[{"transport_id":null,"id":"6247","transport_name":null,"transport_description":null,"transport_unit":null,"transport_co2_eq":null,"from_stop_id":"8945","from_stop_lat":"45.767299","from_stop_lon":"4.8343287","from_stop_placename":"Lyon, Francie","to_stop_id":"8941","to_stop_name":"origin","to_stop_lat":"47.32532","to_stop_lon":"8.54882","to_stop_placename":"Kilchberg, \u0160v\u00fdcarsko","to_stop":{"id":"8941","name":"origin","lat":"47.32532","lon":"8.54882","placename":"Kilchberg, \u0160v\u00fdcarsko"},"from_stop":{"name":"origin","id":"8945","lat":"45.767299","lon":"4.8343287","placename":"Lyon, Francie"}}]}}},"processes":[],"eols":[]},{"oid":"205","imid":"5366","linkid":"0","weight":"0","rawemissions":"0","emissions":"0","shipping":"8686.34","processemissions":"0","endoflifeemissions":"0","disposaltype":null,"disposalenergy":null,"disposalimpact":null,"disposalemissions":null,"description":"","name":"cukr (cukrov\u00e1 t\u0159tina)","id":"5366","stops":{"origin":{"related_to":"5366","part_or_object":"p","notes":null,"placename":"Manaus - Amazonas, Braz\u00edlie","id":8946,"name":"origin","lat":"-3.1071923","lon":"-60.0261267","hops":{"incoming":[],"outgoing":[{"transport_id":null,"id":"6248","transport_name":null,"transport_description":null,"transport_unit":null,"transport_co2_eq":null,"from_stop_id":"8946","from_stop_lat":"-3.1071923","from_stop_lon":"-60.0261267","from_stop_placename":"Manaus - Amazonas, Braz\u00edlie","to_stop_id":"8941","to_stop_name":"origin","to_stop_lat":"47.32532","to_stop_lon":"8.54882","to_stop_placename":"Kilchberg, \u0160v\u00fdcarsko","to_stop":{"id":"8941","name":"origin","lat":"47.32532","lon":"8.54882","placename":"Kilchberg, \u0160v\u00fdcarsko"},"from_stop":{"name":"origin","id":"8946","lat":"-3.1071923","lon":"-60.0261267","placename":"Manaus - Amazonas, Braz\u00edlie"}}]}}},"processes":[],"eols":[]},{"oid":"205","imid":"5367","linkid":"0","weight":"0","rawemissions":"0","emissions":"0","shipping":"265.27","processemissions":"0","endoflifeemissions":"0","disposaltype":null,"disposalenergy":null,"disposalimpact":null,"disposalemissions":null,"description":"","name":"L\u00edskov\u00e9 o\u0159\u00ed\u0161ky (pasta)","id":"5367","stops":{"origin":{"related_to":"5367","part_or_object":"p","notes":null,"placename":"Piemont, It\u00e1lie","id":8947,"name":"origin","lat":"45.0522366","lon":"7.5153885","hops":{"incoming":[],"outgoing":[{"transport_id":null,"id":"6249","transport_name":null,"transport_description":null,"transport_unit":null,"transport_co2_eq":null,"from_stop_id":"8947","from_stop_lat":"45.0522366","from_stop_lon":"7.5153885","from_stop_placename":"Piemont, It\u00e1lie","to_stop_id":"8941","to_stop_name":"origin","to_stop_lat":"47.32532","to_stop_lon":"8.54882","to_stop_placename":"Kilchberg, \u0160v\u00fdcarsko","to_stop":{"id":"8941","name":"origin","lat":"47.32532","lon":"8.54882","placename":"Kilchberg, \u0160v\u00fdcarsko"},"from_stop":{"name":"origin","id":"8947","lat":"45.0522366","lon":"7.5153885","placename":"Piemont, It\u00e1lie"}}]}}},"processes":[],"eols":[]}],"user":{"name":"vrana","id":"11610"}}}