{"2051":{"oid":"2051","type":"object","flag":"","creator":"6725","name":"Lampara flurescente compacta 2","upc":"","imagelink":"","description":"L?mpara fluorescente compacta sin circuito RoHS","slug":"lmpara-flurescente-compacta-2","category":"featured","weight":"0.079305","emissions":"264.169960459","embodied":"201.6420357","transport":"0.0279247592306","process":"0","endoflife":"0","shipping":"21613.77","lifetime":null,"usagetype":"Natural Gas","usageenergy":"250","usageemissions":"62.5","timecreated":"2010-02-24 22:03:35.924814","timemodified":"2010-03-12 00:52:03","visibility":"public","showfootprint":"on","showembodied":"on","showtransport":"on","showprocess":"on","showendoflife":"on","showlastleg":"on","showuse":"on","showstats":"on","stops":{"origin":{"related_to":"2051","part_or_object":"o","notes":"","placename":"Ciudad de M?xico, D.f., M?xico","id":"1104","category":"1","lat":"19.4270499","lon":"-99.1275711","name":"origin","hops":{"incoming":[{"transport_id":"6","id":"1339","transport_name":"tanker ship","transport_description":"tanker for mobing liquids","transport_unit":"kg km","transport_co2_eq":"0.171600","from_stop_id":"3599","from_stop_lat":"-14.235004","from_stop_lon":"-51.92528","to_stop_id":"1104","to_stop_name":"origin","to_stop_lat":"19.4270499","placename":"Brasil","to_stop_lon":"-99.1275711","to_stop":{"id":"1104","name":"origin","lat":"19.4270499","placename":"Ciudad de M?xico, D.f., M?xico","lon":"-99.1275711"},"from_stop":{"name":"origin","id":"3599","lat":"-14.235004","lon":"-51.92528","placename":"Brasil"}},{"transport_id":"2","id":"1340","transport_name":"truck, 16 tons","transport_description":"truck, half full","transport_unit":"kg km","transport_co2_eq":"0.020300","from_stop_id":"3600","from_stop_lat":"25.685535","from_stop_lon":"-100.31115","to_stop_id":"1104","to_stop_name":"origin","to_stop_lat":"19.4270499","placename":"Monterrey, NL, M?xico","to_stop_lon":"-99.1275711","to_stop":{"id":"1104","name":"origin","lat":"19.4270499","placename":"Ciudad de M?xico, D.f., M?xico","lon":"-99.1275711"},"from_stop":{"name":"origin","id":"3600","lat":"25.685535","lon":"-100.31115","placename":"Monterrey, NL, M?xico"}},{"transport_id":"9","id":"1341","transport_name":"container ship","transport_description":"moving boxcar size containers","transport_unit":"kg km","transport_co2_eq":"0.047800","from_stop_id":"3601","from_stop_lat":"-33.4253598","from_stop_lon":"-70.5664659","to_stop_id":"1104","to_stop_name":"origin","to_stop_lat":"19.4270499","placename":"Santiago, Chile","to_stop_lon":"-99.1275711","to_stop":{"id":"1104","name":"origin","lat":"19.4270499","placename":"Ciudad de M?xico, D.f., M?xico","lon":"-99.1275711"},"from_stop":{"name":"origin","id":"3601","lat":"-33.4253598","lon":"-70.5664659","placename":"Santiago, Chile"}},{"transport_id":"1","id":"1342","transport_name":"van, 3.5 tons","transport_description":"delivery van, half full","transport_unit":"kg km","transport_co2_eq":"0.053400","from_stop_id":"3602","from_stop_lat":"20.67359","from_stop_lon":"-103.343803","to_stop_id":"1104","to_stop_name":"origin","to_stop_lat":"19.4270499","placename":"Guadalajara, Ja, M?xico","to_stop_lon":"-99.1275711","to_stop":{"id":"1104","name":"origin","lat":"19.4270499","placename":"Ciudad de M?xico, D.f., M?xico","lon":"-99.1275711"},"from_stop":{"name":"origin","id":"3602","lat":"20.67359","lon":"-103.343803","placename":"Guadalajara, Ja, M?xico"}},{"transport_id":"1","id":"1343","transport_name":"van, 3.5 tons","transport_description":"delivery van, half full","transport_unit":"kg km","transport_co2_eq":"0.053400","from_stop_id":"3603","from_stop_lat":"-23.5489433","from_stop_lon":"-46.6388182","to_stop_id":"1104","to_stop_name":"origin","to_stop_lat":"19.4270499","placename":"S?o Paulo - SP, Brasil","to_stop_lon":"-99.1275711","to_stop":{"id":"1104","name":"origin","lat":"19.4270499","placename":"Ciudad de M?xico, D.f., M?xico","lon":"-99.1275711"},"from_stop":{"name":"origin","id":"3603","lat":"-23.5489433","lon":"-46.6388182","placename":"S?o Paulo - SP, Brasil"}},{"transport_id":"1","id":"1344","transport_name":"van, 3.5 tons","transport_description":"delivery van, half full","transport_unit":"kg km","transport_co2_eq":"0.053400","from_stop_id":"3604","from_stop_lat":"19.4270499","from_stop_lon":"-99.1275711","to_stop_id":"1104","to_stop_name":"origin","to_stop_lat":"19.4270499","placename":"Ciudad de M?xico, D.f., M?xico","to_stop_lon":"-99.1275711","to_stop":{"id":"1104","name":"origin","lat":"19.4270499","placename":"Ciudad de M?xico, D.f., M?xico","lon":"-99.1275711"},"from_stop":{"name":"origin","id":"3604","lat":"19.4270499","lon":"-99.1275711","placename":"Ciudad de M?xico, D.f., M?xico"}}],"outgoing":[]}}},"parts":[{"oid":"2051","imid":"1558","linkid":"","weight":"0.024","rawemissions":"8400","emissions":"201.6","shipping":"6385.97","processemissions":null,"endoflifeemissions":null,"disposaltype":null,"disposalenergy":null,"disposalimpact":null,"disposalemissions":null,"description":"","name":"Circuito integrado","id":"1558","stops":{"origin":{"related_to":"1558","part_or_object":"p","notes":"","placename":"Brasil","id":3599,"name":"origin","lat":"-14.235004","lon":"-51.92528","hops":{"incoming":[],"outgoing":[{"transport_id":"6","id":"1339","transport_name":"tanker ship","transport_description":"tanker for mobing liquids","transport_unit":"kg km","transport_co2_eq":"0.171600","from_stop_id":"3599","from_stop_lat":"-14.235004","from_stop_lon":"-51.92528","from_stop_placename":"Brasil","to_stop_id":"1104","to_stop_name":"origin","to_stop_lat":"19.4270499","to_stop_lon":"-99.1275711","to_stop_placename":"Ciudad de M?xico, D.f., M?xico","to_stop":{"id":"1104","name":"origin","lat":"19.4270499","lon":"-99.1275711","placename":"Ciudad de M?xico, D.f., M?xico"},"from_stop":{"name":"origin","id":"3599","lat":"-14.235004","lon":"-51.92528","placename":"Brasil"}}]}}},"processes":[],"eols":[]},{"oid":"2051","imid":"1559","linkid":"","weight":"0.0048","rawemissions":"1.98","emissions":"0.009504","shipping":"707.22","processemissions":null,"endoflifeemissions":null,"disposaltype":null,"disposalenergy":null,"disposalimpact":null,"disposalemissions":null,"description":"","name":"Acero galvanizado","id":"1559","stops":{"origin":{"related_to":"1559","part_or_object":"p","notes":"","placename":"Monterrey, NL, M?xico","id":3600,"name":"origin","lat":"25.685535","lon":"-100.31115","hops":{"incoming":[],"outgoing":[{"transport_id":"2","id":"1340","transport_name":"truck, 16 tons","transport_description":"truck, half full","transport_unit":"kg km","transport_co2_eq":"0.020300","from_stop_id":"3600","from_stop_lat":"25.685535","from_stop_lon":"-100.31115","from_stop_placename":"Monterrey, NL, M?xico","to_stop_id":"1104","to_stop_name":"origin","to_stop_lat":"19.4270499","to_stop_lon":"-99.1275711","to_stop_placename":"Ciudad de M?xico, D.f., M?xico","to_stop":{"id":"1104","name":"origin","lat":"19.4270499","lon":"-99.1275711","placename":"Ciudad de M?xico, D.f., M?xico"},"from_stop":{"name":"origin","id":"3600","lat":"25.685535","lon":"-100.31115","placename":"Monterrey, NL, M?xico"}}]}}},"processes":[],"eols":[]},{"oid":"2051","imid":"1560","linkid":"","weight":"0.0019","rawemissions":"2.15","emissions":"0.004085","shipping":"6619.44","processemissions":null,"endoflifeemissions":null,"disposaltype":null,"disposalenergy":null,"disposalimpact":null,"disposalemissions":null,"description":"","name":"Cobre virgen","id":"1560","stops":{"origin":{"related_to":"1560","part_or_object":"p","notes":"","placename":"Santiago, Chile","id":3601,"name":"origin","lat":"-33.4253598","lon":"-70.5664659","hops":{"incoming":[],"outgoing":[{"transport_id":"9","id":"1341","transport_name":"container ship","transport_description":"moving boxcar size containers","transport_unit":"kg km","transport_co2_eq":"0.047800","from_stop_id":"3601","from_stop_lat":"-33.4253598","from_stop_lon":"-70.5664659","from_stop_placename":"Santiago, Chile","to_stop_id":"1104","to_stop_name":"origin","to_stop_lat":"19.4270499","to_stop_lon":"-99.1275711","to_stop_placename":"Ciudad de M?xico, D.f., M?xico","to_stop":{"id":"1104","name":"origin","lat":"19.4270499","lon":"-99.1275711","placename":"Ciudad de M?xico, D.f., M?xico"},"from_stop":{"name":"origin","id":"3601","lat":"-33.4253598","lon":"-70.5664659","placename":"Santiago, Chile"}}]}}},"processes":[],"eols":[]},{"oid":"2051","imid":"1561","linkid":"","weight":"0.0386","rawemissions":"0.27","emissions":"0.010422","shipping":"462.2","processemissions":null,"endoflifeemissions":null,"disposaltype":null,"disposalenergy":null,"disposalimpact":null,"disposalemissions":null,"description":"","name":"Vidrio virgen claro","id":"1561","stops":{"origin":{"related_to":"1561","part_or_object":"p","notes":"","placename":"Guadalajara, Ja, M?xico","id":3602,"name":"origin","lat":"20.67359","lon":"-103.343803","hops":{"incoming":[],"outgoing":[{"transport_id":"1","id":"1342","transport_name":"van, 3.5 tons","transport_description":"delivery van, half full","transport_unit":"kg km","transport_co2_eq":"0.053400","from_stop_id":"3602","from_stop_lat":"20.67359","from_stop_lon":"-103.343803","from_stop_placename":"Guadalajara, Ja, M?xico","to_stop_id":"1104","to_stop_name":"origin","to_stop_lat":"19.4270499","to_stop_lon":"-99.1275711","to_stop_placename":"Ciudad de M?xico, D.f., M?xico","to_stop":{"id":"1104","name":"origin","lat":"19.4270499","lon":"-99.1275711","placename":"Ciudad de M?xico, D.f., M?xico"},"from_stop":{"name":"origin","id":"3602","lat":"20.67359","lon":"-103.343803","placename":"Guadalajara, Ja, M?xico"}}]}}},"processes":[],"eols":[]},{"oid":"2051","imid":"1562","linkid":"","weight":"5e-06","rawemissions":"4.94","emissions":"2.47e-05","shipping":"7438.94","processemissions":null,"endoflifeemissions":null,"disposaltype":null,"disposalenergy":null,"disposalimpact":null,"disposalemissions":null,"description":"","name":"Mercurio","id":"1562","stops":{"origin":{"related_to":"1562","part_or_object":"p","notes":"","placename":"S?o Paulo - SP, Brasil","id":3603,"name":"origin","lat":"-23.5489433","lon":"-46.6388182","hops":{"incoming":[],"outgoing":[{"transport_id":"1","id":"1343","transport_name":"van, 3.5 tons","transport_description":"delivery van, half full","transport_unit":"kg km","transport_co2_eq":"0.053400","from_stop_id":"3603","from_stop_lat":"-23.5489433","from_stop_lon":"-46.6388182","from_stop_placename":"S?o Paulo - SP, Brasil","to_stop_id":"1104","to_stop_name":"origin","to_stop_lat":"19.4270499","to_stop_lon":"-99.1275711","to_stop_placename":"Ciudad de M?xico, D.f., M?xico","to_stop":{"id":"1104","name":"origin","lat":"19.4270499","lon":"-99.1275711","placename":"Ciudad de M?xico, D.f., M?xico"},"from_stop":{"name":"origin","id":"3603","lat":"-23.5489433","lon":"-46.6388182","placename":"S?o Paulo - SP, Brasil"}}]}}},"processes":[],"eols":[]},{"oid":"2051","imid":"1563","linkid":"","weight":"0.01","rawemissions":"1.8","emissions":"0.018","shipping":"0","processemissions":null,"endoflifeemissions":null,"disposaltype":null,"disposalenergy":null,"disposalimpact":null,"disposalemissions":null,"description":"","name":"Recubrimiento","id":"1563","stops":{"origin":{"related_to":"1563","part_or_object":"p","notes":"","placename":"Ciudad de M?xico, D.f., M?xico","id":3604,"name":"origin","lat":"19.4270499","lon":"-99.1275711","hops":{"incoming":[],"outgoing":[{"transport_id":"1","id":"1344","transport_name":"van, 3.5 tons","transport_description":"delivery van, half full","transport_unit":"kg km","transport_co2_eq":"0.053400","from_stop_id":"3604","from_stop_lat":"19.4270499","from_stop_lon":"-99.1275711","from_stop_placename":"Ciudad de M?xico, D.f., M?xico","to_stop_id":"1104","to_stop_name":"origin","to_stop_lat":"19.4270499","to_stop_lon":"-99.1275711","to_stop_placename":"Ciudad de M?xico, D.f., M?xico","to_stop":{"id":"1104","name":"origin","lat":"19.4270499","lon":"-99.1275711","placename":"Ciudad de M?xico, D.f., M?xico"},"from_stop":{"name":"origin","id":"3604","lat":"19.4270499","lon":"-99.1275711","placename":"Ciudad de M?xico, D.f., M?xico"}}]}}},"processes":[],"eols":[]}],"user":{"name":"Kalia","id":"6725"}}}