{"2060":{"oid":"2060","type":"object","flag":"","creator":"7277","name":"Apple Inc.","upc":"","imagelink":"","description":"","slug":"apple-inc","category":"","weight":"0","emissions":"0","embodied":"0","transport":"0","process":"0","endoflife":"0","shipping":"116240","lifetime":"0","usagetype":"","usageenergy":"0","usageemissions":"0","timecreated":"2010-02-24 22:03:35.930814","timemodified":"2009-12-07 13:13:24","visibility":"private","showfootprint":"on","showembodied":"on","showtransport":"on","showprocess":"on","showendoflife":"on","showlastleg":"on","showuse":"on","showstats":"on","stops":{"origin":{"related_to":"2060","part_or_object":"o","notes":"","placename":"China, Japan, Taiwan, US, Korea","id":"243","category":"1","lat":"0","lon":"0","name":"origin","hops":{"incoming":[{"transport_id":"16","id":"1347","transport_name":"air, freight, intercontinental","transport_description":"intercontinental freight","transport_unit":"kg km","transport_co2_eq":"0.450000","from_stop_id":"3607","from_stop_lat":"36.204824","from_stop_lon":"138.252924","to_stop_id":"243","to_stop_name":"origin","to_stop_lat":"0","placename":"Japan","to_stop_lon":"0","to_stop":{"id":"243","name":"origin","lat":"0","placename":"China, Japan, Taiwan, US, Korea","lon":"0"},"from_stop":{"name":"origin","id":"3607","lat":"36.204824","lon":"138.252924","placename":"Japan"}},{"transport_id":"16","id":"1348","transport_name":"air, freight, intercontinental","transport_description":"intercontinental freight","transport_unit":"kg km","transport_co2_eq":"0.450000","from_stop_id":"3608","from_stop_lat":"36.204824","from_stop_lon":"138.252924","to_stop_id":"243","to_stop_name":"origin","to_stop_lat":"0","placename":"Japan","to_stop_lon":"0","to_stop":{"id":"243","name":"origin","lat":"0","placename":"China, Japan, Taiwan, US, Korea","lon":"0"},"from_stop":{"name":"origin","id":"3608","lat":"36.204824","lon":"138.252924","placename":"Japan"}},{"transport_id":"17","id":"1349","transport_name":"None Selected","transport_description":null,"transport_unit":"kg km","transport_co2_eq":"0.000000","from_stop_id":"3609","from_stop_lat":"37.09024","from_stop_lon":"-95.712891","to_stop_id":"243","to_stop_name":"origin","to_stop_lat":"0","placename":"United States","to_stop_lon":"0","to_stop":{"id":"243","name":"origin","lat":"0","placename":"China, Japan, Taiwan, US, Korea","lon":"0"},"from_stop":{"name":"origin","id":"3609","lat":"37.09024","lon":"-95.712891","placename":"United States"}},{"transport_id":"17","id":"1350","transport_name":"None Selected","transport_description":null,"transport_unit":"kg km","transport_co2_eq":"0.000000","from_stop_id":"3610","from_stop_lat":"37.09024","from_stop_lon":"-95.712891","to_stop_id":"243","to_stop_name":"origin","to_stop_lat":"0","placename":"United States","to_stop_lon":"0","to_stop":{"id":"243","name":"origin","lat":"0","placename":"China, Japan, Taiwan, US, Korea","lon":"0"},"from_stop":{"name":"origin","id":"3610","lat":"37.09024","lon":"-95.712891","placename":"United States"}},{"transport_id":"17","id":"1351","transport_name":"None Selected","transport_description":null,"transport_unit":"kg km","transport_co2_eq":"0.000000","from_stop_id":"3611","from_stop_lat":"23.69781","from_stop_lon":"120.960515","to_stop_id":"243","to_stop_name":"origin","to_stop_lat":"0","placename":"Taiwan","to_stop_lon":"0","to_stop":{"id":"243","name":"origin","lat":"0","placename":"China, Japan, Taiwan, US, Korea","lon":"0"},"from_stop":{"name":"origin","id":"3611","lat":"23.69781","lon":"120.960515","placename":"Taiwan"}},{"transport_id":"17","id":"1352","transport_name":"None Selected","transport_description":null,"transport_unit":"kg km","transport_co2_eq":"0.000000","from_stop_id":"3612","from_stop_lat":"36.204824","from_stop_lon":"138.252924","to_stop_id":"243","to_stop_name":"origin","to_stop_lat":"0","placename":"Japan","to_stop_lon":"0","to_stop":{"id":"243","name":"origin","lat":"0","placename":"China, Japan, Taiwan, US, Korea","lon":"0"},"from_stop":{"name":"origin","id":"3612","lat":"36.204824","lon":"138.252924","placename":"Japan"}},{"transport_id":"17","id":"1353","transport_name":"None Selected","transport_description":null,"transport_unit":"kg km","transport_co2_eq":"0.000000","from_stop_id":"3613","from_stop_lat":"35.907757","from_stop_lon":"127.766922","to_stop_id":"243","to_stop_name":"origin","to_stop_lat":"0","placename":"South Korea","to_stop_lon":"0","to_stop":{"id":"243","name":"origin","lat":"0","placename":"China, Japan, Taiwan, US, Korea","lon":"0"},"from_stop":{"name":"origin","id":"3613","lat":"35.907757","lon":"127.766922","placename":"South Korea"}},{"transport_id":"17","id":"1354","transport_name":"None Selected","transport_description":null,"transport_unit":"kg km","transport_co2_eq":"0.000000","from_stop_id":"3614","from_stop_lat":"23.69781","from_stop_lon":"120.960515","to_stop_id":"243","to_stop_name":"origin","to_stop_lat":"0","placename":"Taiwan","to_stop_lon":"0","to_stop":{"id":"243","name":"origin","lat":"0","placename":"China, Japan, Taiwan, US, Korea","lon":"0"},"from_stop":{"name":"origin","id":"3614","lat":"23.69781","lon":"120.960515","placename":"Taiwan"}},{"transport_id":"17","id":"1355","transport_name":"None Selected","transport_description":null,"transport_unit":"kg km","transport_co2_eq":"0.000000","from_stop_id":"3615","from_stop_lat":"23.69781","from_stop_lon":"120.960515","to_stop_id":"243","to_stop_name":"origin","to_stop_lat":"0","placename":"Taiwan","to_stop_lon":"0","to_stop":{"id":"243","name":"origin","lat":"0","placename":"China, Japan, Taiwan, US, Korea","lon":"0"},"from_stop":{"name":"origin","id":"3615","lat":"23.69781","lon":"120.960515","placename":"Taiwan"}}],"outgoing":[]}}},"parts":[{"oid":"2060","imid":"1566","linkid":"","weight":"0","rawemissions":"0","emissions":"0","shipping":"14139.3","processemissions":null,"endoflifeemissions":null,"disposaltype":null,"disposalenergy":null,"disposalimpact":null,"disposalemissions":null,"description":"","name":"Toshiba Hard Drive ","id":"1566","stops":{"origin":{"related_to":"1566","part_or_object":"p","notes":"","placename":"Japan","id":3607,"name":"origin","lat":"36.204824","lon":"138.252924","hops":{"incoming":[],"outgoing":[{"transport_id":"16","id":"1347","transport_name":"air, freight, intercontinental","transport_description":"intercontinental freight","transport_unit":"kg km","transport_co2_eq":"0.450000","from_stop_id":"3607","from_stop_lat":"36.204824","from_stop_lon":"138.252924","from_stop_placename":"Japan","to_stop_id":"243","to_stop_name":"origin","to_stop_lat":"0","to_stop_lon":"0","to_stop_placename":"China, Japan, Taiwan, US, Korea","to_stop":{"id":"243","name":"origin","lat":"0","lon":"0","placename":"China, Japan, Taiwan, US, Korea"},"from_stop":{"name":"origin","id":"3607","lat":"36.204824","lon":"138.252924","placename":"Japan"}}]}}},"processes":[],"eols":[]},{"oid":"2060","imid":"1567","linkid":"","weight":"0","rawemissions":"0","emissions":"0","shipping":"14139.3","processemissions":null,"endoflifeemissions":null,"disposaltype":null,"disposalenergy":null,"disposalimpact":null,"disposalemissions":null,"description":"","name":"Display Module","id":"1567","stops":{"origin":{"related_to":"1567","part_or_object":"p","notes":"","placename":"Japan","id":3608,"name":"origin","lat":"36.204824","lon":"138.252924","hops":{"incoming":[],"outgoing":[{"transport_id":"16","id":"1348","transport_name":"air, freight, intercontinental","transport_description":"intercontinental freight","transport_unit":"kg km","transport_co2_eq":"0.450000","from_stop_id":"3608","from_stop_lat":"36.204824","from_stop_lon":"138.252924","from_stop_placename":"Japan","to_stop_id":"243","to_stop_name":"origin","to_stop_lat":"0","to_stop_lon":"0","to_stop_placename":"China, Japan, Taiwan, US, Korea","to_stop":{"id":"243","name":"origin","lat":"0","lon":"0","placename":"China, Japan, Taiwan, US, Korea"},"from_stop":{"name":"origin","id":"3608","lat":"36.204824","lon":"138.252924","placename":"Japan"}}]}}},"processes":[],"eols":[]},{"oid":"2060","imid":"1568","linkid":"","weight":"0","rawemissions":"0","emissions":"0","shipping":"10525.7","processemissions":null,"endoflifeemissions":null,"disposaltype":null,"disposalenergy":null,"disposalimpact":null,"disposalemissions":null,"description":"","name":"Video\/Multimedia Processor","id":"1568","stops":{"origin":{"related_to":"1568","part_or_object":"p","notes":"","placename":"United States","id":3609,"name":"origin","lat":"37.09024","lon":"-95.712891","hops":{"incoming":[],"outgoing":[{"transport_id":"17","id":"1349","transport_name":"None Selected","transport_description":null,"transport_unit":"kg km","transport_co2_eq":"0.000000","from_stop_id":"3609","from_stop_lat":"37.09024","from_stop_lon":"-95.712891","from_stop_placename":"United States","to_stop_id":"243","to_stop_name":"origin","to_stop_lat":"0","to_stop_lon":"0","to_stop_placename":"China, Japan, Taiwan, US, Korea","to_stop":{"id":"243","name":"origin","lat":"0","lon":"0","placename":"China, Japan, Taiwan, US, Korea"},"from_stop":{"name":"origin","id":"3609","lat":"37.09024","lon":"-95.712891","placename":"United States"}}]}}},"processes":[],"eols":[]},{"oid":"2060","imid":"1569","linkid":"","weight":"0","rawemissions":"0","emissions":"0","shipping":"10525.7","processemissions":null,"endoflifeemissions":null,"disposaltype":null,"disposalenergy":null,"disposalimpact":null,"disposalemissions":null,"description":"","name":"Controller","id":"1569","stops":{"origin":{"related_to":"1569","part_or_object":"p","notes":"","placename":"United States","id":3610,"name":"origin","lat":"37.09024","lon":"-95.712891","hops":{"incoming":[],"outgoing":[{"transport_id":"17","id":"1350","transport_name":"None Selected","transport_description":null,"transport_unit":"kg km","transport_co2_eq":"0.000000","from_stop_id":"3610","from_stop_lat":"37.09024","from_stop_lon":"-95.712891","from_stop_placename":"United States","to_stop_id":"243","to_stop_name":"origin","to_stop_lat":"0","to_stop_lon":"0","to_stop_placename":"China, Japan, Taiwan, US, Korea","to_stop":{"id":"243","name":"origin","lat":"0","lon":"0","placename":"China, Japan, Taiwan, US, Korea"},"from_stop":{"name":"origin","id":"3610","lat":"37.09024","lon":"-95.712891","placename":"United States"}}]}}},"processes":[],"eols":[]},{"oid":"2060","imid":"1570","linkid":"","weight":"0","rawemissions":"0","emissions":"0","shipping":"13147.2","processemissions":null,"endoflifeemissions":null,"disposaltype":null,"disposalenergy":null,"disposalimpact":null,"disposalemissions":null,"description":"","name":"Insertion, test, and assembly","id":"1570","stops":{"origin":{"related_to":"1570","part_or_object":"p","notes":"","placename":"Taiwan","id":3611,"name":"origin","lat":"23.69781","lon":"120.960515","hops":{"incoming":[],"outgoing":[{"transport_id":"17","id":"1351","transport_name":"None Selected","transport_description":null,"transport_unit":"kg km","transport_co2_eq":"0.000000","from_stop_id":"3611","from_stop_lat":"23.69781","from_stop_lon":"120.960515","from_stop_placename":"Taiwan","to_stop_id":"243","to_stop_name":"origin","to_stop_lat":"0","to_stop_lon":"0","to_stop_placename":"China, Japan, Taiwan, US, Korea","to_stop":{"id":"243","name":"origin","lat":"0","lon":"0","placename":"China, Japan, Taiwan, US, Korea"},"from_stop":{"name":"origin","id":"3611","lat":"23.69781","lon":"120.960515","placename":"Taiwan"}}]}}},"processes":[],"eols":[]},{"oid":"2060","imid":"1571","linkid":"","weight":"0","rawemissions":"0","emissions":"0","shipping":"14139.3","processemissions":null,"endoflifeemissions":null,"disposaltype":null,"disposalenergy":null,"disposalimpact":null,"disposalemissions":null,"description":"","name":"Battery Pack","id":"1571","stops":{"origin":{"related_to":"1571","part_or_object":"p","notes":"","placename":"Japan","id":3612,"name":"origin","lat":"36.204824","lon":"138.252924","hops":{"incoming":[],"outgoing":[{"transport_id":"17","id":"1352","transport_name":"None Selected","transport_description":null,"transport_unit":"kg km","transport_co2_eq":"0.000000","from_stop_id":"3612","from_stop_lat":"36.204824","from_stop_lon":"138.252924","from_stop_placename":"Japan","to_stop_id":"243","to_stop_name":"origin","to_stop_lat":"0","to_stop_lon":"0","to_stop_placename":"China, Japan, Taiwan, US, Korea","to_stop":{"id":"243","name":"origin","lat":"0","lon":"0","placename":"China, Japan, Taiwan, US, Korea"},"from_stop":{"name":"origin","id":"3612","lat":"36.204824","lon":"138.252924","placename":"Japan"}}]}}},"processes":[],"eols":[]},{"oid":"2060","imid":"1572","linkid":"","weight":"0","rawemissions":"0","emissions":"0","shipping":"13329.4","processemissions":null,"endoflifeemissions":null,"disposaltype":null,"disposalenergy":null,"disposalimpact":null,"disposalemissions":null,"description":"","name":"Mobile SDRAM","id":"1572","stops":{"origin":{"related_to":"1572","part_or_object":"p","notes":"","placename":"South Korea","id":3613,"name":"origin","lat":"35.907757","lon":"127.766922","hops":{"incoming":[],"outgoing":[{"transport_id":"17","id":"1353","transport_name":"None Selected","transport_description":null,"transport_unit":"kg km","transport_co2_eq":"0.000000","from_stop_id":"3613","from_stop_lat":"35.907757","from_stop_lon":"127.766922","from_stop_placename":"South Korea","to_stop_id":"243","to_stop_name":"origin","to_stop_lat":"0","to_stop_lon":"0","to_stop_placename":"China, Japan, Taiwan, US, Korea","to_stop":{"id":"243","name":"origin","lat":"0","lon":"0","placename":"China, Japan, Taiwan, US, Korea"},"from_stop":{"name":"origin","id":"3613","lat":"35.907757","lon":"127.766922","placename":"South Korea"}}]}}},"processes":[],"eols":[]},{"oid":"2060","imid":"1573","linkid":"","weight":"0","rawemissions":"0","emissions":"0","shipping":"13147.2","processemissions":null,"endoflifeemissions":null,"disposaltype":null,"disposalenergy":null,"disposalimpact":null,"disposalemissions":null,"description":"","name":"Back Enclosure","id":"1573","stops":{"origin":{"related_to":"1573","part_or_object":"p","notes":"","placename":"Taiwan","id":3614,"name":"origin","lat":"23.69781","lon":"120.960515","hops":{"incoming":[],"outgoing":[{"transport_id":"17","id":"1354","transport_name":"None Selected","transport_description":null,"transport_unit":"kg km","transport_co2_eq":"0.000000","from_stop_id":"3614","from_stop_lat":"23.69781","from_stop_lon":"120.960515","from_stop_placename":"Taiwan","to_stop_id":"243","to_stop_name":"origin","to_stop_lat":"0","to_stop_lon":"0","to_stop_placename":"China, Japan, Taiwan, US, Korea","to_stop":{"id":"243","name":"origin","lat":"0","lon":"0","placename":"China, Japan, Taiwan, US, Korea"},"from_stop":{"name":"origin","id":"3614","lat":"23.69781","lon":"120.960515","placename":"Taiwan"}}]}}},"processes":[],"eols":[]},{"oid":"2060","imid":"1574","linkid":"","weight":"0","rawemissions":"0","emissions":"0","shipping":"13147.2","processemissions":null,"endoflifeemissions":null,"disposaltype":null,"disposalenergy":null,"disposalimpact":null,"disposalemissions":null,"description":"","name":"Mobile PCB","id":"1574","stops":{"origin":{"related_to":"1574","part_or_object":"p","notes":"","placename":"Taiwan","id":3615,"name":"origin","lat":"23.69781","lon":"120.960515","hops":{"incoming":[],"outgoing":[{"transport_id":"17","id":"1355","transport_name":"None Selected","transport_description":null,"transport_unit":"kg km","transport_co2_eq":"0.000000","from_stop_id":"3615","from_stop_lat":"23.69781","from_stop_lon":"120.960515","from_stop_placename":"Taiwan","to_stop_id":"243","to_stop_name":"origin","to_stop_lat":"0","to_stop_lon":"0","to_stop_placename":"China, Japan, Taiwan, US, Korea","to_stop":{"id":"243","name":"origin","lat":"0","lon":"0","placename":"China, Japan, Taiwan, US, Korea"},"from_stop":{"name":"origin","id":"3615","lat":"23.69781","lon":"120.960515","placename":"Taiwan"}}]}}},"processes":[],"eols":[]}],"user":{"name":"kchen14","id":"7277"}}}