{"2063":{"oid":"2063","type":"object","flag":"","creator":"7277","name":"iPod Production","upc":"","imagelink":"","description":"","slug":"ipod-production","category":"featured","weight":"0","emissions":"9.84","embodied":"0","transport":"0","process":"0","endoflife":"0","shipping":"17028.3","lifetime":null,"usagetype":"","usageenergy":"12","usageemissions":"9.84","timecreated":"2010-02-24 22:03:35.932317","timemodified":"2009-12-07 22:50:26","visibility":"public","showfootprint":"on","showembodied":"on","showtransport":"on","showprocess":"on","showendoflife":"on","showlastleg":"on","showuse":"on","showstats":"on","stops":{"origin":{"related_to":"2063","part_or_object":"o","notes":"","placename":"Shanghai, China","id":"330","category":"1","lat":"31.230708","lon":"121.472916","name":"origin","hops":{"incoming":[{"transport_id":"17","id":"1356","transport_name":"None Selected","transport_description":null,"transport_unit":"kg km","transport_co2_eq":"0.000000","from_stop_id":"3616","from_stop_lat":"0","from_stop_lon":"0","to_stop_id":"330","to_stop_name":"origin","to_stop_lat":"31.230708","placename":"Part Location","to_stop_lon":"121.472916","to_stop":{"id":"330","name":"origin","lat":"31.230708","placename":"Shanghai, China","lon":"121.472916"},"from_stop":{"name":"origin","id":"3616","lat":"0","lon":"0","placename":"Part Location"}},{"transport_id":"17","id":"1357","transport_name":"None Selected","transport_description":null,"transport_unit":"kg km","transport_co2_eq":"0.000000","from_stop_id":"3617","from_stop_lat":"35.907757","from_stop_lon":"127.766922","to_stop_id":"330","to_stop_name":"origin","to_stop_lat":"31.230708","placename":"South Korea","to_stop_lon":"121.472916","to_stop":{"id":"330","name":"origin","lat":"31.230708","placename":"Shanghai, China","lon":"121.472916"},"from_stop":{"name":"origin","id":"3617","lat":"35.907757","lon":"127.766922","placename":"South Korea"}},{"transport_id":"17","id":"1358","transport_name":"None Selected","transport_description":null,"transport_unit":"kg km","transport_co2_eq":"0.000000","from_stop_id":"3618","from_stop_lat":"36.204824","from_stop_lon":"138.252924","to_stop_id":"330","to_stop_name":"origin","to_stop_lat":"31.230708","placename":"Japan","to_stop_lon":"121.472916","to_stop":{"id":"330","name":"origin","lat":"31.230708","placename":"Shanghai, China","lon":"121.472916"},"from_stop":{"name":"origin","id":"3618","lat":"36.204824","lon":"138.252924","placename":"Japan"}},{"transport_id":"17","id":"1359","transport_name":"None Selected","transport_description":null,"transport_unit":"kg km","transport_co2_eq":"0.000000","from_stop_id":"3619","from_stop_lat":"23.69781","from_stop_lon":"120.960515","to_stop_id":"330","to_stop_name":"origin","to_stop_lat":"31.230708","placename":"Taiwan","to_stop_lon":"121.472916","to_stop":{"id":"330","name":"origin","lat":"31.230708","placename":"Shanghai, China","lon":"121.472916"},"from_stop":{"name":"origin","id":"3619","lat":"23.69781","lon":"120.960515","placename":"Taiwan"}},{"transport_id":"17","id":"1360","transport_name":"None Selected","transport_description":null,"transport_unit":"kg km","transport_co2_eq":"0.000000","from_stop_id":"3620","from_stop_lat":"1.352083","from_stop_lon":"103.819836","to_stop_id":"330","to_stop_name":"origin","to_stop_lat":"31.230708","placename":"Singapore","to_stop_lon":"121.472916","to_stop":{"id":"330","name":"origin","lat":"31.230708","placename":"Shanghai, China","lon":"121.472916"},"from_stop":{"name":"origin","id":"3620","lat":"1.352083","lon":"103.819836","placename":"Singapore"}},{"transport_id":"17","id":"1361","transport_name":"None Selected","transport_description":null,"transport_unit":"kg km","transport_co2_eq":"0.000000","from_stop_id":"3621","from_stop_lat":"31.2376787","from_stop_lon":"121.4797843","to_stop_id":"330","to_stop_name":"origin","to_stop_lat":"31.230708","placename":"Taiwan Rd, Huangpu, Shanghai, China","to_stop_lon":"121.472916","to_stop":{"id":"330","name":"origin","lat":"31.230708","placename":"Shanghai, China","lon":"121.472916"},"from_stop":{"name":"origin","id":"3621","lat":"31.2376787","lon":"121.4797843","placename":"Taiwan Rd, Huangpu, Shanghai, China"}},{"transport_id":"17","id":"1362","transport_name":"None Selected","transport_description":null,"transport_unit":"kg km","transport_co2_eq":"0.000000","from_stop_id":"3622","from_stop_lat":"37.3229978","from_stop_lon":"-122.0321823","to_stop_id":"330","to_stop_name":"origin","to_stop_lat":"31.230708","placename":"Cupertino, CA, USA","to_stop_lon":"121.472916","to_stop":{"id":"330","name":"origin","lat":"31.230708","placename":"Shanghai, China","lon":"121.472916"},"from_stop":{"name":"origin","id":"3622","lat":"37.3229978","lon":"-122.0321823","placename":"Cupertino, CA, USA"}}],"outgoing":[]}}},"parts":[{"oid":"2063","imid":"1575","linkid":"","weight":"0","rawemissions":"0","emissions":"0","shipping":"0","processemissions":null,"endoflifeemissions":null,"disposaltype":null,"disposalenergy":null,"disposalimpact":null,"disposalemissions":null,"description":"","name":"Hard Drive (HDD) manufacturing","id":"1575","stops":{"origin":{"related_to":"1575","part_or_object":"p","notes":"","placename":"Part Location","id":3616,"name":"origin","lat":"0","lon":"0","hops":{"incoming":[],"outgoing":[{"transport_id":"17","id":"1356","transport_name":"None Selected","transport_description":null,"transport_unit":"kg km","transport_co2_eq":"0.000000","from_stop_id":"3616","from_stop_lat":"0","from_stop_lon":"0","from_stop_placename":"Part Location","to_stop_id":"330","to_stop_name":"origin","to_stop_lat":"31.230708","to_stop_lon":"121.472916","to_stop_placename":"Shanghai, China","to_stop":{"id":"330","name":"origin","lat":"31.230708","lon":"121.472916","placename":"Shanghai, China"},"from_stop":{"name":"origin","id":"3616","lat":"0","lon":"0","placename":"Part Location"}}]}}},"processes":[],"eols":[]},{"oid":"2063","imid":"1576","linkid":"","weight":"0","rawemissions":"0","emissions":"0","shipping":"781.88","processemissions":null,"endoflifeemissions":null,"disposaltype":null,"disposalenergy":null,"disposalimpact":null,"disposalemissions":null,"description":"","name":"Flash Memory","id":"1576","stops":{"origin":{"related_to":"1576","part_or_object":"p","notes":"","placename":"South Korea","id":3617,"name":"origin","lat":"35.907757","lon":"127.766922","hops":{"incoming":[],"outgoing":[{"transport_id":"17","id":"1357","transport_name":"None Selected","transport_description":null,"transport_unit":"kg km","transport_co2_eq":"0.000000","from_stop_id":"3617","from_stop_lat":"35.907757","from_stop_lon":"127.766922","from_stop_placename":"South Korea","to_stop_id":"330","to_stop_name":"origin","to_stop_lat":"31.230708","to_stop_lon":"121.472916","to_stop_placename":"Shanghai, China","to_stop":{"id":"330","name":"origin","lat":"31.230708","lon":"121.472916","placename":"Shanghai, China"},"from_stop":{"name":"origin","id":"3617","lat":"35.907757","lon":"127.766922","placename":"South Korea"}}]}}},"processes":[],"eols":[]},{"oid":"2063","imid":"1577","linkid":"","weight":"0","rawemissions":"0","emissions":"0","shipping":"1646.74","processemissions":null,"endoflifeemissions":null,"disposaltype":null,"disposalenergy":null,"disposalimpact":null,"disposalemissions":null,"description":"","name":"HDD input","id":"1577","stops":{"origin":{"related_to":"1577","part_or_object":"p","notes":"","placename":"Japan","id":3618,"name":"origin","lat":"36.204824","lon":"138.252924","hops":{"incoming":[],"outgoing":[{"transport_id":"17","id":"1358","transport_name":"None Selected","transport_description":null,"transport_unit":"kg km","transport_co2_eq":"0.000000","from_stop_id":"3618","from_stop_lat":"36.204824","from_stop_lon":"138.252924","from_stop_placename":"Japan","to_stop_id":"330","to_stop_name":"origin","to_stop_lat":"31.230708","to_stop_lon":"121.472916","to_stop_placename":"Shanghai, China","to_stop":{"id":"330","name":"origin","lat":"31.230708","lon":"121.472916","placename":"Shanghai, China"},"from_stop":{"name":"origin","id":"3618","lat":"36.204824","lon":"138.252924","placename":"Japan"}}]}}},"processes":[],"eols":[]},{"oid":"2063","imid":"1578","linkid":"","weight":"0","rawemissions":"0","emissions":"0","shipping":"840.08","processemissions":null,"endoflifeemissions":null,"disposaltype":null,"disposalenergy":null,"disposalimpact":null,"disposalemissions":null,"description":"","name":"Computer Chips","id":"1578","stops":{"origin":{"related_to":"1578","part_or_object":"p","notes":"","placename":"Taiwan","id":3619,"name":"origin","lat":"23.69781","lon":"120.960515","hops":{"incoming":[],"outgoing":[{"transport_id":"17","id":"1359","transport_name":"None Selected","transport_description":null,"transport_unit":"kg km","transport_co2_eq":"0.000000","from_stop_id":"3619","from_stop_lat":"23.69781","from_stop_lon":"120.960515","from_stop_placename":"Taiwan","to_stop_id":"330","to_stop_name":"origin","to_stop_lat":"31.230708","to_stop_lon":"121.472916","to_stop_placename":"Shanghai, China","to_stop":{"id":"330","name":"origin","lat":"31.230708","lon":"121.472916","placename":"Shanghai, China"},"from_stop":{"name":"origin","id":"3619","lat":"23.69781","lon":"120.960515","placename":"Taiwan"}}]}}},"processes":[],"eols":[]},{"oid":"2063","imid":"1579","linkid":"","weight":"0","rawemissions":"0","emissions":"0","shipping":"3809.99","processemissions":null,"endoflifeemissions":null,"disposaltype":null,"disposalenergy":null,"disposalimpact":null,"disposalemissions":null,"description":"","name":"Apple managers\/professionals","id":"1579","stops":{"origin":{"related_to":"1579","part_or_object":"p","notes":"","placename":"Singapore","id":3620,"name":"origin","lat":"1.352083","lon":"103.819836","hops":{"incoming":[],"outgoing":[{"transport_id":"17","id":"1360","transport_name":"None Selected","transport_description":null,"transport_unit":"kg km","transport_co2_eq":"0.000000","from_stop_id":"3620","from_stop_lat":"1.352083","from_stop_lon":"103.819836","from_stop_placename":"Singapore","to_stop_id":"330","to_stop_name":"origin","to_stop_lat":"31.230708","to_stop_lon":"121.472916","to_stop_placename":"Shanghai, China","to_stop":{"id":"330","name":"origin","lat":"31.230708","lon":"121.472916","placename":"Shanghai, China"},"from_stop":{"name":"origin","id":"3620","lat":"1.352083","lon":"103.819836","placename":"Singapore"}}]}}},"processes":[],"eols":[]},{"oid":"2063","imid":"1580","linkid":"","weight":"0","rawemissions":"0","emissions":"0","shipping":"1.01","processemissions":null,"endoflifeemissions":null,"disposaltype":null,"disposalenergy":null,"disposalimpact":null,"disposalemissions":null,"description":"","name":"PCB assembly and test","id":"1580","stops":{"origin":{"related_to":"1580","part_or_object":"p","notes":"","placename":"Taiwan Rd, Huangpu, Shanghai, China","id":3621,"name":"origin","lat":"31.2376787","lon":"121.4797843","hops":{"incoming":[],"outgoing":[{"transport_id":"17","id":"1361","transport_name":"None Selected","transport_description":null,"transport_unit":"kg km","transport_co2_eq":"0.000000","from_stop_id":"3621","from_stop_lat":"31.2376787","from_stop_lon":"121.4797843","from_stop_placename":"Taiwan Rd, Huangpu, Shanghai, China","to_stop_id":"330","to_stop_name":"origin","to_stop_lat":"31.230708","to_stop_lon":"121.472916","to_stop_placename":"Shanghai, China","to_stop":{"id":"330","name":"origin","lat":"31.230708","lon":"121.472916","placename":"Shanghai, China"},"from_stop":{"name":"origin","id":"3621","lat":"31.2376787","lon":"121.4797843","placename":"Taiwan Rd, Huangpu, Shanghai, China"}}]}}},"processes":[],"eols":[]},{"oid":"2063","imid":"1581","linkid":"","weight":"0","rawemissions":"0","emissions":"0","shipping":"9948.56","processemissions":null,"endoflifeemissions":null,"disposaltype":null,"disposalenergy":null,"disposalimpact":null,"disposalemissions":null,"description":"","name":"Apple Engineers","id":"1581","stops":{"origin":{"related_to":"1581","part_or_object":"p","notes":"","placename":"Cupertino, CA, USA","id":3622,"name":"origin","lat":"37.3229978","lon":"-122.0321823","hops":{"incoming":[],"outgoing":[{"transport_id":"17","id":"1362","transport_name":"None Selected","transport_description":null,"transport_unit":"kg km","transport_co2_eq":"0.000000","from_stop_id":"3622","from_stop_lat":"37.3229978","from_stop_lon":"-122.0321823","from_stop_placename":"Cupertino, CA, USA","to_stop_id":"330","to_stop_name":"origin","to_stop_lat":"31.230708","to_stop_lon":"121.472916","to_stop_placename":"Shanghai, China","to_stop":{"id":"330","name":"origin","lat":"31.230708","lon":"121.472916","placename":"Shanghai, China"},"from_stop":{"name":"origin","id":"3622","lat":"37.3229978","lon":"-122.0321823","placename":"Cupertino, CA, USA"}}]}}},"processes":[],"eols":[]}],"user":{"name":"kchen14","id":"7277"}}}