{"207":{"oid":"207","type":"object","flag":"","creator":"790","name":"LyonsOneil Wedding","upc":"","imagelink":"","description":"","slug":"lyonsoneil-wedding","category":"","weight":"2","emissions":"0.02125","embodied":"0","transport":"0.02125","process":"0","endoflife":"0","shipping":"953.66","lifetime":"0","usagetype":"","usageenergy":"0","usageemissions":"0","timecreated":"2010-02-24 22:03:35.447521","timemodified":"2009-06-19 03:19:36","visibility":"public","showfootprint":"on","showembodied":"on","showtransport":"on","showprocess":"on","showendoflife":"on","showlastleg":"on","showuse":"on","showstats":"on","stops":{"origin":{"related_to":"207","part_or_object":"o","notes":"","placename":"Cambridge MA","id":"48","category":"1","lat":"42.375627","lon":"-71.1401543","name":"origin","hops":{"incoming":[{"transport_id":"1","id":"471","transport_name":"van, 3.5 tons","transport_description":"delivery van, half full","transport_unit":"kg km","transport_co2_eq":"0.053400","from_stop_id":"2660","from_stop_lat":"42.443872","from_stop_lon":"-73.559261","to_stop_id":"48","to_stop_name":"origin","to_stop_lat":"42.375627","placename":"Old Chatam NY","to_stop_lon":"-71.1401543","to_stop":{"id":"48","name":"origin","lat":"42.375627","placename":"Cambridge MA","lon":"-71.1401543"},"from_stop":{"name":"origin","id":"2660","lat":"42.443872","lon":"-73.559261","placename":"Old Chatam NY"}},{"transport_id":"1","id":"472","transport_name":"van, 3.5 tons","transport_description":"delivery van, half full","transport_unit":"kg km","transport_co2_eq":"0.053400","from_stop_id":"2661","from_stop_lat":"41.5923371","from_stop_lon":"-70.9784562","to_stop_id":"48","to_stop_name":"origin","to_stop_lat":"42.375627","placename":"Datmouth, ma","to_stop_lon":"-71.1401543","to_stop":{"id":"48","name":"origin","lat":"42.375627","placename":"Cambridge MA","lon":"-71.1401543"},"from_stop":{"name":"origin","id":"2661","lat":"41.5923371","lon":"-70.9784562","placename":"Datmouth, ma"}},{"transport_id":"2","id":"477","transport_name":"truck, 16 tons","transport_description":"truck, half full","transport_unit":"kg km","transport_co2_eq":"0.020300","from_stop_id":"2666","from_stop_lat":"45.253783","from_stop_lon":"-69.4454689","to_stop_id":"48","to_stop_name":"origin","to_stop_lat":"42.375627","placename":"Maine","to_stop_lon":"-71.1401543","to_stop":{"id":"48","name":"origin","lat":"42.375627","placename":"Cambridge MA","lon":"-71.1401543"},"from_stop":{"name":"origin","id":"2666","lat":"45.253783","lon":"-69.4454689","placename":"Maine"}},{"transport_id":"17","id":"473","transport_name":"None Selected","transport_description":null,"transport_unit":"kg km","transport_co2_eq":"0.000000","from_stop_id":"2662","from_stop_lat":"42.666397","from_stop_lon":"-71.58901","to_stop_id":"48","to_stop_name":"origin","to_stop_lat":"42.375627","placename":"Pepperell MA","to_stop_lon":"-71.1401543","to_stop":{"id":"48","name":"origin","lat":"42.375627","placename":"Cambridge MA","lon":"-71.1401543"},"from_stop":{"name":"origin","id":"2662","lat":"42.666397","lon":"-71.58901","placename":"Pepperell MA"}},{"transport_id":"17","id":"476","transport_name":"None Selected","transport_description":null,"transport_unit":"kg km","transport_co2_eq":"0.000000","from_stop_id":"2665","from_stop_lat":"44.5588028","from_stop_lon":"-72.5778415","to_stop_id":"48","to_stop_name":"origin","to_stop_lat":"42.375627","placename":"Vermont","to_stop_lon":"-71.1401543","to_stop":{"id":"48","name":"origin","lat":"42.375627","placename":"Cambridge MA","lon":"-71.1401543"},"from_stop":{"name":"origin","id":"2665","lat":"44.5588028","lon":"-72.5778415","placename":"Vermont"}}],"outgoing":[]}}},"parts":[{"oid":"207","imid":"552","linkid":"","weight":"2","rawemissions":"0","emissions":"0","shipping":"198.97","processemissions":null,"endoflifeemissions":null,"disposaltype":null,"disposalenergy":null,"disposalimpact":null,"disposalemissions":null,"description":"Blue Cheese from Upstate NY","name":"Ewes Blue Cheese, Camembere Cheese","id":"552","stops":{"origin":{"related_to":"552","part_or_object":"p","notes":"","placename":"Old Chatam NY","id":2660,"name":"origin","lat":"42.443872","lon":"-73.559261","hops":{"incoming":[],"outgoing":[{"transport_id":"1","id":"471","transport_name":"van, 3.5 tons","transport_description":"delivery van, half full","transport_unit":"kg km","transport_co2_eq":"0.053400","from_stop_id":"2660","from_stop_lat":"42.443872","from_stop_lon":"-73.559261","from_stop_placename":"Old Chatam NY","to_stop_id":"48","to_stop_name":"origin","to_stop_lat":"42.375627","to_stop_lon":"-71.1401543","to_stop_placename":"Cambridge MA","to_stop":{"id":"48","name":"origin","lat":"42.375627","lon":"-71.1401543","placename":"Cambridge MA"},"from_stop":{"name":"origin","id":"2660","lat":"42.443872","lon":"-73.559261","placename":"Old Chatam NY"}}]}}},"processes":[],"eols":[]},{"oid":"207","imid":"554","linkid":"","weight":"0","rawemissions":"0","emissions":"0","shipping":"88.22","processemissions":null,"endoflifeemissions":null,"disposaltype":null,"disposalenergy":null,"disposalimpact":null,"disposalemissions":null,"description":"Silver Brook Farm","name":"Spinach, Spring Onions, Pea Tips, Eggs Basil, MInt Lettuce, Stawberry Jam","id":"554","stops":{"origin":{"related_to":"554","part_or_object":"p","notes":"","placename":"Datmouth, ma","id":2661,"name":"origin","lat":"41.5923371","lon":"-70.9784562","hops":{"incoming":[],"outgoing":[{"transport_id":"1","id":"472","transport_name":"van, 3.5 tons","transport_description":"delivery van, half full","transport_unit":"kg km","transport_co2_eq":"0.053400","from_stop_id":"2661","from_stop_lat":"41.5923371","from_stop_lon":"-70.9784562","from_stop_placename":"Datmouth, ma","to_stop_id":"48","to_stop_name":"origin","to_stop_lat":"42.375627","to_stop_lon":"-71.1401543","to_stop_placename":"Cambridge MA","to_stop":{"id":"48","name":"origin","lat":"42.375627","lon":"-71.1401543","placename":"Cambridge MA"},"from_stop":{"name":"origin","id":"2661","lat":"41.5923371","lon":"-70.9784562","placename":"Datmouth, ma"}}]}}},"processes":[],"eols":[]},{"oid":"207","imid":"555","linkid":"","weight":"0","rawemissions":"0","emissions":"0","shipping":"49.03","processemissions":null,"endoflifeemissions":null,"disposaltype":null,"disposalenergy":null,"disposalimpact":null,"disposalemissions":null,"description":"Kimball Fruit Farm","name":"Strawberries, Asparagus Arugala","id":"555","stops":{"origin":{"related_to":"555","part_or_object":"p","notes":"","placename":"Pepperell MA","id":2662,"name":"origin","lat":"42.666397","lon":"-71.58901","hops":{"incoming":[],"outgoing":[{"transport_id":"17","id":"473","transport_name":"None Selected","transport_description":null,"transport_unit":"kg km","transport_co2_eq":"0.000000","from_stop_id":"2662","from_stop_lat":"42.666397","from_stop_lon":"-71.58901","from_stop_placename":"Pepperell MA","to_stop_id":"48","to_stop_name":"origin","to_stop_lat":"42.375627","to_stop_lon":"-71.1401543","to_stop_placename":"Cambridge MA","to_stop":{"id":"48","name":"origin","lat":"42.375627","lon":"-71.1401543","placename":"Cambridge MA"},"from_stop":{"name":"origin","id":"2662","lat":"42.666397","lon":"-71.58901","placename":"Pepperell MA"}}]}}},"processes":[],"eols":[]},{"oid":"207","imid":"559","linkid":"","weight":"0","rawemissions":"0","emissions":"0","shipping":"269.35","processemissions":null,"endoflifeemissions":null,"disposaltype":null,"disposalenergy":null,"disposalimpact":null,"disposalemissions":null,"description":"Part Description","name":"Vermont Tome, Fresh Goat Cheese, Flour, Creme Friache, Aged Gouda, Butter, Cream","id":"559","stops":{"origin":{"related_to":"559","part_or_object":"p","notes":"","placename":"Vermont","id":2665,"name":"origin","lat":"44.5588028","lon":"-72.5778415","hops":{"incoming":[],"outgoing":[{"transport_id":"17","id":"476","transport_name":"None Selected","transport_description":null,"transport_unit":"kg km","transport_co2_eq":"0.000000","from_stop_id":"2665","from_stop_lat":"44.5588028","from_stop_lon":"-72.5778415","from_stop_placename":"Vermont","to_stop_id":"48","to_stop_name":"origin","to_stop_lat":"42.375627","to_stop_lon":"-71.1401543","to_stop_placename":"Cambridge MA","to_stop":{"id":"48","name":"origin","lat":"42.375627","lon":"-71.1401543","placename":"Cambridge MA"},"from_stop":{"name":"origin","id":"2665","lat":"44.5588028","lon":"-72.5778415","placename":"Vermont"}}]}}},"processes":[],"eols":[]},{"oid":"207","imid":"561","linkid":"","weight":"0","rawemissions":"0","emissions":"0","shipping":"348.09","processemissions":null,"endoflifeemissions":null,"disposaltype":null,"disposalenergy":null,"disposalimpact":null,"disposalemissions":null,"description":"Part Description","name":"Beets, Potatoes, Carrots","id":"561","stops":{"origin":{"related_to":"561","part_or_object":"p","notes":"","placename":"Maine","id":2666,"name":"origin","lat":"45.253783","lon":"-69.4454689","hops":{"incoming":[],"outgoing":[{"transport_id":"2","id":"477","transport_name":"truck, 16 tons","transport_description":"truck, half full","transport_unit":"kg km","transport_co2_eq":"0.020300","from_stop_id":"2666","from_stop_lat":"45.253783","from_stop_lon":"-69.4454689","from_stop_placename":"Maine","to_stop_id":"48","to_stop_name":"origin","to_stop_lat":"42.375627","to_stop_lon":"-71.1401543","to_stop_placename":"Cambridge MA","to_stop":{"id":"48","name":"origin","lat":"42.375627","lon":"-71.1401543","placename":"Cambridge MA"},"from_stop":{"name":"origin","id":"2666","lat":"45.253783","lon":"-69.4454689","placename":"Maine"}}]}}},"processes":[],"eols":[]}],"user":{"name":"farm2table","id":"790"}}}