{"2079":{"oid":"2079","type":"object","flag":"","creator":"7293","name":"Health care bill","upc":"","imagelink":"","description":"","slug":"health-care-bill","category":"","weight":"0","emissions":"28.8762","embodied":"28.8762","transport":"0","process":"0","endoflife":"0","shipping":"12373.2","lifetime":null,"usagetype":"","usageenergy":null,"usageemissions":null,"timecreated":"2010-02-24 22:03:35.956534","timemodified":"2009-12-10 03:41:06","visibility":"public","showfootprint":"on","showembodied":"on","showtransport":"on","showprocess":"on","showendoflife":"on","showlastleg":"on","showuse":"on","showstats":"on","stops":{"origin":{"related_to":"2079","part_or_object":"o","notes":"","placename":"Washington, DC, USA","id":"343","category":"1","lat":"38.8951118","lon":"-77.0363658","name":"origin","hops":{"incoming":[{"transport_id":"16","id":"1373","transport_name":"air, freight, intercontinental","transport_description":"intercontinental freight","transport_unit":"kg km","transport_co2_eq":"0.450000","from_stop_id":"3633","from_stop_lat":"38.9029421","from_stop_lon":"-77.0406147","to_stop_id":"343","to_stop_name":"origin","to_stop_lat":"38.8951118","placename":"Connecticut Ave\/ K Street, Washington, DC, USA","to_stop_lon":"-77.0363658","to_stop":{"id":"343","name":"origin","lat":"38.8951118","placename":"Washington, DC, USA","lon":"-77.0363658"},"from_stop":{"name":"origin","id":"3633","lat":"38.9029421","lon":"-77.0406147","placename":"Connecticut Ave\/ K Street, Washington, DC, USA"}},{"transport_id":"17","id":"1366","transport_name":"None Selected","transport_description":null,"transport_unit":"kg km","transport_co2_eq":"0.000000","from_stop_id":"3626","from_stop_lat":"40.7242318","from_stop_lon":"-79.7856073","to_stop_id":"343","to_stop_name":"origin","to_stop_lat":"38.8951118","placename":"Clinton, PA, USA","to_stop_lon":"-77.0363658","to_stop":{"id":"343","name":"origin","lat":"38.8951118","placename":"Washington, DC, USA","lon":"-77.0363658"},"from_stop":{"name":"origin","id":"3626","lat":"40.7242318","lon":"-79.7856073","placename":"Clinton, PA, USA"}},{"transport_id":"17","id":"1367","transport_name":"None Selected","transport_description":null,"transport_unit":"kg km","transport_co2_eq":"0.000000","from_stop_id":"3627","from_stop_lat":"34.0983425","from_stop_lon":"-118.3267434","to_stop_id":"343","to_stop_name":"origin","to_stop_lat":"38.8951118","placename":"Hollywood, CA, USA","to_stop_lon":"-77.0363658","to_stop":{"id":"343","name":"origin","lat":"38.8951118","placename":"Washington, DC, USA","lon":"-77.0363658"},"from_stop":{"name":"origin","id":"3627","lat":"34.0983425","lon":"-118.3267434","placename":"Hollywood, CA, USA"}},{"transport_id":"17","id":"1368","transport_name":"None Selected","transport_description":null,"transport_unit":"kg km","transport_co2_eq":"0.000000","from_stop_id":"3628","from_stop_lat":"41.850033","from_stop_lon":"-87.6500523","to_stop_id":"343","to_stop_name":"origin","to_stop_lat":"38.8951118","placename":"Chicago, IL, USA","to_stop_lon":"-77.0363658","to_stop":{"id":"343","name":"origin","lat":"38.8951118","placename":"Washington, DC, USA","lon":"-77.0363658"},"from_stop":{"name":"origin","id":"3628","lat":"41.850033","lon":"-87.6500523","placename":"Chicago, IL, USA"}},{"transport_id":"17","id":"1369","transport_name":"None Selected","transport_description":null,"transport_unit":"kg km","transport_co2_eq":"0.000000","from_stop_id":"3629","from_stop_lat":"38.8826654","from_stop_lon":"-76.997427","to_stop_id":"343","to_stop_name":"origin","to_stop_lat":"38.8951118","placename":"Capitol Hill, Washington, DC, USA","to_stop_lon":"-77.0363658","to_stop":{"id":"343","name":"origin","lat":"38.8951118","placename":"Washington, DC, USA","lon":"-77.0363658"},"from_stop":{"name":"origin","id":"3629","lat":"38.8826654","lon":"-76.997427","placename":"Capitol Hill, Washington, DC, USA"}},{"transport_id":"17","id":"1370","transport_name":"None Selected","transport_description":null,"transport_unit":"kg km","transport_co2_eq":"0.000000","from_stop_id":"3630","from_stop_lat":"42.3750969","from_stop_lon":"-71.1056079","to_stop_id":"343","to_stop_name":"origin","to_stop_lat":"38.8951118","placename":"Cambridge, MA, USA","to_stop_lon":"-77.0363658","to_stop":{"id":"343","name":"origin","lat":"38.8951118","placename":"Washington, DC, USA","lon":"-77.0363658"},"from_stop":{"name":"origin","id":"3630","lat":"42.3750969","lon":"-71.1056079","placename":"Cambridge, MA, USA"}},{"transport_id":"17","id":"1371","transport_name":"None Selected","transport_description":null,"transport_unit":"kg km","transport_co2_eq":"0.000000","from_stop_id":"3631","from_stop_lat":"46.872146","from_stop_lon":"-113.9939982","to_stop_id":"343","to_stop_name":"origin","to_stop_lat":"38.8951118","placename":"Missoula, MT, USA","to_stop_lon":"-77.0363658","to_stop":{"id":"343","name":"origin","lat":"38.8951118","placename":"Washington, DC, USA","lon":"-77.0363658"},"from_stop":{"name":"origin","id":"3631","lat":"46.872146","lon":"-113.9939982","placename":"Missoula, MT, USA"}},{"transport_id":"17","id":"1372","transport_name":"None Selected","transport_description":null,"transport_unit":"kg km","transport_co2_eq":"0.000000","from_stop_id":"3632","from_stop_lat":"39.5296329","from_stop_lon":"-119.8138027","to_stop_id":"343","to_stop_name":"origin","to_stop_lat":"38.8951118","placename":"Reno, NV, USA","to_stop_lon":"-77.0363658","to_stop":{"id":"343","name":"origin","lat":"38.8951118","placename":"Washington, DC, USA","lon":"-77.0363658"},"from_stop":{"name":"origin","id":"3632","lat":"39.5296329","lon":"-119.8138027","placename":"Reno, NV, USA"}},{"transport_id":"17","id":"1374","transport_name":"None Selected","transport_description":null,"transport_unit":"kg km","transport_co2_eq":"0.000000","from_stop_id":"3634","from_stop_lat":"0","from_stop_lon":"0","to_stop_id":"343","to_stop_name":"origin","to_stop_lat":"38.8951118","placename":"Part Location","to_stop_lon":"-77.0363658","to_stop":{"id":"343","name":"origin","lat":"38.8951118","placename":"Washington, DC, USA","lon":"-77.0363658"},"from_stop":{"name":"origin","id":"3634","lat":"0","lon":"0","placename":"Part Location"}}],"outgoing":[]}}},"parts":[{"oid":"2079","imid":"1585","linkid":"parts\/newsprint-recycled","weight":"0","rawemissions":"0.76","emissions":"0.76","shipping":"310.98","processemissions":null,"endoflifeemissions":null,"disposaltype":null,"disposalenergy":null,"disposalimpact":null,"disposalemissions":null,"description":"","name":"Newsprint, Recycled","id":"1585","stops":{"origin":{"related_to":"1585","part_or_object":"p","notes":"","placename":"Clinton, PA, USA","id":3626,"name":"origin","lat":"40.7242318","lon":"-79.7856073","hops":{"incoming":[],"outgoing":[{"transport_id":"17","id":"1366","transport_name":"None Selected","transport_description":null,"transport_unit":"kg km","transport_co2_eq":"0.000000","from_stop_id":"3626","from_stop_lat":"40.7242318","from_stop_lon":"-79.7856073","from_stop_placename":"Clinton, PA, USA","to_stop_id":"343","to_stop_name":"origin","to_stop_lat":"38.8951118","to_stop_lon":"-77.0363658","to_stop_placename":"Washington, DC, USA","to_stop":{"id":"343","name":"origin","lat":"38.8951118","lon":"-77.0363658","placename":"Washington, DC, USA"},"from_stop":{"name":"origin","id":"3626","lat":"40.7242318","lon":"-79.7856073","placename":"Clinton, PA, USA"}}]}}},"processes":[],"eols":[]},{"oid":"2079","imid":"1586","linkid":"parts\/lacquer-petrochemical","weight":"0","rawemissions":"9.8","emissions":"9.8","shipping":"3701.66","processemissions":null,"endoflifeemissions":null,"disposaltype":null,"disposalenergy":null,"disposalimpact":null,"disposalemissions":null,"description":"","name":"Lacquer, Petrochemical ","id":"1586","stops":{"origin":{"related_to":"1586","part_or_object":"p","notes":"","placename":"Hollywood, CA, USA","id":3627,"name":"origin","lat":"34.0983425","lon":"-118.3267434","hops":{"incoming":[],"outgoing":[{"transport_id":"17","id":"1367","transport_name":"None Selected","transport_description":null,"transport_unit":"kg km","transport_co2_eq":"0.000000","from_stop_id":"3627","from_stop_lat":"34.0983425","from_stop_lon":"-118.3267434","from_stop_placename":"Hollywood, CA, USA","to_stop_id":"343","to_stop_name":"origin","to_stop_lat":"38.8951118","to_stop_lon":"-77.0363658","to_stop_placename":"Washington, DC, USA","to_stop":{"id":"343","name":"origin","lat":"38.8951118","lon":"-77.0363658","placename":"Washington, DC, USA"},"from_stop":{"name":"origin","id":"3627","lat":"34.0983425","lon":"-118.3267434","placename":"Hollywood, CA, USA"}}]}}},"processes":[],"eols":[]},{"oid":"2079","imid":"1587","linkid":"parts\/hdpe-recycled","weight":"0","rawemissions":"0.52","emissions":"0.52","shipping":"957.55","processemissions":null,"endoflifeemissions":null,"disposaltype":null,"disposalenergy":null,"disposalimpact":null,"disposalemissions":null,"description":"","name":"HOPE, recycled","id":"1587","stops":{"origin":{"related_to":"1587","part_or_object":"p","notes":"","placename":"Chicago, IL, USA","id":3628,"name":"origin","lat":"41.850033","lon":"-87.6500523","hops":{"incoming":[],"outgoing":[{"transport_id":"17","id":"1368","transport_name":"None Selected","transport_description":null,"transport_unit":"kg km","transport_co2_eq":"0.000000","from_stop_id":"3628","from_stop_lat":"41.850033","from_stop_lon":"-87.6500523","from_stop_placename":"Chicago, IL, USA","to_stop_id":"343","to_stop_name":"origin","to_stop_lat":"38.8951118","to_stop_lon":"-77.0363658","to_stop_placename":"Washington, DC, USA","to_stop":{"id":"343","name":"origin","lat":"38.8951118","lon":"-77.0363658","placename":"Washington, DC, USA"},"from_stop":{"name":"origin","id":"3628","lat":"41.850033","lon":"-87.6500523","placename":"Chicago, IL, USA"}}]}}},"processes":[],"eols":[]},{"oid":"2079","imid":"1588","linkid":"parts\/rubber-natural","weight":"0","rawemissions":"0.96","emissions":"0.96","shipping":"3.65","processemissions":null,"endoflifeemissions":null,"disposaltype":null,"disposalenergy":null,"disposalimpact":null,"disposalemissions":null,"description":"","name":"Rubber, Natural","id":"1588","stops":{"origin":{"related_to":"1588","part_or_object":"p","notes":"","placename":"Capitol Hill, Washington, DC, USA","id":3629,"name":"origin","lat":"38.8826654","lon":"-76.997427","hops":{"incoming":[],"outgoing":[{"transport_id":"17","id":"1369","transport_name":"None Selected","transport_description":null,"transport_unit":"kg km","transport_co2_eq":"0.000000","from_stop_id":"3629","from_stop_lat":"38.8826654","from_stop_lon":"-76.997427","from_stop_placename":"Capitol Hill, Washington, DC, USA","to_stop_id":"343","to_stop_name":"origin","to_stop_lat":"38.8951118","to_stop_lon":"-77.0363658","to_stop_placename":"Washington, DC, USA","to_stop":{"id":"343","name":"origin","lat":"38.8951118","lon":"-77.0363658","placename":"Washington, DC, USA"},"from_stop":{"name":"origin","id":"3629","lat":"38.8826654","lon":"-76.997427","placename":"Capitol Hill, Washington, DC, USA"}}]}}},"processes":[],"eols":[]},{"oid":"2079","imid":"1589","linkid":"object\/no-idea","weight":"0","rawemissions":"0","emissions":"0","shipping":"633.04","processemissions":null,"endoflifeemissions":null,"disposaltype":null,"disposalenergy":null,"disposalimpact":null,"disposalemissions":null,"description":"","name":"no idea","id":"1589","stops":{"origin":{"related_to":"1589","part_or_object":"p","notes":"","placename":"Cambridge, MA, USA","id":3630,"name":"origin","lat":"42.3750969","lon":"-71.1056079","hops":{"incoming":[],"outgoing":[{"transport_id":"17","id":"1370","transport_name":"None Selected","transport_description":null,"transport_unit":"kg km","transport_co2_eq":"0.000000","from_stop_id":"3630","from_stop_lat":"42.3750969","from_stop_lon":"-71.1056079","from_stop_placename":"Cambridge, MA, USA","to_stop_id":"343","to_stop_name":"origin","to_stop_lat":"38.8951118","to_stop_lon":"-77.0363658","to_stop_placename":"Washington, DC, USA","to_stop":{"id":"343","name":"origin","lat":"38.8951118","lon":"-77.0363658","placename":"Washington, DC, USA"},"from_stop":{"name":"origin","id":"3630","lat":"42.3750969","lon":"-71.1056079","placename":"Cambridge, MA, USA"}}]}}},"processes":[],"eols":[]},{"oid":"2079","imid":"1590","linkid":"food\/hamburger","weight":"0","rawemissions":"13.9562","emissions":"13.9562","shipping":"3110.5","processemissions":null,"endoflifeemissions":null,"disposaltype":null,"disposalenergy":null,"disposalimpact":null,"disposalemissions":null,"description":"","name":"Hamburger","id":"1590","stops":{"origin":{"related_to":"1590","part_or_object":"p","notes":"","placename":"Missoula, MT, USA","id":3631,"name":"origin","lat":"46.872146","lon":"-113.9939982","hops":{"incoming":[],"outgoing":[{"transport_id":"17","id":"1371","transport_name":"None Selected","transport_description":null,"transport_unit":"kg km","transport_co2_eq":"0.000000","from_stop_id":"3631","from_stop_lat":"46.872146","from_stop_lon":"-113.9939982","from_stop_placename":"Missoula, MT, USA","to_stop_id":"343","to_stop_name":"origin","to_stop_lat":"38.8951118","to_stop_lon":"-77.0363658","to_stop_placename":"Washington, DC, USA","to_stop":{"id":"343","name":"origin","lat":"38.8951118","lon":"-77.0363658","placename":"Washington, DC, USA"},"from_stop":{"name":"origin","id":"3631","lat":"46.872146","lon":"-113.9939982","placename":"Missoula, MT, USA"}}]}}},"processes":[],"eols":[]},{"oid":"2079","imid":"1591","linkid":"object\/freshly-packed-fish","weight":"0","rawemissions":"2.88","emissions":"2.88","shipping":"3654.91","processemissions":null,"endoflifeemissions":null,"disposaltype":null,"disposalenergy":null,"disposalimpact":null,"disposalemissions":null,"description":"","name":"Freshly packed fish","id":"1591","stops":{"origin":{"related_to":"1591","part_or_object":"p","notes":"","placename":"Reno, NV, USA","id":3632,"name":"origin","lat":"39.5296329","lon":"-119.8138027","hops":{"incoming":[],"outgoing":[{"transport_id":"17","id":"1372","transport_name":"None Selected","transport_description":null,"transport_unit":"kg km","transport_co2_eq":"0.000000","from_stop_id":"3632","from_stop_lat":"39.5296329","from_stop_lon":"-119.8138027","from_stop_placename":"Reno, NV, USA","to_stop_id":"343","to_stop_name":"origin","to_stop_lat":"38.8951118","to_stop_lon":"-77.0363658","to_stop_placename":"Washington, DC, USA","to_stop":{"id":"343","name":"origin","lat":"38.8951118","lon":"-77.0363658","placename":"Washington, DC, USA"},"from_stop":{"name":"origin","id":"3632","lat":"39.5296329","lon":"-119.8138027","placename":"Reno, NV, USA"}}]}}},"processes":[],"eols":[]},{"oid":"2079","imid":"1592","linkid":"","weight":"0","rawemissions":"50000000","emissions":"0","shipping":"0.95","processemissions":null,"endoflifeemissions":null,"disposaltype":null,"disposalenergy":null,"disposalimpact":null,"disposalemissions":null,"description":"","name":"Lobbyist contributions","id":"1592","stops":{"origin":{"related_to":"1592","part_or_object":"p","notes":"","placename":"Connecticut Ave\/ K Street, Washington, DC, USA","id":3633,"name":"origin","lat":"38.9029421","lon":"-77.0406147","hops":{"incoming":[],"outgoing":[{"transport_id":"16","id":"1373","transport_name":"air, freight, intercontinental","transport_description":"intercontinental freight","transport_unit":"kg km","transport_co2_eq":"0.450000","from_stop_id":"3633","from_stop_lat":"38.9029421","from_stop_lon":"-77.0406147","from_stop_placename":"Connecticut Ave\/ K Street, Washington, DC, USA","to_stop_id":"343","to_stop_name":"origin","to_stop_lat":"38.8951118","to_stop_lon":"-77.0363658","to_stop_placename":"Washington, DC, USA","to_stop":{"id":"343","name":"origin","lat":"38.8951118","lon":"-77.0363658","placename":"Washington, DC, USA"},"from_stop":{"name":"origin","id":"3633","lat":"38.9029421","lon":"-77.0406147","placename":"Connecticut Ave\/ K Street, Washington, DC, USA"}}]}}},"processes":[],"eols":[]},{"oid":"2079","imid":"1593","linkid":"","weight":"0","rawemissions":"0","emissions":"0","shipping":"0","processemissions":null,"endoflifeemissions":null,"disposaltype":null,"disposalenergy":null,"disposalimpact":null,"disposalemissions":null,"description":"","name":"Part","id":"1593","stops":{"origin":{"related_to":"1593","part_or_object":"p","notes":"","placename":"Part Location","id":3634,"name":"origin","lat":"0","lon":"0","hops":{"incoming":[],"outgoing":[{"transport_id":"17","id":"1374","transport_name":"None Selected","transport_description":null,"transport_unit":"kg km","transport_co2_eq":"0.000000","from_stop_id":"3634","from_stop_lat":"0","from_stop_lon":"0","from_stop_placename":"Part Location","to_stop_id":"343","to_stop_name":"origin","to_stop_lat":"38.8951118","to_stop_lon":"-77.0363658","to_stop_placename":"Washington, DC, USA","to_stop":{"id":"343","name":"origin","lat":"38.8951118","lon":"-77.0363658","placename":"Washington, DC, USA"},"from_stop":{"name":"origin","id":"3634","lat":"0","lon":"0","placename":"Part Location"}}]}}},"processes":[],"eols":[]}],"user":{"name":"Msifry","id":"7293"}}}