{"2088":{"oid":"2088","type":"object","flag":"","creator":"1","name":"Kitchen Scale","upc":"","imagelink":"","description":"This is a Terrallion kitchen scale I received for Christmas","slug":"kitchen-scale","category":"","weight":"0.625","emissions":"302.386","embodied":"302.159","transport":"0.227042","process":"0","endoflife":"0","shipping":"25868.4","lifetime":null,"usagetype":"","usageenergy":null,"usageemissions":null,"timecreated":"2010-02-24 22:03:35.964226","timemodified":"2009-12-13 22:10:55","visibility":"private","showfootprint":"on","showembodied":"on","showtransport":"on","showprocess":"on","showendoflife":"on","showlastleg":"on","showuse":"","showstats":"on","stops":{"origin":{"related_to":"2088","part_or_object":"o","notes":"","placename":"France","id":"348","category":"1","lat":"46.227638","lon":"2.213749","name":"origin","hops":{"incoming":[{"transport_id":"9","id":"1379","transport_name":"container ship","transport_description":"moving boxcar size containers","transport_unit":"kg km","transport_co2_eq":"0.047800","from_stop_id":"3639","from_stop_lat":"35.86166","from_stop_lon":"104.195397","to_stop_id":"348","to_stop_name":"origin","to_stop_lat":"46.227638","placename":"China","to_stop_lon":"2.213749","to_stop":{"id":"348","name":"origin","lat":"46.227638","placename":"France","lon":"2.213749"},"from_stop":{"name":"origin","id":"3639","lat":"35.86166","lon":"104.195397","placename":"China"}},{"transport_id":"16","id":"1380","transport_name":"air, freight, intercontinental","transport_description":"intercontinental freight","transport_unit":"kg km","transport_co2_eq":"0.450000","from_stop_id":"3640","from_stop_lat":"35.86166","from_stop_lon":"104.195397","to_stop_id":"348","to_stop_name":"origin","to_stop_lat":"46.227638","placename":"China","to_stop_lon":"2.213749","to_stop":{"id":"348","name":"origin","lat":"46.227638","placename":"France","lon":"2.213749"},"from_stop":{"name":"origin","id":"3640","lat":"35.86166","lon":"104.195397","placename":"China"}},{"transport_id":"10","id":"1381","transport_name":"train, freight","transport_description":"diesel freight locomotive","transport_unit":"kg km","transport_co2_eq":"0.005600","from_stop_id":"3641","from_stop_lat":"41.87194","from_stop_lon":"12.56738","to_stop_id":"348","to_stop_name":"origin","to_stop_lat":"46.227638","placename":"Italy","to_stop_lon":"2.213749","to_stop":{"id":"348","name":"origin","lat":"46.227638","placename":"France","lon":"2.213749"},"from_stop":{"name":"origin","id":"3641","lat":"41.87194","lon":"12.56738","placename":"Italy"}},{"transport_id":"3","id":"1382","transport_name":"truck, 40 tons","transport_description":"truck, half full","transport_unit":"kg km","transport_co2_eq":"0.030900","from_stop_id":"3642","from_stop_lat":"51.165691","from_stop_lon":"10.451526","to_stop_id":"348","to_stop_name":"origin","to_stop_lat":"46.227638","placename":"Germany","to_stop_lon":"2.213749","to_stop":{"id":"348","name":"origin","lat":"46.227638","placename":"France","lon":"2.213749"},"from_stop":{"name":"origin","id":"3642","lat":"51.165691","lon":"10.451526","placename":"Germany"}},{"transport_id":"9","id":"1383","transport_name":"container ship","transport_description":"moving boxcar size containers","transport_unit":"kg km","transport_co2_eq":"0.047800","from_stop_id":"3643","from_stop_lat":"35.86166","from_stop_lon":"104.195397","to_stop_id":"348","to_stop_name":"origin","to_stop_lat":"46.227638","placename":"China","to_stop_lon":"2.213749","to_stop":{"id":"348","name":"origin","lat":"46.227638","placename":"France","lon":"2.213749"},"from_stop":{"name":"origin","id":"3643","lat":"35.86166","lon":"104.195397","placename":"China"}}],"outgoing":[]}}},"parts":[{"oid":"2088","imid":"1598","linkid":"parts\/abs","weight":"0.1","rawemissions":"3.2","emissions":"0.32","shipping":"8030.98","processemissions":null,"endoflifeemissions":null,"disposaltype":null,"disposalenergy":null,"disposalimpact":null,"disposalemissions":null,"description":"","name":"ABS ","id":"1598","stops":{"origin":{"related_to":"1598","part_or_object":"p","notes":"","placename":"China","id":3639,"name":"origin","lat":"35.86166","lon":"104.195397","hops":{"incoming":[],"outgoing":[{"transport_id":"9","id":"1379","transport_name":"container ship","transport_description":"moving boxcar size containers","transport_unit":"kg km","transport_co2_eq":"0.047800","from_stop_id":"3639","from_stop_lat":"35.86166","from_stop_lon":"104.195397","from_stop_placename":"China","to_stop_id":"348","to_stop_name":"origin","to_stop_lat":"46.227638","to_stop_lon":"2.213749","to_stop_placename":"France","to_stop":{"id":"348","name":"origin","lat":"46.227638","lon":"2.213749","placename":"France"},"from_stop":{"name":"origin","id":"3639","lat":"35.86166","lon":"104.195397","placename":"China"}}]}}},"processes":[],"eols":[]},{"oid":"2088","imid":"1599","linkid":"parts\/integrated-circuitry-rohs","weight":"0.025","rawemissions":"12000","emissions":"300","shipping":"8030.98","processemissions":null,"endoflifeemissions":null,"disposaltype":null,"disposalenergy":null,"disposalimpact":null,"disposalemissions":null,"description":"","name":"Integrated circuitry, RoHS","id":"1599","stops":{"origin":{"related_to":"1599","part_or_object":"p","notes":"","placename":"China","id":3640,"name":"origin","lat":"35.86166","lon":"104.195397","hops":{"incoming":[],"outgoing":[{"transport_id":"16","id":"1380","transport_name":"air, freight, intercontinental","transport_description":"intercontinental freight","transport_unit":"kg km","transport_co2_eq":"0.450000","from_stop_id":"3640","from_stop_lat":"35.86166","from_stop_lon":"104.195397","from_stop_placename":"China","to_stop_id":"348","to_stop_name":"origin","to_stop_lat":"46.227638","to_stop_lon":"2.213749","to_stop_placename":"France","to_stop":{"id":"348","name":"origin","lat":"46.227638","lon":"2.213749","placename":"France"},"from_stop":{"name":"origin","id":"3640","lat":"35.86166","lon":"104.195397","placename":"China"}}]}}},"processes":[],"eols":[]},{"oid":"2088","imid":"1600","linkid":"parts\/steel-stainless","weight":"0.2","rawemissions":"6.63","emissions":"1.326","shipping":"958.73","processemissions":null,"endoflifeemissions":null,"disposaltype":null,"disposalenergy":null,"disposalimpact":null,"disposalemissions":null,"description":"","name":"Steel, Stainless","id":"1600","stops":{"origin":{"related_to":"1600","part_or_object":"p","notes":"","placename":"Italy","id":3641,"name":"origin","lat":"41.87194","lon":"12.56738","hops":{"incoming":[],"outgoing":[{"transport_id":"10","id":"1381","transport_name":"train, freight","transport_description":"diesel freight locomotive","transport_unit":"kg km","transport_co2_eq":"0.005600","from_stop_id":"3641","from_stop_lat":"41.87194","from_stop_lon":"12.56738","from_stop_placename":"Italy","to_stop_id":"348","to_stop_name":"origin","to_stop_lat":"46.227638","to_stop_lon":"2.213749","to_stop_placename":"France","to_stop":{"id":"348","name":"origin","lat":"46.227638","lon":"2.213749","placename":"France"},"from_stop":{"name":"origin","id":"3641","lat":"41.87194","lon":"12.56738","placename":"Italy"}}]}}},"processes":[],"eols":[]},{"oid":"2088","imid":"1601","linkid":"parts\/pbr-elastomer","weight":"0.05","rawemissions":"2.76","emissions":"0.138","shipping":"816.74","processemissions":null,"endoflifeemissions":null,"disposaltype":null,"disposalenergy":null,"disposalimpact":null,"disposalemissions":null,"description":"","name":"PBR Elastomer","id":"1601","stops":{"origin":{"related_to":"1601","part_or_object":"p","notes":"","placename":"Germany","id":3642,"name":"origin","lat":"51.165691","lon":"10.451526","hops":{"incoming":[],"outgoing":[{"transport_id":"3","id":"1382","transport_name":"truck, 40 tons","transport_description":"truck, half full","transport_unit":"kg km","transport_co2_eq":"0.030900","from_stop_id":"3642","from_stop_lat":"51.165691","from_stop_lon":"10.451526","from_stop_placename":"Germany","to_stop_id":"348","to_stop_name":"origin","to_stop_lat":"46.227638","to_stop_lon":"2.213749","to_stop_placename":"France","to_stop":{"id":"348","name":"origin","lat":"46.227638","lon":"2.213749","placename":"France"},"from_stop":{"name":"origin","id":"3642","lat":"51.165691","lon":"10.451526","placename":"Germany"}}]}}},"processes":[],"eols":[]},{"oid":"2088","imid":"1602","linkid":"parts\/battery-alkaline","weight":"0.25","rawemissions":"1.5","emissions":"0.375","shipping":"8030.98","processemissions":null,"endoflifeemissions":null,"disposaltype":null,"disposalenergy":null,"disposalimpact":null,"disposalemissions":null,"description":"","name":"Battery, Alkaline","id":"1602","stops":{"origin":{"related_to":"1602","part_or_object":"p","notes":"","placename":"China","id":3643,"name":"origin","lat":"35.86166","lon":"104.195397","hops":{"incoming":[],"outgoing":[{"transport_id":"9","id":"1383","transport_name":"container ship","transport_description":"moving boxcar size containers","transport_unit":"kg km","transport_co2_eq":"0.047800","from_stop_id":"3643","from_stop_lat":"35.86166","from_stop_lon":"104.195397","from_stop_placename":"China","to_stop_id":"348","to_stop_name":"origin","to_stop_lat":"46.227638","to_stop_lon":"2.213749","to_stop_placename":"France","to_stop":{"id":"348","name":"origin","lat":"46.227638","lon":"2.213749","placename":"France"},"from_stop":{"name":"origin","id":"3643","lat":"35.86166","lon":"104.195397","placename":"China"}}]}}},"processes":[],"eols":[]}],"user":{"name":"leo","id":"1"}}}