{"213":{"oid":"213","type":"object","flag":"","creator":"1","name":"Caponata ","upc":"","imagelink":"","description":"This is a recipe I tried out a couple of nights ago, it can be found <a href=\"http:\/\/www.foodnetwork.com\/recipes\/mario-batali\/eggplant-caponata-recipe\/index.html\">here<\/a>","slug":"caponata-","category":"","weight":"1.566","emissions":"0.283471","embodied":"0","transport":"0.283471","process":"0","endoflife":"0","shipping":"80880.5","lifetime":"0","usagetype":"","usageenergy":"0","usageemissions":"0","timecreated":"2010-02-24 22:03:35.449014","timemodified":"2009-07-17 18:47:00","visibility":"public","showfootprint":"on","showembodied":"on","showtransport":"on","showprocess":"on","showendoflife":"on","showlastleg":"on","showuse":"on","showstats":"on","stops":{"origin":{"related_to":"213","part_or_object":"o","notes":"","placename":"Cambridge MA","id":"49","category":"1","lat":"42.375627","lon":"-71.1401543","name":"origin","hops":{"incoming":[{"transport_id":"2","id":"474","transport_name":"truck, 16 tons","transport_description":"truck, half full","transport_unit":"kg km","transport_co2_eq":"0.020300","from_stop_id":"2663","from_stop_lat":"23.634501","from_stop_lon":"-102.552784","to_stop_id":"49","to_stop_name":"origin","to_stop_lat":"42.375627","placename":"Mexico","to_stop_lon":"-71.1401543","to_stop":{"id":"49","name":"origin","lat":"42.375627","placename":"Cambridge MA","lon":"-71.1401543"},"from_stop":{"name":"origin","id":"2663","lat":"23.634501","lon":"-102.552784","placename":"Mexico"}},{"transport_id":"2","id":"475","transport_name":"truck, 16 tons","transport_description":"truck, half full","transport_unit":"kg km","transport_co2_eq":"0.020300","from_stop_id":"2664","from_stop_lat":"53.9332706","from_stop_lon":"-116.5765035","to_stop_id":"49","to_stop_name":"origin","to_stop_lat":"42.375627","placename":"Alberta Canada","to_stop_lon":"-71.1401543","to_stop":{"id":"49","name":"origin","lat":"42.375627","placename":"Cambridge MA","lon":"-71.1401543"},"from_stop":{"name":"origin","id":"2664","lat":"53.9332706","lon":"-116.5765035","placename":"Alberta Canada"}},{"transport_id":"2","id":"478","transport_name":"truck, 16 tons","transport_description":"truck, half full","transport_unit":"kg km","transport_co2_eq":"0.020300","from_stop_id":"2667","from_stop_lat":"32.212469","from_stop_lon":"-82.401303","to_stop_id":"49","to_stop_name":"origin","to_stop_lat":"42.375627","placename":"Vidalia","to_stop_lon":"-71.1401543","to_stop":{"id":"49","name":"origin","lat":"42.375627","placename":"Cambridge MA","lon":"-71.1401543"},"from_stop":{"name":"origin","id":"2667","lat":"32.212469","lon":"-82.401303","placename":"Vidalia"}},{"transport_id":"2","id":"479","transport_name":"truck, 16 tons","transport_description":"truck, half full","transport_unit":"kg km","transport_co2_eq":"0.020300","from_stop_id":"2668","from_stop_lat":"39.3209801","from_stop_lon":"-111.0937311","to_stop_id":"49","to_stop_name":"origin","to_stop_lat":"42.375627","placename":"Utah","to_stop_lon":"-71.1401543","to_stop":{"id":"49","name":"origin","lat":"42.375627","placename":"Cambridge MA","lon":"-71.1401543"},"from_stop":{"name":"origin","id":"2668","lat":"39.3209801","lon":"-111.0937311","placename":"Utah"}},{"transport_id":"9","id":"480","transport_name":"container ship","transport_description":"moving boxcar size containers","transport_unit":"kg km","transport_co2_eq":"0.047800","from_stop_id":"2669","from_stop_lat":"43.7687324","from_stop_lon":"11.2569013","to_stop_id":"49","to_stop_name":"origin","to_stop_lat":"42.375627","placename":"Florence Italy","to_stop_lon":"-71.1401543","to_stop":{"id":"49","name":"origin","lat":"42.375627","placename":"Cambridge MA","lon":"-71.1401543"},"from_stop":{"name":"origin","id":"2669","lat":"43.7687324","lon":"11.2569013","placename":"Florence Italy"}},{"transport_id":"2","id":"481","transport_name":"truck, 16 tons","transport_description":"truck, half full","transport_unit":"kg km","transport_co2_eq":"0.020300","from_stop_id":"2670","from_stop_lat":"36.778261","from_stop_lon":"-119.4179324","to_stop_id":"49","to_stop_name":"origin","to_stop_lat":"42.375627","placename":"California","to_stop_lon":"-71.1401543","to_stop":{"id":"49","name":"origin","lat":"42.375627","placename":"Cambridge MA","lon":"-71.1401543"},"from_stop":{"name":"origin","id":"2670","lat":"36.778261","lon":"-119.4179324","placename":"California"}},{"transport_id":"10","id":"482","transport_name":"train, freight","transport_description":"diesel freight locomotive","transport_unit":"kg km","transport_co2_eq":"0.005600","from_stop_id":"2671","from_stop_lat":"27.6648274","from_stop_lon":"-81.5157535","to_stop_id":"49","to_stop_name":"origin","to_stop_lat":"42.375627","placename":"Florida","to_stop_lon":"-71.1401543","to_stop":{"id":"49","name":"origin","lat":"42.375627","placename":"Cambridge MA","lon":"-71.1401543"},"from_stop":{"name":"origin","id":"2671","lat":"27.6648274","lon":"-81.5157535","placename":"Florida"}},{"transport_id":"9","id":"483","transport_name":"container ship","transport_description":"moving boxcar size containers","transport_unit":"kg km","transport_co2_eq":"0.047800","from_stop_id":"2672","from_stop_lat":"7.873054","from_stop_lon":"80.771797","to_stop_id":"49","to_stop_name":"origin","to_stop_lat":"42.375627","placename":"Sri Lanka","to_stop_lon":"-71.1401543","to_stop":{"id":"49","name":"origin","lat":"42.375627","placename":"Cambridge MA","lon":"-71.1401543"},"from_stop":{"name":"origin","id":"2672","lat":"7.873054","lon":"80.771797","placename":"Sri Lanka"}},{"transport_id":"9","id":"484","transport_name":"container ship","transport_description":"moving boxcar size containers","transport_unit":"kg km","transport_co2_eq":"0.047800","from_stop_id":"2673","from_stop_lat":"7.539989","from_stop_lon":"-5.54708","to_stop_id":"49","to_stop_name":"origin","to_stop_lat":"42.375627","placename":"Cote dIvoire","to_stop_lon":"-71.1401543","to_stop":{"id":"49","name":"origin","lat":"42.375627","placename":"Cambridge MA","lon":"-71.1401543"},"from_stop":{"name":"origin","id":"2673","lat":"7.539989","lon":"-5.54708","placename":"Cote dIvoire"}},{"transport_id":"2","id":"485","transport_name":"truck, 16 tons","transport_description":"truck, half full","transport_unit":"kg km","transport_co2_eq":"0.020300","from_stop_id":"2674","from_stop_lat":"36.778261","from_stop_lon":"-119.4179324","to_stop_id":"49","to_stop_name":"origin","to_stop_lat":"42.375627","placename":"California","to_stop_lon":"-71.1401543","to_stop":{"id":"49","name":"origin","lat":"42.375627","placename":"Cambridge MA","lon":"-71.1401543"},"from_stop":{"name":"origin","id":"2674","lat":"36.778261","lon":"-119.4179324","placename":"California"}},{"transport_id":"9","id":"486","transport_name":"container ship","transport_description":"moving boxcar size containers","transport_unit":"kg km","transport_co2_eq":"0.047800","from_stop_id":"2675","from_stop_lat":"40.8400969","from_stop_lon":"14.2516357","to_stop_id":"49","to_stop_name":"origin","to_stop_lat":"42.375627","placename":"Napoli","to_stop_lon":"-71.1401543","to_stop":{"id":"49","name":"origin","lat":"42.375627","placename":"Cambridge MA","lon":"-71.1401543"},"from_stop":{"name":"origin","id":"2675","lat":"40.8400969","lon":"14.2516357","placename":"Napoli"}},{"transport_id":"9","id":"487","transport_name":"container ship","transport_description":"moving boxcar size containers","transport_unit":"kg km","transport_co2_eq":"0.047800","from_stop_id":"2676","from_stop_lat":"44.6470798","from_stop_lon":"10.92522","to_stop_id":"49","to_stop_name":"origin","to_stop_lat":"42.375627","placename":"Modena","to_stop_lon":"-71.1401543","to_stop":{"id":"49","name":"origin","lat":"42.375627","placename":"Cambridge MA","lon":"-71.1401543"},"from_stop":{"name":"origin","id":"2676","lat":"44.6470798","lon":"10.92522","placename":"Modena"}},{"transport_id":"9","id":"488","transport_name":"container ship","transport_description":"moving boxcar size containers","transport_unit":"kg km","transport_co2_eq":"0.047800","from_stop_id":"2677","from_stop_lat":"46.227638","from_stop_lon":"2.213749","to_stop_id":"49","to_stop_name":"origin","to_stop_lat":"42.375627","placename":"France","to_stop_lon":"-71.1401543","to_stop":{"id":"49","name":"origin","lat":"42.375627","placename":"Cambridge MA","lon":"-71.1401543"},"from_stop":{"name":"origin","id":"2677","lat":"46.227638","lon":"2.213749","placename":"France"}},{"transport_id":"9","id":"489","transport_name":"container ship","transport_description":"moving boxcar size containers","transport_unit":"kg km","transport_co2_eq":"0.047800","from_stop_id":"2678","from_stop_lat":"20.593684","from_stop_lon":"78.96288","to_stop_id":"49","to_stop_name":"origin","to_stop_lat":"42.375627","placename":"India","to_stop_lon":"-71.1401543","to_stop":{"id":"49","name":"origin","lat":"42.375627","placename":"Cambridge MA","lon":"-71.1401543"},"from_stop":{"name":"origin","id":"2678","lat":"20.593684","lon":"78.96288","placename":"India"}}],"outgoing":[]}}},"parts":[{"oid":"213","imid":"570","linkid":"","weight":"0.01","rawemissions":"0","emissions":"0","shipping":"3565.35","processemissions":null,"endoflifeemissions":null,"disposaltype":null,"disposalenergy":null,"disposalimpact":null,"disposalemissions":null,"description":"Part Description","name":"Hot Chili Flakes","id":"570","stops":{"origin":{"related_to":"570","part_or_object":"p","notes":"","placename":"Mexico","id":2663,"name":"origin","lat":"23.634501","lon":"-102.552784","hops":{"incoming":[],"outgoing":[{"transport_id":"2","id":"474","transport_name":"truck, 16 tons","transport_description":"truck, half full","transport_unit":"kg km","transport_co2_eq":"0.020300","from_stop_id":"2663","from_stop_lat":"23.634501","from_stop_lon":"-102.552784","from_stop_placename":"Mexico","to_stop_id":"49","to_stop_name":"origin","to_stop_lat":"42.375627","to_stop_lon":"-71.1401543","to_stop_placename":"Cambridge MA","to_stop":{"id":"49","name":"origin","lat":"42.375627","lon":"-71.1401543","placename":"Cambridge MA"},"from_stop":{"name":"origin","id":"2663","lat":"23.634501","lon":"-102.552784","placename":"Mexico"}}]}}},"processes":[],"eols":[]},{"oid":"213","imid":"569","linkid":"","weight":"0.1","rawemissions":"0","emissions":"0","shipping":"3538.8","processemissions":null,"endoflifeemissions":null,"disposaltype":null,"disposalenergy":null,"disposalimpact":null,"disposalemissions":null,"description":"http:\/\/www.albertafarmfresh.com\/locate_curr_rd.htm","name":"Currants","id":"569","stops":{"origin":{"related_to":"569","part_or_object":"p","notes":"","placename":"Alberta Canada","id":2664,"name":"origin","lat":"53.9332706","lon":"-116.5765035","hops":{"incoming":[],"outgoing":[{"transport_id":"2","id":"475","transport_name":"truck, 16 tons","transport_description":"truck, half full","transport_unit":"kg km","transport_co2_eq":"0.020300","from_stop_id":"2664","from_stop_lat":"53.9332706","from_stop_lon":"-116.5765035","from_stop_placename":"Alberta Canada","to_stop_id":"49","to_stop_name":"origin","to_stop_lat":"42.375627","to_stop_lon":"-71.1401543","to_stop_placename":"Cambridge MA","to_stop":{"id":"49","name":"origin","lat":"42.375627","lon":"-71.1401543","placename":"Cambridge MA"},"from_stop":{"name":"origin","id":"2664","lat":"53.9332706","lon":"-116.5765035","placename":"Alberta Canada"}}]}}},"processes":[],"eols":[]},{"oid":"213","imid":"567","linkid":"","weight":"0.2","rawemissions":"0","emissions":"0","shipping":"1505.39","processemissions":null,"endoflifeemissions":null,"disposaltype":null,"disposalenergy":null,"disposalimpact":null,"disposalemissions":null,"description":"Part Description","name":"Spanish Onion","id":"567","stops":{"origin":{"related_to":"567","part_or_object":"p","notes":"","placename":"Vidalia","id":2667,"name":"origin","lat":"32.212469","lon":"-82.401303","hops":{"incoming":[],"outgoing":[{"transport_id":"2","id":"478","transport_name":"truck, 16 tons","transport_description":"truck, half full","transport_unit":"kg km","transport_co2_eq":"0.020300","from_stop_id":"2667","from_stop_lat":"32.212469","from_stop_lon":"-82.401303","from_stop_placename":"Vidalia","to_stop_id":"49","to_stop_name":"origin","to_stop_lat":"42.375627","to_stop_lon":"-71.1401543","to_stop_placename":"Cambridge MA","to_stop":{"id":"49","name":"origin","lat":"42.375627","lon":"-71.1401543","placename":"Cambridge MA"},"from_stop":{"name":"origin","id":"2667","lat":"32.212469","lon":"-82.401303","placename":"Vidalia"}}]}}},"processes":[],"eols":[]},{"oid":"213","imid":"568","linkid":"","weight":"0.05","rawemissions":"0","emissions":"0","shipping":"3350.46","processemissions":null,"endoflifeemissions":null,"disposaltype":null,"disposalenergy":null,"disposalimpact":null,"disposalemissions":null,"description":"http:\/\/www.thenutfactory.com\/kitchen\/facts\/facts-pine-nut.html","name":"Pine Nuts","id":"568","stops":{"origin":{"related_to":"568","part_or_object":"p","notes":"","placename":"Utah","id":2668,"name":"origin","lat":"39.3209801","lon":"-111.0937311","hops":{"incoming":[],"outgoing":[{"transport_id":"2","id":"479","transport_name":"truck, 16 tons","transport_description":"truck, half full","transport_unit":"kg km","transport_co2_eq":"0.020300","from_stop_id":"2668","from_stop_lat":"39.3209801","from_stop_lon":"-111.0937311","from_stop_placename":"Utah","to_stop_id":"49","to_stop_name":"origin","to_stop_lat":"42.375627","to_stop_lon":"-71.1401543","to_stop_placename":"Cambridge MA","to_stop":{"id":"49","name":"origin","lat":"42.375627","lon":"-71.1401543","placename":"Cambridge MA"},"from_stop":{"name":"origin","id":"2668","lat":"39.3209801","lon":"-111.0937311","placename":"Utah"}}]}}},"processes":[],"eols":[]},{"oid":"213","imid":"566","linkid":"","weight":"0.1","rawemissions":"0","emissions":"0","shipping":"6404.55","processemissions":null,"endoflifeemissions":null,"disposaltype":null,"disposalenergy":null,"disposalimpact":null,"disposalemissions":null,"description":"Part Description","name":"Olive Oil","id":"566","stops":{"origin":{"related_to":"566","part_or_object":"p","notes":"","placename":"Florence Italy","id":2669,"name":"origin","lat":"43.7687324","lon":"11.2569013","hops":{"incoming":[],"outgoing":[{"transport_id":"9","id":"480","transport_name":"container ship","transport_description":"moving boxcar size containers","transport_unit":"kg km","transport_co2_eq":"0.047800","from_stop_id":"2669","from_stop_lat":"43.7687324","from_stop_lon":"11.2569013","from_stop_placename":"Florence Italy","to_stop_id":"49","to_stop_name":"origin","to_stop_lat":"42.375627","to_stop_lon":"-71.1401543","to_stop_placename":"Cambridge MA","to_stop":{"id":"49","name":"origin","lat":"42.375627","lon":"-71.1401543","placename":"Cambridge MA"},"from_stop":{"name":"origin","id":"2669","lat":"43.7687324","lon":"11.2569013","placename":"Florence Italy"}}]}}},"processes":[],"eols":[]},{"oid":"213","imid":"571","linkid":"","weight":"0.4","rawemissions":"0","emissions":"0","shipping":"4132.75","processemissions":null,"endoflifeemissions":null,"disposaltype":null,"disposalenergy":null,"disposalimpact":null,"disposalemissions":null,"description":"Part Description","name":"Eggplants","id":"571","stops":{"origin":{"related_to":"571","part_or_object":"p","notes":"","placename":"California","id":2670,"name":"origin","lat":"36.778261","lon":"-119.4179324","hops":{"incoming":[],"outgoing":[{"transport_id":"2","id":"481","transport_name":"truck, 16 tons","transport_description":"truck, half full","transport_unit":"kg km","transport_co2_eq":"0.020300","from_stop_id":"2670","from_stop_lat":"36.778261","from_stop_lon":"-119.4179324","from_stop_placename":"California","to_stop_id":"49","to_stop_name":"origin","to_stop_lat":"42.375627","to_stop_lon":"-71.1401543","to_stop_placename":"Cambridge MA","to_stop":{"id":"49","name":"origin","lat":"42.375627","lon":"-71.1401543","placename":"Cambridge MA"},"from_stop":{"name":"origin","id":"2670","lat":"36.778261","lon":"-119.4179324","placename":"California"}}]}}},"processes":[],"eols":[]},{"oid":"213","imid":"572","linkid":"","weight":"0.08","rawemissions":"0","emissions":"0","shipping":"1887.7","processemissions":null,"endoflifeemissions":null,"disposaltype":null,"disposalenergy":null,"disposalimpact":null,"disposalemissions":null,"description":"<a href=\"http:\/\/www.ussugar.com\/sugar\/farming_production.html\">http:\/\/www.ussugar.com\/sugar\/farming_production.html<\/a>","name":"Sugar","id":"572","stops":{"origin":{"related_to":"572","part_or_object":"p","notes":"","placename":"Florida","id":2671,"name":"origin","lat":"27.6648274","lon":"-81.5157535","hops":{"incoming":[],"outgoing":[{"transport_id":"10","id":"482","transport_name":"train, freight","transport_description":"diesel freight locomotive","transport_unit":"kg km","transport_co2_eq":"0.005600","from_stop_id":"2671","from_stop_lat":"27.6648274","from_stop_lon":"-81.5157535","from_stop_placename":"Florida","to_stop_id":"49","to_stop_name":"origin","to_stop_lat":"42.375627","to_stop_lon":"-71.1401543","to_stop_placename":"Cambridge MA","to_stop":{"id":"49","name":"origin","lat":"42.375627","lon":"-71.1401543","placename":"Cambridge MA"},"from_stop":{"name":"origin","id":"2671","lat":"27.6648274","lon":"-81.5157535","placename":"Florida"}}]}}},"processes":[],"eols":[]},{"oid":"213","imid":"573","linkid":"","weight":"0.004","rawemissions":"0","emissions":"0","shipping":"13758.2","processemissions":null,"endoflifeemissions":null,"disposaltype":null,"disposalenergy":null,"disposalimpact":null,"disposalemissions":null,"description":"http:\/\/www.spice-trade.com\/cinnamon.html","name":"Cinnamon","id":"573","stops":{"origin":{"related_to":"573","part_or_object":"p","notes":"","placename":"Sri Lanka","id":2672,"name":"origin","lat":"7.873054","lon":"80.771797","hops":{"incoming":[],"outgoing":[{"transport_id":"9","id":"483","transport_name":"container ship","transport_description":"moving boxcar size containers","transport_unit":"kg km","transport_co2_eq":"0.047800","from_stop_id":"2672","from_stop_lat":"7.873054","from_stop_lon":"80.771797","from_stop_placename":"Sri Lanka","to_stop_id":"49","to_stop_name":"origin","to_stop_lat":"42.375627","to_stop_lon":"-71.1401543","to_stop_placename":"Cambridge MA","to_stop":{"id":"49","name":"origin","lat":"42.375627","lon":"-71.1401543","placename":"Cambridge MA"},"from_stop":{"name":"origin","id":"2672","lat":"7.873054","lon":"80.771797","placename":"Sri Lanka"}}]}}},"processes":[],"eols":[]},{"oid":"213","imid":"574","linkid":"","weight":"0.005","rawemissions":"0","emissions":"0","shipping":"7456.13","processemissions":null,"endoflifeemissions":null,"disposaltype":null,"disposalenergy":null,"disposalimpact":null,"disposalemissions":null,"description":"http:\/\/en.wikipedia.org\/wiki\/Cocoa","name":"Cocoa Powder","id":"574","stops":{"origin":{"related_to":"574","part_or_object":"p","notes":"","placename":"Cote dIvoire","id":2673,"name":"origin","lat":"7.539989","lon":"-5.54708","hops":{"incoming":[],"outgoing":[{"transport_id":"9","id":"484","transport_name":"container ship","transport_description":"moving boxcar size containers","transport_unit":"kg km","transport_co2_eq":"0.047800","from_stop_id":"2673","from_stop_lat":"7.539989","from_stop_lon":"-5.54708","from_stop_placename":"Cote dIvoire","to_stop_id":"49","to_stop_name":"origin","to_stop_lat":"42.375627","to_stop_lon":"-71.1401543","to_stop_placename":"Cambridge MA","to_stop":{"id":"49","name":"origin","lat":"42.375627","lon":"-71.1401543","placename":"Cambridge MA"},"from_stop":{"name":"origin","id":"2673","lat":"7.539989","lon":"-5.54708","placename":"Cote dIvoire"}}]}}},"processes":[],"eols":[]},{"oid":"213","imid":"575","linkid":"","weight":"0.009","rawemissions":"0","emissions":"0","shipping":"4132.75","processemissions":null,"endoflifeemissions":null,"disposaltype":null,"disposalenergy":null,"disposalimpact":null,"disposalemissions":null,"description":"Part Description","name":"Thyme","id":"575","stops":{"origin":{"related_to":"575","part_or_object":"p","notes":"","placename":"California","id":2674,"name":"origin","lat":"36.778261","lon":"-119.4179324","hops":{"incoming":[],"outgoing":[{"transport_id":"2","id":"485","transport_name":"truck, 16 tons","transport_description":"truck, half full","transport_unit":"kg km","transport_co2_eq":"0.020300","from_stop_id":"2674","from_stop_lat":"36.778261","from_stop_lon":"-119.4179324","from_stop_placename":"California","to_stop_id":"49","to_stop_name":"origin","to_stop_lat":"42.375627","to_stop_lon":"-71.1401543","to_stop_placename":"Cambridge MA","to_stop":{"id":"49","name":"origin","lat":"42.375627","lon":"-71.1401543","placename":"Cambridge MA"},"from_stop":{"name":"origin","id":"2674","lat":"36.778261","lon":"-119.4179324","placename":"California"}}]}}},"processes":[],"eols":[]},{"oid":"213","imid":"576","linkid":"","weight":"0.5","rawemissions":"0","emissions":"0","shipping":"6784.31","processemissions":null,"endoflifeemissions":null,"disposaltype":null,"disposalenergy":null,"disposalimpact":null,"disposalemissions":null,"description":"Part Description","name":"Tomato Sauce","id":"576","stops":{"origin":{"related_to":"576","part_or_object":"p","notes":"","placename":"Napoli","id":2675,"name":"origin","lat":"40.8400969","lon":"14.2516357","hops":{"incoming":[],"outgoing":[{"transport_id":"9","id":"486","transport_name":"container ship","transport_description":"moving boxcar size containers","transport_unit":"kg km","transport_co2_eq":"0.047800","from_stop_id":"2675","from_stop_lat":"40.8400969","from_stop_lon":"14.2516357","from_stop_placename":"Napoli","to_stop_id":"49","to_stop_name":"origin","to_stop_lat":"42.375627","to_stop_lon":"-71.1401543","to_stop_placename":"Cambridge MA","to_stop":{"id":"49","name":"origin","lat":"42.375627","lon":"-71.1401543","placename":"Cambridge MA"},"from_stop":{"name":"origin","id":"2675","lat":"40.8400969","lon":"14.2516357","placename":"Napoli"}}]}}},"processes":[],"eols":[]},{"oid":"213","imid":"577","linkid":"","weight":"0.1","rawemissions":"0","emissions":"0","shipping":"6333.41","processemissions":null,"endoflifeemissions":null,"disposaltype":null,"disposalenergy":null,"disposalimpact":null,"disposalemissions":null,"description":"Part Description","name":"Balsamic Vinegar","id":"577","stops":{"origin":{"related_to":"577","part_or_object":"p","notes":"","placename":"Modena","id":2676,"name":"origin","lat":"44.6470798","lon":"10.92522","hops":{"incoming":[],"outgoing":[{"transport_id":"9","id":"487","transport_name":"container ship","transport_description":"moving boxcar size containers","transport_unit":"kg km","transport_co2_eq":"0.047800","from_stop_id":"2676","from_stop_lat":"44.6470798","from_stop_lon":"10.92522","from_stop_placename":"Modena","to_stop_id":"49","to_stop_name":"origin","to_stop_lat":"42.375627","to_stop_lon":"-71.1401543","to_stop_placename":"Cambridge MA","to_stop":{"id":"49","name":"origin","lat":"42.375627","lon":"-71.1401543","placename":"Cambridge MA"},"from_stop":{"name":"origin","id":"2676","lat":"44.6470798","lon":"10.92522","placename":"Modena"}}]}}},"processes":[],"eols":[]},{"oid":"213","imid":"578","linkid":"","weight":"0.004","rawemissions":"0","emissions":"0","shipping":"5646.38","processemissions":null,"endoflifeemissions":null,"disposaltype":null,"disposalenergy":null,"disposalimpact":null,"disposalemissions":null,"description":"Part Description","name":"Salt","id":"578","stops":{"origin":{"related_to":"578","part_or_object":"p","notes":"","placename":"France","id":2677,"name":"origin","lat":"46.227638","lon":"2.213749","hops":{"incoming":[],"outgoing":[{"transport_id":"9","id":"488","transport_name":"container ship","transport_description":"moving boxcar size containers","transport_unit":"kg km","transport_co2_eq":"0.047800","from_stop_id":"2677","from_stop_lat":"46.227638","from_stop_lon":"2.213749","from_stop_placename":"France","to_stop_id":"49","to_stop_name":"origin","to_stop_lat":"42.375627","to_stop_lon":"-71.1401543","to_stop_placename":"Cambridge MA","to_stop":{"id":"49","name":"origin","lat":"42.375627","lon":"-71.1401543","placename":"Cambridge MA"},"from_stop":{"name":"origin","id":"2677","lat":"46.227638","lon":"2.213749","placename":"France"}}]}}},"processes":[],"eols":[]},{"oid":"213","imid":"579","linkid":"","weight":"0.004","rawemissions":"0","emissions":"0","shipping":"12384.3","processemissions":null,"endoflifeemissions":null,"disposaltype":null,"disposalenergy":null,"disposalimpact":null,"disposalemissions":null,"description":"Part Description","name":"Pepper","id":"579","stops":{"origin":{"related_to":"579","part_or_object":"p","notes":"","placename":"India","id":2678,"name":"origin","lat":"20.593684","lon":"78.96288","hops":{"incoming":[],"outgoing":[{"transport_id":"9","id":"489","transport_name":"container ship","transport_description":"moving boxcar size containers","transport_unit":"kg km","transport_co2_eq":"0.047800","from_stop_id":"2678","from_stop_lat":"20.593684","from_stop_lon":"78.96288","from_stop_placename":"India","to_stop_id":"49","to_stop_name":"origin","to_stop_lat":"42.375627","to_stop_lon":"-71.1401543","to_stop_placename":"Cambridge MA","to_stop":{"id":"49","name":"origin","lat":"42.375627","lon":"-71.1401543","placename":"Cambridge MA"},"from_stop":{"name":"origin","id":"2678","lat":"20.593684","lon":"78.96288","placename":"India"}}]}}},"processes":[],"eols":[]}],"user":{"name":"leo","id":"1"}}}