{"2147":{"oid":"2147","type":"food","flag":"","creator":"7356","name":"bacon egg n cheez","upc":"","imagelink":"","description":"my breakfast sandwich","slug":"bacon-egg-n-cheez","category":"","weight":"0.025","emissions":"0.03","embodied":"0.03","transport":"0","process":"0","endoflife":"0","shipping":"0","lifetime":"0","usagetype":"","usageenergy":"0","usageemissions":"0","timecreated":"2010-02-24 22:03:36.020703","timemodified":"2009-12-30 16:25:25","visibility":"public","showfootprint":"on","showembodied":"on","showtransport":"on","showprocess":"on","showendoflife":"on","showlastleg":"on","showuse":"on","showstats":"on","stops":{"origin":{"related_to":"2147","part_or_object":"o","notes":"","placename":"DUMBO, Brooklyn, NY 11201, USA","id":"375","category":"1","lat":"0","lon":"0","name":"origin","hops":{"incoming":[{"transport_id":"1","id":"1425","transport_name":"van, 3.5 tons","transport_description":"delivery van, half full","transport_unit":"kg km","transport_co2_eq":"0.053400","from_stop_id":"3685","from_stop_lat":"0","from_stop_lon":"0","to_stop_id":"375","to_stop_name":"origin","to_stop_lat":"0","placename":"Ingredient Source","to_stop_lon":"0","to_stop":{"id":"375","name":"origin","lat":"0","placename":"DUMBO, Brooklyn, NY 11201, USA","lon":"0"},"from_stop":{"name":"origin","id":"3685","lat":"0","lon":"0","placename":"Ingredient Source"}},{"transport_id":"1","id":"1430","transport_name":"van, 3.5 tons","transport_description":"delivery van, half full","transport_unit":"kg km","transport_co2_eq":"0.053400","from_stop_id":"3690","from_stop_lat":"0","from_stop_lon":"0","to_stop_id":"375","to_stop_name":"origin","to_stop_lat":"0","placename":"Ingredient Source","to_stop_lon":"0","to_stop":{"id":"375","name":"origin","lat":"0","placename":"DUMBO, Brooklyn, NY 11201, USA","lon":"0"},"from_stop":{"name":"origin","id":"3690","lat":"0","lon":"0","placename":"Ingredient Source"}},{"transport_id":"17","id":"1427","transport_name":"None Selected","transport_description":null,"transport_unit":"kg km","transport_co2_eq":"0.000000","from_stop_id":"3687","from_stop_lat":"0","from_stop_lon":"0","to_stop_id":"375","to_stop_name":"origin","to_stop_lat":"0","placename":"Ingredient Source","to_stop_lon":"0","to_stop":{"id":"375","name":"origin","lat":"0","placename":"DUMBO, Brooklyn, NY 11201, USA","lon":"0"},"from_stop":{"name":"origin","id":"3687","lat":"0","lon":"0","placename":"Ingredient Source"}},{"transport_id":"17","id":"1428","transport_name":"None Selected","transport_description":null,"transport_unit":"kg km","transport_co2_eq":"0.000000","from_stop_id":"3688","from_stop_lat":"0","from_stop_lon":"0","to_stop_id":"375","to_stop_name":"origin","to_stop_lat":"0","placename":"Ingredient Source","to_stop_lon":"0","to_stop":{"id":"375","name":"origin","lat":"0","placename":"DUMBO, Brooklyn, NY 11201, USA","lon":"0"},"from_stop":{"name":"origin","id":"3688","lat":"0","lon":"0","placename":"Ingredient Source"}},{"transport_id":"17","id":"1429","transport_name":"None Selected","transport_description":null,"transport_unit":"kg km","transport_co2_eq":"0.000000","from_stop_id":"3689","from_stop_lat":"0","from_stop_lon":"0","to_stop_id":"375","to_stop_name":"origin","to_stop_lat":"0","placename":"Ingredient Source","to_stop_lon":"0","to_stop":{"id":"375","name":"origin","lat":"0","placename":"DUMBO, Brooklyn, NY 11201, USA","lon":"0"},"from_stop":{"name":"origin","id":"3689","lat":"0","lon":"0","placename":"Ingredient Source"}}],"outgoing":[]}}},"parts":[{"oid":"2147","imid":"1647","linkid":"","weight":"0.01","rawemissions":"1.95","emissions":"0.02","shipping":"0","processemissions":null,"endoflifeemissions":null,"disposaltype":null,"disposalenergy":null,"disposalimpact":null,"disposalemissions":null,"description":"chicken eggs","name":"Eggs","id":"1647","stops":{"origin":{"related_to":"1647","part_or_object":"p","notes":"","placename":"Ingredient Source","id":3685,"name":"origin","lat":"0","lon":"0","hops":{"incoming":[],"outgoing":[{"transport_id":"1","id":"1425","transport_name":"van, 3.5 tons","transport_description":"delivery van, half full","transport_unit":"kg km","transport_co2_eq":"0.053400","from_stop_id":"3685","from_stop_lat":"0","from_stop_lon":"0","from_stop_placename":"Ingredient Source","to_stop_id":"375","to_stop_name":"origin","to_stop_lat":"0","to_stop_lon":"0","to_stop_placename":"DUMBO, Brooklyn, NY 11201, USA","to_stop":{"id":"375","name":"origin","lat":"0","lon":"0","placename":"DUMBO, Brooklyn, NY 11201, USA"},"from_stop":{"name":"origin","id":"3685","lat":"0","lon":"0","placename":"Ingredient Source"}}]}}},"processes":[],"eols":[]},{"oid":"2147","imid":"1648","linkid":"","weight":"0","rawemissions":"0","emissions":"0","shipping":"0","processemissions":null,"endoflifeemissions":null,"disposaltype":null,"disposalenergy":null,"disposalimpact":null,"disposalemissions":null,"description":"","name":"bread","id":"1648","stops":{"origin":{"related_to":"1648","part_or_object":"p","notes":"","placename":"Ingredient Source","id":3687,"name":"origin","lat":"0","lon":"0","hops":{"incoming":[],"outgoing":[{"transport_id":"17","id":"1427","transport_name":"None Selected","transport_description":null,"transport_unit":"kg km","transport_co2_eq":"0.000000","from_stop_id":"3687","from_stop_lat":"0","from_stop_lon":"0","from_stop_placename":"Ingredient Source","to_stop_id":"375","to_stop_name":"origin","to_stop_lat":"0","to_stop_lon":"0","to_stop_placename":"DUMBO, Brooklyn, NY 11201, USA","to_stop":{"id":"375","name":"origin","lat":"0","lon":"0","placename":"DUMBO, Brooklyn, NY 11201, USA"},"from_stop":{"name":"origin","id":"3687","lat":"0","lon":"0","placename":"Ingredient Source"}}]}}},"processes":[],"eols":[]},{"oid":"2147","imid":"1649","linkid":"","weight":"0.01","rawemissions":"0.93","emissions":"0.01","shipping":"0","processemissions":null,"endoflifeemissions":null,"disposaltype":null,"disposalenergy":null,"disposalimpact":null,"disposalemissions":null,"description":"according to Danish averages","name":"Bread, Fresh Rolls at Retail","id":"1649","stops":{"origin":{"related_to":"1649","part_or_object":"p","notes":"","placename":"Ingredient Source","id":3688,"name":"origin","lat":"0","lon":"0","hops":{"incoming":[],"outgoing":[{"transport_id":"17","id":"1428","transport_name":"None Selected","transport_description":null,"transport_unit":"kg km","transport_co2_eq":"0.000000","from_stop_id":"3688","from_stop_lat":"0","from_stop_lon":"0","from_stop_placename":"Ingredient Source","to_stop_id":"375","to_stop_name":"origin","to_stop_lat":"0","to_stop_lon":"0","to_stop_placename":"DUMBO, Brooklyn, NY 11201, USA","to_stop":{"id":"375","name":"origin","lat":"0","lon":"0","placename":"DUMBO, Brooklyn, NY 11201, USA"},"from_stop":{"name":"origin","id":"3688","lat":"0","lon":"0","placename":"Ingredient Source"}}]}}},"processes":[],"eols":[]},{"oid":"2147","imid":"1650","linkid":"","weight":"0","rawemissions":"0","emissions":"0","shipping":"0","processemissions":null,"endoflifeemissions":null,"disposaltype":null,"disposalenergy":null,"disposalimpact":null,"disposalemissions":null,"description":"","name":"Ingredientjavascript:addObjectPart();","id":"1650","stops":{"origin":{"related_to":"1650","part_or_object":"p","notes":"","placename":"Ingredient Source","id":3689,"name":"origin","lat":"0","lon":"0","hops":{"incoming":[],"outgoing":[{"transport_id":"17","id":"1429","transport_name":"None Selected","transport_description":null,"transport_unit":"kg km","transport_co2_eq":"0.000000","from_stop_id":"3689","from_stop_lat":"0","from_stop_lon":"0","from_stop_placename":"Ingredient Source","to_stop_id":"375","to_stop_name":"origin","to_stop_lat":"0","to_stop_lon":"0","to_stop_placename":"DUMBO, Brooklyn, NY 11201, USA","to_stop":{"id":"375","name":"origin","lat":"0","lon":"0","placename":"DUMBO, Brooklyn, NY 11201, USA"},"from_stop":{"name":"origin","id":"3689","lat":"0","lon":"0","placename":"Ingredient Source"}}]}}},"processes":[],"eols":[]},{"oid":"2147","imid":"1651","linkid":"","weight":"0.005","rawemissions":"0.18","emissions":"0","shipping":"0","processemissions":null,"endoflifeemissions":null,"disposaltype":null,"disposalenergy":null,"disposalimpact":null,"disposalemissions":null,"description":"according to Danish averages","name":"Yellow Cheese, Conventional","id":"1651","stops":{"origin":{"related_to":"1651","part_or_object":"p","notes":"","placename":"Ingredient Source","id":3690,"name":"origin","lat":"0","lon":"0","hops":{"incoming":[],"outgoing":[{"transport_id":"1","id":"1430","transport_name":"van, 3.5 tons","transport_description":"delivery van, half full","transport_unit":"kg km","transport_co2_eq":"0.053400","from_stop_id":"3690","from_stop_lat":"0","from_stop_lon":"0","from_stop_placename":"Ingredient Source","to_stop_id":"375","to_stop_name":"origin","to_stop_lat":"0","to_stop_lon":"0","to_stop_placename":"DUMBO, Brooklyn, NY 11201, USA","to_stop":{"id":"375","name":"origin","lat":"0","lon":"0","placename":"DUMBO, Brooklyn, NY 11201, USA"},"from_stop":{"name":"origin","id":"3690","lat":"0","lon":"0","placename":"Ingredient Source"}}]}}},"processes":[],"eols":[]}],"user":{"name":"richardallaway","id":"7356"}}}