{"2205":{"oid":"2205","type":"object","flag":"","creator":"7420","name":"Tesla Roadster","upc":"","imagelink":"","description":"Tesla Roadster","slug":"tesla-roadster","category":"featured","weight":"1235","emissions":"0","embodied":"0","transport":"0","process":"0","endoflife":"0","shipping":"48795.7","lifetime":"0","usagetype":"","usageenergy":"0","usageemissions":"0","timecreated":"2010-02-24 22:03:36.08405","timemodified":"2010-01-13 12:24:18","visibility":"public","showfootprint":"on","showembodied":"on","showtransport":"on","showprocess":"on","showendoflife":"on","showlastleg":"on","showuse":"on","showstats":"on","stops":{"origin":{"related_to":"2205","part_or_object":"o","notes":"","placename":"300 El Camino Real, Menlo Park, CA 94025, USA","id":"411","category":"1","lat":"37.449071","lon":"-122.174492","name":"origin","hops":{"incoming":[{"transport_id":"17","id":"1456","transport_name":"None Selected","transport_description":null,"transport_unit":"kg km","transport_co2_eq":"0.000000","from_stop_id":"3716","from_stop_lat":"37.449071","from_stop_lon":"-122.174492","to_stop_id":"411","to_stop_name":"origin","to_stop_lat":"37.449071","placename":"300 El Camino Real, Menlo Park, CA 94025, USA","to_stop_lon":"-122.174492","to_stop":{"id":"411","name":"origin","lat":"37.449071","placename":"300 El Camino Real, Menlo Park, CA 94025, USA","lon":"-122.174492"},"from_stop":{"name":"origin","id":"3716","lat":"37.449071","lon":"-122.174492","placename":"300 El Camino Real, Menlo Park, CA 94025, USA"}},{"transport_id":"17","id":"1457","transport_name":"None Selected","transport_description":null,"transport_unit":"kg km","transport_co2_eq":"0.000000","from_stop_id":"3717","from_stop_lat":"52.559525","from_stop_lon":"1.181158","to_stop_id":"411","to_stop_name":"origin","to_stop_lat":"37.449071","placename":"Potash Ln, Norfolk NR14 8, UK","to_stop_lon":"-122.174492","to_stop":{"id":"411","name":"origin","lat":"37.449071","placename":"300 El Camino Real, Menlo Park, CA 94025, USA","lon":"-122.174492"},"from_stop":{"name":"origin","id":"3717","lat":"52.559525","lon":"1.181158","placename":"Potash Ln, Norfolk NR14 8, UK"}},{"transport_id":"17","id":"1458","transport_name":"None Selected","transport_description":null,"transport_unit":"kg km","transport_co2_eq":"0.000000","from_stop_id":"3718","from_stop_lat":"47.7477059","from_stop_lon":"-1.1661881","to_stop_id":"411","to_stop_name":"origin","to_stop_lat":"37.449071","placename":"Rue de la Pidaie, 49420 Pouanc?, France","to_stop_lon":"-122.174492","to_stop":{"id":"411","name":"origin","lat":"37.449071","placename":"300 El Camino Real, Menlo Park, CA 94025, USA","lon":"-122.174492"},"from_stop":{"name":"origin","id":"3718","lat":"47.7477059","lon":"-1.1661881","placename":"Rue de la Pidaie, 49420 Pouanc?, France"}},{"transport_id":"17","id":"1459","transport_name":"None Selected","transport_description":null,"transport_unit":"kg km","transport_co2_eq":"0.000000","from_stop_id":"3719","from_stop_lat":"37.449071","from_stop_lon":"-122.174492","to_stop_id":"411","to_stop_name":"origin","to_stop_lat":"37.449071","placename":"300 El Camino Real, Menlo Park, CA 94025, USA","to_stop_lon":"-122.174492","to_stop":{"id":"411","name":"origin","lat":"37.449071","placename":"300 El Camino Real, Menlo Park, CA 94025, USA","lon":"-122.174492"},"from_stop":{"name":"origin","id":"3719","lat":"37.449071","lon":"-122.174492","placename":"300 El Camino Real, Menlo Park, CA 94025, USA"}},{"transport_id":"17","id":"1462","transport_name":"None Selected","transport_description":null,"transport_unit":"kg km","transport_co2_eq":"0.000000","from_stop_id":"3722","from_stop_lat":"52.559525","from_stop_lon":"1.181158","to_stop_id":"411","to_stop_name":"origin","to_stop_lat":"37.449071","placename":"Potash Ln, Norfolk NR14 8, UK","to_stop_lon":"-122.174492","to_stop":{"id":"411","name":"origin","lat":"37.449071","placename":"300 El Camino Real, Menlo Park, CA 94025, USA","lon":"-122.174492"},"from_stop":{"name":"origin","id":"3722","lat":"52.559525","lon":"1.181158","placename":"Potash Ln, Norfolk NR14 8, UK"}},{"transport_id":"17","id":"1463","transport_name":"None Selected","transport_description":null,"transport_unit":"kg km","transport_co2_eq":"0.000000","from_stop_id":"3723","from_stop_lat":"47.7477059","from_stop_lon":"-1.1661881","to_stop_id":"411","to_stop_name":"origin","to_stop_lat":"37.449071","placename":"Rue de la Pidaie, 49420 Pouanc?, France","to_stop_lon":"-122.174492","to_stop":{"id":"411","name":"origin","lat":"37.449071","placename":"300 El Camino Real, Menlo Park, CA 94025, USA","lon":"-122.174492"},"from_stop":{"name":"origin","id":"3723","lat":"47.7477059","lon":"-1.1661881","placename":"Rue de la Pidaie, 49420 Pouanc?, France"}},{"transport_id":"17","id":"1464","transport_name":"None Selected","transport_description":null,"transport_unit":"kg km","transport_co2_eq":"0.000000","from_stop_id":"3724","from_stop_lat":"42.6464358","from_stop_lon":"-83.214745","to_stop_id":"411","to_stop_name":"origin","to_stop_lat":"37.449071","placename":"3850 W Hamlin Rd, Auburn Hills, MI 48309, USA","to_stop_lon":"-122.174492","to_stop":{"id":"411","name":"origin","lat":"37.449071","placename":"300 El Camino Real, Menlo Park, CA 94025, USA","lon":"-122.174492"},"from_stop":{"name":"origin","id":"3724","lat":"42.6464358","lon":"-83.214745","placename":"3850 W Hamlin Rd, Auburn Hills, MI 48309, USA"}},{"transport_id":"17","id":"1465","transport_name":"None Selected","transport_description":null,"transport_unit":"kg km","transport_co2_eq":"0.000000","from_stop_id":"3725","from_stop_lat":"51.165691","from_stop_lon":"10.451526","to_stop_id":"411","to_stop_name":"origin","to_stop_lat":"37.449071","placename":"Germany","to_stop_lon":"-122.174492","to_stop":{"id":"411","name":"origin","lat":"37.449071","placename":"300 El Camino Real, Menlo Park, CA 94025, USA","lon":"-122.174492"},"from_stop":{"name":"origin","id":"3725","lat":"51.165691","lon":"10.451526","placename":"Germany"}},{"transport_id":"17","id":"1466","transport_name":"None Selected","transport_description":null,"transport_unit":"kg km","transport_co2_eq":"0.000000","from_stop_id":"3726","from_stop_lat":"25.091075","from_stop_lon":"121.5598345","to_stop_id":"411","to_stop_name":"origin","to_stop_lat":"37.449071","placename":"Taipei City, Taiwan","to_stop_lon":"-122.174492","to_stop":{"id":"411","name":"origin","lat":"37.449071","placename":"300 El Camino Real, Menlo Park, CA 94025, USA","lon":"-122.174492"},"from_stop":{"name":"origin","id":"3726","lat":"25.091075","lon":"121.5598345","placename":"Taipei City, Taiwan"}},{"transport_id":"17","id":"1467","transport_name":"None Selected","transport_description":null,"transport_unit":"kg km","transport_co2_eq":"0.000000","from_stop_id":"3727","from_stop_lat":"36.204824","from_stop_lon":"138.252924","to_stop_id":"411","to_stop_name":"origin","to_stop_lat":"37.449071","placename":"Japan","to_stop_lon":"-122.174492","to_stop":{"id":"411","name":"origin","lat":"37.449071","placename":"300 El Camino Real, Menlo Park, CA 94025, USA","lon":"-122.174492"},"from_stop":{"name":"origin","id":"3727","lat":"36.204824","lon":"138.252924","placename":"Japan"}}],"outgoing":[]}}},"parts":[{"oid":"2205","imid":"1676","linkid":"","weight":"1235","rawemissions":"0","emissions":"0","shipping":"0","processemissions":null,"endoflifeemissions":null,"disposaltype":null,"disposalenergy":null,"disposalimpact":null,"disposalemissions":null,"description":"","name":"Final Assembly","id":"1676","stops":{"origin":{"related_to":"1676","part_or_object":"p","notes":"","placename":"300 El Camino Real, Menlo Park, CA 94025, USA","id":3716,"name":"origin","lat":"37.449071","lon":"-122.174492","hops":{"incoming":[],"outgoing":[{"transport_id":"17","id":"1456","transport_name":"None Selected","transport_description":null,"transport_unit":"kg km","transport_co2_eq":"0.000000","from_stop_id":"3716","from_stop_lat":"37.449071","from_stop_lon":"-122.174492","from_stop_placename":"300 El Camino Real, Menlo Park, CA 94025, USA","to_stop_id":"411","to_stop_name":"origin","to_stop_lat":"37.449071","to_stop_lon":"-122.174492","to_stop_placename":"300 El Camino Real, Menlo Park, CA 94025, USA","to_stop":{"id":"411","name":"origin","lat":"37.449071","lon":"-122.174492","placename":"300 El Camino Real, Menlo Park, CA 94025, USA"},"from_stop":{"name":"origin","id":"3716","lat":"37.449071","lon":"-122.174492","placename":"300 El Camino Real, Menlo Park, CA 94025, USA"}}]}}},"processes":[],"eols":[]},{"oid":"2205","imid":"1677","linkid":"","weight":"0","rawemissions":"0","emissions":"0","shipping":"8620.88","processemissions":null,"endoflifeemissions":null,"disposaltype":null,"disposalenergy":null,"disposalimpact":null,"disposalemissions":null,"description":"","name":"Assembly (Panels) & Painting","id":"1677","stops":{"origin":{"related_to":"1677","part_or_object":"p","notes":"","placename":"Potash Ln, Norfolk NR14 8, UK","id":3717,"name":"origin","lat":"52.559525","lon":"1.181158","hops":{"incoming":[],"outgoing":[{"transport_id":"17","id":"1457","transport_name":"None Selected","transport_description":null,"transport_unit":"kg km","transport_co2_eq":"0.000000","from_stop_id":"3717","from_stop_lat":"52.559525","from_stop_lon":"1.181158","from_stop_placename":"Potash Ln, Norfolk NR14 8, UK","to_stop_id":"411","to_stop_name":"origin","to_stop_lat":"37.449071","to_stop_lon":"-122.174492","to_stop_placename":"300 El Camino Real, Menlo Park, CA 94025, USA","to_stop":{"id":"411","name":"origin","lat":"37.449071","lon":"-122.174492","placename":"300 El Camino Real, Menlo Park, CA 94025, USA"},"from_stop":{"name":"origin","id":"3717","lat":"52.559525","lon":"1.181158","placename":"Potash Ln, Norfolk NR14 8, UK"}}]}}},"processes":[],"eols":[]},{"oid":"2205","imid":"1678","linkid":"","weight":"0","rawemissions":"0","emissions":"0","shipping":"8896.3","processemissions":null,"endoflifeemissions":null,"disposaltype":null,"disposalenergy":null,"disposalimpact":null,"disposalemissions":null,"description":"","name":"Sotira (Production Body Panels)","id":"1678","stops":{"origin":{"related_to":"1678","part_or_object":"p","notes":"","placename":"Rue de la Pidaie, 49420 Pouanc?, France","id":3718,"name":"origin","lat":"47.7477059","lon":"-1.1661881","hops":{"incoming":[],"outgoing":[{"transport_id":"17","id":"1458","transport_name":"None Selected","transport_description":null,"transport_unit":"kg km","transport_co2_eq":"0.000000","from_stop_id":"3718","from_stop_lat":"47.7477059","from_stop_lon":"-1.1661881","from_stop_placename":"Rue de la Pidaie, 49420 Pouanc?, France","to_stop_id":"411","to_stop_name":"origin","to_stop_lat":"37.449071","to_stop_lon":"-122.174492","to_stop_placename":"300 El Camino Real, Menlo Park, CA 94025, USA","to_stop":{"id":"411","name":"origin","lat":"37.449071","lon":"-122.174492","placename":"300 El Camino Real, Menlo Park, CA 94025, USA"},"from_stop":{"name":"origin","id":"3718","lat":"47.7477059","lon":"-1.1661881","placename":"Rue de la Pidaie, 49420 Pouanc?, France"}}]}}},"processes":[],"eols":[]},{"oid":"2205","imid":"1679","linkid":"","weight":"1235","rawemissions":"0","emissions":"0","shipping":"0","processemissions":null,"endoflifeemissions":null,"disposaltype":null,"disposalenergy":null,"disposalimpact":null,"disposalemissions":null,"description":"","name":"Final Assembly","id":"1679","stops":{"origin":{"related_to":"1679","part_or_object":"p","notes":"","placename":"300 El Camino Real, Menlo Park, CA 94025, USA","id":3719,"name":"origin","lat":"37.449071","lon":"-122.174492","hops":{"incoming":[],"outgoing":[{"transport_id":"17","id":"1459","transport_name":"None Selected","transport_description":null,"transport_unit":"kg km","transport_co2_eq":"0.000000","from_stop_id":"3719","from_stop_lat":"37.449071","from_stop_lon":"-122.174492","from_stop_placename":"300 El Camino Real, Menlo Park, CA 94025, USA","to_stop_id":"411","to_stop_name":"origin","to_stop_lat":"37.449071","to_stop_lon":"-122.174492","to_stop_placename":"300 El Camino Real, Menlo Park, CA 94025, USA","to_stop":{"id":"411","name":"origin","lat":"37.449071","lon":"-122.174492","placename":"300 El Camino Real, Menlo Park, CA 94025, USA"},"from_stop":{"name":"origin","id":"3719","lat":"37.449071","lon":"-122.174492","placename":"300 El Camino Real, Menlo Park, CA 94025, USA"}}]}}},"processes":[],"eols":[]},{"oid":"2205","imid":"1682","linkid":"","weight":"0","rawemissions":"0","emissions":"0","shipping":"8620.88","processemissions":null,"endoflifeemissions":null,"disposaltype":null,"disposalenergy":null,"disposalimpact":null,"disposalemissions":null,"description":"assembly","name":"Tesla Roadster Chassis","id":"1682","stops":{"origin":{"related_to":"1682","part_or_object":"p","notes":"","placename":"Potash Ln, Norfolk NR14 8, UK","id":3722,"name":"origin","lat":"52.559525","lon":"1.181158","hops":{"incoming":[],"outgoing":[{"transport_id":"17","id":"1462","transport_name":"None Selected","transport_description":null,"transport_unit":"kg km","transport_co2_eq":"0.000000","from_stop_id":"3722","from_stop_lat":"52.559525","from_stop_lon":"1.181158","from_stop_placename":"Potash Ln, Norfolk NR14 8, UK","to_stop_id":"411","to_stop_name":"origin","to_stop_lat":"37.449071","to_stop_lon":"-122.174492","to_stop_placename":"300 El Camino Real, Menlo Park, CA 94025, USA","to_stop":{"id":"411","name":"origin","lat":"37.449071","lon":"-122.174492","placename":"300 El Camino Real, Menlo Park, CA 94025, USA"},"from_stop":{"name":"origin","id":"3722","lat":"52.559525","lon":"1.181158","placename":"Potash Ln, Norfolk NR14 8, UK"}}]}}},"processes":[],"eols":[]},{"oid":"2205","imid":"1683","linkid":"","weight":"0","rawemissions":"0","emissions":"0","shipping":"8896.3","processemissions":null,"endoflifeemissions":null,"disposaltype":null,"disposalenergy":null,"disposalimpact":null,"disposalemissions":null,"description":"ships to Norfolk","name":"Body Panels (Production)","id":"1683","stops":{"origin":{"related_to":"1683","part_or_object":"p","notes":"","placename":"Rue de la Pidaie, 49420 Pouanc?, France","id":3723,"name":"origin","lat":"47.7477059","lon":"-1.1661881","hops":{"incoming":[],"outgoing":[{"transport_id":"17","id":"1463","transport_name":"None Selected","transport_description":null,"transport_unit":"kg km","transport_co2_eq":"0.000000","from_stop_id":"3723","from_stop_lat":"47.7477059","from_stop_lon":"-1.1661881","from_stop_placename":"Rue de la Pidaie, 49420 Pouanc?, France","to_stop_id":"411","to_stop_name":"origin","to_stop_lat":"37.449071","to_stop_lon":"-122.174492","to_stop_placename":"300 El Camino Real, Menlo Park, CA 94025, USA","to_stop":{"id":"411","name":"origin","lat":"37.449071","lon":"-122.174492","placename":"300 El Camino Real, Menlo Park, CA 94025, USA"},"from_stop":{"name":"origin","id":"3723","lat":"47.7477059","lon":"-1.1661881","placename":"Rue de la Pidaie, 49420 Pouanc?, France"}}]}}},"processes":[],"eols":[]},{"oid":"2205","imid":"1684","linkid":"","weight":"0","rawemissions":"0","emissions":"0","shipping":"3339.76","processemissions":null,"endoflifeemissions":null,"disposaltype":null,"disposalenergy":null,"disposalimpact":null,"disposalemissions":null,"description":"Borg Warner INC.","name":"Gearbox (Borg Warner Inc)","id":"1684","stops":{"origin":{"related_to":"1684","part_or_object":"p","notes":"","placename":"3850 W Hamlin Rd, Auburn Hills, MI 48309, USA","id":3724,"name":"origin","lat":"42.6464358","lon":"-83.214745","hops":{"incoming":[],"outgoing":[{"transport_id":"17","id":"1464","transport_name":"None Selected","transport_description":null,"transport_unit":"kg km","transport_co2_eq":"0.000000","from_stop_id":"3724","from_stop_lat":"42.6464358","from_stop_lon":"-83.214745","from_stop_placename":"3850 W Hamlin Rd, Auburn Hills, MI 48309, USA","to_stop_id":"411","to_stop_name":"origin","to_stop_lat":"37.449071","to_stop_lon":"-122.174492","to_stop_placename":"300 El Camino Real, Menlo Park, CA 94025, USA","to_stop":{"id":"411","name":"origin","lat":"37.449071","lon":"-122.174492","placename":"300 El Camino Real, Menlo Park, CA 94025, USA"},"from_stop":{"name":"origin","id":"3724","lat":"42.6464358","lon":"-83.214745","placename":"3850 W Hamlin Rd, Auburn Hills, MI 48309, USA"}}]}}},"processes":[],"eols":[]},{"oid":"2205","imid":"1685","linkid":"","weight":"0","rawemissions":"0","emissions":"0","shipping":"9145.29","processemissions":null,"endoflifeemissions":null,"disposaltype":null,"disposalenergy":null,"disposalimpact":null,"disposalemissions":null,"description":"","name":"Brakes and airbags (Siemens)","id":"1685","stops":{"origin":{"related_to":"1685","part_or_object":"p","notes":"","placename":"Germany","id":3725,"name":"origin","lat":"51.165691","lon":"10.451526","hops":{"incoming":[],"outgoing":[{"transport_id":"17","id":"1465","transport_name":"None Selected","transport_description":null,"transport_unit":"kg km","transport_co2_eq":"0.000000","from_stop_id":"3725","from_stop_lat":"51.165691","from_stop_lon":"10.451526","from_stop_placename":"Germany","to_stop_id":"411","to_stop_name":"origin","to_stop_lat":"37.449071","to_stop_lon":"-122.174492","to_stop_placename":"300 El Camino Real, Menlo Park, CA 94025, USA","to_stop":{"id":"411","name":"origin","lat":"37.449071","lon":"-122.174492","placename":"300 El Camino Real, Menlo Park, CA 94025, USA"},"from_stop":{"name":"origin","id":"3725","lat":"51.165691","lon":"10.451526","placename":"Germany"}}]}}},"processes":[],"eols":[]},{"oid":"2205","imid":"1686","linkid":"","weight":"0","rawemissions":"0","emissions":"0","shipping":"10403.7","processemissions":null,"endoflifeemissions":null,"disposaltype":null,"disposalenergy":null,"disposalimpact":null,"disposalemissions":null,"description":"Tesla Motors Taiwan Ltd.","name":"Engine","id":"1686","stops":{"origin":{"related_to":"1686","part_or_object":"p","notes":"","placename":"Taipei City, Taiwan","id":3726,"name":"origin","lat":"25.091075","lon":"121.5598345","hops":{"incoming":[],"outgoing":[{"transport_id":"17","id":"1466","transport_name":"None Selected","transport_description":null,"transport_unit":"kg km","transport_co2_eq":"0.000000","from_stop_id":"3726","from_stop_lat":"25.091075","from_stop_lon":"121.5598345","from_stop_placename":"Taipei City, Taiwan","to_stop_id":"411","to_stop_name":"origin","to_stop_lat":"37.449071","to_stop_lon":"-122.174492","to_stop_placename":"300 El Camino Real, Menlo Park, CA 94025, USA","to_stop":{"id":"411","name":"origin","lat":"37.449071","lon":"-122.174492","placename":"300 El Camino Real, Menlo Park, CA 94025, USA"},"from_stop":{"name":"origin","id":"3726","lat":"25.091075","lon":"121.5598345","placename":"Taipei City, Taiwan"}}]}}},"processes":[],"eols":[]},{"oid":"2205","imid":"1687","linkid":"","weight":"0","rawemissions":"0","emissions":"0","shipping":"8389.78","processemissions":null,"endoflifeemissions":null,"disposaltype":null,"disposalenergy":null,"disposalimpact":null,"disposalemissions":null,"description":"http:\/\/uk.reuters.com\/article\/idUKTRE50D0RZ20090114","name":"Battery cells","id":"1687","stops":{"origin":{"related_to":"1687","part_or_object":"p","notes":"","placename":"Japan","id":3727,"name":"origin","lat":"36.204824","lon":"138.252924","hops":{"incoming":[],"outgoing":[{"transport_id":"17","id":"1467","transport_name":"None Selected","transport_description":null,"transport_unit":"kg km","transport_co2_eq":"0.000000","from_stop_id":"3727","from_stop_lat":"36.204824","from_stop_lon":"138.252924","from_stop_placename":"Japan","to_stop_id":"411","to_stop_name":"origin","to_stop_lat":"37.449071","to_stop_lon":"-122.174492","to_stop_placename":"300 El Camino Real, Menlo Park, CA 94025, USA","to_stop":{"id":"411","name":"origin","lat":"37.449071","lon":"-122.174492","placename":"300 El Camino Real, Menlo Park, CA 94025, USA"},"from_stop":{"name":"origin","id":"3727","lat":"36.204824","lon":"138.252924","placename":"Japan"}}]}}},"processes":[],"eols":[]}],"user":{"name":"nshanken","id":"7420"}}}