{"222":{"oid":"222","type":"object","flag":"","creator":"794","name":"Test","upc":"","imagelink":"","description":"","slug":"test-2","category":"","weight":"15","emissions":"3.4","embodied":"3.4","transport":"0","process":"0","endoflife":"0","shipping":"0","lifetime":"0","usagetype":"","usageenergy":"0","usageemissions":"0","timecreated":"2010-02-24 22:03:35.45427","timemodified":"2009-07-17 20:57:27","visibility":"public","showfootprint":"on","showembodied":"on","showtransport":"on","showprocess":"on","showendoflife":"on","showlastleg":"on","showuse":"on","showstats":"on","stops":{"origin":{"related_to":"222","part_or_object":"o","notes":"","placename":"USA","id":"52","category":"1","lat":"0","lon":"0","name":"origin","hops":{"incoming":[{"transport_id":"17","id":"490","transport_name":"None Selected","transport_description":null,"transport_unit":"kg km","transport_co2_eq":"0.000000","from_stop_id":"2679","from_stop_lat":"0","from_stop_lon":"0","to_stop_id":"52","to_stop_name":"origin","to_stop_lat":"0","placename":"Part Origin","to_stop_lon":"0","to_stop":{"id":"52","name":"origin","lat":"0","placename":"USA","lon":"0"},"from_stop":{"name":"origin","id":"2679","lat":"0","lon":"0","placename":"Part Origin"}},{"transport_id":"17","id":"498","transport_name":"None Selected","transport_description":null,"transport_unit":"kg km","transport_co2_eq":"0.000000","from_stop_id":"2687","from_stop_lat":"0","from_stop_lon":"0","to_stop_id":"52","to_stop_name":"origin","to_stop_lat":"0","placename":"Part Origin","to_stop_lon":"0","to_stop":{"id":"52","name":"origin","lat":"0","placename":"USA","lon":"0"},"from_stop":{"name":"origin","id":"2687","lat":"0","lon":"0","placename":"Part Origin"}}],"outgoing":[]}}},"parts":[{"oid":"222","imid":"580","linkid":"","weight":"5","rawemissions":"0.1","emissions":"0.5","shipping":"0","processemissions":null,"endoflifeemissions":null,"disposaltype":null,"disposalenergy":null,"disposalimpact":null,"disposalemissions":null,"description":"Clay brick at factory","name":"Brick clay","id":"580","stops":{"origin":{"related_to":"580","part_or_object":"p","notes":"","placename":"Part Origin","id":2679,"name":"origin","lat":"0","lon":"0","hops":{"incoming":[],"outgoing":[{"transport_id":"17","id":"490","transport_name":"None Selected","transport_description":null,"transport_unit":"kg km","transport_co2_eq":"0.000000","from_stop_id":"2679","from_stop_lat":"0","from_stop_lon":"0","from_stop_placename":"Part Origin","to_stop_id":"52","to_stop_name":"origin","to_stop_lat":"0","to_stop_lon":"0","to_stop_placename":"USA","to_stop":{"id":"52","name":"origin","lat":"0","lon":"0","placename":"USA"},"from_stop":{"name":"origin","id":"2679","lat":"0","lon":"0","placename":"Part Origin"}}]}}},"processes":[],"eols":[]},{"oid":"222","imid":"591","linkid":"","weight":"10","rawemissions":"0.29","emissions":"2.9","shipping":"0","processemissions":null,"endoflifeemissions":null,"disposaltype":null,"disposalenergy":null,"disposalimpact":null,"disposalemissions":null,"description":"Thermal coated float glass","name":"Glass type e window","id":"591","stops":{"origin":{"related_to":"591","part_or_object":"p","notes":"","placename":"Part Origin","id":2687,"name":"origin","lat":"0","lon":"0","hops":{"incoming":[],"outgoing":[{"transport_id":"17","id":"498","transport_name":"None Selected","transport_description":null,"transport_unit":"kg km","transport_co2_eq":"0.000000","from_stop_id":"2687","from_stop_lat":"0","from_stop_lon":"0","from_stop_placename":"Part Origin","to_stop_id":"52","to_stop_name":"origin","to_stop_lat":"0","to_stop_lon":"0","to_stop_placename":"USA","to_stop":{"id":"52","name":"origin","lat":"0","lon":"0","placename":"USA"},"from_stop":{"name":"origin","id":"2687","lat":"0","lon":"0","placename":"Part Origin"}}]}}},"processes":[],"eols":[]}],"user":{"name":"xgao","id":"794"}}}