{"2236":{"oid":"2236","type":"food","flag":"","creator":"7459","name":"mymap","upc":"","imagelink":"","description":"hello","slug":"mymap","category":"","weight":"0","emissions":"0","embodied":"0","transport":"0","process":"0","endoflife":"0","shipping":"0","lifetime":null,"usagetype":"","usageenergy":null,"usageemissions":null,"timecreated":"2010-02-24 22:03:36.128964","timemodified":"2010-01-20 10:48:03","visibility":"public","showfootprint":"on","showembodied":"on","showtransport":"on","showprocess":"on","showendoflife":"on","showlastleg":"on","showuse":"on","showstats":"on","stops":{"origin":{"related_to":"2236","part_or_object":"o","notes":"","placename":"Mumbai, Maharashtra, India","id":"429","category":"1","lat":"19.017656","lon":"72.856178","name":"origin","hops":{"incoming":[{"transport_id":"17","id":"1475","transport_name":"None Selected","transport_description":null,"transport_unit":"kg km","transport_co2_eq":"0.000000","from_stop_id":"3735","from_stop_lat":"0","from_stop_lon":"0","to_stop_id":"429","to_stop_name":"origin","to_stop_lat":"19.017656","placename":"Ingredient Source","to_stop_lon":"72.856178","to_stop":{"id":"429","name":"origin","lat":"19.017656","placename":"Mumbai, Maharashtra, India","lon":"72.856178"},"from_stop":{"name":"origin","id":"3735","lat":"0","lon":"0","placename":"Ingredient Source"}},{"transport_id":"17","id":"1476","transport_name":"None Selected","transport_description":null,"transport_unit":"kg km","transport_co2_eq":"0.000000","from_stop_id":"3736","from_stop_lat":"0","from_stop_lon":"0","to_stop_id":"429","to_stop_name":"origin","to_stop_lat":"19.017656","placename":"Ingredient Source","to_stop_lon":"72.856178","to_stop":{"id":"429","name":"origin","lat":"19.017656","placename":"Mumbai, Maharashtra, India","lon":"72.856178"},"from_stop":{"name":"origin","id":"3736","lat":"0","lon":"0","placename":"Ingredient Source"}},{"transport_id":"17","id":"1477","transport_name":"None Selected","transport_description":null,"transport_unit":"kg km","transport_co2_eq":"0.000000","from_stop_id":"3737","from_stop_lat":"0","from_stop_lon":"0","to_stop_id":"429","to_stop_name":"origin","to_stop_lat":"19.017656","placename":"Ingredient Source","to_stop_lon":"72.856178","to_stop":{"id":"429","name":"origin","lat":"19.017656","placename":"Mumbai, Maharashtra, India","lon":"72.856178"},"from_stop":{"name":"origin","id":"3737","lat":"0","lon":"0","placename":"Ingredient Source"}},{"transport_id":"17","id":"1478","transport_name":"None Selected","transport_description":null,"transport_unit":"kg km","transport_co2_eq":"0.000000","from_stop_id":"3738","from_stop_lat":"0","from_stop_lon":"0","to_stop_id":"429","to_stop_name":"origin","to_stop_lat":"19.017656","placename":"Ingredient Source","to_stop_lon":"72.856178","to_stop":{"id":"429","name":"origin","lat":"19.017656","placename":"Mumbai, Maharashtra, India","lon":"72.856178"},"from_stop":{"name":"origin","id":"3738","lat":"0","lon":"0","placename":"Ingredient Source"}}],"outgoing":[]}}},"parts":[{"oid":"2236","imid":"1697","linkid":"","weight":"0","rawemissions":"1","emissions":"1","shipping":"0","processemissions":null,"endoflifeemissions":null,"disposaltype":null,"disposalenergy":null,"disposalimpact":null,"disposalemissions":null,"description":"","name":"Ceramic, Sanitary","id":"1697","stops":{"origin":{"related_to":"1697","part_or_object":"p","notes":"","placename":"Ingredient Source","id":3735,"name":"origin","lat":"0","lon":"0","hops":{"incoming":[],"outgoing":[{"transport_id":"17","id":"1475","transport_name":"None Selected","transport_description":null,"transport_unit":"kg km","transport_co2_eq":"0.000000","from_stop_id":"3735","from_stop_lat":"0","from_stop_lon":"0","from_stop_placename":"Ingredient Source","to_stop_id":"429","to_stop_name":"origin","to_stop_lat":"19.017656","to_stop_lon":"72.856178","to_stop_placename":"Mumbai, Maharashtra, India","to_stop":{"id":"429","name":"origin","lat":"19.017656","lon":"72.856178","placename":"Mumbai, Maharashtra, India"},"from_stop":{"name":"origin","id":"3735","lat":"0","lon":"0","placename":"Ingredient Source"}}]}}},"processes":[],"eols":[]},{"oid":"2236","imid":"1698","linkid":"parts\/brick-refractory","weight":"0","rawemissions":"0.52","emissions":"0.52","shipping":"0","processemissions":null,"endoflifeemissions":null,"disposaltype":null,"disposalenergy":null,"disposalimpact":null,"disposalemissions":null,"description":"","name":"Brick, Refractory ","id":"1698","stops":{"origin":{"related_to":"1698","part_or_object":"p","notes":"","placename":"Ingredient Source","id":3736,"name":"origin","lat":"0","lon":"0","hops":{"incoming":[],"outgoing":[{"transport_id":"17","id":"1476","transport_name":"None Selected","transport_description":null,"transport_unit":"kg km","transport_co2_eq":"0.000000","from_stop_id":"3736","from_stop_lat":"0","from_stop_lon":"0","from_stop_placename":"Ingredient Source","to_stop_id":"429","to_stop_name":"origin","to_stop_lat":"19.017656","to_stop_lon":"72.856178","to_stop_placename":"Mumbai, Maharashtra, India","to_stop":{"id":"429","name":"origin","lat":"19.017656","lon":"72.856178","placename":"Mumbai, Maharashtra, India"},"from_stop":{"name":"origin","id":"3736","lat":"0","lon":"0","placename":"Ingredient Source"}}]}}},"processes":[],"eols":[]},{"oid":"2236","imid":"1699","linkid":"","weight":"0","rawemissions":"0.6","emissions":"0.6","shipping":"0","processemissions":null,"endoflifeemissions":null,"disposaltype":null,"disposalenergy":null,"disposalimpact":null,"disposalemissions":null,"description":"","name":"Cement, Portland ","id":"1699","stops":{"origin":{"related_to":"1699","part_or_object":"p","notes":"","placename":"Ingredient Source","id":3737,"name":"origin","lat":"0","lon":"0","hops":{"incoming":[],"outgoing":[{"transport_id":"17","id":"1477","transport_name":"None Selected","transport_description":null,"transport_unit":"kg km","transport_co2_eq":"0.000000","from_stop_id":"3737","from_stop_lat":"0","from_stop_lon":"0","from_stop_placename":"Ingredient Source","to_stop_id":"429","to_stop_name":"origin","to_stop_lat":"19.017656","to_stop_lon":"72.856178","to_stop_placename":"Mumbai, Maharashtra, India","to_stop":{"id":"429","name":"origin","lat":"19.017656","lon":"72.856178","placename":"Mumbai, Maharashtra, India"},"from_stop":{"name":"origin","id":"3737","lat":"0","lon":"0","placename":"Ingredient Source"}}]}}},"processes":[],"eols":[]},{"oid":"2236","imid":"1700","linkid":"parts\/spring-barley-conventional","weight":"0","rawemissions":"0.65","emissions":"0.65","shipping":"0","processemissions":null,"endoflifeemissions":null,"disposaltype":null,"disposalenergy":null,"disposalimpact":null,"disposalemissions":null,"description":"","name":"Spring Barley, Conventional","id":"1700","stops":{"origin":{"related_to":"1700","part_or_object":"p","notes":"","placename":"Ingredient Source","id":3738,"name":"origin","lat":"0","lon":"0","hops":{"incoming":[],"outgoing":[{"transport_id":"17","id":"1478","transport_name":"None Selected","transport_description":null,"transport_unit":"kg km","transport_co2_eq":"0.000000","from_stop_id":"3738","from_stop_lat":"0","from_stop_lon":"0","from_stop_placename":"Ingredient Source","to_stop_id":"429","to_stop_name":"origin","to_stop_lat":"19.017656","to_stop_lon":"72.856178","to_stop_placename":"Mumbai, Maharashtra, India","to_stop":{"id":"429","name":"origin","lat":"19.017656","lon":"72.856178","placename":"Mumbai, Maharashtra, India"},"from_stop":{"name":"origin","id":"3738","lat":"0","lon":"0","placename":"Ingredient Source"}}]}}},"processes":[],"eols":[]}],"user":{"name":"pravin30","id":"7459"}}}