{"225":{"oid":"225","type":"trace","flag":"","creator":"10152","name":"Glennys' Brown Rice Marshmallow Treat - Vanilla","upc":"","imagelink":"","description":"Most locations are estimated based on the most common sources for those ingredients.","slug":"Glennys--Brown-Rice-Marshmallow-Treat---Vanilla-1","category":"","weight":"0","emissions":"0","embodied":"0","transport":"0","process":null,"endoflife":null,"shipping":"61641.15","lifetime":null,"usagetype":"","usageenergy":null,"usageemissions":null,"timecreated":"2010-12-16 17:22:19","timemodified":"2010-12-16 17:47:38","visibility":"public","showfootprint":"on","showembodied":"on","showtransport":"on","showprocess":"on","showendoflife":"on","showlastleg":"on","showuse":"on","showstats":"on","stops":{"origin":{"related_to":"225","part_or_object":"o","notes":null,"placename":"40 St Marys Pl, Freeport, NY 11520, USA","id":"9009","category":"1","lat":"40.6495729","lon":"-73.571483","name":"origin","hops":{"incoming":[{"transport_id":null,"id":"6288","transport_name":null,"transport_description":null,"transport_unit":null,"transport_co2_eq":null,"from_stop_id":"9010","from_stop_lat":"56.130366","from_stop_lon":"-106.346771","to_stop_id":"9009","to_stop_name":"origin","to_stop_lat":"40.6495729","placename":"Canada","to_stop_lon":"-73.571483","to_stop":{"id":"9009","name":"origin","lat":"40.6495729","placename":"40 St Marys Pl, Freeport, NY 11520, USA","lon":"-73.571483"},"from_stop":{"name":"origin","id":"9010","lat":"56.130366","lon":"-106.346771","placename":"Canada"}},{"transport_id":null,"id":"6289","transport_name":null,"transport_description":null,"transport_unit":null,"transport_co2_eq":null,"from_stop_id":"9011","from_stop_lat":"56.130366","from_stop_lon":"-106.346771","to_stop_id":"9009","to_stop_name":"origin","to_stop_lat":"40.6495729","placename":"Canada","to_stop_lon":"-73.571483","to_stop":{"id":"9009","name":"origin","lat":"40.6495729","placename":"40 St Marys Pl, Freeport, NY 11520, USA","lon":"-73.571483"},"from_stop":{"name":"origin","id":"9011","lat":"56.130366","lon":"-106.346771","placename":"Canada"}},{"transport_id":null,"id":"6290","transport_name":null,"transport_description":null,"transport_unit":null,"transport_co2_eq":null,"from_stop_id":"9012","from_stop_lat":"4.210484","from_stop_lon":"101.975766","to_stop_id":"9009","to_stop_name":"origin","to_stop_lat":"40.6495729","placename":"Malaysia","to_stop_lon":"-73.571483","to_stop":{"id":"9009","name":"origin","lat":"40.6495729","placename":"40 St Marys Pl, Freeport, NY 11520, USA","lon":"-73.571483"},"from_stop":{"name":"origin","id":"9012","lat":"4.210484","lon":"101.975766","placename":"Malaysia"}},{"transport_id":null,"id":"6291","transport_name":null,"transport_description":null,"transport_unit":null,"transport_co2_eq":null,"from_stop_id":"9013","from_stop_lat":"56.130366","from_stop_lon":"-106.346771","to_stop_id":"9009","to_stop_name":"origin","to_stop_lat":"40.6495729","placename":"Canada","to_stop_lon":"-73.571483","to_stop":{"id":"9009","name":"origin","lat":"40.6495729","placename":"40 St Marys Pl, Freeport, NY 11520, USA","lon":"-73.571483"},"from_stop":{"name":"origin","id":"9013","lat":"56.130366","lon":"-106.346771","placename":"Canada"}},{"transport_id":null,"id":"6292","transport_name":null,"transport_description":null,"transport_unit":null,"transport_co2_eq":null,"from_stop_id":"9014","from_stop_lat":"39.4075795","from_stop_lon":"-122.0096112","to_stop_id":"9009","to_stop_name":"origin","to_stop_lat":"40.6495729","placename":"425 Hwy 45, Colusa, CA 95932, USA","to_stop_lon":"-73.571483","to_stop":{"id":"9009","name":"origin","lat":"40.6495729","placename":"40 St Marys Pl, Freeport, NY 11520, USA","lon":"-73.571483"},"from_stop":{"name":"origin","id":"9014","lat":"39.4075795","lon":"-122.0096112","placename":"425 Hwy 45, Colusa, CA 95932, USA"}},{"transport_id":null,"id":"6293","transport_name":null,"transport_description":null,"transport_unit":null,"transport_co2_eq":null,"from_stop_id":"9015","from_stop_lat":"-18.766947","from_stop_lon":"46.869107","to_stop_id":"9009","to_stop_name":"origin","to_stop_lat":"40.6495729","placename":"Madagascar","to_stop_lon":"-73.571483","to_stop":{"id":"9009","name":"origin","lat":"40.6495729","placename":"40 St Marys Pl, Freeport, NY 11520, USA","lon":"-73.571483"},"from_stop":{"name":"origin","id":"9015","lat":"-18.766947","lon":"46.869107","placename":"Madagascar"}},{"transport_id":null,"id":"6294","transport_name":null,"transport_description":null,"transport_unit":null,"transport_co2_eq":null,"from_stop_id":"9016","from_stop_lat":"39.4075795","from_stop_lon":"-122.0096112","to_stop_id":"9009","to_stop_name":"origin","to_stop_lat":"40.6495729","placename":"425 Hwy 45, Colusa, CA 95932, USA","to_stop_lon":"-73.571483","to_stop":{"id":"9009","name":"origin","lat":"40.6495729","placename":"40 St Marys Pl, Freeport, NY 11520, USA","lon":"-73.571483"},"from_stop":{"name":"origin","id":"9016","lat":"39.4075795","lon":"-122.0096112","placename":"425 Hwy 45, Colusa, CA 95932, USA"}},{"transport_id":null,"id":"6295","transport_name":null,"transport_description":null,"transport_unit":null,"transport_co2_eq":null,"from_stop_id":"9017","from_stop_lat":"18.455759","from_stop_lon":"-69.307808","to_stop_id":"9009","to_stop_name":"origin","to_stop_lat":"40.6495729","placename":"San Pedro de Macor\u00eds, Dominican Republic","to_stop_lon":"-73.571483","to_stop":{"id":"9009","name":"origin","lat":"40.6495729","placename":"40 St Marys Pl, Freeport, NY 11520, USA","lon":"-73.571483"},"from_stop":{"name":"origin","id":"9017","lat":"18.455759","lon":"-69.307808","placename":"San Pedro de Macor\u00eds, Dominican Republic"}},{"transport_id":null,"id":"6296","transport_name":null,"transport_description":null,"transport_unit":null,"transport_co2_eq":null,"from_stop_id":"9018","from_stop_lat":"20.593684","from_stop_lon":"78.96288","to_stop_id":"9009","to_stop_name":"origin","to_stop_lat":"40.6495729","placename":"India","to_stop_lon":"-73.571483","to_stop":{"id":"9009","name":"origin","lat":"40.6495729","placename":"40 St Marys Pl, Freeport, NY 11520, USA","lon":"-73.571483"},"from_stop":{"name":"origin","id":"9018","lat":"20.593684","lon":"78.96288","placename":"India"}},{"transport_id":null,"id":"6297","transport_name":null,"transport_description":null,"transport_unit":null,"transport_co2_eq":null,"from_stop_id":"9019","from_stop_lat":"43.59959","from_stop_lon":"-79.7422313","to_stop_id":"9009","to_stop_name":"origin","to_stop_lat":"40.6495729","placename":"6700 Century Ave, Mississauga, ON L5N 6A4, Canada","to_stop_lon":"-73.571483","to_stop":{"id":"9009","name":"origin","lat":"40.6495729","placename":"40 St Marys Pl, Freeport, NY 11520, USA","lon":"-73.571483"},"from_stop":{"name":"origin","id":"9019","lat":"43.59959","lon":"-79.7422313","placename":"6700 Century Ave, Mississauga, ON L5N 6A4, Canada"}}],"outgoing":[]}}},"parts":[{"oid":"225","imid":"5398","linkid":"0","weight":"0","rawemissions":"0","emissions":"0","shipping":"2928.87","processemissions":"0","endoflifeemissions":"0","disposaltype":null,"disposalenergy":null,"disposalimpact":null,"disposalemissions":null,"description":"","name":"Organic Whole Grain Brown Ric","id":"5398","stops":{"origin":{"related_to":"5398","part_or_object":"p","notes":null,"placename":"Canada","id":9010,"name":"origin","lat":"56.130366","lon":"-106.346771","hops":{"incoming":[],"outgoing":[{"transport_id":null,"id":"6288","transport_name":null,"transport_description":null,"transport_unit":null,"transport_co2_eq":null,"from_stop_id":"9010","from_stop_lat":"56.130366","from_stop_lon":"-106.346771","from_stop_placename":"Canada","to_stop_id":"9009","to_stop_name":"origin","to_stop_lat":"40.6495729","to_stop_lon":"-73.571483","to_stop_placename":"40 St Marys Pl, Freeport, NY 11520, USA","to_stop":{"id":"9009","name":"origin","lat":"40.6495729","lon":"-73.571483","placename":"40 St Marys Pl, Freeport, NY 11520, USA"},"from_stop":{"name":"origin","id":"9010","lat":"56.130366","lon":"-106.346771","placename":"Canada"}}]}}},"processes":[],"eols":[]},{"oid":"225","imid":"5399","linkid":"0","weight":"0","rawemissions":"0","emissions":"0","shipping":"2928.87","processemissions":"0","endoflifeemissions":"0","disposaltype":null,"disposalenergy":null,"disposalimpact":null,"disposalemissions":null,"description":"","name":"Organic Marshmallow Recipe","id":"5399","stops":{"origin":{"related_to":"5399","part_or_object":"p","notes":null,"placename":"Canada","id":9011,"name":"origin","lat":"56.130366","lon":"-106.346771","hops":{"incoming":[],"outgoing":[{"transport_id":null,"id":"6289","transport_name":null,"transport_description":null,"transport_unit":null,"transport_co2_eq":null,"from_stop_id":"9011","from_stop_lat":"56.130366","from_stop_lon":"-106.346771","from_stop_placename":"Canada","to_stop_id":"9009","to_stop_name":"origin","to_stop_lat":"40.6495729","to_stop_lon":"-73.571483","to_stop_placename":"40 St Marys Pl, Freeport, NY 11520, USA","to_stop":{"id":"9009","name":"origin","lat":"40.6495729","lon":"-73.571483","placename":"40 St Marys Pl, Freeport, NY 11520, USA"},"from_stop":{"name":"origin","id":"9011","lat":"56.130366","lon":"-106.346771","placename":"Canada"}}]}}},"processes":[],"eols":[]},{"oid":"225","imid":"5400","linkid":"0","weight":"0","rawemissions":"0","emissions":"0","shipping":"15023.09","processemissions":"0","endoflifeemissions":"0","disposaltype":null,"disposalenergy":null,"disposalimpact":null,"disposalemissions":null,"description":"","name":"Organic Palm Oil","id":"5400","stops":{"origin":{"related_to":"5400","part_or_object":"p","notes":null,"placename":"Malaysia","id":9012,"name":"origin","lat":"4.210484","lon":"101.975766","hops":{"incoming":[],"outgoing":[{"transport_id":null,"id":"6290","transport_name":null,"transport_description":null,"transport_unit":null,"transport_co2_eq":null,"from_stop_id":"9012","from_stop_lat":"4.210484","from_stop_lon":"101.975766","from_stop_placename":"Malaysia","to_stop_id":"9009","to_stop_name":"origin","to_stop_lat":"40.6495729","to_stop_lon":"-73.571483","to_stop_placename":"40 St Marys Pl, Freeport, NY 11520, USA","to_stop":{"id":"9009","name":"origin","lat":"40.6495729","lon":"-73.571483","placename":"40 St Marys Pl, Freeport, NY 11520, USA"},"from_stop":{"name":"origin","id":"9012","lat":"4.210484","lon":"101.975766","placename":"Malaysia"}}]}}},"processes":[],"eols":[]},{"oid":"225","imid":"5401","linkid":"0","weight":"0","rawemissions":"0","emissions":"0","shipping":"2928.87","processemissions":"0","endoflifeemissions":"0","disposaltype":null,"disposalenergy":null,"disposalimpact":null,"disposalemissions":null,"description":"","name":" Vegetable Glycerol","id":"5401","stops":{"origin":{"related_to":"5401","part_or_object":"p","notes":null,"placename":"Canada","id":9013,"name":"origin","lat":"56.130366","lon":"-106.346771","hops":{"incoming":[],"outgoing":[{"transport_id":null,"id":"6291","transport_name":null,"transport_description":null,"transport_unit":null,"transport_co2_eq":null,"from_stop_id":"9013","from_stop_lat":"56.130366","from_stop_lon":"-106.346771","from_stop_placename":"Canada","to_stop_id":"9009","to_stop_name":"origin","to_stop_lat":"40.6495729","to_stop_lon":"-73.571483","to_stop_placename":"40 St Marys Pl, Freeport, NY 11520, USA","to_stop":{"id":"9009","name":"origin","lat":"40.6495729","lon":"-73.571483","placename":"40 St Marys Pl, Freeport, NY 11520, USA"},"from_stop":{"name":"origin","id":"9013","lat":"56.130366","lon":"-106.346771","placename":"Canada"}}]}}},"processes":[],"eols":[]},{"oid":"225","imid":"5402","linkid":"0","weight":"0","rawemissions":"0","emissions":"0","shipping":"4078.1","processemissions":"0","endoflifeemissions":"0","disposaltype":null,"disposalenergy":null,"disposalimpact":null,"disposalemissions":null,"description":"","name":"Organic Rice Brown Extract","id":"5402","stops":{"origin":{"related_to":"5402","part_or_object":"p","notes":null,"placename":"425 Hwy 45, Colusa, CA 95932, USA","id":9014,"name":"origin","lat":"39.4075795","lon":"-122.0096112","hops":{"incoming":[],"outgoing":[{"transport_id":null,"id":"6292","transport_name":null,"transport_description":null,"transport_unit":null,"transport_co2_eq":null,"from_stop_id":"9014","from_stop_lat":"39.4075795","from_stop_lon":"-122.0096112","from_stop_placename":"425 Hwy 45, Colusa, CA 95932, USA","to_stop_id":"9009","to_stop_name":"origin","to_stop_lat":"40.6495729","to_stop_lon":"-73.571483","to_stop_placename":"40 St Marys Pl, Freeport, NY 11520, USA","to_stop":{"id":"9009","name":"origin","lat":"40.6495729","lon":"-73.571483","placename":"40 St Marys Pl, Freeport, NY 11520, USA"},"from_stop":{"name":"origin","id":"9014","lat":"39.4075795","lon":"-122.0096112","placename":"425 Hwy 45, Colusa, CA 95932, USA"}}]}}},"processes":[],"eols":[]},{"oid":"225","imid":"5403","linkid":"0","weight":"0","rawemissions":"0","emissions":"0","shipping":"13914.63","processemissions":"0","endoflifeemissions":"0","disposaltype":null,"disposalenergy":null,"disposalimpact":null,"disposalemissions":null,"description":"","name":" Organic Vanilla Flavor ","id":"5403","stops":{"origin":{"related_to":"5403","part_or_object":"p","notes":null,"placename":"Madagascar","id":9015,"name":"origin","lat":"-18.766947","lon":"46.869107","hops":{"incoming":[],"outgoing":[{"transport_id":null,"id":"6293","transport_name":null,"transport_description":null,"transport_unit":null,"transport_co2_eq":null,"from_stop_id":"9015","from_stop_lat":"-18.766947","from_stop_lon":"46.869107","from_stop_placename":"Madagascar","to_stop_id":"9009","to_stop_name":"origin","to_stop_lat":"40.6495729","to_stop_lon":"-73.571483","to_stop_placename":"40 St Marys Pl, Freeport, NY 11520, USA","to_stop":{"id":"9009","name":"origin","lat":"40.6495729","lon":"-73.571483","placename":"40 St Marys Pl, Freeport, NY 11520, USA"},"from_stop":{"name":"origin","id":"9015","lat":"-18.766947","lon":"46.869107","placename":"Madagascar"}}]}}},"processes":[],"eols":[]},{"oid":"225","imid":"5404","linkid":"0","weight":"0","rawemissions":"0","emissions":"0","shipping":"4078.1","processemissions":"0","endoflifeemissions":"0","disposaltype":null,"disposalenergy":null,"disposalimpact":null,"disposalemissions":null,"description":"","name":"Organic Brown Rice Syrup","id":"5404","stops":{"origin":{"related_to":"5404","part_or_object":"p","notes":null,"placename":"425 Hwy 45, Colusa, CA 95932, USA","id":9016,"name":"origin","lat":"39.4075795","lon":"-122.0096112","hops":{"incoming":[],"outgoing":[{"transport_id":null,"id":"6294","transport_name":null,"transport_description":null,"transport_unit":null,"transport_co2_eq":null,"from_stop_id":"9016","from_stop_lat":"39.4075795","from_stop_lon":"-122.0096112","from_stop_placename":"425 Hwy 45, Colusa, CA 95932, USA","to_stop_id":"9009","to_stop_name":"origin","to_stop_lat":"40.6495729","to_stop_lon":"-73.571483","to_stop_placename":"40 St Marys Pl, Freeport, NY 11520, USA","to_stop":{"id":"9009","name":"origin","lat":"40.6495729","lon":"-73.571483","placename":"40 St Marys Pl, Freeport, NY 11520, USA"},"from_stop":{"name":"origin","id":"9016","lat":"39.4075795","lon":"-122.0096112","placename":"425 Hwy 45, Colusa, CA 95932, USA"}}]}}},"processes":[],"eols":[]},{"oid":"225","imid":"5405","linkid":"0","weight":"0","rawemissions":"0","emissions":"0","shipping":"2504.02","processemissions":"0","endoflifeemissions":"0","disposaltype":null,"disposalenergy":null,"disposalimpact":null,"disposalemissions":null,"description":"","name":"Organic Evaporated Cane Juice","id":"5405","stops":{"origin":{"related_to":"5405","part_or_object":"p","notes":null,"placename":"San Pedro de Macor\u00eds, Dominican Republic","id":9017,"name":"origin","lat":"18.455759","lon":"-69.307808","hops":{"incoming":[],"outgoing":[{"transport_id":null,"id":"6295","transport_name":null,"transport_description":null,"transport_unit":null,"transport_co2_eq":null,"from_stop_id":"9017","from_stop_lat":"18.455759","from_stop_lon":"-69.307808","from_stop_placename":"San Pedro de Macor\u00eds, Dominican Republic","to_stop_id":"9009","to_stop_name":"origin","to_stop_lat":"40.6495729","to_stop_lon":"-73.571483","to_stop_placename":"40 St Marys Pl, Freeport, NY 11520, USA","to_stop":{"id":"9009","name":"origin","lat":"40.6495729","lon":"-73.571483","placename":"40 St Marys Pl, Freeport, NY 11520, USA"},"from_stop":{"name":"origin","id":"9017","lat":"18.455759","lon":"-69.307808","placename":"San Pedro de Macor\u00eds, Dominican Republic"}}]}}},"processes":[],"eols":[]},{"oid":"225","imid":"5406","linkid":"0","weight":"0","rawemissions":"0","emissions":"0","shipping":"12650.71","processemissions":"0","endoflifeemissions":"0","disposaltype":null,"disposalenergy":null,"disposalimpact":null,"disposalemissions":null,"description":"","name":"Organic Guar Gum","id":"5406","stops":{"origin":{"related_to":"5406","part_or_object":"p","notes":null,"placename":"India","id":9018,"name":"origin","lat":"20.593684","lon":"78.96288","hops":{"incoming":[],"outgoing":[{"transport_id":null,"id":"6296","transport_name":null,"transport_description":null,"transport_unit":null,"transport_co2_eq":null,"from_stop_id":"9018","from_stop_lat":"20.593684","from_stop_lon":"78.96288","from_stop_placename":"India","to_stop_id":"9009","to_stop_name":"origin","to_stop_lat":"40.6495729","to_stop_lon":"-73.571483","to_stop_placename":"40 St Marys Pl, Freeport, NY 11520, USA","to_stop":{"id":"9009","name":"origin","lat":"40.6495729","lon":"-73.571483","placename":"40 St Marys Pl, Freeport, NY 11520, USA"},"from_stop":{"name":"origin","id":"9018","lat":"20.593684","lon":"78.96288","placename":"India"}}]}}},"processes":[],"eols":[]},{"oid":"225","imid":"5407","linkid":"0","weight":"0","rawemissions":"0","emissions":"0","shipping":"605.89","processemissions":"0","endoflifeemissions":"0","disposaltype":null,"disposalenergy":null,"disposalimpact":null,"disposalemissions":null,"description":"","name":"Sea Salt","id":"5407","stops":{"origin":{"related_to":"5407","part_or_object":"p","notes":null,"placename":"6700 Century Ave, Mississauga, ON L5N 6A4, Canada","id":9019,"name":"origin","lat":"43.59959","lon":"-79.7422313","hops":{"incoming":[],"outgoing":[{"transport_id":null,"id":"6297","transport_name":null,"transport_description":null,"transport_unit":null,"transport_co2_eq":null,"from_stop_id":"9019","from_stop_lat":"43.59959","from_stop_lon":"-79.7422313","from_stop_placename":"6700 Century Ave, Mississauga, ON L5N 6A4, Canada","to_stop_id":"9009","to_stop_name":"origin","to_stop_lat":"40.6495729","to_stop_lon":"-73.571483","to_stop_placename":"40 St Marys Pl, Freeport, NY 11520, USA","to_stop":{"id":"9009","name":"origin","lat":"40.6495729","lon":"-73.571483","placename":"40 St Marys Pl, Freeport, NY 11520, USA"},"from_stop":{"name":"origin","id":"9019","lat":"43.59959","lon":"-79.7422313","placename":"6700 Century Ave, Mississauga, ON L5N 6A4, Canada"}}]}}},"processes":[],"eols":[]}],"user":{"name":"Meiver","id":"10152"}}}