{"2253":{"oid":"2253","type":"object","flag":"","creator":"7473","name":"my_firstmap","upc":"","imagelink":"","description":"une carte de newbye","slug":"my_firstmap","category":"","weight":"69","emissions":"61.0791","embodied":"14.97","transport":"54.3091","process":"0","endoflife":"0","shipping":"28376.3","lifetime":null,"usagetype":"US Electric Grid","usageenergy":"-10","usageemissions":"-8.2","timecreated":"2010-02-24 22:03:36.158683","timemodified":"2010-01-21 10:48:12","visibility":"private","showfootprint":"on","showembodied":"on","showtransport":"on","showprocess":"on","showendoflife":"on","showlastleg":"on","showuse":"on","showstats":"on","stops":{"origin":{"related_to":"2253","part_or_object":"o","notes":"","placename":"Paris, France","id":"442","category":"1","lat":"48.8566667","lon":"2.3509871","name":"origin","hops":{"incoming":[{"transport_id":"16","id":"1506","transport_name":"air, freight, intercontinental","transport_description":"intercontinental freight","transport_unit":"kg km","transport_co2_eq":"0.450000","from_stop_id":"3766","from_stop_lat":"-33.9237762","from_stop_lon":"18.4233455","to_stop_id":"442","to_stop_name":"origin","to_stop_lat":"48.8566667","placename":"Le Cap, Afrique du Sud","to_stop_lon":"2.3509871","to_stop":{"id":"442","name":"origin","lat":"48.8566667","placename":"Paris, France","lon":"2.3509871"},"from_stop":{"name":"origin","id":"3766","lat":"-33.9237762","lon":"18.4233455","placename":"Le Cap, Afrique du Sud"}},{"transport_id":"16","id":"1507","transport_name":"air, freight, intercontinental","transport_description":"intercontinental freight","transport_unit":"kg km","transport_co2_eq":"0.450000","from_stop_id":"3767","from_stop_lat":"44.2594979","from_stop_lon":"-73.2112346","to_stop_id":"442","to_stop_name":"origin","to_stop_lat":"48.8566667","placename":"North Ferrisburgh, VT, USA","to_stop_lon":"2.3509871","to_stop":{"id":"442","name":"origin","lat":"48.8566667","placename":"Paris, France","lon":"2.3509871"},"from_stop":{"name":"origin","id":"3767","lat":"44.2594979","lon":"-73.2112346","placename":"North Ferrisburgh, VT, USA"}},{"transport_id":"16","id":"1509","transport_name":"air, freight, intercontinental","transport_description":"intercontinental freight","transport_unit":"kg km","transport_co2_eq":"0.450000","from_stop_id":"3769","from_stop_lat":"42.3500967","from_stop_lon":"-71.2328332","to_stop_id":"442","to_stop_name":"origin","to_stop_lat":"48.8566667","placename":"West Newton, MA, USA","to_stop_lon":"2.3509871","to_stop":{"id":"442","name":"origin","lat":"48.8566667","placename":"Paris, France","lon":"2.3509871"},"from_stop":{"name":"origin","id":"3769","lat":"42.3500967","lon":"-71.2328332","placename":"West Newton, MA, USA"}},{"transport_id":"2","id":"1510","transport_name":"truck, 16 tons","transport_description":"truck, half full","transport_unit":"kg km","transport_co2_eq":"0.020300","from_stop_id":"3770","from_stop_lat":"48.9903564","from_stop_lon":"1.7193638","to_stop_id":"442","to_stop_name":"origin","to_stop_lat":"48.8566667","placename":"78200 Mantes-la-Jolie, France","to_stop_lon":"2.3509871","to_stop":{"id":"442","name":"origin","lat":"48.8566667","placename":"Paris, France","lon":"2.3509871"},"from_stop":{"name":"origin","id":"3770","lat":"48.9903564","lon":"1.7193638","placename":"78200 Mantes-la-Jolie, France"}},{"transport_id":"1","id":"1511","transport_name":"van, 3.5 tons","transport_description":"delivery van, half full","transport_unit":"kg km","transport_co2_eq":"0.053400","from_stop_id":"3771","from_stop_lat":"48.8566667","from_stop_lon":"2.3509871","to_stop_id":"442","to_stop_name":"origin","to_stop_lat":"48.8566667","placename":"Paris, France","to_stop_lon":"2.3509871","to_stop":{"id":"442","name":"origin","lat":"48.8566667","placename":"Paris, France","lon":"2.3509871"},"from_stop":{"name":"origin","id":"3771","lat":"48.8566667","lon":"2.3509871","placename":"Paris, France"}},{"transport_id":"8","id":"1512","transport_name":"freighter, oceanic","transport_description":"","transport_unit":"kg km","transport_co2_eq":"0.004200","from_stop_id":"3772","from_stop_lat":"35.86166","from_stop_lon":"104.195397","to_stop_id":"442","to_stop_name":"origin","to_stop_lat":"48.8566667","placename":"Chine","to_stop_lon":"2.3509871","to_stop":{"id":"442","name":"origin","lat":"48.8566667","placename":"Paris, France","lon":"2.3509871"},"from_stop":{"name":"origin","id":"3772","lat":"35.86166","lon":"104.195397","placename":"Chine"}}],"outgoing":[]}}},"parts":[{"oid":"2253","imid":"1734","linkid":"","weight":"1","rawemissions":"0","emissions":"0","shipping":"9352.1","processemissions":null,"endoflifeemissions":null,"disposaltype":null,"disposalenergy":null,"disposalimpact":null,"disposalemissions":null,"description":"","name":"Battery NI-Mh","id":"1734","stops":{"origin":{"related_to":"1734","part_or_object":"p","notes":"","placename":"Le Cap, Afrique du Sud","id":3766,"name":"origin","lat":"-33.9237762","lon":"18.4233455","hops":{"incoming":[],"outgoing":[{"transport_id":"16","id":"1506","transport_name":"air, freight, intercontinental","transport_description":"intercontinental freight","transport_unit":"kg km","transport_co2_eq":"0.450000","from_stop_id":"3766","from_stop_lat":"-33.9237762","from_stop_lon":"18.4233455","from_stop_placename":"Le Cap, Afrique du Sud","to_stop_id":"442","to_stop_name":"origin","to_stop_lat":"48.8566667","to_stop_lon":"2.3509871","to_stop_placename":"Paris, France","to_stop":{"id":"442","name":"origin","lat":"48.8566667","lon":"2.3509871","placename":"Paris, France"},"from_stop":{"name":"origin","id":"3766","lat":"-33.9237762","lon":"18.4233455","placename":"Le Cap, Afrique du Sud"}}]}}},"processes":[],"eols":[]},{"oid":"2253","imid":"1730","linkid":"","weight":"12","rawemissions":"0.01","emissions":"0.12","shipping":"5563.72","processemissions":null,"endoflifeemissions":null,"disposaltype":null,"disposalenergy":null,"disposalimpact":null,"disposalemissions":null,"description":"","name":"generator","id":"1730","stops":{"origin":{"related_to":"1730","part_or_object":"p","notes":"","placename":"North Ferrisburgh, VT, USA","id":3767,"name":"origin","lat":"44.2594979","lon":"-73.2112346","hops":{"incoming":[],"outgoing":[{"transport_id":"16","id":"1507","transport_name":"air, freight, intercontinental","transport_description":"intercontinental freight","transport_unit":"kg km","transport_co2_eq":"0.450000","from_stop_id":"3767","from_stop_lat":"44.2594979","from_stop_lon":"-73.2112346","from_stop_placename":"North Ferrisburgh, VT, USA","to_stop_id":"442","to_stop_name":"origin","to_stop_lat":"48.8566667","to_stop_lon":"2.3509871","to_stop_placename":"Paris, France","to_stop":{"id":"442","name":"origin","lat":"48.8566667","lon":"2.3509871","placename":"Paris, France"},"from_stop":{"name":"origin","id":"3767","lat":"44.2594979","lon":"-73.2112346","placename":"North Ferrisburgh, VT, USA"}}]}}},"processes":[],"eols":[]},{"oid":"2253","imid":"1731","linkid":"","weight":"8","rawemissions":"0.1","emissions":"0.8","shipping":"5549.79","processemissions":null,"endoflifeemissions":null,"disposaltype":null,"disposalenergy":null,"disposalimpact":null,"disposalemissions":null,"description":"","name":"adaptateur","id":"1731","stops":{"origin":{"related_to":"1731","part_or_object":"p","notes":"","placename":"West Newton, MA, USA","id":3769,"name":"origin","lat":"42.3500967","lon":"-71.2328332","hops":{"incoming":[],"outgoing":[{"transport_id":"16","id":"1509","transport_name":"air, freight, intercontinental","transport_description":"intercontinental freight","transport_unit":"kg km","transport_co2_eq":"0.450000","from_stop_id":"3769","from_stop_lat":"42.3500967","from_stop_lon":"-71.2328332","from_stop_placename":"West Newton, MA, USA","to_stop_id":"442","to_stop_name":"origin","to_stop_lat":"48.8566667","to_stop_lon":"2.3509871","to_stop_placename":"Paris, France","to_stop":{"id":"442","name":"origin","lat":"48.8566667","lon":"2.3509871","placename":"Paris, France"},"from_stop":{"name":"origin","id":"3769","lat":"42.3500967","lon":"-71.2328332","placename":"West Newton, MA, USA"}}]}}},"processes":[],"eols":[]},{"oid":"2253","imid":"1732","linkid":"","weight":"45","rawemissions":"0.01","emissions":"0.45","shipping":"48.54","processemissions":null,"endoflifeemissions":null,"disposaltype":null,"disposalenergy":null,"disposalimpact":null,"disposalemissions":null,"description":"","name":"tubes inox","id":"1732","stops":{"origin":{"related_to":"1732","part_or_object":"p","notes":"","placename":"78200 Mantes-la-Jolie, France","id":3770,"name":"origin","lat":"48.9903564","lon":"1.7193638","hops":{"incoming":[],"outgoing":[{"transport_id":"2","id":"1510","transport_name":"truck, 16 tons","transport_description":"truck, half full","transport_unit":"kg km","transport_co2_eq":"0.020300","from_stop_id":"3770","from_stop_lat":"48.9903564","from_stop_lon":"1.7193638","from_stop_placename":"78200 Mantes-la-Jolie, France","to_stop_id":"442","to_stop_name":"origin","to_stop_lat":"48.8566667","to_stop_lon":"2.3509871","to_stop_placename":"Paris, France","to_stop":{"id":"442","name":"origin","lat":"48.8566667","lon":"2.3509871","placename":"Paris, France"},"from_stop":{"name":"origin","id":"3770","lat":"48.9903564","lon":"1.7193638","placename":"78200 Mantes-la-Jolie, France"}}]}}},"processes":[],"eols":[]},{"oid":"2253","imid":"1733","linkid":"parts\/mdf","weight":"2","rawemissions":"6.8","emissions":"13.6","shipping":"0","processemissions":null,"endoflifeemissions":null,"disposaltype":null,"disposalenergy":null,"disposalimpact":null,"disposalemissions":null,"description":"","name":"MDF","id":"1733","stops":{"origin":{"related_to":"1733","part_or_object":"p","notes":"","placename":"Paris, France","id":3771,"name":"origin","lat":"48.8566667","lon":"2.3509871","hops":{"incoming":[],"outgoing":[{"transport_id":"1","id":"1511","transport_name":"van, 3.5 tons","transport_description":"delivery van, half full","transport_unit":"kg km","transport_co2_eq":"0.053400","from_stop_id":"3771","from_stop_lat":"48.8566667","from_stop_lon":"2.3509871","from_stop_placename":"Paris, France","to_stop_id":"442","to_stop_name":"origin","to_stop_lat":"48.8566667","to_stop_lon":"2.3509871","to_stop_placename":"Paris, France","to_stop":{"id":"442","name":"origin","lat":"48.8566667","lon":"2.3509871","placename":"Paris, France"},"from_stop":{"name":"origin","id":"3771","lat":"48.8566667","lon":"2.3509871","placename":"Paris, France"}}]}}},"processes":[],"eols":[]},{"oid":"2253","imid":"1735","linkid":"","weight":"1","rawemissions":"0","emissions":"0","shipping":"7862.12","processemissions":null,"endoflifeemissions":null,"disposaltype":null,"disposalenergy":null,"disposalimpact":null,"disposalemissions":null,"description":"","name":"electric components","id":"1735","stops":{"origin":{"related_to":"1735","part_or_object":"p","notes":"","placename":"Chine","id":3772,"name":"origin","lat":"35.86166","lon":"104.195397","hops":{"incoming":[],"outgoing":[{"transport_id":"8","id":"1512","transport_name":"freighter, oceanic","transport_description":"","transport_unit":"kg km","transport_co2_eq":"0.004200","from_stop_id":"3772","from_stop_lat":"35.86166","from_stop_lon":"104.195397","from_stop_placename":"Chine","to_stop_id":"442","to_stop_name":"origin","to_stop_lat":"48.8566667","to_stop_lon":"2.3509871","to_stop_placename":"Paris, France","to_stop":{"id":"442","name":"origin","lat":"48.8566667","lon":"2.3509871","placename":"Paris, France"},"from_stop":{"name":"origin","id":"3772","lat":"35.86166","lon":"104.195397","placename":"Chine"}}]}}},"processes":[],"eols":[]}],"user":{"name":"jmlg10","id":"7473"}}}