{"231":{"oid":"231","type":"object","flag":"","creator":"1","name":"Toyota Prius","upc":"","imagelink":"","description":"source for manufacturing: http:\/\/www.madeinnations.com\/sort\/all-brands\/489\/0\/246\/1331\n","slug":"toyota-prius","category":"","weight":"318","emissions":"236.165","embodied":"228.61","transport":"7.55478","process":"0","endoflife":"0","shipping":"3810.53","lifetime":"0","usagetype":"","usageenergy":"0","usageemissions":"0","timecreated":"2010-02-24 22:03:35.450545","timemodified":"2009-08-19 01:51:55","visibility":"public","showfootprint":"on","showembodied":"on","showtransport":"on","showprocess":"on","showendoflife":"on","showlastleg":"on","showuse":"on","showstats":"on","stops":{"origin":{"related_to":"231","part_or_object":"o","notes":"","placename":"Tsutsumi","id":"50","category":"1","lat":"37.069374","lon":"140.374008","name":"origin","hops":{"incoming":[{"transport_id":"6","id":"493","transport_name":"tanker ship","transport_description":"tanker for mobing liquids","transport_unit":"kg km","transport_co2_eq":"0.171600","from_stop_id":"2682","from_stop_lat":"35.1814464","from_stop_lon":"136.906398","to_stop_id":"50","to_stop_name":"origin","to_stop_lat":"37.069374","placename":"Nagoya","to_stop_lon":"140.374008","to_stop":{"id":"50","name":"origin","lat":"37.069374","placename":"Tsutsumi","lon":"140.374008"},"from_stop":{"name":"origin","id":"2682","lat":"35.1814464","lon":"136.906398","placename":"Nagoya"}},{"transport_id":"3","id":"496","transport_name":"truck, 40 tons","transport_description":"truck, half full","transport_unit":"kg km","transport_co2_eq":"0.030900","from_stop_id":"2685","from_stop_lat":"36.204824","from_stop_lon":"138.252924","to_stop_id":"50","to_stop_name":"origin","to_stop_lat":"37.069374","placename":"Japan","to_stop_lon":"140.374008","to_stop":{"id":"50","name":"origin","lat":"37.069374","placename":"Tsutsumi","lon":"140.374008"},"from_stop":{"name":"origin","id":"2685","lat":"36.204824","lon":"138.252924","placename":"Japan"}},{"transport_id":"17","id":"523","transport_name":"None Selected","transport_description":null,"transport_unit":"kg km","transport_co2_eq":"0.000000","from_stop_id":"2743","from_stop_lat":"35.86166","from_stop_lon":"104.195397","to_stop_id":"50","to_stop_name":"origin","to_stop_lat":"37.069374","placename":"China","to_stop_lon":"140.374008","to_stop":{"id":"50","name":"origin","lat":"37.069374","placename":"Tsutsumi","lon":"140.374008"},"from_stop":{"name":"origin","id":"2743","lat":"35.86166","lon":"104.195397","placename":"China"}},{"transport_id":"17","id":"524","transport_name":"None Selected","transport_description":null,"transport_unit":"kg km","transport_co2_eq":"0.000000","from_stop_id":"2744","from_stop_lat":"0","from_stop_lon":"0","to_stop_id":"50","to_stop_name":"origin","to_stop_lat":"37.069374","placename":"Part Origin","to_stop_lon":"140.374008","to_stop":{"id":"50","name":"origin","lat":"37.069374","placename":"Tsutsumi","lon":"140.374008"},"from_stop":{"name":"origin","id":"2744","lat":"0","lon":"0","placename":"Part Origin"}}],"outgoing":[]}}},"parts":[{"oid":"231","imid":"597","linkid":"","weight":"100","rawemissions":"0.55","emissions":"55","shipping":"375.97","processemissions":null,"endoflifeemissions":null,"disposaltype":null,"disposalenergy":null,"disposalimpact":null,"disposalemissions":null,"description":"Recycled low alloy steel","name":"Recycled steel","id":"597","stops":{"origin":{"related_to":"597","part_or_object":"p","notes":"","placename":"Nagoya","id":2682,"name":"origin","lat":"35.1814464","lon":"136.906398","hops":{"incoming":[],"outgoing":[{"transport_id":"6","id":"493","transport_name":"tanker ship","transport_description":"tanker for mobing liquids","transport_unit":"kg km","transport_co2_eq":"0.171600","from_stop_id":"2682","from_stop_lat":"35.1814464","from_stop_lon":"136.906398","from_stop_placename":"Nagoya","to_stop_id":"50","to_stop_name":"origin","to_stop_lat":"37.069374","to_stop_lon":"140.374008","to_stop_placename":"Tsutsumi","to_stop":{"id":"50","name":"origin","lat":"37.069374","lon":"140.374008","placename":"Tsutsumi"},"from_stop":{"name":"origin","id":"2682","lat":"35.1814464","lon":"136.906398","placename":"Nagoya"}}]}}},"processes":[],"eols":[]},{"oid":"231","imid":"593","linkid":"","weight":"168","rawemissions":"0.081","emissions":"13.61","shipping":"212.5","processemissions":null,"endoflifeemissions":null,"disposaltype":null,"disposalenergy":null,"disposalimpact":null,"disposalemissions":null,"description":"rechargeable, source- http:\/\/search.japantimes.co.jp\/cgi-bin\/nb20080528a6.html","name":"Battery lithium ion","id":"593","stops":{"origin":{"related_to":"593","part_or_object":"p","notes":"","placename":"Japan","id":2685,"name":"origin","lat":"36.204824","lon":"138.252924","hops":{"incoming":[],"outgoing":[{"transport_id":"3","id":"496","transport_name":"truck, 40 tons","transport_description":"truck, half full","transport_unit":"kg km","transport_co2_eq":"0.030900","from_stop_id":"2685","from_stop_lat":"36.204824","from_stop_lon":"138.252924","from_stop_placename":"Japan","to_stop_id":"50","to_stop_name":"origin","to_stop_lat":"37.069374","to_stop_lon":"140.374008","to_stop_placename":"Tsutsumi","to_stop":{"id":"50","name":"origin","lat":"37.069374","lon":"140.374008","placename":"Tsutsumi"},"from_stop":{"name":"origin","id":"2685","lat":"36.204824","lon":"138.252924","placename":"Japan"}}]}}},"processes":[],"eols":[]},{"oid":"231","imid":"658","linkid":"","weight":"50","rawemissions":"3.2","emissions":"160","shipping":"3222.06","processemissions":null,"endoflifeemissions":null,"disposaltype":null,"disposalenergy":null,"disposalimpact":null,"disposalemissions":null,"description":"Acrylonitrile butadiene styrene","name":"ABS ","id":"658","stops":{"origin":{"related_to":"658","part_or_object":"p","notes":"","placename":"China","id":2743,"name":"origin","lat":"35.86166","lon":"104.195397","hops":{"incoming":[],"outgoing":[{"transport_id":"17","id":"523","transport_name":"None Selected","transport_description":null,"transport_unit":"kg km","transport_co2_eq":"0.000000","from_stop_id":"2743","from_stop_lat":"35.86166","from_stop_lon":"104.195397","from_stop_placename":"China","to_stop_id":"50","to_stop_name":"origin","to_stop_lat":"37.069374","to_stop_lon":"140.374008","to_stop_placename":"Tsutsumi","to_stop":{"id":"50","name":"origin","lat":"37.069374","lon":"140.374008","placename":"Tsutsumi"},"from_stop":{"name":"origin","id":"2743","lat":"35.86166","lon":"104.195397","placename":"China"}}]}}},"processes":[],"eols":[]},{"oid":"231","imid":"659","linkid":"","weight":"0","rawemissions":"0","emissions":"0","shipping":"0","processemissions":null,"endoflifeemissions":null,"disposaltype":null,"disposalenergy":null,"disposalimpact":null,"disposalemissions":null,"description":"","name":"Part","id":"659","stops":{"origin":{"related_to":"659","part_or_object":"p","notes":"","placename":"Part Origin","id":2744,"name":"origin","lat":"0","lon":"0","hops":{"incoming":[],"outgoing":[{"transport_id":"17","id":"524","transport_name":"None Selected","transport_description":null,"transport_unit":"kg km","transport_co2_eq":"0.000000","from_stop_id":"2744","from_stop_lat":"0","from_stop_lon":"0","from_stop_placename":"Part Origin","to_stop_id":"50","to_stop_name":"origin","to_stop_lat":"37.069374","to_stop_lon":"140.374008","to_stop_placename":"Tsutsumi","to_stop":{"id":"50","name":"origin","lat":"37.069374","lon":"140.374008","placename":"Tsutsumi"},"from_stop":{"name":"origin","id":"2744","lat":"0","lon":"0","placename":"Part Origin"}}]}}},"processes":[],"eols":[]}],"user":{"name":"leo","id":"1"}}}