{"2354":{"oid":"2354","type":"food","flag":"","creator":"7601","name":"Nutri-Grain","upc":"","imagelink":"","description":"","slug":"nutri-grain","category":"","weight":"1201","emissions":"2091.56","embodied":"1906.01","transport":"185.551","process":"0","endoflife":"0","shipping":"26018.3","lifetime":null,"usagetype":"","usageenergy":null,"usageemissions":null,"timecreated":"2010-02-24 22:03:36.396709","timemodified":"2010-01-28 18:58:32","visibility":"private","showfootprint":"on","showembodied":"on","showtransport":"on","showprocess":"on","showendoflife":"on","showlastleg":"on","showuse":"on","showstats":"on","stops":{"origin":{"related_to":"2354","part_or_object":"o","notes":"","placename":"Nashville, TN, USA","id":"542","category":"1","lat":"36.1658899","lon":"-86.7844432","name":"origin","hops":{"incoming":[{"transport_id":"10","id":"1572","transport_name":"train, freight","transport_description":"diesel freight locomotive","transport_unit":"kg km","transport_co2_eq":"0.005600","from_stop_id":"3832","from_stop_lat":"37.215326","from_stop_lon":"-93.2982436","to_stop_id":"542","to_stop_name":"origin","to_stop_lat":"36.1658899","placename":"Springfield, MO, USA","to_stop_lon":"-86.7844432","to_stop":{"id":"542","name":"origin","lat":"36.1658899","placename":"Nashville, TN, USA","lon":"-86.7844432"},"from_stop":{"name":"origin","id":"3832","lat":"37.215326","lon":"-93.2982436","placename":"Springfield, MO, USA"}},{"transport_id":"3","id":"1573","transport_name":"truck, 40 tons","transport_description":"truck, half full","transport_unit":"kg km","transport_co2_eq":"0.030900","from_stop_id":"3833","from_stop_lat":"33.2098407","from_stop_lon":"-87.5691735","to_stop_id":"542","to_stop_name":"origin","to_stop_lat":"36.1658899","placename":"Tuscaloosa, AL, USA","to_stop_lon":"-86.7844432","to_stop":{"id":"542","name":"origin","lat":"36.1658899","placename":"Nashville, TN, USA","lon":"-86.7844432"},"from_stop":{"name":"origin","id":"3833","lat":"33.2098407","lon":"-87.5691735","placename":"Tuscaloosa, AL, USA"}},{"transport_id":"3","id":"1574","transport_name":"truck, 40 tons","transport_description":"truck, half full","transport_unit":"kg km","transport_co2_eq":"0.030900","from_stop_id":"3834","from_stop_lat":"40.735657","from_stop_lon":"-74.1723667","to_stop_id":"542","to_stop_name":"origin","to_stop_lat":"36.1658899","placename":"Newark, NJ, USA","to_stop_lon":"-86.7844432","to_stop":{"id":"542","name":"origin","lat":"36.1658899","placename":"Nashville, TN, USA","lon":"-86.7844432"},"from_stop":{"name":"origin","id":"3834","lat":"40.735657","lon":"-74.1723667","placename":"Newark, NJ, USA"}},{"transport_id":"17","id":"1575","transport_name":"None Selected","transport_description":null,"transport_unit":"kg km","transport_co2_eq":"0.000000","from_stop_id":"3835","from_stop_lat":"35.86166","from_stop_lon":"104.195397","to_stop_id":"542","to_stop_name":"origin","to_stop_lat":"36.1658899","placename":"Kina","to_stop_lon":"-86.7844432","to_stop":{"id":"542","name":"origin","lat":"36.1658899","placename":"Nashville, TN, USA","lon":"-86.7844432"},"from_stop":{"name":"origin","id":"3835","lat":"35.86166","lon":"104.195397","placename":"Kina"}}],"outgoing":[]}}},"parts":[{"oid":"2354","imid":"1806","linkid":"parts\/wheat-flour-at-mill","weight":"1","rawemissions":"1.01","emissions":"1.01","shipping":"592.94","processemissions":null,"endoflifeemissions":null,"disposaltype":null,"disposalenergy":null,"disposalimpact":null,"disposalemissions":null,"description":"","name":"Wheat Flour at Mill","id":"1806","stops":{"origin":{"related_to":"1806","part_or_object":"p","notes":"","placename":"Springfield, MO, USA","id":3832,"name":"origin","lat":"37.215326","lon":"-93.2982436","hops":{"incoming":[],"outgoing":[{"transport_id":"10","id":"1572","transport_name":"train, freight","transport_description":"diesel freight locomotive","transport_unit":"kg km","transport_co2_eq":"0.005600","from_stop_id":"3832","from_stop_lat":"37.215326","from_stop_lon":"-93.2982436","from_stop_placename":"Springfield, MO, USA","to_stop_id":"542","to_stop_name":"origin","to_stop_lat":"36.1658899","to_stop_lon":"-86.7844432","to_stop_placename":"Nashville, TN, USA","to_stop":{"id":"542","name":"origin","lat":"36.1658899","lon":"-86.7844432","placename":"Nashville, TN, USA"},"from_stop":{"name":"origin","id":"3832","lat":"37.215326","lon":"-93.2982436","placename":"Springfield, MO, USA"}}]}}},"processes":[],"eols":[]},{"oid":"2354","imid":"1807","linkid":"parts\/sugar-conventional-at-retail","weight":"300","rawemissions":"0.96","emissions":"288","shipping":"336.81","processemissions":null,"endoflifeemissions":null,"disposaltype":null,"disposalenergy":null,"disposalimpact":null,"disposalemissions":null,"description":"","name":"Sugar, Conventional at Retail ","id":"1807","stops":{"origin":{"related_to":"1807","part_or_object":"p","notes":"","placename":"Tuscaloosa, AL, USA","id":3833,"name":"origin","lat":"33.2098407","lon":"-87.5691735","hops":{"incoming":[],"outgoing":[{"transport_id":"3","id":"1573","transport_name":"truck, 40 tons","transport_description":"truck, half full","transport_unit":"kg km","transport_co2_eq":"0.030900","from_stop_id":"3833","from_stop_lat":"33.2098407","from_stop_lon":"-87.5691735","from_stop_placename":"Tuscaloosa, AL, USA","to_stop_id":"542","to_stop_name":"origin","to_stop_lat":"36.1658899","to_stop_lon":"-86.7844432","to_stop_placename":"Nashville, TN, USA","to_stop":{"id":"542","name":"origin","lat":"36.1658899","lon":"-86.7844432","placename":"Nashville, TN, USA"},"from_stop":{"name":"origin","id":"3833","lat":"33.2098407","lon":"-87.5691735","placename":"Tuscaloosa, AL, USA"}}]}}},"processes":[],"eols":[]},{"oid":"2354","imid":"1808","linkid":"parts\/corn-syrup","weight":"300","rawemissions":"2.87","emissions":"861","shipping":"1209.94","processemissions":null,"endoflifeemissions":null,"disposaltype":null,"disposalenergy":null,"disposalimpact":null,"disposalemissions":null,"description":"","name":"Corn Syrup","id":"1808","stops":{"origin":{"related_to":"1808","part_or_object":"p","notes":"","placename":"Newark, NJ, USA","id":3834,"name":"origin","lat":"40.735657","lon":"-74.1723667","hops":{"incoming":[],"outgoing":[{"transport_id":"3","id":"1574","transport_name":"truck, 40 tons","transport_description":"truck, half full","transport_unit":"kg km","transport_co2_eq":"0.030900","from_stop_id":"3834","from_stop_lat":"40.735657","from_stop_lon":"-74.1723667","from_stop_placename":"Newark, NJ, USA","to_stop_id":"542","to_stop_name":"origin","to_stop_lat":"36.1658899","to_stop_lon":"-86.7844432","to_stop_placename":"Nashville, TN, USA","to_stop":{"id":"542","name":"origin","lat":"36.1658899","lon":"-86.7844432","placename":"Nashville, TN, USA"},"from_stop":{"name":"origin","id":"3834","lat":"40.735657","lon":"-74.1723667","placename":"Newark, NJ, USA"}}]}}},"processes":[],"eols":[]},{"oid":"2354","imid":"1809","linkid":"parts\/iron-cast","weight":"300","rawemissions":"1.26","emissions":"378","shipping":"11939.3","processemissions":null,"endoflifeemissions":null,"disposaltype":null,"disposalenergy":null,"disposalimpact":null,"disposalemissions":null,"description":"","name":"Iron, Cast","id":"1809","stops":{"origin":{"related_to":"1809","part_or_object":"p","notes":"","placename":"Kina","id":3835,"name":"origin","lat":"35.86166","lon":"104.195397","hops":{"incoming":[],"outgoing":[{"transport_id":"17","id":"1575","transport_name":"None Selected","transport_description":null,"transport_unit":"kg km","transport_co2_eq":"0.000000","from_stop_id":"3835","from_stop_lat":"35.86166","from_stop_lon":"104.195397","from_stop_placename":"Kina","to_stop_id":"542","to_stop_name":"origin","to_stop_lat":"36.1658899","to_stop_lon":"-86.7844432","to_stop_placename":"Nashville, TN, USA","to_stop":{"id":"542","name":"origin","lat":"36.1658899","lon":"-86.7844432","placename":"Nashville, TN, USA"},"from_stop":{"name":"origin","id":"3835","lat":"35.86166","lon":"104.195397","placename":"Kina"}}]}}},"processes":[],"eols":[]}],"user":{"name":"Bella","id":"7601"}}}