{"2360":{"oid":"2360","type":"object","flag":"","creator":"7604","name":"Nutri Grain","upc":"","imagelink":"","description":"","slug":"nutri-grain-4","category":"","weight":"52000","emissions":"1119.03","embodied":"0","transport":"1119.03","process":"0","endoflife":"0","shipping":"82276.6","lifetime":null,"usagetype":"","usageenergy":null,"usageemissions":null,"timecreated":"2010-02-24 22:03:36.410933","timemodified":"2010-01-29 18:23:45","visibility":"public","showfootprint":"on","showembodied":"on","showtransport":"on","showprocess":"on","showendoflife":"on","showlastleg":"on","showuse":"on","showstats":"on","stops":{"origin":{"related_to":"2360","part_or_object":"o","notes":"","placename":"New York, NY, USA","id":"548","category":"1","lat":"40.7142691","lon":"-74.0059729","name":"origin","hops":{"incoming":[{"transport_id":"10","id":"1577","transport_name":"train, freight","transport_description":"diesel freight locomotive","transport_unit":"kg km","transport_co2_eq":"0.005600","from_stop_id":"3837","from_stop_lat":"30.0799405","from_stop_lon":"-95.4171601","to_stop_id":"548","to_stop_name":"origin","to_stop_lat":"40.7142691","placename":"Spring, TX, USA","to_stop_lon":"-74.0059729","to_stop":{"id":"548","name":"origin","lat":"40.7142691","placename":"New York, NY, USA","lon":"-74.0059729"},"from_stop":{"name":"origin","id":"3837","lat":"30.0799405","lon":"-95.4171601","placename":"Spring, TX, USA"}},{"transport_id":"1","id":"1578","transport_name":"van, 3.5 tons","transport_description":"delivery van, half full","transport_unit":"kg km","transport_co2_eq":"0.053400","from_stop_id":"3838","from_stop_lat":"40.9253763","from_stop_lon":"-74.2765368","to_stop_id":"548","to_stop_name":"origin","to_stop_lat":"40.7142691","placename":"Wayne, NJ, USA","to_stop_lon":"-74.0059729","to_stop":{"id":"548","name":"origin","lat":"40.7142691","placename":"New York, NY, USA","lon":"-74.0059729"},"from_stop":{"name":"origin","id":"3838","lat":"40.9253763","lon":"-74.2765368","placename":"Wayne, NJ, USA"}},{"transport_id":"2","id":"1579","transport_name":"truck, 16 tons","transport_description":"truck, half full","transport_unit":"kg km","transport_co2_eq":"0.020300","from_stop_id":"3839","from_stop_lat":"40.1017643","from_stop_lon":"-76.085227","to_stop_id":"548","to_stop_name":"origin","to_stop_lat":"40.7142691","placename":"New Holland, PA, USA","to_stop_lon":"-74.0059729","to_stop":{"id":"548","name":"origin","lat":"40.7142691","placename":"New York, NY, USA","lon":"-74.0059729"},"from_stop":{"name":"origin","id":"3839","lat":"40.1017643","lon":"-76.085227","placename":"New Holland, PA, USA"}},{"transport_id":"10","id":"1580","transport_name":"train, freight","transport_description":"diesel freight locomotive","transport_unit":"kg km","transport_co2_eq":"0.005600","from_stop_id":"3840","from_stop_lat":"43.8041334","from_stop_lon":"-120.5542012","to_stop_id":"548","to_stop_name":"origin","to_stop_lat":"40.7142691","placename":"Oregon, USA","to_stop_lon":"-74.0059729","to_stop":{"id":"548","name":"origin","lat":"40.7142691","placename":"New York, NY, USA","lon":"-74.0059729"},"from_stop":{"name":"origin","id":"3840","lat":"43.8041334","lon":"-120.5542012","placename":"Oregon, USA"}},{"transport_id":"1","id":"1581","transport_name":"van, 3.5 tons","transport_description":"delivery van, half full","transport_unit":"kg km","transport_co2_eq":"0.053400","from_stop_id":"3841","from_stop_lat":"40.7142691","from_stop_lon":"-74.0059729","to_stop_id":"548","to_stop_name":"origin","to_stop_lat":"40.7142691","placename":"New York, NY, USA","to_stop_lon":"-74.0059729","to_stop":{"id":"548","name":"origin","lat":"40.7142691","placename":"New York, NY, USA","lon":"-74.0059729"},"from_stop":{"name":"origin","id":"3841","lat":"40.7142691","lon":"-74.0059729","placename":"New York, NY, USA"}},{"transport_id":"1","id":"1582","transport_name":"van, 3.5 tons","transport_description":"delivery van, half full","transport_unit":"kg km","transport_co2_eq":"0.053400","from_stop_id":"3842","from_stop_lat":"40.8681539","from_stop_lon":"-73.425676","to_stop_id":"548","to_stop_name":"origin","to_stop_lat":"40.7142691","placename":"Huntington, NY, USA","to_stop_lon":"-74.0059729","to_stop":{"id":"548","name":"origin","lat":"40.7142691","placename":"New York, NY, USA","lon":"-74.0059729"},"from_stop":{"name":"origin","id":"3842","lat":"40.8681539","lon":"-73.425676","placename":"Huntington, NY, USA"}},{"transport_id":"10","id":"1583","transport_name":"train, freight","transport_description":"diesel freight locomotive","transport_unit":"kg km","transport_co2_eq":"0.005600","from_stop_id":"3843","from_stop_lat":"32.2987573","from_stop_lon":"-90.1848103","to_stop_id":"548","to_stop_name":"origin","to_stop_lat":"40.7142691","placename":"Jackson, MS, USA","to_stop_lon":"-74.0059729","to_stop":{"id":"548","name":"origin","lat":"40.7142691","placename":"New York, NY, USA","lon":"-74.0059729"},"from_stop":{"name":"origin","id":"3843","lat":"32.2987573","lon":"-90.1848103","placename":"Jackson, MS, USA"}},{"transport_id":"10","id":"1584","transport_name":"train, freight","transport_description":"diesel freight locomotive","transport_unit":"kg km","transport_co2_eq":"0.005600","from_stop_id":"3844","from_stop_lat":"33.2442813","from_stop_lon":"-86.8163773","to_stop_id":"548","to_stop_name":"origin","to_stop_lat":"40.7142691","placename":"Alabaster, AL, USA","to_stop_lon":"-74.0059729","to_stop":{"id":"548","name":"origin","lat":"40.7142691","placename":"New York, NY, USA","lon":"-74.0059729"},"from_stop":{"name":"origin","id":"3844","lat":"33.2442813","lon":"-86.8163773","placename":"Alabaster, AL, USA"}},{"transport_id":"8","id":"1585","transport_name":"freighter, oceanic","transport_description":"","transport_unit":"kg km","transport_co2_eq":"0.004200","from_stop_id":"3845","from_stop_lat":"55.9501755","from_stop_lon":"-3.1875359","to_stop_id":"548","to_stop_name":"origin","to_stop_lat":"40.7142691","placename":"Edinburgh, Storbritannien","to_stop_lon":"-74.0059729","to_stop":{"id":"548","name":"origin","lat":"40.7142691","placename":"New York, NY, USA","lon":"-74.0059729"},"from_stop":{"name":"origin","id":"3845","lat":"55.9501755","lon":"-3.1875359","placename":"Edinburgh, Storbritannien"}},{"transport_id":"8","id":"1586","transport_name":"freighter, oceanic","transport_description":"","transport_unit":"kg km","transport_co2_eq":"0.004200","from_stop_id":"3846","from_stop_lat":"45.6949028","from_stop_lon":"9.6699528","to_stop_id":"548","to_stop_name":"origin","to_stop_lat":"40.7142691","placename":"Bergamo BG, Italien","to_stop_lon":"-74.0059729","to_stop":{"id":"548","name":"origin","lat":"40.7142691","placename":"New York, NY, USA","lon":"-74.0059729"},"from_stop":{"name":"origin","id":"3846","lat":"45.6949028","lon":"9.6699528","placename":"Bergamo BG, Italien"}},{"transport_id":"8","id":"1587","transport_name":"freighter, oceanic","transport_description":"","transport_unit":"kg km","transport_co2_eq":"0.004200","from_stop_id":"3847","from_stop_lat":"56.1581354","from_stop_lon":"10.2120017","to_stop_id":"548","to_stop_name":"origin","to_stop_lat":"40.7142691","placename":"?rhus kommun, Danmark","to_stop_lon":"-74.0059729","to_stop":{"id":"548","name":"origin","lat":"40.7142691","placename":"New York, NY, USA","lon":"-74.0059729"},"from_stop":{"name":"origin","id":"3847","lat":"56.1581354","lon":"10.2120017","placename":"?rhus kommun, Danmark"}},{"transport_id":"8","id":"1588","transport_name":"freighter, oceanic","transport_description":"","transport_unit":"kg km","transport_co2_eq":"0.004200","from_stop_id":"3848","from_stop_lat":"51.9226899","from_stop_lon":"4.4707867","to_stop_id":"548","to_stop_name":"origin","to_stop_lat":"40.7142691","placename":"Rotterdam, Nederl?nderna","to_stop_lon":"-74.0059729","to_stop":{"id":"548","name":"origin","lat":"40.7142691","placename":"New York, NY, USA","lon":"-74.0059729"},"from_stop":{"name":"origin","id":"3848","lat":"51.9226899","lon":"4.4707867","placename":"Rotterdam, Nederl?nderna"}},{"transport_id":"8","id":"1589","transport_name":"freighter, oceanic","transport_description":"","transport_unit":"kg km","transport_co2_eq":"0.004200","from_stop_id":"3849","from_stop_lat":"19.017656","from_stop_lon":"72.856178","to_stop_id":"548","to_stop_name":"origin","to_stop_lat":"40.7142691","placename":"Bombay, Maharashtra, Indien","to_stop_lon":"-74.0059729","to_stop":{"id":"548","name":"origin","lat":"40.7142691","placename":"New York, NY, USA","lon":"-74.0059729"},"from_stop":{"name":"origin","id":"3849","lat":"19.017656","lon":"72.856178","placename":"Bombay, Maharashtra, Indien"}},{"transport_id":"8","id":"1590","transport_name":"freighter, oceanic","transport_description":"","transport_unit":"kg km","transport_co2_eq":"0.004200","from_stop_id":"3850","from_stop_lat":"15.7379887","from_stop_lon":"119.9971769","to_stop_id":"548","to_stop_name":"origin","to_stop_lat":"40.7142691","placename":"Santa Cruz, Filippinerna","to_stop_lon":"-74.0059729","to_stop":{"id":"548","name":"origin","lat":"40.7142691","placename":"New York, NY, USA","lon":"-74.0059729"},"from_stop":{"name":"origin","id":"3850","lat":"15.7379887","lon":"119.9971769","placename":"Santa Cruz, Filippinerna"}},{"transport_id":"8","id":"1591","transport_name":"freighter, oceanic","transport_description":"","transport_unit":"kg km","transport_co2_eq":"0.004200","from_stop_id":"3851","from_stop_lat":"36.066348","from_stop_lon":"120.382771","to_stop_id":"548","to_stop_name":"origin","to_stop_lat":"40.7142691","placename":"Qingdao, Shandong, Kina","to_stop_lon":"-74.0059729","to_stop":{"id":"548","name":"origin","lat":"40.7142691","placename":"New York, NY, USA","lon":"-74.0059729"},"from_stop":{"name":"origin","id":"3851","lat":"36.066348","lon":"120.382771","placename":"Qingdao, Shandong, Kina"}},{"transport_id":"8","id":"1592","transport_name":"freighter, oceanic","transport_description":"","transport_unit":"kg km","transport_co2_eq":"0.004200","from_stop_id":"3852","from_stop_lat":"34.216746","from_stop_lon":"113.768308","to_stop_id":"548","to_stop_name":"origin","to_stop_lat":"40.7142691","placename":"???, ???, Henan, Kina","to_stop_lon":"-74.0059729","to_stop":{"id":"548","name":"origin","lat":"40.7142691","placename":"New York, NY, USA","lon":"-74.0059729"},"from_stop":{"name":"origin","id":"3852","lat":"34.216746","lon":"113.768308","placename":"???, ???, Henan, Kina"}}],"outgoing":[]}}},"parts":[{"oid":"2360","imid":"1811","linkid":"parts\/corn-syrup","weight":"1000","rawemissions":"0","emissions":"0","shipping":"2265.86","processemissions":null,"endoflifeemissions":null,"disposaltype":null,"disposalenergy":null,"disposalimpact":null,"disposalemissions":null,"description":"","name":"Corn Syrup","id":"1811","stops":{"origin":{"related_to":"1811","part_or_object":"p","notes":"","placename":"Spring, TX, USA","id":3837,"name":"origin","lat":"30.0799405","lon":"-95.4171601","hops":{"incoming":[],"outgoing":[{"transport_id":"10","id":"1577","transport_name":"train, freight","transport_description":"diesel freight locomotive","transport_unit":"kg km","transport_co2_eq":"0.005600","from_stop_id":"3837","from_stop_lat":"30.0799405","from_stop_lon":"-95.4171601","from_stop_placename":"Spring, TX, USA","to_stop_id":"548","to_stop_name":"origin","to_stop_lat":"40.7142691","to_stop_lon":"-74.0059729","to_stop_placename":"New York, NY, USA","to_stop":{"id":"548","name":"origin","lat":"40.7142691","lon":"-74.0059729","placename":"New York, NY, USA"},"from_stop":{"name":"origin","id":"3837","lat":"30.0799405","lon":"-95.4171601","placename":"Spring, TX, USA"}}]}}},"processes":[],"eols":[]},{"oid":"2360","imid":"1812","linkid":"parts\/sugar-conventional-at-factory","weight":"1000","rawemissions":"0","emissions":"0","shipping":"32.74","processemissions":null,"endoflifeemissions":null,"disposaltype":null,"disposalenergy":null,"disposalimpact":null,"disposalemissions":null,"description":"","name":"Sugar, Conventional at Factory","id":"1812","stops":{"origin":{"related_to":"1812","part_or_object":"p","notes":"","placename":"Wayne, NJ, USA","id":3838,"name":"origin","lat":"40.9253763","lon":"-74.2765368","hops":{"incoming":[],"outgoing":[{"transport_id":"1","id":"1578","transport_name":"van, 3.5 tons","transport_description":"delivery van, half full","transport_unit":"kg km","transport_co2_eq":"0.053400","from_stop_id":"3838","from_stop_lat":"40.9253763","from_stop_lon":"-74.2765368","from_stop_placename":"Wayne, NJ, USA","to_stop_id":"548","to_stop_name":"origin","to_stop_lat":"40.7142691","to_stop_lon":"-74.0059729","to_stop_placename":"New York, NY, USA","to_stop":{"id":"548","name":"origin","lat":"40.7142691","lon":"-74.0059729","placename":"New York, NY, USA"},"from_stop":{"name":"origin","id":"3838","lat":"40.9253763","lon":"-74.2765368","placename":"Wayne, NJ, USA"}}]}}},"processes":[],"eols":[]},{"oid":"2360","imid":"1813","linkid":"parts\/wheat-flour-at-mill","weight":"10000","rawemissions":"0","emissions":"0","shipping":"188.97","processemissions":null,"endoflifeemissions":null,"disposaltype":null,"disposalenergy":null,"disposalimpact":null,"disposalemissions":null,"description":"","name":"Wheat Flour at Mill","id":"1813","stops":{"origin":{"related_to":"1813","part_or_object":"p","notes":"","placename":"New Holland, PA, USA","id":3839,"name":"origin","lat":"40.1017643","lon":"-76.085227","hops":{"incoming":[],"outgoing":[{"transport_id":"2","id":"1579","transport_name":"truck, 16 tons","transport_description":"truck, half full","transport_unit":"kg km","transport_co2_eq":"0.020300","from_stop_id":"3839","from_stop_lat":"40.1017643","from_stop_lon":"-76.085227","from_stop_placename":"New Holland, PA, USA","to_stop_id":"548","to_stop_name":"origin","to_stop_lat":"40.7142691","to_stop_lon":"-74.0059729","to_stop_placename":"New York, NY, USA","to_stop":{"id":"548","name":"origin","lat":"40.7142691","lon":"-74.0059729","placename":"New York, NY, USA"},"from_stop":{"name":"origin","id":"3839","lat":"40.1017643","lon":"-76.085227","placename":"New Holland, PA, USA"}}]}}},"processes":[],"eols":[]},{"oid":"2360","imid":"1814","linkid":"","weight":"10000","rawemissions":"0","emissions":"0","shipping":"3799.74","processemissions":null,"endoflifeemissions":null,"disposaltype":null,"disposalenergy":null,"disposalimpact":null,"disposalemissions":null,"description":"","name":"Whole grain oats","id":"1814","stops":{"origin":{"related_to":"1814","part_or_object":"p","notes":"","placename":"Oregon, USA","id":3840,"name":"origin","lat":"43.8041334","lon":"-120.5542012","hops":{"incoming":[],"outgoing":[{"transport_id":"10","id":"1580","transport_name":"train, freight","transport_description":"diesel freight locomotive","transport_unit":"kg km","transport_co2_eq":"0.005600","from_stop_id":"3840","from_stop_lat":"43.8041334","from_stop_lon":"-120.5542012","from_stop_placename":"Oregon, USA","to_stop_id":"548","to_stop_name":"origin","to_stop_lat":"40.7142691","to_stop_lon":"-74.0059729","to_stop_placename":"New York, NY, USA","to_stop":{"id":"548","name":"origin","lat":"40.7142691","lon":"-74.0059729","placename":"New York, NY, USA"},"from_stop":{"name":"origin","id":"3840","lat":"43.8041334","lon":"-120.5542012","placename":"Oregon, USA"}}]}}},"processes":[],"eols":[]},{"oid":"2360","imid":"1815","linkid":"","weight":"1000","rawemissions":"0","emissions":"0","shipping":"0","processemissions":null,"endoflifeemissions":null,"disposaltype":null,"disposalenergy":null,"disposalimpact":null,"disposalemissions":null,"description":"","name":"Sunflower oil","id":"1815","stops":{"origin":{"related_to":"1815","part_or_object":"p","notes":"","placename":"New York, NY, USA","id":3841,"name":"origin","lat":"40.7142691","lon":"-74.0059729","hops":{"incoming":[],"outgoing":[{"transport_id":"1","id":"1581","transport_name":"van, 3.5 tons","transport_description":"delivery van, half full","transport_unit":"kg km","transport_co2_eq":"0.053400","from_stop_id":"3841","from_stop_lat":"40.7142691","from_stop_lon":"-74.0059729","from_stop_placename":"New York, NY, USA","to_stop_id":"548","to_stop_name":"origin","to_stop_lat":"40.7142691","to_stop_lon":"-74.0059729","to_stop_placename":"New York, NY, USA","to_stop":{"id":"548","name":"origin","lat":"40.7142691","lon":"-74.0059729","placename":"New York, NY, USA"},"from_stop":{"name":"origin","id":"3841","lat":"40.7142691","lon":"-74.0059729","placename":"New York, NY, USA"}}]}}},"processes":[],"eols":[]},{"oid":"2360","imid":"1816","linkid":"","weight":"1000","rawemissions":"0","emissions":"0","shipping":"51.82","processemissions":null,"endoflifeemissions":null,"disposaltype":null,"disposalenergy":null,"disposalimpact":null,"disposalemissions":null,"description":"","name":"Strawberry puree","id":"1816","stops":{"origin":{"related_to":"1816","part_or_object":"p","notes":"","placename":"Huntington, NY, USA","id":3842,"name":"origin","lat":"40.8681539","lon":"-73.425676","hops":{"incoming":[],"outgoing":[{"transport_id":"1","id":"1582","transport_name":"van, 3.5 tons","transport_description":"delivery van, half full","transport_unit":"kg km","transport_co2_eq":"0.053400","from_stop_id":"3842","from_stop_lat":"40.8681539","from_stop_lon":"-73.425676","from_stop_placename":"Huntington, NY, USA","to_stop_id":"548","to_stop_name":"origin","to_stop_lat":"40.7142691","to_stop_lon":"-74.0059729","to_stop_placename":"New York, NY, USA","to_stop":{"id":"548","name":"origin","lat":"40.7142691","lon":"-74.0059729","placename":"New York, NY, USA"},"from_stop":{"name":"origin","id":"3842","lat":"40.8681539","lon":"-73.425676","placename":"Huntington, NY, USA"}}]}}},"processes":[],"eols":[]},{"oid":"2360","imid":"1817","linkid":"","weight":"10000","rawemissions":"0","emissions":"0","shipping":"1719.99","processemissions":null,"endoflifeemissions":null,"disposaltype":null,"disposalenergy":null,"disposalimpact":null,"disposalemissions":null,"description":"","name":"Cellulose","id":"1817","stops":{"origin":{"related_to":"1817","part_or_object":"p","notes":"","placename":"Jackson, MS, USA","id":3843,"name":"origin","lat":"32.2987573","lon":"-90.1848103","hops":{"incoming":[],"outgoing":[{"transport_id":"10","id":"1583","transport_name":"train, freight","transport_description":"diesel freight locomotive","transport_unit":"kg km","transport_co2_eq":"0.005600","from_stop_id":"3843","from_stop_lat":"32.2987573","from_stop_lon":"-90.1848103","from_stop_placename":"Jackson, MS, USA","to_stop_id":"548","to_stop_name":"origin","to_stop_lat":"40.7142691","to_stop_lon":"-74.0059729","to_stop_placename":"New York, NY, USA","to_stop":{"id":"548","name":"origin","lat":"40.7142691","lon":"-74.0059729","placename":"New York, NY, USA"},"from_stop":{"name":"origin","id":"3843","lat":"32.2987573","lon":"-90.1848103","placename":"Jackson, MS, USA"}}]}}},"processes":[],"eols":[]},{"oid":"2360","imid":"1818","linkid":"","weight":"1000","rawemissions":"0","emissions":"0","shipping":"1407.95","processemissions":null,"endoflifeemissions":null,"disposaltype":null,"disposalenergy":null,"disposalimpact":null,"disposalemissions":null,"description":"","name":"Red Dye #40","id":"1818","stops":{"origin":{"related_to":"1818","part_or_object":"p","notes":"","placename":"Alabaster, AL, USA","id":3844,"name":"origin","lat":"33.2442813","lon":"-86.8163773","hops":{"incoming":[],"outgoing":[{"transport_id":"10","id":"1584","transport_name":"train, freight","transport_description":"diesel freight locomotive","transport_unit":"kg km","transport_co2_eq":"0.005600","from_stop_id":"3844","from_stop_lat":"33.2442813","from_stop_lon":"-86.8163773","from_stop_placename":"Alabaster, AL, USA","to_stop_id":"548","to_stop_name":"origin","to_stop_lat":"40.7142691","to_stop_lon":"-74.0059729","to_stop_placename":"New York, NY, USA","to_stop":{"id":"548","name":"origin","lat":"40.7142691","lon":"-74.0059729","placename":"New York, NY, USA"},"from_stop":{"name":"origin","id":"3844","lat":"33.2442813","lon":"-86.8163773","placename":"Alabaster, AL, USA"}}]}}},"processes":[],"eols":[]},{"oid":"2360","imid":"1819","linkid":"","weight":"1000","rawemissions":"0","emissions":"0","shipping":"5250.34","processemissions":null,"endoflifeemissions":null,"disposaltype":null,"disposalenergy":null,"disposalimpact":null,"disposalemissions":null,"description":"","name":"Sodium Alginate","id":"1819","stops":{"origin":{"related_to":"1819","part_or_object":"p","notes":"","placename":"Edinburgh, Storbritannien","id":3845,"name":"origin","lat":"55.9501755","lon":"-3.1875359","hops":{"incoming":[],"outgoing":[{"transport_id":"8","id":"1585","transport_name":"freighter, oceanic","transport_description":"","transport_unit":"kg km","transport_co2_eq":"0.004200","from_stop_id":"3845","from_stop_lat":"55.9501755","from_stop_lon":"-3.1875359","from_stop_placename":"Edinburgh, Storbritannien","to_stop_id":"548","to_stop_name":"origin","to_stop_lat":"40.7142691","to_stop_lon":"-74.0059729","to_stop_placename":"New York, NY, USA","to_stop":{"id":"548","name":"origin","lat":"40.7142691","lon":"-74.0059729","placename":"New York, NY, USA"},"from_stop":{"name":"origin","id":"3845","lat":"55.9501755","lon":"-3.1875359","placename":"Edinburgh, Storbritannien"}}]}}},"processes":[],"eols":[]},{"oid":"2360","imid":"1820","linkid":"","weight":"1000","rawemissions":"0","emissions":"0","shipping":"6492.61","processemissions":null,"endoflifeemissions":null,"disposaltype":null,"disposalenergy":null,"disposalimpact":null,"disposalemissions":null,"description":"","name":"Malic acid","id":"1820","stops":{"origin":{"related_to":"1820","part_or_object":"p","notes":"","placename":"Bergamo BG, Italien","id":3846,"name":"origin","lat":"45.6949028","lon":"9.6699528","hops":{"incoming":[],"outgoing":[{"transport_id":"8","id":"1586","transport_name":"freighter, oceanic","transport_description":"","transport_unit":"kg km","transport_co2_eq":"0.004200","from_stop_id":"3846","from_stop_lat":"45.6949028","from_stop_lon":"9.6699528","from_stop_placename":"Bergamo BG, Italien","to_stop_id":"548","to_stop_name":"origin","to_stop_lat":"40.7142691","to_stop_lon":"-74.0059729","to_stop_placename":"New York, NY, USA","to_stop":{"id":"548","name":"origin","lat":"40.7142691","lon":"-74.0059729","placename":"New York, NY, USA"},"from_stop":{"name":"origin","id":"3846","lat":"45.6949028","lon":"9.6699528","placename":"Bergamo BG, Italien"}}]}}},"processes":[],"eols":[]},{"oid":"2360","imid":"1821","linkid":"","weight":"1000","rawemissions":"0","emissions":"0","shipping":"6038.68","processemissions":null,"endoflifeemissions":null,"disposaltype":null,"disposalenergy":null,"disposalimpact":null,"disposalemissions":null,"description":"","name":"Lecithin (soy)","id":"1821","stops":{"origin":{"related_to":"1821","part_or_object":"p","notes":"","placename":"?rhus kommun, Danmark","id":3847,"name":"origin","lat":"56.1581354","lon":"10.2120017","hops":{"incoming":[],"outgoing":[{"transport_id":"8","id":"1587","transport_name":"freighter, oceanic","transport_description":"","transport_unit":"kg km","transport_co2_eq":"0.004200","from_stop_id":"3847","from_stop_lat":"56.1581354","from_stop_lon":"10.2120017","from_stop_placename":"?rhus kommun, Danmark","to_stop_id":"548","to_stop_name":"origin","to_stop_lat":"40.7142691","to_stop_lon":"-74.0059729","to_stop_placename":"New York, NY, USA","to_stop":{"id":"548","name":"origin","lat":"40.7142691","lon":"-74.0059729","placename":"New York, NY, USA"},"from_stop":{"name":"origin","id":"3847","lat":"56.1581354","lon":"10.2120017","placename":"?rhus kommun, Danmark"}}]}}},"processes":[],"eols":[]},{"oid":"2360","imid":"1822","linkid":"","weight":"1000","rawemissions":"0","emissions":"0","shipping":"5859.63","processemissions":null,"endoflifeemissions":null,"disposaltype":null,"disposalenergy":null,"disposalimpact":null,"disposalemissions":null,"description":"","name":"Citric acid","id":"1822","stops":{"origin":{"related_to":"1822","part_or_object":"p","notes":"","placename":"Rotterdam, Nederl?nderna","id":3848,"name":"origin","lat":"51.9226899","lon":"4.4707867","hops":{"incoming":[],"outgoing":[{"transport_id":"8","id":"1588","transport_name":"freighter, oceanic","transport_description":"","transport_unit":"kg km","transport_co2_eq":"0.004200","from_stop_id":"3848","from_stop_lat":"51.9226899","from_stop_lon":"4.4707867","from_stop_placename":"Rotterdam, Nederl?nderna","to_stop_id":"548","to_stop_name":"origin","to_stop_lat":"40.7142691","to_stop_lon":"-74.0059729","to_stop_placename":"New York, NY, USA","to_stop":{"id":"548","name":"origin","lat":"40.7142691","lon":"-74.0059729","placename":"New York, NY, USA"},"from_stop":{"name":"origin","id":"3848","lat":"51.9226899","lon":"4.4707867","placename":"Rotterdam, Nederl?nderna"}}]}}},"processes":[],"eols":[]},{"oid":"2360","imid":"1823","linkid":"","weight":"1000","rawemissions":"0","emissions":"0","shipping":"12556.7","processemissions":null,"endoflifeemissions":null,"disposaltype":null,"disposalenergy":null,"disposalimpact":null,"disposalemissions":null,"description":"","name":"Guar gum","id":"1823","stops":{"origin":{"related_to":"1823","part_or_object":"p","notes":"","placename":"Bombay, Maharashtra, Indien","id":3849,"name":"origin","lat":"19.017656","lon":"72.856178","hops":{"incoming":[],"outgoing":[{"transport_id":"8","id":"1589","transport_name":"freighter, oceanic","transport_description":"","transport_unit":"kg km","transport_co2_eq":"0.004200","from_stop_id":"3849","from_stop_lat":"19.017656","from_stop_lon":"72.856178","from_stop_placename":"Bombay, Maharashtra, Indien","to_stop_id":"548","to_stop_name":"origin","to_stop_lat":"40.7142691","to_stop_lon":"-74.0059729","to_stop_placename":"New York, NY, USA","to_stop":{"id":"548","name":"origin","lat":"40.7142691","lon":"-74.0059729","placename":"New York, NY, USA"},"from_stop":{"name":"origin","id":"3849","lat":"19.017656","lon":"72.856178","placename":"Bombay, Maharashtra, Indien"}}]}}},"processes":[],"eols":[]},{"oid":"2360","imid":"1824","linkid":"","weight":"1000","rawemissions":"0","emissions":"0","shipping":"13588.7","processemissions":null,"endoflifeemissions":null,"disposaltype":null,"disposalenergy":null,"disposalimpact":null,"disposalemissions":null,"description":"","name":"Carrageenan","id":"1824","stops":{"origin":{"related_to":"1824","part_or_object":"p","notes":"","placename":"Santa Cruz, Filippinerna","id":3850,"name":"origin","lat":"15.7379887","lon":"119.9971769","hops":{"incoming":[],"outgoing":[{"transport_id":"8","id":"1590","transport_name":"freighter, oceanic","transport_description":"","transport_unit":"kg km","transport_co2_eq":"0.004200","from_stop_id":"3850","from_stop_lat":"15.7379887","from_stop_lon":"119.9971769","from_stop_placename":"Santa Cruz, Filippinerna","to_stop_id":"548","to_stop_name":"origin","to_stop_lat":"40.7142691","to_stop_lon":"-74.0059729","to_stop_placename":"New York, NY, USA","to_stop":{"id":"548","name":"origin","lat":"40.7142691","lon":"-74.0059729","placename":"New York, NY, USA"},"from_stop":{"name":"origin","id":"3850","lat":"15.7379887","lon":"119.9971769","placename":"Santa Cruz, Filippinerna"}}]}}},"processes":[],"eols":[]},{"oid":"2360","imid":"1825","linkid":"","weight":"1000","rawemissions":"0","emissions":"0","shipping":"11364.7","processemissions":null,"endoflifeemissions":null,"disposaltype":null,"disposalenergy":null,"disposalimpact":null,"disposalemissions":null,"description":"","name":"vitamin & mineral supplements (B1, B2, iron, folic acid)","id":"1825","stops":{"origin":{"related_to":"1825","part_or_object":"p","notes":"","placename":"Qingdao, Shandong, Kina","id":3851,"name":"origin","lat":"36.066348","lon":"120.382771","hops":{"incoming":[],"outgoing":[{"transport_id":"8","id":"1591","transport_name":"freighter, oceanic","transport_description":"","transport_unit":"kg km","transport_co2_eq":"0.004200","from_stop_id":"3851","from_stop_lat":"36.066348","from_stop_lon":"120.382771","from_stop_placename":"Qingdao, Shandong, Kina","to_stop_id":"548","to_stop_name":"origin","to_stop_lat":"40.7142691","to_stop_lon":"-74.0059729","to_stop_placename":"New York, NY, USA","to_stop":{"id":"548","name":"origin","lat":"40.7142691","lon":"-74.0059729","placename":"New York, NY, USA"},"from_stop":{"name":"origin","id":"3851","lat":"36.066348","lon":"120.382771","placename":"Qingdao, Shandong, Kina"}}]}}},"processes":[],"eols":[]},{"oid":"2360","imid":"1826","linkid":"","weight":"10000","rawemissions":"0","emissions":"0","shipping":"11658.2","processemissions":null,"endoflifeemissions":null,"disposaltype":null,"disposalenergy":null,"disposalimpact":null,"disposalemissions":null,"description":"","name":"Honey","id":"1826","stops":{"origin":{"related_to":"1826","part_or_object":"p","notes":"","placename":"???, ???, Henan, Kina","id":3852,"name":"origin","lat":"34.216746","lon":"113.768308","hops":{"incoming":[],"outgoing":[{"transport_id":"8","id":"1592","transport_name":"freighter, oceanic","transport_description":"","transport_unit":"kg km","transport_co2_eq":"0.004200","from_stop_id":"3852","from_stop_lat":"34.216746","from_stop_lon":"113.768308","from_stop_placename":"???, ???, Henan, Kina","to_stop_id":"548","to_stop_name":"origin","to_stop_lat":"40.7142691","to_stop_lon":"-74.0059729","to_stop_placename":"New York, NY, USA","to_stop":{"id":"548","name":"origin","lat":"40.7142691","lon":"-74.0059729","placename":"New York, NY, USA"},"from_stop":{"name":"origin","id":"3852","lat":"34.216746","lon":"113.768308","placename":"???, ???, Henan, Kina"}}]}}},"processes":[],"eols":[]}],"user":{"name":"magnusb","id":"7604"}}}