{"2384":{"oid":"2384","type":"object","flag":"","creator":"7632","name":"Levi's 501","upc":"","imagelink":"","description":"This is a test map","slug":"levis-501","category":"","weight":"0.53","emissions":"2.00389","embodied":"1.8488","transport":"0.155094","process":"0","endoflife":"0","shipping":"12991.7","lifetime":null,"usagetype":"","usageenergy":null,"usageemissions":null,"timecreated":"2010-02-24 22:03:36.451528","timemodified":"2010-01-31 22:58:18","visibility":"public","showfootprint":"on","showembodied":"on","showtransport":"on","showprocess":"on","showendoflife":"on","showlastleg":"on","showuse":"on","showstats":"on","stops":{"origin":{"related_to":"2384","part_or_object":"o","notes":"","placename":"Beijing, China","id":"571","category":"1","lat":"39.904667","lon":"116.408198","name":"origin","hops":{"incoming":[{"transport_id":"3","id":"117","transport_name":"truck, 40 tons","transport_description":"truck, half full","transport_unit":"kg km","transport_co2_eq":"0.030900","from_stop_id":"2269","from_stop_lat":"-8.783195","from_stop_lon":"34.508523","to_stop_id":"571","to_stop_name":"origin","to_stop_lat":"39.904667","placename":"Africa","to_stop_lon":"116.408198","to_stop":{"id":"571","name":"origin","lat":"39.904667","placename":"Beijing, China","lon":"116.408198"},"from_stop":{"name":"origin","id":"2269","lat":"-8.783195","lon":"34.508523","placename":"Africa"}},{"transport_id":"5","id":"118","transport_name":"automobile, 50 mpg","transport_description":"high efficiency automobile","transport_unit":"kg km","transport_co2_eq":"0.026400","from_stop_id":"2270","from_stop_lat":"22.396428","from_stop_lon":"114.109497","to_stop_id":"571","to_stop_name":"origin","to_stop_lat":"39.904667","placename":"Hong Kong","to_stop_lon":"116.408198","to_stop":{"id":"571","name":"origin","lat":"39.904667","placename":"Beijing, China","lon":"116.408198"},"from_stop":{"name":"origin","id":"2270","lat":"22.396428","lon":"114.109497","placename":"Hong Kong"}},{"transport_id":"3","id":"119","transport_name":"truck, 40 tons","transport_description":"truck, half full","transport_unit":"kg km","transport_co2_eq":"0.030900","from_stop_id":"2271","from_stop_lat":"31.230708","from_stop_lon":"121.472916","to_stop_id":"571","to_stop_name":"origin","to_stop_lat":"39.904667","placename":"Shanghai, China","to_stop_lon":"116.408198","to_stop":{"id":"571","name":"origin","lat":"39.904667","placename":"Beijing, China","lon":"116.408198"},"from_stop":{"name":"origin","id":"2271","lat":"31.230708","lon":"121.472916","placename":"Shanghai, China"}}],"outgoing":[]}}},"parts":[{"oid":"2384","imid":"1847","linkid":"parts\/cotton-fabric","weight":"0.5","rawemissions":"3.5","emissions":"1.75","shipping":"9962.19","processemissions":null,"endoflifeemissions":null,"disposaltype":null,"disposalenergy":null,"disposalimpact":null,"disposalemissions":null,"description":"","name":"Cotton fabric","id":"1847","stops":{"origin":{"related_to":"1847","part_or_object":"p","notes":"","placename":"Africa","id":2269,"name":"origin","lat":"-8.783195","lon":"34.508523","hops":{"incoming":[],"outgoing":[{"transport_id":"3","id":"117","transport_name":"truck, 40 tons","transport_description":"truck, half full","transport_unit":"kg km","transport_co2_eq":"0.030900","from_stop_id":"2269","from_stop_lat":"-8.783195","from_stop_lon":"34.508523","from_stop_placename":"Africa","to_stop_id":"571","to_stop_name":"origin","to_stop_lat":"39.904667","to_stop_lon":"116.408198","to_stop_placename":"Beijing, China","to_stop":{"id":"571","name":"origin","lat":"39.904667","lon":"116.408198","placename":"Beijing, China"},"from_stop":{"name":"origin","id":"2269","lat":"-8.783195","lon":"34.508523","placename":"Africa"}}]}}},"processes":[],"eols":[]},{"oid":"2384","imid":"1848","linkid":"parts\/polyester-fabric","weight":"0.01","rawemissions":"8.9","emissions":"0.089","shipping":"1961.07","processemissions":null,"endoflifeemissions":null,"disposaltype":null,"disposalenergy":null,"disposalimpact":null,"disposalemissions":null,"description":"","name":"Polyester fabric","id":"1848","stops":{"origin":{"related_to":"1848","part_or_object":"p","notes":"","placename":"Hong Kong","id":2270,"name":"origin","lat":"22.396428","lon":"114.109497","hops":{"incoming":[],"outgoing":[{"transport_id":"5","id":"118","transport_name":"automobile, 50 mpg","transport_description":"high efficiency automobile","transport_unit":"kg km","transport_co2_eq":"0.026400","from_stop_id":"2270","from_stop_lat":"22.396428","from_stop_lon":"114.109497","from_stop_placename":"Hong Kong","to_stop_id":"571","to_stop_name":"origin","to_stop_lat":"39.904667","to_stop_lon":"116.408198","to_stop_placename":"Beijing, China","to_stop":{"id":"571","name":"origin","lat":"39.904667","lon":"116.408198","placename":"Beijing, China"},"from_stop":{"name":"origin","id":"2270","lat":"22.396428","lon":"114.109497","placename":"Hong Kong"}}]}}},"processes":[],"eols":[]},{"oid":"2384","imid":"1849","linkid":"parts\/steel-recycled","weight":"0.02","rawemissions":"0.49","emissions":"0.0098","shipping":"1068.46","processemissions":null,"endoflifeemissions":null,"disposaltype":null,"disposalenergy":null,"disposalimpact":null,"disposalemissions":null,"description":"","name":"Steel, Recycled","id":"1849","stops":{"origin":{"related_to":"1849","part_or_object":"p","notes":"","placename":"Shanghai, China","id":2271,"name":"origin","lat":"31.230708","lon":"121.472916","hops":{"incoming":[],"outgoing":[{"transport_id":"3","id":"119","transport_name":"truck, 40 tons","transport_description":"truck, half full","transport_unit":"kg km","transport_co2_eq":"0.030900","from_stop_id":"2271","from_stop_lat":"31.230708","from_stop_lon":"121.472916","from_stop_placename":"Shanghai, China","to_stop_id":"571","to_stop_name":"origin","to_stop_lat":"39.904667","to_stop_lon":"116.408198","to_stop_placename":"Beijing, China","to_stop":{"id":"571","name":"origin","lat":"39.904667","lon":"116.408198","placename":"Beijing, China"},"from_stop":{"name":"origin","id":"2271","lat":"31.230708","lon":"121.472916","placename":"Shanghai, China"}}]}}},"processes":[],"eols":[]}],"user":{"name":"sourcemapper","id":"7632"}}}