{"2386":{"oid":"2386","type":"travel","flag":"","creator":"6444","name":"Blocking Group Reunion","upc":"","imagelink":"","description":"","slug":"blocking-group-reunion","category":"","weight":"0","emissions":"0","embodied":"0","transport":"0","process":"0","endoflife":"0","shipping":"17769","lifetime":null,"usagetype":"","usageenergy":null,"usageemissions":null,"timecreated":"2010-02-24 22:03:36.465587","timemodified":"2010-02-01 19:29:24","visibility":"public","showfootprint":"on","showembodied":"on","showtransport":"on","showprocess":"on","showendoflife":"on","showlastleg":"on","showuse":"on","showstats":"","stops":{"origin":{"related_to":"2386","part_or_object":"o","notes":"","placename":"Boston, MA, USA","id":"573","category":"1","lat":"42.3584308","lon":"-71.0597732","name":"origin","hops":{"incoming":[{"transport_id":"17","id":"317","transport_name":"None Selected","transport_description":null,"transport_unit":"kg km","transport_co2_eq":"0.000000","from_stop_id":"2501","from_stop_lat":"51.7522764","from_stop_lon":"-1.2558243","to_stop_id":"573","to_stop_name":"origin","to_stop_lat":"42.3584308","placename":"Oxford, UK","to_stop_lon":"-71.0597732","to_stop":{"id":"573","name":"origin","lat":"42.3584308","placename":"Boston, MA, USA","lon":"-71.0597732"},"from_stop":{"name":"origin","id":"2501","lat":"51.7522764","lon":"-1.2558243","placename":"Oxford, UK"}},{"transport_id":"17","id":"168","transport_name":"None Selected","transport_description":null,"transport_unit":"kg km","transport_co2_eq":"0.000000","from_stop_id":"2320","from_stop_lat":"53.41291","from_stop_lon":"-8.24389","to_stop_id":"573","to_stop_name":"origin","to_stop_lat":"42.3584308","placename":"Ireland","to_stop_lon":"-71.0597732","to_stop":{"id":"573","name":"origin","lat":"42.3584308","placename":"Boston, MA, USA","lon":"-71.0597732"},"from_stop":{"name":"origin","id":"2320","lat":"53.41291","lon":"-8.24389","placename":"Ireland"}},{"transport_id":"17","id":"169","transport_name":"None Selected","transport_description":null,"transport_unit":"kg km","transport_co2_eq":"0.000000","from_stop_id":"2321","from_stop_lat":"47.6062095","from_stop_lon":"-122.3320708","to_stop_id":"573","to_stop_name":"origin","to_stop_lat":"42.3584308","placename":"Seattle, WA, USA","to_stop_lon":"-71.0597732","to_stop":{"id":"573","name":"origin","lat":"42.3584308","placename":"Boston, MA, USA","lon":"-71.0597732"},"from_stop":{"name":"origin","id":"2321","lat":"47.6062095","lon":"-122.3320708","placename":"Seattle, WA, USA"}},{"transport_id":"17","id":"153","transport_name":"None Selected","transport_description":null,"transport_unit":"kg km","transport_co2_eq":"0.000000","from_stop_id":"2305","from_stop_lat":"42.3750969","from_stop_lon":"-71.1056079","to_stop_id":"573","to_stop_name":"origin","to_stop_lat":"42.3584308","placename":"Cambridge, MA, USA","to_stop_lon":"-71.0597732","to_stop":{"id":"573","name":"origin","lat":"42.3584308","placename":"Boston, MA, USA","lon":"-71.0597732"},"from_stop":{"name":"origin","id":"2305","lat":"42.3750969","lon":"-71.1056079","placename":"Cambridge, MA, USA"}},{"transport_id":"17","id":"155","transport_name":"None Selected","transport_description":null,"transport_unit":"kg km","transport_co2_eq":"0.000000","from_stop_id":"2307","from_stop_lat":"42.3875968","from_stop_lon":"-71.0994968","to_stop_id":"573","to_stop_name":"origin","to_stop_lat":"42.3584308","placename":"Somerville, MA, USA","to_stop_lon":"-71.0597732","to_stop":{"id":"573","name":"origin","lat":"42.3584308","placename":"Boston, MA, USA","lon":"-71.0597732"},"from_stop":{"name":"origin","id":"2307","lat":"42.3875968","lon":"-71.0994968","placename":"Somerville, MA, USA"}},{"transport_id":"17","id":"157","transport_name":"None Selected","transport_description":null,"transport_unit":"kg km","transport_co2_eq":"0.000000","from_stop_id":"2309","from_stop_lat":"42.3584308","from_stop_lon":"-71.0597732","to_stop_id":"573","to_stop_name":"origin","to_stop_lat":"42.3584308","placename":"Boston, MA, USA","to_stop_lon":"-71.0597732","to_stop":{"id":"573","name":"origin","lat":"42.3584308","placename":"Boston, MA, USA","lon":"-71.0597732"},"from_stop":{"name":"origin","id":"2309","lat":"42.3584308","lon":"-71.0597732","placename":"Boston, MA, USA"}},{"transport_id":"17","id":"158","transport_name":"None Selected","transport_description":null,"transport_unit":"kg km","transport_co2_eq":"0.000000","from_stop_id":"2310","from_stop_lat":"42.4153734","from_stop_lon":"-71.2445006","to_stop_id":"573","to_stop_name":"origin","to_stop_lat":"42.3584308","placename":"Kingston, MA, USA","to_stop_lon":"-71.0597732","to_stop":{"id":"573","name":"origin","lat":"42.3584308","placename":"Boston, MA, USA","lon":"-71.0597732"},"from_stop":{"name":"origin","id":"2310","lat":"42.4153734","lon":"-71.2445006","placename":"Kingston, MA, USA"}},{"transport_id":"17","id":"159","transport_name":"None Selected","transport_description":null,"transport_unit":"kg km","transport_co2_eq":"0.000000","from_stop_id":"2311","from_stop_lat":"42.3750969","from_stop_lon":"-71.1056079","to_stop_id":"573","to_stop_name":"origin","to_stop_lat":"42.3584308","placename":"Cambridge, MA, USA","to_stop_lon":"-71.0597732","to_stop":{"id":"573","name":"origin","lat":"42.3584308","placename":"Boston, MA, USA","lon":"-71.0597732"},"from_stop":{"name":"origin","id":"2311","lat":"42.3750969","lon":"-71.1056079","placename":"Cambridge, MA, USA"}},{"transport_id":"17","id":"160","transport_name":"None Selected","transport_description":null,"transport_unit":"kg km","transport_co2_eq":"0.000000","from_stop_id":"2312","from_stop_lat":"40.7834345","from_stop_lon":"-73.9662495","to_stop_id":"573","to_stop_name":"origin","to_stop_lat":"42.3584308","placename":"Manhattan, NY, USA","to_stop_lon":"-71.0597732","to_stop":{"id":"573","name":"origin","lat":"42.3584308","placename":"Boston, MA, USA","lon":"-71.0597732"},"from_stop":{"name":"origin","id":"2312","lat":"40.7834345","lon":"-73.9662495","placename":"Manhattan, NY, USA"}},{"transport_id":"17","id":"161","transport_name":"None Selected","transport_description":null,"transport_unit":"kg km","transport_co2_eq":"0.000000","from_stop_id":"2313","from_stop_lat":"40.6501037","from_stop_lon":"-73.9495823","to_stop_id":"573","to_stop_name":"origin","to_stop_lat":"42.3584308","placename":"Brooklyn, New York, USA","to_stop_lon":"-71.0597732","to_stop":{"id":"573","name":"origin","lat":"42.3584308","placename":"Boston, MA, USA","lon":"-71.0597732"},"from_stop":{"name":"origin","id":"2313","lat":"40.6501037","lon":"-73.9495823","placename":"Brooklyn, New York, USA"}},{"transport_id":"17","id":"162","transport_name":"None Selected","transport_description":null,"transport_unit":"kg km","transport_co2_eq":"0.000000","from_stop_id":"2314","from_stop_lat":"40.6501037","from_stop_lon":"-73.9495823","to_stop_id":"573","to_stop_name":"origin","to_stop_lat":"42.3584308","placename":"Brooklyn, New York, USA","to_stop_lon":"-71.0597732","to_stop":{"id":"573","name":"origin","lat":"42.3584308","placename":"Boston, MA, USA","lon":"-71.0597732"},"from_stop":{"name":"origin","id":"2314","lat":"40.6501037","lon":"-73.9495823","placename":"Brooklyn, New York, USA"}},{"transport_id":"17","id":"163","transport_name":"None Selected","transport_description":null,"transport_unit":"kg km","transport_co2_eq":"0.000000","from_stop_id":"2315","from_stop_lat":"40.6501037","from_stop_lon":"-73.9495823","to_stop_id":"573","to_stop_name":"origin","to_stop_lat":"42.3584308","placename":"Brooklyn, New York, USA","to_stop_lon":"-71.0597732","to_stop":{"id":"573","name":"origin","lat":"42.3584308","placename":"Boston, MA, USA","lon":"-71.0597732"},"from_stop":{"name":"origin","id":"2315","lat":"40.6501037","lon":"-73.9495823","placename":"Brooklyn, New York, USA"}},{"transport_id":"17","id":"164","transport_name":"None Selected","transport_description":null,"transport_unit":"kg km","transport_co2_eq":"0.000000","from_stop_id":"2316","from_stop_lat":"42.3750969","from_stop_lon":"-71.1056079","to_stop_id":"573","to_stop_name":"origin","to_stop_lat":"42.3584308","placename":"Cambridge, MA, USA","to_stop_lon":"-71.0597732","to_stop":{"id":"573","name":"origin","lat":"42.3584308","placename":"Boston, MA, USA","lon":"-71.0597732"},"from_stop":{"name":"origin","id":"2316","lat":"42.3750969","lon":"-71.1056079","placename":"Cambridge, MA, USA"}},{"transport_id":"17","id":"165","transport_name":"None Selected","transport_description":null,"transport_unit":"kg km","transport_co2_eq":"0.000000","from_stop_id":"2317","from_stop_lat":"41.850033","from_stop_lon":"-87.6500523","to_stop_id":"573","to_stop_name":"origin","to_stop_lat":"42.3584308","placename":"Chicago, IL, USA","to_stop_lon":"-71.0597732","to_stop":{"id":"573","name":"origin","lat":"42.3584308","placename":"Boston, MA, USA","lon":"-71.0597732"},"from_stop":{"name":"origin","id":"2317","lat":"41.850033","lon":"-87.6500523","placename":"Chicago, IL, USA"}},{"transport_id":"17","id":"166","transport_name":"None Selected","transport_description":null,"transport_unit":"kg km","transport_co2_eq":"0.000000","from_stop_id":"2318","from_stop_lat":"38.8951118","from_stop_lon":"-77.0363658","to_stop_id":"573","to_stop_name":"origin","to_stop_lat":"42.3584308","placename":"Washington, DC, USA","to_stop_lon":"-71.0597732","to_stop":{"id":"573","name":"origin","lat":"42.3584308","placename":"Boston, MA, USA","lon":"-71.0597732"},"from_stop":{"name":"origin","id":"2318","lat":"38.8951118","lon":"-77.0363658","placename":"Washington, DC, USA"}},{"transport_id":"17","id":"167","transport_name":"None Selected","transport_description":null,"transport_unit":"kg km","transport_co2_eq":"0.000000","from_stop_id":"2319","from_stop_lat":"38.8951118","from_stop_lon":"-77.0363658","to_stop_id":"573","to_stop_name":"origin","to_stop_lat":"42.3584308","placename":"Washington, DC, USA","to_stop_lon":"-71.0597732","to_stop":{"id":"573","name":"origin","lat":"42.3584308","placename":"Boston, MA, USA","lon":"-71.0597732"},"from_stop":{"name":"origin","id":"2319","lat":"38.8951118","lon":"-77.0363658","placename":"Washington, DC, USA"}}],"outgoing":[]}}},"parts":[{"oid":"2386","imid":"1884","linkid":"","weight":"0","rawemissions":"0","emissions":"0","shipping":"4.2","processemissions":null,"endoflifeemissions":null,"disposaltype":null,"disposalenergy":null,"disposalimpact":null,"disposalemissions":null,"description":"","name":"Christina","id":"1884","stops":{"origin":{"related_to":"1884","part_or_object":"p","notes":"","placename":"Cambridge, MA, USA","id":2305,"name":"origin","lat":"42.3750969","lon":"-71.1056079","hops":{"incoming":[],"outgoing":[{"transport_id":"17","id":"153","transport_name":"None Selected","transport_description":null,"transport_unit":"kg km","transport_co2_eq":"0.000000","from_stop_id":"2305","from_stop_lat":"42.3750969","from_stop_lon":"-71.1056079","from_stop_placename":"Cambridge, MA, USA","to_stop_id":"573","to_stop_name":"origin","to_stop_lat":"42.3584308","to_stop_lon":"-71.0597732","to_stop_placename":"Boston, MA, USA","to_stop":{"id":"573","name":"origin","lat":"42.3584308","lon":"-71.0597732","placename":"Boston, MA, USA"},"from_stop":{"name":"origin","id":"2305","lat":"42.3750969","lon":"-71.1056079","placename":"Cambridge, MA, USA"}}]}}},"processes":[],"eols":[]},{"oid":"2386","imid":"1885","linkid":"","weight":"0","rawemissions":"0","emissions":"0","shipping":"4.61","processemissions":null,"endoflifeemissions":null,"disposaltype":null,"disposalenergy":null,"disposalimpact":null,"disposalemissions":null,"description":"","name":"Blake","id":"1885","stops":{"origin":{"related_to":"1885","part_or_object":"p","notes":"","placename":"Somerville, MA, USA","id":2307,"name":"origin","lat":"42.3875968","lon":"-71.0994968","hops":{"incoming":[],"outgoing":[{"transport_id":"17","id":"155","transport_name":"None Selected","transport_description":null,"transport_unit":"kg km","transport_co2_eq":"0.000000","from_stop_id":"2307","from_stop_lat":"42.3875968","from_stop_lon":"-71.0994968","from_stop_placename":"Somerville, MA, USA","to_stop_id":"573","to_stop_name":"origin","to_stop_lat":"42.3584308","to_stop_lon":"-71.0597732","to_stop_placename":"Boston, MA, USA","to_stop":{"id":"573","name":"origin","lat":"42.3584308","lon":"-71.0597732","placename":"Boston, MA, USA"},"from_stop":{"name":"origin","id":"2307","lat":"42.3875968","lon":"-71.0994968","placename":"Somerville, MA, USA"}}]}}},"processes":[],"eols":[]},{"oid":"2386","imid":"1886","linkid":"","weight":"0","rawemissions":"0","emissions":"0","shipping":"0","processemissions":null,"endoflifeemissions":null,"disposaltype":null,"disposalenergy":null,"disposalimpact":null,"disposalemissions":null,"description":"","name":"Kerry Anne","id":"1886","stops":{"origin":{"related_to":"1886","part_or_object":"p","notes":"","placename":"Boston, MA, USA","id":2309,"name":"origin","lat":"42.3584308","lon":"-71.0597732","hops":{"incoming":[],"outgoing":[{"transport_id":"17","id":"157","transport_name":"None Selected","transport_description":null,"transport_unit":"kg km","transport_co2_eq":"0.000000","from_stop_id":"2309","from_stop_lat":"42.3584308","from_stop_lon":"-71.0597732","from_stop_placename":"Boston, MA, USA","to_stop_id":"573","to_stop_name":"origin","to_stop_lat":"42.3584308","to_stop_lon":"-71.0597732","to_stop_placename":"Boston, MA, USA","to_stop":{"id":"573","name":"origin","lat":"42.3584308","lon":"-71.0597732","placename":"Boston, MA, USA"},"from_stop":{"name":"origin","id":"2309","lat":"42.3584308","lon":"-71.0597732","placename":"Boston, MA, USA"}}]}}},"processes":[],"eols":[]},{"oid":"2386","imid":"1887","linkid":"","weight":"0","rawemissions":"0","emissions":"0","shipping":"16.46","processemissions":null,"endoflifeemissions":null,"disposaltype":null,"disposalenergy":null,"disposalimpact":null,"disposalemissions":null,"description":"","name":"Jay","id":"1887","stops":{"origin":{"related_to":"1887","part_or_object":"p","notes":"","placename":"Kingston, MA, USA","id":2310,"name":"origin","lat":"42.4153734","lon":"-71.2445006","hops":{"incoming":[],"outgoing":[{"transport_id":"17","id":"158","transport_name":"None Selected","transport_description":null,"transport_unit":"kg km","transport_co2_eq":"0.000000","from_stop_id":"2310","from_stop_lat":"42.4153734","from_stop_lon":"-71.2445006","from_stop_placename":"Kingston, MA, USA","to_stop_id":"573","to_stop_name":"origin","to_stop_lat":"42.3584308","to_stop_lon":"-71.0597732","to_stop_placename":"Boston, MA, USA","to_stop":{"id":"573","name":"origin","lat":"42.3584308","lon":"-71.0597732","placename":"Boston, MA, USA"},"from_stop":{"name":"origin","id":"2310","lat":"42.4153734","lon":"-71.2445006","placename":"Kingston, MA, USA"}}]}}},"processes":[],"eols":[]},{"oid":"2386","imid":"1888","linkid":"","weight":"0","rawemissions":"0","emissions":"0","shipping":"4.2","processemissions":null,"endoflifeemissions":null,"disposaltype":null,"disposalenergy":null,"disposalimpact":null,"disposalemissions":null,"description":"","name":"Vijay","id":"1888","stops":{"origin":{"related_to":"1888","part_or_object":"p","notes":"","placename":"Cambridge, MA, USA","id":2311,"name":"origin","lat":"42.3750969","lon":"-71.1056079","hops":{"incoming":[],"outgoing":[{"transport_id":"17","id":"159","transport_name":"None Selected","transport_description":null,"transport_unit":"kg km","transport_co2_eq":"0.000000","from_stop_id":"2311","from_stop_lat":"42.3750969","from_stop_lon":"-71.1056079","from_stop_placename":"Cambridge, MA, USA","to_stop_id":"573","to_stop_name":"origin","to_stop_lat":"42.3584308","to_stop_lon":"-71.0597732","to_stop_placename":"Boston, MA, USA","to_stop":{"id":"573","name":"origin","lat":"42.3584308","lon":"-71.0597732","placename":"Boston, MA, USA"},"from_stop":{"name":"origin","id":"2311","lat":"42.3750969","lon":"-71.1056079","placename":"Cambridge, MA, USA"}}]}}},"processes":[],"eols":[]},{"oid":"2386","imid":"1889","linkid":"","weight":"0","rawemissions":"0","emissions":"0","shipping":"298.85","processemissions":null,"endoflifeemissions":null,"disposaltype":null,"disposalenergy":null,"disposalimpact":null,"disposalemissions":null,"description":"","name":"Tanuj","id":"1889","stops":{"origin":{"related_to":"1889","part_or_object":"p","notes":"","placename":"Manhattan, NY, USA","id":2312,"name":"origin","lat":"40.7834345","lon":"-73.9662495","hops":{"incoming":[],"outgoing":[{"transport_id":"17","id":"160","transport_name":"None Selected","transport_description":null,"transport_unit":"kg km","transport_co2_eq":"0.000000","from_stop_id":"2312","from_stop_lat":"40.7834345","from_stop_lon":"-73.9662495","from_stop_placename":"Manhattan, NY, USA","to_stop_id":"573","to_stop_name":"origin","to_stop_lat":"42.3584308","to_stop_lon":"-71.0597732","to_stop_placename":"Boston, MA, USA","to_stop":{"id":"573","name":"origin","lat":"42.3584308","lon":"-71.0597732","placename":"Boston, MA, USA"},"from_stop":{"name":"origin","id":"2312","lat":"40.7834345","lon":"-73.9662495","placename":"Manhattan, NY, USA"}}]}}},"processes":[],"eols":[]},{"oid":"2386","imid":"1890","linkid":"","weight":"0","rawemissions":"0","emissions":"0","shipping":"306.9","processemissions":null,"endoflifeemissions":null,"disposaltype":null,"disposalenergy":null,"disposalimpact":null,"disposalemissions":null,"description":"","name":"Lauren","id":"1890","stops":{"origin":{"related_to":"1890","part_or_object":"p","notes":"","placename":"Brooklyn, New York, USA","id":2313,"name":"origin","lat":"40.6501037","lon":"-73.9495823","hops":{"incoming":[],"outgoing":[{"transport_id":"17","id":"161","transport_name":"None Selected","transport_description":null,"transport_unit":"kg km","transport_co2_eq":"0.000000","from_stop_id":"2313","from_stop_lat":"40.6501037","from_stop_lon":"-73.9495823","from_stop_placename":"Brooklyn, New York, USA","to_stop_id":"573","to_stop_name":"origin","to_stop_lat":"42.3584308","to_stop_lon":"-71.0597732","to_stop_placename":"Boston, MA, USA","to_stop":{"id":"573","name":"origin","lat":"42.3584308","lon":"-71.0597732","placename":"Boston, MA, USA"},"from_stop":{"name":"origin","id":"2313","lat":"40.6501037","lon":"-73.9495823","placename":"Brooklyn, New York, USA"}}]}}},"processes":[],"eols":[]},{"oid":"2386","imid":"1891","linkid":"","weight":"0","rawemissions":"0","emissions":"0","shipping":"306.9","processemissions":null,"endoflifeemissions":null,"disposaltype":null,"disposalenergy":null,"disposalimpact":null,"disposalemissions":null,"description":"","name":"Wangui","id":"1891","stops":{"origin":{"related_to":"1891","part_or_object":"p","notes":"","placename":"Brooklyn, New York, USA","id":2314,"name":"origin","lat":"40.6501037","lon":"-73.9495823","hops":{"incoming":[],"outgoing":[{"transport_id":"17","id":"162","transport_name":"None Selected","transport_description":null,"transport_unit":"kg km","transport_co2_eq":"0.000000","from_stop_id":"2314","from_stop_lat":"40.6501037","from_stop_lon":"-73.9495823","from_stop_placename":"Brooklyn, New York, USA","to_stop_id":"573","to_stop_name":"origin","to_stop_lat":"42.3584308","to_stop_lon":"-71.0597732","to_stop_placename":"Boston, MA, USA","to_stop":{"id":"573","name":"origin","lat":"42.3584308","lon":"-71.0597732","placename":"Boston, MA, USA"},"from_stop":{"name":"origin","id":"2314","lat":"40.6501037","lon":"-73.9495823","placename":"Brooklyn, New York, USA"}}]}}},"processes":[],"eols":[]},{"oid":"2386","imid":"1892","linkid":"","weight":"0","rawemissions":"0","emissions":"0","shipping":"306.9","processemissions":null,"endoflifeemissions":null,"disposaltype":null,"disposalenergy":null,"disposalimpact":null,"disposalemissions":null,"description":"","name":"Yael","id":"1892","stops":{"origin":{"related_to":"1892","part_or_object":"p","notes":"","placename":"Brooklyn, New York, USA","id":2315,"name":"origin","lat":"40.6501037","lon":"-73.9495823","hops":{"incoming":[],"outgoing":[{"transport_id":"17","id":"163","transport_name":"None Selected","transport_description":null,"transport_unit":"kg km","transport_co2_eq":"0.000000","from_stop_id":"2315","from_stop_lat":"40.6501037","from_stop_lon":"-73.9495823","from_stop_placename":"Brooklyn, New York, USA","to_stop_id":"573","to_stop_name":"origin","to_stop_lat":"42.3584308","to_stop_lon":"-71.0597732","to_stop_placename":"Boston, MA, USA","to_stop":{"id":"573","name":"origin","lat":"42.3584308","lon":"-71.0597732","placename":"Boston, MA, USA"},"from_stop":{"name":"origin","id":"2315","lat":"40.6501037","lon":"-73.9495823","placename":"Brooklyn, New York, USA"}}]}}},"processes":[],"eols":[]},{"oid":"2386","imid":"1893","linkid":"","weight":"0","rawemissions":"0","emissions":"0","shipping":"4.2","processemissions":null,"endoflifeemissions":null,"disposaltype":null,"disposalenergy":null,"disposalimpact":null,"disposalemissions":null,"description":"","name":"Olivia","id":"1893","stops":{"origin":{"related_to":"1893","part_or_object":"p","notes":"","placename":"Cambridge, MA, USA","id":2316,"name":"origin","lat":"42.3750969","lon":"-71.1056079","hops":{"incoming":[],"outgoing":[{"transport_id":"17","id":"164","transport_name":"None Selected","transport_description":null,"transport_unit":"kg km","transport_co2_eq":"0.000000","from_stop_id":"2316","from_stop_lat":"42.3750969","from_stop_lon":"-71.1056079","from_stop_placename":"Cambridge, MA, USA","to_stop_id":"573","to_stop_name":"origin","to_stop_lat":"42.3584308","to_stop_lon":"-71.0597732","to_stop_placename":"Boston, MA, USA","to_stop":{"id":"573","name":"origin","lat":"42.3584308","lon":"-71.0597732","placename":"Boston, MA, USA"},"from_stop":{"name":"origin","id":"2316","lat":"42.3750969","lon":"-71.1056079","placename":"Cambridge, MA, USA"}}]}}},"processes":[],"eols":[]},{"oid":"2386","imid":"1894","linkid":"","weight":"0","rawemissions":"0","emissions":"0","shipping":"1369.2","processemissions":null,"endoflifeemissions":null,"disposaltype":null,"disposalenergy":null,"disposalimpact":null,"disposalemissions":null,"description":"","name":"Paras","id":"1894","stops":{"origin":{"related_to":"1894","part_or_object":"p","notes":"","placename":"Chicago, IL, USA","id":2317,"name":"origin","lat":"41.850033","lon":"-87.6500523","hops":{"incoming":[],"outgoing":[{"transport_id":"17","id":"165","transport_name":"None Selected","transport_description":null,"transport_unit":"kg km","transport_co2_eq":"0.000000","from_stop_id":"2317","from_stop_lat":"41.850033","from_stop_lon":"-87.6500523","from_stop_placename":"Chicago, IL, USA","to_stop_id":"573","to_stop_name":"origin","to_stop_lat":"42.3584308","to_stop_lon":"-71.0597732","to_stop_placename":"Boston, MA, USA","to_stop":{"id":"573","name":"origin","lat":"42.3584308","lon":"-71.0597732","placename":"Boston, MA, USA"},"from_stop":{"name":"origin","id":"2317","lat":"41.850033","lon":"-87.6500523","placename":"Chicago, IL, USA"}}]}}},"processes":[],"eols":[]},{"oid":"2386","imid":"1895","linkid":"","weight":"0","rawemissions":"0","emissions":"0","shipping":"635.03","processemissions":null,"endoflifeemissions":null,"disposaltype":null,"disposalenergy":null,"disposalimpact":null,"disposalemissions":null,"description":"","name":"Davone","id":"1895","stops":{"origin":{"related_to":"1895","part_or_object":"p","notes":"","placename":"Washington, DC, USA","id":2318,"name":"origin","lat":"38.8951118","lon":"-77.0363658","hops":{"incoming":[],"outgoing":[{"transport_id":"17","id":"166","transport_name":"None Selected","transport_description":null,"transport_unit":"kg km","transport_co2_eq":"0.000000","from_stop_id":"2318","from_stop_lat":"38.8951118","from_stop_lon":"-77.0363658","from_stop_placename":"Washington, DC, USA","to_stop_id":"573","to_stop_name":"origin","to_stop_lat":"42.3584308","to_stop_lon":"-71.0597732","to_stop_placename":"Boston, MA, USA","to_stop":{"id":"573","name":"origin","lat":"42.3584308","lon":"-71.0597732","placename":"Boston, MA, USA"},"from_stop":{"name":"origin","id":"2318","lat":"38.8951118","lon":"-77.0363658","placename":"Washington, DC, USA"}}]}}},"processes":[],"eols":[]},{"oid":"2386","imid":"1896","linkid":"","weight":"0","rawemissions":"0","emissions":"0","shipping":"635.03","processemissions":null,"endoflifeemissions":null,"disposaltype":null,"disposalenergy":null,"disposalimpact":null,"disposalemissions":null,"description":"","name":"Greg","id":"1896","stops":{"origin":{"related_to":"1896","part_or_object":"p","notes":"","placename":"Washington, DC, USA","id":2319,"name":"origin","lat":"38.8951118","lon":"-77.0363658","hops":{"incoming":[],"outgoing":[{"transport_id":"17","id":"167","transport_name":"None Selected","transport_description":null,"transport_unit":"kg km","transport_co2_eq":"0.000000","from_stop_id":"2319","from_stop_lat":"38.8951118","from_stop_lon":"-77.0363658","from_stop_placename":"Washington, DC, USA","to_stop_id":"573","to_stop_name":"origin","to_stop_lat":"42.3584308","to_stop_lon":"-71.0597732","to_stop_placename":"Boston, MA, USA","to_stop":{"id":"573","name":"origin","lat":"42.3584308","lon":"-71.0597732","placename":"Boston, MA, USA"},"from_stop":{"name":"origin","id":"2319","lat":"38.8951118","lon":"-77.0363658","placename":"Washington, DC, USA"}}]}}},"processes":[],"eols":[]},{"oid":"2386","imid":"1897","linkid":"","weight":"0","rawemissions":"0","emissions":"0","shipping":"4684.24","processemissions":null,"endoflifeemissions":null,"disposaltype":null,"disposalenergy":null,"disposalimpact":null,"disposalemissions":null,"description":"","name":"Dan Gurney","id":"1897","stops":{"origin":{"related_to":"1897","part_or_object":"p","notes":"","placename":"Ireland","id":2320,"name":"origin","lat":"53.41291","lon":"-8.24389","hops":{"incoming":[],"outgoing":[{"transport_id":"17","id":"168","transport_name":"None Selected","transport_description":null,"transport_unit":"kg km","transport_co2_eq":"0.000000","from_stop_id":"2320","from_stop_lat":"53.41291","from_stop_lon":"-8.24389","from_stop_placename":"Ireland","to_stop_id":"573","to_stop_name":"origin","to_stop_lat":"42.3584308","to_stop_lon":"-71.0597732","to_stop_placename":"Boston, MA, USA","to_stop":{"id":"573","name":"origin","lat":"42.3584308","lon":"-71.0597732","placename":"Boston, MA, USA"},"from_stop":{"name":"origin","id":"2320","lat":"53.41291","lon":"-8.24389","placename":"Ireland"}}]}}},"processes":[],"eols":[]},{"oid":"2386","imid":"1898","linkid":"","weight":"0","rawemissions":"0","emissions":"0","shipping":"4004.57","processemissions":null,"endoflifeemissions":null,"disposaltype":null,"disposalenergy":null,"disposalimpact":null,"disposalemissions":null,"description":"","name":"Laura James","id":"1898","stops":{"origin":{"related_to":"1898","part_or_object":"p","notes":"","placename":"Seattle, WA, USA","id":2321,"name":"origin","lat":"47.6062095","lon":"-122.3320708","hops":{"incoming":[],"outgoing":[{"transport_id":"17","id":"169","transport_name":"None Selected","transport_description":null,"transport_unit":"kg km","transport_co2_eq":"0.000000","from_stop_id":"2321","from_stop_lat":"47.6062095","from_stop_lon":"-122.3320708","from_stop_placename":"Seattle, WA, USA","to_stop_id":"573","to_stop_name":"origin","to_stop_lat":"42.3584308","to_stop_lon":"-71.0597732","to_stop_placename":"Boston, MA, USA","to_stop":{"id":"573","name":"origin","lat":"42.3584308","lon":"-71.0597732","placename":"Boston, MA, USA"},"from_stop":{"name":"origin","id":"2321","lat":"47.6062095","lon":"-122.3320708","placename":"Seattle, WA, USA"}}]}}},"processes":[],"eols":[]},{"oid":"2386","imid":"1899","linkid":"","weight":"0","rawemissions":"0","emissions":"0","shipping":"5187.69","processemissions":null,"endoflifeemissions":null,"disposaltype":null,"disposalenergy":null,"disposalimpact":null,"disposalemissions":null,"description":"","name":"Katie Koh","id":"1899","stops":{"origin":{"related_to":"1899","part_or_object":"p","notes":"","placename":"Oxford, UK","id":2501,"name":"origin","lat":"51.7522764","lon":"-1.2558243","hops":{"incoming":[],"outgoing":[{"transport_id":"17","id":"317","transport_name":"None Selected","transport_description":null,"transport_unit":"kg km","transport_co2_eq":"0.000000","from_stop_id":"2501","from_stop_lat":"51.7522764","from_stop_lon":"-1.2558243","from_stop_placename":"Oxford, UK","to_stop_id":"573","to_stop_name":"origin","to_stop_lat":"42.3584308","to_stop_lon":"-71.0597732","to_stop_placename":"Boston, MA, USA","to_stop":{"id":"573","name":"origin","lat":"42.3584308","lon":"-71.0597732","placename":"Boston, MA, USA"},"from_stop":{"name":"origin","id":"2501","lat":"51.7522764","lon":"-1.2558243","placename":"Oxford, UK"}}]}}},"processes":[],"eols":[]}],"user":{"name":"Chrysaora","id":"6444"}}}