{"2391":{"oid":"2391","type":"object","flag":"","creator":"7642","name":"Vivienne Westwood men's shirt - 2007","upc":"","imagelink":"","description":"A cotton shirt","slug":"vivienne-westwood-mens-shirt-2007","category":"","weight":"0.467","emissions":"2.11202","embodied":"1.93373","transport":"0.178292","process":"0","endoflife":"0","shipping":"35615.9","lifetime":null,"usagetype":"","usageenergy":null,"usageemissions":null,"timecreated":"2010-02-24 22:03:36.473096","timemodified":"2010-02-01 18:53:55","visibility":"public","showfootprint":"on","showembodied":"on","showtransport":"on","showprocess":"on","showendoflife":"on","showlastleg":"on","showuse":"on","showstats":"on","stops":{"origin":{"related_to":"2391","part_or_object":"o","notes":"","placename":"Italy","id":"578","category":"1","lat":"41.87194","lon":"12.56738","name":"origin","hops":{"incoming":[{"transport_id":"1","id":"140","transport_name":"van, 3.5 tons","transport_description":"delivery van, half full","transport_unit":"kg km","transport_co2_eq":"0.053400","from_stop_id":"2292","from_stop_lat":"41.87194","from_stop_lon":"12.56738","to_stop_id":"578","to_stop_name":"origin","to_stop_lat":"41.87194","placename":"Italy","to_stop_lon":"12.56738","to_stop":{"id":"578","name":"origin","lat":"41.87194","placename":"Italy","lon":"12.56738"},"from_stop":{"name":"origin","id":"2292","lat":"41.87194","lon":"12.56738","placename":"Italy"}},{"transport_id":"16","id":"141","transport_name":"air, freight, intercontinental","transport_description":"intercontinental freight","transport_unit":"kg km","transport_co2_eq":"0.450000","from_stop_id":"2293","from_stop_lat":"35.86166","from_stop_lon":"104.195397","to_stop_id":"578","to_stop_name":"origin","to_stop_lat":"41.87194","placename":"China","to_stop_lon":"12.56738","to_stop":{"id":"578","name":"origin","lat":"41.87194","placename":"Italy","lon":"12.56738"},"from_stop":{"name":"origin","id":"2293","lat":"35.86166","lon":"104.195397","placename":"China"}},{"transport_id":"16","id":"142","transport_name":"air, freight, intercontinental","transport_description":"intercontinental freight","transport_unit":"kg km","transport_co2_eq":"0.450000","from_stop_id":"2294","from_stop_lat":"35.86166","from_stop_lon":"104.195397","to_stop_id":"578","to_stop_name":"origin","to_stop_lat":"41.87194","placename":"China","to_stop_lon":"12.56738","to_stop":{"id":"578","name":"origin","lat":"41.87194","placename":"Italy","lon":"12.56738"},"from_stop":{"name":"origin","id":"2294","lat":"35.86166","lon":"104.195397","placename":"China"}},{"transport_id":"16","id":"143","transport_name":"air, freight, intercontinental","transport_description":"intercontinental freight","transport_unit":"kg km","transport_co2_eq":"0.450000","from_stop_id":"2295","from_stop_lat":"23.69781","from_stop_lon":"120.960515","to_stop_id":"578","to_stop_name":"origin","to_stop_lat":"41.87194","placename":"Taiwan","to_stop_lon":"12.56738","to_stop":{"id":"578","name":"origin","lat":"41.87194","placename":"Italy","lon":"12.56738"},"from_stop":{"name":"origin","id":"2295","lat":"23.69781","lon":"120.960515","placename":"Taiwan"}},{"transport_id":"16","id":"144","transport_name":"air, freight, intercontinental","transport_description":"intercontinental freight","transport_unit":"kg km","transport_co2_eq":"0.450000","from_stop_id":"2296","from_stop_lat":"36.204824","from_stop_lon":"138.252924","to_stop_id":"578","to_stop_name":"origin","to_stop_lat":"41.87194","placename":"Japan","to_stop_lon":"12.56738","to_stop":{"id":"578","name":"origin","lat":"41.87194","placename":"Italy","lon":"12.56738"},"from_stop":{"name":"origin","id":"2296","lat":"36.204824","lon":"138.252924","placename":"Japan"}},{"transport_id":"13","id":"145","transport_name":"air, passenger, regional","transport_description":"within one continent, kg km from person-km","transport_unit":"kg km","transport_co2_eq":"2.262000","from_stop_id":"2297","from_stop_lat":"51.165691","from_stop_lon":"10.451526","to_stop_id":"578","to_stop_name":"origin","to_stop_lat":"41.87194","placename":"Germany","to_stop_lon":"12.56738","to_stop":{"id":"578","name":"origin","lat":"41.87194","placename":"Italy","lon":"12.56738"},"from_stop":{"name":"origin","id":"2297","lat":"51.165691","lon":"10.451526","placename":"Germany"}}],"outgoing":[]}}},"parts":[{"oid":"2391","imid":"1870","linkid":"parts\/cotton-fabric","weight":"0.4","rawemissions":"3.5","emissions":"1.4","shipping":"0","processemissions":null,"endoflifeemissions":null,"disposaltype":null,"disposalenergy":null,"disposalimpact":null,"disposalemissions":null,"description":"","name":"Cotton fabric","id":"1870","stops":{"origin":{"related_to":"1870","part_or_object":"p","notes":"","placename":"Italy","id":2292,"name":"origin","lat":"41.87194","lon":"12.56738","hops":{"incoming":[],"outgoing":[{"transport_id":"1","id":"140","transport_name":"van, 3.5 tons","transport_description":"delivery van, half full","transport_unit":"kg km","transport_co2_eq":"0.053400","from_stop_id":"2292","from_stop_lat":"41.87194","from_stop_lon":"12.56738","from_stop_placename":"Italy","to_stop_id":"578","to_stop_name":"origin","to_stop_lat":"41.87194","to_stop_lon":"12.56738","to_stop_placename":"Italy","to_stop":{"id":"578","name":"origin","lat":"41.87194","lon":"12.56738","placename":"Italy"},"from_stop":{"name":"origin","id":"2292","lat":"41.87194","lon":"12.56738","placename":"Italy"}}]}}},"processes":[],"eols":[]},{"oid":"2391","imid":"1871","linkid":"parts\/pet-virgin","weight":"0.01","rawemissions":"2.7","emissions":"0.027","shipping":"7574.74","processemissions":null,"endoflifeemissions":null,"disposaltype":null,"disposalenergy":null,"disposalimpact":null,"disposalemissions":null,"description":"Buttons","name":"PET, virgin","id":"1871","stops":{"origin":{"related_to":"1871","part_or_object":"p","notes":"","placename":"China","id":2293,"name":"origin","lat":"35.86166","lon":"104.195397","hops":{"incoming":[],"outgoing":[{"transport_id":"16","id":"141","transport_name":"air, freight, intercontinental","transport_description":"intercontinental freight","transport_unit":"kg km","transport_co2_eq":"0.450000","from_stop_id":"2293","from_stop_lat":"35.86166","from_stop_lon":"104.195397","from_stop_placename":"China","to_stop_id":"578","to_stop_name":"origin","to_stop_lat":"41.87194","to_stop_lon":"12.56738","to_stop_placename":"Italy","to_stop":{"id":"578","name":"origin","lat":"41.87194","lon":"12.56738","placename":"Italy"},"from_stop":{"name":"origin","id":"2293","lat":"35.86166","lon":"104.195397","placename":"China"}}]}}},"processes":[],"eols":[]},{"oid":"2391","imid":"1872","linkid":"parts\/polyester-fabric","weight":"0.005","rawemissions":"8.9","emissions":"0.0445","shipping":"7574.74","processemissions":null,"endoflifeemissions":null,"disposaltype":null,"disposalenergy":null,"disposalimpact":null,"disposalemissions":null,"description":"Care & brand label","name":"Polyester fabric","id":"1872","stops":{"origin":{"related_to":"1872","part_or_object":"p","notes":"","placename":"China","id":2294,"name":"origin","lat":"35.86166","lon":"104.195397","hops":{"incoming":[],"outgoing":[{"transport_id":"16","id":"142","transport_name":"air, freight, intercontinental","transport_description":"intercontinental freight","transport_unit":"kg km","transport_co2_eq":"0.450000","from_stop_id":"2294","from_stop_lat":"35.86166","from_stop_lon":"104.195397","from_stop_placename":"China","to_stop_id":"578","to_stop_name":"origin","to_stop_lat":"41.87194","to_stop_lon":"12.56738","to_stop_placename":"Italy","to_stop":{"id":"578","name":"origin","lat":"41.87194","lon":"12.56738","placename":"Italy"},"from_stop":{"name":"origin","id":"2294","lat":"35.86166","lon":"104.195397","placename":"China"}}]}}},"processes":[],"eols":[]},{"oid":"2391","imid":"1873","linkid":"parts\/polyester-fabric","weight":"0.001","rawemissions":"8.9","emissions":"0.0089","shipping":"9679.81","processemissions":null,"endoflifeemissions":null,"disposaltype":null,"disposalenergy":null,"disposalimpact":null,"disposalemissions":null,"description":"thread","name":"Polyester fabric","id":"1873","stops":{"origin":{"related_to":"1873","part_or_object":"p","notes":"","placename":"Taiwan","id":2295,"name":"origin","lat":"23.69781","lon":"120.960515","hops":{"incoming":[],"outgoing":[{"transport_id":"16","id":"143","transport_name":"air, freight, intercontinental","transport_description":"intercontinental freight","transport_unit":"kg km","transport_co2_eq":"0.450000","from_stop_id":"2295","from_stop_lat":"23.69781","from_stop_lon":"120.960515","from_stop_placename":"Taiwan","to_stop_id":"578","to_stop_name":"origin","to_stop_lat":"41.87194","to_stop_lon":"12.56738","to_stop_placename":"Italy","to_stop":{"id":"578","name":"origin","lat":"41.87194","lon":"12.56738","placename":"Italy"},"from_stop":{"name":"origin","id":"2295","lat":"23.69781","lon":"120.960515","placename":"Taiwan"}}]}}},"processes":[],"eols":[]},{"oid":"2391","imid":"1874","linkid":"parts\/aluminum-virgin","weight":"0.001","rawemissions":"8.33","emissions":"0.00833","shipping":"9739.59","processemissions":null,"endoflifeemissions":null,"disposaltype":null,"disposalenergy":null,"disposalimpact":null,"disposalemissions":null,"description":"Metal thread","name":"Aluminum, Virgin","id":"1874","stops":{"origin":{"related_to":"1874","part_or_object":"p","notes":"","placename":"Japan","id":2296,"name":"origin","lat":"36.204824","lon":"138.252924","hops":{"incoming":[],"outgoing":[{"transport_id":"16","id":"144","transport_name":"air, freight, intercontinental","transport_description":"intercontinental freight","transport_unit":"kg km","transport_co2_eq":"0.450000","from_stop_id":"2296","from_stop_lat":"36.204824","from_stop_lon":"138.252924","from_stop_placename":"Japan","to_stop_id":"578","to_stop_name":"origin","to_stop_lat":"41.87194","to_stop_lon":"12.56738","to_stop_placename":"Italy","to_stop":{"id":"578","name":"origin","lat":"41.87194","lon":"12.56738","placename":"Italy"},"from_stop":{"name":"origin","id":"2296","lat":"36.204824","lon":"138.252924","placename":"Japan"}}]}}},"processes":[],"eols":[]},{"oid":"2391","imid":"1875","linkid":"parts\/polyester-fabric","weight":"0.05","rawemissions":"8.9","emissions":"0.445","shipping":"1047.07","processemissions":null,"endoflifeemissions":null,"disposaltype":null,"disposalenergy":null,"disposalimpact":null,"disposalemissions":null,"description":"Fusing","name":"Polyester fabric","id":"1875","stops":{"origin":{"related_to":"1875","part_or_object":"p","notes":"","placename":"Germany","id":2297,"name":"origin","lat":"51.165691","lon":"10.451526","hops":{"incoming":[],"outgoing":[{"transport_id":"13","id":"145","transport_name":"air, passenger, regional","transport_description":"within one continent, kg km from person-km","transport_unit":"kg km","transport_co2_eq":"2.262000","from_stop_id":"2297","from_stop_lat":"51.165691","from_stop_lon":"10.451526","from_stop_placename":"Germany","to_stop_id":"578","to_stop_name":"origin","to_stop_lat":"41.87194","to_stop_lon":"12.56738","to_stop_placename":"Italy","to_stop":{"id":"578","name":"origin","lat":"41.87194","lon":"12.56738","placename":"Italy"},"from_stop":{"name":"origin","id":"2297","lat":"51.165691","lon":"10.451526","placename":"Germany"}}]}}},"processes":[],"eols":[]}],"user":{"name":"timorissanen","id":"7642"}}}