{"2394":{"oid":"2394","type":"object","flag":"","creator":"7645","name":"Hermes Birkin handbag","upc":"","imagelink":"","description":"Not sure where to go; this is my first sourcemap","slug":"hermes-birkin-handbag","category":"","weight":"2.01","emissions":"3459.14","embodied":"3459.14","transport":"0","process":"0","endoflife":"0","shipping":"40390.1","lifetime":null,"usagetype":"","usageenergy":null,"usageemissions":null,"timecreated":"2010-02-24 22:03:36.477592","timemodified":"2010-02-01 18:55:55","visibility":"public","showfootprint":"on","showembodied":"on","showtransport":"on","showprocess":"on","showendoflife":"on","showlastleg":"on","showuse":"on","showstats":"on","stops":{"origin":{"related_to":"2394","part_or_object":"o","notes":"","placename":"France","id":"581","category":"1","lat":"46.227638","lon":"2.213749","name":"origin","hops":{"incoming":[{"transport_id":"17","id":"129","transport_name":"None Selected","transport_description":null,"transport_unit":"kg km","transport_co2_eq":"0.000000","from_stop_id":"2281","from_stop_lat":"46.227638","from_stop_lon":"2.213749","to_stop_id":"581","to_stop_name":"origin","to_stop_lat":"46.227638","placename":"France","to_stop_lon":"2.213749","to_stop":{"id":"581","name":"origin","lat":"46.227638","placename":"France","lon":"2.213749"},"from_stop":{"name":"origin","id":"2281","lat":"46.227638","lon":"2.213749","placename":"France"}},{"transport_id":"17","id":"130","transport_name":"None Selected","transport_description":null,"transport_unit":"kg km","transport_co2_eq":"0.000000","from_stop_id":"2282","from_stop_lat":"-25","from_stop_lon":"30","to_stop_id":"581","to_stop_name":"origin","to_stop_lat":"46.227638","placename":"Transvaal, Greater Tubatse Rural, South Africa","to_stop_lon":"2.213749","to_stop":{"id":"581","name":"origin","lat":"46.227638","placename":"France","lon":"2.213749"},"from_stop":{"name":"origin","id":"2282","lat":"-25","lon":"30","placename":"Transvaal, Greater Tubatse Rural, South Africa"}},{"transport_id":"17","id":"137","transport_name":"None Selected","transport_description":null,"transport_unit":"kg km","transport_co2_eq":"0.000000","from_stop_id":"2289","from_stop_lat":"23.684994","from_stop_lon":"90.356331","to_stop_id":"581","to_stop_name":"origin","to_stop_lat":"46.227638","placename":"Bangladesh","to_stop_lon":"2.213749","to_stop":{"id":"581","name":"origin","lat":"46.227638","placename":"France","lon":"2.213749"},"from_stop":{"name":"origin","id":"2289","lat":"23.684994","lon":"90.356331","placename":"Bangladesh"}},{"transport_id":"17","id":"138","transport_name":"None Selected","transport_description":null,"transport_unit":"kg km","transport_co2_eq":"0.000000","from_stop_id":"2290","from_stop_lat":"-30.559482","from_stop_lon":"22.937506","to_stop_id":"581","to_stop_name":"origin","to_stop_lat":"46.227638","placename":"South Africa","to_stop_lon":"2.213749","to_stop":{"id":"581","name":"origin","lat":"46.227638","placename":"France","lon":"2.213749"},"from_stop":{"name":"origin","id":"2290","lat":"-30.559482","lon":"22.937506","placename":"South Africa"}},{"transport_id":"17","id":"146","transport_name":"None Selected","transport_description":null,"transport_unit":"kg km","transport_co2_eq":"0.000000","from_stop_id":"2298","from_stop_lat":"-25.274398","from_stop_lon":"133.775136","to_stop_id":"581","to_stop_name":"origin","to_stop_lat":"46.227638","placename":"Australia","to_stop_lon":"2.213749","to_stop":{"id":"581","name":"origin","lat":"46.227638","placename":"France","lon":"2.213749"},"from_stop":{"name":"origin","id":"2298","lat":"-25.274398","lon":"133.775136","placename":"Australia"}}],"outgoing":[]}}},"parts":[{"oid":"2394","imid":"1858","linkid":"parts\/leather","weight":"0.5","rawemissions":"0.27","emissions":"0.135","shipping":"5150.6","processemissions":null,"endoflifeemissions":null,"disposaltype":null,"disposalenergy":null,"disposalimpact":null,"disposalemissions":null,"description":"","name":"Leather","id":"1858","stops":{"origin":{"related_to":"1858","part_or_object":"p","notes":"","placename":"France","id":2281,"name":"origin","lat":"46.227638","lon":"2.213749","hops":{"incoming":[],"outgoing":[{"transport_id":"17","id":"129","transport_name":"None Selected","transport_description":null,"transport_unit":"kg km","transport_co2_eq":"0.000000","from_stop_id":"2281","from_stop_lat":"46.227638","from_stop_lon":"2.213749","from_stop_placename":"France","to_stop_id":"581","to_stop_name":"origin","to_stop_lat":"46.227638","to_stop_lon":"2.213749","to_stop_placename":"France","to_stop":{"id":"581","name":"origin","lat":"46.227638","lon":"2.213749","placename":"France"},"from_stop":{"name":"origin","id":"2281","lat":"46.227638","lon":"2.213749","placename":"France"}}]}}},"processes":[],"eols":[]},{"oid":"2394","imid":"1859","linkid":"parts\/palladium-virgin","weight":"0.01","rawemissions":"5900","emissions":"59","shipping":"4262.41","processemissions":null,"endoflifeemissions":null,"disposaltype":null,"disposalenergy":null,"disposalimpact":null,"disposalemissions":null,"description":"","name":"Palladium, Virgin","id":"1859","stops":{"origin":{"related_to":"1859","part_or_object":"p","notes":"","placename":"Transvaal, Greater Tubatse Rural, South Africa","id":2282,"name":"origin","lat":"-25","lon":"30","hops":{"incoming":[],"outgoing":[{"transport_id":"17","id":"130","transport_name":"None Selected","transport_description":null,"transport_unit":"kg km","transport_co2_eq":"0.000000","from_stop_id":"2282","from_stop_lat":"-25","from_stop_lon":"30","from_stop_placename":"Transvaal, Greater Tubatse Rural, South Africa","to_stop_id":"581","to_stop_name":"origin","to_stop_lat":"46.227638","to_stop_lon":"2.213749","to_stop_placename":"France","to_stop":{"id":"581","name":"origin","lat":"46.227638","lon":"2.213749","placename":"France"},"from_stop":{"name":"origin","id":"2282","lat":"-25","lon":"30","placename":"Transvaal, Greater Tubatse Rural, South Africa"}}]}}},"processes":[],"eols":[]},{"oid":"2394","imid":"1867","linkid":"","weight":"0.5","rawemissions":"0","emissions":"0","shipping":"10055.1","processemissions":null,"endoflifeemissions":null,"disposaltype":null,"disposalenergy":null,"disposalimpact":null,"disposalemissions":null,"description":"","name":"Goat skin","id":"1867","stops":{"origin":{"related_to":"1867","part_or_object":"p","notes":"","placename":"Bangladesh","id":2289,"name":"origin","lat":"23.684994","lon":"90.356331","hops":{"incoming":[],"outgoing":[{"transport_id":"17","id":"137","transport_name":"None Selected","transport_description":null,"transport_unit":"kg km","transport_co2_eq":"0.000000","from_stop_id":"2289","from_stop_lat":"23.684994","from_stop_lon":"90.356331","from_stop_placename":"Bangladesh","to_stop_id":"581","to_stop_name":"origin","to_stop_lat":"46.227638","to_stop_lon":"2.213749","to_stop_placename":"France","to_stop":{"id":"581","name":"origin","lat":"46.227638","lon":"2.213749","placename":"France"},"from_stop":{"name":"origin","id":"2289","lat":"23.684994","lon":"90.356331","placename":"Bangladesh"}}]}}},"processes":[],"eols":[]},{"oid":"2394","imid":"1868","linkid":"parts\/gold-virgin","weight":"0.5","rawemissions":"6800","emissions":"3400","shipping":"4178.03","processemissions":null,"endoflifeemissions":null,"disposaltype":null,"disposalenergy":null,"disposalimpact":null,"disposalemissions":null,"description":"","name":"Gold, Virgin","id":"1868","stops":{"origin":{"related_to":"1868","part_or_object":"p","notes":"","placename":"South Africa","id":2290,"name":"origin","lat":"-30.559482","lon":"22.937506","hops":{"incoming":[],"outgoing":[{"transport_id":"17","id":"138","transport_name":"None Selected","transport_description":null,"transport_unit":"kg km","transport_co2_eq":"0.000000","from_stop_id":"2290","from_stop_lat":"-30.559482","from_stop_lon":"22.937506","from_stop_placename":"South Africa","to_stop_id":"581","to_stop_name":"origin","to_stop_lat":"46.227638","to_stop_lon":"2.213749","to_stop_placename":"France","to_stop":{"id":"581","name":"origin","lat":"46.227638","lon":"2.213749","placename":"France"},"from_stop":{"name":"origin","id":"2290","lat":"-30.559482","lon":"22.937506","placename":"South Africa"}}]}}},"processes":[],"eols":[]},{"oid":"2394","imid":"1876","linkid":"","weight":"0.5","rawemissions":"0","emissions":"0","shipping":"14329.8","processemissions":null,"endoflifeemissions":null,"disposaltype":null,"disposalenergy":null,"disposalimpact":null,"disposalemissions":null,"description":"","name":"Saltwater crocodile skin","id":"1876","stops":{"origin":{"related_to":"1876","part_or_object":"p","notes":"","placename":"Australia","id":2298,"name":"origin","lat":"-25.274398","lon":"133.775136","hops":{"incoming":[],"outgoing":[{"transport_id":"17","id":"146","transport_name":"None Selected","transport_description":null,"transport_unit":"kg km","transport_co2_eq":"0.000000","from_stop_id":"2298","from_stop_lat":"-25.274398","from_stop_lon":"133.775136","from_stop_placename":"Australia","to_stop_id":"581","to_stop_name":"origin","to_stop_lat":"46.227638","to_stop_lon":"2.213749","to_stop_placename":"France","to_stop":{"id":"581","name":"origin","lat":"46.227638","lon":"2.213749","placename":"France"},"from_stop":{"name":"origin","id":"2298","lat":"-25.274398","lon":"133.775136","placename":"Australia"}}]}}},"processes":[],"eols":[]}],"user":{"name":"parka410","id":"7645"}}}