{"24":{"oid":"24","type":"trace","flag":"","creator":"11226","name":"Dasani Bottled Water","upc":"","imagelink":"","description":"Dasani bottled water is made by Coca-Cola, and comes from city water supplies across the U.S.  It is estimated there are 30 different water supply sites used across the country.  Swire Coca-Cola, USA is the fifth largest Coca-Cola bottler in the United States, and distributes to 11 different western states.  There are two sites in the west where Dasani water is bottled-  Salt Lake City, Utah and Fruitland, Idaho.","slug":"Dasani-Bottled-Water","category":"","weight":"0","emissions":"0","embodied":"0","transport":"0","process":null,"endoflife":null,"shipping":"8964.51","lifetime":null,"usagetype":"","usageenergy":null,"usageemissions":null,"timecreated":"2010-11-15 16:47:13","timemodified":"2010-11-29 16:42:30","visibility":"public","showfootprint":"on","showembodied":"on","showtransport":"on","showprocess":"on","showendoflife":"on","showlastleg":"on","showuse":"on","showstats":"on","stops":{"origin":{"related_to":"24","part_or_object":"o","notes":null,"placename":"West Valley City, UT, USA","id":"7643","category":"1","lat":"40.6916132","lon":"-112.0010501","name":"origin","hops":{"incoming":[{"transport_id":"17","id":"5173","transport_name":"None Selected","transport_description":null,"transport_unit":"kg km","transport_co2_eq":"0.000000","from_stop_id":"7644","from_stop_lat":"40.7607793","from_stop_lon":"-111.8910474","to_stop_id":"7643","to_stop_name":"origin","to_stop_lat":"40.6916132","placename":"Salt Lake City, UT, USA","to_stop_lon":"-112.0010501","to_stop":{"id":"7643","name":"origin","lat":"40.6916132","placename":"West Valley City, UT, USA","lon":"-112.0010501"},"from_stop":{"name":"origin","id":"7644","lat":"40.7607793","lon":"-111.8910474","placename":"Salt Lake City, UT, USA"}},{"transport_id":"17","id":"5174","transport_name":"None Selected","transport_description":null,"transport_unit":"kg km","transport_co2_eq":"0.000000","from_stop_id":"7645","from_stop_lat":"40.6916132","from_stop_lon":"-112.0010501","to_stop_id":"7643","to_stop_name":"origin","to_stop_lat":"40.6916132","placename":"West Valley City, UT, USA","to_stop_lon":"-112.0010501","to_stop":{"id":"7643","name":"origin","lat":"40.6916132","placename":"West Valley City, UT, USA","lon":"-112.0010501"},"from_stop":{"name":"origin","id":"7645","lat":"40.6916132","lon":"-112.0010501","placename":"West Valley City, UT, USA"}},{"transport_id":"17","id":"5175","transport_name":"None Selected","transport_description":null,"transport_unit":"kg km","transport_co2_eq":"0.000000","from_stop_id":"7646","from_stop_lat":"44.0076639","from_stop_lon":"-116.9165461","to_stop_id":"7643","to_stop_name":"origin","to_stop_lat":"40.6916132","placename":"Fruitland, ID, USA","to_stop_lon":"-112.0010501","to_stop":{"id":"7643","name":"origin","lat":"40.6916132","placename":"West Valley City, UT, USA","lon":"-112.0010501"},"from_stop":{"name":"origin","id":"7646","lat":"44.0076639","lon":"-116.9165461","placename":"Fruitland, ID, USA"}},{"transport_id":"17","id":"5176","transport_name":"None Selected","transport_description":null,"transport_unit":"kg km","transport_co2_eq":"0.000000","from_stop_id":"7647","from_stop_lat":"40.5246711","from_stop_lon":"-111.8638226","to_stop_id":"7643","to_stop_name":"origin","to_stop_lat":"40.6916132","placename":"Draper, UT, USA","to_stop_lon":"-112.0010501","to_stop":{"id":"7643","name":"origin","lat":"40.6916132","placename":"West Valley City, UT, USA","lon":"-112.0010501"},"from_stop":{"name":"origin","id":"7647","lat":"40.5246711","lon":"-111.8638226","placename":"Draper, UT, USA"}},{"transport_id":"17","id":"5177","transport_name":"None Selected","transport_description":null,"transport_unit":"kg km","transport_co2_eq":"0.000000","from_stop_id":"7648","from_stop_lat":"41.223","from_stop_lon":"-111.9738304","to_stop_id":"7643","to_stop_name":"origin","to_stop_lat":"40.6916132","placename":"Ogden, UT, USA","to_stop_lon":"-112.0010501","to_stop":{"id":"7643","name":"origin","lat":"40.6916132","placename":"West Valley City, UT, USA","lon":"-112.0010501"},"from_stop":{"name":"origin","id":"7648","lat":"41.223","lon":"-111.9738304","placename":"Ogden, UT, USA"}},{"transport_id":"17","id":"5178","transport_name":"None Selected","transport_description":null,"transport_unit":"kg km","transport_co2_eq":"0.000000","from_stop_id":"7649","from_stop_lat":"41.7354861","from_stop_lon":"-111.834388","to_stop_id":"7643","to_stop_name":"origin","to_stop_lat":"40.6916132","placename":"Logan, UT, USA","to_stop_lon":"-112.0010501","to_stop":{"id":"7643","name":"origin","lat":"40.6916132","placename":"West Valley City, UT, USA","lon":"-112.0010501"},"from_stop":{"name":"origin","id":"7649","lat":"41.7354861","lon":"-111.834388","placename":"Logan, UT, USA"}},{"transport_id":"17","id":"5179","transport_name":"None Selected","transport_description":null,"transport_unit":"kg km","transport_co2_eq":"0.000000","from_stop_id":"7650","from_stop_lat":"42.8713032","from_stop_lon":"-112.4455344","to_stop_id":"7643","to_stop_name":"origin","to_stop_lat":"40.6916132","placename":"Pocatello, ID, USA","to_stop_lon":"-112.0010501","to_stop":{"id":"7643","name":"origin","lat":"40.6916132","placename":"West Valley City, UT, USA","lon":"-112.0010501"},"from_stop":{"name":"origin","id":"7650","lat":"42.8713032","lon":"-112.4455344","placename":"Pocatello, ID, USA"}},{"transport_id":"17","id":"5180","transport_name":"None Selected","transport_description":null,"transport_unit":"kg km","transport_co2_eq":"0.000000","from_stop_id":"7651","from_stop_lat":"38.7724673","from_stop_lon":"-112.0840943","to_stop_id":"7643","to_stop_name":"origin","to_stop_lat":"40.6916132","placename":"Richfield, UT 84701, USA","to_stop_lon":"-112.0010501","to_stop":{"id":"7643","name":"origin","lat":"40.6916132","placename":"West Valley City, UT, USA","lon":"-112.0010501"},"from_stop":{"name":"origin","id":"7651","lat":"38.7724673","lon":"-112.0840943","placename":"Richfield, UT 84701, USA"}},{"transport_id":"17","id":"5181","transport_name":"None Selected","transport_description":null,"transport_unit":"kg km","transport_co2_eq":"0.000000","from_stop_id":"7652","from_stop_lat":"39.5994095","from_stop_lon":"-110.8107148","to_stop_id":"7643","to_stop_name":"origin","to_stop_lat":"40.6916132","placename":"Price, UT 84501, USA","to_stop_lon":"-112.0010501","to_stop":{"id":"7643","name":"origin","lat":"40.6916132","placename":"West Valley City, UT, USA","lon":"-112.0010501"},"from_stop":{"name":"origin","id":"7652","lat":"39.5994095","lon":"-110.8107148","placename":"Price, UT 84501, USA"}},{"transport_id":"17","id":"5182","transport_name":"None Selected","transport_description":null,"transport_unit":"kg km","transport_co2_eq":"0.000000","from_stop_id":"7653","from_stop_lat":"35.189443","from_stop_lon":"-114.0530065","to_stop_id":"7643","to_stop_name":"origin","to_stop_lat":"40.6916132","placename":"Kingman, AZ, USA","to_stop_lon":"-112.0010501","to_stop":{"id":"7643","name":"origin","lat":"40.6916132","placename":"West Valley City, UT, USA","lon":"-112.0010501"},"from_stop":{"name":"origin","id":"7653","lat":"35.189443","lon":"-114.0530065","placename":"Kingman, AZ, USA"}},{"transport_id":"17","id":"5183","transport_name":"None Selected","transport_description":null,"transport_unit":"kg km","transport_co2_eq":"0.000000","from_stop_id":"7654","from_stop_lat":"32.8339546","from_stop_lon":"-109.70758","to_stop_id":"7643","to_stop_name":"origin","to_stop_lat":"40.6916132","placename":"Safford, AZ, USA","to_stop_lon":"-112.0010501","to_stop":{"id":"7643","name":"origin","lat":"40.6916132","placename":"West Valley City, UT, USA","lon":"-112.0010501"},"from_stop":{"name":"origin","id":"7654","lat":"32.8339546","lon":"-109.70758","placename":"Safford, AZ, USA"}},{"transport_id":"17","id":"5184","transport_name":"None Selected","transport_description":null,"transport_unit":"kg km","transport_co2_eq":"0.000000","from_stop_id":"7655","from_stop_lat":"34.2542084","from_stop_lon":"-110.0298327","to_stop_id":"7643","to_stop_name":"origin","to_stop_lat":"40.6916132","placename":"Show Low, AZ, USA","to_stop_lon":"-112.0010501","to_stop":{"id":"7643","name":"origin","lat":"40.6916132","placename":"West Valley City, UT, USA","lon":"-112.0010501"},"from_stop":{"name":"origin","id":"7655","lat":"34.2542084","lon":"-110.0298327","placename":"Show Low, AZ, USA"}},{"transport_id":"17","id":"5185","transport_name":"None Selected","transport_description":null,"transport_unit":"kg km","transport_co2_eq":"0.000000","from_stop_id":"7656","from_stop_lat":"35.2013516","from_stop_lon":"-111.639249","to_stop_id":"7643","to_stop_name":"origin","to_stop_lat":"40.6916132","placename":"Flagstaff, AZ, USA","to_stop_lon":"-112.0010501","to_stop":{"id":"7643","name":"origin","lat":"40.6916132","placename":"West Valley City, UT, USA","lon":"-112.0010501"},"from_stop":{"name":"origin","id":"7656","lat":"35.2013516","lon":"-111.639249","placename":"Flagstaff, AZ, USA"}},{"transport_id":"17","id":"5186","transport_name":"None Selected","transport_description":null,"transport_unit":"kg km","transport_co2_eq":"0.000000","from_stop_id":"7657","from_stop_lat":"36.1544483","from_stop_lon":"-109.5526072","to_stop_id":"7643","to_stop_name":"origin","to_stop_lat":"40.6916132","placename":"Chinle, AZ 86503, USA","to_stop_lon":"-112.0010501","to_stop":{"id":"7643","name":"origin","lat":"40.6916132","placename":"West Valley City, UT, USA","lon":"-112.0010501"},"from_stop":{"name":"origin","id":"7657","lat":"36.1544483","lon":"-109.5526072","placename":"Chinle, AZ 86503, USA"}},{"transport_id":"17","id":"5187","transport_name":"None Selected","transport_description":null,"transport_unit":"kg km","transport_co2_eq":"0.000000","from_stop_id":"7658","from_stop_lat":"37.4694491","from_stop_lon":"-105.8700214","to_stop_id":"7643","to_stop_name":"origin","to_stop_lat":"40.6916132","placename":"Alamosa, CO 81101, USA","to_stop_lon":"-112.0010501","to_stop":{"id":"7643","name":"origin","lat":"40.6916132","placename":"West Valley City, UT, USA","lon":"-112.0010501"},"from_stop":{"name":"origin","id":"7658","lat":"37.4694491","lon":"-105.8700214","placename":"Alamosa, CO 81101, USA"}},{"transport_id":"17","id":"5188","transport_name":"None Selected","transport_description":null,"transport_unit":"kg km","transport_co2_eq":"0.000000","from_stop_id":"7659","from_stop_lat":"39.0638705","from_stop_lon":"-108.5506486","to_stop_id":"7643","to_stop_name":"origin","to_stop_lat":"40.6916132","placename":"Grand Junction, CO, USA","to_stop_lon":"-112.0010501","to_stop":{"id":"7643","name":"origin","lat":"40.6916132","placename":"West Valley City, UT, USA","lon":"-112.0010501"},"from_stop":{"name":"origin","id":"7659","lat":"39.0638705","lon":"-108.5506486","placename":"Grand Junction, CO, USA"}},{"transport_id":"17","id":"5189","transport_name":"None Selected","transport_description":null,"transport_unit":"kg km","transport_co2_eq":"0.000000","from_stop_id":"7660","from_stop_lat":"39.5505376","from_stop_lon":"-107.3247762","to_stop_id":"7643","to_stop_name":"origin","to_stop_lat":"40.6916132","placename":"Glenwood Springs, CO 81601, USA","to_stop_lon":"-112.0010501","to_stop":{"id":"7643","name":"origin","lat":"40.6916132","placename":"West Valley City, UT, USA","lon":"-112.0010501"},"from_stop":{"name":"origin","id":"7660","lat":"39.5505376","lon":"-107.3247762","placename":"Glenwood Springs, CO 81601, USA"}},{"transport_id":"17","id":"5190","transport_name":"None Selected","transport_description":null,"transport_unit":"kg km","transport_co2_eq":"0.000000","from_stop_id":"7661","from_stop_lat":"42.5629668","from_stop_lon":"-114.4608711","to_stop_id":"7643","to_stop_name":"origin","to_stop_lat":"40.6916132","placename":"Twin Falls, ID, USA","to_stop_lon":"-112.0010501","to_stop":{"id":"7643","name":"origin","lat":"40.6916132","placename":"West Valley City, UT, USA","lon":"-112.0010501"},"from_stop":{"name":"origin","id":"7661","lat":"42.5629668","lon":"-114.4608711","placename":"Twin Falls, ID, USA"}},{"transport_id":"17","id":"5191","transport_name":"None Selected","transport_description":null,"transport_unit":"kg km","transport_co2_eq":"0.000000","from_stop_id":"7662","from_stop_lat":"43.4665808","from_stop_lon":"-112.0341374","to_stop_id":"7643","to_stop_name":"origin","to_stop_lat":"40.6916132","placename":"Idaho Falls, ID, USA","to_stop_lon":"-112.0010501","to_stop":{"id":"7643","name":"origin","lat":"40.6916132","placename":"West Valley City, UT, USA","lon":"-112.0010501"},"from_stop":{"name":"origin","id":"7662","lat":"43.4665808","lon":"-112.0341374","placename":"Idaho Falls, ID, USA"}},{"transport_id":"17","id":"5192","transport_name":"None Selected","transport_description":null,"transport_unit":"kg km","transport_co2_eq":"0.000000","from_stop_id":"7663","from_stop_lat":"43.5867164","from_stop_lon":"-116.1956556","to_stop_id":"7643","to_stop_name":"origin","to_stop_lat":"40.6916132","placename":"Boise, ID, USA","to_stop_lon":"-112.0010501","to_stop":{"id":"7643","name":"origin","lat":"40.6916132","placename":"West Valley City, UT, USA","lon":"-112.0010501"},"from_stop":{"name":"origin","id":"7663","lat":"43.5867164","lon":"-116.1956556","placename":"Boise, ID, USA"}},{"transport_id":"17","id":"5193","transport_name":"None Selected","transport_description":null,"transport_unit":"kg km","transport_co2_eq":"0.000000","from_stop_id":"7664","from_stop_lat":"40.8324211","from_stop_lon":"-115.7631232","to_stop_id":"7643","to_stop_name":"origin","to_stop_lat":"40.6916132","placename":"Elko, NV, USA","to_stop_lon":"-112.0010501","to_stop":{"id":"7643","name":"origin","lat":"40.6916132","placename":"West Valley City, UT, USA","lon":"-112.0010501"},"from_stop":{"name":"origin","id":"7664","lat":"40.8324211","lon":"-115.7631232","placename":"Elko, NV, USA"}},{"transport_id":"17","id":"5194","transport_name":"None Selected","transport_description":null,"transport_unit":"kg km","transport_co2_eq":"0.000000","from_stop_id":"7665","from_stop_lat":"41.1399814","from_stop_lon":"-104.8202462","to_stop_id":"7643","to_stop_name":"origin","to_stop_lat":"40.6916132","placename":"Cheyenne, WY, USA","to_stop_lon":"-112.0010501","to_stop":{"id":"7643","name":"origin","lat":"40.6916132","placename":"West Valley City, UT, USA","lon":"-112.0010501"},"from_stop":{"name":"origin","id":"7665","lat":"41.1399814","lon":"-104.8202462","placename":"Cheyenne, WY, USA"}},{"transport_id":"17","id":"5195","transport_name":"None Selected","transport_description":null,"transport_unit":"kg km","transport_co2_eq":"0.000000","from_stop_id":"7666","from_stop_lat":"46.4165506","from_stop_lon":"-117.0176569","to_stop_id":"7643","to_stop_name":"origin","to_stop_lat":"40.6916132","placename":"Lewiston, ID, USA","to_stop_lon":"-112.0010501","to_stop":{"id":"7643","name":"origin","lat":"40.6916132","placename":"West Valley City, UT, USA","lon":"-112.0010501"},"from_stop":{"name":"origin","id":"7666","lat":"46.4165506","lon":"-117.0176569","placename":"Lewiston, ID, USA"}}],"outgoing":[]}}},"parts":[{"oid":"24","imid":"62","linkid":"0","weight":"0","rawemissions":"0","emissions":"0","shipping":"12.06","processemissions":"0","endoflifeemissions":"0","disposaltype":null,"disposalenergy":null,"disposalimpact":null,"disposalemissions":null,"description":"Water is collected from Salt Lake City's municipal water supply.  It is then piped to the bottling plant nearby.","name":"Water","id":"62","stops":{"origin":{"related_to":"62","part_or_object":"p","notes":null,"placename":"Salt Lake City, UT, USA","id":7644,"name":"origin","lat":"40.7607793","lon":"-111.8910474","hops":{"incoming":[],"outgoing":[{"transport_id":"17","id":"5173","transport_name":"None Selected","transport_description":null,"transport_unit":"kg km","transport_co2_eq":"0.000000","from_stop_id":"7644","from_stop_lat":"40.7607793","from_stop_lon":"-111.8910474","from_stop_placename":"Salt Lake City, UT, USA","to_stop_id":"7643","to_stop_name":"origin","to_stop_lat":"40.6916132","to_stop_lon":"-112.0010501","to_stop_placename":"West Valley City, UT, USA","to_stop":{"id":"7643","name":"origin","lat":"40.6916132","lon":"-112.0010501","placename":"West Valley City, UT, USA"},"from_stop":{"name":"origin","id":"7644","lat":"40.7607793","lon":"-111.8910474","placename":"Salt Lake City, UT, USA"}}]}}},"processes":[],"eols":[]},{"oid":"24","imid":"73","linkid":"0","weight":"0","rawemissions":"0","emissions":"0","shipping":"0","processemissions":"0","endoflifeemissions":"0","disposaltype":null,"disposalenergy":null,"disposalimpact":null,"disposalemissions":null,"description":"One of two production centers owned by Swire Coca-Cola, the water is bottled here and then sent to distribution offices in the surrounding area.\n","name":"Bonneville Production Center of Utah","id":"73","stops":{"origin":{"related_to":"73","part_or_object":"p","notes":null,"placename":"West Valley City, UT, USA","id":7645,"name":"origin","lat":"40.6916132","lon":"-112.0010501","hops":{"incoming":[],"outgoing":[{"transport_id":"17","id":"5174","transport_name":"None Selected","transport_description":null,"transport_unit":"kg km","transport_co2_eq":"0.000000","from_stop_id":"7645","from_stop_lat":"40.6916132","from_stop_lon":"-112.0010501","from_stop_placename":"West Valley City, UT, USA","to_stop_id":"7643","to_stop_name":"origin","to_stop_lat":"40.6916132","to_stop_lon":"-112.0010501","to_stop_placename":"West Valley City, UT, USA","to_stop":{"id":"7643","name":"origin","lat":"40.6916132","lon":"-112.0010501","placename":"West Valley City, UT, USA"},"from_stop":{"name":"origin","id":"7645","lat":"40.6916132","lon":"-112.0010501","placename":"West Valley City, UT, USA"}}]}}},"processes":[],"eols":[]},{"oid":"24","imid":"74","linkid":"0","weight":"0","rawemissions":"0","emissions":"0","shipping":"547.36","processemissions":"0","endoflifeemissions":"0","disposaltype":null,"disposalenergy":null,"disposalimpact":null,"disposalemissions":null,"description":"One of two production centers owned by Swire Coca-Cola, the water is bottled here and then sent to distribution offices in the surrounding area.\n","name":"Bonneville Production Center of Idaho","id":"74","stops":{"origin":{"related_to":"74","part_or_object":"p","notes":null,"placename":"Fruitland, ID, USA","id":7646,"name":"origin","lat":"44.0076639","lon":"-116.9165461","hops":{"incoming":[],"outgoing":[{"transport_id":"17","id":"5175","transport_name":"None Selected","transport_description":null,"transport_unit":"kg km","transport_co2_eq":"0.000000","from_stop_id":"7646","from_stop_lat":"44.0076639","from_stop_lon":"-116.9165461","from_stop_placename":"Fruitland, ID, USA","to_stop_id":"7643","to_stop_name":"origin","to_stop_lat":"40.6916132","to_stop_lon":"-112.0010501","to_stop_placename":"West Valley City, UT, USA","to_stop":{"id":"7643","name":"origin","lat":"40.6916132","lon":"-112.0010501","placename":"West Valley City, UT, USA"},"from_stop":{"name":"origin","id":"7646","lat":"44.0076639","lon":"-116.9165461","placename":"Fruitland, ID, USA"}}]}}},"processes":[],"eols":[]},{"oid":"24","imid":"75","linkid":"0","weight":"0","rawemissions":"0","emissions":"0","shipping":"21.91","processemissions":"0","endoflifeemissions":"0","disposaltype":null,"disposalenergy":null,"disposalimpact":null,"disposalemissions":null,"description":"One of 27 distribution offices owned by Swire Coca-Cola, from here the Dasani water will be delivered to grocery stores, gas stations, and vending machines","name":"Swire Coca-Cola Bottling Co.","id":"75","stops":{"origin":{"related_to":"75","part_or_object":"p","notes":null,"placename":"Draper, UT, USA","id":7647,"name":"origin","lat":"40.5246711","lon":"-111.8638226","hops":{"incoming":[],"outgoing":[{"transport_id":"17","id":"5176","transport_name":"None Selected","transport_description":null,"transport_unit":"kg km","transport_co2_eq":"0.000000","from_stop_id":"7647","from_stop_lat":"40.5246711","from_stop_lon":"-111.8638226","from_stop_placename":"Draper, UT, USA","to_stop_id":"7643","to_stop_name":"origin","to_stop_lat":"40.6916132","to_stop_lon":"-112.0010501","to_stop_placename":"West Valley City, UT, USA","to_stop":{"id":"7643","name":"origin","lat":"40.6916132","lon":"-112.0010501","placename":"West Valley City, UT, USA"},"from_stop":{"name":"origin","id":"7647","lat":"40.5246711","lon":"-111.8638226","placename":"Draper, UT, USA"}}]}}},"processes":[],"eols":[]},{"oid":"24","imid":"76","linkid":"0","weight":"0","rawemissions":"0","emissions":"0","shipping":"59.2","processemissions":"0","endoflifeemissions":"0","disposaltype":null,"disposalenergy":null,"disposalimpact":null,"disposalemissions":null,"description":"One of 27 distribution offices owned by Swire Coca-Cola, from here the Dasani water will be delivered to grocery stores, gas stations, and vending machines","name":"Swire Coca-Cola Bottling Co.","id":"76","stops":{"origin":{"related_to":"76","part_or_object":"p","notes":null,"placename":"Ogden, UT, USA","id":7648,"name":"origin","lat":"41.223","lon":"-111.9738304","hops":{"incoming":[],"outgoing":[{"transport_id":"17","id":"5177","transport_name":"None Selected","transport_description":null,"transport_unit":"kg km","transport_co2_eq":"0.000000","from_stop_id":"7648","from_stop_lat":"41.223","from_stop_lon":"-111.9738304","from_stop_placename":"Ogden, UT, USA","to_stop_id":"7643","to_stop_name":"origin","to_stop_lat":"40.6916132","to_stop_lon":"-112.0010501","to_stop_placename":"West Valley City, UT, USA","to_stop":{"id":"7643","name":"origin","lat":"40.6916132","lon":"-112.0010501","placename":"West Valley City, UT, USA"},"from_stop":{"name":"origin","id":"7648","lat":"41.223","lon":"-111.9738304","placename":"Ogden, UT, USA"}}]}}},"processes":[],"eols":[]},{"oid":"24","imid":"77","linkid":"0","weight":"0","rawemissions":"0","emissions":"0","shipping":"117.04","processemissions":"0","endoflifeemissions":"0","disposaltype":null,"disposalenergy":null,"disposalimpact":null,"disposalemissions":null,"description":"One of 27 distribution offices owned by Swire Coca-Cola, from here the Dasani water will be delivered to grocery stores, gas stations, and vending machines","name":"Swire Coca-Cola Bottling Co.","id":"77","stops":{"origin":{"related_to":"77","part_or_object":"p","notes":null,"placename":"Logan, UT, USA","id":7649,"name":"origin","lat":"41.7354861","lon":"-111.834388","hops":{"incoming":[],"outgoing":[{"transport_id":"17","id":"5178","transport_name":"None Selected","transport_description":null,"transport_unit":"kg km","transport_co2_eq":"0.000000","from_stop_id":"7649","from_stop_lat":"41.7354861","from_stop_lon":"-111.834388","from_stop_placename":"Logan, UT, USA","to_stop_id":"7643","to_stop_name":"origin","to_stop_lat":"40.6916132","to_stop_lon":"-112.0010501","to_stop_placename":"West Valley City, UT, USA","to_stop":{"id":"7643","name":"origin","lat":"40.6916132","lon":"-112.0010501","placename":"West Valley City, UT, USA"},"from_stop":{"name":"origin","id":"7649","lat":"41.7354861","lon":"-111.834388","placename":"Logan, UT, USA"}}]}}},"processes":[],"eols":[]},{"oid":"24","imid":"78","linkid":"0","weight":"0","rawemissions":"0","emissions":"0","shipping":"245.43","processemissions":"0","endoflifeemissions":"0","disposaltype":null,"disposalenergy":null,"disposalimpact":null,"disposalemissions":null,"description":"One of 27 distribution offices owned by Swire Coca-Cola, from here the Dasani water will be delivered to grocery stores, gas stations, and vending machines","name":"Swire Coca-Cola Bottling Co.","id":"78","stops":{"origin":{"related_to":"78","part_or_object":"p","notes":null,"placename":"Pocatello, ID, USA","id":7650,"name":"origin","lat":"42.8713032","lon":"-112.4455344","hops":{"incoming":[],"outgoing":[{"transport_id":"17","id":"5179","transport_name":"None Selected","transport_description":null,"transport_unit":"kg km","transport_co2_eq":"0.000000","from_stop_id":"7650","from_stop_lat":"42.8713032","from_stop_lon":"-112.4455344","from_stop_placename":"Pocatello, ID, USA","to_stop_id":"7643","to_stop_name":"origin","to_stop_lat":"40.6916132","to_stop_lon":"-112.0010501","to_stop_placename":"West Valley City, UT, USA","to_stop":{"id":"7643","name":"origin","lat":"40.6916132","lon":"-112.0010501","placename":"West Valley City, UT, USA"},"from_stop":{"name":"origin","id":"7650","lat":"42.8713032","lon":"-112.4455344","placename":"Pocatello, ID, USA"}}]}}},"processes":[],"eols":[]},{"oid":"24","imid":"72","linkid":"0","weight":"0","rawemissions":"0","emissions":"0","shipping":"417.78","processemissions":"0","endoflifeemissions":"0","disposaltype":null,"disposalenergy":null,"disposalimpact":null,"disposalemissions":null,"description":"One of 27 distribution offices owned by Swire Coca-Cola, from here the Dasani water will be delivered to grocery stores, gas stations, and vending machines","name":"Swire Coca-Cola Bottling Co.","id":"72","stops":{"origin":{"related_to":"72","part_or_object":"p","notes":null,"placename":"Glenwood Springs, CO 81601, USA","id":7660,"name":"origin","lat":"39.5505376","lon":"-107.3247762","hops":{"incoming":[],"outgoing":[{"transport_id":"17","id":"5189","transport_name":"None Selected","transport_description":null,"transport_unit":"kg km","transport_co2_eq":"0.000000","from_stop_id":"7660","from_stop_lat":"39.5505376","from_stop_lon":"-107.3247762","from_stop_placename":"Glenwood Springs, CO 81601, USA","to_stop_id":"7643","to_stop_name":"origin","to_stop_lat":"40.6916132","to_stop_lon":"-112.0010501","to_stop_placename":"West Valley City, UT, USA","to_stop":{"id":"7643","name":"origin","lat":"40.6916132","lon":"-112.0010501","placename":"West Valley City, UT, USA"},"from_stop":{"name":"origin","id":"7660","lat":"39.5505376","lon":"-107.3247762","placename":"Glenwood Springs, CO 81601, USA"}}]}}},"processes":[],"eols":[]},{"oid":"24","imid":"79","linkid":"0","weight":"0","rawemissions":"0","emissions":"0","shipping":"292.02","processemissions":"0","endoflifeemissions":"0","disposaltype":null,"disposalenergy":null,"disposalimpact":null,"disposalemissions":null,"description":"One of 27 distribution offices owned by Swire Coca-Cola, from here the Dasani water will be delivered to grocery stores, gas stations, and vending machines","name":"Swire Coca-Cola Bottling Co.","id":"79","stops":{"origin":{"related_to":"79","part_or_object":"p","notes":null,"placename":"Twin Falls, ID, USA","id":7661,"name":"origin","lat":"42.5629668","lon":"-114.4608711","hops":{"incoming":[],"outgoing":[{"transport_id":"17","id":"5190","transport_name":"None Selected","transport_description":null,"transport_unit":"kg km","transport_co2_eq":"0.000000","from_stop_id":"7661","from_stop_lat":"42.5629668","from_stop_lon":"-114.4608711","from_stop_placename":"Twin Falls, ID, USA","to_stop_id":"7643","to_stop_name":"origin","to_stop_lat":"40.6916132","to_stop_lon":"-112.0010501","to_stop_placename":"West Valley City, UT, USA","to_stop":{"id":"7643","name":"origin","lat":"40.6916132","lon":"-112.0010501","placename":"West Valley City, UT, USA"},"from_stop":{"name":"origin","id":"7661","lat":"42.5629668","lon":"-114.4608711","placename":"Twin Falls, ID, USA"}}]}}},"processes":[],"eols":[]},{"oid":"24","imid":"80","linkid":"0","weight":"0","rawemissions":"0","emissions":"0","shipping":"308.92","processemissions":"0","endoflifeemissions":"0","disposaltype":null,"disposalenergy":null,"disposalimpact":null,"disposalemissions":null,"description":"One of 27 distribution offices owned by Swire Coca-Cola, from here the Dasani water will be delivered to grocery stores, gas stations, and vending machines","name":"Swire Coca-Cola Bottling Co.","id":"80","stops":{"origin":{"related_to":"80","part_or_object":"p","notes":null,"placename":"Idaho Falls, ID, USA","id":7662,"name":"origin","lat":"43.4665808","lon":"-112.0341374","hops":{"incoming":[],"outgoing":[{"transport_id":"17","id":"5191","transport_name":"None Selected","transport_description":null,"transport_unit":"kg km","transport_co2_eq":"0.000000","from_stop_id":"7662","from_stop_lat":"43.4665808","from_stop_lon":"-112.0341374","from_stop_placename":"Idaho Falls, ID, USA","to_stop_id":"7643","to_stop_name":"origin","to_stop_lat":"40.6916132","to_stop_lon":"-112.0010501","to_stop_placename":"West Valley City, UT, USA","to_stop":{"id":"7643","name":"origin","lat":"40.6916132","lon":"-112.0010501","placename":"West Valley City, UT, USA"},"from_stop":{"name":"origin","id":"7662","lat":"43.4665808","lon":"-112.0341374","placename":"Idaho Falls, ID, USA"}}]}}},"processes":[],"eols":[]},{"oid":"24","imid":"63","linkid":"0","weight":"0","rawemissions":"0","emissions":"0","shipping":"213.76","processemissions":"0","endoflifeemissions":"0","disposaltype":null,"disposalenergy":null,"disposalimpact":null,"disposalemissions":null,"description":"One of 27 distribution offices owned by Swire Coca-Cola, from here the Dasani water will be delivered to grocery stores, gas stations, and vending machines","name":"Swire Coca-Cola Bottling Co.","id":"63","stops":{"origin":{"related_to":"63","part_or_object":"p","notes":null,"placename":"Richfield, UT 84701, USA","id":7651,"name":"origin","lat":"38.7724673","lon":"-112.0840943","hops":{"incoming":[],"outgoing":[{"transport_id":"17","id":"5180","transport_name":"None Selected","transport_description":null,"transport_unit":"kg km","transport_co2_eq":"0.000000","from_stop_id":"7651","from_stop_lat":"38.7724673","from_stop_lon":"-112.0840943","from_stop_placename":"Richfield, UT 84701, USA","to_stop_id":"7643","to_stop_name":"origin","to_stop_lat":"40.6916132","to_stop_lon":"-112.0010501","to_stop_placename":"West Valley City, UT, USA","to_stop":{"id":"7643","name":"origin","lat":"40.6916132","lon":"-112.0010501","placename":"West Valley City, UT, USA"},"from_stop":{"name":"origin","id":"7651","lat":"38.7724673","lon":"-112.0840943","placename":"Richfield, UT 84701, USA"}}]}}},"processes":[],"eols":[]},{"oid":"24","imid":"64","linkid":"0","weight":"0","rawemissions":"0","emissions":"0","shipping":"158.24","processemissions":"0","endoflifeemissions":"0","disposaltype":null,"disposalenergy":null,"disposalimpact":null,"disposalemissions":null,"description":"Water is shipped from the production plant in Salt Lake City, where it is bottled, and then delivered to smaller distribution offices.","name":"Swire Coca-Cola Bottling Co.","id":"64","stops":{"origin":{"related_to":"64","part_or_object":"p","notes":null,"placename":"Price, UT 84501, USA","id":7652,"name":"origin","lat":"39.5994095","lon":"-110.8107148","hops":{"incoming":[],"outgoing":[{"transport_id":"17","id":"5181","transport_name":"None Selected","transport_description":null,"transport_unit":"kg km","transport_co2_eq":"0.000000","from_stop_id":"7652","from_stop_lat":"39.5994095","from_stop_lon":"-110.8107148","from_stop_placename":"Price, UT 84501, USA","to_stop_id":"7643","to_stop_name":"origin","to_stop_lat":"40.6916132","to_stop_lon":"-112.0010501","to_stop_placename":"West Valley City, UT, USA","to_stop":{"id":"7643","name":"origin","lat":"40.6916132","lon":"-112.0010501","placename":"West Valley City, UT, USA"},"from_stop":{"name":"origin","id":"7652","lat":"39.5994095","lon":"-110.8107148","placename":"Price, UT 84501, USA"}}]}}},"processes":[],"eols":[]},{"oid":"24","imid":"65","linkid":"0","weight":"0","rawemissions":"0","emissions":"0","shipping":"638.38","processemissions":"0","endoflifeemissions":"0","disposaltype":null,"disposalenergy":null,"disposalimpact":null,"disposalemissions":null,"description":"One of 27 distribution offices owned by Swire Coca-Cola, from here the Dasani water will be delivered to grocery stores, gas stations, and vending machines.","name":"Swire Coca-Cola Bottling Co.","id":"65","stops":{"origin":{"related_to":"65","part_or_object":"p","notes":null,"placename":"Kingman, AZ, USA","id":7653,"name":"origin","lat":"35.189443","lon":"-114.0530065","hops":{"incoming":[],"outgoing":[{"transport_id":"17","id":"5182","transport_name":"None Selected","transport_description":null,"transport_unit":"kg km","transport_co2_eq":"0.000000","from_stop_id":"7653","from_stop_lat":"35.189443","from_stop_lon":"-114.0530065","from_stop_placename":"Kingman, AZ, USA","to_stop_id":"7643","to_stop_name":"origin","to_stop_lat":"40.6916132","to_stop_lon":"-112.0010501","to_stop_placename":"West Valley City, UT, USA","to_stop":{"id":"7643","name":"origin","lat":"40.6916132","lon":"-112.0010501","placename":"West Valley City, UT, USA"},"from_stop":{"name":"origin","id":"7653","lat":"35.189443","lon":"-114.0530065","placename":"Kingman, AZ, USA"}}]}}},"processes":[],"eols":[]},{"oid":"24","imid":"66","linkid":"0","weight":"0","rawemissions":"0","emissions":"0","shipping":"898.21","processemissions":"0","endoflifeemissions":"0","disposaltype":null,"disposalenergy":null,"disposalimpact":null,"disposalemissions":null,"description":"One of 27 distribution offices owned by Swire Coca-Cola, from here the Dasani water will be delivered to grocery stores, gas stations, and vending machines","name":"Swire Coca-Cola Bottling Co.","id":"66","stops":{"origin":{"related_to":"66","part_or_object":"p","notes":null,"placename":"Safford, AZ, USA","id":7654,"name":"origin","lat":"32.8339546","lon":"-109.70758","hops":{"incoming":[],"outgoing":[{"transport_id":"17","id":"5183","transport_name":"None Selected","transport_description":null,"transport_unit":"kg km","transport_co2_eq":"0.000000","from_stop_id":"7654","from_stop_lat":"32.8339546","from_stop_lon":"-109.70758","from_stop_placename":"Safford, AZ, USA","to_stop_id":"7643","to_stop_name":"origin","to_stop_lat":"40.6916132","to_stop_lon":"-112.0010501","to_stop_placename":"West Valley City, UT, USA","to_stop":{"id":"7643","name":"origin","lat":"40.6916132","lon":"-112.0010501","placename":"West Valley City, UT, USA"},"from_stop":{"name":"origin","id":"7654","lat":"32.8339546","lon":"-109.70758","placename":"Safford, AZ, USA"}}]}}},"processes":[],"eols":[]},{"oid":"24","imid":"67","linkid":"0","weight":"0","rawemissions":"0","emissions":"0","shipping":"737.41","processemissions":"0","endoflifeemissions":"0","disposaltype":null,"disposalenergy":null,"disposalimpact":null,"disposalemissions":null,"description":"One of 27 distribution offices owned by Swire Coca-Cola, from here the Dasani water will be delivered to grocery stores, gas stations, and vending machines","name":"Swire Coca-Cola Bottling Co.","id":"67","stops":{"origin":{"related_to":"67","part_or_object":"p","notes":null,"placename":"Show Low, AZ, USA","id":7655,"name":"origin","lat":"34.2542084","lon":"-110.0298327","hops":{"incoming":[],"outgoing":[{"transport_id":"17","id":"5184","transport_name":"None Selected","transport_description":null,"transport_unit":"kg km","transport_co2_eq":"0.000000","from_stop_id":"7655","from_stop_lat":"34.2542084","from_stop_lon":"-110.0298327","from_stop_placename":"Show Low, AZ, USA","to_stop_id":"7643","to_stop_name":"origin","to_stop_lat":"40.6916132","to_stop_lon":"-112.0010501","to_stop_placename":"West Valley City, UT, USA","to_stop":{"id":"7643","name":"origin","lat":"40.6916132","lon":"-112.0010501","placename":"West Valley City, UT, USA"},"from_stop":{"name":"origin","id":"7655","lat":"34.2542084","lon":"-110.0298327","placename":"Show Low, AZ, USA"}}]}}},"processes":[],"eols":[]},{"oid":"24","imid":"68","linkid":"0","weight":"0","rawemissions":"0","emissions":"0","shipping":"612","processemissions":"0","endoflifeemissions":"0","disposaltype":null,"disposalenergy":null,"disposalimpact":null,"disposalemissions":null,"description":"One of 27 distribution offices owned by Swire Coca-Cola, from here the Dasani water will be delivered to grocery stores, gas stations, and vending machines","name":"Swire Coca-Cola Bottling Co","id":"68","stops":{"origin":{"related_to":"68","part_or_object":"p","notes":null,"placename":"Flagstaff, AZ, USA","id":7656,"name":"origin","lat":"35.2013516","lon":"-111.639249","hops":{"incoming":[],"outgoing":[{"transport_id":"17","id":"5185","transport_name":"None Selected","transport_description":null,"transport_unit":"kg km","transport_co2_eq":"0.000000","from_stop_id":"7656","from_stop_lat":"35.2013516","from_stop_lon":"-111.639249","from_stop_placename":"Flagstaff, AZ, USA","to_stop_id":"7643","to_stop_name":"origin","to_stop_lat":"40.6916132","to_stop_lon":"-112.0010501","to_stop_placename":"West Valley City, UT, USA","to_stop":{"id":"7643","name":"origin","lat":"40.6916132","lon":"-112.0010501","placename":"West Valley City, UT, USA"},"from_stop":{"name":"origin","id":"7656","lat":"35.2013516","lon":"-111.639249","placename":"Flagstaff, AZ, USA"}}]}}},"processes":[],"eols":[]},{"oid":"24","imid":"69","linkid":"0","weight":"0","rawemissions":"0","emissions":"0","shipping":"548.29","processemissions":"0","endoflifeemissions":"0","disposaltype":null,"disposalenergy":null,"disposalimpact":null,"disposalemissions":null,"description":"One of 27 distribution offices owned by Swire Coca-Cola, from here the Dasani water will be delivered to grocery stores, gas stations, and vending machines","name":"Swire Coca-Cola Bottling Co.","id":"69","stops":{"origin":{"related_to":"69","part_or_object":"p","notes":null,"placename":"Chinle, AZ 86503, USA","id":7657,"name":"origin","lat":"36.1544483","lon":"-109.5526072","hops":{"incoming":[],"outgoing":[{"transport_id":"17","id":"5186","transport_name":"None Selected","transport_description":null,"transport_unit":"kg km","transport_co2_eq":"0.000000","from_stop_id":"7657","from_stop_lat":"36.1544483","from_stop_lon":"-109.5526072","from_stop_placename":"Chinle, AZ 86503, USA","to_stop_id":"7643","to_stop_name":"origin","to_stop_lat":"40.6916132","to_stop_lon":"-112.0010501","to_stop_placename":"West Valley City, UT, USA","to_stop":{"id":"7643","name":"origin","lat":"40.6916132","lon":"-112.0010501","placename":"West Valley City, UT, USA"},"from_stop":{"name":"origin","id":"7657","lat":"36.1544483","lon":"-109.5526072","placename":"Chinle, AZ 86503, USA"}}]}}},"processes":[],"eols":[]},{"oid":"24","imid":"70","linkid":"0","weight":"0","rawemissions":"0","emissions":"0","shipping":"639.55","processemissions":"0","endoflifeemissions":"0","disposaltype":null,"disposalenergy":null,"disposalimpact":null,"disposalemissions":null,"description":"One of 27 distribution offices owned by Swire Coca-Cola, from here the Dasani water will be delivered to grocery stores, gas stations, and vending machines","name":"Swire Coca-Cola Bottling Co.","id":"70","stops":{"origin":{"related_to":"70","part_or_object":"p","notes":null,"placename":"Alamosa, CO 81101, USA","id":7658,"name":"origin","lat":"37.4694491","lon":"-105.8700214","hops":{"incoming":[],"outgoing":[{"transport_id":"17","id":"5187","transport_name":"None Selected","transport_description":null,"transport_unit":"kg km","transport_co2_eq":"0.000000","from_stop_id":"7658","from_stop_lat":"37.4694491","from_stop_lon":"-105.8700214","from_stop_placename":"Alamosa, CO 81101, USA","to_stop_id":"7643","to_stop_name":"origin","to_stop_lat":"40.6916132","to_stop_lon":"-112.0010501","to_stop_placename":"West Valley City, UT, USA","to_stop":{"id":"7643","name":"origin","lat":"40.6916132","lon":"-112.0010501","placename":"West Valley City, UT, USA"},"from_stop":{"name":"origin","id":"7658","lat":"37.4694491","lon":"-105.8700214","placename":"Alamosa, CO 81101, USA"}}]}}},"processes":[],"eols":[]},{"oid":"24","imid":"71","linkid":"0","weight":"0","rawemissions":"0","emissions":"0","shipping":"345.96","processemissions":"0","endoflifeemissions":"0","disposaltype":null,"disposalenergy":null,"disposalimpact":null,"disposalemissions":null,"description":"One of 27 distribution offices owned by Swire Coca-Cola, from here the Dasani water will be delivered to grocery stores, gas stations, and vending machines","name":"Swire Coca-Cola Bottling Co.","id":"71","stops":{"origin":{"related_to":"71","part_or_object":"p","notes":null,"placename":"Grand Junction, CO, USA","id":7659,"name":"origin","lat":"39.0638705","lon":"-108.5506486","hops":{"incoming":[],"outgoing":[{"transport_id":"17","id":"5188","transport_name":"None Selected","transport_description":null,"transport_unit":"kg km","transport_co2_eq":"0.000000","from_stop_id":"7659","from_stop_lat":"39.0638705","from_stop_lon":"-108.5506486","from_stop_placename":"Grand Junction, CO, USA","to_stop_id":"7643","to_stop_name":"origin","to_stop_lat":"40.6916132","to_stop_lon":"-112.0010501","to_stop_placename":"West Valley City, UT, USA","to_stop":{"id":"7643","name":"origin","lat":"40.6916132","lon":"-112.0010501","placename":"West Valley City, UT, USA"},"from_stop":{"name":"origin","id":"7659","lat":"39.0638705","lon":"-108.5506486","placename":"Grand Junction, CO, USA"}}]}}},"processes":[],"eols":[]},{"oid":"24","imid":"81","linkid":"0","weight":"0","rawemissions":"0","emissions":"0","shipping":"472.9","processemissions":"0","endoflifeemissions":"0","disposaltype":null,"disposalenergy":null,"disposalimpact":null,"disposalemissions":null,"description":"One of 27 distribution offices owned by Swire Coca-Cola, from here the Dasani water will be delivered to grocery stores, gas stations, and vending machines","name":"Swire Coca-Cola Bottling Co.","id":"81","stops":{"origin":{"related_to":"81","part_or_object":"p","notes":null,"placename":"Boise, ID, USA","id":7663,"name":"origin","lat":"43.5867164","lon":"-116.1956556","hops":{"incoming":[],"outgoing":[{"transport_id":"17","id":"5192","transport_name":"None Selected","transport_description":null,"transport_unit":"kg km","transport_co2_eq":"0.000000","from_stop_id":"7663","from_stop_lat":"43.5867164","from_stop_lon":"-116.1956556","from_stop_placename":"Boise, ID, USA","to_stop_id":"7643","to_stop_name":"origin","to_stop_lat":"40.6916132","to_stop_lon":"-112.0010501","to_stop_placename":"West Valley City, UT, USA","to_stop":{"id":"7643","name":"origin","lat":"40.6916132","lon":"-112.0010501","placename":"West Valley City, UT, USA"},"from_stop":{"name":"origin","id":"7663","lat":"43.5867164","lon":"-116.1956556","placename":"Boise, ID, USA"}}]}}},"processes":[],"eols":[]},{"oid":"24","imid":"82","linkid":"0","weight":"0","rawemissions":"0","emissions":"0","shipping":"317.57","processemissions":"0","endoflifeemissions":"0","disposaltype":null,"disposalenergy":null,"disposalimpact":null,"disposalemissions":null,"description":"One of 27 distribution offices owned by Swire Coca-Cola, from here the Dasani water will be delivered to grocery stores, gas stations, and vending machines","name":"Swire Coca-Cola Bottling Co","id":"82","stops":{"origin":{"related_to":"82","part_or_object":"p","notes":null,"placename":"Elko, NV, USA","id":7664,"name":"origin","lat":"40.8324211","lon":"-115.7631232","hops":{"incoming":[],"outgoing":[{"transport_id":"17","id":"5193","transport_name":"None Selected","transport_description":null,"transport_unit":"kg km","transport_co2_eq":"0.000000","from_stop_id":"7664","from_stop_lat":"40.8324211","from_stop_lon":"-115.7631232","from_stop_placename":"Elko, NV, USA","to_stop_id":"7643","to_stop_name":"origin","to_stop_lat":"40.6916132","to_stop_lon":"-112.0010501","to_stop_placename":"West Valley City, UT, USA","to_stop":{"id":"7643","name":"origin","lat":"40.6916132","lon":"-112.0010501","placename":"West Valley City, UT, USA"},"from_stop":{"name":"origin","id":"7664","lat":"40.8324211","lon":"-115.7631232","placename":"Elko, NV, USA"}}]}}},"processes":[],"eols":[]},{"oid":"24","imid":"83","linkid":"0","weight":"0","rawemissions":"0","emissions":"0","shipping":"605.94","processemissions":"0","endoflifeemissions":"0","disposaltype":null,"disposalenergy":null,"disposalimpact":null,"disposalemissions":null,"description":"One of 27 distribution offices owned by Swire Coca-Cola, from here the Dasani water will be delivered to grocery stores, gas stations, and vending machines","name":"Swire Coca-Cola Bottling Co","id":"83","stops":{"origin":{"related_to":"83","part_or_object":"p","notes":null,"placename":"Cheyenne, WY, USA","id":7665,"name":"origin","lat":"41.1399814","lon":"-104.8202462","hops":{"incoming":[],"outgoing":[{"transport_id":"17","id":"5194","transport_name":"None Selected","transport_description":null,"transport_unit":"kg km","transport_co2_eq":"0.000000","from_stop_id":"7665","from_stop_lat":"41.1399814","from_stop_lon":"-104.8202462","from_stop_placename":"Cheyenne, WY, USA","to_stop_id":"7643","to_stop_name":"origin","to_stop_lat":"40.6916132","to_stop_lon":"-112.0010501","to_stop_placename":"West Valley City, UT, USA","to_stop":{"id":"7643","name":"origin","lat":"40.6916132","lon":"-112.0010501","placename":"West Valley City, UT, USA"},"from_stop":{"name":"origin","id":"7665","lat":"41.1399814","lon":"-104.8202462","placename":"Cheyenne, WY, USA"}}]}}},"processes":[],"eols":[]},{"oid":"24","imid":"84","linkid":"0","weight":"0","rawemissions":"0","emissions":"0","shipping":"754.58","processemissions":"0","endoflifeemissions":"0","disposaltype":null,"disposalenergy":null,"disposalimpact":null,"disposalemissions":null,"description":"One of 27 distribution offices owned by Swire Coca-Cola, from here the Dasani water will be delivered to grocery stores, gas stations, and vending machines","name":"Swire Coca-Cola Bottling Co","id":"84","stops":{"origin":{"related_to":"84","part_or_object":"p","notes":null,"placename":"Lewiston, ID, USA","id":7666,"name":"origin","lat":"46.4165506","lon":"-117.0176569","hops":{"incoming":[],"outgoing":[{"transport_id":"17","id":"5195","transport_name":"None Selected","transport_description":null,"transport_unit":"kg km","transport_co2_eq":"0.000000","from_stop_id":"7666","from_stop_lat":"46.4165506","from_stop_lon":"-117.0176569","from_stop_placename":"Lewiston, ID, USA","to_stop_id":"7643","to_stop_name":"origin","to_stop_lat":"40.6916132","to_stop_lon":"-112.0010501","to_stop_placename":"West Valley City, UT, USA","to_stop":{"id":"7643","name":"origin","lat":"40.6916132","lon":"-112.0010501","placename":"West Valley City, UT, USA"},"from_stop":{"name":"origin","id":"7666","lat":"46.4165506","lon":"-117.0176569","placename":"Lewiston, ID, USA"}}]}}},"processes":[],"eols":[]}],"user":{"name":"VictoriaEdwards","id":"11226"}}}