{"249":{"oid":"249","type":"trace","flag":"","creator":"11899","name":"REEP House material","upc":"","imagelink":"","description":"","slug":"REEP-House-material","category":"","weight":"0","emissions":"0","embodied":"0","transport":"0","process":null,"endoflife":null,"shipping":"13960.06","lifetime":null,"usagetype":"","usageenergy":null,"usageemissions":null,"timecreated":"2011-01-04 13:20:37","timemodified":"2011-01-05 10:26:35","visibility":"public","showfootprint":"on","showembodied":"on","showtransport":"on","showprocess":"on","showendoflife":"on","showlastleg":"on","showuse":"on","showstats":"on","stops":{"origin":{"related_to":"249","part_or_object":"o","notes":null,"placename":"20 Mill St, Kitchener, ON N2G 2Y2, Canada","id":"9303","category":"1","lat":"43.4441526","lon":"-80.4947028","name":"origin","hops":{"incoming":[{"transport_id":null,"id":"6541","transport_name":null,"transport_description":null,"transport_unit":null,"transport_co2_eq":null,"from_stop_id":"9304","from_stop_lat":"42.404804","from_stop_lon":"-82.191038","to_stop_id":"9303","to_stop_name":"origin","to_stop_lat":"43.4441526","placename":"\u67e5\u5854\u59c6, \u5b89\u5927\u7565\u7701, \u52a0\u62ff\u5927","to_stop_lon":"-80.4947028","to_stop":{"id":"9303","name":"origin","lat":"43.4441526","placename":"20 Mill St, Kitchener, ON N2G 2Y2, Canada","lon":"-80.4947028"},"from_stop":{"name":"origin","id":"9304","lat":"42.404804","lon":"-82.191038","placename":"\u67e5\u5854\u59c6, \u5b89\u5927\u7565\u7701, \u52a0\u62ff\u5927"}},{"transport_id":null,"id":"6542","transport_name":null,"transport_description":null,"transport_unit":null,"transport_co2_eq":null,"from_stop_id":"9305","from_stop_lat":"45.5088889","from_stop_lon":"-73.5541667","to_stop_id":"9303","to_stop_name":"origin","to_stop_lat":"43.4441526","placename":"\u8499\u7279\u5229\u5c14, \u9b41\u5317\u514b, \u52a0\u62ff\u5927","to_stop_lon":"-80.4947028","to_stop":{"id":"9303","name":"origin","lat":"43.4441526","placename":"20 Mill St, Kitchener, ON N2G 2Y2, Canada","lon":"-80.4947028"},"from_stop":{"name":"origin","id":"9305","lat":"45.5088889","lon":"-73.5541667","placename":"\u8499\u7279\u5229\u5c14, \u9b41\u5317\u514b, \u52a0\u62ff\u5927"}},{"transport_id":null,"id":"6543","transport_name":null,"transport_description":null,"transport_unit":null,"transport_co2_eq":null,"from_stop_id":"9306","from_stop_lat":"37.09024","from_stop_lon":"-95.712891","to_stop_id":"9303","to_stop_name":"origin","to_stop_lat":"43.4441526","placename":"\u7f8e\u56fd","to_stop_lon":"-80.4947028","to_stop":{"id":"9303","name":"origin","lat":"43.4441526","placename":"20 Mill St, Kitchener, ON N2G 2Y2, Canada","lon":"-80.4947028"},"from_stop":{"name":"origin","id":"9306","lat":"37.09024","lon":"-95.712891","placename":"\u7f8e\u56fd"}},{"transport_id":null,"id":"6544","transport_name":null,"transport_description":null,"transport_unit":null,"transport_co2_eq":null,"from_stop_id":"9307","from_stop_lat":"43.34917","from_stop_lon":"-80.536505","to_stop_id":"9303","to_stop_name":"origin","to_stop_lat":"43.4441526","placename":"\u65b0\u9093\u8fea, \u5b89\u5927\u7565\u7701 N0B, \u52a0\u62ff\u5927","to_stop_lon":"-80.4947028","to_stop":{"id":"9303","name":"origin","lat":"43.4441526","placename":"20 Mill St, Kitchener, ON N2G 2Y2, Canada","lon":"-80.4947028"},"from_stop":{"name":"origin","id":"9307","lat":"43.34917","lon":"-80.536505","placename":"\u65b0\u9093\u8fea, \u5b89\u5927\u7565\u7701 N0B, \u52a0\u62ff\u5927"}},{"transport_id":null,"id":"6545","transport_name":null,"transport_description":null,"transport_unit":null,"transport_co2_eq":null,"from_stop_id":"9308","from_stop_lat":"43.630802","from_stop_lon":"-79.5039342","to_stop_id":"9303","to_stop_name":"origin","to_stop_lat":"43.4441526","placename":"Etobiko","to_stop_lon":"-80.4947028","to_stop":{"id":"9303","name":"origin","lat":"43.4441526","placename":"20 Mill St, Kitchener, ON N2G 2Y2, Canada","lon":"-80.4947028"},"from_stop":{"name":"origin","id":"9308","lat":"43.630802","lon":"-79.5039342","placename":"Etobiko"}},{"transport_id":null,"id":"6546","transport_name":null,"transport_description":null,"transport_unit":null,"transport_co2_eq":null,"from_stop_id":"9309","from_stop_lat":"35.86166","from_stop_lon":"104.195397","to_stop_id":"9303","to_stop_name":"origin","to_stop_lat":"43.4441526","placename":"\u4e2d\u56fd","to_stop_lon":"-80.4947028","to_stop":{"id":"9303","name":"origin","lat":"43.4441526","placename":"20 Mill St, Kitchener, ON N2G 2Y2, Canada","lon":"-80.4947028"},"from_stop":{"name":"origin","id":"9309","lat":"35.86166","lon":"104.195397","placename":"\u4e2d\u56fd"}},{"transport_id":null,"id":"6547","transport_name":null,"transport_description":null,"transport_unit":null,"transport_co2_eq":null,"from_stop_id":"9310","from_stop_lat":"43.592231","from_stop_lon":"-80.561068","to_stop_id":"9303","to_stop_name":"origin","to_stop_lat":"43.4441526","placename":"\u57c3\u5c14\u8fc8\u62c9, \u5b89\u5927\u7565\u7701, \u52a0\u62ff\u5927","to_stop_lon":"-80.4947028","to_stop":{"id":"9303","name":"origin","lat":"43.4441526","placename":"20 Mill St, Kitchener, ON N2G 2Y2, Canada","lon":"-80.4947028"},"from_stop":{"name":"origin","id":"9310","lat":"43.592231","lon":"-80.561068","placename":"\u57c3\u5c14\u8fc8\u62c9, \u5b89\u5927\u7565\u7701, \u52a0\u62ff\u5927"}},{"transport_id":null,"id":"6548","transport_name":null,"transport_description":null,"transport_unit":null,"transport_co2_eq":null,"from_stop_id":"9311","from_stop_lat":"43.480926","from_stop_lon":"-80.537664","to_stop_id":"9303","to_stop_name":"origin","to_stop_lat":"43.4441526","placename":"\u6ed1\u94c1\u5362, \u5b89\u5927\u7565\u7701, \u52a0\u62ff\u5927","to_stop_lon":"-80.4947028","to_stop":{"id":"9303","name":"origin","lat":"43.4441526","placename":"20 Mill St, Kitchener, ON N2G 2Y2, Canada","lon":"-80.4947028"},"from_stop":{"name":"origin","id":"9311","lat":"43.480926","lon":"-80.537664","placename":"\u6ed1\u94c1\u5362, \u5b89\u5927\u7565\u7701, \u52a0\u62ff\u5927"}},{"transport_id":null,"id":"6549","transport_name":null,"transport_description":null,"transport_unit":null,"transport_co2_eq":null,"from_stop_id":"9312","from_stop_lat":"46.49","from_stop_lon":"-81.01","to_stop_id":"9303","to_stop_name":"origin","to_stop_lat":"43.4441526","placename":"\u8428\u5fb7\u4f2f\u91cc, \u5b89\u5927\u7565\u7701, \u52a0\u62ff\u5927","to_stop_lon":"-80.4947028","to_stop":{"id":"9303","name":"origin","lat":"43.4441526","placename":"20 Mill St, Kitchener, ON N2G 2Y2, Canada","lon":"-80.4947028"},"from_stop":{"name":"origin","id":"9312","lat":"46.49","lon":"-81.01","placename":"\u8428\u5fb7\u4f2f\u91cc, \u5b89\u5927\u7565\u7701, \u52a0\u62ff\u5927"}},{"transport_id":null,"id":"6550","transport_name":null,"transport_description":null,"transport_unit":null,"transport_co2_eq":null,"from_stop_id":"9313","from_stop_lat":"43.480926","from_stop_lon":"-80.537664","to_stop_id":"9303","to_stop_name":"origin","to_stop_lat":"43.4441526","placename":"\u6ed1\u94c1\u5362, \u5b89\u5927\u7565\u7701, \u52a0\u62ff\u5927","to_stop_lon":"-80.4947028","to_stop":{"id":"9303","name":"origin","lat":"43.4441526","placename":"20 Mill St, Kitchener, ON N2G 2Y2, Canada","lon":"-80.4947028"},"from_stop":{"name":"origin","id":"9313","lat":"43.480926","lon":"-80.537664","placename":"\u6ed1\u94c1\u5362, \u5b89\u5927\u7565\u7701, \u52a0\u62ff\u5927"}},{"transport_id":null,"id":"6551","transport_name":null,"transport_description":null,"transport_unit":null,"transport_co2_eq":null,"from_stop_id":"9314","from_stop_lat":"43.539102","from_stop_lon":"-80.247622","to_stop_id":"9303","to_stop_name":"origin","to_stop_lat":"43.4441526","placename":"\u8d35\u6e56, \u5b89\u5927\u7565\u7701, \u52a0\u62ff\u5927","to_stop_lon":"-80.4947028","to_stop":{"id":"9303","name":"origin","lat":"43.4441526","placename":"20 Mill St, Kitchener, ON N2G 2Y2, Canada","lon":"-80.4947028"},"from_stop":{"name":"origin","id":"9314","lat":"43.539102","lon":"-80.247622","placename":"\u8d35\u6e56, \u5b89\u5927\u7565\u7701, \u52a0\u62ff\u5927"}},{"transport_id":null,"id":"6552","transport_name":null,"transport_description":null,"transport_unit":null,"transport_co2_eq":null,"from_stop_id":"9315","from_stop_lat":"43.592231","from_stop_lon":"-80.561068","to_stop_id":"9303","to_stop_name":"origin","to_stop_lat":"43.4441526","placename":"\u57c3\u5c14\u8fc8\u62c9, \u5b89\u5927\u7565\u7701, \u52a0\u62ff\u5927","to_stop_lon":"-80.4947028","to_stop":{"id":"9303","name":"origin","lat":"43.4441526","placename":"20 Mill St, Kitchener, ON N2G 2Y2, Canada","lon":"-80.4947028"},"from_stop":{"name":"origin","id":"9315","lat":"43.592231","lon":"-80.561068","placename":"\u57c3\u5c14\u8fc8\u62c9, \u5b89\u5927\u7565\u7701, \u52a0\u62ff\u5927"}},{"transport_id":null,"id":"6553","transport_name":null,"transport_description":null,"transport_unit":null,"transport_co2_eq":null,"from_stop_id":"9318","from_stop_lat":"43.34917","from_stop_lon":"-80.536505","to_stop_id":"9303","to_stop_name":"origin","to_stop_lat":"43.4441526","placename":"\u65b0\u9093\u8fea, \u5b89\u5927\u7565\u7701 N0B, \u52a0\u62ff\u5927","to_stop_lon":"-80.4947028","to_stop":{"id":"9303","name":"origin","lat":"43.4441526","placename":"20 Mill St, Kitchener, ON N2G 2Y2, Canada","lon":"-80.4947028"},"from_stop":{"name":"origin","id":"9318","lat":"43.34917","lon":"-80.536505","placename":"\u65b0\u9093\u8fea, \u5b89\u5927\u7565\u7701 N0B, \u52a0\u62ff\u5927"}},{"transport_id":null,"id":"6554","transport_name":null,"transport_description":null,"transport_unit":null,"transport_co2_eq":null,"from_stop_id":"9322","from_stop_lat":"43.434311","from_stop_lon":"-80.477747","to_stop_id":"9303","to_stop_name":"origin","to_stop_lat":"43.4441526","placename":"\u57fa\u79e6\u62ff, \u5b89\u5927\u7565\u7701, \u52a0\u62ff\u5927","to_stop_lon":"-80.4947028","to_stop":{"id":"9303","name":"origin","lat":"43.4441526","placename":"20 Mill St, Kitchener, ON N2G 2Y2, Canada","lon":"-80.4947028"},"from_stop":{"name":"origin","id":"9322","lat":"43.434311","lon":"-80.477747","placename":"\u57fa\u79e6\u62ff, \u5b89\u5927\u7565\u7701, \u52a0\u62ff\u5927"}}],"outgoing":[]}}},"parts":[{"oid":"249","imid":"5514","linkid":"0","weight":"0","rawemissions":"0","emissions":"0","shipping":"180.29","processemissions":"0","endoflifeemissions":"0","disposaltype":null,"disposalenergy":null,"disposalimpact":null,"disposalemissions":null,"description":"","name":"roofing","id":"5514","stops":{"origin":{"related_to":"5514","part_or_object":"p","notes":null,"placename":"\u67e5\u5854\u59c6, \u5b89\u5927\u7565\u7701, \u52a0\u62ff\u5927","id":9304,"name":"origin","lat":"42.404804","lon":"-82.191038","hops":{"incoming":[],"outgoing":[{"transport_id":null,"id":"6541","transport_name":null,"transport_description":null,"transport_unit":null,"transport_co2_eq":null,"from_stop_id":"9304","from_stop_lat":"42.404804","from_stop_lon":"-82.191038","from_stop_placename":"\u67e5\u5854\u59c6, \u5b89\u5927\u7565\u7701, \u52a0\u62ff\u5927","to_stop_id":"9303","to_stop_name":"origin","to_stop_lat":"43.4441526","to_stop_lon":"-80.4947028","to_stop_placename":"20 Mill St, Kitchener, ON N2G 2Y2, Canada","to_stop":{"id":"9303","name":"origin","lat":"43.4441526","lon":"-80.4947028","placename":"20 Mill St, Kitchener, ON N2G 2Y2, Canada"},"from_stop":{"name":"origin","id":"9304","lat":"42.404804","lon":"-82.191038","placename":"\u67e5\u5854\u59c6, \u5b89\u5927\u7565\u7701, \u52a0\u62ff\u5927"}}]}}},"processes":[],"eols":[]},{"oid":"249","imid":"5515","linkid":"0","weight":"0","rawemissions":"0","emissions":"0","shipping":"597.03","processemissions":"0","endoflifeemissions":"0","disposaltype":null,"disposalenergy":null,"disposalimpact":null,"disposalemissions":null,"description":"","name":"insulation","id":"5515","stops":{"origin":{"related_to":"5515","part_or_object":"p","notes":null,"placename":"\u8499\u7279\u5229\u5c14, \u9b41\u5317\u514b, \u52a0\u62ff\u5927","id":9305,"name":"origin","lat":"45.5088889","lon":"-73.5541667","hops":{"incoming":[],"outgoing":[{"transport_id":null,"id":"6542","transport_name":null,"transport_description":null,"transport_unit":null,"transport_co2_eq":null,"from_stop_id":"9305","from_stop_lat":"45.5088889","from_stop_lon":"-73.5541667","from_stop_placename":"\u8499\u7279\u5229\u5c14, \u9b41\u5317\u514b, \u52a0\u62ff\u5927","to_stop_id":"9303","to_stop_name":"origin","to_stop_lat":"43.4441526","to_stop_lon":"-80.4947028","to_stop_placename":"20 Mill St, Kitchener, ON N2G 2Y2, Canada","to_stop":{"id":"9303","name":"origin","lat":"43.4441526","lon":"-80.4947028","placename":"20 Mill St, Kitchener, ON N2G 2Y2, Canada"},"from_stop":{"name":"origin","id":"9305","lat":"45.5088889","lon":"-73.5541667","placename":"\u8499\u7279\u5229\u5c14, \u9b41\u5317\u514b, \u52a0\u62ff\u5927"}}]}}},"processes":[],"eols":[]},{"oid":"249","imid":"5516","linkid":"0","weight":"0","rawemissions":"0","emissions":"0","shipping":"1470.28","processemissions":"0","endoflifeemissions":"0","disposaltype":null,"disposalenergy":null,"disposalimpact":null,"disposalemissions":null,"description":"","name":"ERV","id":"5516","stops":{"origin":{"related_to":"5516","part_or_object":"p","notes":null,"placename":"\u7f8e\u56fd","id":9306,"name":"origin","lat":"37.09024","lon":"-95.712891","hops":{"incoming":[],"outgoing":[{"transport_id":null,"id":"6543","transport_name":null,"transport_description":null,"transport_unit":null,"transport_co2_eq":null,"from_stop_id":"9306","from_stop_lat":"37.09024","from_stop_lon":"-95.712891","from_stop_placename":"\u7f8e\u56fd","to_stop_id":"9303","to_stop_name":"origin","to_stop_lat":"43.4441526","to_stop_lon":"-80.4947028","to_stop_placename":"20 Mill St, Kitchener, ON N2G 2Y2, Canada","to_stop":{"id":"9303","name":"origin","lat":"43.4441526","lon":"-80.4947028","placename":"20 Mill St, Kitchener, ON N2G 2Y2, Canada"},"from_stop":{"name":"origin","id":"9306","lat":"37.09024","lon":"-95.712891","placename":"\u7f8e\u56fd"}}]}}},"processes":[],"eols":[]},{"oid":"249","imid":"5517","linkid":"0","weight":"0","rawemissions":"0","emissions":"0","shipping":"11.1","processemissions":"0","endoflifeemissions":"0","disposaltype":null,"disposalenergy":null,"disposalimpact":null,"disposalemissions":null,"description":"","name":"plywood","id":"5517","stops":{"origin":{"related_to":"5517","part_or_object":"p","notes":null,"placename":"\u65b0\u9093\u8fea, \u5b89\u5927\u7565\u7701 N0B, \u52a0\u62ff\u5927","id":9307,"name":"origin","lat":"43.34917","lon":"-80.536505","hops":{"incoming":[],"outgoing":[{"transport_id":null,"id":"6544","transport_name":null,"transport_description":null,"transport_unit":null,"transport_co2_eq":null,"from_stop_id":"9307","from_stop_lat":"43.34917","from_stop_lon":"-80.536505","from_stop_placename":"\u65b0\u9093\u8fea, \u5b89\u5927\u7565\u7701 N0B, \u52a0\u62ff\u5927","to_stop_id":"9303","to_stop_name":"origin","to_stop_lat":"43.4441526","to_stop_lon":"-80.4947028","to_stop_placename":"20 Mill St, Kitchener, ON N2G 2Y2, Canada","to_stop":{"id":"9303","name":"origin","lat":"43.4441526","lon":"-80.4947028","placename":"20 Mill St, Kitchener, ON N2G 2Y2, Canada"},"from_stop":{"name":"origin","id":"9307","lat":"43.34917","lon":"-80.536505","placename":"\u65b0\u9093\u8fea, \u5b89\u5927\u7565\u7701 N0B, \u52a0\u62ff\u5927"}}]}}},"processes":[],"eols":[]},{"oid":"249","imid":"5518","linkid":"0","weight":"0","rawemissions":"0","emissions":"0","shipping":"82.61","processemissions":"0","endoflifeemissions":"0","disposaltype":null,"disposalenergy":null,"disposalimpact":null,"disposalemissions":null,"description":"","name":"windows","id":"5518","stops":{"origin":{"related_to":"5518","part_or_object":"p","notes":null,"placename":"Etobiko","id":9308,"name":"origin","lat":"43.630802","lon":"-79.5039342","hops":{"incoming":[],"outgoing":[{"transport_id":null,"id":"6545","transport_name":null,"transport_description":null,"transport_unit":null,"transport_co2_eq":null,"from_stop_id":"9308","from_stop_lat":"43.630802","from_stop_lon":"-79.5039342","from_stop_placename":"Etobiko","to_stop_id":"9303","to_stop_name":"origin","to_stop_lat":"43.4441526","to_stop_lon":"-80.4947028","to_stop_placename":"20 Mill St, Kitchener, ON N2G 2Y2, Canada","to_stop":{"id":"9303","name":"origin","lat":"43.4441526","lon":"-80.4947028","placename":"20 Mill St, Kitchener, ON N2G 2Y2, Canada"},"from_stop":{"name":"origin","id":"9308","lat":"43.630802","lon":"-79.5039342","placename":"Etobiko"}}]}}},"processes":[],"eols":[]},{"oid":"249","imid":"5519","linkid":"0","weight":"0","rawemissions":"0","emissions":"0","shipping":"11196.44","processemissions":"0","endoflifeemissions":"0","disposaltype":null,"disposalenergy":null,"disposalimpact":null,"disposalemissions":null,"description":"","name":"basement slate","id":"5519","stops":{"origin":{"related_to":"5519","part_or_object":"p","notes":null,"placename":"\u4e2d\u56fd","id":9309,"name":"origin","lat":"35.86166","lon":"104.195397","hops":{"incoming":[],"outgoing":[{"transport_id":null,"id":"6546","transport_name":null,"transport_description":null,"transport_unit":null,"transport_co2_eq":null,"from_stop_id":"9309","from_stop_lat":"35.86166","from_stop_lon":"104.195397","from_stop_placename":"\u4e2d\u56fd","to_stop_id":"9303","to_stop_name":"origin","to_stop_lat":"43.4441526","to_stop_lon":"-80.4947028","to_stop_placename":"20 Mill St, Kitchener, ON N2G 2Y2, Canada","to_stop":{"id":"9303","name":"origin","lat":"43.4441526","lon":"-80.4947028","placename":"20 Mill St, Kitchener, ON N2G 2Y2, Canada"},"from_stop":{"name":"origin","id":"9309","lat":"35.86166","lon":"104.195397","placename":"\u4e2d\u56fd"}}]}}},"processes":[],"eols":[]},{"oid":"249","imid":"5520","linkid":"0","weight":"0","rawemissions":"0","emissions":"0","shipping":"17.33","processemissions":"0","endoflifeemissions":"0","disposaltype":null,"disposalenergy":null,"disposalimpact":null,"disposalemissions":null,"description":"","name":"trim","id":"5520","stops":{"origin":{"related_to":"5520","part_or_object":"p","notes":null,"placename":"\u57c3\u5c14\u8fc8\u62c9, \u5b89\u5927\u7565\u7701, \u52a0\u62ff\u5927","id":9310,"name":"origin","lat":"43.592231","lon":"-80.561068","hops":{"incoming":[],"outgoing":[{"transport_id":null,"id":"6547","transport_name":null,"transport_description":null,"transport_unit":null,"transport_co2_eq":null,"from_stop_id":"9310","from_stop_lat":"43.592231","from_stop_lon":"-80.561068","from_stop_placename":"\u57c3\u5c14\u8fc8\u62c9, \u5b89\u5927\u7565\u7701, \u52a0\u62ff\u5927","to_stop_id":"9303","to_stop_name":"origin","to_stop_lat":"43.4441526","to_stop_lon":"-80.4947028","to_stop_placename":"20 Mill St, Kitchener, ON N2G 2Y2, Canada","to_stop":{"id":"9303","name":"origin","lat":"43.4441526","lon":"-80.4947028","placename":"20 Mill St, Kitchener, ON N2G 2Y2, Canada"},"from_stop":{"name":"origin","id":"9310","lat":"43.592231","lon":"-80.561068","placename":"\u57c3\u5c14\u8fc8\u62c9, \u5b89\u5927\u7565\u7701, \u52a0\u62ff\u5927"}}]}}},"processes":[],"eols":[]},{"oid":"249","imid":"5521","linkid":"0","weight":"0","rawemissions":"0","emissions":"0","shipping":"5.37","processemissions":"0","endoflifeemissions":"0","disposaltype":null,"disposalenergy":null,"disposalimpact":null,"disposalemissions":null,"description":"","name":"concrete","id":"5521","stops":{"origin":{"related_to":"5521","part_or_object":"p","notes":null,"placename":"\u6ed1\u94c1\u5362, \u5b89\u5927\u7565\u7701, \u52a0\u62ff\u5927","id":9311,"name":"origin","lat":"43.480926","lon":"-80.537664","hops":{"incoming":[],"outgoing":[{"transport_id":null,"id":"6548","transport_name":null,"transport_description":null,"transport_unit":null,"transport_co2_eq":null,"from_stop_id":"9311","from_stop_lat":"43.480926","from_stop_lon":"-80.537664","from_stop_placename":"\u6ed1\u94c1\u5362, \u5b89\u5927\u7565\u7701, \u52a0\u62ff\u5927","to_stop_id":"9303","to_stop_name":"origin","to_stop_lat":"43.4441526","to_stop_lon":"-80.4947028","to_stop_placename":"20 Mill St, Kitchener, ON N2G 2Y2, Canada","to_stop":{"id":"9303","name":"origin","lat":"43.4441526","lon":"-80.4947028","placename":"20 Mill St, Kitchener, ON N2G 2Y2, Canada"},"from_stop":{"name":"origin","id":"9311","lat":"43.480926","lon":"-80.537664","placename":"\u6ed1\u94c1\u5362, \u5b89\u5927\u7565\u7701, \u52a0\u62ff\u5927"}}]}}},"processes":[],"eols":[]},{"oid":"249","imid":"5522","linkid":"0","weight":"0","rawemissions":"0","emissions":"0","shipping":"341.48","processemissions":"0","endoflifeemissions":"0","disposaltype":null,"disposalenergy":null,"disposalimpact":null,"disposalemissions":null,"description":"","name":"paving stones","id":"5522","stops":{"origin":{"related_to":"5522","part_or_object":"p","notes":null,"placename":"\u8428\u5fb7\u4f2f\u91cc, \u5b89\u5927\u7565\u7701, \u52a0\u62ff\u5927","id":9312,"name":"origin","lat":"46.49","lon":"-81.01","hops":{"incoming":[],"outgoing":[{"transport_id":null,"id":"6549","transport_name":null,"transport_description":null,"transport_unit":null,"transport_co2_eq":null,"from_stop_id":"9312","from_stop_lat":"46.49","from_stop_lon":"-81.01","from_stop_placename":"\u8428\u5fb7\u4f2f\u91cc, \u5b89\u5927\u7565\u7701, \u52a0\u62ff\u5927","to_stop_id":"9303","to_stop_name":"origin","to_stop_lat":"43.4441526","to_stop_lon":"-80.4947028","to_stop_placename":"20 Mill St, Kitchener, ON N2G 2Y2, Canada","to_stop":{"id":"9303","name":"origin","lat":"43.4441526","lon":"-80.4947028","placename":"20 Mill St, Kitchener, ON N2G 2Y2, Canada"},"from_stop":{"name":"origin","id":"9312","lat":"46.49","lon":"-81.01","placename":"\u8428\u5fb7\u4f2f\u91cc, \u5b89\u5927\u7565\u7701, \u52a0\u62ff\u5927"}}]}}},"processes":[],"eols":[]},{"oid":"249","imid":"5523","linkid":"0","weight":"0","rawemissions":"0","emissions":"0","shipping":"5.37","processemissions":"0","endoflifeemissions":"0","disposaltype":null,"disposalenergy":null,"disposalimpact":null,"disposalemissions":null,"description":"","name":"cabinetry","id":"5523","stops":{"origin":{"related_to":"5523","part_or_object":"p","notes":null,"placename":"\u6ed1\u94c1\u5362, \u5b89\u5927\u7565\u7701, \u52a0\u62ff\u5927","id":9313,"name":"origin","lat":"43.480926","lon":"-80.537664","hops":{"incoming":[],"outgoing":[{"transport_id":null,"id":"6550","transport_name":null,"transport_description":null,"transport_unit":null,"transport_co2_eq":null,"from_stop_id":"9313","from_stop_lat":"43.480926","from_stop_lon":"-80.537664","from_stop_placename":"\u6ed1\u94c1\u5362, \u5b89\u5927\u7565\u7701, \u52a0\u62ff\u5927","to_stop_id":"9303","to_stop_name":"origin","to_stop_lat":"43.4441526","to_stop_lon":"-80.4947028","to_stop_placename":"20 Mill St, Kitchener, ON N2G 2Y2, Canada","to_stop":{"id":"9303","name":"origin","lat":"43.4441526","lon":"-80.4947028","placename":"20 Mill St, Kitchener, ON N2G 2Y2, Canada"},"from_stop":{"name":"origin","id":"9313","lat":"43.480926","lon":"-80.537664","placename":"\u6ed1\u94c1\u5362, \u5b89\u5927\u7565\u7701, \u52a0\u62ff\u5927"}}]}}},"processes":[],"eols":[]},{"oid":"249","imid":"5524","linkid":"0","weight":"0","rawemissions":"0","emissions":"0","shipping":"22.58","processemissions":"0","endoflifeemissions":"0","disposaltype":null,"disposalenergy":null,"disposalimpact":null,"disposalemissions":null,"description":"","name":"furniture","id":"5524","stops":{"origin":{"related_to":"5524","part_or_object":"p","notes":null,"placename":"\u8d35\u6e56, \u5b89\u5927\u7565\u7701, \u52a0\u62ff\u5927","id":9314,"name":"origin","lat":"43.539102","lon":"-80.247622","hops":{"incoming":[],"outgoing":[{"transport_id":null,"id":"6551","transport_name":null,"transport_description":null,"transport_unit":null,"transport_co2_eq":null,"from_stop_id":"9314","from_stop_lat":"43.539102","from_stop_lon":"-80.247622","from_stop_placename":"\u8d35\u6e56, \u5b89\u5927\u7565\u7701, \u52a0\u62ff\u5927","to_stop_id":"9303","to_stop_name":"origin","to_stop_lat":"43.4441526","to_stop_lon":"-80.4947028","to_stop_placename":"20 Mill St, Kitchener, ON N2G 2Y2, Canada","to_stop":{"id":"9303","name":"origin","lat":"43.4441526","lon":"-80.4947028","placename":"20 Mill St, Kitchener, ON N2G 2Y2, Canada"},"from_stop":{"name":"origin","id":"9314","lat":"43.539102","lon":"-80.247622","placename":"\u8d35\u6e56, \u5b89\u5927\u7565\u7701, \u52a0\u62ff\u5927"}}]}}},"processes":[],"eols":[]},{"oid":"249","imid":"5525","linkid":"0","weight":"0","rawemissions":"0","emissions":"0","shipping":"17.33","processemissions":"0","endoflifeemissions":"0","disposaltype":null,"disposalenergy":null,"disposalimpact":null,"disposalemissions":null,"description":"","name":"heat pump","id":"5525","stops":{"origin":{"related_to":"5525","part_or_object":"p","notes":null,"placename":"\u57c3\u5c14\u8fc8\u62c9, \u5b89\u5927\u7565\u7701, \u52a0\u62ff\u5927","id":9315,"name":"origin","lat":"43.592231","lon":"-80.561068","hops":{"incoming":[],"outgoing":[{"transport_id":null,"id":"6552","transport_name":null,"transport_description":null,"transport_unit":null,"transport_co2_eq":null,"from_stop_id":"9315","from_stop_lat":"43.592231","from_stop_lon":"-80.561068","from_stop_placename":"\u57c3\u5c14\u8fc8\u62c9, \u5b89\u5927\u7565\u7701, \u52a0\u62ff\u5927","to_stop_id":"9303","to_stop_name":"origin","to_stop_lat":"43.4441526","to_stop_lon":"-80.4947028","to_stop_placename":"20 Mill St, Kitchener, ON N2G 2Y2, Canada","to_stop":{"id":"9303","name":"origin","lat":"43.4441526","lon":"-80.4947028","placename":"20 Mill St, Kitchener, ON N2G 2Y2, Canada"},"from_stop":{"name":"origin","id":"9315","lat":"43.592231","lon":"-80.561068","placename":"\u57c3\u5c14\u8fc8\u62c9, \u5b89\u5927\u7565\u7701, \u52a0\u62ff\u5927"}}]}}},"processes":[],"eols":[]},{"oid":"249","imid":"5526","linkid":"0","weight":"0","rawemissions":"0","emissions":"0","shipping":"0","processemissions":"0","endoflifeemissions":"0","disposaltype":null,"disposalenergy":null,"disposalimpact":null,"disposalemissions":null,"description":"","name":"drywall","id":"5526","stops":{"origin":{"related_to":"5526","part_or_object":"p","notes":null,"placename":"Not Set","id":9316,"name":"origin","lat":"0","lon":"0","hops":{"incoming":[],"outgoing":[]}}},"processes":[],"eols":[]},{"oid":"249","imid":"5527","linkid":"0","weight":"0","rawemissions":"0","emissions":"0","shipping":"0","processemissions":"0","endoflifeemissions":"0","disposaltype":null,"disposalenergy":null,"disposalimpact":null,"disposalemissions":null,"description":"","name":"ground source","id":"5527","stops":{"origin":{"related_to":"5527","part_or_object":"p","notes":null,"placename":"Not Set","id":9317,"name":"origin","lat":"0","lon":"0","hops":{"incoming":[],"outgoing":[]}}},"processes":[],"eols":[]},{"oid":"249","imid":"5528","linkid":"0","weight":"0","rawemissions":"0","emissions":"0","shipping":"11.1","processemissions":"0","endoflifeemissions":"0","disposaltype":null,"disposalenergy":null,"disposalimpact":null,"disposalemissions":null,"description":"","name":"lumber","id":"5528","stops":{"origin":{"related_to":"5528","part_or_object":"p","notes":null,"placename":"\u65b0\u9093\u8fea, \u5b89\u5927\u7565\u7701 N0B, \u52a0\u62ff\u5927","id":9318,"name":"origin","lat":"43.34917","lon":"-80.536505","hops":{"incoming":[],"outgoing":[{"transport_id":null,"id":"6553","transport_name":null,"transport_description":null,"transport_unit":null,"transport_co2_eq":null,"from_stop_id":"9318","from_stop_lat":"43.34917","from_stop_lon":"-80.536505","from_stop_placename":"\u65b0\u9093\u8fea, \u5b89\u5927\u7565\u7701 N0B, \u52a0\u62ff\u5927","to_stop_id":"9303","to_stop_name":"origin","to_stop_lat":"43.4441526","to_stop_lon":"-80.4947028","to_stop_placename":"20 Mill St, Kitchener, ON N2G 2Y2, Canada","to_stop":{"id":"9303","name":"origin","lat":"43.4441526","lon":"-80.4947028","placename":"20 Mill St, Kitchener, ON N2G 2Y2, Canada"},"from_stop":{"name":"origin","id":"9318","lat":"43.34917","lon":"-80.536505","placename":"\u65b0\u9093\u8fea, \u5b89\u5927\u7565\u7701 N0B, \u52a0\u62ff\u5927"}}]}}},"processes":[],"eols":[]},{"oid":"249","imid":"5529","linkid":"0","weight":"0","rawemissions":"0","emissions":"0","shipping":"0","processemissions":"0","endoflifeemissions":"0","disposaltype":null,"disposalenergy":null,"disposalimpact":null,"disposalemissions":null,"description":"","name":"ductwork","id":"5529","stops":{"origin":{"related_to":"5529","part_or_object":"p","notes":null,"placename":"Not Set","id":9319,"name":"origin","lat":"0","lon":"0","hops":{"incoming":[],"outgoing":[]}}},"processes":[],"eols":[]},{"oid":"249","imid":"5530","linkid":"0","weight":"0","rawemissions":"0","emissions":"0","shipping":"0","processemissions":"0","endoflifeemissions":"0","disposaltype":null,"disposalenergy":null,"disposalimpact":null,"disposalemissions":null,"description":"","name":"hot water recycling","id":"5530","stops":{"origin":{"related_to":"5530","part_or_object":"p","notes":null,"placename":"Not Set","id":9320,"name":"origin","lat":"0","lon":"0","hops":{"incoming":[],"outgoing":[]}}},"processes":[],"eols":[]},{"oid":"249","imid":"5531","linkid":"0","weight":"0","rawemissions":"0","emissions":"0","shipping":"0","processemissions":"0","endoflifeemissions":"0","disposaltype":null,"disposalenergy":null,"disposalimpact":null,"disposalemissions":null,"description":"","name":"plumbing","id":"5531","stops":{"origin":{"related_to":"5531","part_or_object":"p","notes":null,"placename":"Not Set","id":9321,"name":"origin","lat":"0","lon":"0","hops":{"incoming":[],"outgoing":[]}}},"processes":[],"eols":[]},{"oid":"249","imid":"5532","linkid":"0","weight":"0","rawemissions":"0","emissions":"0","shipping":"1.75","processemissions":"0","endoflifeemissions":"0","disposaltype":null,"disposalenergy":null,"disposalimpact":null,"disposalemissions":null,"description":"","name":"labour","id":"5532","stops":{"origin":{"related_to":"5532","part_or_object":"p","notes":null,"placename":"\u57fa\u79e6\u62ff, \u5b89\u5927\u7565\u7701, \u52a0\u62ff\u5927","id":9322,"name":"origin","lat":"43.434311","lon":"-80.477747","hops":{"incoming":[],"outgoing":[{"transport_id":null,"id":"6554","transport_name":null,"transport_description":null,"transport_unit":null,"transport_co2_eq":null,"from_stop_id":"9322","from_stop_lat":"43.434311","from_stop_lon":"-80.477747","from_stop_placename":"\u57fa\u79e6\u62ff, \u5b89\u5927\u7565\u7701, \u52a0\u62ff\u5927","to_stop_id":"9303","to_stop_name":"origin","to_stop_lat":"43.4441526","to_stop_lon":"-80.4947028","to_stop_placename":"20 Mill St, Kitchener, ON N2G 2Y2, Canada","to_stop":{"id":"9303","name":"origin","lat":"43.4441526","lon":"-80.4947028","placename":"20 Mill St, Kitchener, ON N2G 2Y2, Canada"},"from_stop":{"name":"origin","id":"9322","lat":"43.434311","lon":"-80.477747","placename":"\u57fa\u79e6\u62ff, \u5b89\u5927\u7565\u7701, \u52a0\u62ff\u5927"}}]}}},"processes":[],"eols":[]}],"user":{"name":"renshijian","id":"11899"}}}