{"25":{"oid":"25","type":"trace","flag":"","creator":"11226","name":"Beartooth Mountain Springs Bottled Water","upc":"","imagelink":"","description":"Beartooth Mountain Springs water out of Clark, WY bottles spring water at the base of the source in the Beartooth Mountains.  Considered a high end bottled water, it is then shipped from the bottling plant to natural food stores, spas, and restaurants throughout the West.","slug":"Beartooth-Mountain-Springs-Bottled-Water","category":"","weight":"0","emissions":"0","embodied":"0","transport":"0","process":null,"endoflife":null,"shipping":"4112.31","lifetime":null,"usagetype":"","usageenergy":null,"usageemissions":null,"timecreated":"2010-11-16 12:04:18","timemodified":"2010-12-06 16:47:04","visibility":"public","showfootprint":"on","showembodied":"on","showtransport":"on","showprocess":"on","showendoflife":"on","showlastleg":"on","showuse":"on","showstats":"on","stops":{"origin":{"related_to":"25","part_or_object":"o","notes":null,"placename":"Cody, WY 82414, USA","id":"8606","category":"1","lat":"44.5263422","lon":"-109.0565308","name":"origin","hops":{"incoming":[{"transport_id":null,"id":"5978","transport_name":null,"transport_description":null,"transport_unit":null,"transport_co2_eq":null,"from_stop_id":"8607","from_stop_lat":"32.802955","from_stop_lon":"-96.769923","to_stop_id":"8606","to_stop_name":"origin","to_stop_lat":"44.5263422","placename":"Dallas, TX, USA","to_stop_lon":"-109.0565308","to_stop":{"id":"8606","name":"origin","lat":"44.5263422","placename":"Cody, WY 82414, USA","lon":"-109.0565308"},"from_stop":{"name":"origin","id":"8607","lat":"32.802955","lon":"-96.769923","placename":"Dallas, TX, USA"}},{"transport_id":null,"id":"5979","transport_name":null,"transport_description":null,"transport_unit":null,"transport_co2_eq":null,"from_stop_id":"8608","from_stop_lat":"44.7538408","from_stop_lon":"-108.7573524","to_stop_id":"8606","to_stop_name":"origin","to_stop_lat":"44.5263422","placename":"Powell, WY 82435, USA","to_stop_lon":"-109.0565308","to_stop":{"id":"8606","name":"origin","lat":"44.5263422","placename":"Cody, WY 82414, USA","lon":"-109.0565308"},"from_stop":{"name":"origin","id":"8608","lat":"44.7538408","lon":"-108.7573524","placename":"Powell, WY 82435, USA"}},{"transport_id":null,"id":"5980","transport_name":null,"transport_description":null,"transport_unit":null,"transport_co2_eq":null,"from_stop_id":"8609","from_stop_lat":"40.1672068","from_stop_lon":"-105.1019275","to_stop_id":"8606","to_stop_name":"origin","to_stop_lat":"44.5263422","placename":"Longmont, CO, USA","to_stop_lon":"-109.0565308","to_stop":{"id":"8606","name":"origin","lat":"44.5263422","placename":"Cody, WY 82414, USA","lon":"-109.0565308"},"from_stop":{"name":"origin","id":"8609","lat":"40.1672068","lon":"-105.1019275","placename":"Longmont, CO, USA"}},{"transport_id":null,"id":"5981","transport_name":null,"transport_description":null,"transport_unit":null,"transport_co2_eq":null,"from_stop_id":"8610","from_stop_lat":"40.0149856","from_stop_lon":"-105.2705456","to_stop_id":"8606","to_stop_name":"origin","to_stop_lat":"44.5263422","placename":"Boulder, CO, USA","to_stop_lon":"-109.0565308","to_stop":{"id":"8606","name":"origin","lat":"44.5263422","placename":"Cody, WY 82414, USA","lon":"-109.0565308"},"from_stop":{"name":"origin","id":"8610","lat":"40.0149856","lon":"-105.2705456","placename":"Boulder, CO, USA"}},{"transport_id":null,"id":"5982","transport_name":null,"transport_description":null,"transport_unit":null,"transport_co2_eq":null,"from_stop_id":"8611","from_stop_lat":"45.7832856","from_stop_lon":"-108.5006904","to_stop_id":"8606","to_stop_name":"origin","to_stop_lat":"44.5263422","placename":"Billings, Mt, USA","to_stop_lon":"-109.0565308","to_stop":{"id":"8606","name":"origin","lat":"44.5263422","placename":"Cody, WY 82414, USA","lon":"-109.0565308"},"from_stop":{"name":"origin","id":"8611","lat":"45.7832856","lon":"-108.5006904","placename":"Billings, Mt, USA"}},{"transport_id":null,"id":"5983","transport_name":null,"transport_description":null,"transport_unit":null,"transport_co2_eq":null,"from_stop_id":"8612","from_stop_lat":"46.003917","from_stop_lon":"-112.534446","to_stop_id":"8606","to_stop_name":"origin","to_stop_lat":"44.5263422","placename":"Butte, Mt, USA","to_stop_lon":"-109.0565308","to_stop":{"id":"8606","name":"origin","lat":"44.5263422","placename":"Cody, WY 82414, USA","lon":"-109.0565308"},"from_stop":{"name":"origin","id":"8612","lat":"46.003917","lon":"-112.534446","placename":"Butte, Mt, USA"}},{"transport_id":null,"id":"5984","transport_name":null,"transport_description":null,"transport_unit":null,"transport_co2_eq":null,"from_stop_id":"8613","from_stop_lat":"43.4799291","from_stop_lon":"-110.7624282","to_stop_id":"8606","to_stop_name":"origin","to_stop_lat":"44.5263422","placename":"Jackson, WY, USA","to_stop_lon":"-109.0565308","to_stop":{"id":"8606","name":"origin","lat":"44.5263422","placename":"Cody, WY 82414, USA","lon":"-109.0565308"},"from_stop":{"name":"origin","id":"8613","lat":"43.4799291","lon":"-110.7624282","placename":"Jackson, WY, USA"}},{"transport_id":null,"id":"5985","transport_name":null,"transport_description":null,"transport_unit":null,"transport_co2_eq":null,"from_stop_id":"8614","from_stop_lat":"44.5263422","from_stop_lon":"-109.0565308","to_stop_id":"8606","to_stop_name":"origin","to_stop_lat":"44.5263422","placename":"Cody, WY 82414, USA","to_stop_lon":"-109.0565308","to_stop":{"id":"8606","name":"origin","lat":"44.5263422","placename":"Cody, WY 82414, USA","lon":"-109.0565308"},"from_stop":{"name":"origin","id":"8614","lat":"44.5263422","lon":"-109.0565308","placename":"Cody, WY 82414, USA"}},{"transport_id":null,"id":"5986","transport_name":null,"transport_description":null,"transport_unit":null,"transport_co2_eq":null,"from_stop_id":"8615","from_stop_lat":"44.7971939","from_stop_lon":"-106.9561791","to_stop_id":"8606","to_stop_name":"origin","to_stop_lat":"44.5263422","placename":"Sheridan, WY 82801, USA","to_stop_lon":"-109.0565308","to_stop":{"id":"8606","name":"origin","lat":"44.5263422","placename":"Cody, WY 82414, USA","lon":"-109.0565308"},"from_stop":{"name":"origin","id":"8615","lat":"44.7971939","lon":"-106.9561791","placename":"Sheridan, WY 82801, USA"}},{"transport_id":null,"id":"5987","transport_name":null,"transport_description":null,"transport_unit":null,"transport_co2_eq":null,"from_stop_id":"8616","from_stop_lat":"42.866632","from_stop_lon":"-106.313081","to_stop_id":"8606","to_stop_name":"origin","to_stop_lat":"44.5263422","placename":"Casper, WY, USA","to_stop_lon":"-109.0565308","to_stop":{"id":"8606","name":"origin","lat":"44.5263422","placename":"Cody, WY 82414, USA","lon":"-109.0565308"},"from_stop":{"name":"origin","id":"8616","lat":"42.866632","lon":"-106.313081","placename":"Casper, WY, USA"}},{"transport_id":null,"id":"5988","transport_name":null,"transport_description":null,"transport_unit":null,"transport_co2_eq":null,"from_stop_id":"8617","from_stop_lat":"43.6460672","from_stop_lon":"-108.2120432","to_stop_id":"8606","to_stop_name":"origin","to_stop_lat":"44.5263422","placename":"Thermopolis, WY 82443, USA","to_stop_lon":"-109.0565308","to_stop":{"id":"8606","name":"origin","lat":"44.5263422","placename":"Cody, WY 82414, USA","lon":"-109.0565308"},"from_stop":{"name":"origin","id":"8617","lat":"43.6460672","lon":"-108.2120432","placename":"Thermopolis, WY 82443, USA"}}],"outgoing":[]}}},"parts":[{"oid":"25","imid":"93","linkid":"0","weight":"0","rawemissions":"0","emissions":"0","shipping":"1682.35","processemissions":"0","endoflifeemissions":"0","disposaltype":null,"disposalenergy":null,"disposalimpact":null,"disposalemissions":null,"description":"The 750mL glass bottles used for the water come from a company in Dallas, TX.","name":"Glass Bottle","id":"93","stops":{"origin":{"related_to":"93","part_or_object":"p","notes":null,"placename":"Dallas, TX, USA","id":8607,"name":"origin","lat":"32.802955","lon":"-96.769923","hops":{"incoming":[],"outgoing":[{"transport_id":null,"id":"5978","transport_name":null,"transport_description":null,"transport_unit":null,"transport_co2_eq":null,"from_stop_id":"8607","from_stop_lat":"32.802955","from_stop_lon":"-96.769923","from_stop_placename":"Dallas, TX, USA","to_stop_id":"8606","to_stop_name":"origin","to_stop_lat":"44.5263422","to_stop_lon":"-109.0565308","to_stop_placename":"Cody, WY 82414, USA","to_stop":{"id":"8606","name":"origin","lat":"44.5263422","lon":"-109.0565308","placename":"Cody, WY 82414, USA"},"from_stop":{"name":"origin","id":"8607","lat":"32.802955","lon":"-96.769923","placename":"Dallas, TX, USA"}}]}}},"processes":[],"eols":[]},{"oid":"25","imid":"90","linkid":"0","weight":"0","rawemissions":"0","emissions":"0","shipping":"34.68","processemissions":"0","endoflifeemissions":"0","disposaltype":null,"disposalenergy":null,"disposalimpact":null,"disposalemissions":null,"description":"Spring water flows naturally 280 feet down from the spring and through a metal pipe, to the Beartooth Mountain Springs bottling facility.  The water is bottled, and then shipped from the bottling plant.  A minimum order consists of one pallet, or 720 bottles, which is equivalent to over 18,000 ounces of water.  Customers can purchase up to 20 pallets, or 14,400 bottles, equal to almost 400,000 ounces of water.","name":"Spring Water","id":"90","stops":{"origin":{"related_to":"90","part_or_object":"p","notes":null,"placename":"Powell, WY 82435, USA","id":8608,"name":"origin","lat":"44.7538408","lon":"-108.7573524","hops":{"incoming":[],"outgoing":[{"transport_id":null,"id":"5979","transport_name":null,"transport_description":null,"transport_unit":null,"transport_co2_eq":null,"from_stop_id":"8608","from_stop_lat":"44.7538408","from_stop_lon":"-108.7573524","from_stop_placename":"Powell, WY 82435, USA","to_stop_id":"8606","to_stop_name":"origin","to_stop_lat":"44.5263422","to_stop_lon":"-109.0565308","to_stop_placename":"Cody, WY 82414, USA","to_stop":{"id":"8606","name":"origin","lat":"44.5263422","lon":"-109.0565308","placename":"Cody, WY 82414, USA"},"from_stop":{"name":"origin","id":"8608","lat":"44.7538408","lon":"-108.7573524","placename":"Powell, WY 82435, USA"}}]}}},"processes":[],"eols":[]},{"oid":"25","imid":"91","linkid":"0","weight":"0","rawemissions":"0","emissions":"0","shipping":"584.07","processemissions":"0","endoflifeemissions":"0","disposaltype":null,"disposalenergy":null,"disposalimpact":null,"disposalemissions":null,"description":"Carries Beartooth Mountain Springs bottled water.","name":"Terrier","id":"91","stops":{"origin":{"related_to":"91","part_or_object":"p","notes":null,"placename":"Longmont, CO, USA","id":8609,"name":"origin","lat":"40.1672068","lon":"-105.1019275","hops":{"incoming":[],"outgoing":[{"transport_id":null,"id":"5980","transport_name":null,"transport_description":null,"transport_unit":null,"transport_co2_eq":null,"from_stop_id":"8609","from_stop_lat":"40.1672068","from_stop_lon":"-105.1019275","from_stop_placename":"Longmont, CO, USA","to_stop_id":"8606","to_stop_name":"origin","to_stop_lat":"44.5263422","to_stop_lon":"-109.0565308","to_stop_placename":"Cody, WY 82414, USA","to_stop":{"id":"8606","name":"origin","lat":"44.5263422","lon":"-109.0565308","placename":"Cody, WY 82414, USA"},"from_stop":{"name":"origin","id":"8609","lat":"40.1672068","lon":"-105.1019275","placename":"Longmont, CO, USA"}}]}}},"processes":[],"eols":[]},{"oid":"25","imid":"92","linkid":"0","weight":"0","rawemissions":"0","emissions":"0","shipping":"591","processemissions":"0","endoflifeemissions":"0","disposaltype":null,"disposalenergy":null,"disposalimpact":null,"disposalemissions":null,"description":"Carries Beartooth Mountain Springs bottled water.","name":"Jax Fish House","id":"92","stops":{"origin":{"related_to":"92","part_or_object":"p","notes":null,"placename":"Boulder, CO, USA","id":8610,"name":"origin","lat":"40.0149856","lon":"-105.2705456","hops":{"incoming":[],"outgoing":[{"transport_id":null,"id":"5981","transport_name":null,"transport_description":null,"transport_unit":null,"transport_co2_eq":null,"from_stop_id":"8610","from_stop_lat":"40.0149856","from_stop_lon":"-105.2705456","from_stop_placename":"Boulder, CO, USA","to_stop_id":"8606","to_stop_name":"origin","to_stop_lat":"44.5263422","to_stop_lon":"-109.0565308","to_stop_placename":"Cody, WY 82414, USA","to_stop":{"id":"8606","name":"origin","lat":"44.5263422","lon":"-109.0565308","placename":"Cody, WY 82414, USA"},"from_stop":{"name":"origin","id":"8610","lat":"40.0149856","lon":"-105.2705456","placename":"Boulder, CO, USA"}}]}}},"processes":[],"eols":[]},{"oid":"25","imid":"97","linkid":"0","weight":"0","rawemissions":"0","emissions":"0","shipping":"0","processemissions":"0","endoflifeemissions":"0","disposaltype":null,"disposalenergy":null,"disposalimpact":null,"disposalemissions":null,"description":"Carries Beartooth Mountain Springs bottled water.","name":"Whole Food Trading Co.","id":"97","stops":{"origin":{"related_to":"97","part_or_object":"p","notes":null,"placename":"Cody, WY 82414, USA","id":8614,"name":"origin","lat":"44.5263422","lon":"-109.0565308","hops":{"incoming":[],"outgoing":[{"transport_id":null,"id":"5985","transport_name":null,"transport_description":null,"transport_unit":null,"transport_co2_eq":null,"from_stop_id":"8614","from_stop_lat":"44.5263422","from_stop_lon":"-109.0565308","from_stop_placename":"Cody, WY 82414, USA","to_stop_id":"8606","to_stop_name":"origin","to_stop_lat":"44.5263422","to_stop_lon":"-109.0565308","to_stop_placename":"Cody, WY 82414, USA","to_stop":{"id":"8606","name":"origin","lat":"44.5263422","lon":"-109.0565308","placename":"Cody, WY 82414, USA"},"from_stop":{"name":"origin","id":"8614","lat":"44.5263422","lon":"-109.0565308","placename":"Cody, WY 82414, USA"}}]}}},"processes":[],"eols":[]},{"oid":"25","imid":"99","linkid":"0","weight":"0","rawemissions":"0","emissions":"0","shipping":"287.88","processemissions":"0","endoflifeemissions":"0","disposaltype":null,"disposalenergy":null,"disposalimpact":null,"disposalemissions":null,"description":"Carries Beartooth Mountain Springs bottled water.","name":"2nd Street Discount Liquor","id":"99","stops":{"origin":{"related_to":"99","part_or_object":"p","notes":null,"placename":"Casper, WY, USA","id":8616,"name":"origin","lat":"42.866632","lon":"-106.313081","hops":{"incoming":[],"outgoing":[{"transport_id":null,"id":"5987","transport_name":null,"transport_description":null,"transport_unit":null,"transport_co2_eq":null,"from_stop_id":"8616","from_stop_lat":"42.866632","from_stop_lon":"-106.313081","from_stop_placename":"Casper, WY, USA","to_stop_id":"8606","to_stop_name":"origin","to_stop_lat":"44.5263422","to_stop_lon":"-109.0565308","to_stop_placename":"Cody, WY 82414, USA","to_stop":{"id":"8606","name":"origin","lat":"44.5263422","lon":"-109.0565308","placename":"Cody, WY 82414, USA"},"from_stop":{"name":"origin","id":"8616","lat":"42.866632","lon":"-106.313081","placename":"Casper, WY, USA"}}]}}},"processes":[],"eols":[]},{"oid":"25","imid":"100","linkid":"0","weight":"0","rawemissions":"0","emissions":"0","shipping":"119","processemissions":"0","endoflifeemissions":"0","disposaltype":null,"disposalenergy":null,"disposalimpact":null,"disposalemissions":null,"description":"Carries Beartooth Mountain Springs bottled water.","name":"Stone's Throw Restaurant","id":"100","stops":{"origin":{"related_to":"100","part_or_object":"p","notes":null,"placename":"Thermopolis, WY 82443, USA","id":8617,"name":"origin","lat":"43.6460672","lon":"-108.2120432","hops":{"incoming":[],"outgoing":[{"transport_id":null,"id":"5988","transport_name":null,"transport_description":null,"transport_unit":null,"transport_co2_eq":null,"from_stop_id":"8617","from_stop_lat":"43.6460672","from_stop_lon":"-108.2120432","from_stop_placename":"Thermopolis, WY 82443, USA","to_stop_id":"8606","to_stop_name":"origin","to_stop_lat":"44.5263422","to_stop_lon":"-109.0565308","to_stop_placename":"Cody, WY 82414, USA","to_stop":{"id":"8606","name":"origin","lat":"44.5263422","lon":"-109.0565308","placename":"Cody, WY 82414, USA"},"from_stop":{"name":"origin","id":"8617","lat":"43.6460672","lon":"-108.2120432","placename":"Thermopolis, WY 82443, USA"}}]}}},"processes":[],"eols":[]},{"oid":"25","imid":"94","linkid":"0","weight":"0","rawemissions":"0","emissions":"0","shipping":"146.57","processemissions":"0","endoflifeemissions":"0","disposaltype":null,"disposalenergy":null,"disposalimpact":null,"disposalemissions":null,"description":"Carries Beartooth Mountain Springs bottled water.","name":"Good Earth Market","id":"94","stops":{"origin":{"related_to":"94","part_or_object":"p","notes":null,"placename":"Billings, Mt, USA","id":8611,"name":"origin","lat":"45.7832856","lon":"-108.5006904","hops":{"incoming":[],"outgoing":[{"transport_id":null,"id":"5982","transport_name":null,"transport_description":null,"transport_unit":null,"transport_co2_eq":null,"from_stop_id":"8611","from_stop_lat":"45.7832856","from_stop_lon":"-108.5006904","from_stop_placename":"Billings, Mt, USA","to_stop_id":"8606","to_stop_name":"origin","to_stop_lat":"44.5263422","to_stop_lon":"-109.0565308","to_stop_placename":"Cody, WY 82414, USA","to_stop":{"id":"8606","name":"origin","lat":"44.5263422","lon":"-109.0565308","placename":"Cody, WY 82414, USA"},"from_stop":{"name":"origin","id":"8611","lat":"45.7832856","lon":"-108.5006904","placename":"Billings, Mt, USA"}}]}}},"processes":[],"eols":[]},{"oid":"25","imid":"95","linkid":"0","weight":"0","rawemissions":"0","emissions":"0","shipping":"318.24","processemissions":"0","endoflifeemissions":"0","disposaltype":null,"disposalenergy":null,"disposalimpact":null,"disposalemissions":null,"description":"Carries Beartooth Mountain Springs bottled water.","name":"Uptown Cafe","id":"95","stops":{"origin":{"related_to":"95","part_or_object":"p","notes":null,"placename":"Butte, Mt, USA","id":8612,"name":"origin","lat":"46.003917","lon":"-112.534446","hops":{"incoming":[],"outgoing":[{"transport_id":null,"id":"5983","transport_name":null,"transport_description":null,"transport_unit":null,"transport_co2_eq":null,"from_stop_id":"8612","from_stop_lat":"46.003917","from_stop_lon":"-112.534446","from_stop_placename":"Butte, Mt, USA","to_stop_id":"8606","to_stop_name":"origin","to_stop_lat":"44.5263422","to_stop_lon":"-109.0565308","to_stop_placename":"Cody, WY 82414, USA","to_stop":{"id":"8606","name":"origin","lat":"44.5263422","lon":"-109.0565308","placename":"Cody, WY 82414, USA"},"from_stop":{"name":"origin","id":"8612","lat":"46.003917","lon":"-112.534446","placename":"Butte, Mt, USA"}}]}}},"processes":[],"eols":[]},{"oid":"25","imid":"96","linkid":"0","weight":"0","rawemissions":"0","emissions":"0","shipping":"179.51","processemissions":"0","endoflifeemissions":"0","disposaltype":null,"disposalenergy":null,"disposalimpact":null,"disposalemissions":null,"description":"Carries Beartooth Mountain Springs bottled water.","name":"Jackson Hole Grocer","id":"96","stops":{"origin":{"related_to":"96","part_or_object":"p","notes":null,"placename":"Jackson, WY, USA","id":8613,"name":"origin","lat":"43.4799291","lon":"-110.7624282","hops":{"incoming":[],"outgoing":[{"transport_id":null,"id":"5984","transport_name":null,"transport_description":null,"transport_unit":null,"transport_co2_eq":null,"from_stop_id":"8613","from_stop_lat":"43.4799291","from_stop_lon":"-110.7624282","from_stop_placename":"Jackson, WY, USA","to_stop_id":"8606","to_stop_name":"origin","to_stop_lat":"44.5263422","to_stop_lon":"-109.0565308","to_stop_placename":"Cody, WY 82414, USA","to_stop":{"id":"8606","name":"origin","lat":"44.5263422","lon":"-109.0565308","placename":"Cody, WY 82414, USA"},"from_stop":{"name":"origin","id":"8613","lat":"43.4799291","lon":"-110.7624282","placename":"Jackson, WY, USA"}}]}}},"processes":[],"eols":[]},{"oid":"25","imid":"98","linkid":"0","weight":"0","rawemissions":"0","emissions":"0","shipping":"169.01","processemissions":"0","endoflifeemissions":"0","disposaltype":null,"disposalenergy":null,"disposalimpact":null,"disposalemissions":null,"description":"Carries Beartooth Mountain Springs bottled water.","name":"Star Liquor","id":"98","stops":{"origin":{"related_to":"98","part_or_object":"p","notes":null,"placename":"Sheridan, WY 82801, USA","id":8615,"name":"origin","lat":"44.7971939","lon":"-106.9561791","hops":{"incoming":[],"outgoing":[{"transport_id":null,"id":"5986","transport_name":null,"transport_description":null,"transport_unit":null,"transport_co2_eq":null,"from_stop_id":"8615","from_stop_lat":"44.7971939","from_stop_lon":"-106.9561791","from_stop_placename":"Sheridan, WY 82801, USA","to_stop_id":"8606","to_stop_name":"origin","to_stop_lat":"44.5263422","to_stop_lon":"-109.0565308","to_stop_placename":"Cody, WY 82414, USA","to_stop":{"id":"8606","name":"origin","lat":"44.5263422","lon":"-109.0565308","placename":"Cody, WY 82414, USA"},"from_stop":{"name":"origin","id":"8615","lat":"44.7971939","lon":"-106.9561791","placename":"Sheridan, WY 82801, USA"}}]}}},"processes":[],"eols":[]}],"user":{"name":"VictoriaEdwards","id":"11226"}}}