{"251":{"oid":"251","type":"object","flag":"","creator":"1","name":"Breweries in the Highlands of Scotland","upc":"","imagelink":"","description":"source","slug":"breweries-in-the-highlands-of-scotland","category":"","weight":"0","emissions":"0","embodied":"0","transport":"0","process":"0","endoflife":"0","shipping":"3233.7","lifetime":"0","usagetype":"","usageenergy":"0","usageemissions":"0","timecreated":"2010-02-24 22:03:35.464744","timemodified":"2011-04-11 22:18:33","visibility":"public","showfootprint":"","showembodied":"","showtransport":"","showprocess":"","showendoflife":"","showlastleg":"on","showuse":"","showstats":"on","stops":{"origin":{"related_to":"251","part_or_object":"o","notes":null,"placename":"Cairngorms, Moray PH22 1, UK","id":"15089","category":"1","lat":"57.0833333","lon":"-3.6666667","name":"origin","hops":{"incoming":[{"transport_id":"17","id":"10952","transport_name":"None Selected","transport_description":null,"transport_unit":"kg km","transport_co2_eq":"0.000000","from_stop_id":"15090","from_stop_lat":"60.740251","from_stop_lon":"-0.872408","to_stop_id":"15089","to_stop_name":"origin","to_stop_lat":"57.0833333","placename":"Unst, Shetland, Shetland Islands ZE2 9, UK","to_stop_lon":"-3.6666667","to_stop":{"id":"15089","name":"origin","lat":"57.0833333","placename":"Cairngorms, Moray PH22 1, UK","lon":"-3.6666667"},"from_stop":{"name":"origin","id":"15090","lat":"60.740251","lon":"-0.872408","placename":"Unst, Shetland, Shetland Islands ZE2 9, UK"}},{"transport_id":"17","id":"10953","transport_name":"None Selected","transport_description":null,"transport_unit":"kg km","transport_co2_eq":"0.000000","from_stop_id":"15091","from_stop_lat":"57.5833333","from_stop_lon":"-4.25","to_stop_id":"15089","to_stop_name":"origin","to_stop_lat":"57.0833333","placename":"Black Isle, Highland IV8 8, UK","to_stop_lon":"-3.6666667","to_stop":{"id":"15089","name":"origin","lat":"57.0833333","placename":"Cairngorms, Moray PH22 1, UK","lon":"-3.6666667"},"from_stop":{"name":"origin","id":"15091","lat":"57.5833333","lon":"-4.25","placename":"Black Isle, Highland IV8 8, UK"}},{"transport_id":"17","id":"10954","transport_name":"None Selected","transport_description":null,"transport_unit":"kg km","transport_co2_eq":"0.000000","from_stop_id":"15092","from_stop_lat":"57.5918928","from_stop_lon":"-6.3578038","to_stop_id":"15089","to_stop_name":"origin","to_stop_lat":"57.0833333","placename":"Uig, Portree, Isle Of Skye, UK","to_stop_lon":"-3.6666667","to_stop":{"id":"15089","name":"origin","lat":"57.0833333","placename":"Cairngorms, Moray PH22 1, UK","lon":"-3.6666667"},"from_stop":{"name":"origin","id":"15092","lat":"57.5918928","lon":"-6.3578038","placename":"Uig, Portree, Isle Of Skye, UK"}},{"transport_id":"17","id":"10955","transport_name":"None Selected","transport_description":null,"transport_unit":"kg km","transport_co2_eq":"0.000000","from_stop_id":"15093","from_stop_lat":"59.9966581","from_stop_lon":"-1.2253186","to_stop_id":"15089","to_stop_name":"origin","to_stop_lat":"57.0833333","placename":"Sandwick, Shetland, Shetland Islands ZE2, UK","to_stop_lon":"-3.6666667","to_stop":{"id":"15089","name":"origin","lat":"57.0833333","placename":"Cairngorms, Moray PH22 1, UK","lon":"-3.6666667"},"from_stop":{"name":"origin","id":"15093","lat":"59.9966581","lon":"-1.2253186","placename":"Sandwick, Shetland, Shetland Islands ZE2, UK"}},{"transport_id":"17","id":"10956","transport_name":"None Selected","transport_description":null,"transport_unit":"kg km","transport_co2_eq":"0.000000","from_stop_id":"15094","from_stop_lat":"55.5806165","from_stop_lon":"-5.2108573","to_stop_id":"15089","to_stop_name":"origin","to_stop_lat":"57.0833333","placename":"Isle of Arran, North Ayrshire KA27 8, UK","to_stop_lon":"-3.6666667","to_stop":{"id":"15089","name":"origin","lat":"57.0833333","placename":"Cairngorms, Moray PH22 1, UK","lon":"-3.6666667"},"from_stop":{"name":"origin","id":"15094","lat":"55.5806165","lon":"-5.2108573","placename":"Isle of Arran, North Ayrshire KA27 8, UK"}},{"transport_id":"17","id":"10957","transport_name":"None Selected","transport_description":null,"transport_unit":"kg km","transport_co2_eq":"0.000000","from_stop_id":"15095","from_stop_lat":"56.2128461","from_stop_lon":"-5.6231309","to_stop_id":"15089","to_stop_name":"origin","to_stop_lat":"57.0833333","placename":"Loch Fyne, Argyll and Bute, UK","to_stop_lon":"-3.6666667","to_stop":{"id":"15089","name":"origin","lat":"57.0833333","placename":"Cairngorms, Moray PH22 1, UK","lon":"-3.6666667"},"from_stop":{"name":"origin","id":"15095","lat":"56.2128461","lon":"-5.6231309","placename":"Loch Fyne, Argyll and Bute, UK"}},{"transport_id":"17","id":"10958","transport_name":"None Selected","transport_description":null,"transport_unit":"kg km","transport_co2_eq":"0.000000","from_stop_id":"15096","from_stop_lat":"57.1943697","from_stop_lon":"-3.8288246","to_stop_id":"15089","to_stop_name":"origin","to_stop_lat":"57.0833333","placename":"Aviemore, Inverness-Shire, UK","to_stop_lon":"-3.6666667","to_stop":{"id":"15089","name":"origin","lat":"57.0833333","placename":"Cairngorms, Moray PH22 1, UK","lon":"-3.6666667"},"from_stop":{"name":"origin","id":"15096","lat":"57.1943697","lon":"-3.8288246","placename":"Aviemore, Inverness-Shire, UK"}},{"transport_id":"17","id":"10959","transport_name":"None Selected","transport_description":null,"transport_unit":"kg km","transport_co2_eq":"0.000000","from_stop_id":"15097","from_stop_lat":"58.2160007","from_stop_lon":"-6.3859307","to_stop_id":"15089","to_stop_name":"origin","to_stop_lat":"57.0833333","placename":"Stornoway, Isle Of Lewis HS2, UK","to_stop_lon":"-3.6666667","to_stop":{"id":"15089","name":"origin","lat":"57.0833333","placename":"Cairngorms, Moray PH22 1, UK","lon":"-3.6666667"},"from_stop":{"name":"origin","id":"15097","lat":"58.2160007","lon":"-6.3859307","placename":"Stornoway, Isle Of Lewis HS2, UK"}},{"transport_id":"17","id":"10960","transport_name":"None Selected","transport_description":null,"transport_unit":"kg km","transport_co2_eq":"0.000000","from_stop_id":"15098","from_stop_lat":"56.71299","from_stop_lon":"-4.965301","to_stop_id":"15089","to_stop_name":"origin","to_stop_lat":"57.0833333","placename":"Kinlochleven, Argyll, UK","to_stop_lon":"-3.6666667","to_stop":{"id":"15089","name":"origin","lat":"57.0833333","placename":"Cairngorms, Moray PH22 1, UK","lon":"-3.6666667"},"from_stop":{"name":"origin","id":"15098","lat":"56.71299","lon":"-4.965301","placename":"Kinlochleven, Argyll, UK"}},{"transport_id":"17","id":"10961","transport_name":"None Selected","transport_description":null,"transport_unit":"kg km","transport_co2_eq":"0.000000","from_stop_id":"15099","from_stop_lat":"57.850788","from_stop_lon":"-5.262623","to_stop_id":"15089","to_stop_name":"origin","to_stop_lat":"57.0833333","placename":"Camusnagaul, Dundonnell, Garve, Ross-Shire, UK","to_stop_lon":"-3.6666667","to_stop":{"id":"15089","name":"origin","lat":"57.0833333","placename":"Cairngorms, Moray PH22 1, UK","lon":"-3.6666667"},"from_stop":{"name":"origin","id":"15099","lat":"57.850788","lon":"-5.262623","placename":"Camusnagaul, Dundonnell, Garve, Ross-Shire, UK"}},{"transport_id":"17","id":"10962","transport_name":"None Selected","transport_description":null,"transport_unit":"kg km","transport_co2_eq":"0.000000","from_stop_id":"15100","from_stop_lat":"55.7362535","from_stop_lon":"-6.177067","to_stop_id":"15089","to_stop_name":"origin","to_stop_lat":"57.0833333","placename":"Islay, Argyll and Bute, UK","to_stop_lon":"-3.6666667","to_stop":{"id":"15089","name":"origin","lat":"57.0833333","placename":"Cairngorms, Moray PH22 1, UK","lon":"-3.6666667"},"from_stop":{"name":"origin","id":"15100","lat":"55.7362535","lon":"-6.177067","placename":"Islay, Argyll and Bute, UK"}},{"transport_id":"17","id":"10963","transport_name":"None Selected","transport_description":null,"transport_unit":"kg km","transport_co2_eq":"0.000000","from_stop_id":"15101","from_stop_lat":"57.287992","from_stop_lon":"-6.175137","to_stop_id":"15089","to_stop_name":"origin","to_stop_lat":"57.0833333","placename":"Sligachan, Highland IV47 8, UK","to_stop_lon":"-3.6666667","to_stop":{"id":"15089","name":"origin","lat":"57.0833333","placename":"Cairngorms, Moray PH22 1, UK","lon":"-3.6666667"},"from_stop":{"name":"origin","id":"15101","lat":"57.287992","lon":"-6.175137","placename":"Sligachan, Highland IV47 8, UK"}},{"transport_id":"17","id":"10964","transport_name":"None Selected","transport_description":null,"transport_unit":"kg km","transport_co2_eq":"0.000000","from_stop_id":"15102","from_stop_lat":"59.1145195","from_stop_lon":"-3.2999301","to_stop_id":"15089","to_stop_name":"origin","to_stop_lat":"57.0833333","placename":"Birsay, Orkney KW17, UK","to_stop_lon":"-3.6666667","to_stop":{"id":"15089","name":"origin","lat":"57.0833333","placename":"Cairngorms, Moray PH22 1, UK","lon":"-3.6666667"},"from_stop":{"name":"origin","id":"15102","lat":"59.1145195","lon":"-3.2999301","placename":"Birsay, Orkney KW17, UK"}},{"transport_id":"17","id":"10965","transport_name":"None Selected","transport_description":null,"transport_unit":"kg km","transport_co2_eq":"0.000000","from_stop_id":"15103","from_stop_lat":"56.293722","from_stop_lon":"-5.639144","to_stop_id":"15089","to_stop_name":"origin","to_stop_lat":"57.0833333","placename":"Ellenabeich, Argyll and Bute PA34 4, UK","to_stop_lon":"-3.6666667","to_stop":{"id":"15089","name":"origin","lat":"57.0833333","placename":"Cairngorms, Moray PH22 1, UK","lon":"-3.6666667"},"from_stop":{"name":"origin","id":"15103","lat":"56.293722","lon":"-5.639144","placename":"Ellenabeich, Argyll and Bute PA34 4, UK"}},{"transport_id":"17","id":"10966","transport_name":"None Selected","transport_description":null,"transport_unit":"kg km","transport_co2_eq":"0.000000","from_stop_id":"15104","from_stop_lat":"56.6238998","from_stop_lon":"-6.0696766","to_stop_id":"15089","to_stop_name":"origin","to_stop_lat":"57.0833333","placename":"Tobermory, Isle Of Mull, UK","to_stop_lon":"-3.6666667","to_stop":{"id":"15089","name":"origin","lat":"57.0833333","placename":"Cairngorms, Moray PH22 1, UK","lon":"-3.6666667"},"from_stop":{"name":"origin","id":"15104","lat":"56.6238998","lon":"-6.0696766","placename":"Tobermory, Isle Of Mull, UK"}},{"transport_id":"17","id":"10967","transport_name":"None Selected","transport_description":null,"transport_unit":"kg km","transport_co2_eq":"0.000000","from_stop_id":"15105","from_stop_lat":"56.71299","from_stop_lon":"-4.965301","to_stop_id":"15089","to_stop_name":"origin","to_stop_lat":"57.0833333","placename":"Kinlochleven, Argyll, UK","to_stop_lon":"-3.6666667","to_stop":{"id":"15089","name":"origin","lat":"57.0833333","placename":"Cairngorms, Moray PH22 1, UK","lon":"-3.6666667"},"from_stop":{"name":"origin","id":"15105","lat":"56.71299","lon":"-4.965301","placename":"Kinlochleven, Argyll, UK"}},{"transport_id":"17","id":"10968","transport_name":"None Selected","transport_description":null,"transport_unit":"kg km","transport_co2_eq":"0.000000","from_stop_id":"15106","from_stop_lat":"56.8161954","from_stop_lon":"-5.5284053","to_stop_id":"15089","to_stop_name":"origin","to_stop_lat":"57.0833333","placename":"Glenfinnan, Inverness-shire PH37, UK","to_stop_lon":"-3.6666667","to_stop":{"id":"15089","name":"origin","lat":"57.0833333","placename":"Cairngorms, Moray PH22 1, UK","lon":"-3.6666667"},"from_stop":{"name":"origin","id":"15106","lat":"56.8161954","lon":"-5.5284053","placename":"Glenfinnan, Inverness-shire PH37, UK"}},{"transport_id":"17","id":"10969","transport_name":"None Selected","transport_description":null,"transport_unit":"kg km","transport_co2_eq":"0.000000","from_stop_id":"15107","from_stop_lat":"56.0809963","from_stop_lon":"-6.2117684","to_stop_id":"15089","to_stop_name":"origin","to_stop_lat":"57.0833333","placename":"Colonsay, Argyll and Bute PA61 7, UK","to_stop_lon":"-3.6666667","to_stop":{"id":"15089","name":"origin","lat":"57.0833333","placename":"Cairngorms, Moray PH22 1, UK","lon":"-3.6666667"},"from_stop":{"name":"origin","id":"15107","lat":"56.0809963","lon":"-6.2117684","placename":"Colonsay, Argyll and Bute PA61 7, UK"}},{"transport_id":"17","id":"10970","transport_name":"None Selected","transport_description":null,"transport_unit":"kg km","transport_co2_eq":"0.000000","from_stop_id":"15108","from_stop_lat":"57.3373976","from_stop_lon":"-5.6526079","to_stop_id":"15089","to_stop_name":"origin","to_stop_lat":"57.0833333","placename":"Plockton, Ross-Shire, UK","to_stop_lon":"-3.6666667","to_stop":{"id":"15089","name":"origin","lat":"57.0833333","placename":"Cairngorms, Moray PH22 1, UK","lon":"-3.6666667"},"from_stop":{"name":"origin","id":"15108","lat":"57.3373976","lon":"-5.6526079","placename":"Plockton, Ross-Shire, UK"}}],"outgoing":[]}}},"parts":[{"oid":"251","imid":"643","linkid":"","weight":"0","rawemissions":"0","emissions":"0","shipping":"192.51","processemissions":"0","endoflifeemissions":"0","disposaltype":null,"disposalenergy":null,"disposalimpact":null,"disposalemissions":null,"description":"Part Description","name":"Isle of Arran Brewery","id":"643","stops":{"origin":{"related_to":"643","part_or_object":"p","notes":null,"placename":"Isle of Arran, North Ayrshire KA27 8, UK","id":15094,"name":"origin","lat":"55.5806165","lon":"-5.2108573","hops":{"incoming":[],"outgoing":[{"transport_id":"17","id":"10956","transport_name":"None Selected","transport_description":null,"transport_unit":"kg km","transport_co2_eq":"0.000000","from_stop_id":"15094","from_stop_lat":"55.5806165","from_stop_lon":"-5.2108573","from_stop_placename":"Isle of Arran, North Ayrshire KA27 8, UK","to_stop_id":"15089","to_stop_name":"origin","to_stop_lat":"57.0833333","to_stop_lon":"-3.6666667","to_stop_placename":"Cairngorms, Moray PH22 1, UK","to_stop":{"id":"15089","name":"origin","lat":"57.0833333","lon":"-3.6666667","placename":"Cairngorms, Moray PH22 1, UK"},"from_stop":{"name":"origin","id":"15094","lat":"55.5806165","lon":"-5.2108573","placename":"Isle of Arran, North Ayrshire KA27 8, UK"}}]}}},"processes":[],"eols":[]},{"oid":"251","imid":"644","linkid":"","weight":"0","rawemissions":"0","emissions":"0","shipping":"154.03","processemissions":"0","endoflifeemissions":"0","disposaltype":null,"disposalenergy":null,"disposalimpact":null,"disposalemissions":null,"description":"Part Description","name":"Fyne Ales Brewery","id":"644","stops":{"origin":{"related_to":"644","part_or_object":"p","notes":null,"placename":"Loch Fyne, Argyll and Bute, UK","id":15095,"name":"origin","lat":"56.2128461","lon":"-5.6231309","hops":{"incoming":[],"outgoing":[{"transport_id":"17","id":"10957","transport_name":"None Selected","transport_description":null,"transport_unit":"kg km","transport_co2_eq":"0.000000","from_stop_id":"15095","from_stop_lat":"56.2128461","from_stop_lon":"-5.6231309","from_stop_placename":"Loch Fyne, Argyll and Bute, UK","to_stop_id":"15089","to_stop_name":"origin","to_stop_lat":"57.0833333","to_stop_lon":"-3.6666667","to_stop_placename":"Cairngorms, Moray PH22 1, UK","to_stop":{"id":"15089","name":"origin","lat":"57.0833333","lon":"-3.6666667","placename":"Cairngorms, Moray PH22 1, UK"},"from_stop":{"name":"origin","id":"15095","lat":"56.2128461","lon":"-5.6231309","placename":"Loch Fyne, Argyll and Bute, UK"}}]}}},"processes":[],"eols":[]},{"oid":"251","imid":"645","linkid":"","weight":"0","rawemissions":"0","emissions":"0","shipping":"15.77","processemissions":"0","endoflifeemissions":"0","disposaltype":null,"disposalenergy":null,"disposalimpact":null,"disposalemissions":null,"description":"Part Description","name":"Cairngorm Brewery","id":"645","stops":{"origin":{"related_to":"645","part_or_object":"p","notes":null,"placename":"Aviemore, Inverness-Shire, UK","id":15096,"name":"origin","lat":"57.1943697","lon":"-3.8288246","hops":{"incoming":[],"outgoing":[{"transport_id":"17","id":"10958","transport_name":"None Selected","transport_description":null,"transport_unit":"kg km","transport_co2_eq":"0.000000","from_stop_id":"15096","from_stop_lat":"57.1943697","from_stop_lon":"-3.8288246","from_stop_placename":"Aviemore, Inverness-Shire, UK","to_stop_id":"15089","to_stop_name":"origin","to_stop_lat":"57.0833333","to_stop_lon":"-3.6666667","to_stop_placename":"Cairngorms, Moray PH22 1, UK","to_stop":{"id":"15089","name":"origin","lat":"57.0833333","lon":"-3.6666667","placename":"Cairngorms, Moray PH22 1, UK"},"from_stop":{"name":"origin","id":"15096","lat":"57.1943697","lon":"-3.8288246","placename":"Aviemore, Inverness-Shire, UK"}}]}}},"processes":[],"eols":[]},{"oid":"251","imid":"646","linkid":"","weight":"0","rawemissions":"0","emissions":"0","shipping":"205.24","processemissions":"0","endoflifeemissions":"0","disposaltype":null,"disposalenergy":null,"disposalimpact":null,"disposalemissions":null,"description":"Part Description","name":"Hebridean Brewery Company","id":"646","stops":{"origin":{"related_to":"646","part_or_object":"p","notes":null,"placename":"Stornoway, Isle Of Lewis HS2, UK","id":15097,"name":"origin","lat":"58.2160007","lon":"-6.3859307","hops":{"incoming":[],"outgoing":[{"transport_id":"17","id":"10959","transport_name":"None Selected","transport_description":null,"transport_unit":"kg km","transport_co2_eq":"0.000000","from_stop_id":"15097","from_stop_lat":"58.2160007","from_stop_lon":"-6.3859307","from_stop_placename":"Stornoway, Isle Of Lewis HS2, UK","to_stop_id":"15089","to_stop_name":"origin","to_stop_lat":"57.0833333","to_stop_lon":"-3.6666667","to_stop_placename":"Cairngorms, Moray PH22 1, UK","to_stop":{"id":"15089","name":"origin","lat":"57.0833333","lon":"-3.6666667","placename":"Cairngorms, Moray PH22 1, UK"},"from_stop":{"name":"origin","id":"15097","lat":"58.2160007","lon":"-6.3859307","placename":"Stornoway, Isle Of Lewis HS2, UK"}}]}}},"processes":[],"eols":[]},{"oid":"251","imid":"647","linkid":"","weight":"0","rawemissions":"0","emissions":"0","shipping":"89.06","processemissions":"0","endoflifeemissions":"0","disposaltype":null,"disposalenergy":null,"disposalimpact":null,"disposalemissions":null,"description":"Part Description","name":"Atlas Brewery","id":"647","stops":{"origin":{"related_to":"647","part_or_object":"p","notes":null,"placename":"Kinlochleven, Argyll, UK","id":15098,"name":"origin","lat":"56.71299","lon":"-4.965301","hops":{"incoming":[],"outgoing":[{"transport_id":"17","id":"10960","transport_name":"None Selected","transport_description":null,"transport_unit":"kg km","transport_co2_eq":"0.000000","from_stop_id":"15098","from_stop_lat":"56.71299","from_stop_lon":"-4.965301","from_stop_placename":"Kinlochleven, Argyll, UK","to_stop_id":"15089","to_stop_name":"origin","to_stop_lat":"57.0833333","to_stop_lon":"-3.6666667","to_stop_placename":"Cairngorms, Moray PH22 1, UK","to_stop":{"id":"15089","name":"origin","lat":"57.0833333","lon":"-3.6666667","placename":"Cairngorms, Moray PH22 1, UK"},"from_stop":{"name":"origin","id":"15098","lat":"56.71299","lon":"-4.965301","placename":"Kinlochleven, Argyll, UK"}}]}}},"processes":[],"eols":[]},{"oid":"251","imid":"648","linkid":"","weight":"0","rawemissions":"0","emissions":"0","shipping":"128.16","processemissions":"0","endoflifeemissions":"0","disposaltype":null,"disposalenergy":null,"disposalimpact":null,"disposalemissions":null,"description":"Part Description","name":"An Teallach Brewery","id":"648","stops":{"origin":{"related_to":"648","part_or_object":"p","notes":null,"placename":"Camusnagaul, Dundonnell, Garve, Ross-Shire, UK","id":15099,"name":"origin","lat":"57.850788","lon":"-5.262623","hops":{"incoming":[],"outgoing":[{"transport_id":"17","id":"10961","transport_name":"None Selected","transport_description":null,"transport_unit":"kg km","transport_co2_eq":"0.000000","from_stop_id":"15099","from_stop_lat":"57.850788","from_stop_lon":"-5.262623","from_stop_placename":"Camusnagaul, Dundonnell, Garve, Ross-Shire, UK","to_stop_id":"15089","to_stop_name":"origin","to_stop_lat":"57.0833333","to_stop_lon":"-3.6666667","to_stop_placename":"Cairngorms, Moray PH22 1, UK","to_stop":{"id":"15089","name":"origin","lat":"57.0833333","lon":"-3.6666667","placename":"Cairngorms, Moray PH22 1, UK"},"from_stop":{"name":"origin","id":"15099","lat":"57.850788","lon":"-5.262623","placename":"Camusnagaul, Dundonnell, Garve, Ross-Shire, UK"}}]}}},"processes":[],"eols":[]},{"oid":"251","imid":"649","linkid":"","weight":"0","rawemissions":"0","emissions":"0","shipping":"215.36","processemissions":"0","endoflifeemissions":"0","disposaltype":null,"disposalenergy":null,"disposalimpact":null,"disposalemissions":null,"description":"Part Description","name":"Islay Ales Co Ltd","id":"649","stops":{"origin":{"related_to":"649","part_or_object":"p","notes":null,"placename":"Islay, Argyll and Bute, UK","id":15100,"name":"origin","lat":"55.7362535","lon":"-6.177067","hops":{"incoming":[],"outgoing":[{"transport_id":"17","id":"10962","transport_name":"None Selected","transport_description":null,"transport_unit":"kg km","transport_co2_eq":"0.000000","from_stop_id":"15100","from_stop_lat":"55.7362535","from_stop_lon":"-6.177067","from_stop_placename":"Islay, Argyll and Bute, UK","to_stop_id":"15089","to_stop_name":"origin","to_stop_lat":"57.0833333","to_stop_lon":"-3.6666667","to_stop_placename":"Cairngorms, Moray PH22 1, UK","to_stop":{"id":"15089","name":"origin","lat":"57.0833333","lon":"-3.6666667","placename":"Cairngorms, Moray PH22 1, UK"},"from_stop":{"name":"origin","id":"15100","lat":"55.7362535","lon":"-6.177067","placename":"Islay, Argyll and Bute, UK"}}]}}},"processes":[],"eols":[]},{"oid":"251","imid":"650","linkid":"","weight":"0","rawemissions":"0","emissions":"0","shipping":"153.02","processemissions":"0","endoflifeemissions":"0","disposaltype":null,"disposalenergy":null,"disposalimpact":null,"disposalemissions":null,"description":"Part Description","name":"Cuillin Brewery Ltd","id":"650","stops":{"origin":{"related_to":"650","part_or_object":"p","notes":null,"placename":"Sligachan, Highland IV47 8, UK","id":15101,"name":"origin","lat":"57.287992","lon":"-6.175137","hops":{"incoming":[],"outgoing":[{"transport_id":"17","id":"10963","transport_name":"None Selected","transport_description":null,"transport_unit":"kg km","transport_co2_eq":"0.000000","from_stop_id":"15101","from_stop_lat":"57.287992","from_stop_lon":"-6.175137","from_stop_placename":"Sligachan, Highland IV47 8, UK","to_stop_id":"15089","to_stop_name":"origin","to_stop_lat":"57.0833333","to_stop_lon":"-3.6666667","to_stop_placename":"Cairngorms, Moray PH22 1, UK","to_stop":{"id":"15089","name":"origin","lat":"57.0833333","lon":"-3.6666667","placename":"Cairngorms, Moray PH22 1, UK"},"from_stop":{"name":"origin","id":"15101","lat":"57.287992","lon":"-6.175137","placename":"Sligachan, Highland IV47 8, UK"}}]}}},"processes":[],"eols":[]},{"oid":"251","imid":"651","linkid":"","weight":"0","rawemissions":"0","emissions":"0","shipping":"227.14","processemissions":"0","endoflifeemissions":"0","disposaltype":null,"disposalenergy":null,"disposalimpact":null,"disposalemissions":null,"description":"Part Description","name":"Highland Brewing Company","id":"651","stops":{"origin":{"related_to":"651","part_or_object":"p","notes":null,"placename":"Birsay, Orkney KW17, UK","id":15102,"name":"origin","lat":"59.1145195","lon":"-3.2999301","hops":{"incoming":[],"outgoing":[{"transport_id":"17","id":"10964","transport_name":"None Selected","transport_description":null,"transport_unit":"kg km","transport_co2_eq":"0.000000","from_stop_id":"15102","from_stop_lat":"59.1145195","from_stop_lon":"-3.2999301","from_stop_placename":"Birsay, Orkney KW17, UK","to_stop_id":"15089","to_stop_name":"origin","to_stop_lat":"57.0833333","to_stop_lon":"-3.6666667","to_stop_placename":"Cairngorms, Moray PH22 1, UK","to_stop":{"id":"15089","name":"origin","lat":"57.0833333","lon":"-3.6666667","placename":"Cairngorms, Moray PH22 1, UK"},"from_stop":{"name":"origin","id":"15102","lat":"59.1145195","lon":"-3.2999301","placename":"Birsay, Orkney KW17, UK"}}]}}},"processes":[],"eols":[]},{"oid":"251","imid":"652","linkid":"","weight":"0","rawemissions":"0","emissions":"0","shipping":"149.21","processemissions":"0","endoflifeemissions":"0","disposaltype":null,"disposalenergy":null,"disposalimpact":null,"disposalemissions":null,"description":"Part Description","name":"Oyster Brewery","id":"652","stops":{"origin":{"related_to":"652","part_or_object":"p","notes":null,"placename":"Ellenabeich, Argyll and Bute PA34 4, UK","id":15103,"name":"origin","lat":"56.293722","lon":"-5.639144","hops":{"incoming":[],"outgoing":[{"transport_id":"17","id":"10965","transport_name":"None Selected","transport_description":null,"transport_unit":"kg km","transport_co2_eq":"0.000000","from_stop_id":"15103","from_stop_lat":"56.293722","from_stop_lon":"-5.639144","from_stop_placename":"Ellenabeich, Argyll and Bute PA34 4, UK","to_stop_id":"15089","to_stop_name":"origin","to_stop_lat":"57.0833333","to_stop_lon":"-3.6666667","to_stop_placename":"Cairngorms, Moray PH22 1, UK","to_stop":{"id":"15089","name":"origin","lat":"57.0833333","lon":"-3.6666667","placename":"Cairngorms, Moray PH22 1, UK"},"from_stop":{"name":"origin","id":"15103","lat":"56.293722","lon":"-5.639144","placename":"Ellenabeich, Argyll and Bute PA34 4, UK"}}]}}},"processes":[],"eols":[]},{"oid":"251","imid":"653","linkid":"","weight":"0","rawemissions":"0","emissions":"0","shipping":"154.94","processemissions":"0","endoflifeemissions":"0","disposaltype":null,"disposalenergy":null,"disposalimpact":null,"disposalemissions":null,"description":"Part Description","name":"Isle of Mull Brewery","id":"653","stops":{"origin":{"related_to":"653","part_or_object":"p","notes":null,"placename":"Tobermory, Isle Of Mull, UK","id":15104,"name":"origin","lat":"56.6238998","lon":"-6.0696766","hops":{"incoming":[],"outgoing":[{"transport_id":"17","id":"10966","transport_name":"None Selected","transport_description":null,"transport_unit":"kg km","transport_co2_eq":"0.000000","from_stop_id":"15104","from_stop_lat":"56.6238998","from_stop_lon":"-6.0696766","from_stop_placename":"Tobermory, Isle Of Mull, UK","to_stop_id":"15089","to_stop_name":"origin","to_stop_lat":"57.0833333","to_stop_lon":"-3.6666667","to_stop_placename":"Cairngorms, Moray PH22 1, UK","to_stop":{"id":"15089","name":"origin","lat":"57.0833333","lon":"-3.6666667","placename":"Cairngorms, Moray PH22 1, UK"},"from_stop":{"name":"origin","id":"15104","lat":"56.6238998","lon":"-6.0696766","placename":"Tobermory, Isle Of Mull, UK"}}]}}},"processes":[],"eols":[]},{"oid":"251","imid":"641","linkid":"","weight":"0","rawemissions":"0","emissions":"0","shipping":"437.53","processemissions":"0","endoflifeemissions":"0","disposaltype":null,"disposalenergy":null,"disposalimpact":null,"disposalemissions":null,"description":"Part Description","name":"Valhalla Brewery","id":"641","stops":{"origin":{"related_to":"641","part_or_object":"p","notes":null,"placename":"Unst, Shetland, Shetland Islands ZE2 9, UK","id":15090,"name":"origin","lat":"60.740251","lon":"-0.872408","hops":{"incoming":[],"outgoing":[{"transport_id":"17","id":"10952","transport_name":"None Selected","transport_description":null,"transport_unit":"kg km","transport_co2_eq":"0.000000","from_stop_id":"15090","from_stop_lat":"60.740251","from_stop_lon":"-0.872408","from_stop_placename":"Unst, Shetland, Shetland Islands ZE2 9, UK","to_stop_id":"15089","to_stop_name":"origin","to_stop_lat":"57.0833333","to_stop_lon":"-3.6666667","to_stop_placename":"Cairngorms, Moray PH22 1, UK","to_stop":{"id":"15089","name":"origin","lat":"57.0833333","lon":"-3.6666667","placename":"Cairngorms, Moray PH22 1, UK"},"from_stop":{"name":"origin","id":"15090","lat":"60.740251","lon":"-0.872408","placename":"Unst, Shetland, Shetland Islands ZE2 9, UK"}}]}}},"processes":[],"eols":[]},{"oid":"251","imid":"642","linkid":"","weight":"0","rawemissions":"0","emissions":"0","shipping":"65.78","processemissions":"0","endoflifeemissions":"0","disposaltype":null,"disposalenergy":null,"disposalimpact":null,"disposalemissions":null,"description":"Part Description","name":"Black Isle Brewery","id":"642","stops":{"origin":{"related_to":"642","part_or_object":"p","notes":null,"placename":"Black Isle, Highland IV8 8, UK","id":15091,"name":"origin","lat":"57.5833333","lon":"-4.25","hops":{"incoming":[],"outgoing":[{"transport_id":"17","id":"10953","transport_name":"None Selected","transport_description":null,"transport_unit":"kg km","transport_co2_eq":"0.000000","from_stop_id":"15091","from_stop_lat":"57.5833333","from_stop_lon":"-4.25","from_stop_placename":"Black Isle, Highland IV8 8, UK","to_stop_id":"15089","to_stop_name":"origin","to_stop_lat":"57.0833333","to_stop_lon":"-3.6666667","to_stop_placename":"Cairngorms, Moray PH22 1, UK","to_stop":{"id":"15089","name":"origin","lat":"57.0833333","lon":"-3.6666667","placename":"Cairngorms, Moray PH22 1, UK"},"from_stop":{"name":"origin","id":"15091","lat":"57.5833333","lon":"-4.25","placename":"Black Isle, Highland IV8 8, UK"}}]}}},"processes":[],"eols":[]},{"oid":"251","imid":"640","linkid":"","weight":"0","rawemissions":"0","emissions":"0","shipping":"171.29","processemissions":"0","endoflifeemissions":"0","disposaltype":null,"disposalenergy":null,"disposalimpact":null,"disposalemissions":null,"description":"Part Description","name":"Isle of Skye Brewery","id":"640","stops":{"origin":{"related_to":"640","part_or_object":"p","notes":null,"placename":"Uig, Portree, Isle Of Skye, UK","id":15092,"name":"origin","lat":"57.5918928","lon":"-6.3578038","hops":{"incoming":[],"outgoing":[{"transport_id":"17","id":"10954","transport_name":"None Selected","transport_description":null,"transport_unit":"kg km","transport_co2_eq":"0.000000","from_stop_id":"15092","from_stop_lat":"57.5918928","from_stop_lon":"-6.3578038","from_stop_placename":"Uig, Portree, Isle Of Skye, UK","to_stop_id":"15089","to_stop_name":"origin","to_stop_lat":"57.0833333","to_stop_lon":"-3.6666667","to_stop_placename":"Cairngorms, Moray PH22 1, UK","to_stop":{"id":"15089","name":"origin","lat":"57.0833333","lon":"-3.6666667","placename":"Cairngorms, Moray PH22 1, UK"},"from_stop":{"name":"origin","id":"15092","lat":"57.5918928","lon":"-6.3578038","placename":"Uig, Portree, Isle Of Skye, UK"}}]}}},"processes":[],"eols":[]},{"oid":"251","imid":"639","linkid":"","weight":"0","rawemissions":"0","emissions":"0","shipping":"353.91","processemissions":"0","endoflifeemissions":"0","disposaltype":null,"disposalenergy":null,"disposalimpact":null,"disposalemissions":null,"description":"Part Description","name":"Orkney Brewery","id":"639","stops":{"origin":{"related_to":"639","part_or_object":"p","notes":null,"placename":"Sandwick, Shetland, Shetland Islands ZE2, UK","id":15093,"name":"origin","lat":"59.9966581","lon":"-1.2253186","hops":{"incoming":[],"outgoing":[{"transport_id":"17","id":"10955","transport_name":"None Selected","transport_description":null,"transport_unit":"kg km","transport_co2_eq":"0.000000","from_stop_id":"15093","from_stop_lat":"59.9966581","from_stop_lon":"-1.2253186","from_stop_placename":"Sandwick, Shetland, Shetland Islands ZE2, UK","to_stop_id":"15089","to_stop_name":"origin","to_stop_lat":"57.0833333","to_stop_lon":"-3.6666667","to_stop_placename":"Cairngorms, Moray PH22 1, UK","to_stop":{"id":"15089","name":"origin","lat":"57.0833333","lon":"-3.6666667","placename":"Cairngorms, Moray PH22 1, UK"},"from_stop":{"name":"origin","id":"15093","lat":"59.9966581","lon":"-1.2253186","placename":"Sandwick, Shetland, Shetland Islands ZE2, UK"}}]}}},"processes":[],"eols":[]},{"oid":"251","imid":"654","linkid":"","weight":"0","rawemissions":"0","emissions":"0","shipping":"89.06","processemissions":"0","endoflifeemissions":"0","disposaltype":null,"disposalenergy":null,"disposalimpact":null,"disposalemissions":null,"description":"Part Description","name":"Sinclair Breweries","id":"654","stops":{"origin":{"related_to":"654","part_or_object":"p","notes":null,"placename":"Kinlochleven, Argyll, UK","id":15105,"name":"origin","lat":"56.71299","lon":"-4.965301","hops":{"incoming":[],"outgoing":[{"transport_id":"17","id":"10967","transport_name":"None Selected","transport_description":null,"transport_unit":"kg km","transport_co2_eq":"0.000000","from_stop_id":"15105","from_stop_lat":"56.71299","from_stop_lon":"-4.965301","from_stop_placename":"Kinlochleven, Argyll, UK","to_stop_id":"15089","to_stop_name":"origin","to_stop_lat":"57.0833333","to_stop_lon":"-3.6666667","to_stop_placename":"Cairngorms, Moray PH22 1, UK","to_stop":{"id":"15089","name":"origin","lat":"57.0833333","lon":"-3.6666667","placename":"Cairngorms, Moray PH22 1, UK"},"from_stop":{"name":"origin","id":"15105","lat":"56.71299","lon":"-4.965301","placename":"Kinlochleven, Argyll, UK"}}]}}},"processes":[],"eols":[]},{"oid":"251","imid":"655","linkid":"","weight":"0","rawemissions":"0","emissions":"0","shipping":"116.87","processemissions":"0","endoflifeemissions":"0","disposaltype":null,"disposalenergy":null,"disposalimpact":null,"disposalemissions":null,"description":"Part Description","name":"Glenfinnan Brewery","id":"655","stops":{"origin":{"related_to":"655","part_or_object":"p","notes":null,"placename":"Glenfinnan, Inverness-shire PH37, UK","id":15106,"name":"origin","lat":"56.8161954","lon":"-5.5284053","hops":{"incoming":[],"outgoing":[{"transport_id":"17","id":"10968","transport_name":"None Selected","transport_description":null,"transport_unit":"kg km","transport_co2_eq":"0.000000","from_stop_id":"15106","from_stop_lat":"56.8161954","from_stop_lon":"-5.5284053","from_stop_placename":"Glenfinnan, Inverness-shire PH37, UK","to_stop_id":"15089","to_stop_name":"origin","to_stop_lat":"57.0833333","to_stop_lon":"-3.6666667","to_stop_placename":"Cairngorms, Moray PH22 1, UK","to_stop":{"id":"15089","name":"origin","lat":"57.0833333","lon":"-3.6666667","placename":"Cairngorms, Moray PH22 1, UK"},"from_stop":{"name":"origin","id":"15106","lat":"56.8161954","lon":"-5.5284053","placename":"Glenfinnan, Inverness-shire PH37, UK"}}]}}},"processes":[],"eols":[]},{"oid":"251","imid":"656","linkid":"","weight":"0","rawemissions":"0","emissions":"0","shipping":"191.81","processemissions":"0","endoflifeemissions":"0","disposaltype":null,"disposalenergy":null,"disposalimpact":null,"disposalemissions":null,"description":"Part Description","name":"Isle of Colonsay Brewing Company","id":"656","stops":{"origin":{"related_to":"656","part_or_object":"p","notes":null,"placename":"Colonsay, Argyll and Bute PA61 7, UK","id":15107,"name":"origin","lat":"56.0809963","lon":"-6.2117684","hops":{"incoming":[],"outgoing":[{"transport_id":"17","id":"10969","transport_name":"None Selected","transport_description":null,"transport_unit":"kg km","transport_co2_eq":"0.000000","from_stop_id":"15107","from_stop_lat":"56.0809963","from_stop_lon":"-6.2117684","from_stop_placename":"Colonsay, Argyll and Bute PA61 7, UK","to_stop_id":"15089","to_stop_name":"origin","to_stop_lat":"57.0833333","to_stop_lon":"-3.6666667","to_stop_placename":"Cairngorms, Moray PH22 1, UK","to_stop":{"id":"15089","name":"origin","lat":"57.0833333","lon":"-3.6666667","placename":"Cairngorms, Moray PH22 1, UK"},"from_stop":{"name":"origin","id":"15107","lat":"56.0809963","lon":"-6.2117684","placename":"Colonsay, Argyll and Bute PA61 7, UK"}}]}}},"processes":[],"eols":[]},{"oid":"251","imid":"657","linkid":"","weight":"0","rawemissions":"0","emissions":"0","shipping":"123.01","processemissions":"0","endoflifeemissions":"0","disposaltype":null,"disposalenergy":null,"disposalimpact":null,"disposalemissions":null,"description":"Part Description","name":"Plockton Brewery","id":"657","stops":{"origin":{"related_to":"657","part_or_object":"p","notes":null,"placename":"Plockton, Ross-Shire, UK","id":15108,"name":"origin","lat":"57.3373976","lon":"-5.6526079","hops":{"incoming":[],"outgoing":[{"transport_id":"17","id":"10970","transport_name":"None Selected","transport_description":null,"transport_unit":"kg km","transport_co2_eq":"0.000000","from_stop_id":"15108","from_stop_lat":"57.3373976","from_stop_lon":"-5.6526079","from_stop_placename":"Plockton, Ross-Shire, UK","to_stop_id":"15089","to_stop_name":"origin","to_stop_lat":"57.0833333","to_stop_lon":"-3.6666667","to_stop_placename":"Cairngorms, Moray PH22 1, UK","to_stop":{"id":"15089","name":"origin","lat":"57.0833333","lon":"-3.6666667","placename":"Cairngorms, Moray PH22 1, UK"},"from_stop":{"name":"origin","id":"15108","lat":"57.3373976","lon":"-5.6526079","placename":"Plockton, Ross-Shire, UK"}}]}}},"processes":[],"eols":[]}],"user":{"name":"leo","id":"1"}}}