{"2563":{"oid":"2563","type":"travel","flag":"","creator":"6444","name":"ROFLCon Invited Guests","upc":"","imagelink":"","description":"A map to show where all the invited speakers and guests of honor of ROFLCon 2010 came from.","slug":"roflcon-invited-guests","category":"","weight":"0","emissions":"0","embodied":"0","transport":"0","process":"0","endoflife":"0","shipping":"61846.22","lifetime":null,"usagetype":"","usageenergy":null,"usageemissions":null,"timecreated":"2010-02-24 22:03:36.812079","timemodified":"2010-03-08 22:30:10","visibility":"public","showfootprint":"","showembodied":"","showtransport":"","showprocess":"","showendoflife":"","showlastleg":"on","showuse":"","showstats":"","stops":{"origin":{"related_to":"2563","part_or_object":"o","notes":"","placename":"Cambridge, MA, USA","id":"1014","category":"1","lat":"42.3750969","lon":"-71.1056079","name":"origin","hops":{"incoming":[{"transport_id":"17","id":"1888","transport_name":"None Selected","transport_description":null,"transport_unit":"kg km","transport_co2_eq":"0.000000","from_stop_id":"4148","from_stop_lat":"30.267153","from_stop_lon":"-97.7430608","to_stop_id":"1014","to_stop_name":"origin","to_stop_lat":"42.3750969","placename":"Austin, TX, USA","to_stop_lon":"-71.1056079","to_stop":{"id":"1014","name":"origin","lat":"42.3750969","placename":"Cambridge, MA, USA","lon":"-71.1056079"},"from_stop":{"name":"origin","id":"4148","lat":"30.267153","lon":"-97.7430608","placename":"Austin, TX, USA"}},{"transport_id":"17","id":"1889","transport_name":"None Selected","transport_description":null,"transport_unit":"kg km","transport_co2_eq":"0.000000","from_stop_id":"4149","from_stop_lat":"30.267153","from_stop_lon":"-97.7430608","to_stop_id":"1014","to_stop_name":"origin","to_stop_lat":"42.3750969","placename":"Austin, TX, USA","to_stop_lon":"-71.1056079","to_stop":{"id":"1014","name":"origin","lat":"42.3750969","placename":"Cambridge, MA, USA","lon":"-71.1056079"},"from_stop":{"name":"origin","id":"4149","lat":"30.267153","lon":"-97.7430608","placename":"Austin, TX, USA"}},{"transport_id":"17","id":"1890","transport_name":"None Selected","transport_description":null,"transport_unit":"kg km","transport_co2_eq":"0.000000","from_stop_id":"4150","from_stop_lat":"34.1808392","from_stop_lon":"-118.3089661","to_stop_id":"1014","to_stop_name":"origin","to_stop_lat":"42.3750969","placename":"Burbank, CA, USA","to_stop_lon":"-71.1056079","to_stop":{"id":"1014","name":"origin","lat":"42.3750969","placename":"Cambridge, MA, USA","lon":"-71.1056079"},"from_stop":{"name":"origin","id":"4150","lat":"34.1808392","lon":"-118.3089661","placename":"Burbank, CA, USA"}},{"transport_id":"17","id":"1892","transport_name":"None Selected","transport_description":null,"transport_unit":"kg km","transport_co2_eq":"0.000000","from_stop_id":"4152","from_stop_lat":"39.9611755","from_stop_lon":"-82.9987942","to_stop_id":"1014","to_stop_name":"origin","to_stop_lat":"42.3750969","placename":"Columbus, OH, USA","to_stop_lon":"-71.1056079","to_stop":{"id":"1014","name":"origin","lat":"42.3750969","placename":"Cambridge, MA, USA","lon":"-71.1056079"},"from_stop":{"name":"origin","id":"4152","lat":"39.9611755","lon":"-82.9987942","placename":"Columbus, OH, USA"}},{"transport_id":"17","id":"1893","transport_name":"None Selected","transport_description":null,"transport_unit":"kg km","transport_co2_eq":"0.000000","from_stop_id":"4153","from_stop_lat":"53.344104","from_stop_lon":"-6.2674937","to_stop_id":"1014","to_stop_name":"origin","to_stop_lat":"42.3750969","placename":"Dublin, Co. Dublin City, Ireland","to_stop_lon":"-71.1056079","to_stop":{"id":"1014","name":"origin","lat":"42.3750969","placename":"Cambridge, MA, USA","lon":"-71.1056079"},"from_stop":{"name":"origin","id":"4153","lat":"53.344104","lon":"-6.2674937","placename":"Dublin, Co. Dublin City, Ireland"}},{"transport_id":"17","id":"1894","transport_name":"None Selected","transport_description":null,"transport_unit":"kg km","transport_co2_eq":"0.000000","from_stop_id":"4154","from_stop_lat":"33.9435319","from_stop_lon":"-118.4086176","to_stop_id":"1014","to_stop_name":"origin","to_stop_lat":"42.3750969","placename":"Los Angeles International Airport, Los Angeles, CA 90045, USA","to_stop_lon":"-71.1056079","to_stop":{"id":"1014","name":"origin","lat":"42.3750969","placename":"Cambridge, MA, USA","lon":"-71.1056079"},"from_stop":{"name":"origin","id":"4154","lat":"33.9435319","lon":"-118.4086176","placename":"Los Angeles International Airport, Los Angeles, CA 90045, USA"}},{"transport_id":"17","id":"1895","transport_name":"None Selected","transport_description":null,"transport_unit":"kg km","transport_co2_eq":"0.000000","from_stop_id":"4155","from_stop_lat":"33.9435319","from_stop_lon":"-118.4086176","to_stop_id":"1014","to_stop_name":"origin","to_stop_lat":"42.3750969","placename":"Los Angeles International Airport, Los Angeles, CA 90045, USA","to_stop_lon":"-71.1056079","to_stop":{"id":"1014","name":"origin","lat":"42.3750969","placename":"Cambridge, MA, USA","lon":"-71.1056079"},"from_stop":{"name":"origin","id":"4155","lat":"33.9435319","lon":"-118.4086176","placename":"Los Angeles International Airport, Los Angeles, CA 90045, USA"}},{"transport_id":"17","id":"1896","transport_name":"None Selected","transport_description":null,"transport_unit":"kg km","transport_co2_eq":"0.000000","from_stop_id":"4156","from_stop_lat":"34.0522342","from_stop_lon":"-118.2436849","to_stop_id":"1014","to_stop_name":"origin","to_stop_lat":"42.3750969","placename":"Los Angeles, CA, USA","to_stop_lon":"-71.1056079","to_stop":{"id":"1014","name":"origin","lat":"42.3750969","placename":"Cambridge, MA, USA","lon":"-71.1056079"},"from_stop":{"name":"origin","id":"4156","lat":"34.0522342","lon":"-118.2436849","placename":"Los Angeles, CA, USA"}},{"transport_id":"17","id":"1897","transport_name":"None Selected","transport_description":null,"transport_unit":"kg km","transport_co2_eq":"0.000000","from_stop_id":"4157","from_stop_lat":"34.0522342","from_stop_lon":"-118.2436849","to_stop_id":"1014","to_stop_name":"origin","to_stop_lat":"42.3750969","placename":"Los Angeles, CA, USA","to_stop_lon":"-71.1056079","to_stop":{"id":"1014","name":"origin","lat":"42.3750969","placename":"Cambridge, MA, USA","lon":"-71.1056079"},"from_stop":{"name":"origin","id":"4157","lat":"34.0522342","lon":"-118.2436849","placename":"Los Angeles, CA, USA"}},{"transport_id":"17","id":"1898","transport_name":"None Selected","transport_description":null,"transport_unit":"kg km","transport_co2_eq":"0.000000","from_stop_id":"4158","from_stop_lat":"51.5001524","from_stop_lon":"-0.1262362","to_stop_id":"1014","to_stop_name":"origin","to_stop_lat":"42.3750969","placename":"Westminster, London, UK","to_stop_lon":"-71.1056079","to_stop":{"id":"1014","name":"origin","lat":"42.3750969","placename":"Cambridge, MA, USA","lon":"-71.1056079"},"from_stop":{"name":"origin","id":"4158","lat":"51.5001524","lon":"-0.1262362","placename":"Westminster, London, UK"}},{"transport_id":"17","id":"1899","transport_name":"None Selected","transport_description":null,"transport_unit":"kg km","transport_co2_eq":"0.000000","from_stop_id":"4159","from_stop_lat":"28.4313828","from_stop_lon":"-81.3084374","to_stop_id":"1014","to_stop_name":"origin","to_stop_lat":"42.3750969","placename":"Orlando International Airport, Orlando, FL 32827, USA","to_stop_lon":"-71.1056079","to_stop":{"id":"1014","name":"origin","lat":"42.3750969","placename":"Cambridge, MA, USA","lon":"-71.1056079"},"from_stop":{"name":"origin","id":"4159","lat":"28.4313828","lon":"-81.3084374","placename":"Orlando International Airport, Orlando, FL 32827, USA"}},{"transport_id":"17","id":"1900","transport_name":"None Selected","transport_description":null,"transport_unit":"kg km","transport_co2_eq":"0.000000","from_stop_id":"4160","from_stop_lat":"28.4313828","from_stop_lon":"-81.3084374","to_stop_id":"1014","to_stop_name":"origin","to_stop_lat":"42.3750969","placename":"Orlando International Airport, Orlando, FL 32827, USA","to_stop_lon":"-71.1056079","to_stop":{"id":"1014","name":"origin","lat":"42.3750969","placename":"Cambridge, MA, USA","lon":"-71.1056079"},"from_stop":{"name":"origin","id":"4160","lat":"28.4313828","lon":"-81.3084374","placename":"Orlando International Airport, Orlando, FL 32827, USA"}},{"transport_id":"17","id":"1901","transport_name":"None Selected","transport_description":null,"transport_unit":"kg km","transport_co2_eq":"0.000000","from_stop_id":"4161","from_stop_lat":"44.9799654","from_stop_lon":"-93.2638361","to_stop_id":"1014","to_stop_name":"origin","to_stop_lat":"42.3750969","placename":"Minneapolis, MN, USA","to_stop_lon":"-71.1056079","to_stop":{"id":"1014","name":"origin","lat":"42.3750969","placename":"Cambridge, MA, USA","lon":"-71.1056079"},"from_stop":{"name":"origin","id":"4161","lat":"44.9799654","lon":"-93.2638361","placename":"Minneapolis, MN, USA"}},{"transport_id":"17","id":"1902","transport_name":"None Selected","transport_description":null,"transport_unit":"kg km","transport_co2_eq":"0.000000","from_stop_id":"4162","from_stop_lat":"43.0730517","from_stop_lon":"-89.4012302","to_stop_id":"1014","to_stop_name":"origin","to_stop_lat":"42.3750969","placename":"Madison, WI, USA","to_stop_lon":"-71.1056079","to_stop":{"id":"1014","name":"origin","lat":"42.3750969","placename":"Cambridge, MA, USA","lon":"-71.1056079"},"from_stop":{"name":"origin","id":"4162","lat":"43.0730517","lon":"-89.4012302","placename":"Madison, WI, USA"}},{"transport_id":"17","id":"1903","transport_name":"None Selected","transport_description":null,"transport_unit":"kg km","transport_co2_eq":"0.000000","from_stop_id":"4163","from_stop_lat":"41.850033","from_stop_lon":"-87.6500523","to_stop_id":"1014","to_stop_name":"origin","to_stop_lat":"42.3750969","placename":"Chicago, IL, USA","to_stop_lon":"-71.1056079","to_stop":{"id":"1014","name":"origin","lat":"42.3750969","placename":"Cambridge, MA, USA","lon":"-71.1056079"},"from_stop":{"name":"origin","id":"4163","lat":"41.850033","lon":"-87.6500523","placename":"Chicago, IL, USA"}},{"transport_id":"17","id":"1904","transport_name":"None Selected","transport_description":null,"transport_unit":"kg km","transport_co2_eq":"0.000000","from_stop_id":"4164","from_stop_lat":"47.44443","from_stop_lon":"-122.300497","to_stop_id":"1014","to_stop_name":"origin","to_stop_lat":"42.3750969","placename":"Seattle-Tacoma International Airport, SeaTac, WA 98188, USA","to_stop_lon":"-71.1056079","to_stop":{"id":"1014","name":"origin","lat":"42.3750969","placename":"Cambridge, MA, USA","lon":"-71.1056079"},"from_stop":{"name":"origin","id":"4164","lat":"47.44443","lon":"-122.300497","placename":"Seattle-Tacoma International Airport, SeaTac, WA 98188, USA"}},{"transport_id":"17","id":"1905","transport_name":"None Selected","transport_description":null,"transport_unit":"kg km","transport_co2_eq":"0.000000","from_stop_id":"4165","from_stop_lat":"37.615223","from_stop_lon":"-122.389979","to_stop_id":"1014","to_stop_name":"origin","to_stop_lat":"42.3750969","placename":"San Francisco International Airport, Millbrae, CA 94030, USA","to_stop_lon":"-71.1056079","to_stop":{"id":"1014","name":"origin","lat":"42.3750969","placename":"Cambridge, MA, USA","lon":"-71.1056079"},"from_stop":{"name":"origin","id":"4165","lat":"37.615223","lon":"-122.389979","placename":"San Francisco International Airport, Millbrae, CA 94030, USA"}},{"transport_id":"14","id":"20","transport_name":"air, passenger, intercontinental","transport_description":"intercontinental, kg km from person-km","transport_unit":"kg km","transport_co2_eq":"1.189000","from_stop_id":"2168","from_stop_lat":"41.012379","from_stop_lon":"28.975926","to_stop_id":"1014","to_stop_name":"origin","to_stop_lat":"42.3750969","placename":"Istanbul, Turkey","to_stop_lon":"-71.1056079","to_stop":{"id":"1014","name":"origin","lat":"42.3750969","placename":"Cambridge, MA, USA","lon":"-71.1056079"},"from_stop":{"name":"origin","id":"2168","lat":"41.012379","lon":"28.975926","placename":"Istanbul, Turkey"}}],"outgoing":[]}}},"parts":[{"oid":"2563","imid":"1993","linkid":"","weight":"0","rawemissions":"0","emissions":"0","shipping":"7774.15","processemissions":null,"endoflifeemissions":null,"disposaltype":null,"disposalenergy":null,"disposalimpact":null,"disposalemissions":null,"description":"","name":"I Kiss You","id":"1993","stops":{"origin":{"related_to":"1993","part_or_object":"p","notes":"","placename":"Istanbul, Turkey","id":2168,"name":"origin","lat":"41.012379","lon":"28.975926","hops":{"incoming":[],"outgoing":[{"transport_id":"14","id":"20","transport_name":"air, passenger, intercontinental","transport_description":"intercontinental, kg km from person-km","transport_unit":"kg km","transport_co2_eq":"1.189000","from_stop_id":"2168","from_stop_lat":"41.012379","from_stop_lon":"28.975926","from_stop_placename":"Istanbul, Turkey","to_stop_id":"1014","to_stop_name":"origin","to_stop_lat":"42.3750969","to_stop_lon":"-71.1056079","to_stop_placename":"Cambridge, MA, USA","to_stop":{"id":"1014","name":"origin","lat":"42.3750969","lon":"-71.1056079","placename":"Cambridge, MA, USA"},"from_stop":{"name":"origin","id":"2168","lat":"41.012379","lon":"28.975926","placename":"Istanbul, Turkey"}}]}}},"processes":[],"eols":[]},{"oid":"2563","imid":"2261","linkid":"","weight":"0","rawemissions":"0","emissions":"0","shipping":"2726.23","processemissions":null,"endoflifeemissions":null,"disposaltype":null,"disposalenergy":null,"disposalimpact":null,"disposalemissions":null,"description":"","name":"Winnebago Man (documentary)","id":"2261","stops":{"origin":{"related_to":"2261","part_or_object":"p","notes":"","placename":"Austin, TX, USA","id":4148,"name":"origin","lat":"30.267153","lon":"-97.7430608","hops":{"incoming":[],"outgoing":[{"transport_id":"17","id":"1888","transport_name":"None Selected","transport_description":null,"transport_unit":"kg km","transport_co2_eq":"0.000000","from_stop_id":"4148","from_stop_lat":"30.267153","from_stop_lon":"-97.7430608","from_stop_placename":"Austin, TX, USA","to_stop_id":"1014","to_stop_name":"origin","to_stop_lat":"42.3750969","to_stop_lon":"-71.1056079","to_stop_placename":"Cambridge, MA, USA","to_stop":{"id":"1014","name":"origin","lat":"42.3750969","lon":"-71.1056079","placename":"Cambridge, MA, USA"},"from_stop":{"name":"origin","id":"4148","lat":"30.267153","lon":"-97.7430608","placename":"Austin, TX, USA"}}]}}},"processes":[],"eols":[]},{"oid":"2563","imid":"2262","linkid":"","weight":"0","rawemissions":"0","emissions":"0","shipping":"2726.23","processemissions":null,"endoflifeemissions":null,"disposaltype":null,"disposalenergy":null,"disposalimpact":null,"disposalemissions":null,"description":"","name":"Despair, Inc.","id":"2262","stops":{"origin":{"related_to":"2262","part_or_object":"p","notes":"","placename":"Austin, TX, USA","id":4149,"name":"origin","lat":"30.267153","lon":"-97.7430608","hops":{"incoming":[],"outgoing":[{"transport_id":"17","id":"1889","transport_name":"None Selected","transport_description":null,"transport_unit":"kg km","transport_co2_eq":"0.000000","from_stop_id":"4149","from_stop_lat":"30.267153","from_stop_lon":"-97.7430608","from_stop_placename":"Austin, TX, USA","to_stop_id":"1014","to_stop_name":"origin","to_stop_lat":"42.3750969","to_stop_lon":"-71.1056079","to_stop_placename":"Cambridge, MA, USA","to_stop":{"id":"1014","name":"origin","lat":"42.3750969","lon":"-71.1056079","placename":"Cambridge, MA, USA"},"from_stop":{"name":"origin","id":"4149","lat":"30.267153","lon":"-97.7430608","placename":"Austin, TX, USA"}}]}}},"processes":[],"eols":[]},{"oid":"2563","imid":"2263","linkid":"","weight":"0","rawemissions":"0","emissions":"0","shipping":"4169.2","processemissions":null,"endoflifeemissions":null,"disposaltype":null,"disposalenergy":null,"disposalimpact":null,"disposalemissions":null,"description":"","name":"FIDONet","id":"2263","stops":{"origin":{"related_to":"2263","part_or_object":"p","notes":"","placename":"Burbank, CA, USA","id":4150,"name":"origin","lat":"34.1808392","lon":"-118.3089661","hops":{"incoming":[],"outgoing":[{"transport_id":"17","id":"1890","transport_name":"None Selected","transport_description":null,"transport_unit":"kg km","transport_co2_eq":"0.000000","from_stop_id":"4150","from_stop_lat":"34.1808392","from_stop_lon":"-118.3089661","from_stop_placename":"Burbank, CA, USA","to_stop_id":"1014","to_stop_name":"origin","to_stop_lat":"42.3750969","to_stop_lon":"-71.1056079","to_stop_placename":"Cambridge, MA, USA","to_stop":{"id":"1014","name":"origin","lat":"42.3750969","lon":"-71.1056079","placename":"Cambridge, MA, USA"},"from_stop":{"name":"origin","id":"4150","lat":"34.1808392","lon":"-118.3089661","placename":"Burbank, CA, USA"}}]}}},"processes":[],"eols":[]},{"oid":"2563","imid":"2264","linkid":"","weight":"0","rawemissions":"0","emissions":"0","shipping":"1031.25","processemissions":null,"endoflifeemissions":null,"disposaltype":null,"disposalenergy":null,"disposalimpact":null,"disposalemissions":null,"description":"","name":"Cornify","id":"2264","stops":{"origin":{"related_to":"2264","part_or_object":"p","notes":"","placename":"Columbus, OH, USA","id":4152,"name":"origin","lat":"39.9611755","lon":"-82.9987942","hops":{"incoming":[],"outgoing":[{"transport_id":"17","id":"1892","transport_name":"None Selected","transport_description":null,"transport_unit":"kg km","transport_co2_eq":"0.000000","from_stop_id":"4152","from_stop_lat":"39.9611755","from_stop_lon":"-82.9987942","from_stop_placename":"Columbus, OH, USA","to_stop_id":"1014","to_stop_name":"origin","to_stop_lat":"42.3750969","to_stop_lon":"-71.1056079","to_stop_placename":"Cambridge, MA, USA","to_stop":{"id":"1014","name":"origin","lat":"42.3750969","lon":"-71.1056079","placename":"Cambridge, MA, USA"},"from_stop":{"name":"origin","id":"4152","lat":"39.9611755","lon":"-82.9987942","placename":"Columbus, OH, USA"}}]}}},"processes":[],"eols":[]},{"oid":"2563","imid":"2265","linkid":"","weight":"0","rawemissions":"0","emissions":"0","shipping":"4816.05","processemissions":null,"endoflifeemissions":null,"disposaltype":null,"disposalenergy":null,"disposalimpact":null,"disposalemissions":null,"description":"","name":"Garfield Minus Garfield","id":"2265","stops":{"origin":{"related_to":"2265","part_or_object":"p","notes":"","placename":"Dublin, Co. Dublin City, Ireland","id":4153,"name":"origin","lat":"53.344104","lon":"-6.2674937","hops":{"incoming":[],"outgoing":[{"transport_id":"17","id":"1893","transport_name":"None Selected","transport_description":null,"transport_unit":"kg km","transport_co2_eq":"0.000000","from_stop_id":"4153","from_stop_lat":"53.344104","from_stop_lon":"-6.2674937","from_stop_placename":"Dublin, Co. Dublin City, Ireland","to_stop_id":"1014","to_stop_name":"origin","to_stop_lat":"42.3750969","to_stop_lon":"-71.1056079","to_stop_placename":"Cambridge, MA, USA","to_stop":{"id":"1014","name":"origin","lat":"42.3750969","lon":"-71.1056079","placename":"Cambridge, MA, USA"},"from_stop":{"name":"origin","id":"4153","lat":"53.344104","lon":"-6.2674937","placename":"Dublin, Co. Dublin City, Ireland"}}]}}},"processes":[],"eols":[]},{"oid":"2563","imid":"2266","linkid":"","weight":"0","rawemissions":"0","emissions":"0","shipping":"4189.41","processemissions":null,"endoflifeemissions":null,"disposaltype":null,"disposalenergy":null,"disposalimpact":null,"disposalemissions":null,"description":"","name":"Regretsy","id":"2266","stops":{"origin":{"related_to":"2266","part_or_object":"p","notes":"","placename":"Los Angeles International Airport, Los Angeles, CA 90045, USA","id":4154,"name":"origin","lat":"33.9435319","lon":"-118.4086176","hops":{"incoming":[],"outgoing":[{"transport_id":"17","id":"1894","transport_name":"None Selected","transport_description":null,"transport_unit":"kg km","transport_co2_eq":"0.000000","from_stop_id":"4154","from_stop_lat":"33.9435319","from_stop_lon":"-118.4086176","from_stop_placename":"Los Angeles International Airport, Los Angeles, CA 90045, USA","to_stop_id":"1014","to_stop_name":"origin","to_stop_lat":"42.3750969","to_stop_lon":"-71.1056079","to_stop_placename":"Cambridge, MA, USA","to_stop":{"id":"1014","name":"origin","lat":"42.3750969","lon":"-71.1056079","placename":"Cambridge, MA, USA"},"from_stop":{"name":"origin","id":"4154","lat":"33.9435319","lon":"-118.4086176","placename":"Los Angeles International Airport, Los Angeles, CA 90045, USA"}}]}}},"processes":[],"eols":[]},{"oid":"2563","imid":"2267","linkid":"","weight":"0","rawemissions":"0","emissions":"0","shipping":"4189.41","processemissions":null,"endoflifeemissions":null,"disposaltype":null,"disposalenergy":null,"disposalimpact":null,"disposalemissions":null,"description":"","name":"Stuff White People Like","id":"2267","stops":{"origin":{"related_to":"2267","part_or_object":"p","notes":"","placename":"Los Angeles International Airport, Los Angeles, CA 90045, USA","id":4155,"name":"origin","lat":"33.9435319","lon":"-118.4086176","hops":{"incoming":[],"outgoing":[{"transport_id":"17","id":"1895","transport_name":"None Selected","transport_description":null,"transport_unit":"kg km","transport_co2_eq":"0.000000","from_stop_id":"4155","from_stop_lat":"33.9435319","from_stop_lon":"-118.4086176","from_stop_placename":"Los Angeles International Airport, Los Angeles, CA 90045, USA","to_stop_id":"1014","to_stop_name":"origin","to_stop_lat":"42.3750969","to_stop_lon":"-71.1056079","to_stop_placename":"Cambridge, MA, USA","to_stop":{"id":"1014","name":"origin","lat":"42.3750969","lon":"-71.1056079","placename":"Cambridge, MA, USA"},"from_stop":{"name":"origin","id":"4155","lat":"33.9435319","lon":"-118.4086176","placename":"Los Angeles International Airport, Los Angeles, CA 90045, USA"}}]}}},"processes":[],"eols":[]},{"oid":"2563","imid":"2268","linkid":"","weight":"0","rawemissions":"0","emissions":"0","shipping":"4170.35","processemissions":null,"endoflifeemissions":null,"disposaltype":null,"disposalenergy":null,"disposalimpact":null,"disposalemissions":null,"description":"","name":"Wondermark","id":"2268","stops":{"origin":{"related_to":"2268","part_or_object":"p","notes":"","placename":"Los Angeles, CA, USA","id":4156,"name":"origin","lat":"34.0522342","lon":"-118.2436849","hops":{"incoming":[],"outgoing":[{"transport_id":"17","id":"1896","transport_name":"None Selected","transport_description":null,"transport_unit":"kg km","transport_co2_eq":"0.000000","from_stop_id":"4156","from_stop_lat":"34.0522342","from_stop_lon":"-118.2436849","from_stop_placename":"Los Angeles, CA, USA","to_stop_id":"1014","to_stop_name":"origin","to_stop_lat":"42.3750969","to_stop_lon":"-71.1056079","to_stop_placename":"Cambridge, MA, USA","to_stop":{"id":"1014","name":"origin","lat":"42.3750969","lon":"-71.1056079","placename":"Cambridge, MA, USA"},"from_stop":{"name":"origin","id":"4156","lat":"34.0522342","lon":"-118.2436849","placename":"Los Angeles, CA, USA"}}]}}},"processes":[],"eols":[]},{"oid":"2563","imid":"2269","linkid":"","weight":"0","rawemissions":"0","emissions":"0","shipping":"4170.35","processemissions":null,"endoflifeemissions":null,"disposaltype":null,"disposalenergy":null,"disposalimpact":null,"disposalemissions":null,"description":"","name":"Awkward Family Photos","id":"2269","stops":{"origin":{"related_to":"2269","part_or_object":"p","notes":"","placename":"Los Angeles, CA, USA","id":4157,"name":"origin","lat":"34.0522342","lon":"-118.2436849","hops":{"incoming":[],"outgoing":[{"transport_id":"17","id":"1897","transport_name":"None Selected","transport_description":null,"transport_unit":"kg km","transport_co2_eq":"0.000000","from_stop_id":"4157","from_stop_lat":"34.0522342","from_stop_lon":"-118.2436849","from_stop_placename":"Los Angeles, CA, USA","to_stop_id":"1014","to_stop_name":"origin","to_stop_lat":"42.3750969","to_stop_lon":"-71.1056079","to_stop_placename":"Cambridge, MA, USA","to_stop":{"id":"1014","name":"origin","lat":"42.3750969","lon":"-71.1056079","placename":"Cambridge, MA, USA"},"from_stop":{"name":"origin","id":"4157","lat":"34.0522342","lon":"-118.2436849","placename":"Los Angeles, CA, USA"}}]}}},"processes":[],"eols":[]},{"oid":"2563","imid":"2270","linkid":"","weight":"0","rawemissions":"0","emissions":"0","shipping":"5272.49","processemissions":null,"endoflifeemissions":null,"disposaltype":null,"disposalenergy":null,"disposalimpact":null,"disposalemissions":null,"description":"","name":"Rathergood","id":"2270","stops":{"origin":{"related_to":"2270","part_or_object":"p","notes":"","placename":"Westminster, London, UK","id":4158,"name":"origin","lat":"51.5001524","lon":"-0.1262362","hops":{"incoming":[],"outgoing":[{"transport_id":"17","id":"1898","transport_name":"None Selected","transport_description":null,"transport_unit":"kg km","transport_co2_eq":"0.000000","from_stop_id":"4158","from_stop_lat":"51.5001524","from_stop_lon":"-0.1262362","from_stop_placename":"Westminster, London, UK","to_stop_id":"1014","to_stop_name":"origin","to_stop_lat":"42.3750969","to_stop_lon":"-71.1056079","to_stop_placename":"Cambridge, MA, USA","to_stop":{"id":"1014","name":"origin","lat":"42.3750969","lon":"-71.1056079","placename":"Cambridge, MA, USA"},"from_stop":{"name":"origin","id":"4158","lat":"51.5001524","lon":"-0.1262362","placename":"Westminster, London, UK"}}]}}},"processes":[],"eols":[]},{"oid":"2563","imid":"2271","linkid":"","weight":"0","rawemissions":"0","emissions":"0","shipping":"1804.15","processemissions":null,"endoflifeemissions":null,"disposaltype":null,"disposalenergy":null,"disposalimpact":null,"disposalemissions":null,"description":"","name":"David After Dentist","id":"2271","stops":{"origin":{"related_to":"2271","part_or_object":"p","notes":"","placename":"Orlando International Airport, Orlando, FL 32827, USA","id":4159,"name":"origin","lat":"28.4313828","lon":"-81.3084374","hops":{"incoming":[],"outgoing":[{"transport_id":"17","id":"1899","transport_name":"None Selected","transport_description":null,"transport_unit":"kg km","transport_co2_eq":"0.000000","from_stop_id":"4159","from_stop_lat":"28.4313828","from_stop_lon":"-81.3084374","from_stop_placename":"Orlando International Airport, Orlando, FL 32827, USA","to_stop_id":"1014","to_stop_name":"origin","to_stop_lat":"42.3750969","to_stop_lon":"-71.1056079","to_stop_placename":"Cambridge, MA, USA","to_stop":{"id":"1014","name":"origin","lat":"42.3750969","lon":"-71.1056079","placename":"Cambridge, MA, USA"},"from_stop":{"name":"origin","id":"4159","lat":"28.4313828","lon":"-81.3084374","placename":"Orlando International Airport, Orlando, FL 32827, USA"}}]}}},"processes":[],"eols":[]},{"oid":"2563","imid":"2272","linkid":"","weight":"0","rawemissions":"0","emissions":"0","shipping":"1804.15","processemissions":null,"endoflifeemissions":null,"disposaltype":null,"disposalenergy":null,"disposalimpact":null,"disposalemissions":null,"description":"","name":"Charlie the Unicorn","id":"2272","stops":{"origin":{"related_to":"2272","part_or_object":"p","notes":"","placename":"Orlando International Airport, Orlando, FL 32827, USA","id":4160,"name":"origin","lat":"28.4313828","lon":"-81.3084374","hops":{"incoming":[],"outgoing":[{"transport_id":"17","id":"1900","transport_name":"None Selected","transport_description":null,"transport_unit":"kg km","transport_co2_eq":"0.000000","from_stop_id":"4160","from_stop_lat":"28.4313828","from_stop_lon":"-81.3084374","from_stop_placename":"Orlando International Airport, Orlando, FL 32827, USA","to_stop_id":"1014","to_stop_name":"origin","to_stop_lat":"42.3750969","to_stop_lon":"-71.1056079","to_stop_placename":"Cambridge, MA, USA","to_stop":{"id":"1014","name":"origin","lat":"42.3750969","lon":"-71.1056079","placename":"Cambridge, MA, USA"},"from_stop":{"name":"origin","id":"4160","lat":"28.4313828","lon":"-81.3084374","placename":"Orlando International Airport, Orlando, FL 32827, USA"}}]}}},"processes":[],"eols":[]},{"oid":"2563","imid":"2273","linkid":"","weight":"0","rawemissions":"0","emissions":"0","shipping":"1801.55","processemissions":null,"endoflifeemissions":null,"disposaltype":null,"disposalenergy":null,"disposalimpact":null,"disposalemissions":null,"description":"","name":"Naked Obama on Unicorns","id":"2273","stops":{"origin":{"related_to":"2273","part_or_object":"p","notes":"","placename":"Minneapolis, MN, USA","id":4161,"name":"origin","lat":"44.9799654","lon":"-93.2638361","hops":{"incoming":[],"outgoing":[{"transport_id":"17","id":"1901","transport_name":"None Selected","transport_description":null,"transport_unit":"kg km","transport_co2_eq":"0.000000","from_stop_id":"4161","from_stop_lat":"44.9799654","from_stop_lon":"-93.2638361","from_stop_placename":"Minneapolis, MN, USA","to_stop_id":"1014","to_stop_name":"origin","to_stop_lat":"42.3750969","to_stop_lon":"-71.1056079","to_stop_placename":"Cambridge, MA, USA","to_stop":{"id":"1014","name":"origin","lat":"42.3750969","lon":"-71.1056079","placename":"Cambridge, MA, USA"},"from_stop":{"name":"origin","id":"4161","lat":"44.9799654","lon":"-93.2638361","placename":"Minneapolis, MN, USA"}}]}}},"processes":[],"eols":[]},{"oid":"2563","imid":"2274","linkid":"","weight":"0","rawemissions":"0","emissions":"0","shipping":"1495.24","processemissions":null,"endoflifeemissions":null,"disposaltype":null,"disposalenergy":null,"disposalimpact":null,"disposalemissions":null,"description":"","name":"Chad Vader","id":"2274","stops":{"origin":{"related_to":"2274","part_or_object":"p","notes":"","placename":"Madison, WI, USA","id":4162,"name":"origin","lat":"43.0730517","lon":"-89.4012302","hops":{"incoming":[],"outgoing":[{"transport_id":"17","id":"1902","transport_name":"None Selected","transport_description":null,"transport_unit":"kg km","transport_co2_eq":"0.000000","from_stop_id":"4162","from_stop_lat":"43.0730517","from_stop_lon":"-89.4012302","from_stop_placename":"Madison, WI, USA","to_stop_id":"1014","to_stop_name":"origin","to_stop_lat":"42.3750969","to_stop_lon":"-71.1056079","to_stop_placename":"Cambridge, MA, USA","to_stop":{"id":"1014","name":"origin","lat":"42.3750969","lon":"-71.1056079","placename":"Cambridge, MA, USA"},"from_stop":{"name":"origin","id":"4162","lat":"43.0730517","lon":"-89.4012302","placename":"Madison, WI, USA"}}]}}},"processes":[],"eols":[]},{"oid":"2563","imid":"2275","linkid":"","weight":"0","rawemissions":"0","emissions":"0","shipping":"1365.33","processemissions":null,"endoflifeemissions":null,"disposaltype":null,"disposalenergy":null,"disposalimpact":null,"disposalemissions":null,"description":"","name":"Juggernaut, Bitch","id":"2275","stops":{"origin":{"related_to":"2275","part_or_object":"p","notes":"","placename":"Chicago, IL, USA","id":4163,"name":"origin","lat":"41.850033","lon":"-87.6500523","hops":{"incoming":[],"outgoing":[{"transport_id":"17","id":"1903","transport_name":"None Selected","transport_description":null,"transport_unit":"kg km","transport_co2_eq":"0.000000","from_stop_id":"4163","from_stop_lat":"41.850033","from_stop_lon":"-87.6500523","from_stop_placename":"Chicago, IL, USA","to_stop_id":"1014","to_stop_name":"origin","to_stop_lat":"42.3750969","to_stop_lon":"-71.1056079","to_stop_placename":"Cambridge, MA, USA","to_stop":{"id":"1014","name":"origin","lat":"42.3750969","lon":"-71.1056079","placename":"Cambridge, MA, USA"},"from_stop":{"name":"origin","id":"4163","lat":"41.850033","lon":"-87.6500523","placename":"Chicago, IL, USA"}}]}}},"processes":[],"eols":[]},{"oid":"2563","imid":"2276","linkid":"","weight":"0","rawemissions":"0","emissions":"0","shipping":"4001.53","processemissions":null,"endoflifeemissions":null,"disposaltype":null,"disposalenergy":null,"disposalimpact":null,"disposalemissions":null,"description":"","name":"Clippy","id":"2276","stops":{"origin":{"related_to":"2276","part_or_object":"p","notes":"","placename":"Seattle-Tacoma International Airport, SeaTac, WA 98188, USA","id":4164,"name":"origin","lat":"47.44443","lon":"-122.300497","hops":{"incoming":[],"outgoing":[{"transport_id":"17","id":"1904","transport_name":"None Selected","transport_description":null,"transport_unit":"kg km","transport_co2_eq":"0.000000","from_stop_id":"4164","from_stop_lat":"47.44443","from_stop_lon":"-122.300497","from_stop_placename":"Seattle-Tacoma International Airport, SeaTac, WA 98188, USA","to_stop_id":"1014","to_stop_name":"origin","to_stop_lat":"42.3750969","to_stop_lon":"-71.1056079","to_stop_placename":"Cambridge, MA, USA","to_stop":{"id":"1014","name":"origin","lat":"42.3750969","lon":"-71.1056079","placename":"Cambridge, MA, USA"},"from_stop":{"name":"origin","id":"4164","lat":"47.44443","lon":"-122.300497","placename":"Seattle-Tacoma International Airport, SeaTac, WA 98188, USA"}}]}}},"processes":[],"eols":[]},{"oid":"2563","imid":"2277","linkid":"","weight":"0","rawemissions":"0","emissions":"0","shipping":"4339.15","processemissions":null,"endoflifeemissions":null,"disposaltype":null,"disposalenergy":null,"disposalimpact":null,"disposalemissions":null,"description":"","name":"SMBC","id":"2277","stops":{"origin":{"related_to":"2277","part_or_object":"p","notes":"","placename":"San Francisco International Airport, Millbrae, CA 94030, USA","id":4165,"name":"origin","lat":"37.615223","lon":"-122.389979","hops":{"incoming":[],"outgoing":[{"transport_id":"17","id":"1905","transport_name":"None Selected","transport_description":null,"transport_unit":"kg km","transport_co2_eq":"0.000000","from_stop_id":"4165","from_stop_lat":"37.615223","from_stop_lon":"-122.389979","from_stop_placename":"San Francisco International Airport, Millbrae, CA 94030, USA","to_stop_id":"1014","to_stop_name":"origin","to_stop_lat":"42.3750969","to_stop_lon":"-71.1056079","to_stop_placename":"Cambridge, MA, USA","to_stop":{"id":"1014","name":"origin","lat":"42.3750969","lon":"-71.1056079","placename":"Cambridge, MA, USA"},"from_stop":{"name":"origin","id":"4165","lat":"37.615223","lon":"-122.389979","placename":"San Francisco International Airport, Millbrae, CA 94030, USA"}}]}}},"processes":[],"eols":[]}],"user":{"name":"Chrysaora","id":"6444"}}}