{"2564":{"oid":"2564","type":"food","flag":"","creator":"7858","name":"process of atsa","upc":"","imagelink":"","description":"este mapa pretende describir el proceso de siembra y cultivo de yuca","slug":"process-of-atsa","category":"","weight":"11000","emissions":"22475.7","embodied":"20000.6","transport":"2471.04","process":"0","endoflife":"0","shipping":"20529.2","lifetime":null,"usagetype":"","usageenergy":"5","usageemissions":"4.1","timecreated":"2010-02-24 22:03:36.813593","timemodified":"2010-02-16 22:23:41","visibility":"public","showfootprint":"on","showembodied":"on","showtransport":"on","showprocess":"on","showendoflife":"on","showlastleg":"on","showuse":"on","showstats":"on","stops":{"origin":{"related_to":"2564","part_or_object":"o","notes":"","placename":"Lima, Per?","id":"718","category":"1","lat":"-12.093084","lon":"-77.046491","name":"origin","hops":{"incoming":[{"transport_id":"13","id":"21","transport_name":"air, passenger, regional","transport_description":"within one continent, kg km from person-km","transport_unit":"kg km","transport_co2_eq":"2.262000","from_stop_id":"2169","from_stop_lat":"-3.7560603","from_stop_lon":"-73.2706389","to_stop_id":"718","to_stop_name":"origin","to_stop_lat":"-12.093084","placename":"Iquitos, Per?","to_stop_lon":"-77.046491","to_stop":{"id":"718","name":"origin","lat":"-12.093084","placename":"Lima, Per?","lon":"-77.046491"},"from_stop":{"name":"origin","id":"2169","lat":"-3.7560603","lon":"-73.2706389","placename":"Iquitos, Per?"}},{"transport_id":"7","id":"22","transport_name":"freighter, inland","transport_description":"for rivers and lakes","transport_unit":"kg km","transport_co2_eq":"0.025300","from_stop_id":"2170","from_stop_lat":"-12.277127","from_stop_lon":"-70.8536164","to_stop_id":"718","to_stop_name":"origin","to_stop_lat":"-12.093084","placename":"Rio Madre De Dios, Per?","to_stop_lon":"-77.046491","to_stop":{"id":"718","name":"origin","lat":"-12.093084","placename":"Lima, Per?","lon":"-77.046491"},"from_stop":{"name":"origin","id":"2170","lat":"-12.277127","lon":"-70.8536164","placename":"Rio Madre De Dios, Per?"}},{"transport_id":"9","id":"23","transport_name":"container ship","transport_description":"moving boxcar size containers","transport_unit":"kg km","transport_co2_eq":"0.047800","from_stop_id":"2171","from_stop_lat":"1.352083","from_stop_lon":"103.819836","to_stop_id":"718","to_stop_name":"origin","to_stop_lat":"-12.093084","placename":"Singapur","to_stop_lon":"-77.046491","to_stop":{"id":"718","name":"origin","lat":"-12.093084","placename":"Lima, Per?","lon":"-77.046491"},"from_stop":{"name":"origin","id":"2171","lat":"1.352083","lon":"103.819836","placename":"Singapur"}}],"outgoing":[]}}},"parts":[{"oid":"2564","imid":"1994","linkid":"","weight":"1000","rawemissions":"20","emissions":"20000","shipping":"1017.01","processemissions":null,"endoflifeemissions":null,"disposaltype":null,"disposalenergy":null,"disposalimpact":null,"disposalemissions":null,"description":"","name":"abono","id":"1994","stops":{"origin":{"related_to":"1994","part_or_object":"p","notes":"","placename":"Iquitos, Per?","id":2169,"name":"origin","lat":"-3.7560603","lon":"-73.2706389","hops":{"incoming":[],"outgoing":[{"transport_id":"13","id":"21","transport_name":"air, passenger, regional","transport_description":"within one continent, kg km from person-km","transport_unit":"kg km","transport_co2_eq":"2.262000","from_stop_id":"2169","from_stop_lat":"-3.7560603","from_stop_lon":"-73.2706389","from_stop_placename":"Iquitos, Per?","to_stop_id":"718","to_stop_name":"origin","to_stop_lat":"-12.093084","to_stop_lon":"-77.046491","to_stop_placename":"Lima, Per?","to_stop":{"id":"718","name":"origin","lat":"-12.093084","lon":"-77.046491","placename":"Lima, Per?"},"from_stop":{"name":"origin","id":"2169","lat":"-3.7560603","lon":"-73.2706389","placename":"Iquitos, Per?"}}]}}},"processes":[],"eols":[]},{"oid":"2564","imid":"1995","linkid":"","weight":"10000","rawemissions":"0","emissions":"0","shipping":"674.15","processemissions":null,"endoflifeemissions":null,"disposaltype":null,"disposalenergy":null,"disposalimpact":null,"disposalemissions":null,"description":"","name":"semillas de yuca","id":"1995","stops":{"origin":{"related_to":"1995","part_or_object":"p","notes":"","placename":"Rio Madre De Dios, Per?","id":2170,"name":"origin","lat":"-12.277127","lon":"-70.8536164","hops":{"incoming":[],"outgoing":[{"transport_id":"7","id":"22","transport_name":"freighter, inland","transport_description":"for rivers and lakes","transport_unit":"kg km","transport_co2_eq":"0.025300","from_stop_id":"2170","from_stop_lat":"-12.277127","from_stop_lon":"-70.8536164","from_stop_placename":"Rio Madre De Dios, Per?","to_stop_id":"718","to_stop_name":"origin","to_stop_lat":"-12.093084","to_stop_lon":"-77.046491","to_stop_placename":"Lima, Per?","to_stop":{"id":"718","name":"origin","lat":"-12.093084","lon":"-77.046491","placename":"Lima, Per?"},"from_stop":{"name":"origin","id":"2170","lat":"-12.277127","lon":"-70.8536164","placename":"Rio Madre De Dios, Per?"}}]}}},"processes":[],"eols":[]},{"oid":"2564","imid":"1996","linkid":"","weight":"0","rawemissions":"0","emissions":"0","shipping":"18838","processemissions":null,"endoflifeemissions":null,"disposaltype":null,"disposalenergy":null,"disposalimpact":null,"disposalemissions":null,"description":"","name":"maquinaria","id":"1996","stops":{"origin":{"related_to":"1996","part_or_object":"p","notes":"","placename":"Singapur","id":2171,"name":"origin","lat":"1.352083","lon":"103.819836","hops":{"incoming":[],"outgoing":[{"transport_id":"9","id":"23","transport_name":"container ship","transport_description":"moving boxcar size containers","transport_unit":"kg km","transport_co2_eq":"0.047800","from_stop_id":"2171","from_stop_lat":"1.352083","from_stop_lon":"103.819836","from_stop_placename":"Singapur","to_stop_id":"718","to_stop_name":"origin","to_stop_lat":"-12.093084","to_stop_lon":"-77.046491","to_stop_placename":"Lima, Per?","to_stop":{"id":"718","name":"origin","lat":"-12.093084","lon":"-77.046491","placename":"Lima, Per?"},"from_stop":{"name":"origin","id":"2171","lat":"1.352083","lon":"103.819836","placename":"Singapur"}}]}}},"processes":[],"eols":[]}],"user":{"name":"armandkun","id":"7858"}}}