{"2597":{"oid":"2597","type":"object","flag":"","creator":"7907","name":"Test Youssou Chilli Sauce","upc":"","imagelink":"","description":"First, the finest Dakarian Chillis are grown in the farm, sung to in person by Youssou N'Dour each morning. The chillis are then harvested and transported 500m by tractor to a production facility, where they are nuked in vinegar, oil and spices. Finally the sauce is packaged into bottles (manufactured and printed in China), and shipped direct to end customers, normally via airmail.","slug":"test-youssou-chilli-sauce","category":"","weight":"0.35","emissions":"0.597465","embodied":"0.482","transport":"0.115465","process":"0","endoflife":"0","shipping":"46422.8","lifetime":null,"usagetype":"","usageenergy":null,"usageemissions":null,"timecreated":"2010-02-24 22:03:36.862164","timemodified":"2010-02-23 19:00:02","visibility":"public","showfootprint":"on","showembodied":"on","showtransport":"on","showprocess":"on","showendoflife":"on","showlastleg":"on","showuse":"on","showstats":"on","stops":{"origin":{"related_to":"2597","part_or_object":"o","notes":"","placename":"Dakar, Senegal","id":"740","category":"1","lat":"14.68668","lon":"-17.45192","name":"origin","hops":{"incoming":[{"transport_id":"8","id":"35","transport_name":"freighter, oceanic","transport_description":"","transport_unit":"kg km","transport_co2_eq":"0.004200","from_stop_id":"2183","from_stop_lat":"39.074208","from_stop_lon":"21.824312","to_stop_id":"740","to_stop_name":"origin","to_stop_lat":"14.68668","placename":"Greece","to_stop_lon":"-17.45192","to_stop":{"id":"740","name":"origin","lat":"14.68668","placename":"Dakar, Senegal","lon":"-17.45192"},"from_stop":{"name":"origin","id":"2183","lat":"39.074208","lon":"21.824312","placename":"Greece"}},{"transport_id":"1","id":"36","transport_name":"van, 3.5 tons","transport_description":"delivery van, half full","transport_unit":"kg km","transport_co2_eq":"0.053400","from_stop_id":"2184","from_stop_lat":"14.68668","from_stop_lon":"-17.45192","to_stop_id":"740","to_stop_name":"origin","to_stop_lat":"14.68668","placename":"Dakar, Senegal","to_stop_lon":"-17.45192","to_stop":{"id":"740","name":"origin","lat":"14.68668","placename":"Dakar, Senegal","lon":"-17.45192"},"from_stop":{"name":"origin","id":"2184","lat":"14.68668","lon":"-17.45192","placename":"Dakar, Senegal"}},{"transport_id":"9","id":"39","transport_name":"container ship","transport_description":"moving boxcar size containers","transport_unit":"kg km","transport_co2_eq":"0.047800","from_stop_id":"2187","from_stop_lat":"22.543447","from_stop_lon":"114.057818","to_stop_id":"740","to_stop_name":"origin","to_stop_lat":"14.68668","placename":"Shenzhen, Guangdong, China","to_stop_lon":"-17.45192","to_stop":{"id":"740","name":"origin","lat":"14.68668","placename":"Dakar, Senegal","lon":"-17.45192"},"from_stop":{"name":"origin","id":"2187","lat":"22.543447","lon":"114.057818","placename":"Shenzhen, Guangdong, China"}},{"transport_id":"9","id":"40","transport_name":"container ship","transport_description":"moving boxcar size containers","transport_unit":"kg km","transport_co2_eq":"0.047800","from_stop_id":"2188","from_stop_lat":"35.86166","from_stop_lon":"104.195397","to_stop_id":"740","to_stop_name":"origin","to_stop_lat":"14.68668","placename":"China","to_stop_lon":"-17.45192","to_stop":{"id":"740","name":"origin","lat":"14.68668","placename":"Dakar, Senegal","lon":"-17.45192"},"from_stop":{"name":"origin","id":"2188","lat":"35.86166","lon":"104.195397","placename":"China"}},{"transport_id":"17","id":"41","transport_name":"None Selected","transport_description":null,"transport_unit":"kg km","transport_co2_eq":"0.000000","from_stop_id":"2189","from_stop_lat":"35.86166","from_stop_lon":"104.195397","to_stop_id":"740","to_stop_name":"origin","to_stop_lat":"14.68668","placename":"China","to_stop_lon":"-17.45192","to_stop":{"id":"740","name":"origin","lat":"14.68668","placename":"Dakar, Senegal","lon":"-17.45192"},"from_stop":{"name":"origin","id":"2189","lat":"35.86166","lon":"104.195397","placename":"China"}},{"transport_id":"9","id":"34","transport_name":"container ship","transport_description":"moving boxcar size containers","transport_unit":"kg km","transport_co2_eq":"0.047800","from_stop_id":"2182","from_stop_lat":"-14.235004","from_stop_lon":"-51.92528","to_stop_id":"740","to_stop_name":"origin","to_stop_lat":"14.68668","placename":"Brazil","to_stop_lon":"-17.45192","to_stop":{"id":"740","name":"origin","lat":"14.68668","placename":"Dakar, Senegal","lon":"-17.45192"},"from_stop":{"name":"origin","id":"2182","lat":"-14.235004","lon":"-51.92528","placename":"Brazil"}},{"transport_id":"17","id":"33","transport_name":"None Selected","transport_description":null,"transport_unit":"kg km","transport_co2_eq":"0.000000","from_stop_id":"2181","from_stop_lat":"14.68668","from_stop_lon":"-17.45192","to_stop_id":"740","to_stop_name":"origin","to_stop_lat":"14.68668","placename":"Dakar, Senegal","to_stop_lon":"-17.45192","to_stop":{"id":"740","name":"origin","lat":"14.68668","placename":"Dakar, Senegal","lon":"-17.45192"},"from_stop":{"name":"origin","id":"2181","lat":"14.68668","lon":"-17.45192","placename":"Dakar, Senegal"}}],"outgoing":[]}}},"parts":[{"oid":"2597","imid":"2007","linkid":"","weight":"0.1","rawemissions":"0","emissions":"0","shipping":"0","processemissions":null,"endoflifeemissions":null,"disposaltype":null,"disposalenergy":null,"disposalimpact":null,"disposalemissions":null,"description":"","name":"chillis","id":"2007","stops":{"origin":{"related_to":"2007","part_or_object":"p","notes":"","placename":"Dakar, Senegal","id":2181,"name":"origin","lat":"14.68668","lon":"-17.45192","hops":{"incoming":[],"outgoing":[{"transport_id":"17","id":"33","transport_name":"None Selected","transport_description":null,"transport_unit":"kg km","transport_co2_eq":"0.000000","from_stop_id":"2181","from_stop_lat":"14.68668","from_stop_lon":"-17.45192","from_stop_placename":"Dakar, Senegal","to_stop_id":"740","to_stop_name":"origin","to_stop_lat":"14.68668","to_stop_lon":"-17.45192","to_stop_placename":"Dakar, Senegal","to_stop":{"id":"740","name":"origin","lat":"14.68668","lon":"-17.45192","placename":"Dakar, Senegal"},"from_stop":{"name":"origin","id":"2181","lat":"14.68668","lon":"-17.45192","placename":"Dakar, Senegal"}}]}}},"processes":[],"eols":[]},{"oid":"2597","imid":"2015","linkid":"","weight":"0.1","rawemissions":"0","emissions":"0","shipping":"4977.57","processemissions":null,"endoflifeemissions":null,"disposaltype":null,"disposalenergy":null,"disposalimpact":null,"disposalemissions":null,"description":"","name":"sugar","id":"2015","stops":{"origin":{"related_to":"2015","part_or_object":"p","notes":"","placename":"Brazil","id":2182,"name":"origin","lat":"-14.235004","lon":"-51.92528","hops":{"incoming":[],"outgoing":[{"transport_id":"9","id":"34","transport_name":"container ship","transport_description":"moving boxcar size containers","transport_unit":"kg km","transport_co2_eq":"0.047800","from_stop_id":"2182","from_stop_lat":"-14.235004","from_stop_lon":"-51.92528","from_stop_placename":"Brazil","to_stop_id":"740","to_stop_name":"origin","to_stop_lat":"14.68668","to_stop_lon":"-17.45192","to_stop_placename":"Dakar, Senegal","to_stop":{"id":"740","name":"origin","lat":"14.68668","lon":"-17.45192","placename":"Dakar, Senegal"},"from_stop":{"name":"origin","id":"2182","lat":"-14.235004","lon":"-51.92528","placename":"Brazil"}}]}}},"processes":[],"eols":[]},{"oid":"2597","imid":"2014","linkid":"","weight":"0","rawemissions":"0","emissions":"0","shipping":"4694.57","processemissions":null,"endoflifeemissions":null,"disposaltype":null,"disposalenergy":null,"disposalimpact":null,"disposalemissions":null,"description":"","name":"oil","id":"2014","stops":{"origin":{"related_to":"2014","part_or_object":"p","notes":"","placename":"Greece","id":2183,"name":"origin","lat":"39.074208","lon":"21.824312","hops":{"incoming":[],"outgoing":[{"transport_id":"8","id":"35","transport_name":"freighter, oceanic","transport_description":"","transport_unit":"kg km","transport_co2_eq":"0.004200","from_stop_id":"2183","from_stop_lat":"39.074208","from_stop_lon":"21.824312","from_stop_placename":"Greece","to_stop_id":"740","to_stop_name":"origin","to_stop_lat":"14.68668","to_stop_lon":"-17.45192","to_stop_placename":"Dakar, Senegal","to_stop":{"id":"740","name":"origin","lat":"14.68668","lon":"-17.45192","placename":"Dakar, Senegal"},"from_stop":{"name":"origin","id":"2183","lat":"39.074208","lon":"21.824312","placename":"Greece"}}]}}},"processes":[],"eols":[]},{"oid":"2597","imid":"2013","linkid":"","weight":"0","rawemissions":"0","emissions":"0","shipping":"0","processemissions":null,"endoflifeemissions":null,"disposaltype":null,"disposalenergy":null,"disposalimpact":null,"disposalemissions":null,"description":"","name":"garlic","id":"2013","stops":{"origin":{"related_to":"2013","part_or_object":"p","notes":"","placename":"Dakar, Senegal","id":2184,"name":"origin","lat":"14.68668","lon":"-17.45192","hops":{"incoming":[],"outgoing":[{"transport_id":"1","id":"36","transport_name":"van, 3.5 tons","transport_description":"delivery van, half full","transport_unit":"kg km","transport_co2_eq":"0.053400","from_stop_id":"2184","from_stop_lat":"14.68668","from_stop_lon":"-17.45192","from_stop_placename":"Dakar, Senegal","to_stop_id":"740","to_stop_name":"origin","to_stop_lat":"14.68668","to_stop_lon":"-17.45192","to_stop_placename":"Dakar, Senegal","to_stop":{"id":"740","name":"origin","lat":"14.68668","lon":"-17.45192","placename":"Dakar, Senegal"},"from_stop":{"name":"origin","id":"2184","lat":"14.68668","lon":"-17.45192","placename":"Dakar, Senegal"}}]}}},"processes":[],"eols":[]},{"oid":"2597","imid":"2016","linkid":"","weight":"0.1","rawemissions":"0.02","emissions":"0.002","shipping":"13320.9","processemissions":null,"endoflifeemissions":null,"disposaltype":null,"disposalenergy":null,"disposalimpact":null,"disposalemissions":null,"description":"glass jar","name":"glass jar","id":"2016","stops":{"origin":{"related_to":"2016","part_or_object":"p","notes":"","placename":"Shenzhen, Guangdong, China","id":2187,"name":"origin","lat":"22.543447","lon":"114.057818","hops":{"incoming":[],"outgoing":[{"transport_id":"9","id":"39","transport_name":"container ship","transport_description":"moving boxcar size containers","transport_unit":"kg km","transport_co2_eq":"0.047800","from_stop_id":"2187","from_stop_lat":"22.543447","from_stop_lon":"114.057818","from_stop_placename":"Shenzhen, Guangdong, China","to_stop_id":"740","to_stop_name":"origin","to_stop_lat":"14.68668","to_stop_lon":"-17.45192","to_stop_placename":"Dakar, Senegal","to_stop":{"id":"740","name":"origin","lat":"14.68668","lon":"-17.45192","placename":"Dakar, Senegal"},"from_stop":{"name":"origin","id":"2187","lat":"22.543447","lon":"114.057818","placename":"Shenzhen, Guangdong, China"}}]}}},"processes":[],"eols":[]},{"oid":"2597","imid":"2017","linkid":"","weight":"0.05","rawemissions":"0","emissions":"0","shipping":"11714.9","processemissions":null,"endoflifeemissions":null,"disposaltype":null,"disposalenergy":null,"disposalimpact":null,"disposalemissions":null,"description":"","name":"metal top for jar","id":"2017","stops":{"origin":{"related_to":"2017","part_or_object":"p","notes":"","placename":"China","id":2188,"name":"origin","lat":"35.86166","lon":"104.195397","hops":{"incoming":[],"outgoing":[{"transport_id":"9","id":"40","transport_name":"container ship","transport_description":"moving boxcar size containers","transport_unit":"kg km","transport_co2_eq":"0.047800","from_stop_id":"2188","from_stop_lat":"35.86166","from_stop_lon":"104.195397","from_stop_placename":"China","to_stop_id":"740","to_stop_name":"origin","to_stop_lat":"14.68668","to_stop_lon":"-17.45192","to_stop_placename":"Dakar, Senegal","to_stop":{"id":"740","name":"origin","lat":"14.68668","lon":"-17.45192","placename":"Dakar, Senegal"},"from_stop":{"name":"origin","id":"2188","lat":"35.86166","lon":"104.195397","placename":"China"}}]}}},"processes":[],"eols":[]},{"oid":"2597","imid":"2018","linkid":"parts\/paper-virgin-white","weight":"0","rawemissions":"0.48","emissions":"0.48","shipping":"11714.9","processemissions":null,"endoflifeemissions":null,"disposaltype":null,"disposalenergy":null,"disposalimpact":null,"disposalemissions":null,"description":"for jar, printed in China","name":"Paper, Virgin, White","id":"2018","stops":{"origin":{"related_to":"2018","part_or_object":"p","notes":"","placename":"China","id":2189,"name":"origin","lat":"35.86166","lon":"104.195397","hops":{"incoming":[],"outgoing":[{"transport_id":"17","id":"41","transport_name":"None Selected","transport_description":null,"transport_unit":"kg km","transport_co2_eq":"0.000000","from_stop_id":"2189","from_stop_lat":"35.86166","from_stop_lon":"104.195397","from_stop_placename":"China","to_stop_id":"740","to_stop_name":"origin","to_stop_lat":"14.68668","to_stop_lon":"-17.45192","to_stop_placename":"Dakar, Senegal","to_stop":{"id":"740","name":"origin","lat":"14.68668","lon":"-17.45192","placename":"Dakar, Senegal"},"from_stop":{"name":"origin","id":"2189","lat":"35.86166","lon":"104.195397","placename":"China"}}]}}},"processes":[],"eols":[]}],"user":{"name":"benzitohhh","id":"7907"}}}