{"2600":{"oid":"2600","type":"food","flag":"","creator":"7911","name":"Google Food","upc":"","imagelink":"","description":"","slug":"google-food","category":"","weight":"0","emissions":"12.85","embodied":"12.85","transport":"0","process":"0","endoflife":"0","shipping":"106.02","lifetime":null,"usagetype":"","usageenergy":null,"usageemissions":null,"timecreated":"2010-02-24 22:03:36.866668","timemodified":"2010-02-23 22:37:29","visibility":"public","showfootprint":"on","showembodied":"on","showtransport":"on","showprocess":"on","showendoflife":"on","showlastleg":"on","showuse":"on","showstats":"on","stops":{"origin":{"related_to":"2600","part_or_object":"o","notes":"","placename":"Mountain View, CA, USA","id":"743","category":"1","lat":"37.3860517","lon":"-122.0838511","name":"origin","hops":{"incoming":[{"transport_id":"2","id":"42","transport_name":"truck, 16 tons","transport_description":"truck, half full","transport_unit":"kg km","transport_co2_eq":"0.020300","from_stop_id":"2190","from_stop_lat":"38.232417","from_stop_lon":"-122.6366524","to_stop_id":"743","to_stop_name":"origin","to_stop_lat":"37.3860517","placename":"Petaluma, CA, USA","to_stop_lon":"-122.0838511","to_stop":{"id":"743","name":"origin","lat":"37.3860517","placename":"Mountain View, CA, USA","lon":"-122.0838511"},"from_stop":{"name":"origin","id":"2190","lat":"38.232417","lon":"-122.6366524","placename":"Petaluma, CA, USA"}},{"transport_id":"17","id":"43","transport_name":"None Selected","transport_description":null,"transport_unit":"kg km","transport_co2_eq":"0.000000","from_stop_id":"2191","from_stop_lat":"0","from_stop_lon":"0","to_stop_id":"743","to_stop_name":"origin","to_stop_lat":"37.3860517","placename":"Ingredient Source","to_stop_lon":"-122.0838511","to_stop":{"id":"743","name":"origin","lat":"37.3860517","placename":"Mountain View, CA, USA","lon":"-122.0838511"},"from_stop":{"name":"origin","id":"2191","lat":"0","lon":"0","placename":"Ingredient Source"}},{"transport_id":"17","id":"44","transport_name":"None Selected","transport_description":null,"transport_unit":"kg km","transport_co2_eq":"0.000000","from_stop_id":"2192","from_stop_lat":"0","from_stop_lon":"0","to_stop_id":"743","to_stop_name":"origin","to_stop_lat":"37.3860517","placename":"Ingredient Source","to_stop_lon":"-122.0838511","to_stop":{"id":"743","name":"origin","lat":"37.3860517","placename":"Mountain View, CA, USA","lon":"-122.0838511"},"from_stop":{"name":"origin","id":"2192","lat":"0","lon":"0","placename":"Ingredient Source"}},{"transport_id":"17","id":"45","transport_name":"None Selected","transport_description":null,"transport_unit":"kg km","transport_co2_eq":"0.000000","from_stop_id":"2193","from_stop_lat":"0","from_stop_lon":"0","to_stop_id":"743","to_stop_name":"origin","to_stop_lat":"37.3860517","placename":"Ingredient Source","to_stop_lon":"-122.0838511","to_stop":{"id":"743","name":"origin","lat":"37.3860517","placename":"Mountain View, CA, USA","lon":"-122.0838511"},"from_stop":{"name":"origin","id":"2193","lat":"0","lon":"0","placename":"Ingredient Source"}},{"transport_id":"17","id":"46","transport_name":"None Selected","transport_description":null,"transport_unit":"kg km","transport_co2_eq":"0.000000","from_stop_id":"2194","from_stop_lat":"0","from_stop_lon":"0","to_stop_id":"743","to_stop_name":"origin","to_stop_lat":"37.3860517","placename":"Ingredient Source","to_stop_lon":"-122.0838511","to_stop":{"id":"743","name":"origin","lat":"37.3860517","placename":"Mountain View, CA, USA","lon":"-122.0838511"},"from_stop":{"name":"origin","id":"2194","lat":"0","lon":"0","placename":"Ingredient Source"}}],"outgoing":[]}}},"parts":[{"oid":"2600","imid":"2019","linkid":"parts\/chicken","weight":"0","rawemissions":"3.5","emissions":"3.5","shipping":"106.02","processemissions":null,"endoflifeemissions":null,"disposaltype":null,"disposalenergy":null,"disposalimpact":null,"disposalemissions":null,"description":"","name":"Chicken","id":"2019","stops":{"origin":{"related_to":"2019","part_or_object":"p","notes":"","placename":"Petaluma, CA, USA","id":2190,"name":"origin","lat":"38.232417","lon":"-122.6366524","hops":{"incoming":[],"outgoing":[{"transport_id":"2","id":"42","transport_name":"truck, 16 tons","transport_description":"truck, half full","transport_unit":"kg km","transport_co2_eq":"0.020300","from_stop_id":"2190","from_stop_lat":"38.232417","from_stop_lon":"-122.6366524","from_stop_placename":"Petaluma, CA, USA","to_stop_id":"743","to_stop_name":"origin","to_stop_lat":"37.3860517","to_stop_lon":"-122.0838511","to_stop_placename":"Mountain View, CA, USA","to_stop":{"id":"743","name":"origin","lat":"37.3860517","lon":"-122.0838511","placename":"Mountain View, CA, USA"},"from_stop":{"name":"origin","id":"2190","lat":"38.232417","lon":"-122.6366524","placename":"Petaluma, CA, USA"}}]}}},"processes":[],"eols":[]},{"oid":"2600","imid":"2020","linkid":"parts\/chicken","weight":"0","rawemissions":"3.5","emissions":"3.5","shipping":"0","processemissions":null,"endoflifeemissions":null,"disposaltype":null,"disposalenergy":null,"disposalimpact":null,"disposalemissions":null,"description":"","name":"Chicken","id":"2020","stops":{"origin":{"related_to":"2020","part_or_object":"p","notes":"","placename":"Ingredient Source","id":2191,"name":"origin","lat":"0","lon":"0","hops":{"incoming":[],"outgoing":[{"transport_id":"17","id":"43","transport_name":"None Selected","transport_description":null,"transport_unit":"kg km","transport_co2_eq":"0.000000","from_stop_id":"2191","from_stop_lat":"0","from_stop_lon":"0","from_stop_placename":"Ingredient Source","to_stop_id":"743","to_stop_name":"origin","to_stop_lat":"37.3860517","to_stop_lon":"-122.0838511","to_stop_placename":"Mountain View, CA, USA","to_stop":{"id":"743","name":"origin","lat":"37.3860517","lon":"-122.0838511","placename":"Mountain View, CA, USA"},"from_stop":{"name":"origin","id":"2191","lat":"0","lon":"0","placename":"Ingredient Source"}}]}}},"processes":[],"eols":[]},{"oid":"2600","imid":"2021","linkid":"parts\/eggs","weight":"0","rawemissions":"1.95","emissions":"1.95","shipping":"0","processemissions":null,"endoflifeemissions":null,"disposaltype":null,"disposalenergy":null,"disposalimpact":null,"disposalemissions":null,"description":"","name":"Eggs","id":"2021","stops":{"origin":{"related_to":"2021","part_or_object":"p","notes":"","placename":"Ingredient Source","id":2192,"name":"origin","lat":"0","lon":"0","hops":{"incoming":[],"outgoing":[{"transport_id":"17","id":"44","transport_name":"None Selected","transport_description":null,"transport_unit":"kg km","transport_co2_eq":"0.000000","from_stop_id":"2192","from_stop_lat":"0","from_stop_lon":"0","from_stop_placename":"Ingredient Source","to_stop_id":"743","to_stop_name":"origin","to_stop_lat":"37.3860517","to_stop_lon":"-122.0838511","to_stop_placename":"Mountain View, CA, USA","to_stop":{"id":"743","name":"origin","lat":"37.3860517","lon":"-122.0838511","placename":"Mountain View, CA, USA"},"from_stop":{"name":"origin","id":"2192","lat":"0","lon":"0","placename":"Ingredient Source"}}]}}},"processes":[],"eols":[]},{"oid":"2600","imid":"2022","linkid":"parts\/eggs","weight":"0","rawemissions":"1.95","emissions":"1.95","shipping":"0","processemissions":null,"endoflifeemissions":null,"disposaltype":null,"disposalenergy":null,"disposalimpact":null,"disposalemissions":null,"description":"","name":"Eggs","id":"2022","stops":{"origin":{"related_to":"2022","part_or_object":"p","notes":"","placename":"Ingredient Source","id":2193,"name":"origin","lat":"0","lon":"0","hops":{"incoming":[],"outgoing":[{"transport_id":"17","id":"45","transport_name":"None Selected","transport_description":null,"transport_unit":"kg km","transport_co2_eq":"0.000000","from_stop_id":"2193","from_stop_lat":"0","from_stop_lon":"0","from_stop_placename":"Ingredient Source","to_stop_id":"743","to_stop_name":"origin","to_stop_lat":"37.3860517","to_stop_lon":"-122.0838511","to_stop_placename":"Mountain View, CA, USA","to_stop":{"id":"743","name":"origin","lat":"37.3860517","lon":"-122.0838511","placename":"Mountain View, CA, USA"},"from_stop":{"name":"origin","id":"2193","lat":"0","lon":"0","placename":"Ingredient Source"}}]}}},"processes":[],"eols":[]},{"oid":"2600","imid":"2023","linkid":"parts\/eggs","weight":"0","rawemissions":"1.95","emissions":"1.95","shipping":"0","processemissions":null,"endoflifeemissions":null,"disposaltype":null,"disposalenergy":null,"disposalimpact":null,"disposalemissions":null,"description":"","name":"Eggs","id":"2023","stops":{"origin":{"related_to":"2023","part_or_object":"p","notes":"","placename":"Ingredient Source","id":2194,"name":"origin","lat":"0","lon":"0","hops":{"incoming":[],"outgoing":[{"transport_id":"17","id":"46","transport_name":"None Selected","transport_description":null,"transport_unit":"kg km","transport_co2_eq":"0.000000","from_stop_id":"2194","from_stop_lat":"0","from_stop_lon":"0","from_stop_placename":"Ingredient Source","to_stop_id":"743","to_stop_name":"origin","to_stop_lat":"37.3860517","to_stop_lon":"-122.0838511","to_stop_placename":"Mountain View, CA, USA","to_stop":{"id":"743","name":"origin","lat":"37.3860517","lon":"-122.0838511","placename":"Mountain View, CA, USA"},"from_stop":{"name":"origin","id":"2194","lat":"0","lon":"0","placename":"Ingredient Source"}}]}}},"processes":[],"eols":[]}],"user":{"name":"Wdan","id":"7911"}}}