{"271":{"oid":"271","type":"travel","flag":"","creator":"6008","name":"Lovat Guests 2009","upc":"","imagelink":"","description":"","slug":"lovat-guests-2009","category":"","weight":"44329","emissions":"21777.3","embodied":"0","transport":"21777.3","process":"0","endoflife":"0","shipping":"48049","lifetime":"0","usagetype":"","usageenergy":"0","usageemissions":"0","timecreated":"2010-02-24 22:03:35.482353","timemodified":"2009-09-02 09:11:53","visibility":"public","showfootprint":"on","showembodied":"on","showtransport":"on","showprocess":"on","showendoflife":"on","showlastleg":"on","showuse":"on","showstats":"on","stops":{"origin":{"related_to":"271","part_or_object":"o","notes":"","placename":"Loch Ness, Highland, UK","id":"65","category":"1","lat":"57.3228575","lon":"-4.4243817","name":"origin","hops":{"incoming":[{"transport_id":"14","id":"547","transport_name":"air, passenger, intercontinental","transport_description":"intercontinental, kg km from person-km","transport_unit":"kg km","transport_co2_eq":"1.189000","from_stop_id":"2770","from_stop_lat":"51.055149","from_stop_lon":"-114.062438","to_stop_id":"65","to_stop_name":"origin","to_stop_lat":"57.3228575","placename":"Calgary, AB, Canada","to_stop_lon":"-4.4243817","to_stop":{"id":"65","name":"origin","lat":"57.3228575","placename":"Loch Ness, Highland, UK","lon":"-4.4243817"},"from_stop":{"name":"origin","id":"2770","lat":"51.055149","lon":"-114.062438","placename":"Calgary, AB, Canada"}},{"transport_id":"5","id":"548","transport_name":"automobile, 50 mpg","transport_description":"high efficiency automobile","transport_unit":"kg km","transport_co2_eq":"0.026400","from_stop_id":"2771","from_stop_lat":"57.1474934","from_stop_lon":"-2.0953919","to_stop_id":"65","to_stop_name":"origin","to_stop_lat":"57.3228575","placename":"Aberdeen, Aberdeen City, UK","to_stop_lon":"-4.4243817","to_stop":{"id":"65","name":"origin","lat":"57.3228575","placename":"Loch Ness, Highland, UK","lon":"-4.4243817"},"from_stop":{"name":"origin","id":"2771","lat":"57.1474934","lon":"-2.0953919","placename":"Aberdeen, Aberdeen City, UK"}},{"transport_id":"5","id":"549","transport_name":"automobile, 50 mpg","transport_description":"high efficiency automobile","transport_unit":"kg km","transport_co2_eq":"0.026400","from_stop_id":"2772","from_stop_lat":"57.467973","from_stop_lon":"-3.225725","to_stop_id":"65","to_stop_name":"origin","to_stop_lat":"57.3228575","placename":"Aberlour, Moray AB38 9, UK","to_stop_lon":"-4.4243817","to_stop":{"id":"65","name":"origin","lat":"57.3228575","placename":"Loch Ness, Highland, UK","lon":"-4.4243817"},"from_stop":{"name":"origin","id":"2772","lat":"57.467973","lon":"-3.225725","placename":"Aberlour, Moray AB38 9, UK"}},{"transport_id":"5","id":"550","transport_name":"automobile, 50 mpg","transport_description":"high efficiency automobile","transport_unit":"kg km","transport_co2_eq":"0.026400","from_stop_id":"2773","from_stop_lat":"56.619667","from_stop_lon":"-3.864756","to_stop_id":"65","to_stop_name":"origin","to_stop_lat":"57.3228575","placename":"Aberfeldy, Perth and Kinross PH15 2, UK","to_stop_lon":"-4.4243817","to_stop":{"id":"65","name":"origin","lat":"57.3228575","placename":"Loch Ness, Highland, UK","lon":"-4.4243817"},"from_stop":{"name":"origin","id":"2773","lat":"56.619667","lon":"-3.864756","placename":"Aberfeldy, Perth and Kinross PH15 2, UK"}},{"transport_id":"5","id":"551","transport_name":"automobile, 50 mpg","transport_description":"high efficiency automobile","transport_unit":"kg km","transport_co2_eq":"0.026400","from_stop_id":"2774","from_stop_lat":"56.1771174","from_stop_lon":"-4.3775659","to_stop_id":"65","to_stop_name":"origin","to_stop_lat":"57.3228575","placename":"Aberfoyle, Stirling, UK","to_stop_lon":"-4.4243817","to_stop":{"id":"65","name":"origin","lat":"57.3228575","placename":"Loch Ness, Highland, UK","lon":"-4.4243817"},"from_stop":{"name":"origin","id":"2774","lat":"56.1771174","lon":"-4.3775659","placename":"Aberfoyle, Stirling, UK"}},{"transport_id":"5","id":"552","transport_name":"automobile, 50 mpg","transport_description":"high efficiency automobile","transport_unit":"kg km","transport_co2_eq":"0.026400","from_stop_id":"2775","from_stop_lat":"56.3341545","from_stop_lon":"-3.3129634","to_stop_id":"65","to_stop_name":"origin","to_stop_lat":"57.3228575","placename":"Abernethy, Perth and Kinross, UK","to_stop_lon":"-4.4243817","to_stop":{"id":"65","name":"origin","lat":"57.3228575","placename":"Loch Ness, Highland, UK","lon":"-4.4243817"},"from_stop":{"name":"origin","id":"2775","lat":"56.3341545","lon":"-3.3129634","placename":"Abernethy, Perth and Kinross, UK"}},{"transport_id":"13","id":"553","transport_name":"air, passenger, regional","transport_description":"within one continent, kg km from person-km","transport_unit":"kg km","transport_co2_eq":"2.262000","from_stop_id":"2776","from_stop_lat":"52.1242411","from_stop_lon":"0.2459667","to_stop_id":"65","to_stop_name":"origin","to_stop_lat":"57.3228575","placename":"Abington, Little Abington, Cambridgeshire, UK","to_stop_lon":"-4.4243817","to_stop":{"id":"65","name":"origin","lat":"57.3228575","placename":"Loch Ness, Highland, UK","lon":"-4.4243817"},"from_stop":{"name":"origin","id":"2776","lat":"52.1242411","lon":"0.2459667","placename":"Abington, Little Abington, Cambridgeshire, UK"}},{"transport_id":"5","id":"554","transport_name":"automobile, 50 mpg","transport_description":"high efficiency automobile","transport_unit":"kg km","transport_co2_eq":"0.026400","from_stop_id":"2777","from_stop_lat":"57.075307","from_stop_lon":"-2.782599","to_stop_id":"65","to_stop_name":"origin","to_stop_lat":"57.3228575","placename":"Aboyne, Aberdeenshire AB34 5, UK","to_stop_lon":"-4.4243817","to_stop":{"id":"65","name":"origin","lat":"57.3228575","placename":"Loch Ness, Highland, UK","lon":"-4.4243817"},"from_stop":{"name":"origin","id":"2777","lat":"57.075307","lon":"-2.782599","placename":"Aboyne, Aberdeenshire AB34 5, UK"}},{"transport_id":"5","id":"555","transport_name":"automobile, 50 mpg","transport_description":"high efficiency automobile","transport_unit":"kg km","transport_co2_eq":"0.026400","from_stop_id":"2778","from_stop_lat":"57.580995","from_stop_lon":"-5.070826","to_stop_id":"65","to_stop_name":"origin","to_stop_lat":"57.3228575","placename":"Achnasheen, Highland IV22 2, UK","to_stop_lon":"-4.4243817","to_stop":{"id":"65","name":"origin","lat":"57.3228575","placename":"Loch Ness, Highland, UK","lon":"-4.4243817"},"from_stop":{"name":"origin","id":"2778","lat":"57.580995","lon":"-5.070826","placename":"Achnasheen, Highland IV22 2, UK"}},{"transport_id":"14","id":"556","transport_name":"air, passenger, intercontinental","transport_description":"intercontinental, kg km from person-km","transport_unit":"kg km","transport_co2_eq":"1.189000","from_stop_id":"2779","from_stop_lat":"42.48526","from_stop_lon":"-71.43402","to_stop_id":"65","to_stop_name":"origin","to_stop_lat":"57.3228575","placename":"Acton, Massachusetts, USA","to_stop_lon":"-4.4243817","to_stop":{"id":"65","name":"origin","lat":"57.3228575","placename":"Loch Ness, Highland, UK","lon":"-4.4243817"},"from_stop":{"name":"origin","id":"2779","lat":"42.48526","lon":"-71.43402","placename":"Acton, Massachusetts, USA"}},{"transport_id":"5","id":"557","transport_name":"automobile, 50 mpg","transport_description":"high efficiency automobile","transport_unit":"kg km","transport_co2_eq":"0.026400","from_stop_id":"2780","from_stop_lat":"55.8665","from_stop_lon":"-3.9736861","to_stop_id":"65","to_stop_name":"origin","to_stop_lat":"57.3228575","placename":"Airdrie, North Lanarkshire, UK","to_stop_lon":"-4.4243817","to_stop":{"id":"65","name":"origin","lat":"57.3228575","placename":"Loch Ness, Highland, UK","lon":"-4.4243817"},"from_stop":{"name":"origin","id":"2780","lat":"55.8665","lon":"-3.9736861","placename":"Airdrie, North Lanarkshire, UK"}},{"transport_id":"14","id":"558","transport_name":"air, passenger, intercontinental","transport_description":"intercontinental, kg km from person-km","transport_unit":"kg km","transport_co2_eq":"1.189000","from_stop_id":"2781","from_stop_lat":"35.080371","from_stop_lon":"-106.627085","to_stop_id":"65","to_stop_name":"origin","to_stop_lat":"57.3228575","placename":"Albuquerque, NM, USA","to_stop_lon":"-4.4243817","to_stop":{"id":"65","name":"origin","lat":"57.3228575","placename":"Loch Ness, Highland, UK","lon":"-4.4243817"},"from_stop":{"name":"origin","id":"2781","lat":"35.080371","lon":"-106.627085","placename":"Albuquerque, NM, USA"}},{"transport_id":"5","id":"559","transport_name":"automobile, 50 mpg","transport_description":"high efficiency automobile","transport_unit":"kg km","transport_co2_eq":"0.026400","from_stop_id":"2782","from_stop_lat":"50.74","from_stop_lon":"-1.94","to_stop_id":"65","to_stop_name":"origin","to_stop_lat":"57.3228575","placename":"Alderney","to_stop_lon":"-4.4243817","to_stop":{"id":"65","name":"origin","lat":"57.3228575","placename":"Loch Ness, Highland, UK","lon":"-4.4243817"},"from_stop":{"name":"origin","id":"2782","lat":"50.74","lon":"-1.94","placename":"Alderney"}},{"transport_id":"13","id":"560","transport_name":"air, passenger, regional","transport_description":"within one continent, kg km from person-km","transport_unit":"kg km","transport_co2_eq":"2.262000","from_stop_id":"2783","from_stop_lat":"51.2468717","from_stop_lon":"-0.766213","to_stop_id":"65","to_stop_name":"origin","to_stop_lat":"57.3228575","placename":"Aldershot, Hampshire, UK","to_stop_lon":"-4.4243817","to_stop":{"id":"65","name":"origin","lat":"57.3228575","placename":"Loch Ness, Highland, UK","lon":"-4.4243817"},"from_stop":{"name":"origin","id":"2783","lat":"51.2468717","lon":"-0.766213","placename":"Aldershot, Hampshire, UK"}},{"transport_id":"5","id":"561","transport_name":"automobile, 50 mpg","transport_description":"high efficiency automobile","transport_unit":"kg km","transport_co2_eq":"0.026400","from_stop_id":"2784","from_stop_lat":"55.9924192","from_stop_lon":"-4.590903","to_stop_id":"65","to_stop_name":"origin","to_stop_lat":"57.3228575","placename":"Alexandria, West Dunbartonshire, UK","to_stop_lon":"-4.4243817","to_stop":{"id":"65","name":"origin","lat":"57.3228575","placename":"Loch Ness, Highland, UK","lon":"-4.4243817"},"from_stop":{"name":"origin","id":"2784","lat":"55.9924192","lon":"-4.590903","placename":"Alexandria, West Dunbartonshire, UK"}},{"transport_id":"14","id":"562","transport_name":"air, passenger, intercontinental","transport_description":"intercontinental, kg km from person-km","transport_unit":"kg km","transport_co2_eq":"1.189000","from_stop_id":"2785","from_stop_lat":"30.696998","from_stop_lon":"-85.391845","to_stop_id":"65","to_stop_name":"origin","to_stop_lat":"57.3228575","placename":"Alford, FL, USA","to_stop_lon":"-4.4243817","to_stop":{"id":"65","name":"origin","lat":"57.3228575","placename":"Loch Ness, Highland, UK","lon":"-4.4243817"},"from_stop":{"name":"origin","id":"2785","lat":"30.696998","lon":"-85.391845","placename":"Alford, FL, USA"}},{"transport_id":"5","id":"563","transport_name":"automobile, 50 mpg","transport_description":"high efficiency automobile","transport_unit":"kg km","transport_co2_eq":"0.026400","from_stop_id":"2786","from_stop_lat":"56.1162884","from_stop_lon":"-3.7953659","to_stop_id":"65","to_stop_name":"origin","to_stop_lat":"57.3228575","placename":"Alloa, Clackmannanshire, UK","to_stop_lon":"-4.4243817","to_stop":{"id":"65","name":"origin","lat":"57.3228575","placename":"Loch Ness, Highland, UK","lon":"-4.4243817"},"from_stop":{"name":"origin","id":"2786","lat":"56.1162884","lon":"-3.7953659","placename":"Alloa, Clackmannanshire, UK"}},{"transport_id":"5","id":"564","transport_name":"automobile, 50 mpg","transport_description":"high efficiency automobile","transport_unit":"kg km","transport_co2_eq":"0.026400","from_stop_id":"2787","from_stop_lat":"57.6943096","from_stop_lon":"-4.2674131","to_stop_id":"65","to_stop_name":"origin","to_stop_lat":"57.3228575","placename":"Alness, Highland, UK","to_stop_lon":"-4.4243817","to_stop":{"id":"65","name":"origin","lat":"57.3228575","placename":"Loch Ness, Highland, UK","lon":"-4.4243817"},"from_stop":{"name":"origin","id":"2787","lat":"57.6943096","lon":"-4.2674131","placename":"Alness, Highland, UK"}},{"transport_id":"5","id":"565","transport_name":"automobile, 50 mpg","transport_description":"high efficiency automobile","transport_unit":"kg km","transport_co2_eq":"0.026400","from_stop_id":"2788","from_stop_lat":"55.4125978","from_stop_lon":"-1.7089562","to_stop_id":"65","to_stop_name":"origin","to_stop_lat":"57.3228575","placename":"Alnwick, Northumberland, UK","to_stop_lon":"-4.4243817","to_stop":{"id":"65","name":"origin","lat":"57.3228575","placename":"Loch Ness, Highland, UK","lon":"-4.4243817"},"from_stop":{"name":"origin","id":"2788","lat":"55.4125978","lon":"-1.7089562","placename":"Alnwick, Northumberland, UK"}},{"transport_id":"5","id":"566","transport_name":"automobile, 50 mpg","transport_description":"high efficiency automobile","transport_unit":"kg km","transport_co2_eq":"0.026400","from_stop_id":"2789","from_stop_lat":"51.090113","from_stop_lon":"-1.165786","to_stop_id":"65","to_stop_name":"origin","to_stop_lat":"57.3228575","placename":"Alresford, Hampshire SO24 9, UK","to_stop_lon":"-4.4243817","to_stop":{"id":"65","name":"origin","lat":"57.3228575","placename":"Loch Ness, Highland, UK","lon":"-4.4243817"},"from_stop":{"name":"origin","id":"2789","lat":"51.090113","lon":"-1.165786","placename":"Alresford, Hampshire SO24 9, UK"}},{"transport_id":"14","id":"567","transport_name":"air, passenger, intercontinental","transport_description":"intercontinental, kg km from person-km","transport_unit":"kg km","transport_co2_eq":"1.189000","from_stop_id":"2790","from_stop_lat":"32.080755","from_stop_lon":"-82.477188","to_stop_id":"65","to_stop_name":"origin","to_stop_lat":"57.3228575","placename":"Alston, GA 30473, USA","to_stop_lon":"-4.4243817","to_stop":{"id":"65","name":"origin","lat":"57.3228575","placename":"Loch Ness, Highland, UK","lon":"-4.4243817"},"from_stop":{"name":"origin","id":"2790","lat":"32.080755","lon":"-82.477188","placename":"Alston, GA 30473, USA"}},{"transport_id":"5","id":"568","transport_name":"automobile, 50 mpg","transport_description":"high efficiency automobile","transport_unit":"kg km","transport_co2_eq":"0.026400","from_stop_id":"2791","from_stop_lat":"56.1162884","from_stop_lon":"-3.7953659","to_stop_id":"65","to_stop_name":"origin","to_stop_lat":"57.3228575","placename":"Alloa, Clackmannanshire, UK","to_stop_lon":"-4.4243817","to_stop":{"id":"65","name":"origin","lat":"57.3228575","placename":"Loch Ness, Highland, UK","lon":"-4.4243817"},"from_stop":{"name":"origin","id":"2791","lat":"56.1162884","lon":"-3.7953659","placename":"Alloa, Clackmannanshire, UK"}},{"transport_id":"14","id":"569","transport_name":"air, passenger, intercontinental","transport_description":"intercontinental, kg km from person-km","transport_unit":"kg km","transport_co2_eq":"1.189000","from_stop_id":"2792","from_stop_lat":"52.141405","from_stop_lon":"6.1953058","to_stop_id":"65","to_stop_name":"origin","to_stop_lat":"57.3228575","placename":"Zutphen, The Netherlands","to_stop_lon":"-4.4243817","to_stop":{"id":"65","name":"origin","lat":"57.3228575","placename":"Loch Ness, Highland, UK","lon":"-4.4243817"},"from_stop":{"name":"origin","id":"2792","lat":"52.141405","lon":"6.1953058","placename":"Zutphen, The Netherlands"}},{"transport_id":"14","id":"570","transport_name":"air, passenger, intercontinental","transport_description":"intercontinental, kg km from person-km","transport_unit":"kg km","transport_co2_eq":"1.189000","from_stop_id":"2793","from_stop_lat":"47.3690239","from_stop_lon":"8.5380326","to_stop_id":"65","to_stop_name":"origin","to_stop_lat":"57.3228575","placename":"Zurich, Switzerland","to_stop_lon":"-4.4243817","to_stop":{"id":"65","name":"origin","lat":"57.3228575","placename":"Loch Ness, Highland, UK","lon":"-4.4243817"},"from_stop":{"name":"origin","id":"2793","lat":"47.3690239","lon":"8.5380326","placename":"Zurich, Switzerland"}},{"transport_id":"14","id":"571","transport_name":"air, passenger, intercontinental","transport_description":"intercontinental, kg km from person-km","transport_unit":"kg km","transport_co2_eq":"1.189000","from_stop_id":"2794","from_stop_lat":"52.0819874","from_stop_lon":"5.2386719","to_stop_id":"65","to_stop_name":"origin","to_stop_lat":"57.3228575","placename":"Zeist, The Netherlands","to_stop_lon":"-4.4243817","to_stop":{"id":"65","name":"origin","lat":"57.3228575","placename":"Loch Ness, Highland, UK","lon":"-4.4243817"},"from_stop":{"name":"origin","id":"2794","lat":"52.0819874","lon":"5.2386719","placename":"Zeist, The Netherlands"}},{"transport_id":"14","id":"572","transport_name":"air, passenger, intercontinental","transport_description":"intercontinental, kg km from person-km","transport_unit":"kg km","transport_co2_eq":"1.189000","from_stop_id":"2795","from_stop_lat":"45.8150053","from_stop_lon":"15.9785014","to_stop_id":"65","to_stop_name":"origin","to_stop_lat":"57.3228575","placename":"City of Zagreb, Croatia","to_stop_lon":"-4.4243817","to_stop":{"id":"65","name":"origin","lat":"57.3228575","placename":"Loch Ness, Highland, UK","lon":"-4.4243817"},"from_stop":{"name":"origin","id":"2795","lat":"45.8150053","lon":"15.9785014","placename":"City of Zagreb, Croatia"}},{"transport_id":"5","id":"573","transport_name":"automobile, 50 mpg","transport_description":"high efficiency automobile","transport_unit":"kg km","transport_co2_eq":"0.026400","from_stop_id":"2796","from_stop_lat":"53.9577018","from_stop_lon":"-1.0822855","to_stop_id":"65","to_stop_name":"origin","to_stop_lat":"57.3228575","placename":"York, UK","to_stop_lon":"-4.4243817","to_stop":{"id":"65","name":"origin","lat":"57.3228575","placename":"Loch Ness, Highland, UK","lon":"-4.4243817"},"from_stop":{"name":"origin","id":"2796","lat":"53.9577018","lon":"-1.0822855","placename":"York, UK"}},{"transport_id":"5","id":"574","transport_name":"automobile, 50 mpg","transport_description":"high efficiency automobile","transport_unit":"kg km","transport_co2_eq":"0.026400","from_stop_id":"2797","from_stop_lat":"56.1951189","from_stop_lon":"-3.6051563","to_stop_id":"65","to_stop_name":"origin","to_stop_lat":"57.3228575","placename":"Yetts of Muckhart, Clackmannanshire, UK","to_stop_lon":"-4.4243817","to_stop":{"id":"65","name":"origin","lat":"57.3228575","placename":"Loch Ness, Highland, UK","lon":"-4.4243817"},"from_stop":{"name":"origin","id":"2797","lat":"56.1951189","lon":"-3.6051563","placename":"Yetts of Muckhart, Clackmannanshire, UK"}},{"transport_id":"5","id":"575","transport_name":"automobile, 50 mpg","transport_description":"high efficiency automobile","transport_unit":"kg km","transport_co2_eq":"0.026400","from_stop_id":"2798","from_stop_lat":"51.3683488","from_stop_lon":"0.3604929","to_stop_id":"65","to_stop_name":"origin","to_stop_lat":"57.3228575","placename":"Meopham, Kent, UK","to_stop_lon":"-4.4243817","to_stop":{"id":"65","name":"origin","lat":"57.3228575","placename":"Loch Ness, Highland, UK","lon":"-4.4243817"},"from_stop":{"name":"origin","id":"2798","lat":"51.3683488","lon":"0.3604929","placename":"Meopham, Kent, UK"}},{"transport_id":"5","id":"576","transport_name":"automobile, 50 mpg","transport_description":"high efficiency automobile","transport_unit":"kg km","transport_co2_eq":"0.026400","from_stop_id":"2799","from_stop_lat":"53.0469077","from_stop_lon":"-2.9916733","to_stop_id":"65","to_stop_name":"origin","to_stop_lat":"57.3228575","placename":"Wrexham, UK","to_stop_lon":"-4.4243817","to_stop":{"id":"65","name":"origin","lat":"57.3228575","placename":"Loch Ness, Highland, UK","lon":"-4.4243817"},"from_stop":{"name":"origin","id":"2799","lat":"53.0469077","lon":"-2.9916733","placename":"Wrexham, UK"}},{"transport_id":"13","id":"577","transport_name":"air, passenger, regional","transport_description":"within one continent, kg km from person-km","transport_unit":"kg km","transport_co2_eq":"2.262000","from_stop_id":"2800","from_stop_lat":"51.639486","from_stop_lon":"-2.3483803","to_stop_id":"65","to_stop_name":"origin","to_stop_lat":"57.3228575","placename":"Wotton-under-Edge, Gloucestershire, UK","to_stop_lon":"-4.4243817","to_stop":{"id":"65","name":"origin","lat":"57.3228575","placename":"Loch Ness, Highland, UK","lon":"-4.4243817"},"from_stop":{"name":"origin","id":"2800","lat":"51.639486","lon":"-2.3483803","placename":"Wotton-under-Edge, Gloucestershire, UK"}},{"transport_id":"13","id":"578","transport_name":"air, passenger, regional","transport_description":"within one continent, kg km from person-km","transport_unit":"kg km","transport_co2_eq":"2.262000","from_stop_id":"2801","from_stop_lat":"51.3169508","from_stop_lon":"-2.032109","to_stop_id":"65","to_stop_name":"origin","to_stop_lat":"57.3228575","placename":"Worton, Wiltshire, UK","to_stop_lon":"-4.4243817","to_stop":{"id":"65","name":"origin","lat":"57.3228575","placename":"Loch Ness, Highland, UK","lon":"-4.4243817"},"from_stop":{"name":"origin","id":"2801","lat":"51.3169508","lon":"-2.032109","placename":"Worton, Wiltshire, UK"}},{"transport_id":"13","id":"579","transport_name":"air, passenger, regional","transport_description":"within one continent, kg km from person-km","transport_unit":"kg km","transport_co2_eq":"2.262000","from_stop_id":"2802","from_stop_lat":"50.8147114","from_stop_lon":"-0.3713868","to_stop_id":"65","to_stop_name":"origin","to_stop_lat":"57.3228575","placename":"Worthing, West Sussex, UK","to_stop_lon":"-4.4243817","to_stop":{"id":"65","name":"origin","lat":"57.3228575","placename":"Loch Ness, Highland, UK","lon":"-4.4243817"},"from_stop":{"name":"origin","id":"2802","lat":"50.8147114","lon":"-0.3713868","placename":"Worthing, West Sussex, UK"}},{"transport_id":"13","id":"580","transport_name":"air, passenger, regional","transport_description":"within one continent, kg km from person-km","transport_unit":"kg km","transport_co2_eq":"2.262000","from_stop_id":"2803","from_stop_lat":"53.245375","from_stop_lon":"-0.508149","to_stop_id":"65","to_stop_name":"origin","to_stop_lat":"57.3228575","placename":"Wolsey Way, Lincoln LN2 4, UK","to_stop_lon":"-4.4243817","to_stop":{"id":"65","name":"origin","lat":"57.3228575","placename":"Loch Ness, Highland, UK","lon":"-4.4243817"},"from_stop":{"name":"origin","id":"2803","lat":"53.245375","lon":"-0.508149","placename":"Wolsey Way, Lincoln LN2 4, UK"}},{"transport_id":"5","id":"581","transport_name":"automobile, 50 mpg","transport_description":"high efficiency automobile","transport_unit":"kg km","transport_co2_eq":"0.026400","from_stop_id":"2804","from_stop_lat":"53.5315291","from_stop_lon":"-1.4581004","to_stop_id":"65","to_stop_name":"origin","to_stop_lat":"57.3228575","placename":"Worsbrough, Barnsley S70 4, UK","to_stop_lon":"-4.4243817","to_stop":{"id":"65","name":"origin","lat":"57.3228575","placename":"Loch Ness, Highland, UK","lon":"-4.4243817"},"from_stop":{"name":"origin","id":"2804","lat":"53.5315291","lon":"-1.4581004","placename":"Worsbrough, Barnsley S70 4, UK"}},{"transport_id":"5","id":"582","transport_name":"automobile, 50 mpg","transport_description":"high efficiency automobile","transport_unit":"kg km","transport_co2_eq":"0.026400","from_stop_id":"2805","from_stop_lat":"53.3129116","from_stop_lon":"-1.121011","to_stop_id":"65","to_stop_name":"origin","to_stop_lat":"57.3228575","placename":"Worksop, Nottinghamshire, UK","to_stop_lon":"-4.4243817","to_stop":{"id":"65","name":"origin","lat":"57.3228575","placename":"Loch Ness, Highland, UK","lon":"-4.4243817"},"from_stop":{"name":"origin","id":"2805","lat":"53.3129116","lon":"-1.121011","placename":"Worksop, Nottinghamshire, UK"}},{"transport_id":"5","id":"583","transport_name":"automobile, 50 mpg","transport_description":"high efficiency automobile","transport_unit":"kg km","transport_co2_eq":"0.026400","from_stop_id":"2806","from_stop_lat":"53.3874174","from_stop_lon":"-1.4741627","to_stop_id":"65","to_stop_name":"origin","to_stop_lat":"57.3228575","placename":"Moorfields, Norton, Sheffield S3 8, UK","to_stop_lon":"-4.4243817","to_stop":{"id":"65","name":"origin","lat":"57.3228575","placename":"Loch Ness, Highland, UK","lon":"-4.4243817"},"from_stop":{"name":"origin","id":"2806","lat":"53.3874174","lon":"-1.4741627","placename":"Moorfields, Norton, Sheffield S3 8, UK"}},{"transport_id":"13","id":"584","transport_name":"air, passenger, regional","transport_description":"within one continent, kg km from person-km","transport_unit":"kg km","transport_co2_eq":"2.262000","from_stop_id":"2807","from_stop_lat":"52.1920347","from_stop_lon":"-2.223532","to_stop_id":"65","to_stop_name":"origin","to_stop_lat":"57.3228575","placename":"Worcester, UK","to_stop_lon":"-4.4243817","to_stop":{"id":"65","name":"origin","lat":"57.3228575","placename":"Loch Ness, Highland, UK","lon":"-4.4243817"},"from_stop":{"name":"origin","id":"2807","lat":"52.1920347","lon":"-2.223532","placename":"Worcester, UK"}},{"transport_id":"13","id":"585","transport_name":"air, passenger, regional","transport_description":"within one continent, kg km from person-km","transport_unit":"kg km","transport_co2_eq":"2.262000","from_stop_id":"2808","from_stop_lat":"53.8099208","from_stop_lon":"-2.7578744","to_stop_id":"65","to_stop_name":"origin","to_stop_lat":"57.3228575","placename":"Woodplumpton, Lancashire, UK","to_stop_lon":"-4.4243817","to_stop":{"id":"65","name":"origin","lat":"57.3228575","placename":"Loch Ness, Highland, UK","lon":"-4.4243817"},"from_stop":{"name":"origin","id":"2808","lat":"53.8099208","lon":"-2.7578744","placename":"Woodplumpton, Lancashire, UK"}}],"outgoing":[]}}},"parts":[{"oid":"271","imid":"688","linkid":"","weight":"2","rawemissions":"0","emissions":"0","shipping":"6375.88","processemissions":null,"endoflifeemissions":null,"disposaltype":null,"disposalenergy":null,"disposalimpact":null,"disposalemissions":null,"description":"","name":"Guests","id":"688","stops":{"origin":{"related_to":"688","part_or_object":"p","notes":"","placename":"Calgary, AB, Canada","id":2770,"name":"origin","lat":"51.055149","lon":"-114.062438","hops":{"incoming":[],"outgoing":[{"transport_id":"14","id":"547","transport_name":"air, passenger, intercontinental","transport_description":"intercontinental, kg km from person-km","transport_unit":"kg km","transport_co2_eq":"1.189000","from_stop_id":"2770","from_stop_lat":"51.055149","from_stop_lon":"-114.062438","from_stop_placename":"Calgary, AB, Canada","to_stop_id":"65","to_stop_name":"origin","to_stop_lat":"57.3228575","to_stop_lon":"-4.4243817","to_stop_placename":"Loch Ness, Highland, UK","to_stop":{"id":"65","name":"origin","lat":"57.3228575","lon":"-4.4243817","placename":"Loch Ness, Highland, UK"},"from_stop":{"name":"origin","id":"2770","lat":"51.055149","lon":"-114.062438","placename":"Calgary, AB, Canada"}}]}}},"processes":[],"eols":[]},{"oid":"271","imid":"689","linkid":"","weight":"225","rawemissions":"0","emissions":"0","shipping":"141.65","processemissions":null,"endoflifeemissions":null,"disposaltype":null,"disposalenergy":null,"disposalimpact":null,"disposalemissions":null,"description":"","name":"Guests","id":"689","stops":{"origin":{"related_to":"689","part_or_object":"p","notes":"","placename":"Aberdeen, Aberdeen City, UK","id":2771,"name":"origin","lat":"57.1474934","lon":"-2.0953919","hops":{"incoming":[],"outgoing":[{"transport_id":"5","id":"548","transport_name":"automobile, 50 mpg","transport_description":"high efficiency automobile","transport_unit":"kg km","transport_co2_eq":"0.026400","from_stop_id":"2771","from_stop_lat":"57.1474934","from_stop_lon":"-2.0953919","from_stop_placename":"Aberdeen, Aberdeen City, UK","to_stop_id":"65","to_stop_name":"origin","to_stop_lat":"57.3228575","to_stop_lon":"-4.4243817","to_stop_placename":"Loch Ness, Highland, UK","to_stop":{"id":"65","name":"origin","lat":"57.3228575","lon":"-4.4243817","placename":"Loch Ness, Highland, UK"},"from_stop":{"name":"origin","id":"2771","lat":"57.1474934","lon":"-2.0953919","placename":"Aberdeen, Aberdeen City, UK"}}]}}},"processes":[],"eols":[]},{"oid":"271","imid":"690","linkid":"","weight":"2","rawemissions":"0","emissions":"0","shipping":"73.69","processemissions":null,"endoflifeemissions":null,"disposaltype":null,"disposalenergy":null,"disposalimpact":null,"disposalemissions":null,"description":"","name":"Guests","id":"690","stops":{"origin":{"related_to":"690","part_or_object":"p","notes":"","placename":"Aberlour, Moray AB38 9, UK","id":2772,"name":"origin","lat":"57.467973","lon":"-3.225725","hops":{"incoming":[],"outgoing":[{"transport_id":"5","id":"549","transport_name":"automobile, 50 mpg","transport_description":"high efficiency automobile","transport_unit":"kg km","transport_co2_eq":"0.026400","from_stop_id":"2772","from_stop_lat":"57.467973","from_stop_lon":"-3.225725","from_stop_placename":"Aberlour, Moray AB38 9, UK","to_stop_id":"65","to_stop_name":"origin","to_stop_lat":"57.3228575","to_stop_lon":"-4.4243817","to_stop_placename":"Loch Ness, Highland, UK","to_stop":{"id":"65","name":"origin","lat":"57.3228575","lon":"-4.4243817","placename":"Loch Ness, Highland, UK"},"from_stop":{"name":"origin","id":"2772","lat":"57.467973","lon":"-3.225725","placename":"Aberlour, Moray AB38 9, UK"}}]}}},"processes":[],"eols":[]},{"oid":"271","imid":"691","linkid":"","weight":"15","rawemissions":"0","emissions":"0","shipping":"85.33","processemissions":null,"endoflifeemissions":null,"disposaltype":null,"disposalenergy":null,"disposalimpact":null,"disposalemissions":null,"description":"","name":"Guests","id":"691","stops":{"origin":{"related_to":"691","part_or_object":"p","notes":"","placename":"Aberfeldy, Perth and Kinross PH15 2, UK","id":2773,"name":"origin","lat":"56.619667","lon":"-3.864756","hops":{"incoming":[],"outgoing":[{"transport_id":"5","id":"550","transport_name":"automobile, 50 mpg","transport_description":"high efficiency automobile","transport_unit":"kg km","transport_co2_eq":"0.026400","from_stop_id":"2773","from_stop_lat":"56.619667","from_stop_lon":"-3.864756","from_stop_placename":"Aberfeldy, Perth and Kinross PH15 2, UK","to_stop_id":"65","to_stop_name":"origin","to_stop_lat":"57.3228575","to_stop_lon":"-4.4243817","to_stop_placename":"Loch Ness, Highland, UK","to_stop":{"id":"65","name":"origin","lat":"57.3228575","lon":"-4.4243817","placename":"Loch Ness, Highland, UK"},"from_stop":{"name":"origin","id":"2773","lat":"56.619667","lon":"-3.864756","placename":"Aberfeldy, Perth and Kinross PH15 2, UK"}}]}}},"processes":[],"eols":[]},{"oid":"271","imid":"692","linkid":"","weight":"4","rawemissions":"0","emissions":"0","shipping":"127.58","processemissions":null,"endoflifeemissions":null,"disposaltype":null,"disposalenergy":null,"disposalimpact":null,"disposalemissions":null,"description":"","name":"Guests","id":"692","stops":{"origin":{"related_to":"692","part_or_object":"p","notes":"","placename":"Aberfoyle, Stirling, UK","id":2774,"name":"origin","lat":"56.1771174","lon":"-4.3775659","hops":{"incoming":[],"outgoing":[{"transport_id":"5","id":"551","transport_name":"automobile, 50 mpg","transport_description":"high efficiency automobile","transport_unit":"kg km","transport_co2_eq":"0.026400","from_stop_id":"2774","from_stop_lat":"56.1771174","from_stop_lon":"-4.3775659","from_stop_placename":"Aberfoyle, Stirling, UK","to_stop_id":"65","to_stop_name":"origin","to_stop_lat":"57.3228575","to_stop_lon":"-4.4243817","to_stop_placename":"Loch Ness, Highland, UK","to_stop":{"id":"65","name":"origin","lat":"57.3228575","lon":"-4.4243817","placename":"Loch Ness, Highland, UK"},"from_stop":{"name":"origin","id":"2774","lat":"56.1771174","lon":"-4.3775659","placename":"Aberfoyle, Stirling, UK"}}]}}},"processes":[],"eols":[]},{"oid":"271","imid":"693","linkid":"","weight":"2","rawemissions":"0","emissions":"0","shipping":"129.21","processemissions":null,"endoflifeemissions":null,"disposaltype":null,"disposalenergy":null,"disposalimpact":null,"disposalemissions":null,"description":"","name":"Guests","id":"693","stops":{"origin":{"related_to":"693","part_or_object":"p","notes":"","placename":"Abernethy, Perth and Kinross, UK","id":2775,"name":"origin","lat":"56.3341545","lon":"-3.3129634","hops":{"incoming":[],"outgoing":[{"transport_id":"5","id":"552","transport_name":"automobile, 50 mpg","transport_description":"high efficiency automobile","transport_unit":"kg km","transport_co2_eq":"0.026400","from_stop_id":"2775","from_stop_lat":"56.3341545","from_stop_lon":"-3.3129634","from_stop_placename":"Abernethy, Perth and Kinross, UK","to_stop_id":"65","to_stop_name":"origin","to_stop_lat":"57.3228575","to_stop_lon":"-4.4243817","to_stop_placename":"Loch Ness, Highland, UK","to_stop":{"id":"65","name":"origin","lat":"57.3228575","lon":"-4.4243817","placename":"Loch Ness, Highland, UK"},"from_stop":{"name":"origin","id":"2775","lat":"56.3341545","lon":"-3.3129634","placename":"Abernethy, Perth and Kinross, UK"}}]}}},"processes":[],"eols":[]},{"oid":"271","imid":"694","linkid":"","weight":"8","rawemissions":"0","emissions":"0","shipping":"651.6","processemissions":null,"endoflifeemissions":null,"disposaltype":null,"disposalenergy":null,"disposalimpact":null,"disposalemissions":null,"description":"","name":"Guests","id":"694","stops":{"origin":{"related_to":"694","part_or_object":"p","notes":"","placename":"Abington, Little Abington, Cambridgeshire, UK","id":2776,"name":"origin","lat":"52.1242411","lon":"0.2459667","hops":{"incoming":[],"outgoing":[{"transport_id":"13","id":"553","transport_name":"air, passenger, regional","transport_description":"within one continent, kg km from person-km","transport_unit":"kg km","transport_co2_eq":"2.262000","from_stop_id":"2776","from_stop_lat":"52.1242411","from_stop_lon":"0.2459667","from_stop_placename":"Abington, Little Abington, Cambridgeshire, UK","to_stop_id":"65","to_stop_name":"origin","to_stop_lat":"57.3228575","to_stop_lon":"-4.4243817","to_stop_placename":"Loch Ness, Highland, UK","to_stop":{"id":"65","name":"origin","lat":"57.3228575","lon":"-4.4243817","placename":"Loch Ness, Highland, UK"},"from_stop":{"name":"origin","id":"2776","lat":"52.1242411","lon":"0.2459667","placename":"Abington, Little Abington, Cambridgeshire, UK"}}]}}},"processes":[],"eols":[]},{"oid":"271","imid":"695","linkid":"","weight":"6","rawemissions":"0","emissions":"0","shipping":"102.77","processemissions":null,"endoflifeemissions":null,"disposaltype":null,"disposalenergy":null,"disposalimpact":null,"disposalemissions":null,"description":"","name":"Guests","id":"695","stops":{"origin":{"related_to":"695","part_or_object":"p","notes":"","placename":"Aboyne, Aberdeenshire AB34 5, UK","id":2777,"name":"origin","lat":"57.075307","lon":"-2.782599","hops":{"incoming":[],"outgoing":[{"transport_id":"5","id":"554","transport_name":"automobile, 50 mpg","transport_description":"high efficiency automobile","transport_unit":"kg km","transport_co2_eq":"0.026400","from_stop_id":"2777","from_stop_lat":"57.075307","from_stop_lon":"-2.782599","from_stop_placename":"Aboyne, Aberdeenshire AB34 5, UK","to_stop_id":"65","to_stop_name":"origin","to_stop_lat":"57.3228575","to_stop_lon":"-4.4243817","to_stop_placename":"Loch Ness, Highland, UK","to_stop":{"id":"65","name":"origin","lat":"57.3228575","lon":"-4.4243817","placename":"Loch Ness, Highland, UK"},"from_stop":{"name":"origin","id":"2777","lat":"57.075307","lon":"-2.782599","placename":"Aboyne, Aberdeenshire AB34 5, UK"}}]}}},"processes":[],"eols":[]},{"oid":"271","imid":"696","linkid":"","weight":"13","rawemissions":"0","emissions":"0","shipping":"48.21","processemissions":null,"endoflifeemissions":null,"disposaltype":null,"disposalenergy":null,"disposalimpact":null,"disposalemissions":null,"description":"","name":"Guests","id":"696","stops":{"origin":{"related_to":"696","part_or_object":"p","notes":"","placename":"Achnasheen, Highland IV22 2, UK","id":2778,"name":"origin","lat":"57.580995","lon":"-5.070826","hops":{"incoming":[],"outgoing":[{"transport_id":"5","id":"555","transport_name":"automobile, 50 mpg","transport_description":"high efficiency automobile","transport_unit":"kg km","transport_co2_eq":"0.026400","from_stop_id":"2778","from_stop_lat":"57.580995","from_stop_lon":"-5.070826","from_stop_placename":"Achnasheen, Highland IV22 2, UK","to_stop_id":"65","to_stop_name":"origin","to_stop_lat":"57.3228575","to_stop_lon":"-4.4243817","to_stop_placename":"Loch Ness, Highland, UK","to_stop":{"id":"65","name":"origin","lat":"57.3228575","lon":"-4.4243817","placename":"Loch Ness, Highland, UK"},"from_stop":{"name":"origin","id":"2778","lat":"57.580995","lon":"-5.070826","placename":"Achnasheen, Highland IV22 2, UK"}}]}}},"processes":[],"eols":[]},{"oid":"271","imid":"697","linkid":"","weight":"2","rawemissions":"0","emissions":"0","shipping":"4855.01","processemissions":null,"endoflifeemissions":null,"disposaltype":null,"disposalenergy":null,"disposalimpact":null,"disposalemissions":null,"description":"","name":"Guests","id":"697","stops":{"origin":{"related_to":"697","part_or_object":"p","notes":"","placename":"Acton, Massachusetts, USA","id":2779,"name":"origin","lat":"42.48526","lon":"-71.43402","hops":{"incoming":[],"outgoing":[{"transport_id":"14","id":"556","transport_name":"air, passenger, intercontinental","transport_description":"intercontinental, kg km from person-km","transport_unit":"kg km","transport_co2_eq":"1.189000","from_stop_id":"2779","from_stop_lat":"42.48526","from_stop_lon":"-71.43402","from_stop_placename":"Acton, Massachusetts, USA","to_stop_id":"65","to_stop_name":"origin","to_stop_lat":"57.3228575","to_stop_lon":"-4.4243817","to_stop_placename":"Loch Ness, Highland, UK","to_stop":{"id":"65","name":"origin","lat":"57.3228575","lon":"-4.4243817","placename":"Loch Ness, Highland, UK"},"from_stop":{"name":"origin","id":"2779","lat":"42.48526","lon":"-71.43402","placename":"Acton, Massachusetts, USA"}}]}}},"processes":[],"eols":[]},{"oid":"271","imid":"698","linkid":"","weight":"28","rawemissions":"0","emissions":"0","shipping":"164.46","processemissions":null,"endoflifeemissions":null,"disposaltype":null,"disposalenergy":null,"disposalimpact":null,"disposalemissions":null,"description":"","name":"Guests","id":"698","stops":{"origin":{"related_to":"698","part_or_object":"p","notes":"","placename":"Airdrie, North Lanarkshire, UK","id":2780,"name":"origin","lat":"55.8665","lon":"-3.9736861","hops":{"incoming":[],"outgoing":[{"transport_id":"5","id":"557","transport_name":"automobile, 50 mpg","transport_description":"high efficiency automobile","transport_unit":"kg km","transport_co2_eq":"0.026400","from_stop_id":"2780","from_stop_lat":"55.8665","from_stop_lon":"-3.9736861","from_stop_placename":"Airdrie, North Lanarkshire, UK","to_stop_id":"65","to_stop_name":"origin","to_stop_lat":"57.3228575","to_stop_lon":"-4.4243817","to_stop_placename":"Loch Ness, Highland, UK","to_stop":{"id":"65","name":"origin","lat":"57.3228575","lon":"-4.4243817","placename":"Loch Ness, Highland, UK"},"from_stop":{"name":"origin","id":"2780","lat":"55.8665","lon":"-3.9736861","placename":"Airdrie, North Lanarkshire, UK"}}]}}},"processes":[],"eols":[]},{"oid":"271","imid":"699","linkid":"","weight":"2","rawemissions":"0","emissions":"0","shipping":"7460.9","processemissions":null,"endoflifeemissions":null,"disposaltype":null,"disposalenergy":null,"disposalimpact":null,"disposalemissions":null,"description":"","name":"Guests","id":"699","stops":{"origin":{"related_to":"699","part_or_object":"p","notes":"","placename":"Albuquerque, NM, USA","id":2781,"name":"origin","lat":"35.080371","lon":"-106.627085","hops":{"incoming":[],"outgoing":[{"transport_id":"14","id":"558","transport_name":"air, passenger, intercontinental","transport_description":"intercontinental, kg km from person-km","transport_unit":"kg km","transport_co2_eq":"1.189000","from_stop_id":"2781","from_stop_lat":"35.080371","from_stop_lon":"-106.627085","from_stop_placename":"Albuquerque, NM, USA","to_stop_id":"65","to_stop_name":"origin","to_stop_lat":"57.3228575","to_stop_lon":"-4.4243817","to_stop_placename":"Loch Ness, Highland, UK","to_stop":{"id":"65","name":"origin","lat":"57.3228575","lon":"-4.4243817","placename":"Loch Ness, Highland, UK"},"from_stop":{"name":"origin","id":"2781","lat":"35.080371","lon":"-106.627085","placename":"Albuquerque, NM, USA"}}]}}},"processes":[],"eols":[]},{"oid":"271","imid":"700","linkid":"","weight":"2","rawemissions":"0","emissions":"0","shipping":"750.46","processemissions":null,"endoflifeemissions":null,"disposaltype":null,"disposalenergy":null,"disposalimpact":null,"disposalemissions":null,"description":"","name":"Guests","id":"700","stops":{"origin":{"related_to":"700","part_or_object":"p","notes":"","placename":"Alderney","id":2782,"name":"origin","lat":"50.74","lon":"-1.94","hops":{"incoming":[],"outgoing":[{"transport_id":"5","id":"559","transport_name":"automobile, 50 mpg","transport_description":"high efficiency automobile","transport_unit":"kg km","transport_co2_eq":"0.026400","from_stop_id":"2782","from_stop_lat":"50.74","from_stop_lon":"-1.94","from_stop_placename":"Alderney","to_stop_id":"65","to_stop_name":"origin","to_stop_lat":"57.3228575","to_stop_lon":"-4.4243817","to_stop_placename":"Loch Ness, Highland, UK","to_stop":{"id":"65","name":"origin","lat":"57.3228575","lon":"-4.4243817","placename":"Loch Ness, Highland, UK"},"from_stop":{"name":"origin","id":"2782","lat":"50.74","lon":"-1.94","placename":"Alderney"}}]}}},"processes":[],"eols":[]},{"oid":"271","imid":"701","linkid":"","weight":"2","rawemissions":"0","emissions":"0","shipping":"716.67","processemissions":null,"endoflifeemissions":null,"disposaltype":null,"disposalenergy":null,"disposalimpact":null,"disposalemissions":null,"description":"","name":"Guests","id":"701","stops":{"origin":{"related_to":"701","part_or_object":"p","notes":"","placename":"Aldershot, Hampshire, UK","id":2783,"name":"origin","lat":"51.2468717","lon":"-0.766213","hops":{"incoming":[],"outgoing":[{"transport_id":"13","id":"560","transport_name":"air, passenger, regional","transport_description":"within one continent, kg km from person-km","transport_unit":"kg km","transport_co2_eq":"2.262000","from_stop_id":"2783","from_stop_lat":"51.2468717","from_stop_lon":"-0.766213","from_stop_placename":"Aldershot, Hampshire, UK","to_stop_id":"65","to_stop_name":"origin","to_stop_lat":"57.3228575","to_stop_lon":"-4.4243817","to_stop_placename":"Loch Ness, Highland, UK","to_stop":{"id":"65","name":"origin","lat":"57.3228575","lon":"-4.4243817","placename":"Loch Ness, Highland, UK"},"from_stop":{"name":"origin","id":"2783","lat":"51.2468717","lon":"-0.766213","placename":"Aldershot, Hampshire, UK"}}]}}},"processes":[],"eols":[]},{"oid":"271","imid":"702","linkid":"","weight":"13","rawemissions":"0","emissions":"0","shipping":"148.45","processemissions":null,"endoflifeemissions":null,"disposaltype":null,"disposalenergy":null,"disposalimpact":null,"disposalemissions":null,"description":"","name":"Guests","id":"702","stops":{"origin":{"related_to":"702","part_or_object":"p","notes":"","placename":"Alexandria, West Dunbartonshire, UK","id":2784,"name":"origin","lat":"55.9924192","lon":"-4.590903","hops":{"incoming":[],"outgoing":[{"transport_id":"5","id":"561","transport_name":"automobile, 50 mpg","transport_description":"high efficiency automobile","transport_unit":"kg km","transport_co2_eq":"0.026400","from_stop_id":"2784","from_stop_lat":"55.9924192","from_stop_lon":"-4.590903","from_stop_placename":"Alexandria, West Dunbartonshire, UK","to_stop_id":"65","to_stop_name":"origin","to_stop_lat":"57.3228575","to_stop_lon":"-4.4243817","to_stop_placename":"Loch Ness, Highland, UK","to_stop":{"id":"65","name":"origin","lat":"57.3228575","lon":"-4.4243817","placename":"Loch Ness, Highland, UK"},"from_stop":{"name":"origin","id":"2784","lat":"55.9924192","lon":"-4.590903","placename":"Alexandria, West Dunbartonshire, UK"}}]}}},"processes":[],"eols":[]},{"oid":"271","imid":"703","linkid":"","weight":"10","rawemissions":"0","emissions":"0","shipping":"6660.12","processemissions":null,"endoflifeemissions":null,"disposaltype":null,"disposalenergy":null,"disposalimpact":null,"disposalemissions":null,"description":"","name":"Guests","id":"703","stops":{"origin":{"related_to":"703","part_or_object":"p","notes":"","placename":"Alford, FL, USA","id":2785,"name":"origin","lat":"30.696998","lon":"-85.391845","hops":{"incoming":[],"outgoing":[{"transport_id":"14","id":"562","transport_name":"air, passenger, intercontinental","transport_description":"intercontinental, kg km from person-km","transport_unit":"kg km","transport_co2_eq":"1.189000","from_stop_id":"2785","from_stop_lat":"30.696998","from_stop_lon":"-85.391845","from_stop_placename":"Alford, FL, USA","to_stop_id":"65","to_stop_name":"origin","to_stop_lat":"57.3228575","to_stop_lon":"-4.4243817","to_stop_placename":"Loch Ness, Highland, UK","to_stop":{"id":"65","name":"origin","lat":"57.3228575","lon":"-4.4243817","placename":"Loch Ness, Highland, UK"},"from_stop":{"name":"origin","id":"2785","lat":"30.696998","lon":"-85.391845","placename":"Alford, FL, USA"}}]}}},"processes":[],"eols":[]},{"oid":"271","imid":"704","linkid":"","weight":"9","rawemissions":"0","emissions":"0","shipping":"139.7","processemissions":null,"endoflifeemissions":null,"disposaltype":null,"disposalenergy":null,"disposalimpact":null,"disposalemissions":null,"description":"","name":"Guests","id":"704","stops":{"origin":{"related_to":"704","part_or_object":"p","notes":"","placename":"Alloa, Clackmannanshire, UK","id":2786,"name":"origin","lat":"56.1162884","lon":"-3.7953659","hops":{"incoming":[],"outgoing":[{"transport_id":"5","id":"563","transport_name":"automobile, 50 mpg","transport_description":"high efficiency automobile","transport_unit":"kg km","transport_co2_eq":"0.026400","from_stop_id":"2786","from_stop_lat":"56.1162884","from_stop_lon":"-3.7953659","from_stop_placename":"Alloa, Clackmannanshire, UK","to_stop_id":"65","to_stop_name":"origin","to_stop_lat":"57.3228575","to_stop_lon":"-4.4243817","to_stop_placename":"Loch Ness, Highland, UK","to_stop":{"id":"65","name":"origin","lat":"57.3228575","lon":"-4.4243817","placename":"Loch Ness, Highland, UK"},"from_stop":{"name":"origin","id":"2786","lat":"56.1162884","lon":"-3.7953659","placename":"Alloa, Clackmannanshire, UK"}}]}}},"processes":[],"eols":[]},{"oid":"271","imid":"705","linkid":"","weight":"4","rawemissions":"0","emissions":"0","shipping":"42.4","processemissions":null,"endoflifeemissions":null,"disposaltype":null,"disposalenergy":null,"disposalimpact":null,"disposalemissions":null,"description":"","name":"Guests","id":"705","stops":{"origin":{"related_to":"705","part_or_object":"p","notes":"","placename":"Alness, Highland, UK","id":2787,"name":"origin","lat":"57.6943096","lon":"-4.2674131","hops":{"incoming":[],"outgoing":[{"transport_id":"5","id":"564","transport_name":"automobile, 50 mpg","transport_description":"high efficiency automobile","transport_unit":"kg km","transport_co2_eq":"0.026400","from_stop_id":"2787","from_stop_lat":"57.6943096","from_stop_lon":"-4.2674131","from_stop_placename":"Alness, Highland, UK","to_stop_id":"65","to_stop_name":"origin","to_stop_lat":"57.3228575","to_stop_lon":"-4.4243817","to_stop_placename":"Loch Ness, Highland, UK","to_stop":{"id":"65","name":"origin","lat":"57.3228575","lon":"-4.4243817","placename":"Loch Ness, Highland, UK"},"from_stop":{"name":"origin","id":"2787","lat":"57.6943096","lon":"-4.2674131","placename":"Alness, Highland, UK"}}]}}},"processes":[],"eols":[]},{"oid":"271","imid":"706","linkid":"","weight":"1","rawemissions":"0","emissions":"0","shipping":"270.6","processemissions":null,"endoflifeemissions":null,"disposaltype":null,"disposalenergy":null,"disposalimpact":null,"disposalemissions":null,"description":"","name":"Guests","id":"706","stops":{"origin":{"related_to":"706","part_or_object":"p","notes":"","placename":"Alnwick, Northumberland, UK","id":2788,"name":"origin","lat":"55.4125978","lon":"-1.7089562","hops":{"incoming":[],"outgoing":[{"transport_id":"5","id":"565","transport_name":"automobile, 50 mpg","transport_description":"high efficiency automobile","transport_unit":"kg km","transport_co2_eq":"0.026400","from_stop_id":"2788","from_stop_lat":"55.4125978","from_stop_lon":"-1.7089562","from_stop_placename":"Alnwick, Northumberland, UK","to_stop_id":"65","to_stop_name":"origin","to_stop_lat":"57.3228575","to_stop_lon":"-4.4243817","to_stop_placename":"Loch Ness, Highland, UK","to_stop":{"id":"65","name":"origin","lat":"57.3228575","lon":"-4.4243817","placename":"Loch Ness, Highland, UK"},"from_stop":{"name":"origin","id":"2788","lat":"55.4125978","lon":"-1.7089562","placename":"Alnwick, Northumberland, UK"}}]}}},"processes":[],"eols":[]},{"oid":"271","imid":"707","linkid":"","weight":"4","rawemissions":"0","emissions":"0","shipping":"725.33","processemissions":null,"endoflifeemissions":null,"disposaltype":null,"disposalenergy":null,"disposalimpact":null,"disposalemissions":null,"description":"","name":"Guests","id":"707","stops":{"origin":{"related_to":"707","part_or_object":"p","notes":"","placename":"Alresford, Hampshire SO24 9, UK","id":2789,"name":"origin","lat":"51.090113","lon":"-1.165786","hops":{"incoming":[],"outgoing":[{"transport_id":"5","id":"566","transport_name":"automobile, 50 mpg","transport_description":"high efficiency automobile","transport_unit":"kg km","transport_co2_eq":"0.026400","from_stop_id":"2789","from_stop_lat":"51.090113","from_stop_lon":"-1.165786","from_stop_placename":"Alresford, Hampshire SO24 9, UK","to_stop_id":"65","to_stop_name":"origin","to_stop_lat":"57.3228575","to_stop_lon":"-4.4243817","to_stop_placename":"Loch Ness, Highland, UK","to_stop":{"id":"65","name":"origin","lat":"57.3228575","lon":"-4.4243817","placename":"Loch Ness, Highland, UK"},"from_stop":{"name":"origin","id":"2789","lat":"51.090113","lon":"-1.165786","placename":"Alresford, Hampshire SO24 9, UK"}}]}}},"processes":[],"eols":[]},{"oid":"271","imid":"708","linkid":"","weight":"2","rawemissions":"0","emissions":"0","shipping":"6367.14","processemissions":null,"endoflifeemissions":null,"disposaltype":null,"disposalenergy":null,"disposalimpact":null,"disposalemissions":null,"description":"","name":"Guests","id":"708","stops":{"origin":{"related_to":"708","part_or_object":"p","notes":"","placename":"Alston, GA 30473, USA","id":2790,"name":"origin","lat":"32.080755","lon":"-82.477188","hops":{"incoming":[],"outgoing":[{"transport_id":"14","id":"567","transport_name":"air, passenger, intercontinental","transport_description":"intercontinental, kg km from person-km","transport_unit":"kg km","transport_co2_eq":"1.189000","from_stop_id":"2790","from_stop_lat":"32.080755","from_stop_lon":"-82.477188","from_stop_placename":"Alston, GA 30473, USA","to_stop_id":"65","to_stop_name":"origin","to_stop_lat":"57.3228575","to_stop_lon":"-4.4243817","to_stop_placename":"Loch Ness, Highland, UK","to_stop":{"id":"65","name":"origin","lat":"57.3228575","lon":"-4.4243817","placename":"Loch Ness, Highland, UK"},"from_stop":{"name":"origin","id":"2790","lat":"32.080755","lon":"-82.477188","placename":"Alston, GA 30473, USA"}}]}}},"processes":[],"eols":[]},{"oid":"271","imid":"709","linkid":"","weight":"5","rawemissions":"0","emissions":"0","shipping":"139.7","processemissions":null,"endoflifeemissions":null,"disposaltype":null,"disposalenergy":null,"disposalimpact":null,"disposalemissions":null,"description":"","name":"Guests","id":"709","stops":{"origin":{"related_to":"709","part_or_object":"p","notes":"","placename":"Alloa, Clackmannanshire, UK","id":2791,"name":"origin","lat":"56.1162884","lon":"-3.7953659","hops":{"incoming":[],"outgoing":[{"transport_id":"5","id":"568","transport_name":"automobile, 50 mpg","transport_description":"high efficiency automobile","transport_unit":"kg km","transport_co2_eq":"0.026400","from_stop_id":"2791","from_stop_lat":"56.1162884","from_stop_lon":"-3.7953659","from_stop_placename":"Alloa, Clackmannanshire, UK","to_stop_id":"65","to_stop_name":"origin","to_stop_lat":"57.3228575","to_stop_lon":"-4.4243817","to_stop_placename":"Loch Ness, Highland, UK","to_stop":{"id":"65","name":"origin","lat":"57.3228575","lon":"-4.4243817","placename":"Loch Ness, Highland, UK"},"from_stop":{"name":"origin","id":"2791","lat":"56.1162884","lon":"-3.7953659","placename":"Alloa, Clackmannanshire, UK"}}]}}},"processes":[],"eols":[]},{"oid":"271","imid":"710","linkid":"","weight":"2","rawemissions":"0","emissions":"0","shipping":"891.91","processemissions":null,"endoflifeemissions":null,"disposaltype":null,"disposalenergy":null,"disposalimpact":null,"disposalemissions":null,"description":"","name":"Guests","id":"710","stops":{"origin":{"related_to":"710","part_or_object":"p","notes":"","placename":"Zutphen, The Netherlands","id":2792,"name":"origin","lat":"52.141405","lon":"6.1953058","hops":{"incoming":[],"outgoing":[{"transport_id":"14","id":"569","transport_name":"air, passenger, intercontinental","transport_description":"intercontinental, kg km from person-km","transport_unit":"kg km","transport_co2_eq":"1.189000","from_stop_id":"2792","from_stop_lat":"52.141405","from_stop_lon":"6.1953058","from_stop_placename":"Zutphen, The Netherlands","to_stop_id":"65","to_stop_name":"origin","to_stop_lat":"57.3228575","to_stop_lon":"-4.4243817","to_stop_placename":"Loch Ness, Highland, UK","to_stop":{"id":"65","name":"origin","lat":"57.3228575","lon":"-4.4243817","placename":"Loch Ness, Highland, UK"},"from_stop":{"name":"origin","id":"2792","lat":"52.141405","lon":"6.1953058","placename":"Zutphen, The Netherlands"}}]}}},"processes":[],"eols":[]},{"oid":"271","imid":"711","linkid":"","weight":"3","rawemissions":"0","emissions":"0","shipping":"1411.01","processemissions":null,"endoflifeemissions":null,"disposaltype":null,"disposalenergy":null,"disposalimpact":null,"disposalemissions":null,"description":"","name":"Guests","id":"711","stops":{"origin":{"related_to":"711","part_or_object":"p","notes":"","placename":"Zurich, Switzerland","id":2793,"name":"origin","lat":"47.3690239","lon":"8.5380326","hops":{"incoming":[],"outgoing":[{"transport_id":"14","id":"570","transport_name":"air, passenger, intercontinental","transport_description":"intercontinental, kg km from person-km","transport_unit":"kg km","transport_co2_eq":"1.189000","from_stop_id":"2793","from_stop_lat":"47.3690239","from_stop_lon":"8.5380326","from_stop_placename":"Zurich, Switzerland","to_stop_id":"65","to_stop_name":"origin","to_stop_lat":"57.3228575","to_stop_lon":"-4.4243817","to_stop_placename":"Loch Ness, Highland, UK","to_stop":{"id":"65","name":"origin","lat":"57.3228575","lon":"-4.4243817","placename":"Loch Ness, Highland, UK"},"from_stop":{"name":"origin","id":"2793","lat":"47.3690239","lon":"8.5380326","placename":"Zurich, Switzerland"}}]}}},"processes":[],"eols":[]},{"oid":"271","imid":"712","linkid":"","weight":"2","rawemissions":"0","emissions":"0","shipping":"851","processemissions":null,"endoflifeemissions":null,"disposaltype":null,"disposalenergy":null,"disposalimpact":null,"disposalemissions":null,"description":"","name":"Guests","id":"712","stops":{"origin":{"related_to":"712","part_or_object":"p","notes":"","placename":"Zeist, The Netherlands","id":2794,"name":"origin","lat":"52.0819874","lon":"5.2386719","hops":{"incoming":[],"outgoing":[{"transport_id":"14","id":"571","transport_name":"air, passenger, intercontinental","transport_description":"intercontinental, kg km from person-km","transport_unit":"kg km","transport_co2_eq":"1.189000","from_stop_id":"2794","from_stop_lat":"52.0819874","from_stop_lon":"5.2386719","from_stop_placename":"Zeist, The Netherlands","to_stop_id":"65","to_stop_name":"origin","to_stop_lat":"57.3228575","to_stop_lon":"-4.4243817","to_stop_placename":"Loch Ness, Highland, UK","to_stop":{"id":"65","name":"origin","lat":"57.3228575","lon":"-4.4243817","placename":"Loch Ness, Highland, UK"},"from_stop":{"name":"origin","id":"2794","lat":"52.0819874","lon":"5.2386719","placename":"Zeist, The Netherlands"}}]}}},"processes":[],"eols":[]},{"oid":"271","imid":"713","linkid":"","weight":"2","rawemissions":"0","emissions":"0","shipping":"1892.76","processemissions":null,"endoflifeemissions":null,"disposaltype":null,"disposalenergy":null,"disposalimpact":null,"disposalemissions":null,"description":"","name":"Guests","id":"713","stops":{"origin":{"related_to":"713","part_or_object":"p","notes":"","placename":"City of Zagreb, Croatia","id":2795,"name":"origin","lat":"45.8150053","lon":"15.9785014","hops":{"incoming":[],"outgoing":[{"transport_id":"14","id":"572","transport_name":"air, passenger, intercontinental","transport_description":"intercontinental, kg km from person-km","transport_unit":"kg km","transport_co2_eq":"1.189000","from_stop_id":"2795","from_stop_lat":"45.8150053","from_stop_lon":"15.9785014","from_stop_placename":"City of Zagreb, Croatia","to_stop_id":"65","to_stop_name":"origin","to_stop_lat":"57.3228575","to_stop_lon":"-4.4243817","to_stop_placename":"Loch Ness, Highland, UK","to_stop":{"id":"65","name":"origin","lat":"57.3228575","lon":"-4.4243817","placename":"Loch Ness, Highland, UK"},"from_stop":{"name":"origin","id":"2795","lat":"45.8150053","lon":"15.9785014","placename":"City of Zagreb, Croatia"}}]}}},"processes":[],"eols":[]},{"oid":"271","imid":"714","linkid":"","weight":"29","rawemissions":"0","emissions":"0","shipping":"429.32","processemissions":null,"endoflifeemissions":null,"disposaltype":null,"disposalenergy":null,"disposalimpact":null,"disposalemissions":null,"description":"","name":"Guests","id":"714","stops":{"origin":{"related_to":"714","part_or_object":"p","notes":"","placename":"York, UK","id":2796,"name":"origin","lat":"53.9577018","lon":"-1.0822855","hops":{"incoming":[],"outgoing":[{"transport_id":"5","id":"573","transport_name":"automobile, 50 mpg","transport_description":"high efficiency automobile","transport_unit":"kg km","transport_co2_eq":"0.026400","from_stop_id":"2796","from_stop_lat":"53.9577018","from_stop_lon":"-1.0822855","from_stop_placename":"York, UK","to_stop_id":"65","to_stop_name":"origin","to_stop_lat":"57.3228575","to_stop_lon":"-4.4243817","to_stop_placename":"Loch Ness, Highland, UK","to_stop":{"id":"65","name":"origin","lat":"57.3228575","lon":"-4.4243817","placename":"Loch Ness, Highland, UK"},"from_stop":{"name":"origin","id":"2796","lat":"53.9577018","lon":"-1.0822855","placename":"York, UK"}}]}}},"processes":[],"eols":[]},{"oid":"271","imid":"715","linkid":"","weight":"2","rawemissions":"0","emissions":"0","shipping":"135.12","processemissions":null,"endoflifeemissions":null,"disposaltype":null,"disposalenergy":null,"disposalimpact":null,"disposalemissions":null,"description":"","name":"Guests","id":"715","stops":{"origin":{"related_to":"715","part_or_object":"p","notes":"","placename":"Yetts of Muckhart, Clackmannanshire, UK","id":2797,"name":"origin","lat":"56.1951189","lon":"-3.6051563","hops":{"incoming":[],"outgoing":[{"transport_id":"5","id":"574","transport_name":"automobile, 50 mpg","transport_description":"high efficiency automobile","transport_unit":"kg km","transport_co2_eq":"0.026400","from_stop_id":"2797","from_stop_lat":"56.1951189","from_stop_lon":"-3.6051563","from_stop_placename":"Yetts of Muckhart, Clackmannanshire, UK","to_stop_id":"65","to_stop_name":"origin","to_stop_lat":"57.3228575","to_stop_lon":"-4.4243817","to_stop_placename":"Loch Ness, Highland, UK","to_stop":{"id":"65","name":"origin","lat":"57.3228575","lon":"-4.4243817","placename":"Loch Ness, Highland, UK"},"from_stop":{"name":"origin","id":"2797","lat":"56.1951189","lon":"-3.6051563","placename":"Yetts of Muckhart, Clackmannanshire, UK"}}]}}},"processes":[],"eols":[]},{"oid":"271","imid":"716","linkid":"","weight":"3","rawemissions":"0","emissions":"0","shipping":"731.53","processemissions":null,"endoflifeemissions":null,"disposaltype":null,"disposalenergy":null,"disposalimpact":null,"disposalemissions":null,"description":"","name":"Guests","id":"716","stops":{"origin":{"related_to":"716","part_or_object":"p","notes":"","placename":"Meopham, Kent, UK","id":2798,"name":"origin","lat":"51.3683488","lon":"0.3604929","hops":{"incoming":[],"outgoing":[{"transport_id":"5","id":"575","transport_name":"automobile, 50 mpg","transport_description":"high efficiency automobile","transport_unit":"kg km","transport_co2_eq":"0.026400","from_stop_id":"2798","from_stop_lat":"51.3683488","from_stop_lon":"0.3604929","from_stop_placename":"Meopham, Kent, UK","to_stop_id":"65","to_stop_name":"origin","to_stop_lat":"57.3228575","to_stop_lon":"-4.4243817","to_stop_placename":"Loch Ness, Highland, UK","to_stop":{"id":"65","name":"origin","lat":"57.3228575","lon":"-4.4243817","placename":"Loch Ness, Highland, UK"},"from_stop":{"name":"origin","id":"2798","lat":"51.3683488","lon":"0.3604929","placename":"Meopham, Kent, UK"}}]}}},"processes":[],"eols":[]},{"oid":"271","imid":"717","linkid":"","weight":"6","rawemissions":"0","emissions":"0","shipping":"484.6","processemissions":null,"endoflifeemissions":null,"disposaltype":null,"disposalenergy":null,"disposalimpact":null,"disposalemissions":null,"description":"","name":"Guests","id":"717","stops":{"origin":{"related_to":"717","part_or_object":"p","notes":"","placename":"Wrexham, UK","id":2799,"name":"origin","lat":"53.0469077","lon":"-2.9916733","hops":{"incoming":[],"outgoing":[{"transport_id":"5","id":"576","transport_name":"automobile, 50 mpg","transport_description":"high efficiency automobile","transport_unit":"kg km","transport_co2_eq":"0.026400","from_stop_id":"2799","from_stop_lat":"53.0469077","from_stop_lon":"-2.9916733","from_stop_placename":"Wrexham, UK","to_stop_id":"65","to_stop_name":"origin","to_stop_lat":"57.3228575","to_stop_lon":"-4.4243817","to_stop_placename":"Loch Ness, Highland, UK","to_stop":{"id":"65","name":"origin","lat":"57.3228575","lon":"-4.4243817","placename":"Loch Ness, Highland, UK"},"from_stop":{"name":"origin","id":"2799","lat":"53.0469077","lon":"-2.9916733","placename":"Wrexham, UK"}}]}}},"processes":[],"eols":[]},{"oid":"271","imid":"718","linkid":"","weight":"2","rawemissions":"0","emissions":"0","shipping":"646.68","processemissions":null,"endoflifeemissions":null,"disposaltype":null,"disposalenergy":null,"disposalimpact":null,"disposalemissions":null,"description":"","name":"Guests","id":"718","stops":{"origin":{"related_to":"718","part_or_object":"p","notes":"","placename":"Wotton-under-Edge, Gloucestershire, UK","id":2800,"name":"origin","lat":"51.639486","lon":"-2.3483803","hops":{"incoming":[],"outgoing":[{"transport_id":"13","id":"577","transport_name":"air, passenger, regional","transport_description":"within one continent, kg km from person-km","transport_unit":"kg km","transport_co2_eq":"2.262000","from_stop_id":"2800","from_stop_lat":"51.639486","from_stop_lon":"-2.3483803","from_stop_placename":"Wotton-under-Edge, Gloucestershire, UK","to_stop_id":"65","to_stop_name":"origin","to_stop_lat":"57.3228575","to_stop_lon":"-4.4243817","to_stop_placename":"Loch Ness, Highland, UK","to_stop":{"id":"65","name":"origin","lat":"57.3228575","lon":"-4.4243817","placename":"Loch Ness, Highland, UK"},"from_stop":{"name":"origin","id":"2800","lat":"51.639486","lon":"-2.3483803","placename":"Wotton-under-Edge, Gloucestershire, UK"}}]}}},"processes":[],"eols":[]},{"oid":"271","imid":"719","linkid":"","weight":"2","rawemissions":"0","emissions":"0","shipping":"686.27","processemissions":null,"endoflifeemissions":null,"disposaltype":null,"disposalenergy":null,"disposalimpact":null,"disposalemissions":null,"description":"","name":"Guests","id":"719","stops":{"origin":{"related_to":"719","part_or_object":"p","notes":"","placename":"Worton, Wiltshire, UK","id":2801,"name":"origin","lat":"51.3169508","lon":"-2.032109","hops":{"incoming":[],"outgoing":[{"transport_id":"13","id":"578","transport_name":"air, passenger, regional","transport_description":"within one continent, kg km from person-km","transport_unit":"kg km","transport_co2_eq":"2.262000","from_stop_id":"2801","from_stop_lat":"51.3169508","from_stop_lon":"-2.032109","from_stop_placename":"Worton, Wiltshire, UK","to_stop_id":"65","to_stop_name":"origin","to_stop_lat":"57.3228575","to_stop_lon":"-4.4243817","to_stop_placename":"Loch Ness, Highland, UK","to_stop":{"id":"65","name":"origin","lat":"57.3228575","lon":"-4.4243817","placename":"Loch Ness, Highland, UK"},"from_stop":{"name":"origin","id":"2801","lat":"51.3169508","lon":"-2.032109","placename":"Worton, Wiltshire, UK"}}]}}},"processes":[],"eols":[]},{"oid":"271","imid":"720","linkid":"","weight":"8","rawemissions":"0","emissions":"0","shipping":"771","processemissions":null,"endoflifeemissions":null,"disposaltype":null,"disposalenergy":null,"disposalimpact":null,"disposalemissions":null,"description":"","name":"Guests","id":"720","stops":{"origin":{"related_to":"720","part_or_object":"p","notes":"","placename":"Worthing, West Sussex, UK","id":2802,"name":"origin","lat":"50.8147114","lon":"-0.3713868","hops":{"incoming":[],"outgoing":[{"transport_id":"13","id":"579","transport_name":"air, passenger, regional","transport_description":"within one continent, kg km from person-km","transport_unit":"kg km","transport_co2_eq":"2.262000","from_stop_id":"2802","from_stop_lat":"50.8147114","from_stop_lon":"-0.3713868","from_stop_placename":"Worthing, West Sussex, UK","to_stop_id":"65","to_stop_name":"origin","to_stop_lat":"57.3228575","to_stop_lon":"-4.4243817","to_stop_placename":"Loch Ness, Highland, UK","to_stop":{"id":"65","name":"origin","lat":"57.3228575","lon":"-4.4243817","placename":"Loch Ness, Highland, UK"},"from_stop":{"name":"origin","id":"2802","lat":"50.8147114","lon":"-0.3713868","placename":"Worthing, West Sussex, UK"}}]}}},"processes":[],"eols":[]},{"oid":"271","imid":"721","linkid":"","weight":"3","rawemissions":"0","emissions":"0","shipping":"517.17","processemissions":null,"endoflifeemissions":null,"disposaltype":null,"disposalenergy":null,"disposalimpact":null,"disposalemissions":null,"description":"","name":"Guests","id":"721","stops":{"origin":{"related_to":"721","part_or_object":"p","notes":"","placename":"Wolsey Way, Lincoln LN2 4, UK","id":2803,"name":"origin","lat":"53.245375","lon":"-0.508149","hops":{"incoming":[],"outgoing":[{"transport_id":"13","id":"580","transport_name":"air, passenger, regional","transport_description":"within one continent, kg km from person-km","transport_unit":"kg km","transport_co2_eq":"2.262000","from_stop_id":"2803","from_stop_lat":"53.245375","from_stop_lon":"-0.508149","from_stop_placename":"Wolsey Way, Lincoln LN2 4, UK","to_stop_id":"65","to_stop_name":"origin","to_stop_lat":"57.3228575","to_stop_lon":"-4.4243817","to_stop_placename":"Loch Ness, Highland, UK","to_stop":{"id":"65","name":"origin","lat":"57.3228575","lon":"-4.4243817","placename":"Loch Ness, Highland, UK"},"from_stop":{"name":"origin","id":"2803","lat":"53.245375","lon":"-0.508149","placename":"Wolsey Way, Lincoln LN2 4, UK"}}]}}},"processes":[],"eols":[]},{"oid":"271","imid":"722","linkid":"","weight":"2","rawemissions":"0","emissions":"0","shipping":"461.67","processemissions":null,"endoflifeemissions":null,"disposaltype":null,"disposalenergy":null,"disposalimpact":null,"disposalemissions":null,"description":"","name":"Guests","id":"722","stops":{"origin":{"related_to":"722","part_or_object":"p","notes":"","placename":"Worsbrough, Barnsley S70 4, UK","id":2804,"name":"origin","lat":"53.5315291","lon":"-1.4581004","hops":{"incoming":[],"outgoing":[{"transport_id":"5","id":"581","transport_name":"automobile, 50 mpg","transport_description":"high efficiency automobile","transport_unit":"kg km","transport_co2_eq":"0.026400","from_stop_id":"2804","from_stop_lat":"53.5315291","from_stop_lon":"-1.4581004","from_stop_placename":"Worsbrough, Barnsley S70 4, UK","to_stop_id":"65","to_stop_name":"origin","to_stop_lat":"57.3228575","to_stop_lon":"-4.4243817","to_stop_placename":"Loch Ness, Highland, UK","to_stop":{"id":"65","name":"origin","lat":"57.3228575","lon":"-4.4243817","placename":"Loch Ness, Highland, UK"},"from_stop":{"name":"origin","id":"2804","lat":"53.5315291","lon":"-1.4581004","placename":"Worsbrough, Barnsley S70 4, UK"}}]}}},"processes":[],"eols":[]},{"oid":"271","imid":"723","linkid":"","weight":"2","rawemissions":"0","emissions":"0","shipping":"492.85","processemissions":null,"endoflifeemissions":null,"disposaltype":null,"disposalenergy":null,"disposalimpact":null,"disposalemissions":null,"description":"","name":"Guests","id":"723","stops":{"origin":{"related_to":"723","part_or_object":"p","notes":"","placename":"Worksop, Nottinghamshire, UK","id":2805,"name":"origin","lat":"53.3129116","lon":"-1.121011","hops":{"incoming":[],"outgoing":[{"transport_id":"5","id":"582","transport_name":"automobile, 50 mpg","transport_description":"high efficiency automobile","transport_unit":"kg km","transport_co2_eq":"0.026400","from_stop_id":"2805","from_stop_lat":"53.3129116","from_stop_lon":"-1.121011","from_stop_placename":"Worksop, Nottinghamshire, UK","to_stop_id":"65","to_stop_name":"origin","to_stop_lat":"57.3228575","to_stop_lon":"-4.4243817","to_stop_placename":"Loch Ness, Highland, UK","to_stop":{"id":"65","name":"origin","lat":"57.3228575","lon":"-4.4243817","placename":"Loch Ness, Highland, UK"},"from_stop":{"name":"origin","id":"2805","lat":"53.3129116","lon":"-1.121011","placename":"Worksop, Nottinghamshire, UK"}}]}}},"processes":[],"eols":[]},{"oid":"271","imid":"724","linkid":"","weight":"2","rawemissions":"0","emissions":"0","shipping":"476.11","processemissions":null,"endoflifeemissions":null,"disposaltype":null,"disposalenergy":null,"disposalimpact":null,"disposalemissions":null,"description":"","name":"Guests","id":"724","stops":{"origin":{"related_to":"724","part_or_object":"p","notes":"","placename":"Moorfields, Norton, Sheffield S3 8, UK","id":2806,"name":"origin","lat":"53.3874174","lon":"-1.4741627","hops":{"incoming":[],"outgoing":[{"transport_id":"5","id":"583","transport_name":"automobile, 50 mpg","transport_description":"high efficiency automobile","transport_unit":"kg km","transport_co2_eq":"0.026400","from_stop_id":"2806","from_stop_lat":"53.3874174","from_stop_lon":"-1.4741627","from_stop_placename":"Moorfields, Norton, Sheffield S3 8, UK","to_stop_id":"65","to_stop_name":"origin","to_stop_lat":"57.3228575","to_stop_lon":"-4.4243817","to_stop_placename":"Loch Ness, Highland, UK","to_stop":{"id":"65","name":"origin","lat":"57.3228575","lon":"-4.4243817","placename":"Loch Ness, Highland, UK"},"from_stop":{"name":"origin","id":"2806","lat":"53.3874174","lon":"-1.4741627","placename":"Moorfields, Norton, Sheffield S3 8, UK"}}]}}},"processes":[],"eols":[]},{"oid":"271","imid":"725","linkid":"","weight":"19","rawemissions":"0","emissions":"0","shipping":"588.32","processemissions":null,"endoflifeemissions":null,"disposaltype":null,"disposalenergy":null,"disposalimpact":null,"disposalemissions":null,"description":"","name":"Guests","id":"725","stops":{"origin":{"related_to":"725","part_or_object":"p","notes":"","placename":"Worcester, UK","id":2807,"name":"origin","lat":"52.1920347","lon":"-2.223532","hops":{"incoming":[],"outgoing":[{"transport_id":"13","id":"584","transport_name":"air, passenger, regional","transport_description":"within one continent, kg km from person-km","transport_unit":"kg km","transport_co2_eq":"2.262000","from_stop_id":"2807","from_stop_lat":"52.1920347","from_stop_lon":"-2.223532","from_stop_placename":"Worcester, UK","to_stop_id":"65","to_stop_name":"origin","to_stop_lat":"57.3228575","to_stop_lon":"-4.4243817","to_stop_placename":"Loch Ness, Highland, UK","to_stop":{"id":"65","name":"origin","lat":"57.3228575","lon":"-4.4243817","placename":"Loch Ness, Highland, UK"},"from_stop":{"name":"origin","id":"2807","lat":"52.1920347","lon":"-2.223532","placename":"Worcester, UK"}}]}}},"processes":[],"eols":[]},{"oid":"271","imid":"726","linkid":"","weight":"7","rawemissions":"0","emissions":"0","shipping":"404.85","processemissions":null,"endoflifeemissions":null,"disposaltype":null,"disposalenergy":null,"disposalimpact":null,"disposalemissions":null,"description":"","name":"Guests","id":"726","stops":{"origin":{"related_to":"726","part_or_object":"p","notes":"","placename":"Woodplumpton, Lancashire, UK","id":2808,"name":"origin","lat":"53.8099208","lon":"-2.7578744","hops":{"incoming":[],"outgoing":[{"transport_id":"13","id":"585","transport_name":"air, passenger, regional","transport_description":"within one continent, kg km from person-km","transport_unit":"kg km","transport_co2_eq":"2.262000","from_stop_id":"2808","from_stop_lat":"53.8099208","from_stop_lon":"-2.7578744","from_stop_placename":"Woodplumpton, Lancashire, UK","to_stop_id":"65","to_stop_name":"origin","to_stop_lat":"57.3228575","to_stop_lon":"-4.4243817","to_stop_placename":"Loch Ness, Highland, UK","to_stop":{"id":"65","name":"origin","lat":"57.3228575","lon":"-4.4243817","placename":"Loch Ness, Highland, UK"},"from_stop":{"name":"origin","id":"2808","lat":"53.8099208","lon":"-2.7578744","placename":"Woodplumpton, Lancashire, UK"}}]}}},"processes":[],"eols":[]}],"user":{"name":"cazgreg","id":"6008"}}}