{"275":{"oid":"275","type":"travel","flag":"","creator":"11951","name":"ESKTN1","upc":"","imagelink":"","description":"Whole Team Meeting of the Environmental Sustainability Knowledge Transfer Network, at Birmingham University","slug":"ESKTN1","category":"","weight":"0","emissions":"0","embodied":"0","transport":"0","process":null,"endoflife":null,"shipping":"1724.29","lifetime":null,"usagetype":"","usageenergy":null,"usageemissions":null,"timecreated":"2011-01-10 05:28:50","timemodified":"2011-01-10 05:47:00","visibility":"public","showfootprint":"on","showembodied":"on","showtransport":"on","showprocess":"on","showendoflife":"on","showlastleg":"on","showuse":"on","showstats":"on","stops":{"origin":{"related_to":"275","part_or_object":"o","notes":null,"placename":"Birmingham, West Midlands, UK","id":"9450","category":"1","lat":"52.4829614","lon":"-1.893592","name":"origin","hops":{"incoming":[{"transport_id":null,"id":"6664","transport_name":null,"transport_description":null,"transport_unit":null,"transport_co2_eq":null,"from_stop_id":"9451","from_stop_lat":"53.1914576","from_stop_lon":"-2.8950072","to_stop_id":"9450","to_stop_name":"origin","to_stop_lat":"52.4829614","placename":"Chester, Cheshire West and Chester, UK","to_stop_lon":"-1.893592","to_stop":{"id":"9450","name":"origin","lat":"52.4829614","placename":"Birmingham, West Midlands, UK","lon":"-1.893592"},"from_stop":{"name":"origin","id":"9451","lat":"53.1914576","lon":"-2.8950072","placename":"Chester, Cheshire West and Chester, UK"}},{"transport_id":"19","id":"6665","transport_name":"Rail","transport_description":"from the Greenhouse Gas Protocol Initiative - GHG emission from transport or mobile sources calculator 2.0 (jun 2009)","transport_unit":"kg km","transport_co2_eq":"0.000017","from_stop_id":"9452","from_stop_lat":"53.1914576","from_stop_lon":"-2.8950072","to_stop_id":"9450","to_stop_name":"origin","to_stop_lat":"52.4829614","placename":"Chester, Cheshire West and Chester, UK","to_stop_lon":"-1.893592","to_stop":{"id":"9450","name":"origin","lat":"52.4829614","placename":"Birmingham, West Midlands, UK","lon":"-1.893592"},"from_stop":{"name":"origin","id":"9452","lat":"53.1914576","lon":"-2.8950072","placename":"Chester, Cheshire West and Chester, UK"}},{"transport_id":"20","id":"6666","transport_name":"Road","transport_description":"from the Greenhouse Gas Protocol Initiative - GHG emission from transport or mobile sources calculator 2.0 (jun 2009)","transport_unit":"kg km","transport_co2_eq":"0.000204","from_stop_id":"9453","from_stop_lat":"53.1914576","from_stop_lon":"-2.8950072","to_stop_id":"9450","to_stop_name":"origin","to_stop_lat":"52.4829614","placename":"Chester, Cheshire West and Chester, UK","to_stop_lon":"-1.893592","to_stop":{"id":"9450","name":"origin","lat":"52.4829614","placename":"Birmingham, West Midlands, UK","lon":"-1.893592"},"from_stop":{"name":"origin","id":"9453","lat":"53.1914576","lon":"-2.8950072","placename":"Chester, Cheshire West and Chester, UK"}},{"transport_id":"19","id":"6667","transport_name":"Rail","transport_description":"from the Greenhouse Gas Protocol Initiative - GHG emission from transport or mobile sources calculator 2.0 (jun 2009)","transport_unit":"kg km","transport_co2_eq":"0.000017","from_stop_id":"9454","from_stop_lat":"53.1914576","from_stop_lon":"-2.8950072","to_stop_id":"9450","to_stop_name":"origin","to_stop_lat":"52.4829614","placename":"Chester, Cheshire West and Chester, UK","to_stop_lon":"-1.893592","to_stop":{"id":"9450","name":"origin","lat":"52.4829614","placename":"Birmingham, West Midlands, UK","lon":"-1.893592"},"from_stop":{"name":"origin","id":"9454","lat":"53.1914576","lon":"-2.8950072","placename":"Chester, Cheshire West and Chester, UK"}},{"transport_id":"19","id":"6668","transport_name":"Rail","transport_description":"from the Greenhouse Gas Protocol Initiative - GHG emission from transport or mobile sources calculator 2.0 (jun 2009)","transport_unit":"kg km","transport_co2_eq":"0.000017","from_stop_id":"9455","from_stop_lat":"53.1914576","from_stop_lon":"-2.8950072","to_stop_id":"9450","to_stop_name":"origin","to_stop_lat":"52.4829614","placename":"Chester, Cheshire West and Chester, UK","to_stop_lon":"-1.893592","to_stop":{"id":"9450","name":"origin","lat":"52.4829614","placename":"Birmingham, West Midlands, UK","lon":"-1.893592"},"from_stop":{"name":"origin","id":"9455","lat":"53.1914576","lon":"-2.8950072","placename":"Chester, Cheshire West and Chester, UK"}},{"transport_id":"20","id":"6669","transport_name":"Road","transport_description":"from the Greenhouse Gas Protocol Initiative - GHG emission from transport or mobile sources calculator 2.0 (jun 2009)","transport_unit":"kg km","transport_co2_eq":"0.000204","from_stop_id":"9456","from_stop_lat":"51.7536642","from_stop_lon":"-0.4749016","to_stop_id":"9450","to_stop_name":"origin","to_stop_lat":"52.4829614","placename":"Hemel Hempstead, Hertfordshire, UK","to_stop_lon":"-1.893592","to_stop":{"id":"9450","name":"origin","lat":"52.4829614","placename":"Birmingham, West Midlands, UK","lon":"-1.893592"},"from_stop":{"name":"origin","id":"9456","lat":"51.7536642","lon":"-0.4749016","placename":"Hemel Hempstead, Hertfordshire, UK"}},{"transport_id":"20","id":"6670","transport_name":"Road","transport_description":"from the Greenhouse Gas Protocol Initiative - GHG emission from transport or mobile sources calculator 2.0 (jun 2009)","transport_unit":"kg km","transport_co2_eq":"0.000204","from_stop_id":"9457","from_stop_lat":"52.4829614","from_stop_lon":"-1.893592","to_stop_id":"9450","to_stop_name":"origin","to_stop_lat":"52.4829614","placename":"Birmingham, West Midlands, UK","to_stop_lon":"-1.893592","to_stop":{"id":"9450","name":"origin","lat":"52.4829614","placename":"Birmingham, West Midlands, UK","lon":"-1.893592"},"from_stop":{"name":"origin","id":"9457","lat":"52.4829614","lon":"-1.893592","placename":"Birmingham, West Midlands, UK"}},{"transport_id":null,"id":"6671","transport_name":null,"transport_description":null,"transport_unit":null,"transport_co2_eq":null,"from_stop_id":"9458","from_stop_lat":"52.0600205","from_stop_lon":"-1.3404488","to_stop_id":"9450","to_stop_name":"origin","to_stop_lat":"52.4829614","placename":"Banbury, Oxfordshire, UK","to_stop_lon":"-1.893592","to_stop":{"id":"9450","name":"origin","lat":"52.4829614","placename":"Birmingham, West Midlands, UK","lon":"-1.893592"},"from_stop":{"name":"origin","id":"9458","lat":"52.0600205","lon":"-1.3404488","placename":"Banbury, Oxfordshire, UK"}},{"transport_id":"19","id":"6672","transport_name":"Rail","transport_description":"from the Greenhouse Gas Protocol Initiative - GHG emission from transport or mobile sources calculator 2.0 (jun 2009)","transport_unit":"kg km","transport_co2_eq":"0.000017","from_stop_id":"9459","from_stop_lat":"53.1914576","from_stop_lon":"-2.8950072","to_stop_id":"9450","to_stop_name":"origin","to_stop_lat":"52.4829614","placename":"Chester, Cheshire West and Chester, UK","to_stop_lon":"-1.893592","to_stop":{"id":"9450","name":"origin","lat":"52.4829614","placename":"Birmingham, West Midlands, UK","lon":"-1.893592"},"from_stop":{"name":"origin","id":"9459","lat":"53.1914576","lon":"-2.8950072","placename":"Chester, Cheshire West and Chester, UK"}},{"transport_id":"20","id":"6673","transport_name":"Road","transport_description":"from the Greenhouse Gas Protocol Initiative - GHG emission from transport or mobile sources calculator 2.0 (jun 2009)","transport_unit":"kg km","transport_co2_eq":"0.000204","from_stop_id":"9460","from_stop_lat":"52.1915699","from_stop_lon":"-1.7069886","to_stop_id":"9450","to_stop_name":"origin","to_stop_lat":"52.4829614","placename":"Stratford-Upon-Avon, Warwickshire, UK","to_stop_lon":"-1.893592","to_stop":{"id":"9450","name":"origin","lat":"52.4829614","placename":"Birmingham, West Midlands, UK","lon":"-1.893592"},"from_stop":{"name":"origin","id":"9460","lat":"52.1915699","lon":"-1.7069886","placename":"Stratford-Upon-Avon, Warwickshire, UK"}},{"transport_id":"19","id":"6674","transport_name":"Rail","transport_description":"from the Greenhouse Gas Protocol Initiative - GHG emission from transport or mobile sources calculator 2.0 (jun 2009)","transport_unit":"kg km","transport_co2_eq":"0.000017","from_stop_id":"9461","from_stop_lat":"53.1914576","from_stop_lon":"-2.8950072","to_stop_id":"9450","to_stop_name":"origin","to_stop_lat":"52.4829614","placename":"Chester, Cheshire West and Chester, UK","to_stop_lon":"-1.893592","to_stop":{"id":"9450","name":"origin","lat":"52.4829614","placename":"Birmingham, West Midlands, UK","lon":"-1.893592"},"from_stop":{"name":"origin","id":"9461","lat":"53.1914576","lon":"-2.8950072","placename":"Chester, Cheshire West and Chester, UK"}},{"transport_id":"19","id":"6675","transport_name":"Rail","transport_description":"from the Greenhouse Gas Protocol Initiative - GHG emission from transport or mobile sources calculator 2.0 (jun 2009)","transport_unit":"kg km","transport_co2_eq":"0.000017","from_stop_id":"9462","from_stop_lat":"51.455041","from_stop_lon":"-0.9690884","to_stop_id":"9450","to_stop_name":"origin","to_stop_lat":"52.4829614","placename":"Reading, UK","to_stop_lon":"-1.893592","to_stop":{"id":"9450","name":"origin","lat":"52.4829614","placename":"Birmingham, West Midlands, UK","lon":"-1.893592"},"from_stop":{"name":"origin","id":"9462","lat":"51.455041","lon":"-0.9690884","placename":"Reading, UK"}},{"transport_id":"20","id":"6676","transport_name":"Road","transport_description":"from the Greenhouse Gas Protocol Initiative - GHG emission from transport or mobile sources calculator 2.0 (jun 2009)","transport_unit":"kg km","transport_co2_eq":"0.000204","from_stop_id":"9463","from_stop_lat":"51.7522792","from_stop_lon":"-1.2558838","to_stop_id":"9450","to_stop_name":"origin","to_stop_lat":"52.4829614","placename":"Oxford, Oxfordshire, UK","to_stop_lon":"-1.893592","to_stop":{"id":"9450","name":"origin","lat":"52.4829614","placename":"Birmingham, West Midlands, UK","lon":"-1.893592"},"from_stop":{"name":"origin","id":"9463","lat":"51.7522792","lon":"-1.2558838","placename":"Oxford, Oxfordshire, UK"}},{"transport_id":"20","id":"6677","transport_name":"Road","transport_description":"from the Greenhouse Gas Protocol Initiative - GHG emission from transport or mobile sources calculator 2.0 (jun 2009)","transport_unit":"kg km","transport_co2_eq":"0.000204","from_stop_id":"9464","from_stop_lat":"51.7522792","from_stop_lon":"-1.2558838","to_stop_id":"9450","to_stop_name":"origin","to_stop_lat":"52.4829614","placename":"Oxford, Oxfordshire, UK","to_stop_lon":"-1.893592","to_stop":{"id":"9450","name":"origin","lat":"52.4829614","placename":"Birmingham, West Midlands, UK","lon":"-1.893592"},"from_stop":{"name":"origin","id":"9464","lat":"51.7522792","lon":"-1.2558838","placename":"Oxford, Oxfordshire, UK"}},{"transport_id":"19","id":"6678","transport_name":"Rail","transport_description":"from the Greenhouse Gas Protocol Initiative - GHG emission from transport or mobile sources calculator 2.0 (jun 2009)","transport_unit":"kg km","transport_co2_eq":"0.000017","from_stop_id":"9465","from_stop_lat":"51.7522792","from_stop_lon":"-1.2558838","to_stop_id":"9450","to_stop_name":"origin","to_stop_lat":"52.4829614","placename":"Oxford, Oxfordshire, UK","to_stop_lon":"-1.893592","to_stop":{"id":"9450","name":"origin","lat":"52.4829614","placename":"Birmingham, West Midlands, UK","lon":"-1.893592"},"from_stop":{"name":"origin","id":"9465","lat":"51.7522792","lon":"-1.2558838","placename":"Oxford, Oxfordshire, UK"}},{"transport_id":"19","id":"6679","transport_name":"Rail","transport_description":"from the Greenhouse Gas Protocol Initiative - GHG emission from transport or mobile sources calculator 2.0 (jun 2009)","transport_unit":"kg km","transport_co2_eq":"0.000017","from_stop_id":"9466","from_stop_lat":"51.7522792","from_stop_lon":"-1.2558838","to_stop_id":"9450","to_stop_name":"origin","to_stop_lat":"52.4829614","placename":"Oxford, Oxfordshire, UK","to_stop_lon":"-1.893592","to_stop":{"id":"9450","name":"origin","lat":"52.4829614","placename":"Birmingham, West Midlands, UK","lon":"-1.893592"},"from_stop":{"name":"origin","id":"9466","lat":"51.7522792","lon":"-1.2558838","placename":"Oxford, Oxfordshire, UK"}},{"transport_id":"19","id":"6680","transport_name":"Rail","transport_description":"from the Greenhouse Gas Protocol Initiative - GHG emission from transport or mobile sources calculator 2.0 (jun 2009)","transport_unit":"kg km","transport_co2_eq":"0.000017","from_stop_id":"9467","from_stop_lat":"51.7522792","from_stop_lon":"-1.2558838","to_stop_id":"9450","to_stop_name":"origin","to_stop_lat":"52.4829614","placename":"Oxford, Oxfordshire, UK","to_stop_lon":"-1.893592","to_stop":{"id":"9450","name":"origin","lat":"52.4829614","placename":"Birmingham, West Midlands, UK","lon":"-1.893592"},"from_stop":{"name":"origin","id":"9467","lat":"51.7522792","lon":"-1.2558838","placename":"Oxford, Oxfordshire, UK"}},{"transport_id":"19","id":"6681","transport_name":"Rail","transport_description":"from the Greenhouse Gas Protocol Initiative - GHG emission from transport or mobile sources calculator 2.0 (jun 2009)","transport_unit":"kg km","transport_co2_eq":"0.000017","from_stop_id":"9468","from_stop_lat":"54.0495863","from_stop_lon":"-2.7984325","to_stop_id":"9450","to_stop_name":"origin","to_stop_lat":"52.4829614","placename":"Lancaster, Lancashire, UK","to_stop_lon":"-1.893592","to_stop":{"id":"9450","name":"origin","lat":"52.4829614","placename":"Birmingham, West Midlands, UK","lon":"-1.893592"},"from_stop":{"name":"origin","id":"9468","lat":"54.0495863","lon":"-2.7984325","placename":"Lancaster, Lancashire, UK"}}],"outgoing":[]}}},"parts":[{"oid":"275","imid":"5553","linkid":"0","weight":"0","rawemissions":"0","emissions":"0","shipping":"103.71","processemissions":"0","endoflifeemissions":"0","disposaltype":null,"disposalenergy":null,"disposalimpact":null,"disposalemissions":null,"description":"","name":"John","id":"5553","stops":{"origin":{"related_to":"5553","part_or_object":"p","notes":null,"placename":"Chester, Cheshire West and Chester, UK","id":9451,"name":"origin","lat":"53.1914576","lon":"-2.8950072","hops":{"incoming":[],"outgoing":[{"transport_id":null,"id":"6664","transport_name":null,"transport_description":null,"transport_unit":null,"transport_co2_eq":null,"from_stop_id":"9451","from_stop_lat":"53.1914576","from_stop_lon":"-2.8950072","from_stop_placename":"Chester, Cheshire West and Chester, UK","to_stop_id":"9450","to_stop_name":"origin","to_stop_lat":"52.4829614","to_stop_lon":"-1.893592","to_stop_placename":"Birmingham, West Midlands, UK","to_stop":{"id":"9450","name":"origin","lat":"52.4829614","lon":"-1.893592","placename":"Birmingham, West Midlands, UK"},"from_stop":{"name":"origin","id":"9451","lat":"53.1914576","lon":"-2.8950072","placename":"Chester, Cheshire West and Chester, UK"}}]}}},"processes":[],"eols":[]},{"oid":"275","imid":"5554","linkid":"0","weight":"0","rawemissions":"0","emissions":"0","shipping":"103.71","processemissions":"0","endoflifeemissions":"0","disposaltype":null,"disposalenergy":null,"disposalimpact":null,"disposalemissions":null,"description":"","name":"Ian","id":"5554","stops":{"origin":{"related_to":"5554","part_or_object":"p","notes":null,"placename":"Chester, Cheshire West and Chester, UK","id":9452,"name":"origin","lat":"53.1914576","lon":"-2.8950072","hops":{"incoming":[],"outgoing":[{"transport_id":"19","id":"6665","transport_name":"Rail","transport_description":"from the Greenhouse Gas Protocol Initiative - GHG emission from transport or mobile sources calculator 2.0 (jun 2009)","transport_unit":"kg km","transport_co2_eq":"0.000017","from_stop_id":"9452","from_stop_lat":"53.1914576","from_stop_lon":"-2.8950072","from_stop_placename":"Chester, Cheshire West and Chester, UK","to_stop_id":"9450","to_stop_name":"origin","to_stop_lat":"52.4829614","to_stop_lon":"-1.893592","to_stop_placename":"Birmingham, West Midlands, UK","to_stop":{"id":"9450","name":"origin","lat":"52.4829614","lon":"-1.893592","placename":"Birmingham, West Midlands, UK"},"from_stop":{"name":"origin","id":"9452","lat":"53.1914576","lon":"-2.8950072","placename":"Chester, Cheshire West and Chester, UK"}}]}}},"processes":[],"eols":[]},{"oid":"275","imid":"5555","linkid":"0","weight":"0","rawemissions":"0","emissions":"0","shipping":"103.71","processemissions":"0","endoflifeemissions":"0","disposaltype":null,"disposalenergy":null,"disposalimpact":null,"disposalemissions":null,"description":"","name":"Arnold","id":"5555","stops":{"origin":{"related_to":"5555","part_or_object":"p","notes":null,"placename":"Chester, Cheshire West and Chester, UK","id":9453,"name":"origin","lat":"53.1914576","lon":"-2.8950072","hops":{"incoming":[],"outgoing":[{"transport_id":"20","id":"6666","transport_name":"Road","transport_description":"from the Greenhouse Gas Protocol Initiative - GHG emission from transport or mobile sources calculator 2.0 (jun 2009)","transport_unit":"kg km","transport_co2_eq":"0.000204","from_stop_id":"9453","from_stop_lat":"53.1914576","from_stop_lon":"-2.8950072","from_stop_placename":"Chester, Cheshire West and Chester, UK","to_stop_id":"9450","to_stop_name":"origin","to_stop_lat":"52.4829614","to_stop_lon":"-1.893592","to_stop_placename":"Birmingham, West Midlands, UK","to_stop":{"id":"9450","name":"origin","lat":"52.4829614","lon":"-1.893592","placename":"Birmingham, West Midlands, UK"},"from_stop":{"name":"origin","id":"9453","lat":"53.1914576","lon":"-2.8950072","placename":"Chester, Cheshire West and Chester, UK"}}]}}},"processes":[],"eols":[]},{"oid":"275","imid":"5556","linkid":"0","weight":"0","rawemissions":"0","emissions":"0","shipping":"103.71","processemissions":"0","endoflifeemissions":"0","disposaltype":null,"disposalenergy":null,"disposalimpact":null,"disposalemissions":null,"description":"","name":"Natalie","id":"5556","stops":{"origin":{"related_to":"5556","part_or_object":"p","notes":null,"placename":"Chester, Cheshire West and Chester, UK","id":9454,"name":"origin","lat":"53.1914576","lon":"-2.8950072","hops":{"incoming":[],"outgoing":[{"transport_id":"19","id":"6667","transport_name":"Rail","transport_description":"from the Greenhouse Gas Protocol Initiative - GHG emission from transport or mobile sources calculator 2.0 (jun 2009)","transport_unit":"kg km","transport_co2_eq":"0.000017","from_stop_id":"9454","from_stop_lat":"53.1914576","from_stop_lon":"-2.8950072","from_stop_placename":"Chester, Cheshire West and Chester, UK","to_stop_id":"9450","to_stop_name":"origin","to_stop_lat":"52.4829614","to_stop_lon":"-1.893592","to_stop_placename":"Birmingham, West Midlands, UK","to_stop":{"id":"9450","name":"origin","lat":"52.4829614","lon":"-1.893592","placename":"Birmingham, West Midlands, UK"},"from_stop":{"name":"origin","id":"9454","lat":"53.1914576","lon":"-2.8950072","placename":"Chester, Cheshire West and Chester, UK"}}]}}},"processes":[],"eols":[]},{"oid":"275","imid":"5557","linkid":"0","weight":"0","rawemissions":"0","emissions":"0","shipping":"103.71","processemissions":"0","endoflifeemissions":"0","disposaltype":null,"disposalenergy":null,"disposalimpact":null,"disposalemissions":null,"description":"","name":"Jenny","id":"5557","stops":{"origin":{"related_to":"5557","part_or_object":"p","notes":null,"placename":"Chester, Cheshire West and Chester, UK","id":9455,"name":"origin","lat":"53.1914576","lon":"-2.8950072","hops":{"incoming":[],"outgoing":[{"transport_id":"19","id":"6668","transport_name":"Rail","transport_description":"from the Greenhouse Gas Protocol Initiative - GHG emission from transport or mobile sources calculator 2.0 (jun 2009)","transport_unit":"kg km","transport_co2_eq":"0.000017","from_stop_id":"9455","from_stop_lat":"53.1914576","from_stop_lon":"-2.8950072","from_stop_placename":"Chester, Cheshire West and Chester, UK","to_stop_id":"9450","to_stop_name":"origin","to_stop_lat":"52.4829614","to_stop_lon":"-1.893592","to_stop_placename":"Birmingham, West Midlands, UK","to_stop":{"id":"9450","name":"origin","lat":"52.4829614","lon":"-1.893592","placename":"Birmingham, West Midlands, UK"},"from_stop":{"name":"origin","id":"9455","lat":"53.1914576","lon":"-2.8950072","placename":"Chester, Cheshire West and Chester, UK"}}]}}},"processes":[],"eols":[]},{"oid":"275","imid":"5558","linkid":"0","weight":"0","rawemissions":"0","emissions":"0","shipping":"126.47","processemissions":"0","endoflifeemissions":"0","disposaltype":null,"disposalenergy":null,"disposalimpact":null,"disposalemissions":null,"description":"","name":"Adrian","id":"5558","stops":{"origin":{"related_to":"5558","part_or_object":"p","notes":null,"placename":"Hemel Hempstead, Hertfordshire, UK","id":9456,"name":"origin","lat":"51.7536642","lon":"-0.4749016","hops":{"incoming":[],"outgoing":[{"transport_id":"20","id":"6669","transport_name":"Road","transport_description":"from the Greenhouse Gas Protocol Initiative - GHG emission from transport or mobile sources calculator 2.0 (jun 2009)","transport_unit":"kg km","transport_co2_eq":"0.000204","from_stop_id":"9456","from_stop_lat":"51.7536642","from_stop_lon":"-0.4749016","from_stop_placename":"Hemel Hempstead, Hertfordshire, UK","to_stop_id":"9450","to_stop_name":"origin","to_stop_lat":"52.4829614","to_stop_lon":"-1.893592","to_stop_placename":"Birmingham, West Midlands, UK","to_stop":{"id":"9450","name":"origin","lat":"52.4829614","lon":"-1.893592","placename":"Birmingham, West Midlands, UK"},"from_stop":{"name":"origin","id":"9456","lat":"51.7536642","lon":"-0.4749016","placename":"Hemel Hempstead, Hertfordshire, UK"}}]}}},"processes":[],"eols":[]},{"oid":"275","imid":"5559","linkid":"0","weight":"0","rawemissions":"0","emissions":"0","shipping":"0","processemissions":"0","endoflifeemissions":"0","disposaltype":null,"disposalenergy":null,"disposalimpact":null,"disposalemissions":null,"description":"","name":"David Boardman","id":"5559","stops":{"origin":{"related_to":"5559","part_or_object":"p","notes":null,"placename":"Birmingham, West Midlands, UK","id":9457,"name":"origin","lat":"52.4829614","lon":"-1.893592","hops":{"incoming":[],"outgoing":[{"transport_id":"20","id":"6670","transport_name":"Road","transport_description":"from the Greenhouse Gas Protocol Initiative - GHG emission from transport or mobile sources calculator 2.0 (jun 2009)","transport_unit":"kg km","transport_co2_eq":"0.000204","from_stop_id":"9457","from_stop_lat":"52.4829614","from_stop_lon":"-1.893592","from_stop_placename":"Birmingham, West Midlands, UK","to_stop_id":"9450","to_stop_name":"origin","to_stop_lat":"52.4829614","to_stop_lon":"-1.893592","to_stop_placename":"Birmingham, West Midlands, UK","to_stop":{"id":"9450","name":"origin","lat":"52.4829614","lon":"-1.893592","placename":"Birmingham, West Midlands, UK"},"from_stop":{"name":"origin","id":"9457","lat":"52.4829614","lon":"-1.893592","placename":"Birmingham, West Midlands, UK"}}]}}},"processes":[],"eols":[]},{"oid":"275","imid":"5560","linkid":"0","weight":"0","rawemissions":"0","emissions":"0","shipping":"60.3","processemissions":"0","endoflifeemissions":"0","disposaltype":null,"disposalenergy":null,"disposalimpact":null,"disposalemissions":null,"description":"","name":"Tony","id":"5560","stops":{"origin":{"related_to":"5560","part_or_object":"p","notes":null,"placename":"Banbury, Oxfordshire, UK","id":9458,"name":"origin","lat":"52.0600205","lon":"-1.3404488","hops":{"incoming":[],"outgoing":[{"transport_id":null,"id":"6671","transport_name":null,"transport_description":null,"transport_unit":null,"transport_co2_eq":null,"from_stop_id":"9458","from_stop_lat":"52.0600205","from_stop_lon":"-1.3404488","from_stop_placename":"Banbury, Oxfordshire, UK","to_stop_id":"9450","to_stop_name":"origin","to_stop_lat":"52.4829614","to_stop_lon":"-1.893592","to_stop_placename":"Birmingham, West Midlands, UK","to_stop":{"id":"9450","name":"origin","lat":"52.4829614","lon":"-1.893592","placename":"Birmingham, West Midlands, UK"},"from_stop":{"name":"origin","id":"9458","lat":"52.0600205","lon":"-1.3404488","placename":"Banbury, Oxfordshire, UK"}}]}}},"processes":[],"eols":[]},{"oid":"275","imid":"5561","linkid":"0","weight":"0","rawemissions":"0","emissions":"0","shipping":"103.71","processemissions":"0","endoflifeemissions":"0","disposaltype":null,"disposalenergy":null,"disposalimpact":null,"disposalemissions":null,"description":"","name":"Charlie","id":"5561","stops":{"origin":{"related_to":"5561","part_or_object":"p","notes":null,"placename":"Chester, Cheshire West and Chester, UK","id":9459,"name":"origin","lat":"53.1914576","lon":"-2.8950072","hops":{"incoming":[],"outgoing":[{"transport_id":"19","id":"6672","transport_name":"Rail","transport_description":"from the Greenhouse Gas Protocol Initiative - GHG emission from transport or mobile sources calculator 2.0 (jun 2009)","transport_unit":"kg km","transport_co2_eq":"0.000017","from_stop_id":"9459","from_stop_lat":"53.1914576","from_stop_lon":"-2.8950072","from_stop_placename":"Chester, Cheshire West and Chester, UK","to_stop_id":"9450","to_stop_name":"origin","to_stop_lat":"52.4829614","to_stop_lon":"-1.893592","to_stop_placename":"Birmingham, West Midlands, UK","to_stop":{"id":"9450","name":"origin","lat":"52.4829614","lon":"-1.893592","placename":"Birmingham, West Midlands, UK"},"from_stop":{"name":"origin","id":"9459","lat":"53.1914576","lon":"-2.8950072","placename":"Chester, Cheshire West and Chester, UK"}}]}}},"processes":[],"eols":[]},{"oid":"275","imid":"5544","linkid":"0","weight":"0","rawemissions":"0","emissions":"0","shipping":"34.83","processemissions":"0","endoflifeemissions":"0","disposaltype":null,"disposalenergy":null,"disposalimpact":null,"disposalemissions":null,"description":"","name":"Carolyn","id":"5544","stops":{"origin":{"related_to":"5544","part_or_object":"p","notes":null,"placename":"Stratford-Upon-Avon, Warwickshire, UK","id":9460,"name":"origin","lat":"52.1915699","lon":"-1.7069886","hops":{"incoming":[],"outgoing":[{"transport_id":"20","id":"6673","transport_name":"Road","transport_description":"from the Greenhouse Gas Protocol Initiative - GHG emission from transport or mobile sources calculator 2.0 (jun 2009)","transport_unit":"kg km","transport_co2_eq":"0.000204","from_stop_id":"9460","from_stop_lat":"52.1915699","from_stop_lon":"-1.7069886","from_stop_placename":"Stratford-Upon-Avon, Warwickshire, UK","to_stop_id":"9450","to_stop_name":"origin","to_stop_lat":"52.4829614","to_stop_lon":"-1.893592","to_stop_placename":"Birmingham, West Midlands, UK","to_stop":{"id":"9450","name":"origin","lat":"52.4829614","lon":"-1.893592","placename":"Birmingham, West Midlands, UK"},"from_stop":{"name":"origin","id":"9460","lat":"52.1915699","lon":"-1.7069886","placename":"Stratford-Upon-Avon, Warwickshire, UK"}}]}}},"processes":[],"eols":[]},{"oid":"275","imid":"5545","linkid":"0","weight":"0","rawemissions":"0","emissions":"0","shipping":"103.71","processemissions":"0","endoflifeemissions":"0","disposaltype":null,"disposalenergy":null,"disposalimpact":null,"disposalemissions":null,"description":"","name":"David Gardner","id":"5545","stops":{"origin":{"related_to":"5545","part_or_object":"p","notes":null,"placename":"Chester, Cheshire West and Chester, UK","id":9461,"name":"origin","lat":"53.1914576","lon":"-2.8950072","hops":{"incoming":[],"outgoing":[{"transport_id":"19","id":"6674","transport_name":"Rail","transport_description":"from the Greenhouse Gas Protocol Initiative - GHG emission from transport or mobile sources calculator 2.0 (jun 2009)","transport_unit":"kg km","transport_co2_eq":"0.000017","from_stop_id":"9461","from_stop_lat":"53.1914576","from_stop_lon":"-2.8950072","from_stop_placename":"Chester, Cheshire West and Chester, UK","to_stop_id":"9450","to_stop_name":"origin","to_stop_lat":"52.4829614","to_stop_lon":"-1.893592","to_stop_placename":"Birmingham, West Midlands, UK","to_stop":{"id":"9450","name":"origin","lat":"52.4829614","lon":"-1.893592","placename":"Birmingham, West Midlands, UK"},"from_stop":{"name":"origin","id":"9461","lat":"53.1914576","lon":"-2.8950072","placename":"Chester, Cheshire West and Chester, UK"}}]}}},"processes":[],"eols":[]},{"oid":"275","imid":"5546","linkid":"0","weight":"0","rawemissions":"0","emissions":"0","shipping":"130.82","processemissions":"0","endoflifeemissions":"0","disposaltype":null,"disposalenergy":null,"disposalimpact":null,"disposalemissions":null,"description":"","name":"Kerry","id":"5546","stops":{"origin":{"related_to":"5546","part_or_object":"p","notes":null,"placename":"Reading, UK","id":9462,"name":"origin","lat":"51.455041","lon":"-0.9690884","hops":{"incoming":[],"outgoing":[{"transport_id":"19","id":"6675","transport_name":"Rail","transport_description":"from the Greenhouse Gas Protocol Initiative - GHG emission from transport or mobile sources calculator 2.0 (jun 2009)","transport_unit":"kg km","transport_co2_eq":"0.000017","from_stop_id":"9462","from_stop_lat":"51.455041","from_stop_lon":"-0.9690884","from_stop_placename":"Reading, UK","to_stop_id":"9450","to_stop_name":"origin","to_stop_lat":"52.4829614","to_stop_lon":"-1.893592","to_stop_placename":"Birmingham, West Midlands, UK","to_stop":{"id":"9450","name":"origin","lat":"52.4829614","lon":"-1.893592","placename":"Birmingham, West Midlands, UK"},"from_stop":{"name":"origin","id":"9462","lat":"51.455041","lon":"-0.9690884","placename":"Reading, UK"}}]}}},"processes":[],"eols":[]},{"oid":"275","imid":"5547","linkid":"0","weight":"0","rawemissions":"0","emissions":"0","shipping":"92.28","processemissions":"0","endoflifeemissions":"0","disposaltype":null,"disposalenergy":null,"disposalimpact":null,"disposalemissions":null,"description":"","name":"Derek and Heather","id":"5547","stops":{"origin":{"related_to":"5547","part_or_object":"p","notes":null,"placename":"Oxford, Oxfordshire, UK","id":9463,"name":"origin","lat":"51.7522792","lon":"-1.2558838","hops":{"incoming":[],"outgoing":[{"transport_id":"20","id":"6676","transport_name":"Road","transport_description":"from the Greenhouse Gas Protocol Initiative - GHG emission from transport or mobile sources calculator 2.0 (jun 2009)","transport_unit":"kg km","transport_co2_eq":"0.000204","from_stop_id":"9463","from_stop_lat":"51.7522792","from_stop_lon":"-1.2558838","from_stop_placename":"Oxford, Oxfordshire, UK","to_stop_id":"9450","to_stop_name":"origin","to_stop_lat":"52.4829614","to_stop_lon":"-1.893592","to_stop_placename":"Birmingham, West Midlands, UK","to_stop":{"id":"9450","name":"origin","lat":"52.4829614","lon":"-1.893592","placename":"Birmingham, West Midlands, UK"},"from_stop":{"name":"origin","id":"9463","lat":"51.7522792","lon":"-1.2558838","placename":"Oxford, Oxfordshire, UK"}}]}}},"processes":[],"eols":[]},{"oid":"275","imid":"5548","linkid":"0","weight":"0","rawemissions":"0","emissions":"0","shipping":"92.28","processemissions":"0","endoflifeemissions":"0","disposaltype":null,"disposalenergy":null,"disposalimpact":null,"disposalemissions":null,"description":"","name":"Liz","id":"5548","stops":{"origin":{"related_to":"5548","part_or_object":"p","notes":null,"placename":"Oxford, Oxfordshire, UK","id":9464,"name":"origin","lat":"51.7522792","lon":"-1.2558838","hops":{"incoming":[],"outgoing":[{"transport_id":"20","id":"6677","transport_name":"Road","transport_description":"from the Greenhouse Gas Protocol Initiative - GHG emission from transport or mobile sources calculator 2.0 (jun 2009)","transport_unit":"kg km","transport_co2_eq":"0.000204","from_stop_id":"9464","from_stop_lat":"51.7522792","from_stop_lon":"-1.2558838","from_stop_placename":"Oxford, Oxfordshire, UK","to_stop_id":"9450","to_stop_name":"origin","to_stop_lat":"52.4829614","to_stop_lon":"-1.893592","to_stop_placename":"Birmingham, West Midlands, UK","to_stop":{"id":"9450","name":"origin","lat":"52.4829614","lon":"-1.893592","placename":"Birmingham, West Midlands, UK"},"from_stop":{"name":"origin","id":"9464","lat":"51.7522792","lon":"-1.2558838","placename":"Oxford, Oxfordshire, UK"}}]}}},"processes":[],"eols":[]},{"oid":"275","imid":"5549","linkid":"0","weight":"0","rawemissions":"0","emissions":"0","shipping":"92.28","processemissions":"0","endoflifeemissions":"0","disposaltype":null,"disposalenergy":null,"disposalimpact":null,"disposalemissions":null,"description":"","name":"Anne","id":"5549","stops":{"origin":{"related_to":"5549","part_or_object":"p","notes":null,"placename":"Oxford, Oxfordshire, UK","id":9465,"name":"origin","lat":"51.7522792","lon":"-1.2558838","hops":{"incoming":[],"outgoing":[{"transport_id":"19","id":"6678","transport_name":"Rail","transport_description":"from the Greenhouse Gas Protocol Initiative - GHG emission from transport or mobile sources calculator 2.0 (jun 2009)","transport_unit":"kg km","transport_co2_eq":"0.000017","from_stop_id":"9465","from_stop_lat":"51.7522792","from_stop_lon":"-1.2558838","from_stop_placename":"Oxford, Oxfordshire, UK","to_stop_id":"9450","to_stop_name":"origin","to_stop_lat":"52.4829614","to_stop_lon":"-1.893592","to_stop_placename":"Birmingham, West Midlands, UK","to_stop":{"id":"9450","name":"origin","lat":"52.4829614","lon":"-1.893592","placename":"Birmingham, West Midlands, UK"},"from_stop":{"name":"origin","id":"9465","lat":"51.7522792","lon":"-1.2558838","placename":"Oxford, Oxfordshire, UK"}}]}}},"processes":[],"eols":[]},{"oid":"275","imid":"5550","linkid":"0","weight":"0","rawemissions":"0","emissions":"0","shipping":"92.28","processemissions":"0","endoflifeemissions":"0","disposaltype":null,"disposalenergy":null,"disposalimpact":null,"disposalemissions":null,"description":"","name":"Anna","id":"5550","stops":{"origin":{"related_to":"5550","part_or_object":"p","notes":null,"placename":"Oxford, Oxfordshire, UK","id":9466,"name":"origin","lat":"51.7522792","lon":"-1.2558838","hops":{"incoming":[],"outgoing":[{"transport_id":"19","id":"6679","transport_name":"Rail","transport_description":"from the Greenhouse Gas Protocol Initiative - GHG emission from transport or mobile sources calculator 2.0 (jun 2009)","transport_unit":"kg km","transport_co2_eq":"0.000017","from_stop_id":"9466","from_stop_lat":"51.7522792","from_stop_lon":"-1.2558838","from_stop_placename":"Oxford, Oxfordshire, UK","to_stop_id":"9450","to_stop_name":"origin","to_stop_lat":"52.4829614","to_stop_lon":"-1.893592","to_stop_placename":"Birmingham, West Midlands, UK","to_stop":{"id":"9450","name":"origin","lat":"52.4829614","lon":"-1.893592","placename":"Birmingham, West Midlands, UK"},"from_stop":{"name":"origin","id":"9466","lat":"51.7522792","lon":"-1.2558838","placename":"Oxford, Oxfordshire, UK"}}]}}},"processes":[],"eols":[]},{"oid":"275","imid":"5551","linkid":"0","weight":"0","rawemissions":"0","emissions":"0","shipping":"92.28","processemissions":"0","endoflifeemissions":"0","disposaltype":null,"disposalenergy":null,"disposalimpact":null,"disposalemissions":null,"description":"","name":"Louise","id":"5551","stops":{"origin":{"related_to":"5551","part_or_object":"p","notes":null,"placename":"Oxford, Oxfordshire, UK","id":9467,"name":"origin","lat":"51.7522792","lon":"-1.2558838","hops":{"incoming":[],"outgoing":[{"transport_id":"19","id":"6680","transport_name":"Rail","transport_description":"from the Greenhouse Gas Protocol Initiative - GHG emission from transport or mobile sources calculator 2.0 (jun 2009)","transport_unit":"kg km","transport_co2_eq":"0.000017","from_stop_id":"9467","from_stop_lat":"51.7522792","from_stop_lon":"-1.2558838","from_stop_placename":"Oxford, Oxfordshire, UK","to_stop_id":"9450","to_stop_name":"origin","to_stop_lat":"52.4829614","to_stop_lon":"-1.893592","to_stop_placename":"Birmingham, West Midlands, UK","to_stop":{"id":"9450","name":"origin","lat":"52.4829614","lon":"-1.893592","placename":"Birmingham, West Midlands, UK"},"from_stop":{"name":"origin","id":"9467","lat":"51.7522792","lon":"-1.2558838","placename":"Oxford, Oxfordshire, UK"}}]}}},"processes":[],"eols":[]},{"oid":"275","imid":"5552","linkid":"0","weight":"0","rawemissions":"0","emissions":"0","shipping":"184.5","processemissions":"0","endoflifeemissions":"0","disposaltype":null,"disposalenergy":null,"disposalimpact":null,"disposalemissions":null,"description":"","name":"Jonathan","id":"5552","stops":{"origin":{"related_to":"5552","part_or_object":"p","notes":null,"placename":"Lancaster, Lancashire, UK","id":9468,"name":"origin","lat":"54.0495863","lon":"-2.7984325","hops":{"incoming":[],"outgoing":[{"transport_id":"19","id":"6681","transport_name":"Rail","transport_description":"from the Greenhouse Gas Protocol Initiative - GHG emission from transport or mobile sources calculator 2.0 (jun 2009)","transport_unit":"kg km","transport_co2_eq":"0.000017","from_stop_id":"9468","from_stop_lat":"54.0495863","from_stop_lon":"-2.7984325","from_stop_placename":"Lancaster, Lancashire, UK","to_stop_id":"9450","to_stop_name":"origin","to_stop_lat":"52.4829614","to_stop_lon":"-1.893592","to_stop_placename":"Birmingham, West Midlands, UK","to_stop":{"id":"9450","name":"origin","lat":"52.4829614","lon":"-1.893592","placename":"Birmingham, West Midlands, UK"},"from_stop":{"name":"origin","id":"9468","lat":"54.0495863","lon":"-2.7984325","placename":"Lancaster, Lancashire, UK"}}]}}},"processes":[],"eols":[]}],"user":{"name":"Carolyn Roberts","id":"11951"}}}