{"286":{"oid":"286","type":"trace","flag":"","creator":"11968","name":"4000","upc":"","imagelink":"","description":"","slug":"4000-1","category":"","weight":"0","emissions":"0","embodied":"0","transport":"0","process":null,"endoflife":null,"shipping":"53654.63","lifetime":null,"usagetype":"","usageenergy":null,"usageemissions":null,"timecreated":"2011-01-11 08:20:27","timemodified":"2011-01-12 06:43:50","visibility":"private","showfootprint":"on","showembodied":"on","showtransport":"on","showprocess":"on","showendoflife":"on","showlastleg":"on","showuse":"on","showstats":"on","stops":{"origin":{"related_to":"286","part_or_object":"o","notes":null,"placename":"Wichita, KS, USA","id":"9751","category":"1","lat":"37.6922361","lon":"-97.3375448","name":"origin","hops":{"incoming":[{"transport_id":null,"id":"6912","transport_name":null,"transport_description":null,"transport_unit":null,"transport_co2_eq":null,"from_stop_id":"9752","from_stop_lat":"35.1613985","from_stop_lon":"138.6762728","to_stop_id":"9751","to_stop_name":"origin","to_stop_lat":"37.6922361","placename":"Fuji, Shizuoka Prefecture, Japan","to_stop_lon":"-97.3375448","to_stop":{"id":"9751","name":"origin","lat":"37.6922361","placename":"Wichita, KS, USA","lon":"-97.3375448"},"from_stop":{"name":"origin","id":"9752","lat":"35.1613985","lon":"138.6762728","placename":"Fuji, Shizuoka Prefecture, Japan"}},{"transport_id":null,"id":"6913","transport_name":null,"transport_description":null,"transport_unit":null,"transport_co2_eq":null,"from_stop_id":"9753","from_stop_lat":"33.4483771","from_stop_lon":"-112.0740373","to_stop_id":"9751","to_stop_name":"origin","to_stop_lat":"37.6922361","placename":"Phoenix, AZ, USA","to_stop_lon":"-97.3375448","to_stop":{"id":"9751","name":"origin","lat":"37.6922361","placename":"Wichita, KS, USA","lon":"-97.3375448"},"from_stop":{"name":"origin","id":"9753","lat":"33.4483771","lon":"-112.0740373","placename":"Phoenix, AZ, USA"}},{"transport_id":null,"id":"6914","transport_name":null,"transport_description":null,"transport_unit":null,"transport_co2_eq":null,"from_stop_id":"9754","from_stop_lat":"45.537405","from_stop_lon":"-73.510726","to_stop_id":"9751","to_stop_name":"origin","to_stop_lat":"37.6922361","placename":"Longueuil, QC, Canada","to_stop_lon":"-97.3375448","to_stop":{"id":"9751","name":"origin","lat":"37.6922361","placename":"Wichita, KS, USA","lon":"-97.3375448"},"from_stop":{"name":"origin","id":"9754","lat":"45.537405","lon":"-73.510726","placename":"Longueuil, QC, Canada"}},{"transport_id":null,"id":"6915","transport_name":null,"transport_description":null,"transport_unit":null,"transport_co2_eq":null,"from_stop_id":"9755","from_stop_lat":"52.5205869","from_stop_lon":"4.788474","to_stop_id":"9751","to_stop_name":"origin","to_stop_lat":"37.6922361","placename":"North Holland, The Netherlands","to_stop_lon":"-97.3375448","to_stop":{"id":"9751","name":"origin","lat":"37.6922361","placename":"Wichita, KS, USA","lon":"-97.3375448"},"from_stop":{"name":"origin","id":"9755","lat":"52.5205869","lon":"4.788474","placename":"North Holland, The Netherlands"}},{"transport_id":null,"id":"6916","transport_name":null,"transport_description":null,"transport_unit":null,"transport_co2_eq":null,"from_stop_id":"9756","from_stop_lat":"37.6922361","from_stop_lon":"-97.3375448","to_stop_id":"9751","to_stop_name":"origin","to_stop_lat":"37.6922361","placename":"Wichita, KS, USA","to_stop_lon":"-97.3375448","to_stop":{"id":"9751","name":"origin","lat":"37.6922361","placename":"Wichita, KS, USA","lon":"-97.3375448"},"from_stop":{"name":"origin","id":"9756","lat":"37.6922361","lon":"-97.3375448","placename":"Wichita, KS, USA"}},{"transport_id":null,"id":"6917","transport_name":null,"transport_description":null,"transport_unit":null,"transport_co2_eq":null,"from_stop_id":"9757","from_stop_lat":"34.7464809","from_stop_lon":"-92.2895948","to_stop_id":"9751","to_stop_name":"origin","to_stop_lat":"37.6922361","placename":"Little Rock, AR, USA","to_stop_lon":"-97.3375448","to_stop":{"id":"9751","name":"origin","lat":"37.6922361","placename":"Wichita, KS, USA","lon":"-97.3375448"},"from_stop":{"name":"origin","id":"9757","lat":"34.7464809","lon":"-92.2895948","placename":"Little Rock, AR, USA"}},{"transport_id":null,"id":"6918","transport_name":null,"transport_description":null,"transport_unit":null,"transport_co2_eq":null,"from_stop_id":"9758","from_stop_lat":"36.1539816","from_stop_lon":"-95.992775","to_stop_id":"9751","to_stop_name":"origin","to_stop_lat":"37.6922361","placename":"Tulsa, OK, USA","to_stop_lon":"-97.3375448","to_stop":{"id":"9751","name":"origin","lat":"37.6922361","placename":"Wichita, KS, USA","lon":"-97.3375448"},"from_stop":{"name":"origin","id":"9758","lat":"36.1539816","lon":"-95.992775","placename":"Tulsa, OK, USA"}},{"transport_id":null,"id":"6919","transport_name":null,"transport_description":null,"transport_unit":null,"transport_co2_eq":null,"from_stop_id":"9759","from_stop_lat":"32.7153292","from_stop_lon":"-117.1572551","to_stop_id":"9751","to_stop_name":"origin","to_stop_lat":"37.6922361","placename":"San Diego, CA, USA","to_stop_lon":"-97.3375448","to_stop":{"id":"9751","name":"origin","lat":"37.6922361","placename":"Wichita, KS, USA","lon":"-97.3375448"},"from_stop":{"name":"origin","id":"9759","lat":"32.7153292","lon":"-117.1572551","placename":"San Diego, CA, USA"}},{"transport_id":null,"id":"6920","transport_name":null,"transport_description":null,"transport_unit":null,"transport_co2_eq":null,"from_stop_id":"9760","from_stop_lat":"28.6352778","from_stop_lon":"-106.0888889","to_stop_id":"9751","to_stop_name":"origin","to_stop_lat":"37.6922361","placename":"Chihuahua Municipality, Chihuahua, Mexico","to_stop_lon":"-97.3375448","to_stop":{"id":"9751","name":"origin","lat":"37.6922361","placename":"Wichita, KS, USA","lon":"-97.3375448"},"from_stop":{"name":"origin","id":"9760","lat":"28.6352778","lon":"-106.0888889","placename":"Chihuahua Municipality, Chihuahua, Mexico"}},{"transport_id":null,"id":"6921","transport_name":null,"transport_description":null,"transport_unit":null,"transport_co2_eq":null,"from_stop_id":"9761","from_stop_lat":"3.139003","from_stop_lon":"101.686855","to_stop_id":"9751","to_stop_name":"origin","to_stop_lat":"37.6922361","placename":"Kuala Lumpur, Federal Territory of Kuala Lumpur, Malaysia","to_stop_lon":"-97.3375448","to_stop":{"id":"9751","name":"origin","lat":"37.6922361","placename":"Wichita, KS, USA","lon":"-97.3375448"},"from_stop":{"name":"origin","id":"9761","lat":"3.139003","lon":"101.686855","placename":"Kuala Lumpur, Federal Territory of Kuala Lumpur, Malaysia"}},{"transport_id":null,"id":"6922","transport_name":null,"transport_description":null,"transport_unit":null,"transport_co2_eq":null,"from_stop_id":"9762","from_stop_lat":"39.521017","from_stop_lon":"116.706651","to_stop_id":"9751","to_stop_name":"origin","to_stop_lat":"37.6922361","placename":"Langfang, Hebei, China","to_stop_lon":"-97.3375448","to_stop":{"id":"9751","name":"origin","lat":"37.6922361","placename":"Wichita, KS, USA","lon":"-97.3375448"},"from_stop":{"name":"origin","id":"9762","lat":"39.521017","lon":"116.706651","placename":"Langfang, Hebei, China"}},{"transport_id":null,"id":"6923","transport_name":null,"transport_description":null,"transport_unit":null,"transport_co2_eq":null,"from_stop_id":"9763","from_stop_lat":"43.85","from_stop_lon":"-79.0166667","to_stop_id":"9751","to_stop_name":"origin","to_stop_lat":"37.6922361","placename":"Ajax, ON, Canada","to_stop_lon":"-97.3375448","to_stop":{"id":"9751","name":"origin","lat":"37.6922361","placename":"Wichita, KS, USA","lon":"-97.3375448"},"from_stop":{"name":"origin","id":"9763","lat":"43.85","lon":"-79.0166667","placename":"Ajax, ON, Canada"}},{"transport_id":null,"id":"6924","transport_name":null,"transport_description":null,"transport_unit":null,"transport_co2_eq":null,"from_stop_id":"9764","from_stop_lat":"34.7303688","from_stop_lon":"-86.5861037","to_stop_id":"9751","to_stop_name":"origin","to_stop_lat":"37.6922361","placename":"Huntsville, AL, USA","to_stop_lon":"-97.3375448","to_stop":{"id":"9751","name":"origin","lat":"37.6922361","placename":"Wichita, KS, USA","lon":"-97.3375448"},"from_stop":{"name":"origin","id":"9764","lat":"34.7303688","lon":"-86.5861037","placename":"Huntsville, AL, USA"}}],"outgoing":[]}}},"parts":[{"oid":"286","imid":"5611","linkid":"0","weight":"0","rawemissions":"0","emissions":"0","shipping":"10079.46","processemissions":"0","endoflifeemissions":"0","disposaltype":null,"disposalenergy":null,"disposalimpact":null,"disposalemissions":null,"description":"Hawker Beechcraft","name":"Wing & Wing Box","id":"5611","stops":{"origin":{"related_to":"5611","part_or_object":"p","notes":null,"placename":"Fuji, Shizuoka Prefecture, Japan","id":9752,"name":"origin","lat":"35.1613985","lon":"138.6762728","hops":{"incoming":[],"outgoing":[{"transport_id":null,"id":"6912","transport_name":null,"transport_description":null,"transport_unit":null,"transport_co2_eq":null,"from_stop_id":"9752","from_stop_lat":"35.1613985","from_stop_lon":"138.6762728","from_stop_placename":"Fuji, Shizuoka Prefecture, Japan","to_stop_id":"9751","to_stop_name":"origin","to_stop_lat":"37.6922361","to_stop_lon":"-97.3375448","to_stop_placename":"Wichita, KS, USA","to_stop":{"id":"9751","name":"origin","lat":"37.6922361","lon":"-97.3375448","placename":"Wichita, KS, USA"},"from_stop":{"name":"origin","id":"9752","lat":"35.1613985","lon":"138.6762728","placename":"Fuji, Shizuoka Prefecture, Japan"}}]}}},"processes":[],"eols":[]},{"oid":"286","imid":"5612","linkid":"0","weight":"0","rawemissions":"0","emissions":"0","shipping":"1413.61","processemissions":"0","endoflifeemissions":"0","disposaltype":null,"disposalenergy":null,"disposalimpact":null,"disposalemissions":null,"description":"Honeywell","name":"Avionics","id":"5612","stops":{"origin":{"related_to":"5612","part_or_object":"p","notes":null,"placename":"Phoenix, AZ, USA","id":9753,"name":"origin","lat":"33.4483771","lon":"-112.0740373","hops":{"incoming":[],"outgoing":[{"transport_id":null,"id":"6913","transport_name":null,"transport_description":null,"transport_unit":null,"transport_co2_eq":null,"from_stop_id":"9753","from_stop_lat":"33.4483771","from_stop_lon":"-112.0740373","from_stop_placename":"Phoenix, AZ, USA","to_stop_id":"9751","to_stop_name":"origin","to_stop_lat":"37.6922361","to_stop_lon":"-97.3375448","to_stop_placename":"Wichita, KS, USA","to_stop":{"id":"9751","name":"origin","lat":"37.6922361","lon":"-97.3375448","placename":"Wichita, KS, USA"},"from_stop":{"name":"origin","id":"9753","lat":"33.4483771","lon":"-112.0740373","placename":"Phoenix, AZ, USA"}}]}}},"processes":[],"eols":[]},{"oid":"286","imid":"5613","linkid":"0","weight":"0","rawemissions":"0","emissions":"0","shipping":"2156.17","processemissions":"0","endoflifeemissions":"0","disposaltype":null,"disposalenergy":null,"disposalimpact":null,"disposalemissions":null,"description":"Pratt & Whitney","name":"Engines","id":"5613","stops":{"origin":{"related_to":"5613","part_or_object":"p","notes":null,"placename":"Longueuil, QC, Canada","id":9754,"name":"origin","lat":"45.537405","lon":"-73.510726","hops":{"incoming":[],"outgoing":[{"transport_id":null,"id":"6914","transport_name":null,"transport_description":null,"transport_unit":null,"transport_co2_eq":null,"from_stop_id":"9754","from_stop_lat":"45.537405","from_stop_lon":"-73.510726","from_stop_placename":"Longueuil, QC, Canada","to_stop_id":"9751","to_stop_name":"origin","to_stop_lat":"37.6922361","to_stop_lon":"-97.3375448","to_stop_placename":"Wichita, KS, USA","to_stop":{"id":"9751","name":"origin","lat":"37.6922361","lon":"-97.3375448","placename":"Wichita, KS, USA"},"from_stop":{"name":"origin","id":"9754","lat":"45.537405","lon":"-73.510726","placename":"Longueuil, QC, Canada"}}]}}},"processes":[],"eols":[]},{"oid":"286","imid":"5614","linkid":"0","weight":"0","rawemissions":"0","emissions":"0","shipping":"7504.54","processemissions":"0","endoflifeemissions":"0","disposaltype":null,"disposalenergy":null,"disposalimpact":null,"disposalemissions":null,"description":"Fokker Elmo","name":"Wiring","id":"5614","stops":{"origin":{"related_to":"5614","part_or_object":"p","notes":null,"placename":"North Holland, The Netherlands","id":9755,"name":"origin","lat":"52.5205869","lon":"4.788474","hops":{"incoming":[],"outgoing":[{"transport_id":null,"id":"6915","transport_name":null,"transport_description":null,"transport_unit":null,"transport_co2_eq":null,"from_stop_id":"9755","from_stop_lat":"52.5205869","from_stop_lon":"4.788474","from_stop_placename":"North Holland, The Netherlands","to_stop_id":"9751","to_stop_name":"origin","to_stop_lat":"37.6922361","to_stop_lon":"-97.3375448","to_stop_placename":"Wichita, KS, USA","to_stop":{"id":"9751","name":"origin","lat":"37.6922361","lon":"-97.3375448","placename":"Wichita, KS, USA"},"from_stop":{"name":"origin","id":"9755","lat":"52.5205869","lon":"4.788474","placename":"North Holland, The Netherlands"}}]}}},"processes":[],"eols":[]},{"oid":"286","imid":"5615","linkid":"0","weight":"0","rawemissions":"0","emissions":"0","shipping":"0","processemissions":"0","endoflifeemissions":"0","disposaltype":null,"disposalenergy":null,"disposalimpact":null,"disposalemissions":null,"description":"PMC","name":"Pylons","id":"5615","stops":{"origin":{"related_to":"5615","part_or_object":"p","notes":null,"placename":"Wichita, KS, USA","id":9756,"name":"origin","lat":"37.6922361","lon":"-97.3375448","hops":{"incoming":[],"outgoing":[{"transport_id":null,"id":"6916","transport_name":null,"transport_description":null,"transport_unit":null,"transport_co2_eq":null,"from_stop_id":"9756","from_stop_lat":"37.6922361","from_stop_lon":"-97.3375448","from_stop_placename":"Wichita, KS, USA","to_stop_id":"9751","to_stop_name":"origin","to_stop_lat":"37.6922361","to_stop_lon":"-97.3375448","to_stop_placename":"Wichita, KS, USA","to_stop":{"id":"9751","name":"origin","lat":"37.6922361","lon":"-97.3375448","placename":"Wichita, KS, USA"},"from_stop":{"name":"origin","id":"9756","lat":"37.6922361","lon":"-97.3375448","placename":"Wichita, KS, USA"}}]}}},"processes":[],"eols":[]},{"oid":"286","imid":"5616","linkid":"0","weight":"0","rawemissions":"0","emissions":"0","shipping":"559.37","processemissions":"0","endoflifeemissions":"0","disposaltype":null,"disposalenergy":null,"disposalimpact":null,"disposalemissions":null,"description":"Hawker Beechcraft","name":"Interior","id":"5616","stops":{"origin":{"related_to":"5616","part_or_object":"p","notes":null,"placename":"Little Rock, AR, USA","id":9757,"name":"origin","lat":"34.7464809","lon":"-92.2895948","hops":{"incoming":[],"outgoing":[{"transport_id":null,"id":"6917","transport_name":null,"transport_description":null,"transport_unit":null,"transport_co2_eq":null,"from_stop_id":"9757","from_stop_lat":"34.7464809","from_stop_lon":"-92.2895948","from_stop_placename":"Little Rock, AR, USA","to_stop_id":"9751","to_stop_name":"origin","to_stop_lat":"37.6922361","to_stop_lon":"-97.3375448","to_stop_placename":"Wichita, KS, USA","to_stop":{"id":"9751","name":"origin","lat":"37.6922361","lon":"-97.3375448","placename":"Wichita, KS, USA"},"from_stop":{"name":"origin","id":"9757","lat":"34.7464809","lon":"-92.2895948","placename":"Little Rock, AR, USA"}}]}}},"processes":[],"eols":[]},{"oid":"286","imid":"5617","linkid":"0","weight":"0","rawemissions":"0","emissions":"0","shipping":"208.91","processemissions":"0","endoflifeemissions":"0","disposaltype":null,"disposalenergy":null,"disposalimpact":null,"disposalemissions":null,"description":"Nordam","name":"Nacelles","id":"5617","stops":{"origin":{"related_to":"5617","part_or_object":"p","notes":null,"placename":"Tulsa, OK, USA","id":9758,"name":"origin","lat":"36.1539816","lon":"-95.992775","hops":{"incoming":[],"outgoing":[{"transport_id":null,"id":"6918","transport_name":null,"transport_description":null,"transport_unit":null,"transport_co2_eq":null,"from_stop_id":"9758","from_stop_lat":"36.1539816","from_stop_lon":"-95.992775","from_stop_placename":"Tulsa, OK, USA","to_stop_id":"9751","to_stop_name":"origin","to_stop_lat":"37.6922361","to_stop_lon":"-97.3375448","to_stop_placename":"Wichita, KS, USA","to_stop":{"id":"9751","name":"origin","lat":"37.6922361","lon":"-97.3375448","placename":"Wichita, KS, USA"},"from_stop":{"name":"origin","id":"9758","lat":"36.1539816","lon":"-95.992775","placename":"Tulsa, OK, USA"}}]}}},"processes":[],"eols":[]},{"oid":"286","imid":"5678","linkid":"0","weight":"0","rawemissions":"0","emissions":"0","shipping":"1881.78","processemissions":"0","endoflifeemissions":"0","disposaltype":null,"disposalenergy":null,"disposalimpact":null,"disposalemissions":null,"description":"Hamilton Sundstrand","name":"APU","id":"5678","stops":{"origin":{"related_to":"5678","part_or_object":"p","notes":null,"placename":"San Diego, CA, USA","id":9759,"name":"origin","lat":"32.7153292","lon":"-117.1572551","hops":{"incoming":[],"outgoing":[{"transport_id":null,"id":"6919","transport_name":null,"transport_description":null,"transport_unit":null,"transport_co2_eq":null,"from_stop_id":"9759","from_stop_lat":"32.7153292","from_stop_lon":"-117.1572551","from_stop_placename":"San Diego, CA, USA","to_stop_id":"9751","to_stop_name":"origin","to_stop_lat":"37.6922361","to_stop_lon":"-97.3375448","to_stop_placename":"Wichita, KS, USA","to_stop":{"id":"9751","name":"origin","lat":"37.6922361","lon":"-97.3375448","placename":"Wichita, KS, USA"},"from_stop":{"name":"origin","id":"9759","lat":"32.7153292","lon":"-117.1572551","placename":"San Diego, CA, USA"}}]}}},"processes":[],"eols":[]},{"oid":"286","imid":"5697","linkid":"0","weight":"0","rawemissions":"0","emissions":"0","shipping":"1295.38","processemissions":"0","endoflifeemissions":"0","disposaltype":null,"disposalenergy":null,"disposalimpact":null,"disposalemissions":null,"description":"Hawker Beechcraft","name":"Fuse Components","id":"5697","stops":{"origin":{"related_to":"5697","part_or_object":"p","notes":null,"placename":"Chihuahua Municipality, Chihuahua, Mexico","id":9760,"name":"origin","lat":"28.6352778","lon":"-106.0888889","hops":{"incoming":[],"outgoing":[{"transport_id":null,"id":"6920","transport_name":null,"transport_description":null,"transport_unit":null,"transport_co2_eq":null,"from_stop_id":"9760","from_stop_lat":"28.6352778","from_stop_lon":"-106.0888889","from_stop_placename":"Chihuahua Municipality, Chihuahua, Mexico","to_stop_id":"9751","to_stop_name":"origin","to_stop_lat":"37.6922361","to_stop_lon":"-97.3375448","to_stop_placename":"Wichita, KS, USA","to_stop":{"id":"9751","name":"origin","lat":"37.6922361","lon":"-97.3375448","placename":"Wichita, KS, USA"},"from_stop":{"name":"origin","id":"9760","lat":"28.6352778","lon":"-106.0888889","placename":"Chihuahua Municipality, Chihuahua, Mexico"}}]}}},"processes":[],"eols":[]},{"oid":"286","imid":"5698","linkid":"0","weight":"0","rawemissions":"0","emissions":"0","shipping":"15085.9","processemissions":"0","endoflifeemissions":"0","disposaltype":null,"disposalenergy":null,"disposalimpact":null,"disposalemissions":null,"description":"Honeywell","name":"Avionics Components","id":"5698","stops":{"origin":{"related_to":"5698","part_or_object":"p","notes":null,"placename":"Kuala Lumpur, Federal Territory of Kuala Lumpur, Malaysia","id":9761,"name":"origin","lat":"3.139003","lon":"101.686855","hops":{"incoming":[],"outgoing":[{"transport_id":null,"id":"6921","transport_name":null,"transport_description":null,"transport_unit":null,"transport_co2_eq":null,"from_stop_id":"9761","from_stop_lat":"3.139003","from_stop_lon":"101.686855","from_stop_placename":"Kuala Lumpur, Federal Territory of Kuala Lumpur, Malaysia","to_stop_id":"9751","to_stop_name":"origin","to_stop_lat":"37.6922361","to_stop_lon":"-97.3375448","to_stop_placename":"Wichita, KS, USA","to_stop":{"id":"9751","name":"origin","lat":"37.6922361","lon":"-97.3375448","placename":"Wichita, KS, USA"},"from_stop":{"name":"origin","id":"9761","lat":"3.139003","lon":"101.686855","placename":"Kuala Lumpur, Federal Territory of Kuala Lumpur, Malaysia"}}]}}},"processes":[],"eols":[]},{"oid":"286","imid":"5699","linkid":"0","weight":"0","rawemissions":"0","emissions":"0","shipping":"10764.8","processemissions":"0","endoflifeemissions":"0","disposaltype":null,"disposalenergy":null,"disposalimpact":null,"disposalemissions":null,"description":"Fokker Elmo","name":"Wiring Components","id":"5699","stops":{"origin":{"related_to":"5699","part_or_object":"p","notes":null,"placename":"Langfang, Hebei, China","id":9762,"name":"origin","lat":"39.521017","lon":"116.706651","hops":{"incoming":[],"outgoing":[{"transport_id":null,"id":"6922","transport_name":null,"transport_description":null,"transport_unit":null,"transport_co2_eq":null,"from_stop_id":"9762","from_stop_lat":"39.521017","from_stop_lon":"116.706651","from_stop_placename":"Langfang, Hebei, China","to_stop_id":"9751","to_stop_name":"origin","to_stop_lat":"37.6922361","to_stop_lon":"-97.3375448","to_stop_placename":"Wichita, KS, USA","to_stop":{"id":"9751","name":"origin","lat":"37.6922361","lon":"-97.3375448","placename":"Wichita, KS, USA"},"from_stop":{"name":"origin","id":"9762","lat":"39.521017","lon":"116.706651","placename":"Langfang, Hebei, China"}}]}}},"processes":[],"eols":[]},{"oid":"286","imid":"5700","linkid":"0","weight":"0","rawemissions":"0","emissions":"0","shipping":"1685.04","processemissions":"0","endoflifeemissions":"0","disposaltype":null,"disposalenergy":null,"disposalimpact":null,"disposalemissions":null,"description":"Messier Dowty","name":"Landing Gear","id":"5700","stops":{"origin":{"related_to":"5700","part_or_object":"p","notes":null,"placename":"Ajax, ON, Canada","id":9763,"name":"origin","lat":"43.85","lon":"-79.0166667","hops":{"incoming":[],"outgoing":[{"transport_id":null,"id":"6923","transport_name":null,"transport_description":null,"transport_unit":null,"transport_co2_eq":null,"from_stop_id":"9763","from_stop_lat":"43.85","from_stop_lon":"-79.0166667","from_stop_placename":"Ajax, ON, Canada","to_stop_id":"9751","to_stop_name":"origin","to_stop_lat":"37.6922361","to_stop_lon":"-97.3375448","to_stop_placename":"Wichita, KS, USA","to_stop":{"id":"9751","name":"origin","lat":"37.6922361","lon":"-97.3375448","placename":"Wichita, KS, USA"},"from_stop":{"name":"origin","id":"9763","lat":"43.85","lon":"-79.0166667","placename":"Ajax, ON, Canada"}}]}}},"processes":[],"eols":[]},{"oid":"286","imid":"5701","linkid":"0","weight":"0","rawemissions":"0","emissions":"0","shipping":"1019.67","processemissions":"0","endoflifeemissions":"0","disposaltype":null,"disposalenergy":null,"disposalimpact":null,"disposalemissions":null,"description":"PPG","name":"Windows","id":"5701","stops":{"origin":{"related_to":"5701","part_or_object":"p","notes":null,"placename":"Huntsville, AL, USA","id":9764,"name":"origin","lat":"34.7303688","lon":"-86.5861037","hops":{"incoming":[],"outgoing":[{"transport_id":null,"id":"6924","transport_name":null,"transport_description":null,"transport_unit":null,"transport_co2_eq":null,"from_stop_id":"9764","from_stop_lat":"34.7303688","from_stop_lon":"-86.5861037","from_stop_placename":"Huntsville, AL, USA","to_stop_id":"9751","to_stop_name":"origin","to_stop_lat":"37.6922361","to_stop_lon":"-97.3375448","to_stop_placename":"Wichita, KS, USA","to_stop":{"id":"9751","name":"origin","lat":"37.6922361","lon":"-97.3375448","placename":"Wichita, KS, USA"},"from_stop":{"name":"origin","id":"9764","lat":"34.7303688","lon":"-86.5861037","placename":"Huntsville, AL, USA"}}]}}},"processes":[],"eols":[]}],"user":{"name":"bdegrandis","id":"11968"}}}