{"287":{"oid":"287","type":"trace","flag":"","creator":"11968","name":"900XP","upc":"","imagelink":"","description":"","slug":"900XP","category":"","weight":"0","emissions":"0","embodied":"0","transport":"0","process":null,"endoflife":null,"shipping":"42425.8","lifetime":null,"usagetype":"","usageenergy":null,"usageemissions":null,"timecreated":"2011-01-11 08:42:21","timemodified":"2011-01-12 07:46:30","visibility":"private","showfootprint":"on","showembodied":"on","showtransport":"on","showprocess":"on","showendoflife":"on","showlastleg":"on","showuse":"on","showstats":"on","stops":{"origin":{"related_to":"287","part_or_object":"o","notes":null,"placename":"Wichita, KS, USA","id":"9787","category":"1","lat":"37.6922361","lon":"-97.3375448","name":"origin","hops":{"incoming":[{"transport_id":null,"id":"6944","transport_name":null,"transport_description":null,"transport_unit":null,"transport_co2_eq":null,"from_stop_id":"9788","from_stop_lat":"53.1914576","from_stop_lon":"-2.8950072","to_stop_id":"9787","to_stop_name":"origin","to_stop_lat":"37.6922361","placename":"Chester, Cheshire West and Chester, UK","to_stop_lon":"-97.3375448","to_stop":{"id":"9787","name":"origin","lat":"37.6922361","placename":"Wichita, KS, USA","lon":"-97.3375448"},"from_stop":{"name":"origin","id":"9788","lat":"53.1914576","lon":"-2.8950072","placename":"Chester, Cheshire West and Chester, UK"}},{"transport_id":null,"id":"6945","transport_name":null,"transport_description":null,"transport_unit":null,"transport_co2_eq":null,"from_stop_id":"9789","from_stop_lat":"51.879652","from_stop_lon":"-0.417558","to_stop_id":"9787","to_stop_name":"origin","to_stop_lat":"37.6922361","placename":"Luton, UK","to_stop_lon":"-97.3375448","to_stop":{"id":"9787","name":"origin","lat":"37.6922361","placename":"Wichita, KS, USA","lon":"-97.3375448"},"from_stop":{"name":"origin","id":"9789","lat":"51.879652","lon":"-0.417558","placename":"Luton, UK"}},{"transport_id":null,"id":"6946","transport_name":null,"transport_description":null,"transport_unit":null,"transport_co2_eq":null,"from_stop_id":"9790","from_stop_lat":"55.505808","from_stop_lon":"-4.6056696","to_stop_id":"9787","to_stop_name":"origin","to_stop_lat":"37.6922361","placename":"Prestwick, South Ayrshire KA9, UK","to_stop_lon":"-97.3375448","to_stop":{"id":"9787","name":"origin","lat":"37.6922361","placename":"Wichita, KS, USA","lon":"-97.3375448"},"from_stop":{"name":"origin","id":"9790","lat":"55.505808","lon":"-4.6056696","placename":"Prestwick, South Ayrshire KA9, UK"}},{"transport_id":null,"id":"6947","transport_name":null,"transport_description":null,"transport_unit":null,"transport_co2_eq":null,"from_stop_id":"9791","from_stop_lat":"54.6836384","from_stop_lon":"-1.8201775","to_stop_id":"9787","to_stop_name":"origin","to_stop_lat":"37.6922361","placename":"County Durham, UK","to_stop_lon":"-97.3375448","to_stop":{"id":"9787","name":"origin","lat":"37.6922361","placename":"Wichita, KS, USA","lon":"-97.3375448"},"from_stop":{"name":"origin","id":"9791","lat":"54.6836384","lon":"-1.8201775","placename":"County Durham, UK"}},{"transport_id":null,"id":"6948","transport_name":null,"transport_description":null,"transport_unit":null,"transport_co2_eq":null,"from_stop_id":"9792","from_stop_lat":"37.6922361","from_stop_lon":"-97.3375448","to_stop_id":"9787","to_stop_name":"origin","to_stop_lat":"37.6922361","placename":"Wichita, KS, USA","to_stop_lon":"-97.3375448","to_stop":{"id":"9787","name":"origin","lat":"37.6922361","placename":"Wichita, KS, USA","lon":"-97.3375448"},"from_stop":{"name":"origin","id":"9792","lat":"37.6922361","lon":"-97.3375448","placename":"Wichita, KS, USA"}},{"transport_id":null,"id":"6949","transport_name":null,"transport_description":null,"transport_unit":null,"transport_co2_eq":null,"from_stop_id":"9793","from_stop_lat":"33.4483771","from_stop_lon":"-112.0740373","to_stop_id":"9787","to_stop_name":"origin","to_stop_lat":"37.6922361","placename":"Phoenix, AZ, USA","to_stop_lon":"-97.3375448","to_stop":{"id":"9787","name":"origin","lat":"37.6922361","placename":"Wichita, KS, USA","lon":"-97.3375448"},"from_stop":{"name":"origin","id":"9793","lat":"33.4483771","lon":"-112.0740373","placename":"Phoenix, AZ, USA"}},{"transport_id":null,"id":"6950","transport_name":null,"transport_description":null,"transport_unit":null,"transport_co2_eq":null,"from_stop_id":"9794","from_stop_lat":"41.9625013","from_stop_lon":"-91.6918465","to_stop_id":"9787","to_stop_name":"origin","to_stop_lat":"37.6922361","placename":"Cedar Rapids, IA, USA","to_stop_lon":"-97.3375448","to_stop":{"id":"9787","name":"origin","lat":"37.6922361","placename":"Wichita, KS, USA","lon":"-97.3375448"},"from_stop":{"name":"origin","id":"9794","lat":"41.9625013","lon":"-91.6918465","placename":"Cedar Rapids, IA, USA"}},{"transport_id":null,"id":"6951","transport_name":null,"transport_description":null,"transport_unit":null,"transport_co2_eq":null,"from_stop_id":"9795","from_stop_lat":"43.85","from_stop_lon":"-79.0166667","to_stop_id":"9787","to_stop_name":"origin","to_stop_lat":"37.6922361","placename":"Ajax, ON, Canada","to_stop_lon":"-97.3375448","to_stop":{"id":"9787","name":"origin","lat":"37.6922361","placename":"Wichita, KS, USA","lon":"-97.3375448"},"from_stop":{"name":"origin","id":"9795","lat":"43.85","lon":"-79.0166667","placename":"Ajax, ON, Canada"}},{"transport_id":null,"id":"6952","transport_name":null,"transport_description":null,"transport_unit":null,"transport_co2_eq":null,"from_stop_id":"9796","from_stop_lat":"34.7464809","from_stop_lon":"-92.2895948","to_stop_id":"9787","to_stop_name":"origin","to_stop_lat":"37.6922361","placename":"Little Rock, AR, USA","to_stop_lon":"-97.3375448","to_stop":{"id":"9787","name":"origin","lat":"37.6922361","placename":"Wichita, KS, USA","lon":"-97.3375448"},"from_stop":{"name":"origin","id":"9796","lat":"34.7464809","lon":"-92.2895948","placename":"Little Rock, AR, USA"}},{"transport_id":null,"id":"6953","transport_name":null,"transport_description":null,"transport_unit":null,"transport_co2_eq":null,"from_stop_id":"9797","from_stop_lat":"36.204824","from_stop_lon":"138.252924","to_stop_id":"9787","to_stop_name":"origin","to_stop_lat":"37.6922361","placename":"Japan","to_stop_lon":"-97.3375448","to_stop":{"id":"9787","name":"origin","lat":"37.6922361","placename":"Wichita, KS, USA","lon":"-97.3375448"},"from_stop":{"name":"origin","id":"9797","lat":"36.204824","lon":"138.252924","placename":"Japan"}}],"outgoing":[]}}},"parts":[{"oid":"287","imid":"5624","linkid":"0","weight":"0","rawemissions":"0","emissions":"0","shipping":"7021.61","processemissions":"0","endoflifeemissions":"0","disposaltype":null,"disposalenergy":null,"disposalimpact":null,"disposalemissions":null,"description":"Airbus","name":"Fuselage, Wing, Aileron","id":"5624","stops":{"origin":{"related_to":"5624","part_or_object":"p","notes":null,"placename":"Chester, Cheshire West and Chester, UK","id":9788,"name":"origin","lat":"53.1914576","lon":"-2.8950072","hops":{"incoming":[],"outgoing":[{"transport_id":null,"id":"6944","transport_name":null,"transport_description":null,"transport_unit":null,"transport_co2_eq":null,"from_stop_id":"9788","from_stop_lat":"53.1914576","from_stop_lon":"-2.8950072","from_stop_placename":"Chester, Cheshire West and Chester, UK","to_stop_id":"9787","to_stop_name":"origin","to_stop_lat":"37.6922361","to_stop_lon":"-97.3375448","to_stop_placename":"Wichita, KS, USA","to_stop":{"id":"9787","name":"origin","lat":"37.6922361","lon":"-97.3375448","placename":"Wichita, KS, USA"},"from_stop":{"name":"origin","id":"9788","lat":"53.1914576","lon":"-2.8950072","placename":"Chester, Cheshire West and Chester, UK"}}]}}},"processes":[],"eols":[]},{"oid":"287","imid":"5627","linkid":"0","weight":"0","rawemissions":"0","emissions":"0","shipping":"7239","processemissions":"0","endoflifeemissions":"0","disposaltype":null,"disposalenergy":null,"disposalimpact":null,"disposalemissions":null,"description":"GKN","name":"Windshields","id":"5627","stops":{"origin":{"related_to":"5627","part_or_object":"p","notes":null,"placename":"Luton, UK","id":9789,"name":"origin","lat":"51.879652","lon":"-0.417558","hops":{"incoming":[],"outgoing":[{"transport_id":null,"id":"6945","transport_name":null,"transport_description":null,"transport_unit":null,"transport_co2_eq":null,"from_stop_id":"9789","from_stop_lat":"51.879652","from_stop_lon":"-0.417558","from_stop_placename":"Luton, UK","to_stop_id":"9787","to_stop_name":"origin","to_stop_lat":"37.6922361","to_stop_lon":"-97.3375448","to_stop_placename":"Wichita, KS, USA","to_stop":{"id":"9787","name":"origin","lat":"37.6922361","lon":"-97.3375448","placename":"Wichita, KS, USA"},"from_stop":{"name":"origin","id":"9789","lat":"51.879652","lon":"-0.417558","placename":"Luton, UK"}}]}}},"processes":[],"eols":[]},{"oid":"287","imid":"5628","linkid":"0","weight":"0","rawemissions":"0","emissions":"0","shipping":"6806.86","processemissions":"0","endoflifeemissions":"0","disposaltype":null,"disposalenergy":null,"disposalimpact":null,"disposalemissions":null,"description":"Spirit Aerostructures*","name":"Entry Door, Horizonal Tail, Elevator, Rudder, Flaps","id":"5628","stops":{"origin":{"related_to":"5628","part_or_object":"p","notes":null,"placename":"Prestwick, South Ayrshire KA9, UK","id":9790,"name":"origin","lat":"55.505808","lon":"-4.6056696","hops":{"incoming":[],"outgoing":[{"transport_id":null,"id":"6946","transport_name":null,"transport_description":null,"transport_unit":null,"transport_co2_eq":null,"from_stop_id":"9790","from_stop_lat":"55.505808","from_stop_lon":"-4.6056696","from_stop_placename":"Prestwick, South Ayrshire KA9, UK","to_stop_id":"9787","to_stop_name":"origin","to_stop_lat":"37.6922361","to_stop_lon":"-97.3375448","to_stop_placename":"Wichita, KS, USA","to_stop":{"id":"9787","name":"origin","lat":"37.6922361","lon":"-97.3375448","placename":"Wichita, KS, USA"},"from_stop":{"name":"origin","id":"9790","lat":"55.505808","lon":"-4.6056696","placename":"Prestwick, South Ayrshire KA9, UK"}}]}}},"processes":[],"eols":[]},{"oid":"287","imid":"5629","linkid":"0","weight":"0","rawemissions":"0","emissions":"0","shipping":"7006.48","processemissions":"0","endoflifeemissions":"0","disposaltype":null,"disposalenergy":null,"disposalimpact":null,"disposalemissions":null,"description":"CAV","name":"Overfin & Tailcone Assy","id":"5629","stops":{"origin":{"related_to":"5629","part_or_object":"p","notes":null,"placename":"County Durham, UK","id":9791,"name":"origin","lat":"54.6836384","lon":"-1.8201775","hops":{"incoming":[],"outgoing":[{"transport_id":null,"id":"6947","transport_name":null,"transport_description":null,"transport_unit":null,"transport_co2_eq":null,"from_stop_id":"9791","from_stop_lat":"54.6836384","from_stop_lon":"-1.8201775","from_stop_placename":"County Durham, UK","to_stop_id":"9787","to_stop_name":"origin","to_stop_lat":"37.6922361","to_stop_lon":"-97.3375448","to_stop_placename":"Wichita, KS, USA","to_stop":{"id":"9787","name":"origin","lat":"37.6922361","lon":"-97.3375448","placename":"Wichita, KS, USA"},"from_stop":{"name":"origin","id":"9791","lat":"54.6836384","lon":"-1.8201775","placename":"County Durham, UK"}}]}}},"processes":[],"eols":[]},{"oid":"287","imid":"5673","linkid":"0","weight":"0","rawemissions":"0","emissions":"0","shipping":"0","processemissions":"0","endoflifeemissions":"0","disposaltype":null,"disposalenergy":null,"disposalimpact":null,"disposalemissions":null,"description":"Hawker Beechcraft Plant 3","name":"Winglets","id":"5673","stops":{"origin":{"related_to":"5673","part_or_object":"p","notes":null,"placename":"Wichita, KS, USA","id":9792,"name":"origin","lat":"37.6922361","lon":"-97.3375448","hops":{"incoming":[],"outgoing":[{"transport_id":null,"id":"6948","transport_name":null,"transport_description":null,"transport_unit":null,"transport_co2_eq":null,"from_stop_id":"9792","from_stop_lat":"37.6922361","from_stop_lon":"-97.3375448","from_stop_placename":"Wichita, KS, USA","to_stop_id":"9787","to_stop_name":"origin","to_stop_lat":"37.6922361","to_stop_lon":"-97.3375448","to_stop_placename":"Wichita, KS, USA","to_stop":{"id":"9787","name":"origin","lat":"37.6922361","lon":"-97.3375448","placename":"Wichita, KS, USA"},"from_stop":{"name":"origin","id":"9792","lat":"37.6922361","lon":"-97.3375448","placename":"Wichita, KS, USA"}}]}}},"processes":[],"eols":[]},{"oid":"287","imid":"5674","linkid":"0","weight":"0","rawemissions":"0","emissions":"0","shipping":"1413.61","processemissions":"0","endoflifeemissions":"0","disposaltype":null,"disposalenergy":null,"disposalimpact":null,"disposalemissions":null,"description":"Honeywell","name":"Engines & APU","id":"5674","stops":{"origin":{"related_to":"5674","part_or_object":"p","notes":null,"placename":"Phoenix, AZ, USA","id":9793,"name":"origin","lat":"33.4483771","lon":"-112.0740373","hops":{"incoming":[],"outgoing":[{"transport_id":null,"id":"6949","transport_name":null,"transport_description":null,"transport_unit":null,"transport_co2_eq":null,"from_stop_id":"9793","from_stop_lat":"33.4483771","from_stop_lon":"-112.0740373","from_stop_placename":"Phoenix, AZ, USA","to_stop_id":"9787","to_stop_name":"origin","to_stop_lat":"37.6922361","to_stop_lon":"-97.3375448","to_stop_placename":"Wichita, KS, USA","to_stop":{"id":"9787","name":"origin","lat":"37.6922361","lon":"-97.3375448","placename":"Wichita, KS, USA"},"from_stop":{"name":"origin","id":"9793","lat":"33.4483771","lon":"-112.0740373","placename":"Phoenix, AZ, USA"}}]}}},"processes":[],"eols":[]},{"oid":"287","imid":"5675","linkid":"0","weight":"0","rawemissions":"0","emissions":"0","shipping":"677.14","processemissions":"0","endoflifeemissions":"0","disposaltype":null,"disposalenergy":null,"disposalimpact":null,"disposalemissions":null,"description":"Rockwell Collins","name":"Avionics","id":"5675","stops":{"origin":{"related_to":"5675","part_or_object":"p","notes":null,"placename":"Cedar Rapids, IA, USA","id":9794,"name":"origin","lat":"41.9625013","lon":"-91.6918465","hops":{"incoming":[],"outgoing":[{"transport_id":null,"id":"6950","transport_name":null,"transport_description":null,"transport_unit":null,"transport_co2_eq":null,"from_stop_id":"9794","from_stop_lat":"41.9625013","from_stop_lon":"-91.6918465","from_stop_placename":"Cedar Rapids, IA, USA","to_stop_id":"9787","to_stop_name":"origin","to_stop_lat":"37.6922361","to_stop_lon":"-97.3375448","to_stop_placename":"Wichita, KS, USA","to_stop":{"id":"9787","name":"origin","lat":"37.6922361","lon":"-97.3375448","placename":"Wichita, KS, USA"},"from_stop":{"name":"origin","id":"9794","lat":"41.9625013","lon":"-91.6918465","placename":"Cedar Rapids, IA, USA"}}]}}},"processes":[],"eols":[]},{"oid":"287","imid":"5676","linkid":"0","weight":"0","rawemissions":"0","emissions":"0","shipping":"1685.04","processemissions":"0","endoflifeemissions":"0","disposaltype":null,"disposalenergy":null,"disposalimpact":null,"disposalemissions":null,"description":"Messier Dowty (MDI)","name":"Landing Gear","id":"5676","stops":{"origin":{"related_to":"5676","part_or_object":"p","notes":null,"placename":"Ajax, ON, Canada","id":9795,"name":"origin","lat":"43.85","lon":"-79.0166667","hops":{"incoming":[],"outgoing":[{"transport_id":null,"id":"6951","transport_name":null,"transport_description":null,"transport_unit":null,"transport_co2_eq":null,"from_stop_id":"9795","from_stop_lat":"43.85","from_stop_lon":"-79.0166667","from_stop_placename":"Ajax, ON, Canada","to_stop_id":"9787","to_stop_name":"origin","to_stop_lat":"37.6922361","to_stop_lon":"-97.3375448","to_stop_placename":"Wichita, KS, USA","to_stop":{"id":"9787","name":"origin","lat":"37.6922361","lon":"-97.3375448","placename":"Wichita, KS, USA"},"from_stop":{"name":"origin","id":"9795","lat":"43.85","lon":"-79.0166667","placename":"Ajax, ON, Canada"}}]}}},"processes":[],"eols":[]},{"oid":"287","imid":"5677","linkid":"0","weight":"0","rawemissions":"0","emissions":"0","shipping":"559.37","processemissions":"0","endoflifeemissions":"0","disposaltype":null,"disposalenergy":null,"disposalimpact":null,"disposalemissions":null,"description":"Hawker Beechcraft, Little Rock, AR","name":"Interiors","id":"5677","stops":{"origin":{"related_to":"5677","part_or_object":"p","notes":null,"placename":"Little Rock, AR, USA","id":9796,"name":"origin","lat":"34.7464809","lon":"-92.2895948","hops":{"incoming":[],"outgoing":[{"transport_id":null,"id":"6952","transport_name":null,"transport_description":null,"transport_unit":null,"transport_co2_eq":null,"from_stop_id":"9796","from_stop_lat":"34.7464809","from_stop_lon":"-92.2895948","from_stop_placename":"Little Rock, AR, USA","to_stop_id":"9787","to_stop_name":"origin","to_stop_lat":"37.6922361","to_stop_lon":"-97.3375448","to_stop_placename":"Wichita, KS, USA","to_stop":{"id":"9787","name":"origin","lat":"37.6922361","lon":"-97.3375448","placename":"Wichita, KS, USA"},"from_stop":{"name":"origin","id":"9796","lat":"34.7464809","lon":"-92.2895948","placename":"Little Rock, AR, USA"}}]}}},"processes":[],"eols":[]},{"oid":"287","imid":"5702","linkid":"0","weight":"0","rawemissions":"0","emissions":"0","shipping":"10016.69","processemissions":"0","endoflifeemissions":"0","disposaltype":null,"disposalenergy":null,"disposalimpact":null,"disposalemissions":null,"description":"Fuji","name":"Flaps","id":"5702","stops":{"origin":{"related_to":"5702","part_or_object":"p","notes":null,"placename":"Japan","id":9797,"name":"origin","lat":"36.204824","lon":"138.252924","hops":{"incoming":[],"outgoing":[{"transport_id":null,"id":"6953","transport_name":null,"transport_description":null,"transport_unit":null,"transport_co2_eq":null,"from_stop_id":"9797","from_stop_lat":"36.204824","from_stop_lon":"138.252924","from_stop_placename":"Japan","to_stop_id":"9787","to_stop_name":"origin","to_stop_lat":"37.6922361","to_stop_lon":"-97.3375448","to_stop_placename":"Wichita, KS, USA","to_stop":{"id":"9787","name":"origin","lat":"37.6922361","lon":"-97.3375448","placename":"Wichita, KS, USA"},"from_stop":{"name":"origin","id":"9797","lat":"36.204824","lon":"138.252924","placename":"Japan"}}]}}},"processes":[],"eols":[]}],"user":{"name":"bdegrandis","id":"11968"}}}