{"296":{"oid":"296","type":"food","flag":"","creator":"6023","name":"Raw Granola","upc":"","imagelink":"","description":"","slug":"raw-granola","category":"","weight":"2.61","emissions":"0.10465","embodied":"0","transport":"0.10465","process":"0","endoflife":"0","shipping":"30643.5","lifetime":"0","usagetype":"","usageenergy":"0","usageemissions":"0","timecreated":"2010-02-24 22:03:35.48539","timemodified":"2009-09-07 08:51:46","visibility":"public","showfootprint":"on","showembodied":"on","showtransport":"on","showprocess":"on","showendoflife":"on","showlastleg":"on","showuse":"on","showstats":"on","stops":{"origin":{"related_to":"296","part_or_object":"o","notes":"","placename":"Portland, OR, USA","id":"67","category":"1","lat":"45.523875","lon":"-122.670399","name":"origin","hops":{"incoming":[{"transport_id":"8","id":"592","transport_name":"freighter, oceanic","transport_description":"","transport_unit":"kg km","transport_co2_eq":"0.004200","from_stop_id":"2815","from_stop_lat":"35.86166","from_stop_lon":"104.195397","to_stop_id":"67","to_stop_name":"origin","to_stop_lat":"45.523875","placename":"China","to_stop_lon":"-122.670399","to_stop":{"id":"67","name":"origin","lat":"45.523875","placename":"Portland, OR, USA","lon":"-122.670399"},"from_stop":{"name":"origin","id":"2815","lat":"35.86166","lon":"104.195397","placename":"China"}},{"transport_id":"3","id":"593","transport_name":"truck, 40 tons","transport_description":"truck, half full","transport_unit":"kg km","transport_co2_eq":"0.030900","from_stop_id":"2816","from_stop_lat":"37.09024","from_stop_lon":"-95.712891","to_stop_id":"67","to_stop_name":"origin","to_stop_lat":"45.523875","placename":"United States","to_stop_lon":"-122.670399","to_stop":{"id":"67","name":"origin","lat":"45.523875","placename":"Portland, OR, USA","lon":"-122.670399"},"from_stop":{"name":"origin","id":"2816","lat":"37.09024","lon":"-95.712891","placename":"United States"}},{"transport_id":"2","id":"594","transport_name":"truck, 16 tons","transport_description":"truck, half full","transport_unit":"kg km","transport_co2_eq":"0.020300","from_stop_id":"2817","from_stop_lat":"43.8041334","from_stop_lon":"-120.5542012","to_stop_id":"67","to_stop_name":"origin","to_stop_lat":"45.523875","placename":"Oregon, USA","to_stop_lon":"-122.670399","to_stop":{"id":"67","name":"origin","lat":"45.523875","placename":"Portland, OR, USA","lon":"-122.670399"},"from_stop":{"name":"origin","id":"2817","lat":"43.8041334","lon":"-120.5542012","placename":"Oregon, USA"}},{"transport_id":"3","id":"595","transport_name":"truck, 40 tons","transport_description":"truck, half full","transport_unit":"kg km","transport_co2_eq":"0.030900","from_stop_id":"2818","from_stop_lat":"37.09024","from_stop_lon":"-95.712891","to_stop_id":"67","to_stop_name":"origin","to_stop_lat":"45.523875","placename":"United States","to_stop_lon":"-122.670399","to_stop":{"id":"67","name":"origin","lat":"45.523875","placename":"Portland, OR, USA","lon":"-122.670399"},"from_stop":{"name":"origin","id":"2818","lat":"37.09024","lon":"-95.712891","placename":"United States"}},{"transport_id":"3","id":"596","transport_name":"truck, 40 tons","transport_description":"truck, half full","transport_unit":"kg km","transport_co2_eq":"0.030900","from_stop_id":"2819","from_stop_lat":"43.9695148","from_stop_lon":"-99.9018131","to_stop_id":"67","to_stop_name":"origin","to_stop_lat":"45.523875","placename":"South Dakota, USA","to_stop_lon":"-122.670399","to_stop":{"id":"67","name":"origin","lat":"45.523875","placename":"Portland, OR, USA","lon":"-122.670399"},"from_stop":{"name":"origin","id":"2819","lat":"43.9695148","lon":"-99.9018131","placename":"South Dakota, USA"}},{"transport_id":"2","id":"597","transport_name":"truck, 16 tons","transport_description":"truck, half full","transport_unit":"kg km","transport_co2_eq":"0.020300","from_stop_id":"2820","from_stop_lat":"43.8041334","from_stop_lon":"-120.5542012","to_stop_id":"67","to_stop_name":"origin","to_stop_lat":"45.523875","placename":"Oregon, USA","to_stop_lon":"-122.670399","to_stop":{"id":"67","name":"origin","lat":"45.523875","placename":"Portland, OR, USA","lon":"-122.670399"},"from_stop":{"name":"origin","id":"2820","lat":"43.8041334","lon":"-120.5542012","placename":"Oregon, USA"}},{"transport_id":"8","id":"598","transport_name":"freighter, oceanic","transport_description":"","transport_unit":"kg km","transport_co2_eq":"0.004200","from_stop_id":"2821","from_stop_lat":"7.873054","from_stop_lon":"80.771797","to_stop_id":"67","to_stop_name":"origin","to_stop_lat":"45.523875","placename":"Sri Lanka","to_stop_lon":"-122.670399","to_stop":{"id":"67","name":"origin","lat":"45.523875","placename":"Portland, OR, USA","lon":"-122.670399"},"from_stop":{"name":"origin","id":"2821","lat":"7.873054","lon":"80.771797","placename":"Sri Lanka"}}],"outgoing":[]}}},"parts":[{"oid":"296","imid":"733","linkid":"","weight":"1","rawemissions":"0","emissions":"0","shipping":"9828.63","processemissions":null,"endoflifeemissions":null,"disposaltype":null,"disposalenergy":null,"disposalimpact":null,"disposalemissions":null,"description":"","name":"Buckwheat Oat Groats","id":"733","stops":{"origin":{"related_to":"733","part_or_object":"p","notes":"","placename":"China","id":2815,"name":"origin","lat":"35.86166","lon":"104.195397","hops":{"incoming":[],"outgoing":[{"transport_id":"8","id":"592","transport_name":"freighter, oceanic","transport_description":"","transport_unit":"kg km","transport_co2_eq":"0.004200","from_stop_id":"2815","from_stop_lat":"35.86166","from_stop_lon":"104.195397","from_stop_placename":"China","to_stop_id":"67","to_stop_name":"origin","to_stop_lat":"45.523875","to_stop_lon":"-122.670399","to_stop_placename":"Portland, OR, USA","to_stop":{"id":"67","name":"origin","lat":"45.523875","lon":"-122.670399","placename":"Portland, OR, USA"},"from_stop":{"name":"origin","id":"2815","lat":"35.86166","lon":"104.195397","placename":"China"}}]}}},"processes":[],"eols":[]},{"oid":"296","imid":"734","linkid":"","weight":"0.5","rawemissions":"0","emissions":"0","shipping":"2427.18","processemissions":null,"endoflifeemissions":null,"disposaltype":null,"disposalenergy":null,"disposalimpact":null,"disposalemissions":null,"description":"","name":"Millet","id":"734","stops":{"origin":{"related_to":"734","part_or_object":"p","notes":"","placename":"United States","id":2816,"name":"origin","lat":"37.09024","lon":"-95.712891","hops":{"incoming":[],"outgoing":[{"transport_id":"3","id":"593","transport_name":"truck, 40 tons","transport_description":"truck, half full","transport_unit":"kg km","transport_co2_eq":"0.030900","from_stop_id":"2816","from_stop_lat":"37.09024","from_stop_lon":"-95.712891","from_stop_placename":"United States","to_stop_id":"67","to_stop_name":"origin","to_stop_lat":"45.523875","to_stop_lon":"-122.670399","to_stop_placename":"Portland, OR, USA","to_stop":{"id":"67","name":"origin","lat":"45.523875","lon":"-122.670399","placename":"Portland, OR, USA"},"from_stop":{"name":"origin","id":"2816","lat":"37.09024","lon":"-95.712891","placename":"United States"}}]}}},"processes":[],"eols":[]},{"oid":"296","imid":"735","linkid":"","weight":"0.5","rawemissions":"0","emissions":"0","shipping":"254.39","processemissions":null,"endoflifeemissions":null,"disposaltype":null,"disposalenergy":null,"disposalimpact":null,"disposalemissions":null,"description":"","name":"Hazelnuts\/Filberts","id":"735","stops":{"origin":{"related_to":"735","part_or_object":"p","notes":"","placename":"Oregon, USA","id":2817,"name":"origin","lat":"43.8041334","lon":"-120.5542012","hops":{"incoming":[],"outgoing":[{"transport_id":"2","id":"594","transport_name":"truck, 16 tons","transport_description":"truck, half full","transport_unit":"kg km","transport_co2_eq":"0.020300","from_stop_id":"2817","from_stop_lat":"43.8041334","from_stop_lon":"-120.5542012","from_stop_placename":"Oregon, USA","to_stop_id":"67","to_stop_name":"origin","to_stop_lat":"45.523875","to_stop_lon":"-122.670399","to_stop_placename":"Portland, OR, USA","to_stop":{"id":"67","name":"origin","lat":"45.523875","lon":"-122.670399","placename":"Portland, OR, USA"},"from_stop":{"name":"origin","id":"2817","lat":"43.8041334","lon":"-120.5542012","placename":"Oregon, USA"}}]}}},"processes":[],"eols":[]},{"oid":"296","imid":"736","linkid":"","weight":"0.1","rawemissions":"0","emissions":"0","shipping":"2427.18","processemissions":null,"endoflifeemissions":null,"disposaltype":null,"disposalenergy":null,"disposalimpact":null,"disposalemissions":null,"description":"","name":"Flax Seeds","id":"736","stops":{"origin":{"related_to":"736","part_or_object":"p","notes":"","placename":"United States","id":2818,"name":"origin","lat":"37.09024","lon":"-95.712891","hops":{"incoming":[],"outgoing":[{"transport_id":"3","id":"595","transport_name":"truck, 40 tons","transport_description":"truck, half full","transport_unit":"kg km","transport_co2_eq":"0.030900","from_stop_id":"2818","from_stop_lat":"37.09024","from_stop_lon":"-95.712891","from_stop_placename":"United States","to_stop_id":"67","to_stop_name":"origin","to_stop_lat":"45.523875","to_stop_lon":"-122.670399","to_stop_placename":"Portland, OR, USA","to_stop":{"id":"67","name":"origin","lat":"45.523875","lon":"-122.670399","placename":"Portland, OR, USA"},"from_stop":{"name":"origin","id":"2818","lat":"37.09024","lon":"-95.712891","placename":"United States"}}]}}},"processes":[],"eols":[]},{"oid":"296","imid":"737","linkid":"","weight":"0.25","rawemissions":"0","emissions":"0","shipping":"1802.33","processemissions":null,"endoflifeemissions":null,"disposaltype":null,"disposalenergy":null,"disposalimpact":null,"disposalemissions":null,"description":"","name":"Sunflower Seeds","id":"737","stops":{"origin":{"related_to":"737","part_or_object":"p","notes":"","placename":"South Dakota, USA","id":2819,"name":"origin","lat":"43.9695148","lon":"-99.9018131","hops":{"incoming":[],"outgoing":[{"transport_id":"3","id":"596","transport_name":"truck, 40 tons","transport_description":"truck, half full","transport_unit":"kg km","transport_co2_eq":"0.030900","from_stop_id":"2819","from_stop_lat":"43.9695148","from_stop_lon":"-99.9018131","from_stop_placename":"South Dakota, USA","to_stop_id":"67","to_stop_name":"origin","to_stop_lat":"45.523875","to_stop_lon":"-122.670399","to_stop_placename":"Portland, OR, USA","to_stop":{"id":"67","name":"origin","lat":"45.523875","lon":"-122.670399","placename":"Portland, OR, USA"},"from_stop":{"name":"origin","id":"2819","lat":"43.9695148","lon":"-99.9018131","placename":"South Dakota, USA"}}]}}},"processes":[],"eols":[]},{"oid":"296","imid":"738","linkid":"","weight":"0.25","rawemissions":"0","emissions":"0","shipping":"254.39","processemissions":null,"endoflifeemissions":null,"disposaltype":null,"disposalenergy":null,"disposalimpact":null,"disposalemissions":null,"description":"","name":"Honey","id":"738","stops":{"origin":{"related_to":"738","part_or_object":"p","notes":"","placename":"Oregon, USA","id":2820,"name":"origin","lat":"43.8041334","lon":"-120.5542012","hops":{"incoming":[],"outgoing":[{"transport_id":"2","id":"597","transport_name":"truck, 16 tons","transport_description":"truck, half full","transport_unit":"kg km","transport_co2_eq":"0.020300","from_stop_id":"2820","from_stop_lat":"43.8041334","from_stop_lon":"-120.5542012","from_stop_placename":"Oregon, USA","to_stop_id":"67","to_stop_name":"origin","to_stop_lat":"45.523875","to_stop_lon":"-122.670399","to_stop_placename":"Portland, OR, USA","to_stop":{"id":"67","name":"origin","lat":"45.523875","lon":"-122.670399","placename":"Portland, OR, USA"},"from_stop":{"name":"origin","id":"2820","lat":"43.8041334","lon":"-120.5542012","placename":"Oregon, USA"}}]}}},"processes":[],"eols":[]},{"oid":"296","imid":"739","linkid":"","weight":"0.01","rawemissions":"0","emissions":"0","shipping":"13649.4","processemissions":null,"endoflifeemissions":null,"disposaltype":null,"disposalenergy":null,"disposalimpact":null,"disposalemissions":null,"description":"","name":"Cinnamon","id":"739","stops":{"origin":{"related_to":"739","part_or_object":"p","notes":"","placename":"Sri Lanka","id":2821,"name":"origin","lat":"7.873054","lon":"80.771797","hops":{"incoming":[],"outgoing":[{"transport_id":"8","id":"598","transport_name":"freighter, oceanic","transport_description":"","transport_unit":"kg km","transport_co2_eq":"0.004200","from_stop_id":"2821","from_stop_lat":"7.873054","from_stop_lon":"80.771797","from_stop_placename":"Sri Lanka","to_stop_id":"67","to_stop_name":"origin","to_stop_lat":"45.523875","to_stop_lon":"-122.670399","to_stop_placename":"Portland, OR, USA","to_stop":{"id":"67","name":"origin","lat":"45.523875","lon":"-122.670399","placename":"Portland, OR, USA"},"from_stop":{"name":"origin","id":"2821","lat":"7.873054","lon":"80.771797","placename":"Sri Lanka"}}]}}},"processes":[],"eols":[]}],"user":{"name":"Katherine","id":"6023"}}}