{"3005":{"oid":"3005","type":"trace","flag":"","creator":"9010","name":"Eco Displayware Baskets","upc":"","imagelink":"","description":"Displayware Baskets used for Visual Merchandising in a Retail Environment","slug":"eco-displayware-baskets","category":"","weight":"0","emissions":"0","embodied":"0","transport":"0","process":"0","endoflife":"0","shipping":"38990.6","lifetime":null,"usagetype":"","usageenergy":null,"usageemissions":null,"timecreated":"2010-02-25 14:15:12.063584","timemodified":"2010-02-25 19:50:29","visibility":"public","showfootprint":"on","showembodied":"on","showtransport":"on","showprocess":"on","showendoflife":"on","showlastleg":"on","showuse":"on","showstats":"on","stops":{"origin":{"related_to":"3005","part_or_object":"o","notes":"","placename":"Indonesia","id":"759","category":"1","lat":"-0.789275","lon":"113.921327","name":"origin","hops":{"incoming":[{"transport_id":"17","id":"54","transport_name":"None Selected","transport_description":null,"transport_unit":"kg km","transport_co2_eq":"0.000000","from_stop_id":"2202","from_stop_lat":"-0.789275","from_stop_lon":"113.921327","to_stop_id":"759","to_stop_name":"origin","to_stop_lat":"-0.789275","placename":"Indonesia","to_stop_lon":"113.921327","to_stop":{"id":"759","name":"origin","lat":"-0.789275","placename":"Indonesia","lon":"113.921327"},"from_stop":{"name":"origin","id":"2202","lat":"-0.789275","lon":"113.921327","placename":"Indonesia"}},{"transport_id":"17","id":"106","transport_name":"None Selected","transport_description":null,"transport_unit":"kg km","transport_co2_eq":"0.000000","from_stop_id":"2258","from_stop_lat":"37.8043722","from_stop_lon":"-122.2708026","to_stop_id":"759","to_stop_name":"origin","to_stop_lat":"-0.789275","placename":"Oakland, CA, USA","to_stop_lon":"113.921327","to_stop":{"id":"759","name":"origin","lat":"-0.789275","placename":"Indonesia","lon":"113.921327"},"from_stop":{"name":"origin","id":"2258","lat":"37.8043722","lon":"-122.2708026","placename":"Oakland, CA, USA"}},{"transport_id":"17","id":"156","transport_name":"None Selected","transport_description":null,"transport_unit":"kg km","transport_co2_eq":"0.000000","from_stop_id":"2308","from_stop_lat":"37.8043722","from_stop_lon":"-122.2708026","to_stop_id":"759","to_stop_name":"origin","to_stop_lat":"-0.789275","placename":"Oakland, CA, USA","to_stop_lon":"113.921327","to_stop":{"id":"759","name":"origin","lat":"-0.789275","placename":"Indonesia","lon":"113.921327"},"from_stop":{"name":"origin","id":"2308","lat":"37.8043722","lon":"-122.2708026","placename":"Oakland, CA, USA"}}],"outgoing":[]}}},"parts":[{"oid":"3005","imid":"177","linkid":"","weight":"0","rawemissions":"0","emissions":"0","shipping":"0","processemissions":null,"endoflifeemissions":null,"disposaltype":null,"disposalenergy":null,"disposalimpact":null,"disposalemissions":null,"description":"Raw material similar to bamboo that grows very fast and can be harvested from sustainable areas. The products made from this material is weaved by hand. No power tools are used. Just labor.","name":"Rattan","id":"177","stops":{"origin":{"related_to":"177","part_or_object":"p","notes":"","placename":"Indonesia","id":2202,"name":"origin","lat":"-0.789275","lon":"113.921327","hops":{"incoming":[],"outgoing":[{"transport_id":"17","id":"54","transport_name":"None Selected","transport_description":null,"transport_unit":"kg km","transport_co2_eq":"0.000000","from_stop_id":"2202","from_stop_lat":"-0.789275","from_stop_lon":"113.921327","from_stop_placename":"Indonesia","to_stop_id":"759","to_stop_name":"origin","to_stop_lat":"-0.789275","to_stop_lon":"113.921327","to_stop_placename":"Indonesia","to_stop":{"id":"759","name":"origin","lat":"-0.789275","lon":"113.921327","placename":"Indonesia"},"from_stop":{"name":"origin","id":"2202","lat":"-0.789275","lon":"113.921327","placename":"Indonesia"}}]}}},"processes":[],"eols":[]},{"oid":"3005","imid":"178","linkid":"","weight":"0","rawemissions":"0","emissions":"0","shipping":"12981.76","processemissions":null,"endoflifeemissions":null,"disposaltype":null,"disposalenergy":null,"disposalimpact":null,"disposalemissions":null,"description":"Shipped via Ocean Freight to Oakland, CA","name":"Shipped to Oakland, CA","id":"178","stops":{"origin":{"related_to":"178","part_or_object":"p","notes":"","placename":"Oakland, CA, USA","id":2258,"name":"origin","lat":"37.8043722","lon":"-122.2708026","hops":{"incoming":[],"outgoing":[{"transport_id":"17","id":"106","transport_name":"None Selected","transport_description":null,"transport_unit":"kg km","transport_co2_eq":"0.000000","from_stop_id":"2258","from_stop_lat":"37.8043722","from_stop_lon":"-122.2708026","from_stop_placename":"Oakland, CA, USA","to_stop_id":"759","to_stop_name":"origin","to_stop_lat":"-0.789275","to_stop_lon":"113.921327","to_stop_placename":"Indonesia","to_stop":{"id":"759","name":"origin","lat":"-0.789275","lon":"113.921327","placename":"Indonesia"},"from_stop":{"name":"origin","id":"2258","lat":"37.8043722","lon":"-122.2708026","placename":"Oakland, CA, USA"}}]}}},"processes":[],"eols":[]},{"oid":"3005","imid":"181","linkid":"","weight":"0","rawemissions":"0","emissions":"0","shipping":"12981.76","processemissions":null,"endoflifeemissions":null,"disposaltype":null,"disposalenergy":null,"disposalimpact":null,"disposalemissions":null,"description":"Trucked to Milpitas, CA from Oakland.","name":"Delivered to Milpitas, CA","id":"181","stops":{"origin":{"related_to":"181","part_or_object":"p","notes":"","placename":"Oakland, CA, USA","id":2308,"name":"origin","lat":"37.8043722","lon":"-122.2708026","hops":{"incoming":[],"outgoing":[{"transport_id":"17","id":"156","transport_name":"None Selected","transport_description":null,"transport_unit":"kg km","transport_co2_eq":"0.000000","from_stop_id":"2308","from_stop_lat":"37.8043722","from_stop_lon":"-122.2708026","from_stop_placename":"Oakland, CA, USA","to_stop_id":"759","to_stop_name":"origin","to_stop_lat":"-0.789275","to_stop_lon":"113.921327","to_stop_placename":"Indonesia","to_stop":{"id":"759","name":"origin","lat":"-0.789275","lon":"113.921327","placename":"Indonesia"},"from_stop":{"name":"origin","id":"2308","lat":"37.8043722","lon":"-122.2708026","placename":"Oakland, CA, USA"}}]}}},"processes":[],"eols":[]}],"user":{"name":"ecodisplayware","id":"9010"}}}