{"3009":{"oid":"3009","type":"trace","flag":"","creator":"9014","name":"Whole Foods Midwest Region Local Farmers","upc":"","imagelink":"","description":"","slug":"whole-foods-midwest-region-local-farmers","category":"","weight":"0","emissions":"0","embodied":"0","transport":"0","process":"0","endoflife":"0","shipping":"4682.84","lifetime":null,"usagetype":"","usageenergy":null,"usageemissions":null,"timecreated":"2010-02-25 16:14:14.961039","timemodified":"2010-02-25 21:36:48","visibility":"public","showfootprint":"on","showembodied":"on","showtransport":"on","showprocess":"on","showendoflife":"on","showlastleg":"on","showuse":"on","showstats":"on","stops":{"origin":{"related_to":"3009","part_or_object":"o","notes":"","placename":"Chicago, IL, USA","id":"760","category":"1","lat":"41.850033","lon":"-87.6500523","name":"origin","hops":{"incoming":[{"transport_id":"17","id":"55","transport_name":"None Selected","transport_description":null,"transport_unit":"kg km","transport_co2_eq":"0.000000","from_stop_id":"2203","from_stop_lat":"41.364996","from_stop_lon":"-95.8580668","to_stop_id":"760","to_stop_name":"origin","to_stop_lat":"41.850033","placename":"Crescent, IA, USA","to_stop_lon":"-87.6500523","to_stop":{"id":"760","name":"origin","lat":"41.850033","placename":"Chicago, IL, USA","lon":"-87.6500523"},"from_stop":{"name":"origin","id":"2203","lat":"41.364996","lon":"-95.8580668","placename":"Crescent, IA, USA"}},{"transport_id":"17","id":"112","transport_name":"None Selected","transport_description":null,"transport_unit":"kg km","transport_co2_eq":"0.000000","from_stop_id":"2264","from_stop_lat":"42.2719866","from_stop_lon":"-85.0613739","to_stop_id":"760","to_stop_name":"origin","to_stop_lat":"41.850033","placename":"Ceresco, MI, USA","to_stop_lon":"-87.6500523","to_stop":{"id":"760","name":"origin","lat":"41.850033","placename":"Chicago, IL, USA","lon":"-87.6500523"},"from_stop":{"name":"origin","id":"2264","lat":"42.2719866","lon":"-85.0613739","placename":"Ceresco, MI, USA"}},{"transport_id":"17","id":"113","transport_name":"None Selected","transport_description":null,"transport_unit":"kg km","transport_co2_eq":"0.000000","from_stop_id":"2265","from_stop_lat":"42.3125355","from_stop_lon":"-86.1130794","to_stop_id":"760","to_stop_name":"origin","to_stop_lat":"41.850033","placename":"Bangor, MI, USA","to_stop_lon":"-87.6500523","to_stop":{"id":"760","name":"origin","lat":"41.850033","placename":"Chicago, IL, USA","lon":"-87.6500523"},"from_stop":{"name":"origin","id":"2265","lat":"42.3125355","lon":"-86.1130794","placename":"Bangor, MI, USA"}},{"transport_id":"17","id":"114","transport_name":"None Selected","transport_description":null,"transport_unit":"kg km","transport_co2_eq":"0.000000","from_stop_id":"2266","from_stop_lat":"38.5200504","from_stop_lon":"-89.9839935","to_stop_id":"760","to_stop_name":"origin","to_stop_lat":"41.850033","placename":"Belleville, IL, USA","to_stop_lon":"-87.6500523","to_stop":{"id":"760","name":"origin","lat":"41.850033","placename":"Chicago, IL, USA","lon":"-87.6500523"},"from_stop":{"name":"origin","id":"2266","lat":"38.5200504","lon":"-89.9839935","placename":"Belleville, IL, USA"}}],"outgoing":[]}}},"parts":[{"oid":"3009","imid":"191","linkid":"","weight":"0","rawemissions":"0","emissions":"0","shipping":"685.06","processemissions":null,"endoflifeemissions":null,"disposaltype":null,"disposalenergy":null,"disposalimpact":null,"disposalemissions":null,"description":"","name":"Blooms Organic","id":"191","stops":{"origin":{"related_to":"191","part_or_object":"p","notes":"","placename":"Crescent, IA, USA","id":2203,"name":"origin","lat":"41.364996","lon":"-95.8580668","hops":{"incoming":[],"outgoing":[{"transport_id":"17","id":"55","transport_name":"None Selected","transport_description":null,"transport_unit":"kg km","transport_co2_eq":"0.000000","from_stop_id":"2203","from_stop_lat":"41.364996","from_stop_lon":"-95.8580668","from_stop_placename":"Crescent, IA, USA","to_stop_id":"760","to_stop_name":"origin","to_stop_lat":"41.850033","to_stop_lon":"-87.6500523","to_stop_placename":"Chicago, IL, USA","to_stop":{"id":"760","name":"origin","lat":"41.850033","lon":"-87.6500523","placename":"Chicago, IL, USA"},"from_stop":{"name":"origin","id":"2203","lat":"41.364996","lon":"-95.8580668","placename":"Crescent, IA, USA"}}]}}},"processes":[],"eols":[]},{"oid":"3009","imid":"193","linkid":"","weight":"0","rawemissions":"0","emissions":"0","shipping":"219.03","processemissions":null,"endoflifeemissions":null,"disposaltype":null,"disposalenergy":null,"disposalimpact":null,"disposalemissions":null,"description":"","name":"Cinzori Farms","id":"193","stops":{"origin":{"related_to":"193","part_or_object":"p","notes":"","placename":"Ceresco, MI, USA","id":2264,"name":"origin","lat":"42.2719866","lon":"-85.0613739","hops":{"incoming":[],"outgoing":[{"transport_id":"17","id":"112","transport_name":"None Selected","transport_description":null,"transport_unit":"kg km","transport_co2_eq":"0.000000","from_stop_id":"2264","from_stop_lat":"42.2719866","from_stop_lon":"-85.0613739","from_stop_placename":"Ceresco, MI, USA","to_stop_id":"760","to_stop_name":"origin","to_stop_lat":"41.850033","to_stop_lon":"-87.6500523","to_stop_placename":"Chicago, IL, USA","to_stop":{"id":"760","name":"origin","lat":"41.850033","lon":"-87.6500523","placename":"Chicago, IL, USA"},"from_stop":{"name":"origin","id":"2264","lat":"42.2719866","lon":"-85.0613739","placename":"Ceresco, MI, USA"}}]}}},"processes":[],"eols":[]},{"oid":"3009","imid":"194","linkid":"","weight":"0","rawemissions":"0","emissions":"0","shipping":"137.02","processemissions":null,"endoflifeemissions":null,"disposaltype":null,"disposalenergy":null,"disposalimpact":null,"disposalemissions":null,"description":"","name":"Eaters Guild","id":"194","stops":{"origin":{"related_to":"194","part_or_object":"p","notes":"","placename":"Bangor, MI, USA","id":2265,"name":"origin","lat":"42.3125355","lon":"-86.1130794","hops":{"incoming":[],"outgoing":[{"transport_id":"17","id":"113","transport_name":"None Selected","transport_description":null,"transport_unit":"kg km","transport_co2_eq":"0.000000","from_stop_id":"2265","from_stop_lat":"42.3125355","from_stop_lon":"-86.1130794","from_stop_placename":"Bangor, MI, USA","to_stop_id":"760","to_stop_name":"origin","to_stop_lat":"41.850033","to_stop_lon":"-87.6500523","to_stop_placename":"Chicago, IL, USA","to_stop":{"id":"760","name":"origin","lat":"41.850033","lon":"-87.6500523","placename":"Chicago, IL, USA"},"from_stop":{"name":"origin","id":"2265","lat":"42.3125355","lon":"-86.1130794","placename":"Bangor, MI, USA"}}]}}},"processes":[],"eols":[]},{"oid":"3009","imid":"195","linkid":"","weight":"0","rawemissions":"0","emissions":"0","shipping":"420.44","processemissions":null,"endoflifeemissions":null,"disposaltype":null,"disposalenergy":null,"disposalimpact":null,"disposalemissions":null,"description":"","name":"Eckert Orchards","id":"195","stops":{"origin":{"related_to":"195","part_or_object":"p","notes":"","placename":"Belleville, IL, USA","id":2266,"name":"origin","lat":"38.5200504","lon":"-89.9839935","hops":{"incoming":[],"outgoing":[{"transport_id":"17","id":"114","transport_name":"None Selected","transport_description":null,"transport_unit":"kg km","transport_co2_eq":"0.000000","from_stop_id":"2266","from_stop_lat":"38.5200504","from_stop_lon":"-89.9839935","from_stop_placename":"Belleville, IL, USA","to_stop_id":"760","to_stop_name":"origin","to_stop_lat":"41.850033","to_stop_lon":"-87.6500523","to_stop_placename":"Chicago, IL, USA","to_stop":{"id":"760","name":"origin","lat":"41.850033","lon":"-87.6500523","placename":"Chicago, IL, USA"},"from_stop":{"name":"origin","id":"2266","lat":"38.5200504","lon":"-89.9839935","placename":"Belleville, IL, USA"}}]}}},"processes":[],"eols":[]}],"user":{"name":"wood0444","id":"9014"}}}