{"3017":{"oid":"3017","type":"object","flag":"","creator":"9044","name":"iPhone 2007","upc":"","imagelink":"","description":"<a href=\"http:\/\/www.shmula.com\/304\/the-apple-iphone-supply-chain\">http:\/\/www.shmula.com\/304\/the-apple-iphone-supply-chain<\/a>\n\nhttp:\/\/www2.electronicproducts.com\/Apple_iPhone-whatsinside_text-4.aspx","slug":"iphone-2007","category":"","weight":"0.1","emissions":"0.2046531375","embodied":"0","transport":"0.2046531375","process":"0","endoflife":"0","shipping":"34203.38","lifetime":null,"usagetype":"","usageenergy":null,"usageemissions":null,"timecreated":"2010-02-27 16:12:54.203747","timemodified":"2010-04-07 22:59:19","visibility":"public","showfootprint":"on","showembodied":"on","showtransport":"on","showprocess":"on","showendoflife":"on","showlastleg":"on","showuse":"on","showstats":"on","stops":{"origin":{"related_to":"3017","part_or_object":"o","notes":"","placename":"Shenzhen, Guangdong, China","id":"842","category":"1","lat":"22.543447","lon":"114.057818","name":"origin","hops":{"incoming":[{"transport_id":"15","id":"1677","transport_name":"air, freight, regional","transport_description":"freight within one continent","transport_unit":"kg km","transport_co2_eq":"0.787500","from_stop_id":"3937","from_stop_lat":"1.37804","from_stop_lon":"103.922781","to_stop_id":"842","to_stop_name":"origin","to_stop_lat":"22.543447","placename":"12 Tampines Industrial Avenue 5, Singapore 528759","to_stop_lon":"114.057818","to_stop":{"id":"842","name":"origin","lat":"22.543447","placename":"Shenzhen, Guangdong, China","lon":"114.057818"},"from_stop":{"name":"origin","id":"3937","lat":"1.37804","lon":"103.922781","placename":"12 Tampines Industrial Avenue 5, Singapore 528759"}},{"transport_id":"17","id":"1727","transport_name":"None Selected","transport_description":null,"transport_unit":"kg km","transport_co2_eq":"0.000000","from_stop_id":"3987","from_stop_lat":"1.2894066","from_stop_lon":"103.8499619","to_stop_id":"842","to_stop_name":"origin","to_stop_lat":"22.543447","placename":"Singapore","to_stop_lon":"114.057818","to_stop":{"id":"842","name":"origin","lat":"22.543447","placename":"Shenzhen, Guangdong, China","lon":"114.057818"},"from_stop":{"name":"origin","id":"3987","lat":"1.2894066","lon":"103.8499619","placename":"Singapore"}},{"transport_id":"17","id":"1728","transport_name":"None Selected","transport_description":null,"transport_unit":"kg km","transport_co2_eq":"0.000000","from_stop_id":"3988","from_stop_lat":"23.69781","from_stop_lon":"120.960515","to_stop_id":"842","to_stop_name":"origin","to_stop_lat":"22.543447","placename":"Taiwan","to_stop_lon":"114.057818","to_stop":{"id":"842","name":"origin","lat":"22.543447","placename":"Shenzhen, Guangdong, China","lon":"114.057818"},"from_stop":{"name":"origin","id":"3988","lat":"23.69781","lon":"120.960515","placename":"Taiwan"}},{"transport_id":"17","id":"1729","transport_name":"None Selected","transport_description":null,"transport_unit":"kg km","transport_co2_eq":"0.000000","from_stop_id":"3989","from_stop_lat":"23.69781","from_stop_lon":"120.960515","to_stop_id":"842","to_stop_name":"origin","to_stop_lat":"22.543447","placename":"Taiwan","to_stop_lon":"114.057818","to_stop":{"id":"842","name":"origin","lat":"22.543447","placename":"Shenzhen, Guangdong, China","lon":"114.057818"},"from_stop":{"name":"origin","id":"3989","lat":"23.69781","lon":"120.960515","placename":"Taiwan"}},{"transport_id":"17","id":"1730","transport_name":"None Selected","transport_description":null,"transport_unit":"kg km","transport_co2_eq":"0.000000","from_stop_id":"3990","from_stop_lat":"23.69781","from_stop_lon":"120.960515","to_stop_id":"842","to_stop_name":"origin","to_stop_lat":"22.543447","placename":"Taiwan","to_stop_lon":"114.057818","to_stop":{"id":"842","name":"origin","lat":"22.543447","placename":"Shenzhen, Guangdong, China","lon":"114.057818"},"from_stop":{"name":"origin","id":"3990","lat":"23.69781","lon":"120.960515","placename":"Taiwan"}},{"transport_id":"17","id":"1731","transport_name":"None Selected","transport_description":null,"transport_unit":"kg km","transport_co2_eq":"0.000000","from_stop_id":"3991","from_stop_lat":"0","from_stop_lon":"0","to_stop_id":"842","to_stop_name":"origin","to_stop_lat":"22.543447","placename":"Part Location","to_stop_lon":"114.057818","to_stop":{"id":"842","name":"origin","lat":"22.543447","placename":"Shenzhen, Guangdong, China","lon":"114.057818"},"from_stop":{"name":"origin","id":"3991","lat":"0","lon":"0","placename":"Part Location"}},{"transport_id":"17","id":"1732","transport_name":"None Selected","transport_description":null,"transport_unit":"kg km","transport_co2_eq":"0.000000","from_stop_id":"3992","from_stop_lat":"23.69781","from_stop_lon":"120.960515","to_stop_id":"842","to_stop_name":"origin","to_stop_lat":"22.543447","placename":"Taiwan","to_stop_lon":"114.057818","to_stop":{"id":"842","name":"origin","lat":"22.543447","placename":"Shenzhen, Guangdong, China","lon":"114.057818"},"from_stop":{"name":"origin","id":"3992","lat":"23.69781","lon":"120.960515","placename":"Taiwan"}},{"transport_id":"17","id":"1733","transport_name":"None Selected","transport_description":null,"transport_unit":"kg km","transport_co2_eq":"0.000000","from_stop_id":"3993","from_stop_lat":"23.69781","from_stop_lon":"120.960515","to_stop_id":"842","to_stop_name":"origin","to_stop_lat":"22.543447","placename":"Taiwan","to_stop_lon":"114.057818","to_stop":{"id":"842","name":"origin","lat":"22.543447","placename":"Shenzhen, Guangdong, China","lon":"114.057818"},"from_stop":{"name":"origin","id":"3993","lat":"23.69781","lon":"120.960515","placename":"Taiwan"}},{"transport_id":"17","id":"1734","transport_name":"None Selected","transport_description":null,"transport_unit":"kg km","transport_co2_eq":"0.000000","from_stop_id":"3994","from_stop_lat":"37.09024","from_stop_lon":"-95.712891","to_stop_id":"842","to_stop_name":"origin","to_stop_lat":"22.543447","placename":"United States","to_stop_lon":"114.057818","to_stop":{"id":"842","name":"origin","lat":"22.543447","placename":"Shenzhen, Guangdong, China","lon":"114.057818"},"from_stop":{"name":"origin","id":"3994","lat":"37.09024","lon":"-95.712891","placename":"United States"}},{"transport_id":"17","id":"1735","transport_name":"None Selected","transport_description":null,"transport_unit":"kg km","transport_co2_eq":"0.000000","from_stop_id":"3995","from_stop_lat":"37.09024","from_stop_lon":"-95.712891","to_stop_id":"842","to_stop_name":"origin","to_stop_lat":"22.543447","placename":"United States","to_stop_lon":"114.057818","to_stop":{"id":"842","name":"origin","lat":"22.543447","placename":"Shenzhen, Guangdong, China","lon":"114.057818"},"from_stop":{"name":"origin","id":"3995","lat":"37.09024","lon":"-95.712891","placename":"United States"}}],"outgoing":[]}}},"parts":[{"oid":"3017","imid":"2087","linkid":"","weight":"0.1","rawemissions":"0","emissions":"0","shipping":"2598.77","processemissions":null,"endoflifeemissions":null,"disposaltype":null,"disposalenergy":null,"disposalimpact":null,"disposalemissions":null,"description":"Samsung Siltronic Facility\n\nhttp:\/\/www.samsung.com\/us\/aboutsamsung\/news\/newsIrRead.do?news_ctgry=irnewsrelease&news_seq=9345","name":"CPU and Video Chip","id":"2087","stops":{"origin":{"related_to":"2087","part_or_object":"p","notes":"","placename":"12 Tampines Industrial Avenue 5, Singapore 528759","id":3937,"name":"origin","lat":"1.37804","lon":"103.922781","hops":{"incoming":[],"outgoing":[{"transport_id":"15","id":"1677","transport_name":"air, freight, regional","transport_description":"freight within one continent","transport_unit":"kg km","transport_co2_eq":"0.787500","from_stop_id":"3937","from_stop_lat":"1.37804","from_stop_lon":"103.922781","from_stop_placename":"12 Tampines Industrial Avenue 5, Singapore 528759","to_stop_id":"842","to_stop_name":"origin","to_stop_lat":"22.543447","to_stop_lon":"114.057818","to_stop_placename":"Shenzhen, Guangdong, China","to_stop":{"id":"842","name":"origin","lat":"22.543447","lon":"114.057818","placename":"Shenzhen, Guangdong, China"},"from_stop":{"name":"origin","id":"3937","lat":"1.37804","lon":"103.922781","placename":"12 Tampines Industrial Avenue 5, Singapore 528759"}}]}}},"processes":[],"eols":[]},{"oid":"3017","imid":"2143","linkid":"","weight":"0","rawemissions":"0","emissions":"0","shipping":"2611.1","processemissions":null,"endoflifeemissions":null,"disposaltype":null,"disposalenergy":null,"disposalimpact":null,"disposalemissions":null,"description":"Infineon","name":"Baseband Communications Hardware ","id":"2143","stops":{"origin":{"related_to":"2143","part_or_object":"p","notes":"","placename":"Singapore","id":3987,"name":"origin","lat":"1.2894066","lon":"103.8499619","hops":{"incoming":[],"outgoing":[{"transport_id":"17","id":"1727","transport_name":"None Selected","transport_description":null,"transport_unit":"kg km","transport_co2_eq":"0.000000","from_stop_id":"3987","from_stop_lat":"1.2894066","from_stop_lon":"103.8499619","from_stop_placename":"Singapore","to_stop_id":"842","to_stop_name":"origin","to_stop_lat":"22.543447","to_stop_lon":"114.057818","to_stop_placename":"Shenzhen, Guangdong, China","to_stop":{"id":"842","name":"origin","lat":"22.543447","lon":"114.057818","placename":"Shenzhen, Guangdong, China"},"from_stop":{"name":"origin","id":"3987","lat":"1.2894066","lon":"103.8499619","placename":"Singapore"}}]}}},"processes":[],"eols":[]},{"oid":"3017","imid":"2144","linkid":"","weight":"0","rawemissions":"0","emissions":"0","shipping":"718.19","processemissions":null,"endoflifeemissions":null,"disposaltype":null,"disposalenergy":null,"disposalimpact":null,"disposalemissions":null,"description":"Primax Electronics","name":"Digital Camera Modules","id":"2144","stops":{"origin":{"related_to":"2144","part_or_object":"p","notes":"","placename":"Taiwan","id":3988,"name":"origin","lat":"23.69781","lon":"120.960515","hops":{"incoming":[],"outgoing":[{"transport_id":"17","id":"1728","transport_name":"None Selected","transport_description":null,"transport_unit":"kg km","transport_co2_eq":"0.000000","from_stop_id":"3988","from_stop_lat":"23.69781","from_stop_lon":"120.960515","from_stop_placename":"Taiwan","to_stop_id":"842","to_stop_name":"origin","to_stop_lat":"22.543447","to_stop_lon":"114.057818","to_stop_placename":"Shenzhen, Guangdong, China","to_stop":{"id":"842","name":"origin","lat":"22.543447","lon":"114.057818","placename":"Shenzhen, Guangdong, China"},"from_stop":{"name":"origin","id":"3988","lat":"23.69781","lon":"120.960515","placename":"Taiwan"}}]}}},"processes":[],"eols":[]},{"oid":"3017","imid":"2145","linkid":"","weight":"0","rawemissions":"0","emissions":"0","shipping":"718.19","processemissions":null,"endoflifeemissions":null,"disposaltype":null,"disposalenergy":null,"disposalimpact":null,"disposalemissions":null,"description":"Foxconn","name":"Internal Circuitry","id":"2145","stops":{"origin":{"related_to":"2145","part_or_object":"p","notes":"","placename":"Taiwan","id":3989,"name":"origin","lat":"23.69781","lon":"120.960515","hops":{"incoming":[],"outgoing":[{"transport_id":"17","id":"1729","transport_name":"None Selected","transport_description":null,"transport_unit":"kg km","transport_co2_eq":"0.000000","from_stop_id":"3989","from_stop_lat":"23.69781","from_stop_lon":"120.960515","from_stop_placename":"Taiwan","to_stop_id":"842","to_stop_name":"origin","to_stop_lat":"22.543447","to_stop_lon":"114.057818","to_stop_placename":"Shenzhen, Guangdong, China","to_stop":{"id":"842","name":"origin","lat":"22.543447","lon":"114.057818","placename":"Shenzhen, Guangdong, China"},"from_stop":{"name":"origin","id":"3989","lat":"23.69781","lon":"120.960515","placename":"Taiwan"}}]}}},"processes":[],"eols":[]},{"oid":"3017","imid":"2146","linkid":"","weight":"0","rawemissions":"0","emissions":"0","shipping":"718.19","processemissions":null,"endoflifeemissions":null,"disposaltype":null,"disposalenergy":null,"disposalimpact":null,"disposalemissions":null,"description":"Entery Industrial","name":"connectors","id":"2146","stops":{"origin":{"related_to":"2146","part_or_object":"p","notes":"","placename":"Taiwan","id":3990,"name":"origin","lat":"23.69781","lon":"120.960515","hops":{"incoming":[],"outgoing":[{"transport_id":"17","id":"1730","transport_name":"None Selected","transport_description":null,"transport_unit":"kg km","transport_co2_eq":"0.000000","from_stop_id":"3990","from_stop_lat":"23.69781","from_stop_lon":"120.960515","from_stop_placename":"Taiwan","to_stop_id":"842","to_stop_name":"origin","to_stop_lat":"22.543447","to_stop_lon":"114.057818","to_stop_placename":"Shenzhen, Guangdong, China","to_stop":{"id":"842","name":"origin","lat":"22.543447","lon":"114.057818","placename":"Shenzhen, Guangdong, China"},"from_stop":{"name":"origin","id":"3990","lat":"23.69781","lon":"120.960515","placename":"Taiwan"}}]}}},"processes":[],"eols":[]},{"oid":"3017","imid":"2147","linkid":"","weight":"0","rawemissions":"0","emissions":"0","shipping":"0","processemissions":null,"endoflifeemissions":null,"disposaltype":null,"disposalenergy":null,"disposalimpact":null,"disposalemissions":null,"description":"Cambridge Scilicon","name":"Bluetooth Chipset","id":"2147","stops":{"origin":{"related_to":"2147","part_or_object":"p","notes":"","placename":"Part Location","id":3991,"name":"origin","lat":"0","lon":"0","hops":{"incoming":[],"outgoing":[{"transport_id":"17","id":"1731","transport_name":"None Selected","transport_description":null,"transport_unit":"kg km","transport_co2_eq":"0.000000","from_stop_id":"3991","from_stop_lat":"0","from_stop_lon":"0","from_stop_placename":"Part Location","to_stop_id":"842","to_stop_name":"origin","to_stop_lat":"22.543447","to_stop_lon":"114.057818","to_stop_placename":"Shenzhen, Guangdong, China","to_stop":{"id":"842","name":"origin","lat":"22.543447","lon":"114.057818","placename":"Shenzhen, Guangdong, China"},"from_stop":{"name":"origin","id":"3991","lat":"0","lon":"0","placename":"Part Location"}}]}}},"processes":[],"eols":[]},{"oid":"3017","imid":"2148","linkid":"","weight":"0","rawemissions":"0","emissions":"0","shipping":"718.19","processemissions":null,"endoflifeemissions":null,"disposaltype":null,"disposalenergy":null,"disposalimpact":null,"disposalemissions":null,"description":"Micron Technology","name":"Printed Circuit Board","id":"2148","stops":{"origin":{"related_to":"2148","part_or_object":"p","notes":"","placename":"Taiwan","id":3992,"name":"origin","lat":"23.69781","lon":"120.960515","hops":{"incoming":[],"outgoing":[{"transport_id":"17","id":"1732","transport_name":"None Selected","transport_description":null,"transport_unit":"kg km","transport_co2_eq":"0.000000","from_stop_id":"3992","from_stop_lat":"23.69781","from_stop_lon":"120.960515","from_stop_placename":"Taiwan","to_stop_id":"842","to_stop_name":"origin","to_stop_lat":"22.543447","to_stop_lon":"114.057818","to_stop_placename":"Shenzhen, Guangdong, China","to_stop":{"id":"842","name":"origin","lat":"22.543447","lon":"114.057818","placename":"Shenzhen, Guangdong, China"},"from_stop":{"name":"origin","id":"3992","lat":"23.69781","lon":"120.960515","placename":"Taiwan"}}]}}},"processes":[],"eols":[]},{"oid":"3017","imid":"2149","linkid":"","weight":"0","rawemissions":"0","emissions":"0","shipping":"718.19","processemissions":null,"endoflifeemissions":null,"disposaltype":null,"disposalenergy":null,"disposalimpact":null,"disposalemissions":null,"description":"Catcher Technology","name":"Stainless Metal Casting","id":"2149","stops":{"origin":{"related_to":"2149","part_or_object":"p","notes":"","placename":"Taiwan","id":3993,"name":"origin","lat":"23.69781","lon":"120.960515","hops":{"incoming":[],"outgoing":[{"transport_id":"17","id":"1733","transport_name":"None Selected","transport_description":null,"transport_unit":"kg km","transport_co2_eq":"0.000000","from_stop_id":"3993","from_stop_lat":"23.69781","from_stop_lon":"120.960515","from_stop_placename":"Taiwan","to_stop_id":"842","to_stop_name":"origin","to_stop_lat":"22.543447","to_stop_lon":"114.057818","to_stop_placename":"Shenzhen, Guangdong, China","to_stop":{"id":"842","name":"origin","lat":"22.543447","lon":"114.057818","placename":"Shenzhen, Guangdong, China"},"from_stop":{"name":"origin","id":"3993","lat":"23.69781","lon":"120.960515","placename":"Taiwan"}}]}}},"processes":[],"eols":[]},{"oid":"3017","imid":"2150","linkid":"","weight":"0","rawemissions":"0","emissions":"0","shipping":"12701.28","processemissions":null,"endoflifeemissions":null,"disposaltype":null,"disposalenergy":null,"disposalimpact":null,"disposalemissions":null,"description":"Broadcomm","name":"Touchscreen Controllers","id":"2150","stops":{"origin":{"related_to":"2150","part_or_object":"p","notes":"","placename":"United States","id":3994,"name":"origin","lat":"37.09024","lon":"-95.712891","hops":{"incoming":[],"outgoing":[{"transport_id":"17","id":"1734","transport_name":"None Selected","transport_description":null,"transport_unit":"kg km","transport_co2_eq":"0.000000","from_stop_id":"3994","from_stop_lat":"37.09024","from_stop_lon":"-95.712891","from_stop_placename":"United States","to_stop_id":"842","to_stop_name":"origin","to_stop_lat":"22.543447","to_stop_lon":"114.057818","to_stop_placename":"Shenzhen, Guangdong, China","to_stop":{"id":"842","name":"origin","lat":"22.543447","lon":"114.057818","placename":"Shenzhen, Guangdong, China"},"from_stop":{"name":"origin","id":"3994","lat":"37.09024","lon":"-95.712891","placename":"United States"}}]}}},"processes":[],"eols":[]},{"oid":"3017","imid":"2151","linkid":"","weight":"0","rawemissions":"0","emissions":"0","shipping":"12701.28","processemissions":null,"endoflifeemissions":null,"disposaltype":null,"disposalenergy":null,"disposalimpact":null,"disposalemissions":null,"description":"Marvell Industry","name":"802.11 parts","id":"2151","stops":{"origin":{"related_to":"2151","part_or_object":"p","notes":"","placename":"United States","id":3995,"name":"origin","lat":"37.09024","lon":"-95.712891","hops":{"incoming":[],"outgoing":[{"transport_id":"17","id":"1735","transport_name":"None Selected","transport_description":null,"transport_unit":"kg km","transport_co2_eq":"0.000000","from_stop_id":"3995","from_stop_lat":"37.09024","from_stop_lon":"-95.712891","from_stop_placename":"United States","to_stop_id":"842","to_stop_name":"origin","to_stop_lat":"22.543447","to_stop_lon":"114.057818","to_stop_placename":"Shenzhen, Guangdong, China","to_stop":{"id":"842","name":"origin","lat":"22.543447","lon":"114.057818","placename":"Shenzhen, Guangdong, China"},"from_stop":{"name":"origin","id":"3995","lat":"37.09024","lon":"-95.712891","placename":"United States"}}]}}},"processes":[],"eols":[]}],"user":{"name":"geng_tan","id":"9044"}}}