{"3022":{"oid":"3022","type":"object","flag":"","creator":"9046","name":"Bauer X:05 Ice Hockey Skate ","upc":"","imagelink":"","description":"Ice Hockey skate made by Nike Bauer ","slug":"bauer-x05-ice-hockey-skate-","category":"","weight":"0.884","emissions":"3.37662911156","embodied":"3.2918","transport":"0.08482911156","process":"0","endoflife":"0","shipping":"30768.36","lifetime":null,"usagetype":"","usageenergy":null,"usageemissions":null,"timecreated":"2010-02-27 21:23:17.876133","timemodified":"2010-02-28 04:34:37","visibility":"public","showfootprint":"on","showembodied":"on","showtransport":"on","showprocess":"on","showendoflife":"on","showlastleg":"on","showuse":"on","showstats":"on","stops":{"origin":{"related_to":"3022","part_or_object":"o","notes":"","placename":"Thailand","id":"772","category":"1","lat":"15.870032","lon":"100.992541","name":"origin","hops":{"incoming":[{"transport_id":"9","id":"10","transport_name":"container ship","transport_description":"moving boxcar size containers","transport_unit":"kg km","transport_co2_eq":"0.047800","from_stop_id":"2158","from_stop_lat":"33.8883487","from_stop_lon":"-118.3089624","to_stop_id":"772","to_stop_name":"origin","to_stop_lat":"15.870032","placename":"Gardena, CA, USA","to_stop_lon":"100.992541","to_stop":{"id":"772","name":"origin","lat":"15.870032","placename":"Thailand","lon":"100.992541"},"from_stop":{"name":"origin","id":"2158","lat":"33.8883487","lon":"-118.3089624","placename":"Gardena, CA, USA"}},{"transport_id":"15","id":"11","transport_name":"air, freight, regional","transport_description":"freight within one continent","transport_unit":"kg km","transport_co2_eq":"0.787500","from_stop_id":"2159","from_stop_lat":"35.86166","from_stop_lon":"104.195397","to_stop_id":"772","to_stop_name":"origin","to_stop_lat":"15.870032","placename":"China","to_stop_lon":"100.992541","to_stop":{"id":"772","name":"origin","lat":"15.870032","placename":"Thailand","lon":"100.992541"},"from_stop":{"name":"origin","id":"2159","lat":"35.86166","lon":"104.195397","placename":"China"}},{"transport_id":"8","id":"12","transport_name":"freighter, oceanic","transport_description":"","transport_unit":"kg km","transport_co2_eq":"0.004200","from_stop_id":"2160","from_stop_lat":"23.69781","from_stop_lon":"120.960515","to_stop_id":"772","to_stop_name":"origin","to_stop_lat":"15.870032","placename":"Taiwan","to_stop_lon":"100.992541","to_stop":{"id":"772","name":"origin","lat":"15.870032","placename":"Thailand","lon":"100.992541"},"from_stop":{"name":"origin","id":"2160","lat":"23.69781","lon":"120.960515","placename":"Taiwan"}},{"transport_id":"17","id":"13","transport_name":"None Selected","transport_description":null,"transport_unit":"kg km","transport_co2_eq":"0.000000","from_stop_id":"2161","from_stop_lat":"33.6411316","from_stop_lon":"-117.9186689","to_stop_id":"772","to_stop_name":"origin","to_stop_lat":"15.870032","placename":"Costa Mesa, CA, USA","to_stop_lon":"100.992541","to_stop":{"id":"772","name":"origin","lat":"15.870032","placename":"Thailand","lon":"100.992541"},"from_stop":{"name":"origin","id":"2161","lat":"33.6411316","lon":"-117.9186689","placename":"Costa Mesa, CA, USA"}}],"outgoing":[]}}},"parts":[{"oid":"3022","imid":"218","linkid":"parts\/steel-stainless","weight":"0.06","rawemissions":"6.63","emissions":"0.3978","shipping":"13106.42","processemissions":null,"endoflifeemissions":null,"disposaltype":null,"disposalenergy":null,"disposalimpact":null,"disposalemissions":null,"description":"skate blade ","name":"Steel, Stainless","id":"218","stops":{"origin":{"related_to":"218","part_or_object":"p","notes":"","placename":"Gardena, CA, USA","id":2158,"name":"origin","lat":"33.8883487","lon":"-118.3089624","hops":{"incoming":[],"outgoing":[{"transport_id":"9","id":"10","transport_name":"container ship","transport_description":"moving boxcar size containers","transport_unit":"kg km","transport_co2_eq":"0.047800","from_stop_id":"2158","from_stop_lat":"33.8883487","from_stop_lon":"-118.3089624","from_stop_placename":"Gardena, CA, USA","to_stop_id":"772","to_stop_name":"origin","to_stop_lat":"15.870032","to_stop_lon":"100.992541","to_stop_placename":"Thailand","to_stop":{"id":"772","name":"origin","lat":"15.870032","lon":"100.992541","placename":"Thailand"},"from_stop":{"name":"origin","id":"2158","lat":"33.8883487","lon":"-118.3089624","placename":"Gardena, CA, USA"}}]}}},"processes":[],"eols":[]},{"oid":"3022","imid":"219","linkid":"parts\/cotton-fabric","weight":"0.024","rawemissions":"3.5","emissions":"0.084","shipping":"2248.06","processemissions":null,"endoflifeemissions":null,"disposaltype":null,"disposalenergy":null,"disposalimpact":null,"disposalemissions":null,"description":"laces","name":"Cotton fabric","id":"219","stops":{"origin":{"related_to":"219","part_or_object":"p","notes":"","placename":"China","id":2159,"name":"origin","lat":"35.86166","lon":"104.195397","hops":{"incoming":[],"outgoing":[{"transport_id":"15","id":"11","transport_name":"air, freight, regional","transport_description":"freight within one continent","transport_unit":"kg km","transport_co2_eq":"0.787500","from_stop_id":"2159","from_stop_lat":"35.86166","from_stop_lon":"104.195397","from_stop_placename":"China","to_stop_id":"772","to_stop_name":"origin","to_stop_lat":"15.870032","to_stop_lon":"100.992541","to_stop_placename":"Thailand","to_stop":{"id":"772","name":"origin","lat":"15.870032","lon":"100.992541","placename":"Thailand"},"from_stop":{"name":"origin","id":"2159","lat":"35.86166","lon":"104.195397","placename":"China"}}]}}},"processes":[],"eols":[]},{"oid":"3022","imid":"220","linkid":"parts\/nylon-6","weight":"0.5","rawemissions":"4.6","emissions":"2.3","shipping":"2262.65","processemissions":null,"endoflifeemissions":null,"disposaltype":null,"disposalenergy":null,"disposalimpact":null,"disposalemissions":null,"description":"lining material","name":"Nylon 6","id":"220","stops":{"origin":{"related_to":"220","part_or_object":"p","notes":"","placename":"Taiwan","id":2160,"name":"origin","lat":"23.69781","lon":"120.960515","hops":{"incoming":[],"outgoing":[{"transport_id":"8","id":"12","transport_name":"freighter, oceanic","transport_description":"","transport_unit":"kg km","transport_co2_eq":"0.004200","from_stop_id":"2160","from_stop_lat":"23.69781","from_stop_lon":"120.960515","from_stop_placename":"Taiwan","to_stop_id":"772","to_stop_name":"origin","to_stop_lat":"15.870032","to_stop_lon":"100.992541","to_stop_placename":"Thailand","to_stop":{"id":"772","name":"origin","lat":"15.870032","lon":"100.992541","placename":"Thailand"},"from_stop":{"name":"origin","id":"2160","lat":"23.69781","lon":"120.960515","placename":"Taiwan"}}]}}},"processes":[],"eols":[]},{"oid":"3022","imid":"221","linkid":"parts\/pu-flexible-foam","weight":"0.3","rawemissions":"1.7","emissions":"0.51","shipping":"13151.23","processemissions":null,"endoflifeemissions":null,"disposaltype":null,"disposalenergy":null,"disposalimpact":null,"disposalemissions":null,"description":"ankle padding ","name":"PU, Flexible foam","id":"221","stops":{"origin":{"related_to":"221","part_or_object":"p","notes":"","placename":"Costa Mesa, CA, USA","id":2161,"name":"origin","lat":"33.6411316","lon":"-117.9186689","hops":{"incoming":[],"outgoing":[{"transport_id":"17","id":"13","transport_name":"None Selected","transport_description":null,"transport_unit":"kg km","transport_co2_eq":"0.000000","from_stop_id":"2161","from_stop_lat":"33.6411316","from_stop_lon":"-117.9186689","from_stop_placename":"Costa Mesa, CA, USA","to_stop_id":"772","to_stop_name":"origin","to_stop_lat":"15.870032","to_stop_lon":"100.992541","to_stop_placename":"Thailand","to_stop":{"id":"772","name":"origin","lat":"15.870032","lon":"100.992541","placename":"Thailand"},"from_stop":{"name":"origin","id":"2161","lat":"33.6411316","lon":"-117.9186689","placename":"Costa Mesa, CA, USA"}}]}}},"processes":[],"eols":[]}],"user":{"name":"android513","id":"9046"}}}