{"3073":{"oid":"3073","type":"food","flag":"","creator":"1","name":"Spaghetti alla Bolognese","upc":"","imagelink":"","description":"","slug":"spaghetti-alla-bolognese","category":"","weight":"1.13","emissions":"2.61985240541","embodied":"2.546","transport":"0.07385240541","process":"0","endoflife":"0","shipping":"9520.58","lifetime":null,"usagetype":"","usageenergy":null,"usageemissions":null,"timecreated":"2010-03-02 08:28:26.68642","timemodified":"2010-03-02 13:32:23","visibility":"private","showfootprint":"on","showembodied":"on","showtransport":"on","showprocess":"on","showendoflife":"on","showlastleg":"on","showuse":"on","showstats":"on","stops":{"origin":{"related_to":"3073","part_or_object":"o","notes":"","placename":"Cambridge, MA, USA","id":"815","category":"1","lat":"42.3750969","lon":"-71.1056079","name":"origin","hops":{"incoming":[{"transport_id":"3","id":"1606","transport_name":"truck, 40 tons","transport_description":"truck, half full","transport_unit":"kg km","transport_co2_eq":"0.030900","from_stop_id":"3866","from_stop_lat":"41.254006","from_stop_lon":"-95.999258","to_stop_id":"815","to_stop_name":"origin","to_stop_lat":"42.3750969","placename":"Omaha, NE, USA","to_stop_lon":"-71.1056079","to_stop":{"id":"815","name":"origin","lat":"42.3750969","placename":"Cambridge, MA, USA","lon":"-71.1056079"},"from_stop":{"name":"origin","id":"3866","lat":"41.254006","lon":"-95.999258","placename":"Omaha, NE, USA"}},{"transport_id":"3","id":"1607","transport_name":"truck, 40 tons","transport_description":"truck, half full","transport_unit":"kg km","transport_co2_eq":"0.030900","from_stop_id":"3867","from_stop_lat":"41.8780025","from_stop_lon":"-93.097702","to_stop_id":"815","to_stop_name":"origin","to_stop_lat":"42.3750969","placename":"Iowa, USA","to_stop_lon":"-71.1056079","to_stop":{"id":"815","name":"origin","lat":"42.3750969","placename":"Cambridge, MA, USA","lon":"-71.1056079"},"from_stop":{"name":"origin","id":"3867","lat":"41.8780025","lon":"-93.097702","placename":"Iowa, USA"}},{"transport_id":"3","id":"1608","transport_name":"truck, 40 tons","transport_description":"truck, half full","transport_unit":"kg km","transport_co2_eq":"0.030900","from_stop_id":"3868","from_stop_lat":"36.778261","from_stop_lon":"-119.4179324","to_stop_id":"815","to_stop_name":"origin","to_stop_lat":"42.3750969","placename":"California, USA","to_stop_lon":"-71.1056079","to_stop":{"id":"815","name":"origin","lat":"42.3750969","placename":"Cambridge, MA, USA","lon":"-71.1056079"},"from_stop":{"name":"origin","id":"3868","lat":"36.778261","lon":"-119.4179324","placename":"California, USA"}},{"transport_id":"3","id":"1609","transport_name":"truck, 40 tons","transport_description":"truck, half full","transport_unit":"kg km","transport_co2_eq":"0.030900","from_stop_id":"3869","from_stop_lat":"32.2176855","from_stop_lon":"-82.4134614","to_stop_id":"815","to_stop_name":"origin","to_stop_lat":"42.3750969","placename":"Vidalia, GA, USA","to_stop_lon":"-71.1056079","to_stop":{"id":"815","name":"origin","lat":"42.3750969","placename":"Cambridge, MA, USA","lon":"-71.1056079"},"from_stop":{"name":"origin","id":"3869","lat":"32.2176855","lon":"-82.4134614","placename":"Vidalia, GA, USA"}},{"transport_id":"1","id":"1610","transport_name":"van, 3.5 tons","transport_description":"delivery van, half full","transport_unit":"kg km","transport_co2_eq":"0.053400","from_stop_id":"3870","from_stop_lat":"42.3584308","from_stop_lon":"-71.0597732","to_stop_id":"815","to_stop_name":"origin","to_stop_lat":"42.3750969","placename":"Boston, MA, USA","to_stop_lon":"-71.1056079","to_stop":{"id":"815","name":"origin","lat":"42.3750969","placename":"Cambridge, MA, USA","lon":"-71.1056079"},"from_stop":{"name":"origin","id":"3870","lat":"42.3584308","lon":"-71.0597732","placename":"Boston, MA, USA"}}],"outgoing":[]}}},"parts":[{"oid":"3073","imid":"2043","linkid":"parts\/ground-beef-conventional","weight":"0.45","rawemissions":"4.37","emissions":"1.9665","shipping":"2061.73","processemissions":null,"endoflifeemissions":null,"disposaltype":null,"disposalenergy":null,"disposalimpact":null,"disposalemissions":null,"description":"","name":"Ground Beef, Conventional","id":"2043","stops":{"origin":{"related_to":"2043","part_or_object":"p","notes":"","placename":"Omaha, NE, USA","id":3866,"name":"origin","lat":"41.254006","lon":"-95.999258","hops":{"incoming":[],"outgoing":[{"transport_id":"3","id":"1606","transport_name":"truck, 40 tons","transport_description":"truck, half full","transport_unit":"kg km","transport_co2_eq":"0.030900","from_stop_id":"3866","from_stop_lat":"41.254006","from_stop_lon":"-95.999258","from_stop_placename":"Omaha, NE, USA","to_stop_id":"815","to_stop_name":"origin","to_stop_lat":"42.3750969","to_stop_lon":"-71.1056079","to_stop_placename":"Cambridge, MA, USA","to_stop":{"id":"815","name":"origin","lat":"42.3750969","lon":"-71.1056079","placename":"Cambridge, MA, USA"},"from_stop":{"name":"origin","id":"3866","lat":"41.254006","lon":"-95.999258","placename":"Omaha, NE, USA"}}]}}},"processes":[],"eols":[]},{"oid":"3073","imid":"2044","linkid":"parts\/wheat-flour-at-retail","weight":"0.45","rawemissions":"1.13","emissions":"0.5085","shipping":"1811.48","processemissions":null,"endoflifeemissions":null,"disposaltype":null,"disposalenergy":null,"disposalimpact":null,"disposalemissions":null,"description":"","name":"Wheat Flour at retail","id":"2044","stops":{"origin":{"related_to":"2044","part_or_object":"p","notes":"","placename":"Iowa, USA","id":3867,"name":"origin","lat":"41.8780025","lon":"-93.097702","hops":{"incoming":[],"outgoing":[{"transport_id":"3","id":"1607","transport_name":"truck, 40 tons","transport_description":"truck, half full","transport_unit":"kg km","transport_co2_eq":"0.030900","from_stop_id":"3867","from_stop_lat":"41.8780025","from_stop_lon":"-93.097702","from_stop_placename":"Iowa, USA","to_stop_id":"815","to_stop_name":"origin","to_stop_lat":"42.3750969","to_stop_lon":"-71.1056079","to_stop_placename":"Cambridge, MA, USA","to_stop":{"id":"815","name":"origin","lat":"42.3750969","lon":"-71.1056079","placename":"Cambridge, MA, USA"},"from_stop":{"name":"origin","id":"3867","lat":"41.8780025","lon":"-93.097702","placename":"Iowa, USA"}}]}}},"processes":[],"eols":[]},{"oid":"3073","imid":"2045","linkid":"","weight":"0.12","rawemissions":"0.5","emissions":"0.06","shipping":"4135.57","processemissions":null,"endoflifeemissions":null,"disposaltype":null,"disposalenergy":null,"disposalimpact":null,"disposalemissions":null,"description":"","name":"Carrots","id":"2045","stops":{"origin":{"related_to":"2045","part_or_object":"p","notes":"","placename":"California, USA","id":3868,"name":"origin","lat":"36.778261","lon":"-119.4179324","hops":{"incoming":[],"outgoing":[{"transport_id":"3","id":"1608","transport_name":"truck, 40 tons","transport_description":"truck, half full","transport_unit":"kg km","transport_co2_eq":"0.030900","from_stop_id":"3868","from_stop_lat":"36.778261","from_stop_lon":"-119.4179324","from_stop_placename":"California, USA","to_stop_id":"815","to_stop_name":"origin","to_stop_lat":"42.3750969","to_stop_lon":"-71.1056079","to_stop_placename":"Cambridge, MA, USA","to_stop":{"id":"815","name":"origin","lat":"42.3750969","lon":"-71.1056079","placename":"Cambridge, MA, USA"},"from_stop":{"name":"origin","id":"3868","lat":"36.778261","lon":"-119.4179324","placename":"California, USA"}}]}}},"processes":[],"eols":[]},{"oid":"3073","imid":"2046","linkid":"","weight":"0.1","rawemissions":"0.1","emissions":"0.01","shipping":"1507.6","processemissions":null,"endoflifeemissions":null,"disposaltype":null,"disposalenergy":null,"disposalimpact":null,"disposalemissions":null,"description":"","name":"Onions","id":"2046","stops":{"origin":{"related_to":"2046","part_or_object":"p","notes":"","placename":"Vidalia, GA, USA","id":3869,"name":"origin","lat":"32.2176855","lon":"-82.4134614","hops":{"incoming":[],"outgoing":[{"transport_id":"3","id":"1609","transport_name":"truck, 40 tons","transport_description":"truck, half full","transport_unit":"kg km","transport_co2_eq":"0.030900","from_stop_id":"3869","from_stop_lat":"32.2176855","from_stop_lon":"-82.4134614","from_stop_placename":"Vidalia, GA, USA","to_stop_id":"815","to_stop_name":"origin","to_stop_lat":"42.3750969","to_stop_lon":"-71.1056079","to_stop_placename":"Cambridge, MA, USA","to_stop":{"id":"815","name":"origin","lat":"42.3750969","lon":"-71.1056079","placename":"Cambridge, MA, USA"},"from_stop":{"name":"origin","id":"3869","lat":"32.2176855","lon":"-82.4134614","placename":"Vidalia, GA, USA"}}]}}},"processes":[],"eols":[]},{"oid":"3073","imid":"2047","linkid":"","weight":"0.01","rawemissions":"0.1","emissions":"0.001","shipping":"4.2","processemissions":null,"endoflifeemissions":null,"disposaltype":null,"disposalenergy":null,"disposalimpact":null,"disposalemissions":null,"description":"","name":"Parsley","id":"2047","stops":{"origin":{"related_to":"2047","part_or_object":"p","notes":"","placename":"Boston, MA, USA","id":3870,"name":"origin","lat":"42.3584308","lon":"-71.0597732","hops":{"incoming":[],"outgoing":[{"transport_id":"1","id":"1610","transport_name":"van, 3.5 tons","transport_description":"delivery van, half full","transport_unit":"kg km","transport_co2_eq":"0.053400","from_stop_id":"3870","from_stop_lat":"42.3584308","from_stop_lon":"-71.0597732","from_stop_placename":"Boston, MA, USA","to_stop_id":"815","to_stop_name":"origin","to_stop_lat":"42.3750969","to_stop_lon":"-71.1056079","to_stop_placename":"Cambridge, MA, USA","to_stop":{"id":"815","name":"origin","lat":"42.3750969","lon":"-71.1056079","placename":"Cambridge, MA, USA"},"from_stop":{"name":"origin","id":"3870","lat":"42.3584308","lon":"-71.0597732","placename":"Boston, MA, USA"}}]}}},"processes":[],"eols":[]}],"user":{"name":"leo","id":"1"}}}