{"3075":{"oid":"3075","type":"trace","flag":"","creator":"7641","name":"Womans wool sweater","upc":"","imagelink":"","description":"Wool comes from Australia, and is shipped to China for production.  ","slug":"womans-wool-sweater","category":"","weight":"0","emissions":"0","embodied":"0","transport":"0","process":"0","endoflife":"0","shipping":"19143.04","lifetime":null,"usagetype":"","usageenergy":null,"usageemissions":null,"timecreated":"2010-03-02 09:28:08.168421","timemodified":"2010-03-02 14:40:47","visibility":"public","showfootprint":"on","showembodied":"on","showtransport":"on","showprocess":"on","showendoflife":"on","showlastleg":"on","showuse":"on","showstats":"on","stops":{"origin":{"related_to":"3075","part_or_object":"o","notes":"","placename":"China","id":"800","category":"1","lat":"35.86166","lon":"104.195397","name":"origin","hops":{"incoming":[{"transport_id":"17","id":"1611","transport_name":"None Selected","transport_description":null,"transport_unit":"kg km","transport_co2_eq":"0.000000","from_stop_id":"3871","from_stop_lat":"-25.274398","from_stop_lon":"133.775136","to_stop_id":"800","to_stop_name":"origin","to_stop_lat":"35.86166","placename":"Australia","to_stop_lon":"104.195397","to_stop":{"id":"800","name":"origin","lat":"35.86166","placename":"China","lon":"104.195397"},"from_stop":{"name":"origin","id":"3871","lat":"-25.274398","lon":"133.775136","placename":"Australia"}},{"transport_id":"17","id":"1612","transport_name":"None Selected","transport_description":null,"transport_unit":"kg km","transport_co2_eq":"0.000000","from_stop_id":"3872","from_stop_lat":"35.86166","from_stop_lon":"104.195397","to_stop_id":"800","to_stop_name":"origin","to_stop_lat":"35.86166","placename":"China","to_stop_lon":"104.195397","to_stop":{"id":"800","name":"origin","lat":"35.86166","placename":"China","lon":"104.195397"},"from_stop":{"name":"origin","id":"3872","lat":"35.86166","lon":"104.195397","placename":"China"}},{"transport_id":"17","id":"1613","transport_name":"None Selected","transport_description":null,"transport_unit":"kg km","transport_co2_eq":"0.000000","from_stop_id":"3873","from_stop_lat":"37.09024","from_stop_lon":"-95.712891","to_stop_id":"800","to_stop_name":"origin","to_stop_lat":"35.86166","placename":"United States","to_stop_lon":"104.195397","to_stop":{"id":"800","name":"origin","lat":"35.86166","placename":"China","lon":"104.195397"},"from_stop":{"name":"origin","id":"3873","lat":"37.09024","lon":"-95.712891","placename":"United States"}}],"outgoing":[]}}},"parts":[{"oid":"3075","imid":"2048","linkid":"","weight":"0","rawemissions":"0","emissions":"0","shipping":"7482.73","processemissions":null,"endoflifeemissions":null,"disposaltype":null,"disposalenergy":null,"disposalimpact":null,"disposalemissions":null,"description":"Wool Raw material (comes from):\n25% Australian \n18% China\n11% New Zeland\n3% Argentina ","name":"Wool - raw material","id":"2048","stops":{"origin":{"related_to":"2048","part_or_object":"p","notes":"","placename":"Australia","id":3871,"name":"origin","lat":"-25.274398","lon":"133.775136","hops":{"incoming":[],"outgoing":[{"transport_id":"17","id":"1611","transport_name":"None Selected","transport_description":null,"transport_unit":"kg km","transport_co2_eq":"0.000000","from_stop_id":"3871","from_stop_lat":"-25.274398","from_stop_lon":"133.775136","from_stop_placename":"Australia","to_stop_id":"800","to_stop_name":"origin","to_stop_lat":"35.86166","to_stop_lon":"104.195397","to_stop_placename":"China","to_stop":{"id":"800","name":"origin","lat":"35.86166","lon":"104.195397","placename":"China"},"from_stop":{"name":"origin","id":"3871","lat":"-25.274398","lon":"133.775136","placename":"Australia"}}]}}},"processes":[],"eols":[]},{"oid":"3075","imid":"2049","linkid":"","weight":"0","rawemissions":"0","emissions":"0","shipping":"0","processemissions":null,"endoflifeemissions":null,"disposaltype":null,"disposalenergy":null,"disposalimpact":null,"disposalemissions":null,"description":"Manufacturing includes many steps: \nFiber selection\nTopmaking\nSpinning\nKnitting\nWeaving ","name":"Manufactuing","id":"2049","stops":{"origin":{"related_to":"2049","part_or_object":"p","notes":"","placename":"China","id":3872,"name":"origin","lat":"35.86166","lon":"104.195397","hops":{"incoming":[],"outgoing":[{"transport_id":"17","id":"1612","transport_name":"None Selected","transport_description":null,"transport_unit":"kg km","transport_co2_eq":"0.000000","from_stop_id":"3872","from_stop_lat":"35.86166","from_stop_lon":"104.195397","from_stop_placename":"China","to_stop_id":"800","to_stop_name":"origin","to_stop_lat":"35.86166","to_stop_lon":"104.195397","to_stop_placename":"China","to_stop":{"id":"800","name":"origin","lat":"35.86166","lon":"104.195397","placename":"China"},"from_stop":{"name":"origin","id":"3872","lat":"35.86166","lon":"104.195397","placename":"China"}}]}}},"processes":[],"eols":[]},{"oid":"3075","imid":"2050","linkid":"","weight":"0","rawemissions":"0","emissions":"0","shipping":"11660.31","processemissions":null,"endoflifeemissions":null,"disposaltype":null,"disposalenergy":null,"disposalimpact":null,"disposalemissions":null,"description":"","name":"Distribution & Retail","id":"2050","stops":{"origin":{"related_to":"2050","part_or_object":"p","notes":"","placename":"United States","id":3873,"name":"origin","lat":"37.09024","lon":"-95.712891","hops":{"incoming":[],"outgoing":[{"transport_id":"17","id":"1613","transport_name":"None Selected","transport_description":null,"transport_unit":"kg km","transport_co2_eq":"0.000000","from_stop_id":"3873","from_stop_lat":"37.09024","from_stop_lon":"-95.712891","from_stop_placename":"United States","to_stop_id":"800","to_stop_name":"origin","to_stop_lat":"35.86166","to_stop_lon":"104.195397","to_stop_placename":"China","to_stop":{"id":"800","name":"origin","lat":"35.86166","lon":"104.195397","placename":"China"},"from_stop":{"name":"origin","id":"3873","lat":"37.09024","lon":"-95.712891","placename":"United States"}}]}}},"processes":[],"eols":[]}],"user":{"name":"jenniferksharpe","id":"7641"}}}