{"3098":{"oid":"3098","type":"object","flag":"","creator":"9044","name":"Boeing 787 Dreamliner","upc":"","imagelink":"","description":"<a href=\"http:\/\/www.purchasing.com\/photo\/104\/104664-Boeing_787_DreamLiner.gif\">\nReference<\/a> ","slug":"boeing-787-2","category":"","weight":"166500","emissions":"15726.743456","embodied":"0","transport":"15726.743456","process":"0","endoflife":"0","shipping":"125146.62","lifetime":null,"usagetype":"","usageenergy":null,"usageemissions":null,"timecreated":"2010-03-04 00:08:01.726482","timemodified":"2010-03-17 01:44:32","visibility":"public","showfootprint":"on","showembodied":"on","showtransport":"on","showprocess":"on","showendoflife":"on","showlastleg":"on","showuse":"on","showstats":"on","stops":{"origin":{"related_to":"3098","part_or_object":"o","notes":"","placename":"Seattle, WA, USA","id":"880","category":"1","lat":"47.6062095","lon":"-122.3320708","name":"origin","hops":{"incoming":[{"transport_id":"8","id":"1647","transport_name":"freighter, oceanic","transport_description":"","transport_unit":"kg km","transport_co2_eq":"0.004200","from_stop_id":"3907","from_stop_lat":"37.6922361","from_stop_lon":"-97.3375448","to_stop_id":"880","to_stop_name":"origin","to_stop_lat":"47.6062095","placename":"Wichita, KS, USA","to_stop_lon":"-122.3320708","to_stop":{"id":"880","name":"origin","lat":"47.6062095","placename":"Seattle, WA, USA","lon":"-122.3320708"},"from_stop":{"name":"origin","id":"3907","lat":"37.6922361","lon":"-97.3375448","placename":"Wichita, KS, USA"}},{"transport_id":"8","id":"1649","transport_name":"freighter, oceanic","transport_description":"","transport_unit":"kg km","transport_co2_eq":"0.004200","from_stop_id":"3909","from_stop_lat":"35.1814464","from_stop_lon":"136.906398","to_stop_id":"880","to_stop_name":"origin","to_stop_lat":"47.6062095","placename":"Nagoya City, Aichi Prefecture, Japan","to_stop_lon":"-122.3320708","to_stop":{"id":"880","name":"origin","lat":"47.6062095","placename":"Seattle, WA, USA","lon":"-122.3320708"},"from_stop":{"name":"origin","id":"3909","lat":"35.1814464","lon":"136.906398","placename":"Nagoya City, Aichi Prefecture, Japan"}},{"transport_id":"8","id":"1650","transport_name":"freighter, oceanic","transport_description":"","transport_unit":"kg km","transport_co2_eq":"0.004200","from_stop_id":"3910","from_stop_lat":"37.566535","from_stop_lon":"126.9779692","to_stop_id":"880","to_stop_name":"origin","to_stop_lat":"47.6062095","placename":"Seoul, South Korea","to_stop_lon":"-122.3320708","to_stop":{"id":"880","name":"origin","lat":"47.6062095","placename":"Seattle, WA, USA","lon":"-122.3320708"},"from_stop":{"name":"origin","id":"3910","lat":"37.566535","lon":"126.9779692","placename":"Seoul, South Korea"}},{"transport_id":"8","id":"1651","transport_name":"freighter, oceanic","transport_description":"","transport_unit":"kg km","transport_co2_eq":"0.004200","from_stop_id":"3911","from_stop_lat":"36.565725","from_stop_lon":"139.8835651","to_stop_id":"880","to_stop_name":"origin","to_stop_lat":"47.6062095","placename":"Tochigi Prefecture, Japan","to_stop_lon":"-122.3320708","to_stop":{"id":"880","name":"origin","lat":"47.6062095","placename":"Seattle, WA, USA","lon":"-122.3320708"},"from_stop":{"name":"origin","id":"3911","lat":"36.565725","lon":"139.8835651","placename":"Tochigi Prefecture, Japan"}},{"transport_id":"8","id":"1654","transport_name":"freighter, oceanic","transport_description":"","transport_unit":"kg km","transport_co2_eq":"0.004200","from_stop_id":"3914","from_stop_lat":"35.1814464","from_stop_lon":"136.906398","to_stop_id":"880","to_stop_name":"origin","to_stop_lat":"47.6062095","placename":"Nagoya City, Aichi Prefecture, Japan","to_stop_lon":"-122.3320708","to_stop":{"id":"880","name":"origin","lat":"47.6062095","placename":"Seattle, WA, USA","lon":"-122.3320708"},"from_stop":{"name":"origin","id":"3914","lat":"35.1814464","lon":"136.906398","placename":"Nagoya City, Aichi Prefecture, Japan"}},{"transport_id":"8","id":"1655","transport_name":"freighter, oceanic","transport_description":"","transport_unit":"kg km","transport_co2_eq":"0.004200","from_stop_id":"3915","from_stop_lat":"35.1814464","from_stop_lon":"136.906398","to_stop_id":"880","to_stop_name":"origin","to_stop_lat":"47.6062095","placename":"Nagoya City, Aichi Prefecture, Japan","to_stop_lon":"-122.3320708","to_stop":{"id":"880","name":"origin","lat":"47.6062095","placename":"Seattle, WA, USA","lon":"-122.3320708"},"from_stop":{"name":"origin","id":"3915","lat":"35.1814464","lon":"136.906398","placename":"Nagoya City, Aichi Prefecture, Japan"}},{"transport_id":"8","id":"1657","transport_name":"freighter, oceanic","transport_description":"","transport_unit":"kg km","transport_co2_eq":"0.004200","from_stop_id":"3917","from_stop_lat":"41.87194","from_stop_lon":"12.56738","to_stop_id":"880","to_stop_name":"origin","to_stop_lat":"47.6062095","placename":"Italy","to_stop_lon":"-122.3320708","to_stop":{"id":"880","name":"origin","lat":"47.6062095","placename":"Seattle, WA, USA","lon":"-122.3320708"},"from_stop":{"name":"origin","id":"3917","lat":"41.87194","lon":"12.56738","placename":"Italy"}},{"transport_id":"10","id":"1658","transport_name":"train, freight","transport_description":"diesel freight locomotive","transport_unit":"kg km","transport_co2_eq":"0.005600","from_stop_id":"3918","from_stop_lat":"32.7765656","from_stop_lon":"-79.9309216","to_stop_id":"880","to_stop_name":"origin","to_stop_lat":"47.6062095","placename":"Charleston, SC, USA","to_stop_lon":"-122.3320708","to_stop":{"id":"880","name":"origin","lat":"47.6062095","placename":"Seattle, WA, USA","lon":"-122.3320708"},"from_stop":{"name":"origin","id":"3918","lat":"32.7765656","lon":"-79.9309216","placename":"Charleston, SC, USA"}},{"transport_id":"8","id":"1659","transport_name":"freighter, oceanic","transport_description":"","transport_unit":"kg km","transport_co2_eq":"0.004200","from_stop_id":"3919","from_stop_lat":"-25.274398","from_stop_lon":"133.775136","to_stop_id":"880","to_stop_name":"origin","to_stop_lat":"47.6062095","placename":"Australia","to_stop_lon":"-122.3320708","to_stop":{"id":"880","name":"origin","lat":"47.6062095","placename":"Seattle, WA, USA","lon":"-122.3320708"},"from_stop":{"name":"origin","id":"3919","lat":"-25.274398","lon":"133.775136","placename":"Australia"}},{"transport_id":"8","id":"1660","transport_name":"freighter, oceanic","transport_description":"","transport_unit":"kg km","transport_co2_eq":"0.004200","from_stop_id":"3920","from_stop_lat":"52.0190289","from_stop_lon":"-0.7704274","to_stop_id":"880","to_stop_name":"origin","to_stop_lat":"47.6062095","placename":"England, United Kingdom","to_stop_lon":"-122.3320708","to_stop":{"id":"880","name":"origin","lat":"47.6062095","placename":"Seattle, WA, USA","lon":"-122.3320708"},"from_stop":{"name":"origin","id":"3920","lat":"52.0190289","lon":"-0.7704274","placename":"England, United Kingdom"}},{"transport_id":"8","id":"1662","transport_name":"freighter, oceanic","transport_description":"","transport_unit":"kg km","transport_co2_eq":"0.004200","from_stop_id":"3922","from_stop_lat":"60.128161","from_stop_lon":"18.643501","to_stop_id":"880","to_stop_name":"origin","to_stop_lat":"47.6062095","placename":"Sweden","to_stop_lon":"-122.3320708","to_stop":{"id":"880","name":"origin","lat":"47.6062095","placename":"Seattle, WA, USA","lon":"-122.3320708"},"from_stop":{"name":"origin","id":"3922","lat":"60.128161","lon":"18.643501","placename":"Sweden"}},{"transport_id":"8","id":"1663","transport_name":"freighter, oceanic","transport_description":"","transport_unit":"kg km","transport_co2_eq":"0.004200","from_stop_id":"3923","from_stop_lat":"46.227638","from_stop_lon":"2.213749","to_stop_id":"880","to_stop_name":"origin","to_stop_lat":"47.6062095","placename":"France","to_stop_lon":"-122.3320708","to_stop":{"id":"880","name":"origin","lat":"47.6062095","placename":"Seattle, WA, USA","lon":"-122.3320708"},"from_stop":{"name":"origin","id":"3923","lat":"46.227638","lon":"2.213749","placename":"France"}},{"transport_id":"10","id":"1664","transport_name":"train, freight","transport_description":"diesel freight locomotive","transport_unit":"kg km","transport_co2_eq":"0.005600","from_stop_id":"3924","from_stop_lat":"39.2561691","from_stop_lon":"-84.417997","to_stop_id":"880","to_stop_name":"origin","to_stop_lat":"47.6062095","placename":"Evendale, OH, USA","to_stop_lon":"-122.3320708","to_stop":{"id":"880","name":"origin","lat":"47.6062095","placename":"Seattle, WA, USA","lon":"-122.3320708"},"from_stop":{"name":"origin","id":"3924","lat":"39.2561691","lon":"-84.417997","placename":"Evendale, OH, USA"}},{"transport_id":"9","id":"1665","transport_name":"container ship","transport_description":"moving boxcar size containers","transport_unit":"kg km","transport_co2_eq":"0.047800","from_stop_id":"3925","from_stop_lat":"52.0190289","from_stop_lon":"-0.7704274","to_stop_id":"880","to_stop_name":"origin","to_stop_lat":"47.6062095","placename":"England, United Kingdom","to_stop_lon":"-122.3320708","to_stop":{"id":"880","name":"origin","lat":"47.6062095","placename":"Seattle, WA, USA","lon":"-122.3320708"},"from_stop":{"name":"origin","id":"3925","lat":"52.0190289","lon":"-0.7704274","placename":"England, United Kingdom"}},{"transport_id":"8","id":"1708","transport_name":"freighter, oceanic","transport_description":"","transport_unit":"kg km","transport_co2_eq":"0.004200","from_stop_id":"3968","from_stop_lat":"35.1814464","from_stop_lon":"136.906398","to_stop_id":"880","to_stop_name":"origin","to_stop_lat":"47.6062095","placename":"Nagoya City, Aichi Prefecture, Japan","to_stop_lon":"-122.3320708","to_stop":{"id":"880","name":"origin","lat":"47.6062095","placename":"Seattle, WA, USA","lon":"-122.3320708"},"from_stop":{"name":"origin","id":"3968","lat":"35.1814464","lon":"136.906398","placename":"Nagoya City, Aichi Prefecture, Japan"}},{"transport_id":"10","id":"1726","transport_name":"train, freight","transport_description":"diesel freight locomotive","transport_unit":"kg km","transport_co2_eq":"0.005600","from_stop_id":"3986","from_stop_lat":"36.1539816","from_stop_lon":"-95.992775","to_stop_id":"880","to_stop_name":"origin","to_stop_lat":"47.6062095","placename":"Tulsa, OK, USA","to_stop_lon":"-122.3320708","to_stop":{"id":"880","name":"origin","lat":"47.6062095","placename":"Seattle, WA, USA","lon":"-122.3320708"},"from_stop":{"name":"origin","id":"3986","lat":"36.1539816","lon":"-95.992775","placename":"Tulsa, OK, USA"}},{"transport_id":"10","id":"1736","transport_name":"train, freight","transport_description":"diesel freight locomotive","transport_unit":"kg km","transport_co2_eq":"0.005600","from_stop_id":"3996","from_stop_lat":"56.130366","from_stop_lon":"-106.346771","to_stop_id":"880","to_stop_name":"origin","to_stop_lat":"47.6062095","placename":"Canada","to_stop_lon":"-122.3320708","to_stop":{"id":"880","name":"origin","lat":"47.6062095","placename":"Seattle, WA, USA","lon":"-122.3320708"},"from_stop":{"name":"origin","id":"3996","lat":"56.130366","lon":"-106.346771","placename":"Canada"}},{"transport_id":"10","id":"1737","transport_name":"train, freight","transport_description":"diesel freight locomotive","transport_unit":"kg km","transport_co2_eq":"0.005600","from_stop_id":"3997","from_stop_lat":"32.6400541","from_stop_lon":"-117.0841955","to_stop_id":"880","to_stop_name":"origin","to_stop_lat":"47.6062095","placename":"Chula Vista, CA, USA","to_stop_lon":"-122.3320708","to_stop":{"id":"880","name":"origin","lat":"47.6062095","placename":"Seattle, WA, USA","lon":"-122.3320708"},"from_stop":{"name":"origin","id":"3997","lat":"32.6400541","lon":"-117.0841955","placename":"Chula Vista, CA, USA"}},{"transport_id":"9","id":"1738","transport_name":"container ship","transport_description":"moving boxcar size containers","transport_unit":"kg km","transport_co2_eq":"0.047800","from_stop_id":"3998","from_stop_lat":"41.87194","from_stop_lon":"12.56738","to_stop_id":"880","to_stop_name":"origin","to_stop_lat":"47.6062095","placename":"Italy","to_stop_lon":"-122.3320708","to_stop":{"id":"880","name":"origin","lat":"47.6062095","placename":"Seattle, WA, USA","lon":"-122.3320708"},"from_stop":{"name":"origin","id":"3998","lat":"41.87194","lon":"12.56738","placename":"Italy"}}],"outgoing":[]}}},"parts":[{"oid":"3098","imid":"2059","linkid":"","weight":"15000","rawemissions":"0","emissions":"0","shipping":"2310.47","processemissions":null,"endoflifeemissions":null,"disposaltype":null,"disposalenergy":null,"disposalimpact":null,"disposalemissions":null,"description":"Made by Spirit\n\nhttp:\/\/www.spiritaero.com\/","name":"Forward fuselage","id":"2059","stops":{"origin":{"related_to":"2059","part_or_object":"p","notes":"","placename":"Wichita, KS, USA","id":3907,"name":"origin","lat":"37.6922361","lon":"-97.3375448","hops":{"incoming":[],"outgoing":[{"transport_id":"8","id":"1647","transport_name":"freighter, oceanic","transport_description":"","transport_unit":"kg km","transport_co2_eq":"0.004200","from_stop_id":"3907","from_stop_lat":"37.6922361","from_stop_lon":"-97.3375448","from_stop_placename":"Wichita, KS, USA","to_stop_id":"880","to_stop_name":"origin","to_stop_lat":"47.6062095","to_stop_lon":"-122.3320708","to_stop_placename":"Seattle, WA, USA","to_stop":{"id":"880","name":"origin","lat":"47.6062095","lon":"-122.3320708","placename":"Seattle, WA, USA"},"from_stop":{"name":"origin","id":"3907","lat":"37.6922361","lon":"-97.3375448","placename":"Wichita, KS, USA"}}]}}},"processes":[],"eols":[]},{"oid":"3098","imid":"2060","linkid":"","weight":"10000","rawemissions":"0","emissions":"0","shipping":"7923.56","processemissions":null,"endoflifeemissions":null,"disposaltype":null,"disposalenergy":null,"disposalimpact":null,"disposalemissions":null,"description":"Made by Kawasaki\n\nhttp:\/\/www.khi.co.jp\/products\/aerospace\/index_e.html","name":"Forward fuselage","id":"2060","stops":{"origin":{"related_to":"2060","part_or_object":"p","notes":"","placename":"Nagoya City, Aichi Prefecture, Japan","id":3909,"name":"origin","lat":"35.1814464","lon":"136.906398","hops":{"incoming":[],"outgoing":[{"transport_id":"8","id":"1649","transport_name":"freighter, oceanic","transport_description":"","transport_unit":"kg km","transport_co2_eq":"0.004200","from_stop_id":"3909","from_stop_lat":"35.1814464","from_stop_lon":"136.906398","from_stop_placename":"Nagoya City, Aichi Prefecture, Japan","to_stop_id":"880","to_stop_name":"origin","to_stop_lat":"47.6062095","to_stop_lon":"-122.3320708","to_stop_placename":"Seattle, WA, USA","to_stop":{"id":"880","name":"origin","lat":"47.6062095","lon":"-122.3320708","placename":"Seattle, WA, USA"},"from_stop":{"name":"origin","id":"3909","lat":"35.1814464","lon":"136.906398","placename":"Nagoya City, Aichi Prefecture, Japan"}}]}}},"processes":[],"eols":[]},{"oid":"3098","imid":"2061","linkid":"","weight":"10000","rawemissions":"0","emissions":"0","shipping":"8331.57","processemissions":null,"endoflifeemissions":null,"disposaltype":null,"disposalenergy":null,"disposalimpact":null,"disposalemissions":null,"description":"Made by KAL-ASD\n\nhttp:\/\/www.boeing.com\/news\/releases\/2005\/q4\/nr_051020g.html","name":"Wingtips","id":"2061","stops":{"origin":{"related_to":"2061","part_or_object":"p","notes":"","placename":"Seoul, South Korea","id":3910,"name":"origin","lat":"37.566535","lon":"126.9779692","hops":{"incoming":[],"outgoing":[{"transport_id":"8","id":"1650","transport_name":"freighter, oceanic","transport_description":"","transport_unit":"kg km","transport_co2_eq":"0.004200","from_stop_id":"3910","from_stop_lat":"37.566535","from_stop_lon":"126.9779692","from_stop_placename":"Seoul, South Korea","to_stop_id":"880","to_stop_name":"origin","to_stop_lat":"47.6062095","to_stop_lon":"-122.3320708","to_stop_placename":"Seattle, WA, USA","to_stop":{"id":"880","name":"origin","lat":"47.6062095","lon":"-122.3320708","placename":"Seattle, WA, USA"},"from_stop":{"name":"origin","id":"3910","lat":"37.566535","lon":"126.9779692","placename":"Seoul, South Korea"}}]}}},"processes":[],"eols":[]},{"oid":"3098","imid":"2062","linkid":"","weight":"3000","rawemissions":"0","emissions":"0","shipping":"7624.51","processemissions":null,"endoflifeemissions":null,"disposaltype":null,"disposalenergy":null,"disposalimpact":null,"disposalemissions":null,"description":"Made by Fuji\n\nhttp:\/\/www.fatec.jp\/index_e.htm","name":"Center wing box","id":"2062","stops":{"origin":{"related_to":"2062","part_or_object":"p","notes":"","placename":"Tochigi Prefecture, Japan","id":3911,"name":"origin","lat":"36.565725","lon":"139.8835651","hops":{"incoming":[],"outgoing":[{"transport_id":"8","id":"1651","transport_name":"freighter, oceanic","transport_description":"","transport_unit":"kg km","transport_co2_eq":"0.004200","from_stop_id":"3911","from_stop_lat":"36.565725","from_stop_lon":"139.8835651","from_stop_placename":"Tochigi Prefecture, Japan","to_stop_id":"880","to_stop_name":"origin","to_stop_lat":"47.6062095","to_stop_lon":"-122.3320708","to_stop_placename":"Seattle, WA, USA","to_stop":{"id":"880","name":"origin","lat":"47.6062095","lon":"-122.3320708","placename":"Seattle, WA, USA"},"from_stop":{"name":"origin","id":"3911","lat":"36.565725","lon":"139.8835651","placename":"Tochigi Prefecture, Japan"}}]}}},"processes":[],"eols":[]},{"oid":"3098","imid":"2065","linkid":"","weight":"5000","rawemissions":"0","emissions":"0","shipping":"7923.56","processemissions":null,"endoflifeemissions":null,"disposaltype":null,"disposalenergy":null,"disposalimpact":null,"disposalemissions":null,"description":"Made by Kawasaki\n\nhttp:\/\/www.khi.co.jp\/products\/aerospace\/index_e.html","name":"Main Landing gear wheel well","id":"2065","stops":{"origin":{"related_to":"2065","part_or_object":"p","notes":"","placename":"Nagoya City, Aichi Prefecture, Japan","id":3914,"name":"origin","lat":"35.1814464","lon":"136.906398","hops":{"incoming":[],"outgoing":[{"transport_id":"8","id":"1654","transport_name":"freighter, oceanic","transport_description":"","transport_unit":"kg km","transport_co2_eq":"0.004200","from_stop_id":"3914","from_stop_lat":"35.1814464","from_stop_lon":"136.906398","from_stop_placename":"Nagoya City, Aichi Prefecture, Japan","to_stop_id":"880","to_stop_name":"origin","to_stop_lat":"47.6062095","to_stop_lon":"-122.3320708","to_stop_placename":"Seattle, WA, USA","to_stop":{"id":"880","name":"origin","lat":"47.6062095","lon":"-122.3320708","placename":"Seattle, WA, USA"},"from_stop":{"name":"origin","id":"3914","lat":"35.1814464","lon":"136.906398","placename":"Nagoya City, Aichi Prefecture, Japan"}}]}}},"processes":[],"eols":[]},{"oid":"3098","imid":"2066","linkid":"","weight":"3000","rawemissions":"0","emissions":"0","shipping":"7923.56","processemissions":null,"endoflifeemissions":null,"disposaltype":null,"disposalenergy":null,"disposalimpact":null,"disposalemissions":null,"description":"Made by kawasaki\n\nhttp:\/\/www.khi.co.jp\/products\/aerospace\/index_e.html","name":"Fixed trailing edge","id":"2066","stops":{"origin":{"related_to":"2066","part_or_object":"p","notes":"","placename":"Nagoya City, Aichi Prefecture, Japan","id":3915,"name":"origin","lat":"35.1814464","lon":"136.906398","hops":{"incoming":[],"outgoing":[{"transport_id":"8","id":"1655","transport_name":"freighter, oceanic","transport_description":"","transport_unit":"kg km","transport_co2_eq":"0.004200","from_stop_id":"3915","from_stop_lat":"35.1814464","from_stop_lon":"136.906398","from_stop_placename":"Nagoya City, Aichi Prefecture, Japan","to_stop_id":"880","to_stop_name":"origin","to_stop_lat":"47.6062095","to_stop_lon":"-122.3320708","to_stop_placename":"Seattle, WA, USA","to_stop":{"id":"880","name":"origin","lat":"47.6062095","lon":"-122.3320708","placename":"Seattle, WA, USA"},"from_stop":{"name":"origin","id":"3915","lat":"35.1814464","lon":"136.906398","placename":"Nagoya City, Aichi Prefecture, Japan"}}]}}},"processes":[],"eols":[]},{"oid":"3098","imid":"2068","linkid":"","weight":"5000","rawemissions":"0","emissions":"0","shipping":"9132.13","processemissions":null,"endoflifeemissions":null,"disposaltype":null,"disposalenergy":null,"disposalimpact":null,"disposalemissions":null,"description":"Made by Alenia\n\nwww.alenia-aeronautica.it","name":"Horizontal Stabilizer","id":"2068","stops":{"origin":{"related_to":"2068","part_or_object":"p","notes":"","placename":"Italy","id":3917,"name":"origin","lat":"41.87194","lon":"12.56738","hops":{"incoming":[],"outgoing":[{"transport_id":"8","id":"1657","transport_name":"freighter, oceanic","transport_description":"","transport_unit":"kg km","transport_co2_eq":"0.004200","from_stop_id":"3917","from_stop_lat":"41.87194","from_stop_lon":"12.56738","from_stop_placename":"Italy","to_stop_id":"880","to_stop_name":"origin","to_stop_lat":"47.6062095","to_stop_lon":"-122.3320708","to_stop_placename":"Seattle, WA, USA","to_stop":{"id":"880","name":"origin","lat":"47.6062095","lon":"-122.3320708","placename":"Seattle, WA, USA"},"from_stop":{"name":"origin","id":"3917","lat":"41.87194","lon":"12.56738","placename":"Italy"}}]}}},"processes":[],"eols":[]},{"oid":"3098","imid":"2069","linkid":"","weight":"15000","rawemissions":"0","emissions":"0","shipping":"3904.32","processemissions":null,"endoflifeemissions":null,"disposaltype":null,"disposalenergy":null,"disposalimpact":null,"disposalemissions":null,"description":"Made by Vought\n\nhttp:\/\/www.voughtaircraft.com\/","name":"Aft fuselage","id":"2069","stops":{"origin":{"related_to":"2069","part_or_object":"p","notes":"","placename":"Charleston, SC, USA","id":3918,"name":"origin","lat":"32.7765656","lon":"-79.9309216","hops":{"incoming":[],"outgoing":[{"transport_id":"10","id":"1658","transport_name":"train, freight","transport_description":"diesel freight locomotive","transport_unit":"kg km","transport_co2_eq":"0.005600","from_stop_id":"3918","from_stop_lat":"32.7765656","from_stop_lon":"-79.9309216","from_stop_placename":"Charleston, SC, USA","to_stop_id":"880","to_stop_name":"origin","to_stop_lat":"47.6062095","to_stop_lon":"-122.3320708","to_stop_placename":"Seattle, WA, USA","to_stop":{"id":"880","name":"origin","lat":"47.6062095","lon":"-122.3320708","placename":"Seattle, WA, USA"},"from_stop":{"name":"origin","id":"3918","lat":"32.7765656","lon":"-79.9309216","placename":"Charleston, SC, USA"}}]}}},"processes":[],"eols":[]},{"oid":"3098","imid":"2070","linkid":"","weight":"5000","rawemissions":"0","emissions":"0","shipping":"13079.73","processemissions":null,"endoflifeemissions":null,"disposaltype":null,"disposalenergy":null,"disposalimpact":null,"disposalemissions":null,"description":"Made by Boeing\n\nhttp:\/\/www.boeing.com.au\/Home.do;jsessionid=52AB3B3904480AF0D9493149C34748CF","name":"Movable trailing edge","id":"2070","stops":{"origin":{"related_to":"2070","part_or_object":"p","notes":"","placename":"Australia","id":3919,"name":"origin","lat":"-25.274398","lon":"133.775136","hops":{"incoming":[],"outgoing":[{"transport_id":"8","id":"1659","transport_name":"freighter, oceanic","transport_description":"","transport_unit":"kg km","transport_co2_eq":"0.004200","from_stop_id":"3919","from_stop_lat":"-25.274398","from_stop_lon":"133.775136","from_stop_placename":"Australia","to_stop_id":"880","to_stop_name":"origin","to_stop_lat":"47.6062095","to_stop_lon":"-122.3320708","to_stop_placename":"Seattle, WA, USA","to_stop":{"id":"880","name":"origin","lat":"47.6062095","lon":"-122.3320708","placename":"Seattle, WA, USA"},"from_stop":{"name":"origin","id":"3919","lat":"-25.274398","lon":"133.775136","placename":"Australia"}}]}}},"processes":[],"eols":[]},{"oid":"3098","imid":"2071","linkid":"","weight":"10000","rawemissions":"0","emissions":"0","shipping":"7636.05","processemissions":null,"endoflifeemissions":null,"disposaltype":null,"disposalenergy":null,"disposalimpact":null,"disposalemissions":null,"description":"Made by Messier-Dowty\n\nhttp:\/\/www.messier-dowty.com\/","name":"Landing gear","id":"2071","stops":{"origin":{"related_to":"2071","part_or_object":"p","notes":"","placename":"England, United Kingdom","id":3920,"name":"origin","lat":"52.0190289","lon":"-0.7704274","hops":{"incoming":[],"outgoing":[{"transport_id":"8","id":"1660","transport_name":"freighter, oceanic","transport_description":"","transport_unit":"kg km","transport_co2_eq":"0.004200","from_stop_id":"3920","from_stop_lat":"52.0190289","from_stop_lon":"-0.7704274","from_stop_placename":"England, United Kingdom","to_stop_id":"880","to_stop_name":"origin","to_stop_lat":"47.6062095","to_stop_lon":"-122.3320708","to_stop_placename":"Seattle, WA, USA","to_stop":{"id":"880","name":"origin","lat":"47.6062095","lon":"-122.3320708","placename":"Seattle, WA, USA"},"from_stop":{"name":"origin","id":"3920","lat":"52.0190289","lon":"-0.7704274","placename":"England, United Kingdom"}}]}}},"processes":[],"eols":[]},{"oid":"3098","imid":"2073","linkid":"","weight":"2000","rawemissions":"0","emissions":"0","shipping":"7535.82","processemissions":null,"endoflifeemissions":null,"disposaltype":null,"disposalenergy":null,"disposalimpact":null,"disposalemissions":null,"description":"Made by Saab\n\nhttp:\/\/www.highbeam.com\/doc\/1G1-137637485.html","name":"Cargo access doors","id":"2073","stops":{"origin":{"related_to":"2073","part_or_object":"p","notes":"","placename":"Sweden","id":3922,"name":"origin","lat":"60.128161","lon":"18.643501","hops":{"incoming":[],"outgoing":[{"transport_id":"8","id":"1662","transport_name":"freighter, oceanic","transport_description":"","transport_unit":"kg km","transport_co2_eq":"0.004200","from_stop_id":"3922","from_stop_lat":"60.128161","from_stop_lon":"18.643501","from_stop_placename":"Sweden","to_stop_id":"880","to_stop_name":"origin","to_stop_lat":"47.6062095","to_stop_lon":"-122.3320708","to_stop_placename":"Seattle, WA, USA","to_stop":{"id":"880","name":"origin","lat":"47.6062095","lon":"-122.3320708","placename":"Seattle, WA, USA"},"from_stop":{"name":"origin","id":"3922","lat":"60.128161","lon":"18.643501","placename":"Sweden"}}]}}},"processes":[],"eols":[]},{"oid":"3098","imid":"2074","linkid":"","weight":"2000","rawemissions":"0","emissions":"0","shipping":"8283","processemissions":null,"endoflifeemissions":null,"disposaltype":null,"disposalenergy":null,"disposalimpact":null,"disposalemissions":null,"description":"Made by Latecoere\n\nhttp:\/\/www.latecoere.fr\/eaerostruc_.html","name":"Passenger entry doors","id":"2074","stops":{"origin":{"related_to":"2074","part_or_object":"p","notes":"","placename":"France","id":3923,"name":"origin","lat":"46.227638","lon":"2.213749","hops":{"incoming":[],"outgoing":[{"transport_id":"8","id":"1663","transport_name":"freighter, oceanic","transport_description":"","transport_unit":"kg km","transport_co2_eq":"0.004200","from_stop_id":"3923","from_stop_lat":"46.227638","from_stop_lon":"2.213749","from_stop_placename":"France","to_stop_id":"880","to_stop_name":"origin","to_stop_lat":"47.6062095","to_stop_lon":"-122.3320708","to_stop_placename":"Seattle, WA, USA","to_stop":{"id":"880","name":"origin","lat":"47.6062095","lon":"-122.3320708","placename":"Seattle, WA, USA"},"from_stop":{"name":"origin","id":"3923","lat":"46.227638","lon":"2.213749","placename":"France"}}]}}},"processes":[],"eols":[]},{"oid":"3098","imid":"2075","linkid":"","weight":"10000","rawemissions":"0","emissions":"0","shipping":"3167.37","processemissions":null,"endoflifeemissions":null,"disposaltype":null,"disposalenergy":null,"disposalimpact":null,"disposalemissions":null,"description":"Made by GE\n\nhttp:\/\/www.geae.com\/","name":"Engines","id":"2075","stops":{"origin":{"related_to":"2075","part_or_object":"p","notes":"","placename":"Evendale, OH, USA","id":3924,"name":"origin","lat":"39.2561691","lon":"-84.417997","hops":{"incoming":[],"outgoing":[{"transport_id":"10","id":"1664","transport_name":"train, freight","transport_description":"diesel freight locomotive","transport_unit":"kg km","transport_co2_eq":"0.005600","from_stop_id":"3924","from_stop_lat":"39.2561691","from_stop_lon":"-84.417997","from_stop_placename":"Evendale, OH, USA","to_stop_id":"880","to_stop_name":"origin","to_stop_lat":"47.6062095","to_stop_lon":"-122.3320708","to_stop_placename":"Seattle, WA, USA","to_stop":{"id":"880","name":"origin","lat":"47.6062095","lon":"-122.3320708","placename":"Seattle, WA, USA"},"from_stop":{"name":"origin","id":"3924","lat":"39.2561691","lon":"-84.417997","placename":"Evendale, OH, USA"}}]}}},"processes":[],"eols":[]},{"oid":"3098","imid":"2076","linkid":"","weight":"10000","rawemissions":"0","emissions":"0","shipping":"7636.05","processemissions":null,"endoflifeemissions":null,"disposaltype":null,"disposalenergy":null,"disposalimpact":null,"disposalemissions":null,"description":"Made by Rolls-Royce\n\nhttp:\/\/www.rolls-royce.com\/civil\/index.jsp","name":"Engines","id":"2076","stops":{"origin":{"related_to":"2076","part_or_object":"p","notes":"","placename":"England, United Kingdom","id":3925,"name":"origin","lat":"52.0190289","lon":"-0.7704274","hops":{"incoming":[],"outgoing":[{"transport_id":"9","id":"1665","transport_name":"container ship","transport_description":"moving boxcar size containers","transport_unit":"kg km","transport_co2_eq":"0.047800","from_stop_id":"3925","from_stop_lat":"52.0190289","from_stop_lon":"-0.7704274","from_stop_placename":"England, United Kingdom","to_stop_id":"880","to_stop_name":"origin","to_stop_lat":"47.6062095","to_stop_lon":"-122.3320708","to_stop_placename":"Seattle, WA, USA","to_stop":{"id":"880","name":"origin","lat":"47.6062095","lon":"-122.3320708","placename":"Seattle, WA, USA"},"from_stop":{"name":"origin","id":"3925","lat":"52.0190289","lon":"-0.7704274","placename":"England, United Kingdom"}}]}}},"processes":[],"eols":[]},{"oid":"3098","imid":"2064","linkid":"","weight":"15000","rawemissions":"0","emissions":"0","shipping":"7923.56","processemissions":null,"endoflifeemissions":null,"disposaltype":null,"disposalenergy":null,"disposalimpact":null,"disposalemissions":null,"description":"Made by Mitsubishi\n\nhttp:\/\/www.mhi.co.jp\/en\/products\/air_index.html","name":"Wing","id":"2064","stops":{"origin":{"related_to":"2064","part_or_object":"p","notes":"","placename":"Nagoya City, Aichi Prefecture, Japan","id":3968,"name":"origin","lat":"35.1814464","lon":"136.906398","hops":{"incoming":[],"outgoing":[{"transport_id":"8","id":"1708","transport_name":"freighter, oceanic","transport_description":"","transport_unit":"kg km","transport_co2_eq":"0.004200","from_stop_id":"3968","from_stop_lat":"35.1814464","from_stop_lon":"136.906398","from_stop_placename":"Nagoya City, Aichi Prefecture, Japan","to_stop_id":"880","to_stop_name":"origin","to_stop_lat":"47.6062095","to_stop_lon":"-122.3320708","to_stop_placename":"Seattle, WA, USA","to_stop":{"id":"880","name":"origin","lat":"47.6062095","lon":"-122.3320708","placename":"Seattle, WA, USA"},"from_stop":{"name":"origin","id":"3968","lat":"35.1814464","lon":"136.906398","placename":"Nagoya City, Aichi Prefecture, Japan"}}]}}},"processes":[],"eols":[]},{"oid":"3098","imid":"2067","linkid":"","weight":"1500","rawemissions":"0","emissions":"0","shipping":"2509.79","processemissions":null,"endoflifeemissions":null,"disposaltype":null,"disposalenergy":null,"disposalimpact":null,"disposalemissions":null,"description":"Made by Spirit\n\nhttp:\/\/www.spiritaero.com\/","name":"Fixed and movable leading edge","id":"2067","stops":{"origin":{"related_to":"2067","part_or_object":"p","notes":"","placename":"Tulsa, OK, USA","id":3986,"name":"origin","lat":"36.1539816","lon":"-95.992775","hops":{"incoming":[],"outgoing":[{"transport_id":"10","id":"1726","transport_name":"train, freight","transport_description":"diesel freight locomotive","transport_unit":"kg km","transport_co2_eq":"0.005600","from_stop_id":"3986","from_stop_lat":"36.1539816","from_stop_lon":"-95.992775","from_stop_placename":"Tulsa, OK, USA","to_stop_id":"880","to_stop_name":"origin","to_stop_lat":"47.6062095","to_stop_lon":"-122.3320708","to_stop_placename":"Seattle, WA, USA","to_stop":{"id":"880","name":"origin","lat":"47.6062095","lon":"-122.3320708","placename":"Seattle, WA, USA"},"from_stop":{"name":"origin","id":"3986","lat":"36.1539816","lon":"-95.992775","placename":"Tulsa, OK, USA"}}]}}},"processes":[],"eols":[]},{"oid":"3098","imid":"2072","linkid":"","weight":"20000","rawemissions":"0","emissions":"0","shipping":"1445.62","processemissions":null,"endoflifeemissions":null,"disposaltype":null,"disposalenergy":null,"disposalimpact":null,"disposalemissions":null,"description":"Made by Boeing\n\nhttp:\/\/www.boeing.ca\/Home.do;jsessionid=4C52E95380F3D325B1005A0195192717","name":"Wing\/body fairing","id":"2072","stops":{"origin":{"related_to":"2072","part_or_object":"p","notes":"","placename":"Canada","id":3996,"name":"origin","lat":"56.130366","lon":"-106.346771","hops":{"incoming":[],"outgoing":[{"transport_id":"10","id":"1736","transport_name":"train, freight","transport_description":"diesel freight locomotive","transport_unit":"kg km","transport_co2_eq":"0.005600","from_stop_id":"3996","from_stop_lat":"56.130366","from_stop_lon":"-106.346771","from_stop_placename":"Canada","to_stop_id":"880","to_stop_name":"origin","to_stop_lat":"47.6062095","to_stop_lon":"-122.3320708","to_stop_placename":"Seattle, WA, USA","to_stop":{"id":"880","name":"origin","lat":"47.6062095","lon":"-122.3320708","placename":"Seattle, WA, USA"},"from_stop":{"name":"origin","id":"3996","lat":"56.130366","lon":"-106.346771","placename":"Canada"}}]}}},"processes":[],"eols":[]},{"oid":"3098","imid":"2077","linkid":"","weight":"5000","rawemissions":"0","emissions":"0","shipping":"1723.82","processemissions":null,"endoflifeemissions":null,"disposaltype":null,"disposalenergy":null,"disposalimpact":null,"disposalemissions":null,"description":"Made by Goodrich\n\nhttp:\/\/www.goodrich.com\/portal\/site\/grcom\/home","name":"Engine nacelles","id":"2077","stops":{"origin":{"related_to":"2077","part_or_object":"p","notes":"","placename":"Chula Vista, CA, USA","id":3997,"name":"origin","lat":"32.6400541","lon":"-117.0841955","hops":{"incoming":[],"outgoing":[{"transport_id":"10","id":"1737","transport_name":"train, freight","transport_description":"diesel freight locomotive","transport_unit":"kg km","transport_co2_eq":"0.005600","from_stop_id":"3997","from_stop_lat":"32.6400541","from_stop_lon":"-117.0841955","from_stop_placename":"Chula Vista, CA, USA","to_stop_id":"880","to_stop_name":"origin","to_stop_lat":"47.6062095","to_stop_lon":"-122.3320708","to_stop_placename":"Seattle, WA, USA","to_stop":{"id":"880","name":"origin","lat":"47.6062095","lon":"-122.3320708","placename":"Seattle, WA, USA"},"from_stop":{"name":"origin","id":"3997","lat":"32.6400541","lon":"-117.0841955","placename":"Chula Vista, CA, USA"}}]}}},"processes":[],"eols":[]},{"oid":"3098","imid":"2063","linkid":"","weight":"20000","rawemissions":"0","emissions":"0","shipping":"9132.13","processemissions":null,"endoflifeemissions":null,"disposaltype":null,"disposalenergy":null,"disposalimpact":null,"disposalemissions":null,"description":"Made by Alenia\n\nwww.alenia-aeronautica.it","name":"Center fuselage","id":"2063","stops":{"origin":{"related_to":"2063","part_or_object":"p","notes":"","placename":"Italy","id":3998,"name":"origin","lat":"41.87194","lon":"12.56738","hops":{"incoming":[],"outgoing":[{"transport_id":"9","id":"1738","transport_name":"container ship","transport_description":"moving boxcar size containers","transport_unit":"kg km","transport_co2_eq":"0.047800","from_stop_id":"3998","from_stop_lat":"41.87194","from_stop_lon":"12.56738","from_stop_placename":"Italy","to_stop_id":"880","to_stop_name":"origin","to_stop_lat":"47.6062095","to_stop_lon":"-122.3320708","to_stop_placename":"Seattle, WA, USA","to_stop":{"id":"880","name":"origin","lat":"47.6062095","lon":"-122.3320708","placename":"Seattle, WA, USA"},"from_stop":{"name":"origin","id":"3998","lat":"41.87194","lon":"12.56738","placename":"Italy"}}]}}},"processes":[],"eols":[]}],"user":{"name":"geng_tan","id":"9044"}}}