{"3120":{"oid":"3120","type":"food","flag":"","creator":"7512","name":"Qingdao Beer","upc":"","imagelink":"","description":"","slug":"qingdao-beer","category":"","weight":"0","emissions":"73.31","embodied":"73.31","transport":"0","process":"0","endoflife":"0","shipping":"0","lifetime":null,"usagetype":"","usageenergy":null,"usageemissions":null,"timecreated":"2010-03-05 03:39:48.396718","timemodified":"2010-03-10 05:17:29","visibility":"public","showfootprint":"on","showembodied":"on","showtransport":"on","showprocess":"on","showendoflife":"on","showlastleg":"on","showuse":"on","showstats":"on","stops":{"origin":{"related_to":"3120","part_or_object":"o","notes":"","placename":"????????","id":"875","category":"1","lat":"36.066348","lon":"120.382771","name":"origin","hops":{"incoming":[{"transport_id":"17","id":"2064","transport_name":"None Selected","transport_description":null,"transport_unit":"kg km","transport_co2_eq":"0.000000","from_stop_id":"4324","from_stop_lat":"0","from_stop_lon":"0","to_stop_id":"875","to_stop_name":"origin","to_stop_lat":"36.066348","placename":"Ingredient Source","to_stop_lon":"120.382771","to_stop":{"id":"875","name":"origin","lat":"36.066348","placename":"????????","lon":"120.382771"},"from_stop":{"name":"origin","id":"4324","lat":"0","lon":"0","placename":"Ingredient Source"}},{"transport_id":"17","id":"2065","transport_name":"None Selected","transport_description":null,"transport_unit":"kg km","transport_co2_eq":"0.000000","from_stop_id":"4325","from_stop_lat":"0","from_stop_lon":"0","to_stop_id":"875","to_stop_name":"origin","to_stop_lat":"36.066348","placename":"Ingredient Source","to_stop_lon":"120.382771","to_stop":{"id":"875","name":"origin","lat":"36.066348","placename":"????????","lon":"120.382771"},"from_stop":{"name":"origin","id":"4325","lat":"0","lon":"0","placename":"Ingredient Source"}},{"transport_id":"17","id":"1682","transport_name":"None Selected","transport_description":null,"transport_unit":"kg km","transport_co2_eq":"0.000000","from_stop_id":"3942","from_stop_lat":"0","from_stop_lon":"0","to_stop_id":"875","to_stop_name":"origin","to_stop_lat":"36.066348","placename":"Ingredient Source","to_stop_lon":"120.382771","to_stop":{"id":"875","name":"origin","lat":"36.066348","placename":"????????","lon":"120.382771"},"from_stop":{"name":"origin","id":"3942","lat":"0","lon":"0","placename":"Ingredient Source"}},{"transport_id":"17","id":"1683","transport_name":"None Selected","transport_description":null,"transport_unit":"kg km","transport_co2_eq":"0.000000","from_stop_id":"3943","from_stop_lat":"0","from_stop_lon":"0","to_stop_id":"875","to_stop_name":"origin","to_stop_lat":"36.066348","placename":"Ingredient Source","to_stop_lon":"120.382771","to_stop":{"id":"875","name":"origin","lat":"36.066348","placename":"????????","lon":"120.382771"},"from_stop":{"name":"origin","id":"3943","lat":"0","lon":"0","placename":"Ingredient Source"}},{"transport_id":"17","id":"1684","transport_name":"None Selected","transport_description":null,"transport_unit":"kg km","transport_co2_eq":"0.000000","from_stop_id":"3944","from_stop_lat":"0","from_stop_lon":"0","to_stop_id":"875","to_stop_name":"origin","to_stop_lat":"36.066348","placename":"Ingredient Source","to_stop_lon":"120.382771","to_stop":{"id":"875","name":"origin","lat":"36.066348","placename":"????????","lon":"120.382771"},"from_stop":{"name":"origin","id":"3944","lat":"0","lon":"0","placename":"Ingredient Source"}},{"transport_id":"17","id":"1685","transport_name":"None Selected","transport_description":null,"transport_unit":"kg km","transport_co2_eq":"0.000000","from_stop_id":"3945","from_stop_lat":"0","from_stop_lon":"0","to_stop_id":"875","to_stop_name":"origin","to_stop_lat":"36.066348","placename":"Ingredient Source","to_stop_lon":"120.382771","to_stop":{"id":"875","name":"origin","lat":"36.066348","placename":"????????","lon":"120.382771"},"from_stop":{"name":"origin","id":"3945","lat":"0","lon":"0","placename":"Ingredient Source"}},{"transport_id":"17","id":"1686","transport_name":"None Selected","transport_description":null,"transport_unit":"kg km","transport_co2_eq":"0.000000","from_stop_id":"3946","from_stop_lat":"0","from_stop_lon":"0","to_stop_id":"875","to_stop_name":"origin","to_stop_lat":"36.066348","placename":"Ingredient Source","to_stop_lon":"120.382771","to_stop":{"id":"875","name":"origin","lat":"36.066348","placename":"????????","lon":"120.382771"},"from_stop":{"name":"origin","id":"3946","lat":"0","lon":"0","placename":"Ingredient Source"}},{"transport_id":"17","id":"1687","transport_name":"None Selected","transport_description":null,"transport_unit":"kg km","transport_co2_eq":"0.000000","from_stop_id":"3947","from_stop_lat":"0","from_stop_lon":"0","to_stop_id":"875","to_stop_name":"origin","to_stop_lat":"36.066348","placename":"Ingredient Source","to_stop_lon":"120.382771","to_stop":{"id":"875","name":"origin","lat":"36.066348","placename":"????????","lon":"120.382771"},"from_stop":{"name":"origin","id":"3947","lat":"0","lon":"0","placename":"Ingredient Source"}},{"transport_id":"17","id":"1688","transport_name":"None Selected","transport_description":null,"transport_unit":"kg km","transport_co2_eq":"0.000000","from_stop_id":"3948","from_stop_lat":"0","from_stop_lon":"0","to_stop_id":"875","to_stop_name":"origin","to_stop_lat":"36.066348","placename":"Ingredient Source","to_stop_lon":"120.382771","to_stop":{"id":"875","name":"origin","lat":"36.066348","placename":"????????","lon":"120.382771"},"from_stop":{"name":"origin","id":"3948","lat":"0","lon":"0","placename":"Ingredient Source"}},{"transport_id":"17","id":"1689","transport_name":"None Selected","transport_description":null,"transport_unit":"kg km","transport_co2_eq":"0.000000","from_stop_id":"3949","from_stop_lat":"0","from_stop_lon":"0","to_stop_id":"875","to_stop_name":"origin","to_stop_lat":"36.066348","placename":"Ingredient Source","to_stop_lon":"120.382771","to_stop":{"id":"875","name":"origin","lat":"36.066348","placename":"????????","lon":"120.382771"},"from_stop":{"name":"origin","id":"3949","lat":"0","lon":"0","placename":"Ingredient Source"}},{"transport_id":"17","id":"1705","transport_name":"None Selected","transport_description":null,"transport_unit":"kg km","transport_co2_eq":"0.000000","from_stop_id":"3965","from_stop_lat":"0","from_stop_lon":"0","to_stop_id":"875","to_stop_name":"origin","to_stop_lat":"36.066348","placename":"Ingredient Source","to_stop_lon":"120.382771","to_stop":{"id":"875","name":"origin","lat":"36.066348","placename":"????????","lon":"120.382771"},"from_stop":{"name":"origin","id":"3965","lat":"0","lon":"0","placename":"Ingredient Source"}},{"transport_id":"17","id":"1706","transport_name":"None Selected","transport_description":null,"transport_unit":"kg km","transport_co2_eq":"0.000000","from_stop_id":"3966","from_stop_lat":"0","from_stop_lon":"0","to_stop_id":"875","to_stop_name":"origin","to_stop_lat":"36.066348","placename":"Ingredient Source","to_stop_lon":"120.382771","to_stop":{"id":"875","name":"origin","lat":"36.066348","placename":"????????","lon":"120.382771"},"from_stop":{"name":"origin","id":"3966","lat":"0","lon":"0","placename":"Ingredient Source"}},{"transport_id":"17","id":"1707","transport_name":"None Selected","transport_description":null,"transport_unit":"kg km","transport_co2_eq":"0.000000","from_stop_id":"3967","from_stop_lat":"0","from_stop_lon":"0","to_stop_id":"875","to_stop_name":"origin","to_stop_lat":"36.066348","placename":"Ingredient Source","to_stop_lon":"120.382771","to_stop":{"id":"875","name":"origin","lat":"36.066348","placename":"????????","lon":"120.382771"},"from_stop":{"name":"origin","id":"3967","lat":"0","lon":"0","placename":"Ingredient Source"}}],"outgoing":[]}}},"parts":[{"oid":"3120","imid":"2095","linkid":"object\/-1","weight":"0","rawemissions":"0","emissions":"0","shipping":"0","processemissions":null,"endoflifeemissions":null,"disposaltype":null,"disposalenergy":null,"disposalimpact":null,"disposalemissions":null,"description":"","name":"?","id":"2095","stops":{"origin":{"related_to":"2095","part_or_object":"p","notes":"","placename":"Ingredient Source","id":3942,"name":"origin","lat":"0","lon":"0","hops":{"incoming":[],"outgoing":[{"transport_id":"17","id":"1682","transport_name":"None Selected","transport_description":null,"transport_unit":"kg km","transport_co2_eq":"0.000000","from_stop_id":"3942","from_stop_lat":"0","from_stop_lon":"0","from_stop_placename":"Ingredient Source","to_stop_id":"875","to_stop_name":"origin","to_stop_lat":"36.066348","to_stop_lon":"120.382771","to_stop_placename":"????????","to_stop":{"id":"875","name":"origin","lat":"36.066348","lon":"120.382771","placename":"????????"},"from_stop":{"name":"origin","id":"3942","lat":"0","lon":"0","placename":"Ingredient Source"}}]}}},"processes":[],"eols":[]},{"oid":"3120","imid":"2096","linkid":"object\/0-5l-bottle-of-fiji-water","weight":"0","rawemissions":"0.14","emissions":"0.14","shipping":"0","processemissions":null,"endoflifeemissions":null,"disposaltype":null,"disposalenergy":null,"disposalimpact":null,"disposalemissions":null,"description":"","name":"0.5L Bottle of Fiji Water","id":"2096","stops":{"origin":{"related_to":"2096","part_or_object":"p","notes":"","placename":"Ingredient Source","id":3943,"name":"origin","lat":"0","lon":"0","hops":{"incoming":[],"outgoing":[{"transport_id":"17","id":"1683","transport_name":"None Selected","transport_description":null,"transport_unit":"kg km","transport_co2_eq":"0.000000","from_stop_id":"3943","from_stop_lat":"0","from_stop_lon":"0","from_stop_placename":"Ingredient Source","to_stop_id":"875","to_stop_name":"origin","to_stop_lat":"36.066348","to_stop_lon":"120.382771","to_stop_placename":"????????","to_stop":{"id":"875","name":"origin","lat":"36.066348","lon":"120.382771","placename":"????????"},"from_stop":{"name":"origin","id":"3943","lat":"0","lon":"0","placename":"Ingredient Source"}}]}}},"processes":[],"eols":[]},{"oid":"3120","imid":"2097","linkid":"object\/100-recycled-paper-business-cards-pack-of-100","weight":"0","rawemissions":"0.23","emissions":"0.23","shipping":"0","processemissions":null,"endoflifeemissions":null,"disposaltype":null,"disposalenergy":null,"disposalimpact":null,"disposalemissions":null,"description":"","name":"100% Recycled Paper Business Cards, Pack of 100","id":"2097","stops":{"origin":{"related_to":"2097","part_or_object":"p","notes":"","placename":"Ingredient Source","id":3944,"name":"origin","lat":"0","lon":"0","hops":{"incoming":[],"outgoing":[{"transport_id":"17","id":"1684","transport_name":"None Selected","transport_description":null,"transport_unit":"kg km","transport_co2_eq":"0.000000","from_stop_id":"3944","from_stop_lat":"0","from_stop_lon":"0","from_stop_placename":"Ingredient Source","to_stop_id":"875","to_stop_name":"origin","to_stop_lat":"36.066348","to_stop_lon":"120.382771","to_stop_placename":"????????","to_stop":{"id":"875","name":"origin","lat":"36.066348","lon":"120.382771","placename":"????????"},"from_stop":{"name":"origin","id":"3944","lat":"0","lon":"0","placename":"Ingredient Source"}}]}}},"processes":[],"eols":[]},{"oid":"3120","imid":"2098","linkid":"parts\/alluminum","weight":"0","rawemissions":"0","emissions":"0","shipping":"0","processemissions":null,"endoflifeemissions":null,"disposaltype":null,"disposalenergy":null,"disposalimpact":null,"disposalemissions":null,"description":"","name":"Alluminum","id":"2098","stops":{"origin":{"related_to":"2098","part_or_object":"p","notes":"","placename":"Ingredient Source","id":3945,"name":"origin","lat":"0","lon":"0","hops":{"incoming":[],"outgoing":[{"transport_id":"17","id":"1685","transport_name":"None Selected","transport_description":null,"transport_unit":"kg km","transport_co2_eq":"0.000000","from_stop_id":"3945","from_stop_lat":"0","from_stop_lon":"0","from_stop_placename":"Ingredient Source","to_stop_id":"875","to_stop_name":"origin","to_stop_lat":"36.066348","to_stop_lon":"120.382771","to_stop_placename":"????????","to_stop":{"id":"875","name":"origin","lat":"36.066348","lon":"120.382771","placename":"????????"},"from_stop":{"name":"origin","id":"3945","lat":"0","lon":"0","placename":"Ingredient Source"}}]}}},"processes":[],"eols":[]},{"oid":"3120","imid":"2099","linkid":"object\/acx-athletics-hoody","weight":"0","rawemissions":"0","emissions":"0","shipping":"0","processemissions":null,"endoflifeemissions":null,"disposaltype":null,"disposalenergy":null,"disposalimpact":null,"disposalemissions":null,"description":"","name":"ACX Athletics Hoody","id":"2099","stops":{"origin":{"related_to":"2099","part_or_object":"p","notes":"","placename":"Ingredient Source","id":3946,"name":"origin","lat":"0","lon":"0","hops":{"incoming":[],"outgoing":[{"transport_id":"17","id":"1686","transport_name":"None Selected","transport_description":null,"transport_unit":"kg km","transport_co2_eq":"0.000000","from_stop_id":"3946","from_stop_lat":"0","from_stop_lon":"0","from_stop_placename":"Ingredient Source","to_stop_id":"875","to_stop_name":"origin","to_stop_lat":"36.066348","to_stop_lon":"120.382771","to_stop_placename":"????????","to_stop":{"id":"875","name":"origin","lat":"36.066348","lon":"120.382771","placename":"????????"},"from_stop":{"name":"origin","id":"3946","lat":"0","lon":"0","placename":"Ingredient Source"}}]}}},"processes":[],"eols":[]},{"oid":"3120","imid":"2100","linkid":"object\/-6-sapphire-nail-file","weight":"0","rawemissions":"0","emissions":"0","shipping":"0","processemissions":null,"endoflifeemissions":null,"disposaltype":null,"disposalenergy":null,"disposalimpact":null,"disposalemissions":null,"description":"","name":" 6\" Sapphire Nail File","id":"2100","stops":{"origin":{"related_to":"2100","part_or_object":"p","notes":"","placename":"Ingredient Source","id":3947,"name":"origin","lat":"0","lon":"0","hops":{"incoming":[],"outgoing":[{"transport_id":"17","id":"1687","transport_name":"None Selected","transport_description":null,"transport_unit":"kg km","transport_co2_eq":"0.000000","from_stop_id":"3947","from_stop_lat":"0","from_stop_lon":"0","from_stop_placename":"Ingredient Source","to_stop_id":"875","to_stop_name":"origin","to_stop_lat":"36.066348","to_stop_lon":"120.382771","to_stop_placename":"????????","to_stop":{"id":"875","name":"origin","lat":"36.066348","lon":"120.382771","placename":"????????"},"from_stop":{"name":"origin","id":"3947","lat":"0","lon":"0","placename":"Ingredient Source"}}]}}},"processes":[],"eols":[]},{"oid":"3120","imid":"2101","linkid":"object\/bauer-x05-ice-hockey-skate-","weight":"0","rawemissions":"3.38","emissions":"3.38","shipping":"0","processemissions":null,"endoflifeemissions":null,"disposaltype":null,"disposalenergy":null,"disposalimpact":null,"disposalemissions":null,"description":"","name":"Bauer X:05 Ice Hockey Skate ","id":"2101","stops":{"origin":{"related_to":"2101","part_or_object":"p","notes":"","placename":"Ingredient Source","id":3948,"name":"origin","lat":"0","lon":"0","hops":{"incoming":[],"outgoing":[{"transport_id":"17","id":"1688","transport_name":"None Selected","transport_description":null,"transport_unit":"kg km","transport_co2_eq":"0.000000","from_stop_id":"3948","from_stop_lat":"0","from_stop_lon":"0","from_stop_placename":"Ingredient Source","to_stop_id":"875","to_stop_name":"origin","to_stop_lat":"36.066348","to_stop_lon":"120.382771","to_stop_placename":"????????","to_stop":{"id":"875","name":"origin","lat":"36.066348","lon":"120.382771","placename":"????????"},"from_stop":{"name":"origin","id":"3948","lat":"0","lon":"0","placename":"Ingredient Source"}}]}}},"processes":[],"eols":[]},{"oid":"3120","imid":"2102","linkid":"parts\/beef-tenderloin-conventional","weight":"0","rawemissions":"68","emissions":"68","shipping":"0","processemissions":null,"endoflifeemissions":null,"disposaltype":null,"disposalenergy":null,"disposalimpact":null,"disposalemissions":null,"description":"","name":"Beef Tenderloin, Conventional","id":"2102","stops":{"origin":{"related_to":"2102","part_or_object":"p","notes":"","placename":"Ingredient Source","id":3949,"name":"origin","lat":"0","lon":"0","hops":{"incoming":[],"outgoing":[{"transport_id":"17","id":"1689","transport_name":"None Selected","transport_description":null,"transport_unit":"kg km","transport_co2_eq":"0.000000","from_stop_id":"3949","from_stop_lat":"0","from_stop_lon":"0","from_stop_placename":"Ingredient Source","to_stop_id":"875","to_stop_name":"origin","to_stop_lat":"36.066348","to_stop_lon":"120.382771","to_stop_placename":"????????","to_stop":{"id":"875","name":"origin","lat":"36.066348","lon":"120.382771","placename":"????????"},"from_stop":{"name":"origin","id":"3949","lat":"0","lon":"0","placename":"Ingredient Source"}}]}}},"processes":[],"eols":[]},{"oid":"3120","imid":"2121","linkid":"object\/bottle-of-poland-spring-water","weight":"0","rawemissions":"0.08","emissions":"0.08","shipping":"0","processemissions":null,"endoflifeemissions":null,"disposaltype":null,"disposalenergy":null,"disposalimpact":null,"disposalemissions":null,"description":"","name":"Bottle of Poland Spring Water","id":"2121","stops":{"origin":{"related_to":"2121","part_or_object":"p","notes":"","placename":"Ingredient Source","id":3965,"name":"origin","lat":"0","lon":"0","hops":{"incoming":[],"outgoing":[{"transport_id":"17","id":"1705","transport_name":"None Selected","transport_description":null,"transport_unit":"kg km","transport_co2_eq":"0.000000","from_stop_id":"3965","from_stop_lat":"0","from_stop_lon":"0","from_stop_placename":"Ingredient Source","to_stop_id":"875","to_stop_name":"origin","to_stop_lat":"36.066348","to_stop_lon":"120.382771","to_stop_placename":"????????","to_stop":{"id":"875","name":"origin","lat":"36.066348","lon":"120.382771","placename":"????????"},"from_stop":{"name":"origin","id":"3965","lat":"0","lon":"0","placename":"Ingredient Source"}}]}}},"processes":[],"eols":[]},{"oid":"3120","imid":"2122","linkid":"parts\/water-imported","weight":"0","rawemissions":"0.43","emissions":"0.43","shipping":"0","processemissions":null,"endoflifeemissions":null,"disposaltype":null,"disposalenergy":null,"disposalimpact":null,"disposalemissions":null,"description":"","name":"Water, Imported","id":"2122","stops":{"origin":{"related_to":"2122","part_or_object":"p","notes":"","placename":"Ingredient Source","id":3966,"name":"origin","lat":"0","lon":"0","hops":{"incoming":[],"outgoing":[{"transport_id":"17","id":"1706","transport_name":"None Selected","transport_description":null,"transport_unit":"kg km","transport_co2_eq":"0.000000","from_stop_id":"3966","from_stop_lat":"0","from_stop_lon":"0","from_stop_placename":"Ingredient Source","to_stop_id":"875","to_stop_name":"origin","to_stop_lat":"36.066348","to_stop_lon":"120.382771","to_stop_placename":"????????","to_stop":{"id":"875","name":"origin","lat":"36.066348","lon":"120.382771","placename":"????????"},"from_stop":{"name":"origin","id":"3966","lat":"0","lon":"0","placename":"Ingredient Source"}}]}}},"processes":[],"eols":[]},{"oid":"3120","imid":"2123","linkid":"parts\/water-imported","weight":"0","rawemissions":"0.43","emissions":"0.43","shipping":"0","processemissions":null,"endoflifeemissions":null,"disposaltype":null,"disposalenergy":null,"disposalimpact":null,"disposalemissions":null,"description":"","name":"Water, Imported","id":"2123","stops":{"origin":{"related_to":"2123","part_or_object":"p","notes":"","placename":"Ingredient Source","id":3967,"name":"origin","lat":"0","lon":"0","hops":{"incoming":[],"outgoing":[{"transport_id":"17","id":"1707","transport_name":"None Selected","transport_description":null,"transport_unit":"kg km","transport_co2_eq":"0.000000","from_stop_id":"3967","from_stop_lat":"0","from_stop_lon":"0","from_stop_placename":"Ingredient Source","to_stop_id":"875","to_stop_name":"origin","to_stop_lat":"36.066348","to_stop_lon":"120.382771","to_stop_placename":"????????","to_stop":{"id":"875","name":"origin","lat":"36.066348","lon":"120.382771","placename":"????????"},"from_stop":{"name":"origin","id":"3967","lat":"0","lon":"0","placename":"Ingredient Source"}}]}}},"processes":[],"eols":[]},{"oid":"3120","imid":"2386","linkid":"object\/0-5l-bottle-of-fiji-water","weight":"0","rawemissions":"0.14","emissions":"0.14","shipping":"0","processemissions":null,"endoflifeemissions":null,"disposaltype":null,"disposalenergy":null,"disposalimpact":null,"disposalemissions":null,"description":"","name":"0.5L Bottle of Fiji Water","id":"2386","stops":{"origin":{"related_to":"2386","part_or_object":"p","notes":"","placename":"Ingredient Source","id":4324,"name":"origin","lat":"0","lon":"0","hops":{"incoming":[],"outgoing":[{"transport_id":"17","id":"2064","transport_name":"None Selected","transport_description":null,"transport_unit":"kg km","transport_co2_eq":"0.000000","from_stop_id":"4324","from_stop_lat":"0","from_stop_lon":"0","from_stop_placename":"Ingredient Source","to_stop_id":"875","to_stop_name":"origin","to_stop_lat":"36.066348","to_stop_lon":"120.382771","to_stop_placename":"????????","to_stop":{"id":"875","name":"origin","lat":"36.066348","lon":"120.382771","placename":"????????"},"from_stop":{"name":"origin","id":"4324","lat":"0","lon":"0","placename":"Ingredient Source"}}]}}},"processes":[],"eols":[]},{"oid":"3120","imid":"2387","linkid":"object\/750-ralph-lauren-jeans","weight":"0","rawemissions":"0.48","emissions":"0.48","shipping":"0","processemissions":null,"endoflifeemissions":null,"disposaltype":null,"disposalenergy":null,"disposalimpact":null,"disposalemissions":null,"description":"","name":"$750 Ralph Lauren Jeans","id":"2387","stops":{"origin":{"related_to":"2387","part_or_object":"p","notes":"","placename":"Ingredient Source","id":4325,"name":"origin","lat":"0","lon":"0","hops":{"incoming":[],"outgoing":[{"transport_id":"17","id":"2065","transport_name":"None Selected","transport_description":null,"transport_unit":"kg km","transport_co2_eq":"0.000000","from_stop_id":"4325","from_stop_lat":"0","from_stop_lon":"0","from_stop_placename":"Ingredient Source","to_stop_id":"875","to_stop_name":"origin","to_stop_lat":"36.066348","to_stop_lon":"120.382771","to_stop_placename":"????????","to_stop":{"id":"875","name":"origin","lat":"36.066348","lon":"120.382771","placename":"????????"},"from_stop":{"name":"origin","id":"4325","lat":"0","lon":"0","placename":"Ingredient Source"}}]}}},"processes":[],"eols":[]}],"user":{"name":"fxu2008","id":"7512"}}}