{"3129":{"oid":"3129","type":"food","flag":"","creator":"7111","name":"Tortilla Soup","upc":"","imagelink":"","description":"","slug":"test-42","category":"","weight":"3.6","emissions":"0","embodied":"97.615","transport":"0.001472","process":"0","endoflife":"0","shipping":"2955.41","lifetime":null,"usagetype":"Nuclear","usageenergy":"3000","usageemissions":"24","timecreated":"2010-03-05 17:30:54.497264","timemodified":"2011-04-17 06:43:36","visibility":"public","showfootprint":"","showembodied":"","showtransport":"","showprocess":"","showendoflife":"","showlastleg":"on","showuse":"","showstats":"","stops":{"origin":{"related_to":"3129","part_or_object":"o","notes":null,"placename":"Santa Clara, CA, USA","id":"15312","category":"1","lat":"37.3541079","lon":"-121.9552356","name":"origin","hops":{"incoming":[{"transport_id":"2","id":"11113","transport_name":"truck, 16 tons","transport_description":"truck, half full","transport_unit":"kg km","transport_co2_eq":"0.020300","from_stop_id":"15313","from_stop_lat":"37.0057816","from_stop_lon":"-121.5682751","to_stop_id":"15312","to_stop_name":"origin","to_stop_lat":"37.3541079","placename":"Gilroy, CA, USA","to_stop_lon":"-121.9552356","to_stop":{"id":"15312","name":"origin","lat":"37.3541079","placename":"Santa Clara, CA, USA","lon":"-121.9552356"},"from_stop":{"name":"origin","id":"15313","lat":"37.0057816","lon":"-121.5682751","placename":"Gilroy, CA, USA"}},{"transport_id":"2","id":"11114","transport_name":"truck, 16 tons","transport_description":"truck, half full","transport_unit":"kg km","transport_co2_eq":"0.020300","from_stop_id":"15314","from_stop_lat":"34.0522342","from_stop_lon":"-118.2436849","to_stop_id":"15312","to_stop_name":"origin","to_stop_lat":"37.3541079","placename":"Los Angeles, CA, USA","to_stop_lon":"-121.9552356","to_stop":{"id":"15312","name":"origin","lat":"37.3541079","placename":"Santa Clara, CA, USA","lon":"-121.9552356"},"from_stop":{"name":"origin","id":"15314","lat":"34.0522342","lon":"-118.2436849","placename":"Los Angeles, CA, USA"}},{"transport_id":"17","id":"11115","transport_name":"None Selected","transport_description":null,"transport_unit":"kg km","transport_co2_eq":"0.000000","from_stop_id":"15315","from_stop_lat":"23.634501","from_stop_lon":"-102.552784","to_stop_id":"15312","to_stop_name":"origin","to_stop_lat":"37.3541079","placename":"Mexico","to_stop_lon":"-121.9552356","to_stop":{"id":"15312","name":"origin","lat":"37.3541079","placename":"Santa Clara, CA, USA","lon":"-121.9552356"},"from_stop":{"name":"origin","id":"15315","lat":"23.634501","lon":"-102.552784","placename":"Mexico"}},{"transport_id":"1","id":"11116","transport_name":"van, 3.5 tons","transport_description":"delivery van, half full","transport_unit":"kg km","transport_co2_eq":"0.053400","from_stop_id":"15316","from_stop_lat":"37.36883","from_stop_lon":"-122.0363496","to_stop_id":"15312","to_stop_name":"origin","to_stop_lat":"37.3541079","placename":"Sunnyvale, CA, USA","to_stop_lon":"-121.9552356","to_stop":{"id":"15312","name":"origin","lat":"37.3541079","placename":"Santa Clara, CA, USA","lon":"-121.9552356"},"from_stop":{"name":"origin","id":"15316","lat":"37.36883","lon":"-122.0363496","placename":"Sunnyvale, CA, USA"}}],"outgoing":[]}}},"parts":[{"oid":"3129","imid":"2131","linkid":"parts\/avocado","weight":"0.5","rawemissions":"0.55","emissions":"0.275","shipping":"51.78","processemissions":null,"endoflifeemissions":null,"disposaltype":null,"disposalenergy":null,"disposalimpact":null,"disposalemissions":null,"description":"","name":"avocado","id":"2131","stops":{"origin":{"related_to":"2131","part_or_object":"p","notes":null,"placename":"Gilroy, CA, USA","id":15313,"name":"origin","lat":"37.0057816","lon":"-121.5682751","hops":{"incoming":[],"outgoing":[{"transport_id":"2","id":"11113","transport_name":"truck, 16 tons","transport_description":"truck, half full","transport_unit":"kg km","transport_co2_eq":"0.020300","from_stop_id":"15313","from_stop_lat":"37.0057816","from_stop_lon":"-121.5682751","from_stop_placename":"Gilroy, CA, USA","to_stop_id":"15312","to_stop_name":"origin","to_stop_lat":"37.3541079","to_stop_lon":"-121.9552356","to_stop_placename":"Santa Clara, CA, USA","to_stop":{"id":"15312","name":"origin","lat":"37.3541079","lon":"-121.9552356","placename":"Santa Clara, CA, USA"},"from_stop":{"name":"origin","id":"15313","lat":"37.0057816","lon":"-121.5682751","placename":"Gilroy, CA, USA"}}]}}},"processes":[],"eols":[]},{"oid":"3129","imid":"2132","linkid":"parts\/chicken","weight":"1","rawemissions":"3.5","emissions":"3.5","shipping":"497.57","processemissions":null,"endoflifeemissions":null,"disposaltype":null,"disposalenergy":null,"disposalimpact":null,"disposalemissions":null,"description":"","name":"Chicken","id":"2132","stops":{"origin":{"related_to":"2132","part_or_object":"p","notes":null,"placename":"Los Angeles, CA, USA","id":15314,"name":"origin","lat":"34.0522342","lon":"-118.2436849","hops":{"incoming":[],"outgoing":[{"transport_id":"2","id":"11114","transport_name":"truck, 16 tons","transport_description":"truck, half full","transport_unit":"kg km","transport_co2_eq":"0.020300","from_stop_id":"15314","from_stop_lat":"34.0522342","from_stop_lon":"-118.2436849","from_stop_placename":"Los Angeles, CA, USA","to_stop_id":"15312","to_stop_name":"origin","to_stop_lat":"37.3541079","to_stop_lon":"-121.9552356","to_stop_placename":"Santa Clara, CA, USA","to_stop":{"id":"15312","name":"origin","lat":"37.3541079","lon":"-121.9552356","placename":"Santa Clara, CA, USA"},"from_stop":{"name":"origin","id":"15314","lat":"34.0522342","lon":"-118.2436849","placename":"Los Angeles, CA, USA"}}]}}},"processes":[],"eols":[]},{"oid":"3129","imid":"2133","linkid":"","weight":"0.1","rawemissions":"0","emissions":"0","shipping":"2398.7","processemissions":null,"endoflifeemissions":null,"disposaltype":null,"disposalenergy":null,"disposalimpact":null,"disposalemissions":null,"description":"","name":"Tortilla Chips","id":"2133","stops":{"origin":{"related_to":"2133","part_or_object":"p","notes":null,"placename":"Mexico","id":15315,"name":"origin","lat":"23.634501","lon":"-102.552784","hops":{"incoming":[],"outgoing":[{"transport_id":"17","id":"11115","transport_name":"None Selected","transport_description":null,"transport_unit":"kg km","transport_co2_eq":"0.000000","from_stop_id":"15315","from_stop_lat":"23.634501","from_stop_lon":"-102.552784","from_stop_placename":"Mexico","to_stop_id":"15312","to_stop_name":"origin","to_stop_lat":"37.3541079","to_stop_lon":"-121.9552356","to_stop_placename":"Santa Clara, CA, USA","to_stop":{"id":"15312","name":"origin","lat":"37.3541079","lon":"-121.9552356","placename":"Santa Clara, CA, USA"},"from_stop":{"name":"origin","id":"15315","lat":"23.634501","lon":"-102.552784","placename":"Mexico"}}]}}},"processes":[],"eols":[]},{"oid":"3129","imid":"2134","linkid":"object\/homegrown-tomatoes","weight":"2","rawemissions":"46.92","emissions":"93.84","shipping":"7.36","processemissions":null,"endoflifeemissions":null,"disposaltype":null,"disposalenergy":null,"disposalimpact":null,"disposalemissions":null,"description":"","name":"homegrown tomatoes","id":"2134","stops":{"origin":{"related_to":"2134","part_or_object":"p","notes":null,"placename":"Sunnyvale, CA, USA","id":15316,"name":"origin","lat":"37.36883","lon":"-122.0363496","hops":{"incoming":[],"outgoing":[{"transport_id":"1","id":"11116","transport_name":"van, 3.5 tons","transport_description":"delivery van, half full","transport_unit":"kg km","transport_co2_eq":"0.053400","from_stop_id":"15316","from_stop_lat":"37.36883","from_stop_lon":"-122.0363496","from_stop_placename":"Sunnyvale, CA, USA","to_stop_id":"15312","to_stop_name":"origin","to_stop_lat":"37.3541079","to_stop_lon":"-121.9552356","to_stop_placename":"Santa Clara, CA, USA","to_stop":{"id":"15312","name":"origin","lat":"37.3541079","lon":"-121.9552356","placename":"Santa Clara, CA, USA"},"from_stop":{"name":"origin","id":"15316","lat":"37.36883","lon":"-122.0363496","placename":"Sunnyvale, CA, USA"}}]}}},"processes":[],"eols":[]}],"user":{"name":"ckwan","id":"7111"}}}