{"3139":{"oid":"3139","type":"object","flag":"","creator":"6893","name":"WOOD","upc":"","imagelink":"","description":"Sourcemap analysis of different types of wood products","slug":"wood","category":"","weight":"500","emissions":"4087.6354","embodied":"3886","transport":"201.6354","process":"0","endoflife":"0","shipping":"13483.87","lifetime":null,"usagetype":"","usageenergy":null,"usageemissions":null,"timecreated":"2010-03-08 09:16:11.594154","timemodified":"2010-11-22 12:16:44","visibility":"public","showfootprint":"on","showembodied":"on","showtransport":"on","showprocess":"on","showendoflife":"on","showlastleg":"on","showuse":"on","showstats":"on","stops":{"origin":{"related_to":"3139","part_or_object":"o","notes":null,"placename":"Oregon, USA","id":"7091","category":"1","lat":"43.8041334","lon":"-120.5542012","name":"origin","hops":{"incoming":[{"transport_id":"2","id":"4705","transport_name":"truck, 16 tons","transport_description":"truck, half full","transport_unit":"kg km","transport_co2_eq":"0.020300","from_stop_id":"7092","from_stop_lat":"43.8041334","from_stop_lon":"-120.5542012","to_stop_id":"7091","to_stop_name":"origin","to_stop_lat":"43.8041334","placename":"Oregon, USA","to_stop_lon":"-120.5542012","to_stop":{"id":"7091","name":"origin","lat":"43.8041334","placename":"Oregon, USA","lon":"-120.5542012"},"from_stop":{"name":"origin","id":"7092","lat":"43.8041334","lon":"-120.5542012","placename":"Oregon, USA"}},{"transport_id":"2","id":"4706","transport_name":"truck, 16 tons","transport_description":"truck, half full","transport_unit":"kg km","transport_co2_eq":"0.020300","from_stop_id":"7093","from_stop_lat":"56.130366","from_stop_lon":"-106.346771","to_stop_id":"7091","to_stop_name":"origin","to_stop_lat":"43.8041334","placename":"Canada","to_stop_lon":"-120.5542012","to_stop":{"id":"7091","name":"origin","lat":"43.8041334","placename":"Oregon, USA","lon":"-120.5542012"},"from_stop":{"name":"origin","id":"7093","lat":"56.130366","lon":"-106.346771","placename":"Canada"}},{"transport_id":"2","id":"4707","transport_name":"truck, 16 tons","transport_description":"truck, half full","transport_unit":"kg km","transport_co2_eq":"0.020300","from_stop_id":"7094","from_stop_lat":"43.8041334","from_stop_lon":"-120.5542012","to_stop_id":"7091","to_stop_name":"origin","to_stop_lat":"43.8041334","placename":"Oregon, USA","to_stop_lon":"-120.5542012","to_stop":{"id":"7091","name":"origin","lat":"43.8041334","placename":"Oregon, USA","lon":"-120.5542012"},"from_stop":{"name":"origin","id":"7094","lat":"43.8041334","lon":"-120.5542012","placename":"Oregon, USA"}},{"transport_id":"6","id":"4708","transport_name":"tanker ship","transport_description":"tanker for mobing liquids","transport_unit":"kg km","transport_co2_eq":"0.171600","from_stop_id":"7095","from_stop_lat":"35.86166","from_stop_lon":"104.195397","to_stop_id":"7091","to_stop_name":"origin","to_stop_lat":"43.8041334","placename":"China","to_stop_lon":"-120.5542012","to_stop":{"id":"7091","name":"origin","lat":"43.8041334","placename":"Oregon, USA","lon":"-120.5542012"},"from_stop":{"name":"origin","id":"7095","lat":"35.86166","lon":"104.195397","placename":"China"}},{"transport_id":"2","id":"4709","transport_name":"truck, 16 tons","transport_description":"truck, half full","transport_unit":"kg km","transport_co2_eq":"0.020300","from_stop_id":"7096","from_stop_lat":"56.130366","from_stop_lon":"-106.346771","to_stop_id":"7091","to_stop_name":"origin","to_stop_lat":"43.8041334","placename":"Canada","to_stop_lon":"-120.5542012","to_stop":{"id":"7091","name":"origin","lat":"43.8041334","placename":"Oregon, USA","lon":"-120.5542012"},"from_stop":{"name":"origin","id":"7096","lat":"56.130366","lon":"-106.346771","placename":"Canada"}}],"outgoing":[]}}},"parts":[{"oid":"3139","imid":"2156","linkid":"parts\/wood-red-cedar","weight":"100","rawemissions":"0.73","emissions":"73","shipping":"1701.05","processemissions":null,"endoflifeemissions":null,"disposaltype":null,"disposalenergy":null,"disposalimpact":null,"disposalemissions":null,"description":"","name":"Wood, Red Cedar","id":"2156","stops":{"origin":{"related_to":"2156","part_or_object":"p","notes":null,"placename":"Canada","id":7093,"name":"origin","lat":"56.130366","lon":"-106.346771","hops":{"incoming":[],"outgoing":[{"transport_id":"2","id":"4706","transport_name":"truck, 16 tons","transport_description":"truck, half full","transport_unit":"kg km","transport_co2_eq":"0.020300","from_stop_id":"7093","from_stop_lat":"56.130366","from_stop_lon":"-106.346771","from_stop_placename":"Canada","to_stop_id":"7091","to_stop_name":"origin","to_stop_lat":"43.8041334","to_stop_lon":"-120.5542012","to_stop_placename":"Oregon, USA","to_stop":{"id":"7091","name":"origin","lat":"43.8041334","lon":"-120.5542012","placename":"Oregon, USA"},"from_stop":{"name":"origin","id":"7093","lat":"56.130366","lon":"-106.346771","placename":"Canada"}}]}}},"processes":[],"eols":[]},{"oid":"3139","imid":"2157","linkid":"parts\/plywood-outdoor","weight":"100","rawemissions":"18","emissions":"1800","shipping":"0","processemissions":null,"endoflifeemissions":null,"disposaltype":null,"disposalenergy":null,"disposalimpact":null,"disposalemissions":null,"description":"","name":"Plywood, Outdoor","id":"2157","stops":{"origin":{"related_to":"2157","part_or_object":"p","notes":null,"placename":"Oregon, USA","id":7094,"name":"origin","lat":"43.8041334","lon":"-120.5542012","hops":{"incoming":[],"outgoing":[{"transport_id":"2","id":"4707","transport_name":"truck, 16 tons","transport_description":"truck, half full","transport_unit":"kg km","transport_co2_eq":"0.020300","from_stop_id":"7094","from_stop_lat":"43.8041334","from_stop_lon":"-120.5542012","from_stop_placename":"Oregon, USA","to_stop_id":"7091","to_stop_name":"origin","to_stop_lat":"43.8041334","to_stop_lon":"-120.5542012","to_stop_placename":"Oregon, USA","to_stop":{"id":"7091","name":"origin","lat":"43.8041334","lon":"-120.5542012","placename":"Oregon, USA"},"from_stop":{"name":"origin","id":"7094","lat":"43.8041334","lon":"-120.5542012","placename":"Oregon, USA"}}]}}},"processes":[],"eols":[]},{"oid":"3139","imid":"2158","linkid":"parts\/plywood-indoor","weight":"100","rawemissions":"13","emissions":"1300","shipping":"10081.77","processemissions":null,"endoflifeemissions":null,"disposaltype":null,"disposalenergy":null,"disposalimpact":null,"disposalemissions":null,"description":"","name":"Plywood, Indoor","id":"2158","stops":{"origin":{"related_to":"2158","part_or_object":"p","notes":null,"placename":"China","id":7095,"name":"origin","lat":"35.86166","lon":"104.195397","hops":{"incoming":[],"outgoing":[{"transport_id":"6","id":"4708","transport_name":"tanker ship","transport_description":"tanker for mobing liquids","transport_unit":"kg km","transport_co2_eq":"0.171600","from_stop_id":"7095","from_stop_lat":"35.86166","from_stop_lon":"104.195397","from_stop_placename":"China","to_stop_id":"7091","to_stop_name":"origin","to_stop_lat":"43.8041334","to_stop_lon":"-120.5542012","to_stop_placename":"Oregon, USA","to_stop":{"id":"7091","name":"origin","lat":"43.8041334","lon":"-120.5542012","placename":"Oregon, USA"},"from_stop":{"name":"origin","id":"7095","lat":"35.86166","lon":"104.195397","placename":"China"}}]}}},"processes":[],"eols":[]},{"oid":"3139","imid":"2159","linkid":"parts\/mdf","weight":"100","rawemissions":"6.8","emissions":"680","shipping":"1701.05","processemissions":null,"endoflifeemissions":null,"disposaltype":null,"disposalenergy":null,"disposalimpact":null,"disposalemissions":null,"description":"","name":"MDF","id":"2159","stops":{"origin":{"related_to":"2159","part_or_object":"p","notes":null,"placename":"Canada","id":7096,"name":"origin","lat":"56.130366","lon":"-106.346771","hops":{"incoming":[],"outgoing":[{"transport_id":"2","id":"4709","transport_name":"truck, 16 tons","transport_description":"truck, half full","transport_unit":"kg km","transport_co2_eq":"0.020300","from_stop_id":"7096","from_stop_lat":"56.130366","from_stop_lon":"-106.346771","from_stop_placename":"Canada","to_stop_id":"7091","to_stop_name":"origin","to_stop_lat":"43.8041334","to_stop_lon":"-120.5542012","to_stop_placename":"Oregon, USA","to_stop":{"id":"7091","name":"origin","lat":"43.8041334","lon":"-120.5542012","placename":"Oregon, USA"},"from_stop":{"name":"origin","id":"7096","lat":"56.130366","lon":"-106.346771","placename":"Canada"}}]}}},"processes":[],"eols":[]},{"oid":"3139","imid":"2155","linkid":"parts\/wood-oak-or-walnut","weight":"100","rawemissions":"0.33","emissions":"33","shipping":"0","processemissions":null,"endoflifeemissions":null,"disposaltype":null,"disposalenergy":null,"disposalimpact":null,"disposalemissions":null,"description":"","name":"Wood, Oak or Walnut","id":"2155","stops":{"origin":{"related_to":"2155","part_or_object":"p","notes":null,"placename":"Oregon, USA","id":7092,"name":"origin","lat":"43.8041334","lon":"-120.5542012","hops":{"incoming":[],"outgoing":[{"transport_id":"2","id":"4705","transport_name":"truck, 16 tons","transport_description":"truck, half full","transport_unit":"kg km","transport_co2_eq":"0.020300","from_stop_id":"7092","from_stop_lat":"43.8041334","from_stop_lon":"-120.5542012","from_stop_placename":"Oregon, USA","to_stop_id":"7091","to_stop_name":"origin","to_stop_lat":"43.8041334","to_stop_lon":"-120.5542012","to_stop_placename":"Oregon, USA","to_stop":{"id":"7091","name":"origin","lat":"43.8041334","lon":"-120.5542012","placename":"Oregon, USA"},"from_stop":{"name":"origin","id":"7092","lat":"43.8041334","lon":"-120.5542012","placename":"Oregon, USA"}}]}}},"processes":[],"eols":[]}],"user":{"name":"znzn","id":"6893"}}}