{"3215":{"oid":"3215","type":"food","flag":"","creator":"9182","name":"Week 1","upc":"","imagelink":"","description":"My first sourcemap","slug":"week-1","category":"","weight":"0.5","emissions":"0.98715995345","embodied":"0.98","transport":"0.00715995345","process":"0","endoflife":"0","shipping":"1455.3","lifetime":null,"usagetype":"","usageenergy":null,"usageemissions":null,"timecreated":"2010-03-08 14:27:25.951112","timemodified":"2010-03-08 20:05:22","visibility":"public","showfootprint":"on","showembodied":"on","showtransport":"on","showprocess":"on","showendoflife":"on","showlastleg":"on","showuse":"on","showstats":"on","stops":{"origin":{"related_to":"3215","part_or_object":"o","notes":"","placename":"Toronto, ON, Canada","id":"958","category":"1","lat":"43.670233","lon":"-79.386755","name":"origin","hops":{"incoming":[{"transport_id":"2","id":"1845","transport_name":"truck, 16 tons","transport_description":"truck, half full","transport_unit":"kg km","transport_co2_eq":"0.020300","from_stop_id":"4105","from_stop_lat":"51.253775","from_stop_lon":"-85.3232139","to_stop_id":"958","to_stop_name":"origin","to_stop_lat":"43.670233","placename":"Ontario, Canada","to_stop_lon":"-79.386755","to_stop":{"id":"958","name":"origin","lat":"43.670233","placename":"Toronto, ON, Canada","lon":"-79.386755"},"from_stop":{"name":"origin","id":"4105","lat":"51.253775","lon":"-85.3232139","placename":"Ontario, Canada"}},{"transport_id":"3","id":"1846","transport_name":"truck, 40 tons","transport_description":"truck, half full","transport_unit":"kg km","transport_co2_eq":"0.030900","from_stop_id":"4106","from_stop_lat":"45.545447","from_stop_lon":"-73.639076","to_stop_id":"958","to_stop_name":"origin","to_stop_lat":"43.670233","placename":"Montreal, QC, Canada","to_stop_lon":"-79.386755","to_stop":{"id":"958","name":"origin","lat":"43.670233","placename":"Toronto, ON, Canada","lon":"-79.386755"},"from_stop":{"name":"origin","id":"4106","lat":"45.545447","lon":"-73.639076","placename":"Montreal, QC, Canada"}},{"transport_id":"3","id":"1847","transport_name":"truck, 40 tons","transport_description":"truck, half full","transport_unit":"kg km","transport_co2_eq":"0.030900","from_stop_id":"4107","from_stop_lat":"43.670233","from_stop_lon":"-79.386755","to_stop_id":"958","to_stop_name":"origin","to_stop_lat":"43.670233","placename":"Toronto, ON, Canada","to_stop_lon":"-79.386755","to_stop":{"id":"958","name":"origin","lat":"43.670233","placename":"Toronto, ON, Canada","lon":"-79.386755"},"from_stop":{"name":"origin","id":"4107","lat":"43.670233","lon":"-79.386755","placename":"Toronto, ON, Canada"}},{"transport_id":"17","id":"1848","transport_name":"None Selected","transport_description":null,"transport_unit":"kg km","transport_co2_eq":"0.000000","from_stop_id":"4108","from_stop_lat":"0","from_stop_lon":"0","to_stop_id":"958","to_stop_name":"origin","to_stop_lat":"43.670233","placename":"Ingredient Source","to_stop_lon":"-79.386755","to_stop":{"id":"958","name":"origin","lat":"43.670233","placename":"Toronto, ON, Canada","lon":"-79.386755"},"from_stop":{"name":"origin","id":"4108","lat":"0","lon":"0","placename":"Ingredient Source"}}],"outgoing":[]}}},"parts":[{"oid":"3215","imid":"2218","linkid":"parts\/","weight":"0.05","rawemissions":"1.96","emissions":"0.098","shipping":"954.39","processemissions":null,"endoflifeemissions":null,"disposaltype":null,"disposalenergy":null,"disposalimpact":null,"disposalemissions":null,"description":"Lays potato Chips in Ontario","name":"Lays potato chips","id":"2218","stops":{"origin":{"related_to":"2218","part_or_object":"p","notes":"","placename":"Ontario, Canada","id":4105,"name":"origin","lat":"51.253775","lon":"-85.3232139","hops":{"incoming":[],"outgoing":[{"transport_id":"2","id":"1845","transport_name":"truck, 16 tons","transport_description":"truck, half full","transport_unit":"kg km","transport_co2_eq":"0.020300","from_stop_id":"4105","from_stop_lat":"51.253775","from_stop_lon":"-85.3232139","from_stop_placename":"Ontario, Canada","to_stop_id":"958","to_stop_name":"origin","to_stop_lat":"43.670233","to_stop_lon":"-79.386755","to_stop_placename":"Toronto, ON, Canada","to_stop":{"id":"958","name":"origin","lat":"43.670233","lon":"-79.386755","placename":"Toronto, ON, Canada"},"from_stop":{"name":"origin","id":"4105","lat":"51.253775","lon":"-85.3232139","placename":"Ontario, Canada"}}]}}},"processes":[],"eols":[]},{"oid":"3215","imid":"2219","linkid":"parts\/","weight":"0.4","rawemissions":"1.96","emissions":"0.784","shipping":"500.91","processemissions":null,"endoflifeemissions":null,"disposaltype":null,"disposalenergy":null,"disposalimpact":null,"disposalemissions":null,"description":"Maple Leaf Ham From Montreal.","name":"Maple Leaf Ham","id":"2219","stops":{"origin":{"related_to":"2219","part_or_object":"p","notes":"","placename":"Montreal, QC, Canada","id":4106,"name":"origin","lat":"45.545447","lon":"-73.639076","hops":{"incoming":[],"outgoing":[{"transport_id":"3","id":"1846","transport_name":"truck, 40 tons","transport_description":"truck, half full","transport_unit":"kg km","transport_co2_eq":"0.030900","from_stop_id":"4106","from_stop_lat":"45.545447","from_stop_lon":"-73.639076","from_stop_placename":"Montreal, QC, Canada","to_stop_id":"958","to_stop_name":"origin","to_stop_lat":"43.670233","to_stop_lon":"-79.386755","to_stop_placename":"Toronto, ON, Canada","to_stop":{"id":"958","name":"origin","lat":"43.670233","lon":"-79.386755","placename":"Toronto, ON, Canada"},"from_stop":{"name":"origin","id":"4106","lat":"45.545447","lon":"-73.639076","placename":"Montreal, QC, Canada"}}]}}},"processes":[],"eols":[]},{"oid":"3215","imid":"2220","linkid":"parts\/","weight":"0.05","rawemissions":"1.96","emissions":"0.098","shipping":"0","processemissions":null,"endoflifeemissions":null,"disposaltype":null,"disposalenergy":null,"disposalimpact":null,"disposalemissions":null,"description":"Parmalat, Black Dimond, Cheese from Toronto","name":"Cheddar Cheese ","id":"2220","stops":{"origin":{"related_to":"2220","part_or_object":"p","notes":"","placename":"Toronto, ON, Canada","id":4107,"name":"origin","lat":"43.670233","lon":"-79.386755","hops":{"incoming":[],"outgoing":[{"transport_id":"3","id":"1847","transport_name":"truck, 40 tons","transport_description":"truck, half full","transport_unit":"kg km","transport_co2_eq":"0.030900","from_stop_id":"4107","from_stop_lat":"43.670233","from_stop_lon":"-79.386755","from_stop_placename":"Toronto, ON, Canada","to_stop_id":"958","to_stop_name":"origin","to_stop_lat":"43.670233","to_stop_lon":"-79.386755","to_stop_placename":"Toronto, ON, Canada","to_stop":{"id":"958","name":"origin","lat":"43.670233","lon":"-79.386755","placename":"Toronto, ON, Canada"},"from_stop":{"name":"origin","id":"4107","lat":"43.670233","lon":"-79.386755","placename":"Toronto, ON, Canada"}}]}}},"processes":[],"eols":[]},{"oid":"3215","imid":"2221","linkid":"parts\/","weight":"0","rawemissions":"0","emissions":"0","shipping":"0","processemissions":null,"endoflifeemissions":null,"disposaltype":null,"disposalenergy":null,"disposalimpact":null,"disposalemissions":null,"description":"","name":"Ingredient","id":"2221","stops":{"origin":{"related_to":"2221","part_or_object":"p","notes":"","placename":"Ingredient Source","id":4108,"name":"origin","lat":"0","lon":"0","hops":{"incoming":[],"outgoing":[{"transport_id":"17","id":"1848","transport_name":"None Selected","transport_description":null,"transport_unit":"kg km","transport_co2_eq":"0.000000","from_stop_id":"4108","from_stop_lat":"0","from_stop_lon":"0","from_stop_placename":"Ingredient Source","to_stop_id":"958","to_stop_name":"origin","to_stop_lat":"43.670233","to_stop_lon":"-79.386755","to_stop_placename":"Toronto, ON, Canada","to_stop":{"id":"958","name":"origin","lat":"43.670233","lon":"-79.386755","placename":"Toronto, ON, Canada"},"from_stop":{"name":"origin","id":"4108","lat":"0","lon":"0","placename":"Ingredient Source"}}]}}},"processes":[],"eols":[]}],"user":{"name":"Person","id":"9182"}}}