{"3220":{"oid":"3220","type":"food","flag":"","creator":"9185","name":"Sunday's Dinner","upc":"","imagelink":"","description":"A Healthy and delectable VEGETARIAN meal!","slug":"sundays-dinner-2","category":"","weight":"4.4","emissions":"16.2846616443","embodied":"5.808","transport":"10.4766616443","process":"0","endoflife":"0","shipping":"20767.2","lifetime":null,"usagetype":"","usageenergy":null,"usageemissions":null,"timecreated":"2010-03-08 14:29:52.742375","timemodified":"2010-03-08 20:06:46","visibility":"public","showfootprint":"on","showembodied":"on","showtransport":"on","showprocess":"on","showendoflife":"on","showlastleg":"on","showuse":"on","showstats":"on","stops":{"origin":{"related_to":"3220","part_or_object":"o","notes":"","placename":"Toronto, ON, Canada","id":"960","category":"1","lat":"43.670233","lon":"-79.386755","name":"origin","hops":{"incoming":[{"transport_id":"2","id":"1851","transport_name":"truck, 16 tons","transport_description":"truck, half full","transport_unit":"kg km","transport_co2_eq":"0.020300","from_stop_id":"4111","from_stop_lat":"44.151961","from_stop_lon":"-79.878765","to_stop_id":"960","to_stop_name":"origin","to_stop_lat":"43.670233","placename":"Alliston, New Tecumseth, ON, Canada","to_stop_lon":"-79.386755","to_stop":{"id":"960","name":"origin","lat":"43.670233","placename":"Toronto, ON, Canada","lon":"-79.386755"},"from_stop":{"name":"origin","id":"4111","lat":"44.151961","lon":"-79.878765","placename":"Alliston, New Tecumseth, ON, Canada"}},{"transport_id":"3","id":"1852","transport_name":"truck, 40 tons","transport_description":"truck, half full","transport_unit":"kg km","transport_co2_eq":"0.030900","from_stop_id":"4112","from_stop_lat":"27.4989278","from_stop_lon":"-82.5748194","to_stop_id":"960","to_stop_name":"origin","to_stop_lat":"43.670233","placename":"Bradenton, FL, USA","to_stop_lon":"-79.386755","to_stop":{"id":"960","name":"origin","lat":"43.670233","placename":"Toronto, ON, Canada","lon":"-79.386755"},"from_stop":{"name":"origin","id":"4112","lat":"27.4989278","lon":"-82.5748194","placename":"Bradenton, FL, USA"}},{"transport_id":"16","id":"1853","transport_name":"air, freight, intercontinental","transport_description":"intercontinental freight","transport_unit":"kg km","transport_co2_eq":"0.450000","from_stop_id":"4113","from_stop_lat":"20.593684","from_stop_lon":"78.96288","to_stop_id":"960","to_stop_name":"origin","to_stop_lat":"43.670233","placename":"India","to_stop_lon":"-79.386755","to_stop":{"id":"960","name":"origin","lat":"43.670233","placename":"Toronto, ON, Canada","lon":"-79.386755"},"from_stop":{"name":"origin","id":"4113","lat":"20.593684","lon":"78.96288","placename":"India"}},{"transport_id":"3","id":"1854","transport_name":"truck, 40 tons","transport_description":"truck, half full","transport_unit":"kg km","transport_co2_eq":"0.030900","from_stop_id":"4114","from_stop_lat":"42.2917623","from_stop_lon":"-71.4258945","to_stop_id":"960","to_stop_name":"origin","to_stop_lat":"43.670233","placename":"Framingham, MA, USA","to_stop_lon":"-79.386755","to_stop":{"id":"960","name":"origin","lat":"43.670233","placename":"Toronto, ON, Canada","lon":"-79.386755"},"from_stop":{"name":"origin","id":"4114","lat":"42.2917623","lon":"-71.4258945","placename":"Framingham, MA, USA"}},{"transport_id":"11","id":"1855","transport_name":"train, regional","transport_description":"< 640 km, diesel, kg km from person-km","transport_unit":"kg km","transport_co2_eq":"0.080400","from_stop_id":"4115","from_stop_lat":"52.570244","from_stop_lon":"-0.24369","to_stop_id":"960","to_stop_name":"origin","to_stop_lat":"43.670233","placename":"Peterborough, UK","to_stop_lon":"-79.386755","to_stop":{"id":"960","name":"origin","lat":"43.670233","placename":"Toronto, ON, Canada","lon":"-79.386755"},"from_stop":{"name":"origin","id":"4115","lat":"52.570244","lon":"-0.24369","placename":"Peterborough, UK"}}],"outgoing":[]}}},"parts":[{"oid":"3220","imid":"2224","linkid":"parts\/","weight":"0.3","rawemissions":"1.32","emissions":"0.396","shipping":"66.58","processemissions":null,"endoflifeemissions":null,"disposaltype":null,"disposalenergy":null,"disposalimpact":null,"disposalemissions":null,"description":"","name":"Ontarios greatest yellow flesh potatoes","id":"2224","stops":{"origin":{"related_to":"2224","part_or_object":"p","notes":"","placename":"Alliston, New Tecumseth, ON, Canada","id":4111,"name":"origin","lat":"44.151961","lon":"-79.878765","hops":{"incoming":[],"outgoing":[{"transport_id":"2","id":"1851","transport_name":"truck, 16 tons","transport_description":"truck, half full","transport_unit":"kg km","transport_co2_eq":"0.020300","from_stop_id":"4111","from_stop_lat":"44.151961","from_stop_lon":"-79.878765","from_stop_placename":"Alliston, New Tecumseth, ON, Canada","to_stop_id":"960","to_stop_name":"origin","to_stop_lat":"43.670233","to_stop_lon":"-79.386755","to_stop_placename":"Toronto, ON, Canada","to_stop":{"id":"960","name":"origin","lat":"43.670233","lon":"-79.386755","placename":"Toronto, ON, Canada"},"from_stop":{"name":"origin","id":"4111","lat":"44.151961","lon":"-79.878765","placename":"Alliston, New Tecumseth, ON, Canada"}}]}}},"processes":[],"eols":[]},{"oid":"3220","imid":"2225","linkid":"parts\/","weight":"1.3","rawemissions":"1.32","emissions":"1.716","shipping":"1822.78","processemissions":null,"endoflifeemissions":null,"disposaltype":null,"disposalenergy":null,"disposalimpact":null,"disposalemissions":null,"description":"","name":"Torpicana PRemium JUice","id":"2225","stops":{"origin":{"related_to":"2225","part_or_object":"p","notes":"","placename":"Bradenton, FL, USA","id":4112,"name":"origin","lat":"27.4989278","lon":"-82.5748194","hops":{"incoming":[],"outgoing":[{"transport_id":"3","id":"1852","transport_name":"truck, 40 tons","transport_description":"truck, half full","transport_unit":"kg km","transport_co2_eq":"0.030900","from_stop_id":"4112","from_stop_lat":"27.4989278","from_stop_lon":"-82.5748194","from_stop_placename":"Bradenton, FL, USA","to_stop_id":"960","to_stop_name":"origin","to_stop_lat":"43.670233","to_stop_lon":"-79.386755","to_stop_placename":"Toronto, ON, Canada","to_stop":{"id":"960","name":"origin","lat":"43.670233","lon":"-79.386755","placename":"Toronto, ON, Canada"},"from_stop":{"name":"origin","id":"4112","lat":"27.4989278","lon":"-82.5748194","placename":"Bradenton, FL, USA"}}]}}},"processes":[],"eols":[]},{"oid":"3220","imid":"2226","linkid":"parts\/","weight":"1.8","rawemissions":"1.32","emissions":"2.376","shipping":"12549.53","processemissions":null,"endoflifeemissions":null,"disposaltype":null,"disposalenergy":null,"disposalimpact":null,"disposalemissions":null,"description":"","name":"Nirav flour","id":"2226","stops":{"origin":{"related_to":"2226","part_or_object":"p","notes":"","placename":"India","id":4113,"name":"origin","lat":"20.593684","lon":"78.96288","hops":{"incoming":[],"outgoing":[{"transport_id":"16","id":"1853","transport_name":"air, freight, intercontinental","transport_description":"intercontinental freight","transport_unit":"kg km","transport_co2_eq":"0.450000","from_stop_id":"4113","from_stop_lat":"20.593684","from_stop_lon":"78.96288","from_stop_placename":"India","to_stop_id":"960","to_stop_name":"origin","to_stop_lat":"43.670233","to_stop_lon":"-79.386755","to_stop_placename":"Toronto, ON, Canada","to_stop":{"id":"960","name":"origin","lat":"43.670233","lon":"-79.386755","placename":"Toronto, ON, Canada"},"from_stop":{"name":"origin","id":"4113","lat":"20.593684","lon":"78.96288","placename":"India"}}]}}},"processes":[],"eols":[]},{"oid":"3220","imid":"2227","linkid":"parts\/","weight":"0.5","rawemissions":"1.32","emissions":"0.66","shipping":"665.95","processemissions":null,"endoflifeemissions":null,"disposaltype":null,"disposalenergy":null,"disposalimpact":null,"disposalemissions":null,"description":"","name":"Breyrs fudgecicle icecream","id":"2227","stops":{"origin":{"related_to":"2227","part_or_object":"p","notes":"","placename":"Framingham, MA, USA","id":4114,"name":"origin","lat":"42.2917623","lon":"-71.4258945","hops":{"incoming":[],"outgoing":[{"transport_id":"3","id":"1854","transport_name":"truck, 40 tons","transport_description":"truck, half full","transport_unit":"kg km","transport_co2_eq":"0.030900","from_stop_id":"4114","from_stop_lat":"42.2917623","from_stop_lon":"-71.4258945","from_stop_placename":"Framingham, MA, USA","to_stop_id":"960","to_stop_name":"origin","to_stop_lat":"43.670233","to_stop_lon":"-79.386755","to_stop_placename":"Toronto, ON, Canada","to_stop":{"id":"960","name":"origin","lat":"43.670233","lon":"-79.386755","placename":"Toronto, ON, Canada"},"from_stop":{"name":"origin","id":"4114","lat":"42.2917623","lon":"-71.4258945","placename":"Framingham, MA, USA"}}]}}},"processes":[],"eols":[]},{"oid":"3220","imid":"2228","linkid":"parts\/","weight":"0.5","rawemissions":"1.32","emissions":"0.66","shipping":"5662.36","processemissions":null,"endoflifeemissions":null,"disposaltype":null,"disposalenergy":null,"disposalimpact":null,"disposalemissions":null,"description":"","name":"quaker oats bar","id":"2228","stops":{"origin":{"related_to":"2228","part_or_object":"p","notes":"","placename":"Peterborough, UK","id":4115,"name":"origin","lat":"52.570244","lon":"-0.24369","hops":{"incoming":[],"outgoing":[{"transport_id":"11","id":"1855","transport_name":"train, regional","transport_description":"< 640 km, diesel, kg km from person-km","transport_unit":"kg km","transport_co2_eq":"0.080400","from_stop_id":"4115","from_stop_lat":"52.570244","from_stop_lon":"-0.24369","from_stop_placename":"Peterborough, UK","to_stop_id":"960","to_stop_name":"origin","to_stop_lat":"43.670233","to_stop_lon":"-79.386755","to_stop_placename":"Toronto, ON, Canada","to_stop":{"id":"960","name":"origin","lat":"43.670233","lon":"-79.386755","placename":"Toronto, ON, Canada"},"from_stop":{"name":"origin","id":"4115","lat":"52.570244","lon":"-0.24369","placename":"Peterborough, UK"}}]}}},"processes":[],"eols":[]}],"user":{"name":"nini45","id":"9185"}}}