{"3266":{"oid":"3266","type":"food","flag":"","creator":"9194","name":"Mondays Munchies, Lunch edition","upc":"","imagelink":"","description":"Pizza Pizza...Om-nom-nom-nom-nom","slug":"mondays-munchies-lunch-edition-5","category":"","weight":"2","emissions":"2.924958896","embodied":"2.92237442","transport":"0.002584476","process":"0","endoflife":"0","shipping":"2958.17","lifetime":null,"usagetype":"","usageenergy":null,"usageemissions":null,"timecreated":"2010-03-08 14:43:34.459224","timemodified":"2010-03-08 19:50:13","visibility":"public","showfootprint":"on","showembodied":"on","showtransport":"on","showprocess":"on","showendoflife":"on","showlastleg":"on","showuse":"on","showstats":"on","stops":{"origin":{"related_to":"3266","part_or_object":"o","notes":"","placename":"Toronto, ON, Canada","id":"1000","category":"1","lat":"43.670233","lon":"-79.386755","name":"origin","hops":{"incoming":[{"transport_id":"3","id":"1785","transport_name":"truck, 40 tons","transport_description":"truck, half full","transport_unit":"kg km","transport_co2_eq":"0.030900","from_stop_id":"4045","from_stop_lat":"44.389244","from_stop_lon":"-79.690162","to_stop_id":"1000","to_stop_name":"origin","to_stop_lat":"43.670233","placename":"Barrie, ON, Canada","to_stop_lon":"-79.386755","to_stop":{"id":"1000","name":"origin","lat":"43.670233","placename":"Toronto, ON, Canada","lon":"-79.386755"},"from_stop":{"name":"origin","id":"4045","lat":"44.389244","lon":"-79.690162","placename":"Barrie, ON, Canada"}},{"transport_id":"3","id":"1786","transport_name":"truck, 40 tons","transport_description":"truck, half full","transport_unit":"kg km","transport_co2_eq":"0.030900","from_stop_id":"4046","from_stop_lat":"44.389244","from_stop_lon":"-79.690162","to_stop_id":"1000","to_stop_name":"origin","to_stop_lat":"43.670233","placename":"Barrie, ON, Canada","to_stop_lon":"-79.386755","to_stop":{"id":"1000","name":"origin","lat":"43.670233","placename":"Toronto, ON, Canada","lon":"-79.386755"},"from_stop":{"name":"origin","id":"4046","lat":"44.389244","lon":"-79.690162","placename":"Barrie, ON, Canada"}},{"transport_id":"17","id":"1783","transport_name":"None Selected","transport_description":null,"transport_unit":"kg km","transport_co2_eq":"0.000000","from_stop_id":"4043","from_stop_lat":"53.540941","from_stop_lon":"-113.493698","to_stop_id":"1000","to_stop_name":"origin","to_stop_lat":"43.670233","placename":"Edmonton, AB, Canada","to_stop_lon":"-79.386755","to_stop":{"id":"1000","name":"origin","lat":"43.670233","placename":"Toronto, ON, Canada","lon":"-79.386755"},"from_stop":{"name":"origin","id":"4043","lat":"53.540941","lon":"-113.493698","placename":"Edmonton, AB, Canada"}},{"transport_id":"17","id":"1784","transport_name":"None Selected","transport_description":null,"transport_unit":"kg km","transport_co2_eq":"0.000000","from_stop_id":"4044","from_stop_lat":"44.389244","from_stop_lon":"-79.690162","to_stop_id":"1000","to_stop_name":"origin","to_stop_lat":"43.670233","placename":"Barrie, ON, Canada","to_stop_lon":"-79.386755","to_stop":{"id":"1000","name":"origin","lat":"43.670233","placename":"Toronto, ON, Canada","lon":"-79.386755"},"from_stop":{"name":"origin","id":"4044","lat":"44.389244","lon":"-79.690162","placename":"Barrie, ON, Canada"}}],"outgoing":[]}}},"parts":[{"oid":"3266","imid":"2192","linkid":"parts\/","weight":"0.5","rawemissions":"1.46118721","emissions":"0.730593605","shipping":"2707.25","processemissions":null,"endoflifeemissions":null,"disposaltype":null,"disposalenergy":null,"disposalimpact":null,"disposalemissions":null,"description":"","name":"Pizza crust","id":"2192","stops":{"origin":{"related_to":"2192","part_or_object":"p","notes":"","placename":"Edmonton, AB, Canada","id":4043,"name":"origin","lat":"53.540941","lon":"-113.493698","hops":{"incoming":[],"outgoing":[{"transport_id":"17","id":"1783","transport_name":"None Selected","transport_description":null,"transport_unit":"kg km","transport_co2_eq":"0.000000","from_stop_id":"4043","from_stop_lat":"53.540941","from_stop_lon":"-113.493698","from_stop_placename":"Edmonton, AB, Canada","to_stop_id":"1000","to_stop_name":"origin","to_stop_lat":"43.670233","to_stop_lon":"-79.386755","to_stop_placename":"Toronto, ON, Canada","to_stop":{"id":"1000","name":"origin","lat":"43.670233","lon":"-79.386755","placename":"Toronto, ON, Canada"},"from_stop":{"name":"origin","id":"4043","lat":"53.540941","lon":"-113.493698","placename":"Edmonton, AB, Canada"}}]}}},"processes":[],"eols":[]},{"oid":"3266","imid":"2193","linkid":"parts\/","weight":"0.5","rawemissions":"1.46118721","emissions":"0.730593605","shipping":"83.64","processemissions":null,"endoflifeemissions":null,"disposaltype":null,"disposalenergy":null,"disposalimpact":null,"disposalemissions":null,"description":"","name":"Cheese","id":"2193","stops":{"origin":{"related_to":"2193","part_or_object":"p","notes":"","placename":"Barrie, ON, Canada","id":4044,"name":"origin","lat":"44.389244","lon":"-79.690162","hops":{"incoming":[],"outgoing":[{"transport_id":"17","id":"1784","transport_name":"None Selected","transport_description":null,"transport_unit":"kg km","transport_co2_eq":"0.000000","from_stop_id":"4044","from_stop_lat":"44.389244","from_stop_lon":"-79.690162","from_stop_placename":"Barrie, ON, Canada","to_stop_id":"1000","to_stop_name":"origin","to_stop_lat":"43.670233","to_stop_lon":"-79.386755","to_stop_placename":"Toronto, ON, Canada","to_stop":{"id":"1000","name":"origin","lat":"43.670233","lon":"-79.386755","placename":"Toronto, ON, Canada"},"from_stop":{"name":"origin","id":"4044","lat":"44.389244","lon":"-79.690162","placename":"Barrie, ON, Canada"}}]}}},"processes":[],"eols":[]},{"oid":"3266","imid":"2194","linkid":"parts\/","weight":"0.5","rawemissions":"1.46118721","emissions":"0.730593605","shipping":"83.64","processemissions":null,"endoflifeemissions":null,"disposaltype":null,"disposalenergy":null,"disposalimpact":null,"disposalemissions":null,"description":"","name":"Tomato Sauce","id":"2194","stops":{"origin":{"related_to":"2194","part_or_object":"p","notes":"","placename":"Barrie, ON, Canada","id":4045,"name":"origin","lat":"44.389244","lon":"-79.690162","hops":{"incoming":[],"outgoing":[{"transport_id":"3","id":"1785","transport_name":"truck, 40 tons","transport_description":"truck, half full","transport_unit":"kg km","transport_co2_eq":"0.030900","from_stop_id":"4045","from_stop_lat":"44.389244","from_stop_lon":"-79.690162","from_stop_placename":"Barrie, ON, Canada","to_stop_id":"1000","to_stop_name":"origin","to_stop_lat":"43.670233","to_stop_lon":"-79.386755","to_stop_placename":"Toronto, ON, Canada","to_stop":{"id":"1000","name":"origin","lat":"43.670233","lon":"-79.386755","placename":"Toronto, ON, Canada"},"from_stop":{"name":"origin","id":"4045","lat":"44.389244","lon":"-79.690162","placename":"Barrie, ON, Canada"}}]}}},"processes":[],"eols":[]},{"oid":"3266","imid":"2195","linkid":"parts\/","weight":"0.5","rawemissions":"1.46118721","emissions":"0.730593605","shipping":"83.64","processemissions":null,"endoflifeemissions":null,"disposaltype":null,"disposalenergy":null,"disposalimpact":null,"disposalemissions":null,"description":"","name":"Pepperoni","id":"2195","stops":{"origin":{"related_to":"2195","part_or_object":"p","notes":"","placename":"Barrie, ON, Canada","id":4046,"name":"origin","lat":"44.389244","lon":"-79.690162","hops":{"incoming":[],"outgoing":[{"transport_id":"3","id":"1786","transport_name":"truck, 40 tons","transport_description":"truck, half full","transport_unit":"kg km","transport_co2_eq":"0.030900","from_stop_id":"4046","from_stop_lat":"44.389244","from_stop_lon":"-79.690162","from_stop_placename":"Barrie, ON, Canada","to_stop_id":"1000","to_stop_name":"origin","to_stop_lat":"43.670233","to_stop_lon":"-79.386755","to_stop_placename":"Toronto, ON, Canada","to_stop":{"id":"1000","name":"origin","lat":"43.670233","lon":"-79.386755","placename":"Toronto, ON, Canada"},"from_stop":{"name":"origin","id":"4046","lat":"44.389244","lon":"-79.690162","placename":"Barrie, ON, Canada"}}]}}},"processes":[],"eols":[]}],"user":{"name":"Om-nom-nom Mapper","id":"9194"}}}