{"3282":{"oid":"3282","type":"food","flag":"","creator":"9217","name":"Driftin' Cornflakes","upc":"","imagelink":"","description":"!!!!!!!!!!!!!!!!","slug":"driftin-cornflakes","category":"","weight":"11.5","emissions":"20.6901663319","embodied":"20.125","transport":"0.5651663319","process":"0","endoflife":"0","shipping":"9064.11","lifetime":null,"usagetype":"","usageenergy":null,"usageemissions":null,"timecreated":"2010-03-09 12:56:05.536618","timemodified":"2010-03-09 18:44:14","visibility":"public","showfootprint":"on","showembodied":"on","showtransport":"on","showprocess":"on","showendoflife":"on","showlastleg":"on","showuse":"on","showstats":"on","stops":{"origin":{"related_to":"3282","part_or_object":"o","notes":"","placename":"Toronto, ON, Canada","id":"1039","category":"1","lat":"43.670233","lon":"-79.386755","name":"origin","hops":{"incoming":[{"transport_id":"3","id":"1993","transport_name":"truck, 40 tons","transport_description":"truck, half full","transport_unit":"kg km","transport_co2_eq":"0.030900","from_stop_id":"4253","from_stop_lat":"20.5310734","from_stop_lon":"-100.4418899","to_stop_id":"1039","to_stop_name":"origin","to_stop_lat":"43.670233","placename":"El Pueblito, Qt, Mexico","to_stop_lon":"-79.386755","to_stop":{"id":"1039","name":"origin","lat":"43.670233","placename":"Toronto, ON, Canada","lon":"-79.386755"},"from_stop":{"name":"origin","id":"4253","lat":"20.5310734","lon":"-100.4418899","placename":"El Pueblito, Qt, Mexico"}},{"transport_id":"3","id":"1994","transport_name":"truck, 40 tons","transport_description":"truck, half full","transport_unit":"kg km","transport_co2_eq":"0.030900","from_stop_id":"4254","from_stop_lat":"45.423494","from_stop_lon":"-75.697933","to_stop_id":"1039","to_stop_name":"origin","to_stop_lat":"43.670233","placename":"Ottawa, ON, Canada","to_stop_lon":"-79.386755","to_stop":{"id":"1039","name":"origin","lat":"43.670233","placename":"Toronto, ON, Canada","lon":"-79.386755"},"from_stop":{"name":"origin","id":"4254","lat":"45.423494","lon":"-75.697933","placename":"Ottawa, ON, Canada"}},{"transport_id":"3","id":"1995","transport_name":"truck, 40 tons","transport_description":"truck, half full","transport_unit":"kg km","transport_co2_eq":"0.030900","from_stop_id":"4255","from_stop_lat":"44.305913","from_stop_lon":"-78.320087","to_stop_id":"1039","to_stop_name":"origin","to_stop_lat":"43.670233","placename":"Peterborough, ON, Canada","to_stop_lon":"-79.386755","to_stop":{"id":"1039","name":"origin","lat":"43.670233","placename":"Toronto, ON, Canada","lon":"-79.386755"},"from_stop":{"name":"origin","id":"4255","lat":"44.305913","lon":"-78.320087","placename":"Peterborough, ON, Canada"}},{"transport_id":"3","id":"1997","transport_name":"truck, 40 tons","transport_description":"truck, half full","transport_unit":"kg km","transport_co2_eq":"0.030900","from_stop_id":"4257","from_stop_lat":"39.1457253","from_stop_lon":"-121.5913547","to_stop_id":"1039","to_stop_name":"origin","to_stop_lat":"43.670233","placename":"Marysville, CA, USA","to_stop_lon":"-79.386755","to_stop":{"id":"1039","name":"origin","lat":"43.670233","placename":"Toronto, ON, Canada","lon":"-79.386755"},"from_stop":{"name":"origin","id":"4257","lat":"39.1457253","lon":"-121.5913547","placename":"Marysville, CA, USA"}},{"transport_id":"3","id":"1998","transport_name":"truck, 40 tons","transport_description":"truck, half full","transport_unit":"kg km","transport_co2_eq":"0.030900","from_stop_id":"4258","from_stop_lat":"27.4989278","from_stop_lon":"-82.5748194","to_stop_id":"1039","to_stop_name":"origin","to_stop_lat":"43.670233","placename":"Bradenton, FL, USA","to_stop_lon":"-79.386755","to_stop":{"id":"1039","name":"origin","lat":"43.670233","placename":"Toronto, ON, Canada","lon":"-79.386755"},"from_stop":{"name":"origin","id":"4258","lat":"27.4989278","lon":"-82.5748194","placename":"Bradenton, FL, USA"}},{"transport_id":"2","id":"1999","transport_name":"truck, 16 tons","transport_description":"truck, half full","transport_unit":"kg km","transport_co2_eq":"0.020300","from_stop_id":"4259","from_stop_lat":"43.881261","from_stop_lon":"-79.261584","to_stop_id":"1039","to_stop_name":"origin","to_stop_lat":"43.670233","placename":"Markham, ON, Canada","to_stop_lon":"-79.386755","to_stop":{"id":"1039","name":"origin","lat":"43.670233","placename":"Toronto, ON, Canada","lon":"-79.386755"},"from_stop":{"name":"origin","id":"4259","lat":"43.881261","lon":"-79.261584","placename":"Markham, ON, Canada"}}],"outgoing":[]}}},"parts":[{"oid":"3282","imid":"2364","linkid":"","weight":"0.7","rawemissions":"1.75","emissions":"1.225","shipping":"3232.1","processemissions":null,"endoflifeemissions":null,"disposaltype":null,"disposalenergy":null,"disposalimpact":null,"disposalemissions":null,"description":"wut","name":"Corn Flakes","id":"2364","stops":{"origin":{"related_to":"2364","part_or_object":"p","notes":"","placename":"El Pueblito, Qt, Mexico","id":4253,"name":"origin","lat":"20.5310734","lon":"-100.4418899","hops":{"incoming":[],"outgoing":[{"transport_id":"3","id":"1993","transport_name":"truck, 40 tons","transport_description":"truck, half full","transport_unit":"kg km","transport_co2_eq":"0.030900","from_stop_id":"4253","from_stop_lat":"20.5310734","from_stop_lon":"-100.4418899","from_stop_placename":"El Pueblito, Qt, Mexico","to_stop_id":"1039","to_stop_name":"origin","to_stop_lat":"43.670233","to_stop_lon":"-79.386755","to_stop_placename":"Toronto, ON, Canada","to_stop":{"id":"1039","name":"origin","lat":"43.670233","lon":"-79.386755","placename":"Toronto, ON, Canada"},"from_stop":{"name":"origin","id":"4253","lat":"20.5310734","lon":"-100.4418899","placename":"El Pueblito, Qt, Mexico"}}]}}},"processes":[],"eols":[]},{"oid":"3282","imid":"2365","linkid":"","weight":"5","rawemissions":"1.75","emissions":"8.75","shipping":"351.71","processemissions":null,"endoflifeemissions":null,"disposaltype":null,"disposalenergy":null,"disposalimpact":null,"disposalemissions":null,"description":"!!!!!!","name":"Milk","id":"2365","stops":{"origin":{"related_to":"2365","part_or_object":"p","notes":"","placename":"Ottawa, ON, Canada","id":4254,"name":"origin","lat":"45.423494","lon":"-75.697933","hops":{"incoming":[],"outgoing":[{"transport_id":"3","id":"1994","transport_name":"truck, 40 tons","transport_description":"truck, half full","transport_unit":"kg km","transport_co2_eq":"0.030900","from_stop_id":"4254","from_stop_lat":"45.423494","from_stop_lon":"-75.697933","from_stop_placename":"Ottawa, ON, Canada","to_stop_id":"1039","to_stop_name":"origin","to_stop_lat":"43.670233","to_stop_lon":"-79.386755","to_stop_placename":"Toronto, ON, Canada","to_stop":{"id":"1039","name":"origin","lat":"43.670233","lon":"-79.386755","placename":"Toronto, ON, Canada"},"from_stop":{"name":"origin","id":"4254","lat":"45.423494","lon":"-75.697933","placename":"Ottawa, ON, Canada"}}]}}},"processes":[],"eols":[]},{"oid":"3282","imid":"2366","linkid":"","weight":"0.5","rawemissions":"1.75","emissions":"0.875","shipping":"110.93","processemissions":null,"endoflifeemissions":null,"disposaltype":null,"disposalenergy":null,"disposalimpact":null,"disposalemissions":null,"description":"damn SON!","name":"Hravest Crunch","id":"2366","stops":{"origin":{"related_to":"2366","part_or_object":"p","notes":"","placename":"Peterborough, ON, Canada","id":4255,"name":"origin","lat":"44.305913","lon":"-78.320087","hops":{"incoming":[],"outgoing":[{"transport_id":"3","id":"1995","transport_name":"truck, 40 tons","transport_description":"truck, half full","transport_unit":"kg km","transport_co2_eq":"0.030900","from_stop_id":"4255","from_stop_lat":"44.305913","from_stop_lon":"-78.320087","from_stop_placename":"Peterborough, ON, Canada","to_stop_id":"1039","to_stop_name":"origin","to_stop_lat":"43.670233","to_stop_lon":"-79.386755","to_stop_placename":"Toronto, ON, Canada","to_stop":{"id":"1039","name":"origin","lat":"43.670233","lon":"-79.386755","placename":"Toronto, ON, Canada"},"from_stop":{"name":"origin","id":"4255","lat":"44.305913","lon":"-78.320087","placename":"Peterborough, ON, Canada"}}]}}},"processes":[],"eols":[]},{"oid":"3282","imid":"2367","linkid":"","weight":"3","rawemissions":"1.75","emissions":"5.25","shipping":"3521.03","processemissions":null,"endoflifeemissions":null,"disposaltype":null,"disposalenergy":null,"disposalimpact":null,"disposalemissions":null,"description":"Damn boi","name":"Kiwi","id":"2367","stops":{"origin":{"related_to":"2367","part_or_object":"p","notes":"","placename":"Marysville, CA, USA","id":4257,"name":"origin","lat":"39.1457253","lon":"-121.5913547","hops":{"incoming":[],"outgoing":[{"transport_id":"3","id":"1997","transport_name":"truck, 40 tons","transport_description":"truck, half full","transport_unit":"kg km","transport_co2_eq":"0.030900","from_stop_id":"4257","from_stop_lat":"39.1457253","from_stop_lon":"-121.5913547","from_stop_placename":"Marysville, CA, USA","to_stop_id":"1039","to_stop_name":"origin","to_stop_lat":"43.670233","to_stop_lon":"-79.386755","to_stop_placename":"Toronto, ON, Canada","to_stop":{"id":"1039","name":"origin","lat":"43.670233","lon":"-79.386755","placename":"Toronto, ON, Canada"},"from_stop":{"name":"origin","id":"4257","lat":"39.1457253","lon":"-121.5913547","placename":"Marysville, CA, USA"}}]}}},"processes":[],"eols":[]},{"oid":"3282","imid":"2368","linkid":"","weight":"2","rawemissions":"1.75","emissions":"3.5","shipping":"1822.78","processemissions":null,"endoflifeemissions":null,"disposaltype":null,"disposalenergy":null,"disposalimpact":null,"disposalemissions":null,"description":"!!!!!!!!!!!!!!!1!!!!!!!!!11!!!!!!!!!!!!!1!!!!!!!!!!!!one!!!!!!!1!!!!!!!!!one!!!!!!!","name":"Tropicana orange juice","id":"2368","stops":{"origin":{"related_to":"2368","part_or_object":"p","notes":"","placename":"Bradenton, FL, USA","id":4258,"name":"origin","lat":"27.4989278","lon":"-82.5748194","hops":{"incoming":[],"outgoing":[{"transport_id":"3","id":"1998","transport_name":"truck, 40 tons","transport_description":"truck, half full","transport_unit":"kg km","transport_co2_eq":"0.030900","from_stop_id":"4258","from_stop_lat":"27.4989278","from_stop_lon":"-82.5748194","from_stop_placename":"Bradenton, FL, USA","to_stop_id":"1039","to_stop_name":"origin","to_stop_lat":"43.670233","to_stop_lon":"-79.386755","to_stop_placename":"Toronto, ON, Canada","to_stop":{"id":"1039","name":"origin","lat":"43.670233","lon":"-79.386755","placename":"Toronto, ON, Canada"},"from_stop":{"name":"origin","id":"4258","lat":"27.4989278","lon":"-82.5748194","placename":"Bradenton, FL, USA"}}]}}},"processes":[],"eols":[]},{"oid":"3282","imid":"2369","linkid":"","weight":"0.3","rawemissions":"1.75","emissions":"0.525","shipping":"25.56","processemissions":null,"endoflifeemissions":null,"disposaltype":null,"disposalenergy":null,"disposalimpact":null,"disposalemissions":null,"description":"","name":"rasberries","id":"2369","stops":{"origin":{"related_to":"2369","part_or_object":"p","notes":"","placename":"Markham, ON, Canada","id":4259,"name":"origin","lat":"43.881261","lon":"-79.261584","hops":{"incoming":[],"outgoing":[{"transport_id":"2","id":"1999","transport_name":"truck, 16 tons","transport_description":"truck, half full","transport_unit":"kg km","transport_co2_eq":"0.020300","from_stop_id":"4259","from_stop_lat":"43.881261","from_stop_lon":"-79.261584","from_stop_placename":"Markham, ON, Canada","to_stop_id":"1039","to_stop_name":"origin","to_stop_lat":"43.670233","to_stop_lon":"-79.386755","to_stop_placename":"Toronto, ON, Canada","to_stop":{"id":"1039","name":"origin","lat":"43.670233","lon":"-79.386755","placename":"Toronto, ON, Canada"},"from_stop":{"name":"origin","id":"4259","lat":"43.881261","lon":"-79.261584","placename":"Markham, ON, Canada"}}]}}},"processes":[],"eols":[]}],"user":{"name":"Cuban Raft Rider","id":"9217"}}}