{"3285":{"oid":"3285","type":"food","flag":"","creator":"9221","name":"NOMNOMNOM","upc":"","imagelink":"","description":"its good stuff","slug":"nomnomnom","category":"","weight":"7.648","emissions":"10.0615894238","embodied":"9.78944","transport":"0.272149423848","process":"0","endoflife":"0","shipping":"12946.14","lifetime":null,"usagetype":"","usageenergy":null,"usageemissions":null,"timecreated":"2010-03-09 12:58:05.747065","timemodified":"2010-03-09 18:42:19","visibility":"public","showfootprint":"on","showembodied":"on","showtransport":"on","showprocess":"on","showendoflife":"on","showlastleg":"on","showuse":"on","showstats":"on","stops":{"origin":{"related_to":"3285","part_or_object":"o","notes":"","placename":"Toronto, ON, Canada","id":"1035","category":"1","lat":"43.670233","lon":"-79.386755","name":"origin","hops":{"incoming":[{"transport_id":"3","id":"1982","transport_name":"truck, 40 tons","transport_description":"truck, half full","transport_unit":"kg km","transport_co2_eq":"0.030900","from_stop_id":"4242","from_stop_lat":"37.09024","from_stop_lon":"-95.712891","to_stop_id":"1035","to_stop_name":"origin","to_stop_lat":"43.670233","placename":"United States","to_stop_lon":"-79.386755","to_stop":{"id":"1035","name":"origin","lat":"43.670233","placename":"Toronto, ON, Canada","lon":"-79.386755"},"from_stop":{"name":"origin","id":"4242","lat":"37.09024","lon":"-95.712891","placename":"United States"}},{"transport_id":"3","id":"1983","transport_name":"truck, 40 tons","transport_description":"truck, half full","transport_unit":"kg km","transport_co2_eq":"0.030900","from_stop_id":"4243","from_stop_lat":"37.09024","from_stop_lon":"-95.712891","to_stop_id":"1035","to_stop_name":"origin","to_stop_lat":"43.670233","placename":"United States","to_stop_lon":"-79.386755","to_stop":{"id":"1035","name":"origin","lat":"43.670233","placename":"Toronto, ON, Canada","lon":"-79.386755"},"from_stop":{"name":"origin","id":"4243","lat":"37.09024","lon":"-95.712891","placename":"United States"}},{"transport_id":"3","id":"1984","transport_name":"truck, 40 tons","transport_description":"truck, half full","transport_unit":"kg km","transport_co2_eq":"0.030900","from_stop_id":"4244","from_stop_lat":"37.09024","from_stop_lon":"-95.712891","to_stop_id":"1035","to_stop_name":"origin","to_stop_lat":"43.670233","placename":"United States","to_stop_lon":"-79.386755","to_stop":{"id":"1035","name":"origin","lat":"43.670233","placename":"Toronto, ON, Canada","lon":"-79.386755"},"from_stop":{"name":"origin","id":"4244","lat":"37.09024","lon":"-95.712891","placename":"United States"}},{"transport_id":"3","id":"1985","transport_name":"truck, 40 tons","transport_description":"truck, half full","transport_unit":"kg km","transport_co2_eq":"0.030900","from_stop_id":"4245","from_stop_lat":"51.253775","from_stop_lon":"-85.3232139","to_stop_id":"1035","to_stop_name":"origin","to_stop_lat":"43.670233","placename":"Ontario, Canada","to_stop_lon":"-79.386755","to_stop":{"id":"1035","name":"origin","lat":"43.670233","placename":"Toronto, ON, Canada","lon":"-79.386755"},"from_stop":{"name":"origin","id":"4245","lat":"51.253775","lon":"-85.3232139","placename":"Ontario, Canada"}},{"transport_id":"3","id":"1986","transport_name":"truck, 40 tons","transport_description":"truck, half full","transport_unit":"kg km","transport_co2_eq":"0.030900","from_stop_id":"4246","from_stop_lat":"36.778261","from_stop_lon":"-119.4179324","to_stop_id":"1035","to_stop_name":"origin","to_stop_lat":"43.670233","placename":"California, USA","to_stop_lon":"-79.386755","to_stop":{"id":"1035","name":"origin","lat":"43.670233","placename":"Toronto, ON, Canada","lon":"-79.386755"},"from_stop":{"name":"origin","id":"4246","lat":"36.778261","lon":"-119.4179324","placename":"California, USA"}},{"transport_id":"3","id":"1987","transport_name":"truck, 40 tons","transport_description":"truck, half full","transport_unit":"kg km","transport_co2_eq":"0.030900","from_stop_id":"4247","from_stop_lat":"37.09024","from_stop_lon":"-95.712891","to_stop_id":"1035","to_stop_name":"origin","to_stop_lat":"43.670233","placename":"United States","to_stop_lon":"-79.386755","to_stop":{"id":"1035","name":"origin","lat":"43.670233","placename":"Toronto, ON, Canada","lon":"-79.386755"},"from_stop":{"name":"origin","id":"4247","lat":"37.09024","lon":"-95.712891","placename":"United States"}},{"transport_id":"3","id":"1988","transport_name":"truck, 40 tons","transport_description":"truck, half full","transport_unit":"kg km","transport_co2_eq":"0.030900","from_stop_id":"4248","from_stop_lat":"46.2190582","from_stop_lon":"-62.9158492","to_stop_id":"1035","to_stop_name":"origin","to_stop_lat":"43.670233","placename":"Prince Edward Island, Canada","to_stop_lon":"-79.386755","to_stop":{"id":"1035","name":"origin","lat":"43.670233","placename":"Toronto, ON, Canada","lon":"-79.386755"},"from_stop":{"name":"origin","id":"4248","lat":"46.2190582","lon":"-62.9158492","placename":"Prince Edward Island, Canada"}},{"transport_id":"3","id":"1989","transport_name":"truck, 40 tons","transport_description":"truck, half full","transport_unit":"kg km","transport_co2_eq":"0.030900","from_stop_id":"4249","from_stop_lat":"51.253775","from_stop_lon":"-85.3232139","to_stop_id":"1035","to_stop_name":"origin","to_stop_lat":"43.670233","placename":"Ontario, Canada","to_stop_lon":"-79.386755","to_stop":{"id":"1035","name":"origin","lat":"43.670233","placename":"Toronto, ON, Canada","lon":"-79.386755"},"from_stop":{"name":"origin","id":"4249","lat":"51.253775","lon":"-85.3232139","placename":"Ontario, Canada"}},{"transport_id":"2","id":"1990","transport_name":"truck, 16 tons","transport_description":"truck, half full","transport_unit":"kg km","transport_co2_eq":"0.020300","from_stop_id":"4250","from_stop_lat":"43.638196","from_stop_lon":"-79.494274","to_stop_id":"1035","to_stop_name":"origin","to_stop_lat":"43.670233","placename":"Park Lawn Rd, Toronto, ON, Canada","to_stop_lon":"-79.386755","to_stop":{"id":"1035","name":"origin","lat":"43.670233","placename":"Toronto, ON, Canada","lon":"-79.386755"},"from_stop":{"name":"origin","id":"4250","lat":"43.638196","lon":"-79.494274","placename":"Park Lawn Rd, Toronto, ON, Canada"}}],"outgoing":[]}}},"parts":[{"oid":"3285","imid":"2353","linkid":"","weight":"0.3","rawemissions":"1.28","emissions":"0.384","shipping":"1562.39","processemissions":null,"endoflifeemissions":null,"disposaltype":null,"disposalenergy":null,"disposalimpact":null,"disposalemissions":null,"description":"i like salad","name":"Lettuce","id":"2353","stops":{"origin":{"related_to":"2353","part_or_object":"p","notes":"","placename":"United States","id":4242,"name":"origin","lat":"37.09024","lon":"-95.712891","hops":{"incoming":[],"outgoing":[{"transport_id":"3","id":"1982","transport_name":"truck, 40 tons","transport_description":"truck, half full","transport_unit":"kg km","transport_co2_eq":"0.030900","from_stop_id":"4242","from_stop_lat":"37.09024","from_stop_lon":"-95.712891","from_stop_placename":"United States","to_stop_id":"1035","to_stop_name":"origin","to_stop_lat":"43.670233","to_stop_lon":"-79.386755","to_stop_placename":"Toronto, ON, Canada","to_stop":{"id":"1035","name":"origin","lat":"43.670233","lon":"-79.386755","placename":"Toronto, ON, Canada"},"from_stop":{"name":"origin","id":"4242","lat":"37.09024","lon":"-95.712891","placename":"United States"}}]}}},"processes":[],"eols":[]},{"oid":"3285","imid":"2354","linkid":"","weight":"0.15","rawemissions":"1.28","emissions":"0.192","shipping":"1562.39","processemissions":null,"endoflifeemissions":null,"disposaltype":null,"disposalenergy":null,"disposalimpact":null,"disposalemissions":null,"description":"not as good as red peppers. but still pretty good","name":"green pepper","id":"2354","stops":{"origin":{"related_to":"2354","part_or_object":"p","notes":"","placename":"United States","id":4243,"name":"origin","lat":"37.09024","lon":"-95.712891","hops":{"incoming":[],"outgoing":[{"transport_id":"3","id":"1983","transport_name":"truck, 40 tons","transport_description":"truck, half full","transport_unit":"kg km","transport_co2_eq":"0.030900","from_stop_id":"4243","from_stop_lat":"37.09024","from_stop_lon":"-95.712891","from_stop_placename":"United States","to_stop_id":"1035","to_stop_name":"origin","to_stop_lat":"43.670233","to_stop_lon":"-79.386755","to_stop_placename":"Toronto, ON, Canada","to_stop":{"id":"1035","name":"origin","lat":"43.670233","lon":"-79.386755","placename":"Toronto, ON, Canada"},"from_stop":{"name":"origin","id":"4243","lat":"37.09024","lon":"-95.712891","placename":"United States"}}]}}},"processes":[],"eols":[]},{"oid":"3285","imid":"2355","linkid":"","weight":"0.15","rawemissions":"1.28","emissions":"0.192","shipping":"1562.39","processemissions":null,"endoflifeemissions":null,"disposaltype":null,"disposalenergy":null,"disposalimpact":null,"disposalemissions":null,"description":":)","name":"red pepper","id":"2355","stops":{"origin":{"related_to":"2355","part_or_object":"p","notes":"","placename":"United States","id":4244,"name":"origin","lat":"37.09024","lon":"-95.712891","hops":{"incoming":[],"outgoing":[{"transport_id":"3","id":"1984","transport_name":"truck, 40 tons","transport_description":"truck, half full","transport_unit":"kg km","transport_co2_eq":"0.030900","from_stop_id":"4244","from_stop_lat":"37.09024","from_stop_lon":"-95.712891","from_stop_placename":"United States","to_stop_id":"1035","to_stop_name":"origin","to_stop_lat":"43.670233","to_stop_lon":"-79.386755","to_stop_placename":"Toronto, ON, Canada","to_stop":{"id":"1035","name":"origin","lat":"43.670233","lon":"-79.386755","placename":"Toronto, ON, Canada"},"from_stop":{"name":"origin","id":"4244","lat":"37.09024","lon":"-95.712891","placename":"United States"}}]}}},"processes":[],"eols":[]},{"oid":"3285","imid":"2356","linkid":"","weight":"0.9","rawemissions":"1.28","emissions":"1.152","shipping":"954.39","processemissions":null,"endoflifeemissions":null,"disposaltype":null,"disposalenergy":null,"disposalimpact":null,"disposalemissions":null,"description":"ho hum","name":"Eggs","id":"2356","stops":{"origin":{"related_to":"2356","part_or_object":"p","notes":"","placename":"Ontario, Canada","id":4245,"name":"origin","lat":"51.253775","lon":"-85.3232139","hops":{"incoming":[],"outgoing":[{"transport_id":"3","id":"1985","transport_name":"truck, 40 tons","transport_description":"truck, half full","transport_unit":"kg km","transport_co2_eq":"0.030900","from_stop_id":"4245","from_stop_lat":"51.253775","from_stop_lon":"-85.3232139","from_stop_placename":"Ontario, Canada","to_stop_id":"1035","to_stop_name":"origin","to_stop_lat":"43.670233","to_stop_lon":"-79.386755","to_stop_placename":"Toronto, ON, Canada","to_stop":{"id":"1035","name":"origin","lat":"43.670233","lon":"-79.386755","placename":"Toronto, ON, Canada"},"from_stop":{"name":"origin","id":"4245","lat":"51.253775","lon":"-85.3232139","placename":"Ontario, Canada"}}]}}},"processes":[],"eols":[]},{"oid":"3285","imid":"2357","linkid":"","weight":"0.2","rawemissions":"1.28","emissions":"0.256","shipping":"3452.62","processemissions":null,"endoflifeemissions":null,"disposaltype":null,"disposalenergy":null,"disposalimpact":null,"disposalemissions":null,"description":"nomnomnom","name":"spinach","id":"2357","stops":{"origin":{"related_to":"2357","part_or_object":"p","notes":"","placename":"California, USA","id":4246,"name":"origin","lat":"36.778261","lon":"-119.4179324","hops":{"incoming":[],"outgoing":[{"transport_id":"3","id":"1986","transport_name":"truck, 40 tons","transport_description":"truck, half full","transport_unit":"kg km","transport_co2_eq":"0.030900","from_stop_id":"4246","from_stop_lat":"36.778261","from_stop_lon":"-119.4179324","from_stop_placename":"California, USA","to_stop_id":"1035","to_stop_name":"origin","to_stop_lat":"43.670233","to_stop_lon":"-79.386755","to_stop_placename":"Toronto, ON, Canada","to_stop":{"id":"1035","name":"origin","lat":"43.670233","lon":"-79.386755","placename":"Toronto, ON, Canada"},"from_stop":{"name":"origin","id":"4246","lat":"36.778261","lon":"-119.4179324","placename":"California, USA"}}]}}},"processes":[],"eols":[]},{"oid":"3285","imid":"2358","linkid":"","weight":"0.448","rawemissions":"1.28","emissions":"0.57344","shipping":"1562.39","processemissions":null,"endoflifeemissions":null,"disposaltype":null,"disposalenergy":null,"disposalimpact":null,"disposalemissions":null,"description":"","name":"Garlic","id":"2358","stops":{"origin":{"related_to":"2358","part_or_object":"p","notes":"","placename":"United States","id":4247,"name":"origin","lat":"37.09024","lon":"-95.712891","hops":{"incoming":[],"outgoing":[{"transport_id":"3","id":"1987","transport_name":"truck, 40 tons","transport_description":"truck, half full","transport_unit":"kg km","transport_co2_eq":"0.030900","from_stop_id":"4247","from_stop_lat":"37.09024","from_stop_lon":"-95.712891","from_stop_placename":"United States","to_stop_id":"1035","to_stop_name":"origin","to_stop_lat":"43.670233","to_stop_lon":"-79.386755","to_stop_placename":"Toronto, ON, Canada","to_stop":{"id":"1035","name":"origin","lat":"43.670233","lon":"-79.386755","placename":"Toronto, ON, Canada"},"from_stop":{"name":"origin","id":"4247","lat":"37.09024","lon":"-95.712891","placename":"United States"}}]}}},"processes":[],"eols":[]},{"oid":"3285","imid":"2359","linkid":"","weight":"1","rawemissions":"1.28","emissions":"1.28","shipping":"1325.81","processemissions":null,"endoflifeemissions":null,"disposaltype":null,"disposalenergy":null,"disposalimpact":null,"disposalemissions":null,"description":"YUM","name":"sweet potatoes (2 large)","id":"2359","stops":{"origin":{"related_to":"2359","part_or_object":"p","notes":"","placename":"Prince Edward Island, Canada","id":4248,"name":"origin","lat":"46.2190582","lon":"-62.9158492","hops":{"incoming":[],"outgoing":[{"transport_id":"3","id":"1988","transport_name":"truck, 40 tons","transport_description":"truck, half full","transport_unit":"kg km","transport_co2_eq":"0.030900","from_stop_id":"4248","from_stop_lat":"46.2190582","from_stop_lon":"-62.9158492","from_stop_placename":"Prince Edward Island, Canada","to_stop_id":"1035","to_stop_name":"origin","to_stop_lat":"43.670233","to_stop_lon":"-79.386755","to_stop_placename":"Toronto, ON, Canada","to_stop":{"id":"1035","name":"origin","lat":"43.670233","lon":"-79.386755","placename":"Toronto, ON, Canada"},"from_stop":{"name":"origin","id":"4248","lat":"46.2190582","lon":"-62.9158492","placename":"Prince Edward Island, Canada"}}]}}},"processes":[],"eols":[]},{"oid":"3285","imid":"2360","linkid":"","weight":"4.5","rawemissions":"1.28","emissions":"5.76","shipping":"954.39","processemissions":null,"endoflifeemissions":null,"disposaltype":null,"disposalenergy":null,"disposalimpact":null,"disposalemissions":null,"description":"milk is good for your bones","name":"Milk (4L bag)","id":"2360","stops":{"origin":{"related_to":"2360","part_or_object":"p","notes":"","placename":"Ontario, Canada","id":4249,"name":"origin","lat":"51.253775","lon":"-85.3232139","hops":{"incoming":[],"outgoing":[{"transport_id":"3","id":"1989","transport_name":"truck, 40 tons","transport_description":"truck, half full","transport_unit":"kg km","transport_co2_eq":"0.030900","from_stop_id":"4249","from_stop_lat":"51.253775","from_stop_lon":"-85.3232139","from_stop_placename":"Ontario, Canada","to_stop_id":"1035","to_stop_name":"origin","to_stop_lat":"43.670233","to_stop_lon":"-79.386755","to_stop_placename":"Toronto, ON, Canada","to_stop":{"id":"1035","name":"origin","lat":"43.670233","lon":"-79.386755","placename":"Toronto, ON, Canada"},"from_stop":{"name":"origin","id":"4249","lat":"51.253775","lon":"-85.3232139","placename":"Ontario, Canada"}}]}}},"processes":[],"eols":[]},{"oid":"3285","imid":"2361","linkid":"","weight":"0","rawemissions":"1.28","emissions":"0","shipping":"9.37","processemissions":null,"endoflifeemissions":null,"disposaltype":null,"disposalenergy":null,"disposalimpact":null,"disposalemissions":null,"description":"i likeeeee","name":"Kraft Salad Dressing","id":"2361","stops":{"origin":{"related_to":"2361","part_or_object":"p","notes":"","placename":"Park Lawn Rd, Toronto, ON, Canada","id":4250,"name":"origin","lat":"43.638196","lon":"-79.494274","hops":{"incoming":[],"outgoing":[{"transport_id":"2","id":"1990","transport_name":"truck, 16 tons","transport_description":"truck, half full","transport_unit":"kg km","transport_co2_eq":"0.020300","from_stop_id":"4250","from_stop_lat":"43.638196","from_stop_lon":"-79.494274","from_stop_placename":"Park Lawn Rd, Toronto, ON, Canada","to_stop_id":"1035","to_stop_name":"origin","to_stop_lat":"43.670233","to_stop_lon":"-79.386755","to_stop_placename":"Toronto, ON, Canada","to_stop":{"id":"1035","name":"origin","lat":"43.670233","lon":"-79.386755","placename":"Toronto, ON, Canada"},"from_stop":{"name":"origin","id":"4250","lat":"43.638196","lon":"-79.494274","placename":"Park Lawn Rd, Toronto, ON, Canada"}}]}}},"processes":[],"eols":[]}],"user":{"name":"erica_peach","id":"9221"}}}