{"3286":{"oid":"3286","type":"food","flag":"","creator":"9220","name":"Yum Yum Snacktime","upc":"","imagelink":"","description":"Simply Delicious!","slug":"yum-yum-snacktime","category":"","weight":"3.8","emissions":"6.6670705771","embodied":"5.548","transport":"1.1190705771","process":"0","endoflife":"0","shipping":"20966.32","lifetime":null,"usagetype":"","usageenergy":null,"usageemissions":null,"timecreated":"2010-03-09 12:58:13.299194","timemodified":"2010-03-09 18:29:12","visibility":"public","showfootprint":"on","showembodied":"on","showtransport":"on","showprocess":"on","showendoflife":"on","showlastleg":"on","showuse":"on","showstats":"on","stops":{"origin":{"related_to":"3286","part_or_object":"o","notes":"","placename":"Toronto, ON, Canada","id":"1036","category":"1","lat":"43.670233","lon":"-79.386755","name":"origin","hops":{"incoming":[{"transport_id":"9","id":"1954","transport_name":"container ship","transport_description":"moving boxcar size containers","transport_unit":"kg km","transport_co2_eq":"0.047800","from_stop_id":"4214","from_stop_lat":"4.570868","from_stop_lon":"-74.297333","to_stop_id":"1036","to_stop_name":"origin","to_stop_lat":"43.670233","placename":"Colombia","to_stop_lon":"-79.386755","to_stop":{"id":"1036","name":"origin","lat":"43.670233","placename":"Toronto, ON, Canada","lon":"-79.386755"},"from_stop":{"name":"origin","id":"4214","lat":"4.570868","lon":"-74.297333","placename":"Colombia"}},{"transport_id":"3","id":"1955","transport_name":"truck, 40 tons","transport_description":"truck, half full","transport_unit":"kg km","transport_co2_eq":"0.030900","from_stop_id":"4215","from_stop_lat":"36.778261","from_stop_lon":"-119.4179324","to_stop_id":"1036","to_stop_name":"origin","to_stop_lat":"43.670233","placename":"California, USA","to_stop_lon":"-79.386755","to_stop":{"id":"1036","name":"origin","lat":"43.670233","placename":"Toronto, ON, Canada","lon":"-79.386755"},"from_stop":{"name":"origin","id":"4215","lat":"36.778261","lon":"-119.4179324","placename":"California, USA"}},{"transport_id":"6","id":"1956","transport_name":"tanker ship","transport_description":"tanker for mobing liquids","transport_unit":"kg km","transport_co2_eq":"0.171600","from_stop_id":"4216","from_stop_lat":"-35.675147","from_stop_lon":"-71.542969","to_stop_id":"1036","to_stop_name":"origin","to_stop_lat":"43.670233","placename":"Chile","to_stop_lon":"-79.386755","to_stop":{"id":"1036","name":"origin","lat":"43.670233","placename":"Toronto, ON, Canada","lon":"-79.386755"},"from_stop":{"name":"origin","id":"4216","lat":"-35.675147","lon":"-71.542969","placename":"Chile"}},{"transport_id":"3","id":"1957","transport_name":"truck, 40 tons","transport_description":"truck, half full","transport_unit":"kg km","transport_co2_eq":"0.030900","from_stop_id":"4217","from_stop_lat":"9.748917","from_stop_lon":"-83.753428","to_stop_id":"1036","to_stop_name":"origin","to_stop_lat":"43.670233","placename":"Costa Rica","to_stop_lon":"-79.386755","to_stop":{"id":"1036","name":"origin","lat":"43.670233","placename":"Toronto, ON, Canada","lon":"-79.386755"},"from_stop":{"name":"origin","id":"4217","lat":"9.748917","lon":"-83.753428","placename":"Costa Rica"}},{"transport_id":"3","id":"1958","transport_name":"truck, 40 tons","transport_description":"truck, half full","transport_unit":"kg km","transport_co2_eq":"0.030900","from_stop_id":"4218","from_stop_lat":"40.4172871","from_stop_lon":"-82.907123","to_stop_id":"1036","to_stop_name":"origin","to_stop_lat":"43.670233","placename":"Ohio, USA","to_stop_lon":"-79.386755","to_stop":{"id":"1036","name":"origin","lat":"43.670233","placename":"Toronto, ON, Canada","lon":"-79.386755"},"from_stop":{"name":"origin","id":"4218","lat":"40.4172871","lon":"-82.907123","placename":"Ohio, USA"}}],"outgoing":[]}}},"parts":[{"oid":"3286","imid":"2325","linkid":"","weight":"0.3","rawemissions":"1.46","emissions":"0.438","shipping":"4381.19","processemissions":null,"endoflifeemissions":null,"disposaltype":null,"disposalenergy":null,"disposalimpact":null,"disposalemissions":null,"description":"Bananas are nummy","name":"Banana","id":"2325","stops":{"origin":{"related_to":"2325","part_or_object":"p","notes":"","placename":"Colombia","id":4214,"name":"origin","lat":"4.570868","lon":"-74.297333","hops":{"incoming":[],"outgoing":[{"transport_id":"9","id":"1954","transport_name":"container ship","transport_description":"moving boxcar size containers","transport_unit":"kg km","transport_co2_eq":"0.047800","from_stop_id":"4214","from_stop_lat":"4.570868","from_stop_lon":"-74.297333","from_stop_placename":"Colombia","to_stop_id":"1036","to_stop_name":"origin","to_stop_lat":"43.670233","to_stop_lon":"-79.386755","to_stop_placename":"Toronto, ON, Canada","to_stop":{"id":"1036","name":"origin","lat":"43.670233","lon":"-79.386755","placename":"Toronto, ON, Canada"},"from_stop":{"name":"origin","id":"4214","lat":"4.570868","lon":"-74.297333","placename":"Colombia"}}]}}},"processes":[],"eols":[]},{"oid":"3286","imid":"2326","linkid":"","weight":"0.5","rawemissions":"1.46","emissions":"0.73","shipping":"3452.62","processemissions":null,"endoflifeemissions":null,"disposaltype":null,"disposalenergy":null,"disposalimpact":null,"disposalemissions":null,"description":"Yum Oranges!","name":"Oranges","id":"2326","stops":{"origin":{"related_to":"2326","part_or_object":"p","notes":"","placename":"California, USA","id":4215,"name":"origin","lat":"36.778261","lon":"-119.4179324","hops":{"incoming":[],"outgoing":[{"transport_id":"3","id":"1955","transport_name":"truck, 40 tons","transport_description":"truck, half full","transport_unit":"kg km","transport_co2_eq":"0.030900","from_stop_id":"4215","from_stop_lat":"36.778261","from_stop_lon":"-119.4179324","from_stop_placename":"California, USA","to_stop_id":"1036","to_stop_name":"origin","to_stop_lat":"43.670233","to_stop_lon":"-79.386755","to_stop_placename":"Toronto, ON, Canada","to_stop":{"id":"1036","name":"origin","lat":"43.670233","lon":"-79.386755","placename":"Toronto, ON, Canada"},"from_stop":{"name":"origin","id":"4215","lat":"36.778261","lon":"-119.4179324","placename":"California, USA"}}]}}},"processes":[],"eols":[]},{"oid":"3286","imid":"2327","linkid":"","weight":"0.5","rawemissions":"1.46","emissions":"0.73","shipping":"8868.35","processemissions":null,"endoflifeemissions":null,"disposaltype":null,"disposalenergy":null,"disposalimpact":null,"disposalemissions":null,"description":"WOAH GRAPES","name":"Green Grapes","id":"2327","stops":{"origin":{"related_to":"2327","part_or_object":"p","notes":"","placename":"Chile","id":4216,"name":"origin","lat":"-35.675147","lon":"-71.542969","hops":{"incoming":[],"outgoing":[{"transport_id":"6","id":"1956","transport_name":"tanker ship","transport_description":"tanker for mobing liquids","transport_unit":"kg km","transport_co2_eq":"0.171600","from_stop_id":"4216","from_stop_lat":"-35.675147","from_stop_lon":"-71.542969","from_stop_placename":"Chile","to_stop_id":"1036","to_stop_name":"origin","to_stop_lat":"43.670233","to_stop_lon":"-79.386755","to_stop_placename":"Toronto, ON, Canada","to_stop":{"id":"1036","name":"origin","lat":"43.670233","lon":"-79.386755","placename":"Toronto, ON, Canada"},"from_stop":{"name":"origin","id":"4216","lat":"-35.675147","lon":"-71.542969","placename":"Chile"}}]}}},"processes":[],"eols":[]},{"oid":"3286","imid":"2328","linkid":"","weight":"2","rawemissions":"1.46","emissions":"2.92","shipping":"3799.69","processemissions":null,"endoflifeemissions":null,"disposaltype":null,"disposalenergy":null,"disposalimpact":null,"disposalemissions":null,"description":"I go in a truck \nChoo Chooo","name":"Pineapple","id":"2328","stops":{"origin":{"related_to":"2328","part_or_object":"p","notes":"","placename":"Costa Rica","id":4217,"name":"origin","lat":"9.748917","lon":"-83.753428","hops":{"incoming":[],"outgoing":[{"transport_id":"3","id":"1957","transport_name":"truck, 40 tons","transport_description":"truck, half full","transport_unit":"kg km","transport_co2_eq":"0.030900","from_stop_id":"4217","from_stop_lat":"9.748917","from_stop_lon":"-83.753428","from_stop_placename":"Costa Rica","to_stop_id":"1036","to_stop_name":"origin","to_stop_lat":"43.670233","to_stop_lon":"-79.386755","to_stop_placename":"Toronto, ON, Canada","to_stop":{"id":"1036","name":"origin","lat":"43.670233","lon":"-79.386755","placename":"Toronto, ON, Canada"},"from_stop":{"name":"origin","id":"4217","lat":"9.748917","lon":"-83.753428","placename":"Costa Rica"}}]}}},"processes":[],"eols":[]},{"oid":"3286","imid":"2329","linkid":"","weight":"0.5","rawemissions":"1.46","emissions":"0.73","shipping":"464.47","processemissions":null,"endoflifeemissions":null,"disposaltype":null,"disposalenergy":null,"disposalimpact":null,"disposalemissions":null,"description":"I like pears\nAlot\nThey are nice\nVery very nice","name":"Asian Pear","id":"2329","stops":{"origin":{"related_to":"2329","part_or_object":"p","notes":"","placename":"Ohio, USA","id":4218,"name":"origin","lat":"40.4172871","lon":"-82.907123","hops":{"incoming":[],"outgoing":[{"transport_id":"3","id":"1958","transport_name":"truck, 40 tons","transport_description":"truck, half full","transport_unit":"kg km","transport_co2_eq":"0.030900","from_stop_id":"4218","from_stop_lat":"40.4172871","from_stop_lon":"-82.907123","from_stop_placename":"Ohio, USA","to_stop_id":"1036","to_stop_name":"origin","to_stop_lat":"43.670233","to_stop_lon":"-79.386755","to_stop_placename":"Toronto, ON, Canada","to_stop":{"id":"1036","name":"origin","lat":"43.670233","lon":"-79.386755","placename":"Toronto, ON, Canada"},"from_stop":{"name":"origin","id":"4218","lat":"40.4172871","lon":"-82.907123","placename":"Ohio, USA"}}]}}},"processes":[],"eols":[]}],"user":{"name":"jelenaisafruit","id":"9220"}}}