{"3287":{"oid":"3287","type":"food","flag":"","creator":"9219","name":"Stew","upc":"","imagelink":"","description":"The stew that i had last night :)","slug":"stew","category":"","weight":"3.922","emissions":"7.74853957607","embodied":"7.13804","transport":"0.610499576067","process":"0","endoflife":"0","shipping":"14753.79","lifetime":null,"usagetype":"","usageenergy":null,"usageemissions":null,"timecreated":"2010-03-09 12:58:22.788087","timemodified":"2010-03-09 18:37:08","visibility":"public","showfootprint":"on","showembodied":"on","showtransport":"on","showprocess":"on","showendoflife":"on","showlastleg":"on","showuse":"on","showstats":"on","stops":{"origin":{"related_to":"3287","part_or_object":"o","notes":"","placename":"Toronto, ON, Canada","id":"1030","category":"1","lat":"43.670233","lon":"-79.386755","name":"origin","hops":{"incoming":[{"transport_id":"2","id":"1934","transport_name":"truck, 16 tons","transport_description":"truck, half full","transport_unit":"kg km","transport_co2_eq":"0.020300","from_stop_id":"4194","from_stop_lat":"51.253775","from_stop_lon":"-85.3232139","to_stop_id":"1030","to_stop_name":"origin","to_stop_lat":"43.670233","placename":"Ontario, Canada","to_stop_lon":"-79.386755","to_stop":{"id":"1030","name":"origin","lat":"43.670233","placename":"Toronto, ON, Canada","lon":"-79.386755"},"from_stop":{"name":"origin","id":"4194","lat":"51.253775","lon":"-85.3232139","placename":"Ontario, Canada"}},{"transport_id":"3","id":"1935","transport_name":"truck, 40 tons","transport_description":"truck, half full","transport_unit":"kg km","transport_co2_eq":"0.030900","from_stop_id":"4195","from_stop_lat":"46.2190582","from_stop_lon":"-62.9158492","to_stop_id":"1030","to_stop_name":"origin","to_stop_lat":"43.670233","placename":"Prince Edward Island, Canada","to_stop_lon":"-79.386755","to_stop":{"id":"1030","name":"origin","lat":"43.670233","placename":"Toronto, ON, Canada","lon":"-79.386755"},"from_stop":{"name":"origin","id":"4195","lat":"46.2190582","lon":"-62.9158492","placename":"Prince Edward Island, Canada"}},{"transport_id":"15","id":"1936","transport_name":"air, freight, regional","transport_description":"freight within one continent","transport_unit":"kg km","transport_co2_eq":"0.787500","from_stop_id":"4196","from_stop_lat":"23.634501","from_stop_lon":"-102.552784","to_stop_id":"1030","to_stop_name":"origin","to_stop_lat":"43.670233","placename":"Mexico","to_stop_lon":"-79.386755","to_stop":{"id":"1030","name":"origin","lat":"43.670233","placename":"Toronto, ON, Canada","lon":"-79.386755"},"from_stop":{"name":"origin","id":"4196","lat":"23.634501","lon":"-102.552784","placename":"Mexico"}},{"transport_id":"3","id":"1937","transport_name":"truck, 40 tons","transport_description":"truck, half full","transport_unit":"kg km","transport_co2_eq":"0.030900","from_stop_id":"4197","from_stop_lat":"56.130366","from_stop_lon":"-106.346771","to_stop_id":"1030","to_stop_name":"origin","to_stop_lat":"43.670233","placename":"Canada","to_stop_lon":"-79.386755","to_stop":{"id":"1030","name":"origin","lat":"43.670233","placename":"Toronto, ON, Canada","lon":"-79.386755"},"from_stop":{"name":"origin","id":"4197","lat":"56.130366","lon":"-106.346771","placename":"Canada"}},{"transport_id":"2","id":"1938","transport_name":"truck, 16 tons","transport_description":"truck, half full","transport_unit":"kg km","transport_co2_eq":"0.020300","from_stop_id":"4198","from_stop_lat":"51.253775","from_stop_lon":"-85.3232139","to_stop_id":"1030","to_stop_name":"origin","to_stop_lat":"43.670233","placename":"Ontario, Canada","to_stop_lon":"-79.386755","to_stop":{"id":"1030","name":"origin","lat":"43.670233","placename":"Toronto, ON, Canada","lon":"-79.386755"},"from_stop":{"name":"origin","id":"4198","lat":"51.253775","lon":"-85.3232139","placename":"Ontario, Canada"}},{"transport_id":"15","id":"1939","transport_name":"air, freight, regional","transport_description":"freight within one continent","transport_unit":"kg km","transport_co2_eq":"0.787500","from_stop_id":"4199","from_stop_lat":"37.09024","from_stop_lon":"-95.712891","to_stop_id":"1030","to_stop_name":"origin","to_stop_lat":"43.670233","placename":"United States","to_stop_lon":"-79.386755","to_stop":{"id":"1030","name":"origin","lat":"43.670233","placename":"Toronto, ON, Canada","lon":"-79.386755"},"from_stop":{"name":"origin","id":"4199","lat":"37.09024","lon":"-95.712891","placename":"United States"}},{"transport_id":"3","id":"1980","transport_name":"truck, 40 tons","transport_description":"truck, half full","transport_unit":"kg km","transport_co2_eq":"0.030900","from_stop_id":"4240","from_stop_lat":"46.2190582","from_stop_lon":"-62.9158492","to_stop_id":"1030","to_stop_name":"origin","to_stop_lat":"43.670233","placename":"Prince Edward Island, Canada","to_stop_lon":"-79.386755","to_stop":{"id":"1030","name":"origin","lat":"43.670233","placename":"Toronto, ON, Canada","lon":"-79.386755"},"from_stop":{"name":"origin","id":"4240","lat":"46.2190582","lon":"-62.9158492","placename":"Prince Edward Island, Canada"}},{"transport_id":"17","id":"1981","transport_name":"None Selected","transport_description":null,"transport_unit":"kg km","transport_co2_eq":"0.000000","from_stop_id":"4241","from_stop_lat":"51.253775","from_stop_lon":"-85.3232139","to_stop_id":"1030","to_stop_name":"origin","to_stop_lat":"43.670233","placename":"Ontario, Canada","to_stop_lon":"-79.386755","to_stop":{"id":"1030","name":"origin","lat":"43.670233","placename":"Toronto, ON, Canada","lon":"-79.386755"},"from_stop":{"name":"origin","id":"4241","lat":"51.253775","lon":"-85.3232139","placename":"Ontario, Canada"}},{"transport_id":"17","id":"1940","transport_name":"None Selected","transport_description":null,"transport_unit":"kg km","transport_co2_eq":"0.000000","from_stop_id":"4200","from_stop_lat":"0","from_stop_lon":"0","to_stop_id":"1030","to_stop_name":"origin","to_stop_lat":"43.670233","placename":"Ingredient Source","to_stop_lon":"-79.386755","to_stop":{"id":"1030","name":"origin","lat":"43.670233","placename":"Toronto, ON, Canada","lon":"-79.386755"},"from_stop":{"name":"origin","id":"4200","lat":"0","lon":"0","placename":"Ingredient Source"}}],"outgoing":[]}}},"parts":[{"oid":"3287","imid":"2306","linkid":"","weight":"1","rawemissions":"16.4","emissions":"16.4","shipping":"954.39","processemissions":null,"endoflifeemissions":null,"disposaltype":null,"disposalenergy":null,"disposalimpact":null,"disposalemissions":null,"description":"Mmmmmm..... Cow","name":"Beef","id":"2306","stops":{"origin":{"related_to":"2306","part_or_object":"p","notes":"","placename":"Ontario, Canada","id":4194,"name":"origin","lat":"51.253775","lon":"-85.3232139","hops":{"incoming":[],"outgoing":[{"transport_id":"2","id":"1934","transport_name":"truck, 16 tons","transport_description":"truck, half full","transport_unit":"kg km","transport_co2_eq":"0.020300","from_stop_id":"4194","from_stop_lat":"51.253775","from_stop_lon":"-85.3232139","from_stop_placename":"Ontario, Canada","to_stop_id":"1030","to_stop_name":"origin","to_stop_lat":"43.670233","to_stop_lon":"-79.386755","to_stop_placename":"Toronto, ON, Canada","to_stop":{"id":"1030","name":"origin","lat":"43.670233","lon":"-79.386755","placename":"Toronto, ON, Canada"},"from_stop":{"name":"origin","id":"4194","lat":"51.253775","lon":"-85.3232139","placename":"Ontario, Canada"}}]}}},"processes":[],"eols":[]},{"oid":"3287","imid":"2307","linkid":"","weight":"0.7","rawemissions":"16.4","emissions":"11.48","shipping":"1325.81","processemissions":null,"endoflifeemissions":null,"disposaltype":null,"disposalenergy":null,"disposalimpact":null,"disposalemissions":null,"description":"Mmmmmm..... Orange..... Carrots\n","name":"Carrots","id":"2307","stops":{"origin":{"related_to":"2307","part_or_object":"p","notes":"","placename":"Prince Edward Island, Canada","id":4195,"name":"origin","lat":"46.2190582","lon":"-62.9158492","hops":{"incoming":[],"outgoing":[{"transport_id":"3","id":"1935","transport_name":"truck, 40 tons","transport_description":"truck, half full","transport_unit":"kg km","transport_co2_eq":"0.030900","from_stop_id":"4195","from_stop_lat":"46.2190582","from_stop_lon":"-62.9158492","from_stop_placename":"Prince Edward Island, Canada","to_stop_id":"1030","to_stop_name":"origin","to_stop_lat":"43.670233","to_stop_lon":"-79.386755","to_stop_placename":"Toronto, ON, Canada","to_stop":{"id":"1030","name":"origin","lat":"43.670233","lon":"-79.386755","placename":"Toronto, ON, Canada"},"from_stop":{"name":"origin","id":"4195","lat":"46.2190582","lon":"-62.9158492","placename":"Prince Edward Island, Canada"}}]}}},"processes":[],"eols":[]},{"oid":"3287","imid":"2308","linkid":"","weight":"0.2","rawemissions":"16.4","emissions":"3.28","shipping":"3074.55","processemissions":null,"endoflifeemissions":null,"disposaltype":null,"disposalenergy":null,"disposalimpact":null,"disposalemissions":null,"description":"Mmmmmm........ Mmmmmmmango\n","name":"Mango","id":"2308","stops":{"origin":{"related_to":"2308","part_or_object":"p","notes":"","placename":"Mexico","id":4196,"name":"origin","lat":"23.634501","lon":"-102.552784","hops":{"incoming":[],"outgoing":[{"transport_id":"15","id":"1936","transport_name":"air, freight, regional","transport_description":"freight within one continent","transport_unit":"kg km","transport_co2_eq":"0.787500","from_stop_id":"4196","from_stop_lat":"23.634501","from_stop_lon":"-102.552784","from_stop_placename":"Mexico","to_stop_id":"1030","to_stop_name":"origin","to_stop_lat":"43.670233","to_stop_lon":"-79.386755","to_stop_placename":"Toronto, ON, Canada","to_stop":{"id":"1030","name":"origin","lat":"43.670233","lon":"-79.386755","placename":"Toronto, ON, Canada"},"from_stop":{"name":"origin","id":"4196","lat":"23.634501","lon":"-102.552784","placename":"Mexico"}}]}}},"processes":[],"eols":[]},{"oid":"3287","imid":"2309","linkid":"","weight":"0.015","rawemissions":"16.4","emissions":"0.246","shipping":"2354.44","processemissions":null,"endoflifeemissions":null,"disposaltype":null,"disposalenergy":null,"disposalimpact":null,"disposalemissions":null,"description":"Mmmmmm...... Onionzzzz","name":"Onions (1)","id":"2309","stops":{"origin":{"related_to":"2309","part_or_object":"p","notes":"","placename":"Canada","id":4197,"name":"origin","lat":"56.130366","lon":"-106.346771","hops":{"incoming":[],"outgoing":[{"transport_id":"3","id":"1937","transport_name":"truck, 40 tons","transport_description":"truck, half full","transport_unit":"kg km","transport_co2_eq":"0.030900","from_stop_id":"4197","from_stop_lat":"56.130366","from_stop_lon":"-106.346771","from_stop_placename":"Canada","to_stop_id":"1030","to_stop_name":"origin","to_stop_lat":"43.670233","to_stop_lon":"-79.386755","to_stop_placename":"Toronto, ON, Canada","to_stop":{"id":"1030","name":"origin","lat":"43.670233","lon":"-79.386755","placename":"Toronto, ON, Canada"},"from_stop":{"name":"origin","id":"4197","lat":"56.130366","lon":"-106.346771","placename":"Canada"}}]}}},"processes":[],"eols":[]},{"oid":"3287","imid":"2310","linkid":"","weight":"0.006","rawemissions":"16.4","emissions":"0.0984","shipping":"954.39","processemissions":null,"endoflifeemissions":null,"disposaltype":null,"disposalenergy":null,"disposalimpact":null,"disposalemissions":null,"description":"Mmmmmm..... Red","name":"Tomato (3)","id":"2310","stops":{"origin":{"related_to":"2310","part_or_object":"p","notes":"","placename":"Ontario, Canada","id":4198,"name":"origin","lat":"51.253775","lon":"-85.3232139","hops":{"incoming":[],"outgoing":[{"transport_id":"2","id":"1938","transport_name":"truck, 16 tons","transport_description":"truck, half full","transport_unit":"kg km","transport_co2_eq":"0.020300","from_stop_id":"4198","from_stop_lat":"51.253775","from_stop_lon":"-85.3232139","from_stop_placename":"Ontario, Canada","to_stop_id":"1030","to_stop_name":"origin","to_stop_lat":"43.670233","to_stop_lon":"-79.386755","to_stop_placename":"Toronto, ON, Canada","to_stop":{"id":"1030","name":"origin","lat":"43.670233","lon":"-79.386755","placename":"Toronto, ON, Canada"},"from_stop":{"name":"origin","id":"4198","lat":"51.253775","lon":"-85.3232139","placename":"Ontario, Canada"}}]}}},"processes":[],"eols":[]},{"oid":"3287","imid":"2311","linkid":"","weight":"0.001","rawemissions":"16.4","emissions":"0.0164","shipping":"1562.39","processemissions":null,"endoflifeemissions":null,"disposaltype":null,"disposalenergy":null,"disposalimpact":null,"disposalemissions":null,"description":"Mmmmmm......Mmmmmmushrooms","name":"Mushrooms","id":"2311","stops":{"origin":{"related_to":"2311","part_or_object":"p","notes":"","placename":"United States","id":4199,"name":"origin","lat":"37.09024","lon":"-95.712891","hops":{"incoming":[],"outgoing":[{"transport_id":"15","id":"1939","transport_name":"air, freight, regional","transport_description":"freight within one continent","transport_unit":"kg km","transport_co2_eq":"0.787500","from_stop_id":"4199","from_stop_lat":"37.09024","from_stop_lon":"-95.712891","from_stop_placename":"United States","to_stop_id":"1030","to_stop_name":"origin","to_stop_lat":"43.670233","to_stop_lon":"-79.386755","to_stop_placename":"Toronto, ON, Canada","to_stop":{"id":"1030","name":"origin","lat":"43.670233","lon":"-79.386755","placename":"Toronto, ON, Canada"},"from_stop":{"name":"origin","id":"4199","lat":"37.09024","lon":"-95.712891","placename":"United States"}}]}}},"processes":[],"eols":[]},{"oid":"3287","imid":"2312","linkid":"","weight":"0","rawemissions":"0","emissions":"0","shipping":"0","processemissions":null,"endoflifeemissions":null,"disposaltype":null,"disposalenergy":null,"disposalimpact":null,"disposalemissions":null,"description":"","name":"Flower (biscuts) ","id":"2312","stops":{"origin":{"related_to":"2312","part_or_object":"p","notes":"","placename":"Ingredient Source","id":4200,"name":"origin","lat":"0","lon":"0","hops":{"incoming":[],"outgoing":[{"transport_id":"17","id":"1940","transport_name":"None Selected","transport_description":null,"transport_unit":"kg km","transport_co2_eq":"0.000000","from_stop_id":"4200","from_stop_lat":"0","from_stop_lon":"0","from_stop_placename":"Ingredient Source","to_stop_id":"1030","to_stop_name":"origin","to_stop_lat":"43.670233","to_stop_lon":"-79.386755","to_stop_placename":"Toronto, ON, Canada","to_stop":{"id":"1030","name":"origin","lat":"43.670233","lon":"-79.386755","placename":"Toronto, ON, Canada"},"from_stop":{"name":"origin","id":"4200","lat":"0","lon":"0","placename":"Ingredient Source"}}]}}},"processes":[],"eols":[]},{"oid":"3287","imid":"2351","linkid":"","weight":"1","rawemissions":"1.82","emissions":"1.82","shipping":"1325.81","processemissions":null,"endoflifeemissions":null,"disposaltype":null,"disposalenergy":null,"disposalimpact":null,"disposalemissions":null,"description":"Mmmmmm....... PEI","name":"Potaotos","id":"2351","stops":{"origin":{"related_to":"2351","part_or_object":"p","notes":"","placename":"Prince Edward Island, Canada","id":4240,"name":"origin","lat":"46.2190582","lon":"-62.9158492","hops":{"incoming":[],"outgoing":[{"transport_id":"3","id":"1980","transport_name":"truck, 40 tons","transport_description":"truck, half full","transport_unit":"kg km","transport_co2_eq":"0.030900","from_stop_id":"4240","from_stop_lat":"46.2190582","from_stop_lon":"-62.9158492","from_stop_placename":"Prince Edward Island, Canada","to_stop_id":"1030","to_stop_name":"origin","to_stop_lat":"43.670233","to_stop_lon":"-79.386755","to_stop_placename":"Toronto, ON, Canada","to_stop":{"id":"1030","name":"origin","lat":"43.670233","lon":"-79.386755","placename":"Toronto, ON, Canada"},"from_stop":{"name":"origin","id":"4240","lat":"46.2190582","lon":"-62.9158492","placename":"Prince Edward Island, Canada"}}]}}},"processes":[],"eols":[]},{"oid":"3287","imid":"2352","linkid":"","weight":"0.5","rawemissions":"1.82","emissions":"0.91","shipping":"954.39","processemissions":null,"endoflifeemissions":null,"disposaltype":null,"disposalenergy":null,"disposalimpact":null,"disposalemissions":null,"description":"","name":"Milk","id":"2352","stops":{"origin":{"related_to":"2352","part_or_object":"p","notes":"","placename":"Ontario, Canada","id":4241,"name":"origin","lat":"51.253775","lon":"-85.3232139","hops":{"incoming":[],"outgoing":[{"transport_id":"17","id":"1981","transport_name":"None Selected","transport_description":null,"transport_unit":"kg km","transport_co2_eq":"0.000000","from_stop_id":"4241","from_stop_lat":"51.253775","from_stop_lon":"-85.3232139","from_stop_placename":"Ontario, Canada","to_stop_id":"1030","to_stop_name":"origin","to_stop_lat":"43.670233","to_stop_lon":"-79.386755","to_stop_placename":"Toronto, ON, Canada","to_stop":{"id":"1030","name":"origin","lat":"43.670233","lon":"-79.386755","placename":"Toronto, ON, Canada"},"from_stop":{"name":"origin","id":"4241","lat":"51.253775","lon":"-85.3232139","placename":"Ontario, Canada"}}]}}},"processes":[],"eols":[]}],"user":{"name":"Ch1ck3nF00t","id":"9219"}}}