{"3291":{"oid":"3291","type":"food","flag":"","creator":"9227","name":"Spaghetti And Garlic Bread","upc":"","imagelink":"","description":"Yummy","slug":"spaghetti-and-garlic-bread","category":"","weight":"2.752","emissions":"4.14513578052","embodied":"4.01792","transport":"0.127215780516","process":"0","endoflife":"0","shipping":"17794.29","lifetime":null,"usagetype":"","usageenergy":null,"usageemissions":null,"timecreated":"2010-03-09 12:59:13.766903","timemodified":"2010-03-09 18:37:39","visibility":"public","showfootprint":"on","showembodied":"on","showtransport":"on","showprocess":"on","showendoflife":"on","showlastleg":"on","showuse":"on","showstats":"on","stops":{"origin":{"related_to":"3291","part_or_object":"o","notes":"","placename":"Toronto, ON, Canada","id":"1034","category":"1","lat":"43.670233","lon":"-79.386755","name":"origin","hops":{"incoming":[{"transport_id":"3","id":"1916","transport_name":"truck, 40 tons","transport_description":"truck, half full","transport_unit":"kg km","transport_co2_eq":"0.030900","from_stop_id":"4176","from_stop_lat":"51.253775","from_stop_lon":"-85.3232139","to_stop_id":"1034","to_stop_name":"origin","to_stop_lat":"43.670233","placename":"Ontario, Canada","to_stop_lon":"-79.386755","to_stop":{"id":"1034","name":"origin","lat":"43.670233","placename":"Toronto, ON, Canada","lon":"-79.386755"},"from_stop":{"name":"origin","id":"4176","lat":"51.253775","lon":"-85.3232139","placename":"Ontario, Canada"}},{"transport_id":"3","id":"1917","transport_name":"truck, 40 tons","transport_description":"truck, half full","transport_unit":"kg km","transport_co2_eq":"0.030900","from_stop_id":"4177","from_stop_lat":"51.253775","from_stop_lon":"-85.3232139","to_stop_id":"1034","to_stop_name":"origin","to_stop_lat":"43.670233","placename":"Ontario, Canada","to_stop_lon":"-79.386755","to_stop":{"id":"1034","name":"origin","lat":"43.670233","placename":"Toronto, ON, Canada","lon":"-79.386755"},"from_stop":{"name":"origin","id":"4177","lat":"51.253775","lon":"-85.3232139","placename":"Ontario, Canada"}},{"transport_id":"3","id":"1918","transport_name":"truck, 40 tons","transport_description":"truck, half full","transport_unit":"kg km","transport_co2_eq":"0.030900","from_stop_id":"4178","from_stop_lat":"56.130366","from_stop_lon":"-106.346771","to_stop_id":"1034","to_stop_name":"origin","to_stop_lat":"43.670233","placename":"Canada","to_stop_lon":"-79.386755","to_stop":{"id":"1034","name":"origin","lat":"43.670233","placename":"Toronto, ON, Canada","lon":"-79.386755"},"from_stop":{"name":"origin","id":"4178","lat":"56.130366","lon":"-106.346771","placename":"Canada"}},{"transport_id":"3","id":"1919","transport_name":"truck, 40 tons","transport_description":"truck, half full","transport_unit":"kg km","transport_co2_eq":"0.030900","from_stop_id":"4179","from_stop_lat":"56.130366","from_stop_lon":"-106.346771","to_stop_id":"1034","to_stop_name":"origin","to_stop_lat":"43.670233","placename":"Canada","to_stop_lon":"-79.386755","to_stop":{"id":"1034","name":"origin","lat":"43.670233","placename":"Toronto, ON, Canada","lon":"-79.386755"},"from_stop":{"name":"origin","id":"4179","lat":"56.130366","lon":"-106.346771","placename":"Canada"}},{"transport_id":"6","id":"1920","transport_name":"tanker ship","transport_description":"tanker for mobing liquids","transport_unit":"kg km","transport_co2_eq":"0.171600","from_stop_id":"4180","from_stop_lat":"35.86166","from_stop_lon":"104.195397","to_stop_id":"1034","to_stop_name":"origin","to_stop_lat":"43.670233","placename":"China","to_stop_lon":"-79.386755","to_stop":{"id":"1034","name":"origin","lat":"43.670233","placename":"Toronto, ON, Canada","lon":"-79.386755"},"from_stop":{"name":"origin","id":"4180","lat":"35.86166","lon":"104.195397","placename":"China"}},{"transport_id":"3","id":"1921","transport_name":"truck, 40 tons","transport_description":"truck, half full","transport_unit":"kg km","transport_co2_eq":"0.030900","from_stop_id":"4181","from_stop_lat":"43.670233","from_stop_lon":"-79.386755","to_stop_id":"1034","to_stop_name":"origin","to_stop_lat":"43.670233","placename":"Toronto, ON, Canada","to_stop_lon":"-79.386755","to_stop":{"id":"1034","name":"origin","lat":"43.670233","placename":"Toronto, ON, Canada","lon":"-79.386755"},"from_stop":{"name":"origin","id":"4181","lat":"43.670233","lon":"-79.386755","placename":"Toronto, ON, Canada"}}],"outgoing":[]}}},"parts":[{"oid":"3291","imid":"2288","linkid":"","weight":"1","rawemissions":"1.46","emissions":"1.46","shipping":"954.39","processemissions":null,"endoflifeemissions":null,"disposaltype":null,"disposalenergy":null,"disposalimpact":null,"disposalemissions":null,"description":"","name":"Tomato Sause","id":"2288","stops":{"origin":{"related_to":"2288","part_or_object":"p","notes":"","placename":"Ontario, Canada","id":4176,"name":"origin","lat":"51.253775","lon":"-85.3232139","hops":{"incoming":[],"outgoing":[{"transport_id":"3","id":"1916","transport_name":"truck, 40 tons","transport_description":"truck, half full","transport_unit":"kg km","transport_co2_eq":"0.030900","from_stop_id":"4176","from_stop_lat":"51.253775","from_stop_lon":"-85.3232139","from_stop_placename":"Ontario, Canada","to_stop_id":"1034","to_stop_name":"origin","to_stop_lat":"43.670233","to_stop_lon":"-79.386755","to_stop_placename":"Toronto, ON, Canada","to_stop":{"id":"1034","name":"origin","lat":"43.670233","lon":"-79.386755","placename":"Toronto, ON, Canada"},"from_stop":{"name":"origin","id":"4176","lat":"51.253775","lon":"-85.3232139","placename":"Ontario, Canada"}}]}}},"processes":[],"eols":[]},{"oid":"3291","imid":"2289","linkid":"","weight":"0.1","rawemissions":"1.46","emissions":"0.146","shipping":"954.39","processemissions":null,"endoflifeemissions":null,"disposaltype":null,"disposalenergy":null,"disposalimpact":null,"disposalemissions":null,"description":"","name":"Tomato Paste","id":"2289","stops":{"origin":{"related_to":"2289","part_or_object":"p","notes":"","placename":"Ontario, Canada","id":4177,"name":"origin","lat":"51.253775","lon":"-85.3232139","hops":{"incoming":[],"outgoing":[{"transport_id":"3","id":"1917","transport_name":"truck, 40 tons","transport_description":"truck, half full","transport_unit":"kg km","transport_co2_eq":"0.030900","from_stop_id":"4177","from_stop_lat":"51.253775","from_stop_lon":"-85.3232139","from_stop_placename":"Ontario, Canada","to_stop_id":"1034","to_stop_name":"origin","to_stop_lat":"43.670233","to_stop_lon":"-79.386755","to_stop_placename":"Toronto, ON, Canada","to_stop":{"id":"1034","name":"origin","lat":"43.670233","lon":"-79.386755","placename":"Toronto, ON, Canada"},"from_stop":{"name":"origin","id":"4177","lat":"51.253775","lon":"-85.3232139","placename":"Ontario, Canada"}}]}}},"processes":[],"eols":[]},{"oid":"3291","imid":"2290","linkid":"","weight":"0.75","rawemissions":"1.46","emissions":"1.095","shipping":"2354.44","processemissions":null,"endoflifeemissions":null,"disposaltype":null,"disposalenergy":null,"disposalimpact":null,"disposalemissions":null,"description":"","name":"Spaghetti (the Pasta)","id":"2290","stops":{"origin":{"related_to":"2290","part_or_object":"p","notes":"","placename":"Canada","id":4178,"name":"origin","lat":"56.130366","lon":"-106.346771","hops":{"incoming":[],"outgoing":[{"transport_id":"3","id":"1918","transport_name":"truck, 40 tons","transport_description":"truck, half full","transport_unit":"kg km","transport_co2_eq":"0.030900","from_stop_id":"4178","from_stop_lat":"56.130366","from_stop_lon":"-106.346771","from_stop_placename":"Canada","to_stop_id":"1034","to_stop_name":"origin","to_stop_lat":"43.670233","to_stop_lon":"-79.386755","to_stop_placename":"Toronto, ON, Canada","to_stop":{"id":"1034","name":"origin","lat":"43.670233","lon":"-79.386755","placename":"Toronto, ON, Canada"},"from_stop":{"name":"origin","id":"4178","lat":"56.130366","lon":"-106.346771","placename":"Canada"}}]}}},"processes":[],"eols":[]},{"oid":"3291","imid":"2291","linkid":"","weight":"0.5","rawemissions":"1.46","emissions":"0.73","shipping":"2354.44","processemissions":null,"endoflifeemissions":null,"disposaltype":null,"disposalenergy":null,"disposalimpact":null,"disposalemissions":null,"description":"","name":"Beef","id":"2291","stops":{"origin":{"related_to":"2291","part_or_object":"p","notes":"","placename":"Canada","id":4179,"name":"origin","lat":"56.130366","lon":"-106.346771","hops":{"incoming":[],"outgoing":[{"transport_id":"3","id":"1919","transport_name":"truck, 40 tons","transport_description":"truck, half full","transport_unit":"kg km","transport_co2_eq":"0.030900","from_stop_id":"4179","from_stop_lat":"56.130366","from_stop_lon":"-106.346771","from_stop_placename":"Canada","to_stop_id":"1034","to_stop_name":"origin","to_stop_lat":"43.670233","to_stop_lon":"-79.386755","to_stop_placename":"Toronto, ON, Canada","to_stop":{"id":"1034","name":"origin","lat":"43.670233","lon":"-79.386755","placename":"Toronto, ON, Canada"},"from_stop":{"name":"origin","id":"4179","lat":"56.130366","lon":"-106.346771","placename":"Canada"}}]}}},"processes":[],"eols":[]},{"oid":"3291","imid":"2292","linkid":"","weight":"0.002","rawemissions":"1.46","emissions":"0.00292","shipping":"11176.63","processemissions":null,"endoflifeemissions":null,"disposaltype":null,"disposalenergy":null,"disposalimpact":null,"disposalemissions":null,"description":"","name":"Garlic","id":"2292","stops":{"origin":{"related_to":"2292","part_or_object":"p","notes":"","placename":"China","id":4180,"name":"origin","lat":"35.86166","lon":"104.195397","hops":{"incoming":[],"outgoing":[{"transport_id":"6","id":"1920","transport_name":"tanker ship","transport_description":"tanker for mobing liquids","transport_unit":"kg km","transport_co2_eq":"0.171600","from_stop_id":"4180","from_stop_lat":"35.86166","from_stop_lon":"104.195397","from_stop_placename":"China","to_stop_id":"1034","to_stop_name":"origin","to_stop_lat":"43.670233","to_stop_lon":"-79.386755","to_stop_placename":"Toronto, ON, Canada","to_stop":{"id":"1034","name":"origin","lat":"43.670233","lon":"-79.386755","placename":"Toronto, ON, Canada"},"from_stop":{"name":"origin","id":"4180","lat":"35.86166","lon":"104.195397","placename":"China"}}]}}},"processes":[],"eols":[]},{"oid":"3291","imid":"2293","linkid":"","weight":"0.4","rawemissions":"1.46","emissions":"0.584","shipping":"0","processemissions":null,"endoflifeemissions":null,"disposaltype":null,"disposalenergy":null,"disposalimpact":null,"disposalemissions":null,"description":"","name":"bread","id":"2293","stops":{"origin":{"related_to":"2293","part_or_object":"p","notes":"","placename":"Toronto, ON, Canada","id":4181,"name":"origin","lat":"43.670233","lon":"-79.386755","hops":{"incoming":[],"outgoing":[{"transport_id":"3","id":"1921","transport_name":"truck, 40 tons","transport_description":"truck, half full","transport_unit":"kg km","transport_co2_eq":"0.030900","from_stop_id":"4181","from_stop_lat":"43.670233","from_stop_lon":"-79.386755","from_stop_placename":"Toronto, ON, Canada","to_stop_id":"1034","to_stop_name":"origin","to_stop_lat":"43.670233","to_stop_lon":"-79.386755","to_stop_placename":"Toronto, ON, Canada","to_stop":{"id":"1034","name":"origin","lat":"43.670233","lon":"-79.386755","placename":"Toronto, ON, Canada"},"from_stop":{"name":"origin","id":"4181","lat":"43.670233","lon":"-79.386755","placename":"Toronto, ON, Canada"}}]}}},"processes":[],"eols":[]}],"user":{"name":"alanat","id":"9227"}}}