{"3292":{"oid":"3292","type":"food","flag":"","creator":"9225","name":"Dinner","upc":"","imagelink":"","description":"The dinner that I ate on Sunday night.","slug":"dinner-5","category":"","weight":"1.98","emissions":"7.54921621156","embodied":"3.8808","transport":"3.66841621156","process":"0","endoflife":"0","shipping":"5048.98","lifetime":null,"usagetype":"","usageenergy":null,"usageemissions":null,"timecreated":"2010-03-09 12:59:25.603848","timemodified":"2010-03-09 18:26:49","visibility":"public","showfootprint":"on","showembodied":"on","showtransport":"on","showprocess":"on","showendoflife":"on","showlastleg":"on","showuse":"on","showstats":"on","stops":{"origin":{"related_to":"3292","part_or_object":"o","notes":"","placename":"Toronto, ON, Canada","id":"1066","category":"1","lat":"43.670233","lon":"-79.386755","name":"origin","hops":{"incoming":[{"transport_id":"2","id":"1942","transport_name":"truck, 16 tons","transport_description":"truck, half full","transport_unit":"kg km","transport_co2_eq":"0.020300","from_stop_id":"4202","from_stop_lat":"51.253775","from_stop_lon":"-85.3232139","to_stop_id":"1066","to_stop_name":"origin","to_stop_lat":"43.670233","placename":"Ontario, Canada","to_stop_lon":"-79.386755","to_stop":{"id":"1066","name":"origin","lat":"43.670233","placename":"Toronto, ON, Canada","lon":"-79.386755"},"from_stop":{"name":"origin","id":"4202","lat":"51.253775","lon":"-85.3232139","placename":"Ontario, Canada"}},{"transport_id":"13","id":"1944","transport_name":"air, passenger, regional","transport_description":"within one continent, kg km from person-km","transport_unit":"kg km","transport_co2_eq":"2.262000","from_stop_id":"4204","from_stop_lat":"27.6648274","from_stop_lon":"-81.5157535","to_stop_id":"1066","to_stop_name":"origin","to_stop_lat":"43.670233","placename":"Florida, USA","to_stop_lon":"-79.386755","to_stop":{"id":"1066","name":"origin","lat":"43.670233","placename":"Toronto, ON, Canada","lon":"-79.386755"},"from_stop":{"name":"origin","id":"4204","lat":"27.6648274","lon":"-81.5157535","placename":"Florida, USA"}},{"transport_id":"2","id":"1945","transport_name":"truck, 16 tons","transport_description":"truck, half full","transport_unit":"kg km","transport_co2_eq":"0.020300","from_stop_id":"4205","from_stop_lat":"46.2190582","from_stop_lon":"-62.9158492","to_stop_id":"1066","to_stop_name":"origin","to_stop_lat":"43.670233","placename":"Prince Edward Island, Canada","to_stop_lon":"-79.386755","to_stop":{"id":"1066","name":"origin","lat":"43.670233","placename":"Toronto, ON, Canada","lon":"-79.386755"},"from_stop":{"name":"origin","id":"4205","lat":"46.2190582","lon":"-62.9158492","placename":"Prince Edward Island, Canada"}},{"transport_id":"1","id":"1946","transport_name":"van, 3.5 tons","transport_description":"delivery van, half full","transport_unit":"kg km","transport_co2_eq":"0.053400","from_stop_id":"4206","from_stop_lat":"43.588208","from_stop_lon":"-79.641721","to_stop_id":"1066","to_stop_name":"origin","to_stop_lat":"43.670233","placename":"Mississauga, ON, Canada","to_stop_lon":"-79.386755","to_stop":{"id":"1066","name":"origin","lat":"43.670233","placename":"Toronto, ON, Canada","lon":"-79.386755"},"from_stop":{"name":"origin","id":"4206","lat":"43.588208","lon":"-79.641721","placename":"Mississauga, ON, Canada"}},{"transport_id":"1","id":"1947","transport_name":"van, 3.5 tons","transport_description":"delivery van, half full","transport_unit":"kg km","transport_co2_eq":"0.053400","from_stop_id":"4207","from_stop_lat":"51.253775","from_stop_lon":"-85.3232139","to_stop_id":"1066","to_stop_name":"origin","to_stop_lat":"43.670233","placename":"Ontario, Canada","to_stop_lon":"-79.386755","to_stop":{"id":"1066","name":"origin","lat":"43.670233","placename":"Toronto, ON, Canada","lon":"-79.386755"},"from_stop":{"name":"origin","id":"4207","lat":"51.253775","lon":"-85.3232139","placename":"Ontario, Canada"}}],"outgoing":[]}}},"parts":[{"oid":"3292","imid":"2314","linkid":"","weight":"0.14","rawemissions":"1.96","emissions":"0.2744","shipping":"954.39","processemissions":null,"endoflifeemissions":null,"disposaltype":null,"disposalenergy":null,"disposalimpact":null,"disposalemissions":null,"description":"","name":"Pork","id":"2314","stops":{"origin":{"related_to":"2314","part_or_object":"p","notes":"","placename":"Ontario, Canada","id":4202,"name":"origin","lat":"51.253775","lon":"-85.3232139","hops":{"incoming":[],"outgoing":[{"transport_id":"2","id":"1942","transport_name":"truck, 16 tons","transport_description":"truck, half full","transport_unit":"kg km","transport_co2_eq":"0.020300","from_stop_id":"4202","from_stop_lat":"51.253775","from_stop_lon":"-85.3232139","from_stop_placename":"Ontario, Canada","to_stop_id":"1066","to_stop_name":"origin","to_stop_lat":"43.670233","to_stop_lon":"-79.386755","to_stop_placename":"Toronto, ON, Canada","to_stop":{"id":"1066","name":"origin","lat":"43.670233","lon":"-79.386755","placename":"Toronto, ON, Canada"},"from_stop":{"name":"origin","id":"4202","lat":"51.253775","lon":"-85.3232139","placename":"Ontario, Canada"}}]}}},"processes":[],"eols":[]},{"oid":"3292","imid":"2315","linkid":"","weight":"0.9","rawemissions":"1.96","emissions":"1.764","shipping":"1791.91","processemissions":null,"endoflifeemissions":null,"disposaltype":null,"disposalenergy":null,"disposalimpact":null,"disposalemissions":null,"description":"","name":"Broccoli","id":"2315","stops":{"origin":{"related_to":"2315","part_or_object":"p","notes":"","placename":"Florida, USA","id":4204,"name":"origin","lat":"27.6648274","lon":"-81.5157535","hops":{"incoming":[],"outgoing":[{"transport_id":"13","id":"1944","transport_name":"air, passenger, regional","transport_description":"within one continent, kg km from person-km","transport_unit":"kg km","transport_co2_eq":"2.262000","from_stop_id":"4204","from_stop_lat":"27.6648274","from_stop_lon":"-81.5157535","from_stop_placename":"Florida, USA","to_stop_id":"1066","to_stop_name":"origin","to_stop_lat":"43.670233","to_stop_lon":"-79.386755","to_stop_placename":"Toronto, ON, Canada","to_stop":{"id":"1066","name":"origin","lat":"43.670233","lon":"-79.386755","placename":"Toronto, ON, Canada"},"from_stop":{"name":"origin","id":"4204","lat":"27.6648274","lon":"-81.5157535","placename":"Florida, USA"}}]}}},"processes":[],"eols":[]},{"oid":"3292","imid":"2316","linkid":"","weight":"0.22","rawemissions":"1.96","emissions":"0.4312","shipping":"1325.81","processemissions":null,"endoflifeemissions":null,"disposaltype":null,"disposalenergy":null,"disposalimpact":null,"disposalemissions":null,"description":"","name":"Baked Potato","id":"2316","stops":{"origin":{"related_to":"2316","part_or_object":"p","notes":"","placename":"Prince Edward Island, Canada","id":4205,"name":"origin","lat":"46.2190582","lon":"-62.9158492","hops":{"incoming":[],"outgoing":[{"transport_id":"2","id":"1945","transport_name":"truck, 16 tons","transport_description":"truck, half full","transport_unit":"kg km","transport_co2_eq":"0.020300","from_stop_id":"4205","from_stop_lat":"46.2190582","from_stop_lon":"-62.9158492","from_stop_placename":"Prince Edward Island, Canada","to_stop_id":"1066","to_stop_name":"origin","to_stop_lat":"43.670233","to_stop_lon":"-79.386755","to_stop_placename":"Toronto, ON, Canada","to_stop":{"id":"1066","name":"origin","lat":"43.670233","lon":"-79.386755","placename":"Toronto, ON, Canada"},"from_stop":{"name":"origin","id":"4205","lat":"46.2190582","lon":"-62.9158492","placename":"Prince Edward Island, Canada"}}]}}},"processes":[],"eols":[]},{"oid":"3292","imid":"2317","linkid":"","weight":"0.5","rawemissions":"1.96","emissions":"0.98","shipping":"22.48","processemissions":null,"endoflifeemissions":null,"disposaltype":null,"disposalenergy":null,"disposalimpact":null,"disposalemissions":null,"description":"","name":"Carrots","id":"2317","stops":{"origin":{"related_to":"2317","part_or_object":"p","notes":"","placename":"Mississauga, ON, Canada","id":4206,"name":"origin","lat":"43.588208","lon":"-79.641721","hops":{"incoming":[],"outgoing":[{"transport_id":"1","id":"1946","transport_name":"van, 3.5 tons","transport_description":"delivery van, half full","transport_unit":"kg km","transport_co2_eq":"0.053400","from_stop_id":"4206","from_stop_lat":"43.588208","from_stop_lon":"-79.641721","from_stop_placename":"Mississauga, ON, Canada","to_stop_id":"1066","to_stop_name":"origin","to_stop_lat":"43.670233","to_stop_lon":"-79.386755","to_stop_placename":"Toronto, ON, Canada","to_stop":{"id":"1066","name":"origin","lat":"43.670233","lon":"-79.386755","placename":"Toronto, ON, Canada"},"from_stop":{"name":"origin","id":"4206","lat":"43.588208","lon":"-79.641721","placename":"Mississauga, ON, Canada"}}]}}},"processes":[],"eols":[]},{"oid":"3292","imid":"2318","linkid":"","weight":"0.22","rawemissions":"1.96","emissions":"0.4312","shipping":"954.39","processemissions":null,"endoflifeemissions":null,"disposaltype":null,"disposalenergy":null,"disposalimpact":null,"disposalemissions":null,"description":"","name":"Milk","id":"2318","stops":{"origin":{"related_to":"2318","part_or_object":"p","notes":"","placename":"Ontario, Canada","id":4207,"name":"origin","lat":"51.253775","lon":"-85.3232139","hops":{"incoming":[],"outgoing":[{"transport_id":"1","id":"1947","transport_name":"van, 3.5 tons","transport_description":"delivery van, half full","transport_unit":"kg km","transport_co2_eq":"0.053400","from_stop_id":"4207","from_stop_lat":"51.253775","from_stop_lon":"-85.3232139","from_stop_placename":"Ontario, Canada","to_stop_id":"1066","to_stop_name":"origin","to_stop_lat":"43.670233","to_stop_lon":"-79.386755","to_stop_placename":"Toronto, ON, Canada","to_stop":{"id":"1066","name":"origin","lat":"43.670233","lon":"-79.386755","placename":"Toronto, ON, Canada"},"from_stop":{"name":"origin","id":"4207","lat":"51.253775","lon":"-85.3232139","placename":"Ontario, Canada"}}]}}},"processes":[],"eols":[]}],"user":{"name":"Emma","id":"9225"}}}