{"3294":{"oid":"3294","type":"food","flag":"","creator":"9229","name":"Thomas' Dinner map","upc":"","imagelink":"","description":"\nmy dinner map ","slug":"thomas-dinner-map","category":"","weight":"1.555","emissions":"7.27882149598","embodied":"1.815775","transport":"5.46304649598","process":"0","endoflife":"0","shipping":"41877.39","lifetime":null,"usagetype":"","usageenergy":null,"usageemissions":null,"timecreated":"2010-03-09 12:59:46.167154","timemodified":"2010-03-09 18:38:47","visibility":"public","showfootprint":"on","showembodied":"on","showtransport":"on","showprocess":"on","showendoflife":"on","showlastleg":"on","showuse":"on","showstats":"on","stops":{"origin":{"related_to":"3294","part_or_object":"o","notes":"","placename":"Toronto, ON, Canada","id":"1029","category":"1","lat":"43.670233","lon":"-79.386755","name":"origin","hops":{"incoming":[{"transport_id":"16","id":"1923","transport_name":"air, freight, intercontinental","transport_description":"intercontinental freight","transport_unit":"kg km","transport_co2_eq":"0.450000","from_stop_id":"4183","from_stop_lat":"15.870032","from_stop_lon":"100.992541","to_stop_id":"1029","to_stop_name":"origin","to_stop_lat":"43.670233","placename":"Thailand","to_stop_lon":"-79.386755","to_stop":{"id":"1029","name":"origin","lat":"43.670233","placename":"Toronto, ON, Canada","lon":"-79.386755"},"from_stop":{"name":"origin","id":"4183","lat":"15.870032","lon":"100.992541","placename":"Thailand"}},{"transport_id":"16","id":"1924","transport_name":"air, freight, intercontinental","transport_description":"intercontinental freight","transport_unit":"kg km","transport_co2_eq":"0.450000","from_stop_id":"4184","from_stop_lat":"20.593684","from_stop_lon":"78.96288","to_stop_id":"1029","to_stop_name":"origin","to_stop_lat":"43.670233","placename":"India","to_stop_lon":"-79.386755","to_stop":{"id":"1029","name":"origin","lat":"43.670233","placename":"Toronto, ON, Canada","lon":"-79.386755"},"from_stop":{"name":"origin","id":"4184","lat":"20.593684","lon":"78.96288","placename":"India"}},{"transport_id":"16","id":"1925","transport_name":"air, freight, intercontinental","transport_description":"intercontinental freight","transport_unit":"kg km","transport_co2_eq":"0.450000","from_stop_id":"4185","from_stop_lat":"14.058324","from_stop_lon":"108.277199","to_stop_id":"1029","to_stop_name":"origin","to_stop_lat":"43.670233","placename":"Vietnam","to_stop_lon":"-79.386755","to_stop":{"id":"1029","name":"origin","lat":"43.670233","placename":"Toronto, ON, Canada","lon":"-79.386755"},"from_stop":{"name":"origin","id":"4185","lat":"14.058324","lon":"108.277199","placename":"Vietnam"}},{"transport_id":"3","id":"1926","transport_name":"truck, 40 tons","transport_description":"truck, half full","transport_unit":"kg km","transport_co2_eq":"0.030900","from_stop_id":"4186","from_stop_lat":"56.130366","from_stop_lon":"-106.346771","to_stop_id":"1029","to_stop_name":"origin","to_stop_lat":"43.670233","placename":"Canada","to_stop_lon":"-79.386755","to_stop":{"id":"1029","name":"origin","lat":"43.670233","placename":"Toronto, ON, Canada","lon":"-79.386755"},"from_stop":{"name":"origin","id":"4186","lat":"56.130366","lon":"-106.346771","placename":"Canada"}}],"outgoing":[]}}},"parts":[{"oid":"3294","imid":"2295","linkid":"parts\/milkshake","weight":"0.5","rawemissions":"1.963","emissions":"0.9815","shipping":"13409.4","processemissions":null,"endoflifeemissions":null,"disposaltype":null,"disposalenergy":null,"disposalimpact":null,"disposalemissions":null,"description":"shrimps\n","name":"thai gold fresh frozen shrimp","id":"2295","stops":{"origin":{"related_to":"2295","part_or_object":"p","notes":"","placename":"Thailand","id":4183,"name":"origin","lat":"15.870032","lon":"100.992541","hops":{"incoming":[],"outgoing":[{"transport_id":"16","id":"1923","transport_name":"air, freight, intercontinental","transport_description":"intercontinental freight","transport_unit":"kg km","transport_co2_eq":"0.450000","from_stop_id":"4183","from_stop_lat":"15.870032","from_stop_lon":"100.992541","from_stop_placename":"Thailand","to_stop_id":"1029","to_stop_name":"origin","to_stop_lat":"43.670233","to_stop_lon":"-79.386755","to_stop_placename":"Toronto, ON, Canada","to_stop":{"id":"1029","name":"origin","lat":"43.670233","lon":"-79.386755","placename":"Toronto, ON, Canada"},"from_stop":{"name":"origin","id":"4183","lat":"15.870032","lon":"100.992541","placename":"Thailand"}}]}}},"processes":[],"eols":[]},{"oid":"3294","imid":"2296","linkid":"parts\/milkshake","weight":"0.425","rawemissions":"1.963","emissions":"0.834275","shipping":"12549.53","processemissions":null,"endoflifeemissions":null,"disposaltype":null,"disposalenergy":null,"disposalimpact":null,"disposalemissions":null,"description":"","name":"curry powder Authentic Bolst","id":"2296","stops":{"origin":{"related_to":"2296","part_or_object":"p","notes":"","placename":"India","id":4184,"name":"origin","lat":"20.593684","lon":"78.96288","hops":{"incoming":[],"outgoing":[{"transport_id":"16","id":"1924","transport_name":"air, freight, intercontinental","transport_description":"intercontinental freight","transport_unit":"kg km","transport_co2_eq":"0.450000","from_stop_id":"4184","from_stop_lat":"20.593684","from_stop_lon":"78.96288","from_stop_placename":"India","to_stop_id":"1029","to_stop_name":"origin","to_stop_lat":"43.670233","to_stop_lon":"-79.386755","to_stop_placename":"Toronto, ON, Canada","to_stop":{"id":"1029","name":"origin","lat":"43.670233","lon":"-79.386755","placename":"Toronto, ON, Canada"},"from_stop":{"name":"origin","id":"4184","lat":"20.593684","lon":"78.96288","placename":"India"}}]}}},"processes":[],"eols":[]},{"oid":"3294","imid":"2297","linkid":"parts\/milkshake","weight":"0","rawemissions":"1.963","emissions":"0","shipping":"13564.02","processemissions":null,"endoflifeemissions":null,"disposaltype":null,"disposalenergy":null,"disposalimpact":null,"disposalemissions":null,"description":"","name":"Vietnam white rice","id":"2297","stops":{"origin":{"related_to":"2297","part_or_object":"p","notes":"","placename":"Vietnam","id":4185,"name":"origin","lat":"14.058324","lon":"108.277199","hops":{"incoming":[],"outgoing":[{"transport_id":"16","id":"1925","transport_name":"air, freight, intercontinental","transport_description":"intercontinental freight","transport_unit":"kg km","transport_co2_eq":"0.450000","from_stop_id":"4185","from_stop_lat":"14.058324","from_stop_lon":"108.277199","from_stop_placename":"Vietnam","to_stop_id":"1029","to_stop_name":"origin","to_stop_lat":"43.670233","to_stop_lon":"-79.386755","to_stop_placename":"Toronto, ON, Canada","to_stop":{"id":"1029","name":"origin","lat":"43.670233","lon":"-79.386755","placename":"Toronto, ON, Canada"},"from_stop":{"name":"origin","id":"4185","lat":"14.058324","lon":"108.277199","placename":"Vietnam"}}]}}},"processes":[],"eols":[]},{"oid":"3294","imid":"2298","linkid":"parts\/milkshake","weight":"0.63","rawemissions":"0","emissions":"0","shipping":"2354.44","processemissions":null,"endoflifeemissions":null,"disposaltype":null,"disposalenergy":null,"disposalimpact":null,"disposalemissions":null,"description":"","name":"prestige large eggs","id":"2298","stops":{"origin":{"related_to":"2298","part_or_object":"p","notes":"","placename":"Canada","id":4186,"name":"origin","lat":"56.130366","lon":"-106.346771","hops":{"incoming":[],"outgoing":[{"transport_id":"3","id":"1926","transport_name":"truck, 40 tons","transport_description":"truck, half full","transport_unit":"kg km","transport_co2_eq":"0.030900","from_stop_id":"4186","from_stop_lat":"56.130366","from_stop_lon":"-106.346771","from_stop_placename":"Canada","to_stop_id":"1029","to_stop_name":"origin","to_stop_lat":"43.670233","to_stop_lon":"-79.386755","to_stop_placename":"Toronto, ON, Canada","to_stop":{"id":"1029","name":"origin","lat":"43.670233","lon":"-79.386755","placename":"Toronto, ON, Canada"},"from_stop":{"name":"origin","id":"4186","lat":"56.130366","lon":"-106.346771","placename":"Canada"}}]}}},"processes":[],"eols":[]}],"user":{"name":"thomas219","id":"9229"}}}