{"3301":{"oid":"3301","type":"food","flag":"","creator":"9234","name":"Dinner","upc":"","imagelink":"","description":"my dinner","slug":"dinner-6","category":"","weight":"2.487","emissions":"4.97875059658","embodied":"4.87452","transport":"0.10423059658","process":"0","endoflife":"0","shipping":"25139.95","lifetime":null,"usagetype":"","usageenergy":null,"usageemissions":null,"timecreated":"2010-03-09 13:00:34.807147","timemodified":"2010-03-09 18:26:13","visibility":"public","showfootprint":"on","showembodied":"on","showtransport":"on","showprocess":"on","showendoflife":"on","showlastleg":"on","showuse":"on","showstats":"on","stops":{"origin":{"related_to":"3301","part_or_object":"o","notes":"","placename":"Toronto, ON, Canada","id":"1033","category":"1","lat":"43.670233","lon":"-79.386755","name":"origin","hops":{"incoming":[{"transport_id":"8","id":"1929","transport_name":"freighter, oceanic","transport_description":"","transport_unit":"kg km","transport_co2_eq":"0.004200","from_stop_id":"4189","from_stop_lat":"15.870032","from_stop_lon":"100.992541","to_stop_id":"1033","to_stop_name":"origin","to_stop_lat":"43.670233","placename":"Thailand","to_stop_lon":"-79.386755","to_stop":{"id":"1033","name":"origin","lat":"43.670233","placename":"Toronto, ON, Canada","lon":"-79.386755"},"from_stop":{"name":"origin","id":"4189","lat":"15.870032","lon":"100.992541","placename":"Thailand"}},{"transport_id":"10","id":"1930","transport_name":"train, freight","transport_description":"diesel freight locomotive","transport_unit":"kg km","transport_co2_eq":"0.005600","from_stop_id":"4190","from_stop_lat":"51.055149","from_stop_lon":"-114.062438","to_stop_id":"1033","to_stop_name":"origin","to_stop_lat":"43.670233","placename":"Calgary, AB, Canada","to_stop_lon":"-79.386755","to_stop":{"id":"1033","name":"origin","lat":"43.670233","placename":"Toronto, ON, Canada","lon":"-79.386755"},"from_stop":{"name":"origin","id":"4190","lat":"51.055149","lon":"-114.062438","placename":"Calgary, AB, Canada"}},{"transport_id":"3","id":"1931","transport_name":"truck, 40 tons","transport_description":"truck, half full","transport_unit":"kg km","transport_co2_eq":"0.030900","from_stop_id":"4191","from_stop_lat":"36.778261","from_stop_lon":"-119.4179324","to_stop_id":"1033","to_stop_name":"origin","to_stop_lat":"43.670233","placename":"California, USA","to_stop_lon":"-79.386755","to_stop":{"id":"1033","name":"origin","lat":"43.670233","placename":"Toronto, ON, Canada","lon":"-79.386755"},"from_stop":{"name":"origin","id":"4191","lat":"36.778261","lon":"-119.4179324","placename":"California, USA"}},{"transport_id":"10","id":"1932","transport_name":"train, freight","transport_description":"diesel freight locomotive","transport_unit":"kg km","transport_co2_eq":"0.005600","from_stop_id":"4192","from_stop_lat":"63.588753","from_stop_lon":"-154.4930619","to_stop_id":"1033","to_stop_name":"origin","to_stop_lat":"43.670233","placename":"Alaska, USA","to_stop_lon":"-79.386755","to_stop":{"id":"1033","name":"origin","lat":"43.670233","placename":"Toronto, ON, Canada","lon":"-79.386755"},"from_stop":{"name":"origin","id":"4192","lat":"63.588753","lon":"-154.4930619","placename":"Alaska, USA"}},{"transport_id":"7","id":"1933","transport_name":"freighter, inland","transport_description":"for rivers and lakes","transport_unit":"kg km","transport_co2_eq":"0.025300","from_stop_id":"4193","from_stop_lat":"44.3148443","from_stop_lon":"-85.6023643","to_stop_id":"1033","to_stop_name":"origin","to_stop_lat":"43.670233","placename":"Michigan, USA","to_stop_lon":"-79.386755","to_stop":{"id":"1033","name":"origin","lat":"43.670233","placename":"Toronto, ON, Canada","lon":"-79.386755"},"from_stop":{"name":"origin","id":"4193","lat":"44.3148443","lon":"-85.6023643","placename":"Michigan, USA"}}],"outgoing":[]}}},"parts":[{"oid":"3301","imid":"2301","linkid":"parts\/milkshake","weight":"0.227","rawemissions":"1.96","emissions":"0.44492","shipping":"13409.4","processemissions":null,"endoflifeemissions":null,"disposaltype":null,"disposalenergy":null,"disposalimpact":null,"disposalemissions":null,"description":"","name":"noodles","id":"2301","stops":{"origin":{"related_to":"2301","part_or_object":"p","notes":"","placename":"Thailand","id":4189,"name":"origin","lat":"15.870032","lon":"100.992541","hops":{"incoming":[],"outgoing":[{"transport_id":"8","id":"1929","transport_name":"freighter, oceanic","transport_description":"","transport_unit":"kg km","transport_co2_eq":"0.004200","from_stop_id":"4189","from_stop_lat":"15.870032","from_stop_lon":"100.992541","from_stop_placename":"Thailand","to_stop_id":"1033","to_stop_name":"origin","to_stop_lat":"43.670233","to_stop_lon":"-79.386755","to_stop_placename":"Toronto, ON, Canada","to_stop":{"id":"1033","name":"origin","lat":"43.670233","lon":"-79.386755","placename":"Toronto, ON, Canada"},"from_stop":{"name":"origin","id":"4189","lat":"15.870032","lon":"100.992541","placename":"Thailand"}}]}}},"processes":[],"eols":[]},{"oid":"3301","imid":"2302","linkid":"parts\/milkshake","weight":"0.66","rawemissions":"1.96","emissions":"1.2936","shipping":"2712.07","processemissions":null,"endoflifeemissions":null,"disposaltype":null,"disposalenergy":null,"disposalimpact":null,"disposalemissions":null,"description":"","name":"Beef Striploin","id":"2302","stops":{"origin":{"related_to":"2302","part_or_object":"p","notes":"","placename":"Calgary, AB, Canada","id":4190,"name":"origin","lat":"51.055149","lon":"-114.062438","hops":{"incoming":[],"outgoing":[{"transport_id":"10","id":"1930","transport_name":"train, freight","transport_description":"diesel freight locomotive","transport_unit":"kg km","transport_co2_eq":"0.005600","from_stop_id":"4190","from_stop_lat":"51.055149","from_stop_lon":"-114.062438","from_stop_placename":"Calgary, AB, Canada","to_stop_id":"1033","to_stop_name":"origin","to_stop_lat":"43.670233","to_stop_lon":"-79.386755","to_stop_placename":"Toronto, ON, Canada","to_stop":{"id":"1033","name":"origin","lat":"43.670233","lon":"-79.386755","placename":"Toronto, ON, Canada"},"from_stop":{"name":"origin","id":"4190","lat":"51.055149","lon":"-114.062438","placename":"Calgary, AB, Canada"}}]}}},"processes":[],"eols":[]},{"oid":"3301","imid":"2303","linkid":"parts\/milkshake","weight":"0.6","rawemissions":"1.96","emissions":"1.176","shipping":"3452.62","processemissions":null,"endoflifeemissions":null,"disposaltype":null,"disposalenergy":null,"disposalimpact":null,"disposalemissions":null,"description":"","name":"broccoli","id":"2303","stops":{"origin":{"related_to":"2303","part_or_object":"p","notes":"","placename":"California, USA","id":4191,"name":"origin","lat":"36.778261","lon":"-119.4179324","hops":{"incoming":[],"outgoing":[{"transport_id":"3","id":"1931","transport_name":"truck, 40 tons","transport_description":"truck, half full","transport_unit":"kg km","transport_co2_eq":"0.030900","from_stop_id":"4191","from_stop_lat":"36.778261","from_stop_lon":"-119.4179324","from_stop_placename":"California, USA","to_stop_id":"1033","to_stop_name":"origin","to_stop_lat":"43.670233","to_stop_lon":"-79.386755","to_stop_placename":"Toronto, ON, Canada","to_stop":{"id":"1033","name":"origin","lat":"43.670233","lon":"-79.386755","placename":"Toronto, ON, Canada"},"from_stop":{"name":"origin","id":"4191","lat":"36.778261","lon":"-119.4179324","placename":"California, USA"}}]}}},"processes":[],"eols":[]},{"oid":"3301","imid":"2304","linkid":"parts\/milkshake","weight":"0.3","rawemissions":"1.96","emissions":"0.588","shipping":"5063.05","processemissions":null,"endoflifeemissions":null,"disposaltype":null,"disposalenergy":null,"disposalimpact":null,"disposalemissions":null,"description":"","name":"salmon","id":"2304","stops":{"origin":{"related_to":"2304","part_or_object":"p","notes":"","placename":"Alaska, USA","id":4192,"name":"origin","lat":"63.588753","lon":"-154.4930619","hops":{"incoming":[],"outgoing":[{"transport_id":"10","id":"1932","transport_name":"train, freight","transport_description":"diesel freight locomotive","transport_unit":"kg km","transport_co2_eq":"0.005600","from_stop_id":"4192","from_stop_lat":"63.588753","from_stop_lon":"-154.4930619","from_stop_placename":"Alaska, USA","to_stop_id":"1033","to_stop_name":"origin","to_stop_lat":"43.670233","to_stop_lon":"-79.386755","to_stop_placename":"Toronto, ON, Canada","to_stop":{"id":"1033","name":"origin","lat":"43.670233","lon":"-79.386755","placename":"Toronto, ON, Canada"},"from_stop":{"name":"origin","id":"4192","lat":"63.588753","lon":"-154.4930619","placename":"Alaska, USA"}}]}}},"processes":[],"eols":[]},{"oid":"3301","imid":"2305","linkid":"parts\/milkshake","weight":"0.7","rawemissions":"1.96","emissions":"1.372","shipping":"502.81","processemissions":null,"endoflifeemissions":null,"disposaltype":null,"disposalenergy":null,"disposalimpact":null,"disposalemissions":null,"description":"","name":"Apple Crisp ","id":"2305","stops":{"origin":{"related_to":"2305","part_or_object":"p","notes":"","placename":"Michigan, USA","id":4193,"name":"origin","lat":"44.3148443","lon":"-85.6023643","hops":{"incoming":[],"outgoing":[{"transport_id":"7","id":"1933","transport_name":"freighter, inland","transport_description":"for rivers and lakes","transport_unit":"kg km","transport_co2_eq":"0.025300","from_stop_id":"4193","from_stop_lat":"44.3148443","from_stop_lon":"-85.6023643","from_stop_placename":"Michigan, USA","to_stop_id":"1033","to_stop_name":"origin","to_stop_lat":"43.670233","to_stop_lon":"-79.386755","to_stop_placename":"Toronto, ON, Canada","to_stop":{"id":"1033","name":"origin","lat":"43.670233","lon":"-79.386755","placename":"Toronto, ON, Canada"},"from_stop":{"name":"origin","id":"4193","lat":"44.3148443","lon":"-85.6023643","placename":"Michigan, USA"}}]}}},"processes":[],"eols":[]}],"user":{"name":"Joseph","id":"9234"}}}