{"3347":{"oid":"3347","type":"food","flag":"","creator":"9199","name":"maddy's breakfast","upc":"","imagelink":"","description":"","slug":"maddys-breakfast-4","category":"","weight":"2.956","emissions":"5.43443957616","embodied":"5.40022","transport":"0.034219576155","process":"0","endoflife":"0","shipping":"2556.4","lifetime":null,"usagetype":"","usageenergy":null,"usageemissions":null,"timecreated":"2010-03-10 16:23:06.523604","timemodified":"2010-03-10 23:32:34","visibility":"public","showfootprint":"on","showembodied":"on","showtransport":"on","showprocess":"on","showendoflife":"on","showlastleg":"on","showuse":"on","showstats":"on","stops":{"origin":{"related_to":"3347","part_or_object":"o","notes":"","placename":"Toronto, ON, Canada","id":"1084","category":"1","lat":"43.670233","lon":"-79.386755","name":"origin","hops":{"incoming":[{"transport_id":"4","id":"2076","transport_name":"automobile, 20 mpg","transport_description":"low efficiency automobile","transport_unit":"kg km","transport_co2_eq":"0.067500","from_stop_id":"4336","from_stop_lat":"44.231329","from_stop_lon":"-76.480925","to_stop_id":"1084","to_stop_name":"origin","to_stop_lat":"43.670233","placename":"Kingston, ON, Canada","to_stop_lon":"-79.386755","to_stop":{"id":"1084","name":"origin","lat":"43.670233","placename":"Toronto, ON, Canada","lon":"-79.386755"},"from_stop":{"name":"origin","id":"4336","lat":"44.231329","lon":"-76.480925","placename":"Kingston, ON, Canada"}},{"transport_id":"2","id":"2077","transport_name":"truck, 16 tons","transport_description":"truck, half full","transport_unit":"kg km","transport_co2_eq":"0.020300","from_stop_id":"4337","from_stop_lat":"45.545447","from_stop_lon":"-73.639076","to_stop_id":"1084","to_stop_name":"origin","to_stop_lat":"43.670233","placename":"Montreal, QC, Canada","to_stop_lon":"-79.386755","to_stop":{"id":"1084","name":"origin","lat":"43.670233","placename":"Toronto, ON, Canada","lon":"-79.386755"},"from_stop":{"name":"origin","id":"4337","lat":"45.545447","lon":"-73.639076","placename":"Montreal, QC, Canada"}},{"transport_id":"3","id":"2078","transport_name":"truck, 40 tons","transport_description":"truck, half full","transport_unit":"kg km","transport_co2_eq":"0.030900","from_stop_id":"4338","from_stop_lat":"27.6648274","from_stop_lon":"-81.5157535","to_stop_id":"1084","to_stop_name":"origin","to_stop_lat":"43.670233","placename":"Florida, USA","to_stop_lon":"-79.386755","to_stop":{"id":"1084","name":"origin","lat":"43.670233","placename":"Toronto, ON, Canada","lon":"-79.386755"},"from_stop":{"name":"origin","id":"4338","lat":"27.6648274","lon":"-81.5157535","placename":"Florida, USA"}},{"transport_id":"3","id":"2079","transport_name":"truck, 40 tons","transport_description":"truck, half full","transport_unit":"kg km","transport_co2_eq":"0.030900","from_stop_id":"4339","from_stop_lat":"43.670233","from_stop_lon":"-79.386755","to_stop_id":"1084","to_stop_name":"origin","to_stop_lat":"43.670233","placename":"Toronto, ON, Canada","to_stop_lon":"-79.386755","to_stop":{"id":"1084","name":"origin","lat":"43.670233","placename":"Toronto, ON, Canada","lon":"-79.386755"},"from_stop":{"name":"origin","id":"4339","lat":"43.670233","lon":"-79.386755","placename":"Toronto, ON, Canada"}},{"transport_id":"1","id":"2080","transport_name":"van, 3.5 tons","transport_description":"delivery van, half full","transport_unit":"kg km","transport_co2_eq":"0.053400","from_stop_id":"4340","from_stop_lat":"43.588208","from_stop_lon":"-79.641721","to_stop_id":"1084","to_stop_name":"origin","to_stop_lat":"43.670233","placename":"Mississauga, ON, Canada","to_stop_lon":"-79.386755","to_stop":{"id":"1084","name":"origin","lat":"43.670233","placename":"Toronto, ON, Canada","lon":"-79.386755"},"from_stop":{"name":"origin","id":"4340","lat":"43.588208","lon":"-79.641721","placename":"Mississauga, ON, Canada"}},{"transport_id":"17","id":"2081","transport_name":"None Selected","transport_description":null,"transport_unit":"kg km","transport_co2_eq":"0.000000","from_stop_id":"4341","from_stop_lat":"0","from_stop_lon":"0","to_stop_id":"1084","to_stop_name":"origin","to_stop_lat":"43.670233","placename":"Ingredient Source","to_stop_lon":"-79.386755","to_stop":{"id":"1084","name":"origin","lat":"43.670233","placename":"Toronto, ON, Canada","lon":"-79.386755"},"from_stop":{"name":"origin","id":"4341","lat":"0","lon":"0","placename":"Ingredient Source"}}],"outgoing":[]}}},"parts":[{"oid":"3347","imid":"2396","linkid":"parts\/","weight":"0.564","rawemissions":"1.87","emissions":"1.05468","shipping":"241.1","processemissions":null,"endoflifeemissions":null,"disposaltype":null,"disposalenergy":null,"disposalimpact":null,"disposalemissions":null,"description":"the average egg weighs 47 grams","name":"eggs","id":"2396","stops":{"origin":{"related_to":"2396","part_or_object":"p","notes":"","placename":"Kingston, ON, Canada","id":4336,"name":"origin","lat":"44.231329","lon":"-76.480925","hops":{"incoming":[],"outgoing":[{"transport_id":"4","id":"2076","transport_name":"automobile, 20 mpg","transport_description":"low efficiency automobile","transport_unit":"kg km","transport_co2_eq":"0.067500","from_stop_id":"4336","from_stop_lat":"44.231329","from_stop_lon":"-76.480925","from_stop_placename":"Kingston, ON, Canada","to_stop_id":"1084","to_stop_name":"origin","to_stop_lat":"43.670233","to_stop_lon":"-79.386755","to_stop_placename":"Toronto, ON, Canada","to_stop":{"id":"1084","name":"origin","lat":"43.670233","lon":"-79.386755","placename":"Toronto, ON, Canada"},"from_stop":{"name":"origin","id":"4336","lat":"44.231329","lon":"-76.480925","placename":"Kingston, ON, Canada"}}]}}},"processes":[],"eols":[]},{"oid":"3347","imid":"2397","linkid":"parts\/","weight":"0.75","rawemissions":"1.7","emissions":"1.275","shipping":"500.91","processemissions":null,"endoflifeemissions":null,"disposaltype":null,"disposalenergy":null,"disposalimpact":null,"disposalemissions":null,"description":"","name":"cheddar cheese","id":"2397","stops":{"origin":{"related_to":"2397","part_or_object":"p","notes":"","placename":"Montreal, QC, Canada","id":4337,"name":"origin","lat":"45.545447","lon":"-73.639076","hops":{"incoming":[],"outgoing":[{"transport_id":"2","id":"2077","transport_name":"truck, 16 tons","transport_description":"truck, half full","transport_unit":"kg km","transport_co2_eq":"0.020300","from_stop_id":"4337","from_stop_lat":"45.545447","from_stop_lon":"-73.639076","from_stop_placename":"Montreal, QC, Canada","to_stop_id":"1084","to_stop_name":"origin","to_stop_lat":"43.670233","to_stop_lon":"-79.386755","to_stop_placename":"Toronto, ON, Canada","to_stop":{"id":"1084","name":"origin","lat":"43.670233","lon":"-79.386755","placename":"Toronto, ON, Canada"},"from_stop":{"name":"origin","id":"4337","lat":"45.545447","lon":"-73.639076","placename":"Montreal, QC, Canada"}}]}}},"processes":[],"eols":[]},{"oid":"3347","imid":"2398","linkid":"parts\/","weight":"0.295","rawemissions":"1.87","emissions":"0.55165","shipping":"1791.91","processemissions":null,"endoflifeemissions":null,"disposaltype":null,"disposalenergy":null,"disposalimpact":null,"disposalemissions":null,"description":"","name":"grapefruit","id":"2398","stops":{"origin":{"related_to":"2398","part_or_object":"p","notes":"","placename":"Florida, USA","id":4338,"name":"origin","lat":"27.6648274","lon":"-81.5157535","hops":{"incoming":[],"outgoing":[{"transport_id":"3","id":"2078","transport_name":"truck, 40 tons","transport_description":"truck, half full","transport_unit":"kg km","transport_co2_eq":"0.030900","from_stop_id":"4338","from_stop_lat":"27.6648274","from_stop_lon":"-81.5157535","from_stop_placename":"Florida, USA","to_stop_id":"1084","to_stop_name":"origin","to_stop_lat":"43.670233","to_stop_lon":"-79.386755","to_stop_placename":"Toronto, ON, Canada","to_stop":{"id":"1084","name":"origin","lat":"43.670233","lon":"-79.386755","placename":"Toronto, ON, Canada"},"from_stop":{"name":"origin","id":"4338","lat":"27.6648274","lon":"-81.5157535","placename":"Florida, USA"}}]}}},"processes":[],"eols":[]},{"oid":"3347","imid":"2399","linkid":"parts\/","weight":"0.447","rawemissions":"1.87","emissions":"0.83589","shipping":"0","processemissions":null,"endoflifeemissions":null,"disposaltype":null,"disposalenergy":null,"disposalimpact":null,"disposalemissions":null,"description":"","name":"Minute Maid Rasberry Juice","id":"2399","stops":{"origin":{"related_to":"2399","part_or_object":"p","notes":"","placename":"Toronto, ON, Canada","id":4339,"name":"origin","lat":"43.670233","lon":"-79.386755","hops":{"incoming":[],"outgoing":[{"transport_id":"3","id":"2079","transport_name":"truck, 40 tons","transport_description":"truck, half full","transport_unit":"kg km","transport_co2_eq":"0.030900","from_stop_id":"4339","from_stop_lat":"43.670233","from_stop_lon":"-79.386755","from_stop_placename":"Toronto, ON, Canada","to_stop_id":"1084","to_stop_name":"origin","to_stop_lat":"43.670233","to_stop_lon":"-79.386755","to_stop_placename":"Toronto, ON, Canada","to_stop":{"id":"1084","name":"origin","lat":"43.670233","lon":"-79.386755","placename":"Toronto, ON, Canada"},"from_stop":{"name":"origin","id":"4339","lat":"43.670233","lon":"-79.386755","placename":"Toronto, ON, Canada"}}]}}},"processes":[],"eols":[]},{"oid":"3347","imid":"2400","linkid":"parts\/","weight":"0.9","rawemissions":"1.87","emissions":"1.683","shipping":"22.48","processemissions":null,"endoflifeemissions":null,"disposaltype":null,"disposalenergy":null,"disposalimpact":null,"disposalemissions":null,"description":"","name":"dark rye bread","id":"2400","stops":{"origin":{"related_to":"2400","part_or_object":"p","notes":"","placename":"Mississauga, ON, Canada","id":4340,"name":"origin","lat":"43.588208","lon":"-79.641721","hops":{"incoming":[],"outgoing":[{"transport_id":"1","id":"2080","transport_name":"van, 3.5 tons","transport_description":"delivery van, half full","transport_unit":"kg km","transport_co2_eq":"0.053400","from_stop_id":"4340","from_stop_lat":"43.588208","from_stop_lon":"-79.641721","from_stop_placename":"Mississauga, ON, Canada","to_stop_id":"1084","to_stop_name":"origin","to_stop_lat":"43.670233","to_stop_lon":"-79.386755","to_stop_placename":"Toronto, ON, Canada","to_stop":{"id":"1084","name":"origin","lat":"43.670233","lon":"-79.386755","placename":"Toronto, ON, Canada"},"from_stop":{"name":"origin","id":"4340","lat":"43.588208","lon":"-79.641721","placename":"Mississauga, ON, Canada"}}]}}},"processes":[],"eols":[]},{"oid":"3347","imid":"2401","linkid":"parts\/","weight":"0","rawemissions":"0","emissions":"0","shipping":"0","processemissions":null,"endoflifeemissions":null,"disposaltype":null,"disposalenergy":null,"disposalimpact":null,"disposalemissions":null,"description":"","name":"Ingredient","id":"2401","stops":{"origin":{"related_to":"2401","part_or_object":"p","notes":"","placename":"Ingredient Source","id":4341,"name":"origin","lat":"0","lon":"0","hops":{"incoming":[],"outgoing":[{"transport_id":"17","id":"2081","transport_name":"None Selected","transport_description":null,"transport_unit":"kg km","transport_co2_eq":"0.000000","from_stop_id":"4341","from_stop_lat":"0","from_stop_lon":"0","from_stop_placename":"Ingredient Source","to_stop_id":"1084","to_stop_name":"origin","to_stop_lat":"43.670233","to_stop_lon":"-79.386755","to_stop_placename":"Toronto, ON, Canada","to_stop":{"id":"1084","name":"origin","lat":"43.670233","lon":"-79.386755","placename":"Toronto, ON, Canada"},"from_stop":{"name":"origin","id":"4341","lat":"0","lon":"0","placename":"Ingredient Source"}}]}}},"processes":[],"eols":[]}],"user":{"name":"maddy95","id":"9199"}}}