{"3349":{"oid":"3349","type":"food","flag":"","creator":"9185","name":"Monday's Dinner","upc":"","imagelink":"","description":"Delicious!","slug":"mondays-dinner","category":"","weight":"2.3","emissions":"3.1252009863","embodied":"3.036","transport":"0.0892009863","process":"0","endoflife":"0","shipping":"7430.94","lifetime":null,"usagetype":"","usageenergy":null,"usageemissions":null,"timecreated":"2010-03-10 17:42:33.256622","timemodified":"2010-03-10 23:11:31","visibility":"public","showfootprint":"on","showembodied":"on","showtransport":"on","showprocess":"on","showendoflife":"on","showlastleg":"on","showuse":"on","showstats":"on","stops":{"origin":{"related_to":"3349","part_or_object":"o","notes":"","placename":"Toronto, ON, Canada","id":"1083","category":"1","lat":"43.670233","lon":"-79.386755","name":"origin","hops":{"incoming":[{"transport_id":"11","id":"2071","transport_name":"train, regional","transport_description":"< 640 km, diesel, kg km from person-km","transport_unit":"kg km","transport_co2_eq":"0.080400","from_stop_id":"4331","from_stop_lat":"44.168006","from_stop_lon":"-77.384331","to_stop_id":"1083","to_stop_name":"origin","to_stop_lat":"43.670233","placename":"Belleville, ON, Canada","to_stop_lon":"-79.386755","to_stop":{"id":"1083","name":"origin","lat":"43.670233","placename":"Toronto, ON, Canada","lon":"-79.386755"},"from_stop":{"name":"origin","id":"4331","lat":"44.168006","lon":"-77.384331","placename":"Belleville, ON, Canada"}},{"transport_id":"3","id":"2072","transport_name":"truck, 40 tons","transport_description":"truck, half full","transport_unit":"kg km","transport_co2_eq":"0.030900","from_stop_id":"4332","from_stop_lat":"45.536607","from_stop_lon":"-73.550706","to_stop_id":"1083","to_stop_name":"origin","to_stop_lat":"43.670233","placename":"Ontario Est, Montreal, QC, Canada","to_stop_lon":"-79.386755","to_stop":{"id":"1083","name":"origin","lat":"43.670233","placename":"Toronto, ON, Canada","lon":"-79.386755"},"from_stop":{"name":"origin","id":"4332","lat":"45.536607","lon":"-73.550706","placename":"Ontario Est, Montreal, QC, Canada"}},{"transport_id":"3","id":"2073","transport_name":"truck, 40 tons","transport_description":"truck, half full","transport_unit":"kg km","transport_co2_eq":"0.030900","from_stop_id":"4333","from_stop_lat":"37.09024","from_stop_lon":"-95.712891","to_stop_id":"1083","to_stop_name":"origin","to_stop_lat":"43.670233","placename":"United States","to_stop_lon":"-79.386755","to_stop":{"id":"1083","name":"origin","lat":"43.670233","placename":"Toronto, ON, Canada","lon":"-79.386755"},"from_stop":{"name":"origin","id":"4333","lat":"37.09024","lon":"-95.712891","placename":"United States"}},{"transport_id":"3","id":"2074","transport_name":"truck, 40 tons","transport_description":"truck, half full","transport_unit":"kg km","transport_co2_eq":"0.030900","from_stop_id":"4334","from_stop_lat":"32.8406775","from_stop_lon":"-117.2587935","to_stop_id":"1083","to_stop_name":"origin","to_stop_lat":"43.670233","placename":"La Jolla, CA, USA","to_stop_lon":"-79.386755","to_stop":{"id":"1083","name":"origin","lat":"43.670233","placename":"Toronto, ON, Canada","lon":"-79.386755"},"from_stop":{"name":"origin","id":"4334","lat":"32.8406775","lon":"-117.2587935","placename":"La Jolla, CA, USA"}},{"transport_id":"12","id":"2075","transport_name":"train, long-distance","transport_description":"> 640 km, diesel, kg km from person-km","transport_unit":"kg km","transport_co2_eq":"0.043500","from_stop_id":"4335","from_stop_lat":"28.392484","from_stop_lon":"-80.614619","to_stop_id":"1083","to_stop_name":"origin","to_stop_lat":"43.670233","placename":"Cape Canaveral, FL, USA","to_stop_lon":"-79.386755","to_stop":{"id":"1083","name":"origin","lat":"43.670233","placename":"Toronto, ON, Canada","lon":"-79.386755"},"from_stop":{"name":"origin","id":"4335","lat":"28.392484","lon":"-80.614619","placename":"Cape Canaveral, FL, USA"}}],"outgoing":[]}}},"parts":[{"oid":"3349","imid":"2391","linkid":"parts\/","weight":"0.5","rawemissions":"1.32","emissions":"0.66","shipping":"169.85","processemissions":null,"endoflifeemissions":null,"disposaltype":null,"disposalenergy":null,"disposalimpact":null,"disposalemissions":null,"description":"","name":"Black Diamond Marble Cheese","id":"2391","stops":{"origin":{"related_to":"2391","part_or_object":"p","notes":"","placename":"Belleville, ON, Canada","id":4331,"name":"origin","lat":"44.168006","lon":"-77.384331","hops":{"incoming":[],"outgoing":[{"transport_id":"11","id":"2071","transport_name":"train, regional","transport_description":"< 640 km, diesel, kg km from person-km","transport_unit":"kg km","transport_co2_eq":"0.080400","from_stop_id":"4331","from_stop_lat":"44.168006","from_stop_lon":"-77.384331","from_stop_placename":"Belleville, ON, Canada","to_stop_id":"1083","to_stop_name":"origin","to_stop_lat":"43.670233","to_stop_lon":"-79.386755","to_stop_placename":"Toronto, ON, Canada","to_stop":{"id":"1083","name":"origin","lat":"43.670233","lon":"-79.386755","placename":"Toronto, ON, Canada"},"from_stop":{"name":"origin","id":"4331","lat":"44.168006","lon":"-77.384331","placename":"Belleville, ON, Canada"}}]}}},"processes":[],"eols":[]},{"oid":"3349","imid":"2392","linkid":"parts\/","weight":"0.9","rawemissions":"1.32","emissions":"1.188","shipping":"506.91","processemissions":null,"endoflifeemissions":null,"disposaltype":null,"disposalenergy":null,"disposalimpact":null,"disposalemissions":null,"description":"","name":"Pasta","id":"2392","stops":{"origin":{"related_to":"2392","part_or_object":"p","notes":"","placename":"Ontario Est, Montreal, QC, Canada","id":4332,"name":"origin","lat":"45.536607","lon":"-73.550706","hops":{"incoming":[],"outgoing":[{"transport_id":"3","id":"2072","transport_name":"truck, 40 tons","transport_description":"truck, half full","transport_unit":"kg km","transport_co2_eq":"0.030900","from_stop_id":"4332","from_stop_lat":"45.536607","from_stop_lon":"-73.550706","from_stop_placename":"Ontario Est, Montreal, QC, Canada","to_stop_id":"1083","to_stop_name":"origin","to_stop_lat":"43.670233","to_stop_lon":"-79.386755","to_stop_placename":"Toronto, ON, Canada","to_stop":{"id":"1083","name":"origin","lat":"43.670233","lon":"-79.386755","placename":"Toronto, ON, Canada"},"from_stop":{"name":"origin","id":"4332","lat":"45.536607","lon":"-73.550706","placename":"Ontario Est, Montreal, QC, Canada"}}]}}},"processes":[],"eols":[]},{"oid":"3349","imid":"2393","linkid":"parts\/","weight":"0.2","rawemissions":"1.32","emissions":"0.264","shipping":"1562.39","processemissions":null,"endoflifeemissions":null,"disposaltype":null,"disposalenergy":null,"disposalimpact":null,"disposalemissions":null,"description":"","name":"Prego sauce","id":"2393","stops":{"origin":{"related_to":"2393","part_or_object":"p","notes":"","placename":"United States","id":4333,"name":"origin","lat":"37.09024","lon":"-95.712891","hops":{"incoming":[],"outgoing":[{"transport_id":"3","id":"2073","transport_name":"truck, 40 tons","transport_description":"truck, half full","transport_unit":"kg km","transport_co2_eq":"0.030900","from_stop_id":"4333","from_stop_lat":"37.09024","from_stop_lon":"-95.712891","from_stop_placename":"United States","to_stop_id":"1083","to_stop_name":"origin","to_stop_lat":"43.670233","to_stop_lon":"-79.386755","to_stop_placename":"Toronto, ON, Canada","to_stop":{"id":"1083","name":"origin","lat":"43.670233","lon":"-79.386755","placename":"Toronto, ON, Canada"},"from_stop":{"name":"origin","id":"4333","lat":"37.09024","lon":"-95.712891","placename":"United States"}}]}}},"processes":[],"eols":[]},{"oid":"3349","imid":"2394","linkid":"parts\/","weight":"0.2","rawemissions":"1.32","emissions":"0.264","shipping":"3487.55","processemissions":null,"endoflifeemissions":null,"disposaltype":null,"disposalenergy":null,"disposalimpact":null,"disposalemissions":null,"description":"","name":"Kashi Granola bar","id":"2394","stops":{"origin":{"related_to":"2394","part_or_object":"p","notes":"","placename":"La Jolla, CA, USA","id":4334,"name":"origin","lat":"32.8406775","lon":"-117.2587935","hops":{"incoming":[],"outgoing":[{"transport_id":"3","id":"2074","transport_name":"truck, 40 tons","transport_description":"truck, half full","transport_unit":"kg km","transport_co2_eq":"0.030900","from_stop_id":"4334","from_stop_lat":"32.8406775","from_stop_lon":"-117.2587935","from_stop_placename":"La Jolla, CA, USA","to_stop_id":"1083","to_stop_name":"origin","to_stop_lat":"43.670233","to_stop_lon":"-79.386755","to_stop_placename":"Toronto, ON, Canada","to_stop":{"id":"1083","name":"origin","lat":"43.670233","lon":"-79.386755","placename":"Toronto, ON, Canada"},"from_stop":{"name":"origin","id":"4334","lat":"32.8406775","lon":"-117.2587935","placename":"La Jolla, CA, USA"}}]}}},"processes":[],"eols":[]},{"oid":"3349","imid":"2395","linkid":"parts\/","weight":"0.5","rawemissions":"1.32","emissions":"0.66","shipping":"1704.24","processemissions":null,"endoflifeemissions":null,"disposaltype":null,"disposalenergy":null,"disposalimpact":null,"disposalemissions":null,"description":"","name":"Tropicana  juice","id":"2395","stops":{"origin":{"related_to":"2395","part_or_object":"p","notes":"","placename":"Cape Canaveral, FL, USA","id":4335,"name":"origin","lat":"28.392484","lon":"-80.614619","hops":{"incoming":[],"outgoing":[{"transport_id":"12","id":"2075","transport_name":"train, long-distance","transport_description":"> 640 km, diesel, kg km from person-km","transport_unit":"kg km","transport_co2_eq":"0.043500","from_stop_id":"4335","from_stop_lat":"28.392484","from_stop_lon":"-80.614619","from_stop_placename":"Cape Canaveral, FL, USA","to_stop_id":"1083","to_stop_name":"origin","to_stop_lat":"43.670233","to_stop_lon":"-79.386755","to_stop_placename":"Toronto, ON, Canada","to_stop":{"id":"1083","name":"origin","lat":"43.670233","lon":"-79.386755","placename":"Toronto, ON, Canada"},"from_stop":{"name":"origin","id":"4335","lat":"28.392484","lon":"-80.614619","placename":"Cape Canaveral, FL, USA"}}]}}},"processes":[],"eols":[]}],"user":{"name":"nini45","id":"9185"}}}