{"3350":{"oid":"3350","type":"object","flag":"","creator":"9044","name":"Airbus A380","upc":"","imagelink":"","description":"\nReference \n","slug":"airbus-a380","category":"","weight":"95000","emissions":"6995.643","embodied":"0","transport":"6995.643","process":"0","endoflife":"0","shipping":"26829.13","lifetime":null,"usagetype":"","usageenergy":null,"usageemissions":null,"timecreated":"2010-03-10 19:03:06.814212","timemodified":"2010-12-05 12:02:09","visibility":"public","showfootprint":"on","showembodied":"on","showtransport":"on","showprocess":"on","showendoflife":"on","showlastleg":"on","showuse":"on","showstats":"on","stops":{"origin":{"related_to":"3350","part_or_object":"o","notes":null,"placename":"Toulouse, France","id":"8199","category":"1","lat":"43.604363","lon":"1.4429513","name":"origin","hops":{"incoming":[{"transport_id":"17","id":"5611","transport_name":"None Selected","transport_description":null,"transport_unit":"kg km","transport_co2_eq":"0.000000","from_stop_id":"8200","from_stop_lat":"53.0909011","from_stop_lon":"-1.3283896","to_stop_id":"8199","to_stop_name":"origin","to_stop_lat":"43.604363","placename":"Pinxton, Derbyshire, UK","to_stop_lon":"1.4429513","to_stop":{"id":"8199","name":"origin","lat":"43.604363","placename":"Toulouse, France","lon":"1.4429513"},"from_stop":{"name":"origin","id":"8200","lat":"53.0909011","lon":"-1.3283896","placename":"Pinxton, Derbyshire, UK"}},{"transport_id":"17","id":"5612","transport_name":"None Selected","transport_description":null,"transport_unit":"kg km","transport_co2_eq":"0.000000","from_stop_id":"8201","from_stop_lat":"52.5857278","from_stop_lon":"-2.1292507","to_stop_id":"8199","to_stop_name":"origin","to_stop_lat":"43.604363","placename":"Wolverhampton, UK","to_stop_lon":"1.4429513","to_stop":{"id":"8199","name":"origin","lat":"43.604363","placename":"Toulouse, France","lon":"1.4429513"},"from_stop":{"name":"origin","id":"8201","lat":"52.5857278","lon":"-2.1292507","placename":"Wolverhampton, UK"}},{"transport_id":"17","id":"5613","transport_name":"None Selected","transport_description":null,"transport_unit":"kg km","transport_co2_eq":"0.000000","from_stop_id":"8202","from_stop_lat":"52.5857278","from_stop_lon":"-2.1292507","to_stop_id":"8199","to_stop_name":"origin","to_stop_lat":"43.604363","placename":"Wolverhampton, UK","to_stop_lon":"1.4429513","to_stop":{"id":"8199","name":"origin","lat":"43.604363","placename":"Toulouse, France","lon":"1.4429513"},"from_stop":{"name":"origin","id":"8202","lat":"52.5857278","lon":"-2.1292507","placename":"Wolverhampton, UK"}},{"transport_id":"17","id":"5614","transport_name":"None Selected","transport_description":null,"transport_unit":"kg km","transport_co2_eq":"0.000000","from_stop_id":"8203","from_stop_lat":"52.107919","from_stop_lon":"-2.325062","to_stop_id":"8199","to_stop_name":"origin","to_stop_lat":"43.604363","placename":"Malvern, Hereford and Worcester, UK","to_stop_lon":"1.4429513","to_stop":{"id":"8199","name":"origin","lat":"43.604363","placename":"Toulouse, France","lon":"1.4429513"},"from_stop":{"name":"origin","id":"8203","lat":"52.107919","lon":"-2.325062","placename":"Malvern, Hereford and Worcester, UK"}},{"transport_id":"17","id":"5615","transport_name":"None Selected","transport_description":null,"transport_unit":"kg km","transport_co2_eq":"0.000000","from_stop_id":"8204","from_stop_lat":"53.0265029","from_stop_lon":"-2.176636","to_stop_id":"8199","to_stop_name":"origin","to_stop_lat":"43.604363","placename":"Stoke-on-Trent, UK","to_stop_lon":"1.4429513","to_stop":{"id":"8199","name":"origin","lat":"43.604363","placename":"Toulouse, France","lon":"1.4429513"},"from_stop":{"name":"origin","id":"8204","lat":"53.0265029","lon":"-2.176636","placename":"Stoke-on-Trent, UK"}},{"transport_id":"9","id":"5616","transport_name":"container ship","transport_description":"moving boxcar size containers","transport_unit":"kg km","transport_co2_eq":"0.047800","from_stop_id":"8205","from_stop_lat":"52.4829614","from_stop_lon":"-1.893592","to_stop_id":"8199","to_stop_name":"origin","to_stop_lat":"43.604363","placename":"Birmingham, West Midlands, UK","to_stop_lon":"1.4429513","to_stop":{"id":"8199","name":"origin","lat":"43.604363","placename":"Toulouse, France","lon":"1.4429513"},"from_stop":{"name":"origin","id":"8205","lat":"52.4829614","lon":"-1.893592","placename":"Birmingham, West Midlands, UK"}},{"transport_id":"9","id":"5617","transport_name":"container ship","transport_description":"moving boxcar size containers","transport_unit":"kg km","transport_co2_eq":"0.047800","from_stop_id":"8206","from_stop_lat":"52.1319884","from_stop_lon":"-0.9884152","to_stop_id":"8199","to_stop_name":"origin","to_stop_lat":"43.604363","placename":"Towcester, Northamptonshire, UK","to_stop_lon":"1.4429513","to_stop":{"id":"8199","name":"origin","lat":"43.604363","placename":"Toulouse, France","lon":"1.4429513"},"from_stop":{"name":"origin","id":"8206","lat":"52.1319884","lon":"-0.9884152","placename":"Towcester, Northamptonshire, UK"}},{"transport_id":"9","id":"5618","transport_name":"container ship","transport_description":"moving boxcar size containers","transport_unit":"kg km","transport_co2_eq":"0.047800","from_stop_id":"8207","from_stop_lat":"52.3732029","from_stop_lon":"-1.2617395","to_stop_id":"8199","to_stop_name":"origin","to_stop_lat":"43.604363","placename":"Rugby, Warwickshire, UK","to_stop_lon":"1.4429513","to_stop":{"id":"8199","name":"origin","lat":"43.604363","placename":"Toulouse, France","lon":"1.4429513"},"from_stop":{"name":"origin","id":"8207","lat":"52.3732029","lon":"-1.2617395","placename":"Rugby, Warwickshire, UK"}},{"transport_id":"9","id":"5619","transport_name":"container ship","transport_description":"moving boxcar size containers","transport_unit":"kg km","transport_co2_eq":"0.047800","from_stop_id":"8208","from_stop_lat":"52.8444299","from_stop_lon":"-1.3376897","to_stop_id":"8199","to_stop_name":"origin","to_stop_lat":"43.604363","placename":"Castle Donington, Leicestershire, UK","to_stop_lon":"1.4429513","to_stop":{"id":"8199","name":"origin","lat":"43.604363","placename":"Toulouse, France","lon":"1.4429513"},"from_stop":{"name":"origin","id":"8208","lat":"52.8444299","lon":"-1.3376897","placename":"Castle Donington, Leicestershire, UK"}},{"transport_id":"9","id":"5620","transport_name":"container ship","transport_description":"moving boxcar size containers","transport_unit":"kg km","transport_co2_eq":"0.047800","from_stop_id":"8209","from_stop_lat":"52.9253838","from_stop_lon":"-1.2129732","to_stop_id":"8199","to_stop_name":"origin","to_stop_lat":"43.604363","placename":"Beeston, Nottinghamshire, UK","to_stop_lon":"1.4429513","to_stop":{"id":"8199","name":"origin","lat":"43.604363","placename":"Toulouse, France","lon":"1.4429513"},"from_stop":{"name":"origin","id":"8209","lat":"52.9253838","lon":"-1.2129732","placename":"Beeston, Nottinghamshire, UK"}},{"transport_id":"9","id":"5621","transport_name":"container ship","transport_description":"moving boxcar size containers","transport_unit":"kg km","transport_co2_eq":"0.047800","from_stop_id":"8210","from_stop_lat":"52.3065851","from_stop_lon":"-1.9440406","to_stop_id":"8199","to_stop_name":"origin","to_stop_lat":"43.604363","placename":"Redditch, Worcestershire, UK","to_stop_lon":"1.4429513","to_stop":{"id":"8199","name":"origin","lat":"43.604363","placename":"Toulouse, France","lon":"1.4429513"},"from_stop":{"name":"origin","id":"8210","lat":"52.3065851","lon":"-1.9440406","placename":"Redditch, Worcestershire, UK"}},{"transport_id":"9","id":"5622","transport_name":"container ship","transport_description":"moving boxcar size containers","transport_unit":"kg km","transport_co2_eq":"0.047800","from_stop_id":"8211","from_stop_lat":"52.4937156","from_stop_lon":"-2.1559113","to_stop_id":"8199","to_stop_name":"origin","to_stop_lat":"43.604363","placename":"Kingswinford, Dudley DY6 8, UK","to_stop_lon":"1.4429513","to_stop":{"id":"8199","name":"origin","lat":"43.604363","placename":"Toulouse, France","lon":"1.4429513"},"from_stop":{"name":"origin","id":"8211","lat":"52.4937156","lon":"-2.1559113","placename":"Kingswinford, Dudley DY6 8, UK"}},{"transport_id":"17","id":"5623","transport_name":"None Selected","transport_description":null,"transport_unit":"kg km","transport_co2_eq":"0.000000","from_stop_id":"8212","from_stop_lat":"52.4829614","from_stop_lon":"-1.893592","to_stop_id":"8199","to_stop_name":"origin","to_stop_lat":"43.604363","placename":"Birmingham, UK","to_stop_lon":"1.4429513","to_stop":{"id":"8199","name":"origin","lat":"43.604363","placename":"Toulouse, France","lon":"1.4429513"},"from_stop":{"name":"origin","id":"8212","lat":"52.4829614","lon":"-1.893592","placename":"Birmingham, UK"}},{"transport_id":"17","id":"5624","transport_name":"None Selected","transport_description":null,"transport_unit":"kg km","transport_co2_eq":"0.000000","from_stop_id":"8213","from_stop_lat":"52.5857278","from_stop_lon":"-2.1292507","to_stop_id":"8199","to_stop_name":"origin","to_stop_lat":"43.604363","placename":"Wolverhampton, UK","to_stop_lon":"1.4429513","to_stop":{"id":"8199","name":"origin","lat":"43.604363","placename":"Toulouse, France","lon":"1.4429513"},"from_stop":{"name":"origin","id":"8213","lat":"52.5857278","lon":"-2.1292507","placename":"Wolverhampton, UK"}},{"transport_id":"17","id":"5625","transport_name":"None Selected","transport_description":null,"transport_unit":"kg km","transport_co2_eq":"0.000000","from_stop_id":"8214","from_stop_lat":"52.455542","from_stop_lon":"-2.143233","to_stop_id":"8199","to_stop_name":"origin","to_stop_lat":"43.604363","placename":"Stourbridge, Dudley, UK","to_stop_lon":"1.4429513","to_stop":{"id":"8199","name":"origin","lat":"43.604363","placename":"Toulouse, France","lon":"1.4429513"},"from_stop":{"name":"origin","id":"8214","lat":"52.455542","lon":"-2.143233","placename":"Stourbridge, Dudley, UK"}},{"transport_id":"17","id":"5626","transport_name":"None Selected","transport_description":null,"transport_unit":"kg km","transport_co2_eq":"0.000000","from_stop_id":"8215","from_stop_lat":"52.4829614","from_stop_lon":"-1.893592","to_stop_id":"8199","to_stop_name":"origin","to_stop_lat":"43.604363","placename":"Birmingham, UK","to_stop_lon":"1.4429513","to_stop":{"id":"8199","name":"origin","lat":"43.604363","placename":"Toulouse, France","lon":"1.4429513"},"from_stop":{"name":"origin","id":"8215","lat":"52.4829614","lon":"-1.893592","placename":"Birmingham, UK"}},{"transport_id":"17","id":"5627","transport_name":"None Selected","transport_description":null,"transport_unit":"kg km","transport_co2_eq":"0.000000","from_stop_id":"8216","from_stop_lat":"52.8926864","from_stop_lon":"-1.1495467","to_stop_id":"8199","to_stop_name":"origin","to_stop_lat":"43.604363","placename":"Ruddington, Nottinghamshire, UK","to_stop_lon":"1.4429513","to_stop":{"id":"8199","name":"origin","lat":"43.604363","placename":"Toulouse, France","lon":"1.4429513"},"from_stop":{"name":"origin","id":"8216","lat":"52.8926864","lon":"-1.1495467","placename":"Ruddington, Nottinghamshire, UK"}},{"transport_id":"17","id":"5628","transport_name":"None Selected","transport_description":null,"transport_unit":"kg km","transport_co2_eq":"0.000000","from_stop_id":"8217","from_stop_lat":"53.234863","from_stop_lon":"-0.538436","to_stop_id":"8199","to_stop_name":"origin","to_stop_lat":"43.604363","placename":"Lincoln, UK","to_stop_lon":"1.4429513","to_stop":{"id":"8199","name":"origin","lat":"43.604363","placename":"Toulouse, France","lon":"1.4429513"},"from_stop":{"name":"origin","id":"8217","lat":"53.234863","lon":"-0.538436","placename":"Lincoln, UK"}},{"transport_id":"17","id":"5629","transport_name":"None Selected","transport_description":null,"transport_unit":"kg km","transport_co2_eq":"0.000000","from_stop_id":"8218","from_stop_lat":"52.3065851","from_stop_lon":"-1.9440406","to_stop_id":"8199","to_stop_name":"origin","to_stop_lat":"43.604363","placename":"Redditch, Worcestershire, UK","to_stop_lon":"1.4429513","to_stop":{"id":"8199","name":"origin","lat":"43.604363","placename":"Toulouse, France","lon":"1.4429513"},"from_stop":{"name":"origin","id":"8218","lat":"52.3065851","lon":"-1.9440406","placename":"Redditch, Worcestershire, UK"}},{"transport_id":"17","id":"5630","transport_name":"None Selected","transport_description":null,"transport_unit":"kg km","transport_co2_eq":"0.000000","from_stop_id":"8219","from_stop_lat":"52.4058375","from_stop_lon":"-1.512661","to_stop_id":"8199","to_stop_name":"origin","to_stop_lat":"43.604363","placename":"Coventry, UK","to_stop_lon":"1.4429513","to_stop":{"id":"8199","name":"origin","lat":"43.604363","placename":"Toulouse, France","lon":"1.4429513"},"from_stop":{"name":"origin","id":"8219","lat":"52.4058375","lon":"-1.512661","placename":"Coventry, UK"}},{"transport_id":"17","id":"5631","transport_name":"None Selected","transport_description":null,"transport_unit":"kg km","transport_co2_eq":"0.000000","from_stop_id":"8220","from_stop_lat":"52.6835558","from_stop_lon":"-1.8223586","to_stop_id":"8199","to_stop_name":"origin","to_stop_lat":"43.604363","placename":"Lichfield, Staffordshire, UK","to_stop_lon":"1.4429513","to_stop":{"id":"8199","name":"origin","lat":"43.604363","placename":"Toulouse, France","lon":"1.4429513"},"from_stop":{"name":"origin","id":"8220","lat":"52.6835558","lon":"-1.8223586","placename":"Lichfield, Staffordshire, UK"}},{"transport_id":"17","id":"5632","transport_name":"None Selected","transport_description":null,"transport_unit":"kg km","transport_co2_eq":"0.000000","from_stop_id":"8221","from_stop_lat":"53.5534074","from_stop_lon":"9.9921962","to_stop_id":"8199","to_stop_name":"origin","to_stop_lat":"43.604363","placename":"Hamburg, Germany","to_stop_lon":"1.4429513","to_stop":{"id":"8199","name":"origin","lat":"43.604363","placename":"Toulouse, France","lon":"1.4429513"},"from_stop":{"name":"origin","id":"8221","lat":"53.5534074","lon":"9.9921962","placename":"Hamburg, Germany"}},{"transport_id":"9","id":"5633","transport_name":"container ship","transport_description":"moving boxcar size containers","transport_unit":"kg km","transport_co2_eq":"0.047800","from_stop_id":"8222","from_stop_lat":"52.0190289","from_stop_lon":"-0.7704274","to_stop_id":"8199","to_stop_name":"origin","to_stop_lat":"43.604363","placename":"England, United Kingdom","to_stop_lon":"1.4429513","to_stop":{"id":"8199","name":"origin","lat":"43.604363","placename":"Toulouse, France","lon":"1.4429513"},"from_stop":{"name":"origin","id":"8222","lat":"52.0190289","lon":"-0.7704274","placename":"England, United Kingdom"}},{"transport_id":"12","id":"5634","transport_name":"train, long-distance","transport_description":"> 640 km, diesel, kg km from person-km","transport_unit":"kg km","transport_co2_eq":"0.043500","from_stop_id":"8223","from_stop_lat":"40.463667","from_stop_lon":"-3.74922","to_stop_id":"8199","to_stop_name":"origin","to_stop_lat":"43.604363","placename":"Spain","to_stop_lon":"1.4429513","to_stop":{"id":"8199","name":"origin","lat":"43.604363","placename":"Toulouse, France","lon":"1.4429513"},"from_stop":{"name":"origin","id":"8223","lat":"40.463667","lon":"-3.74922","placename":"Spain"}},{"transport_id":"12","id":"5635","transport_name":"train, long-distance","transport_description":"> 640 km, diesel, kg km from person-km","transport_unit":"kg km","transport_co2_eq":"0.043500","from_stop_id":"8224","from_stop_lat":"46.227638","from_stop_lon":"2.213749","to_stop_id":"8199","to_stop_name":"origin","to_stop_lat":"43.604363","placename":"France","to_stop_lon":"1.4429513","to_stop":{"id":"8199","name":"origin","lat":"43.604363","placename":"Toulouse, France","lon":"1.4429513"},"from_stop":{"name":"origin","id":"8224","lat":"46.227638","lon":"2.213749","placename":"France"}},{"transport_id":"17","id":"5636","transport_name":"None Selected","transport_description":null,"transport_unit":"kg km","transport_co2_eq":"0.000000","from_stop_id":"8225","from_stop_lat":"51.165691","from_stop_lon":"10.451526","to_stop_id":"8199","to_stop_name":"origin","to_stop_lat":"43.604363","placename":"Germany","to_stop_lon":"1.4429513","to_stop":{"id":"8199","name":"origin","lat":"43.604363","placename":"Toulouse, France","lon":"1.4429513"},"from_stop":{"name":"origin","id":"8225","lat":"51.165691","lon":"10.451526","placename":"Germany"}},{"transport_id":"12","id":"5637","transport_name":"train, long-distance","transport_description":"> 640 km, diesel, kg km from person-km","transport_unit":"kg km","transport_co2_eq":"0.043500","from_stop_id":"8226","from_stop_lat":"51.165691","from_stop_lon":"10.451526","to_stop_id":"8199","to_stop_name":"origin","to_stop_lat":"43.604363","placename":"Germany","to_stop_lon":"1.4429513","to_stop":{"id":"8199","name":"origin","lat":"43.604363","placename":"Toulouse, France","lon":"1.4429513"},"from_stop":{"name":"origin","id":"8226","lat":"51.165691","lon":"10.451526","placename":"Germany"}}],"outgoing":[]}}},"parts":[{"oid":"3350","imid":"2526","linkid":"","weight":"0","rawemissions":"0","emissions":"0","shipping":"1075.54","processemissions":null,"endoflifeemissions":null,"disposaltype":null,"disposalenergy":null,"disposalimpact":null,"disposalemissions":null,"description":"Bulwell Precision Engineers\n\nhttp:\/\/www.bulwell.com\/","name":"Fuel and Hydraulic Pipes, Machined parts","id":"2526","stops":{"origin":{"related_to":"2526","part_or_object":"p","notes":null,"placename":"Pinxton, Derbyshire, UK","id":8200,"name":"origin","lat":"53.0909011","lon":"-1.3283896","hops":{"incoming":[],"outgoing":[{"transport_id":"17","id":"5611","transport_name":"None Selected","transport_description":null,"transport_unit":"kg km","transport_co2_eq":"0.000000","from_stop_id":"8200","from_stop_lat":"53.0909011","from_stop_lon":"-1.3283896","from_stop_placename":"Pinxton, Derbyshire, UK","to_stop_id":"8199","to_stop_name":"origin","to_stop_lat":"43.604363","to_stop_lon":"1.4429513","to_stop_placename":"Toulouse, France","to_stop":{"id":"8199","name":"origin","lat":"43.604363","lon":"1.4429513","placename":"Toulouse, France"},"from_stop":{"name":"origin","id":"8200","lat":"53.0909011","lon":"-1.3283896","placename":"Pinxton, Derbyshire, UK"}}]}}},"processes":[],"eols":[]},{"oid":"3350","imid":"2527","linkid":"","weight":"0","rawemissions":"0","emissions":"0","shipping":"1034.14","processemissions":null,"endoflifeemissions":null,"disposaltype":null,"disposalenergy":null,"disposalimpact":null,"disposalemissions":null,"description":"Goodrich Actuation Systems\n\nhttp:\/\/www.goodrich.com\/portal\/site\/grcom\/home","name":"Slat Wing Tip Brake & Slat Power Control","id":"2527","stops":{"origin":{"related_to":"2527","part_or_object":"p","notes":null,"placename":"Wolverhampton, UK","id":8201,"name":"origin","lat":"52.5857278","lon":"-2.1292507","hops":{"incoming":[],"outgoing":[{"transport_id":"17","id":"5612","transport_name":"None Selected","transport_description":null,"transport_unit":"kg km","transport_co2_eq":"0.000000","from_stop_id":"8201","from_stop_lat":"52.5857278","from_stop_lon":"-2.1292507","from_stop_placename":"Wolverhampton, UK","to_stop_id":"8199","to_stop_name":"origin","to_stop_lat":"43.604363","to_stop_lon":"1.4429513","to_stop_placename":"Toulouse, France","to_stop":{"id":"8199","name":"origin","lat":"43.604363","lon":"1.4429513","placename":"Toulouse, France"},"from_stop":{"name":"origin","id":"8201","lat":"52.5857278","lon":"-2.1292507","placename":"Wolverhampton, UK"}}]}}},"processes":[],"eols":[]},{"oid":"3350","imid":"2528","linkid":"","weight":"0","rawemissions":"0","emissions":"0","shipping":"1034.14","processemissions":null,"endoflifeemissions":null,"disposaltype":null,"disposalenergy":null,"disposalimpact":null,"disposalemissions":null,"description":"HS Marston Aerospace\n\nhttp:\/\/www.hsmarston.co.uk\/","name":"Evaporators, Air Cooled Air Coolers, and Fules Hoses","id":"2528","stops":{"origin":{"related_to":"2528","part_or_object":"p","notes":null,"placename":"Wolverhampton, UK","id":8202,"name":"origin","lat":"52.5857278","lon":"-2.1292507","hops":{"incoming":[],"outgoing":[{"transport_id":"17","id":"5613","transport_name":"None Selected","transport_description":null,"transport_unit":"kg km","transport_co2_eq":"0.000000","from_stop_id":"8202","from_stop_lat":"52.5857278","from_stop_lon":"-2.1292507","from_stop_placename":"Wolverhampton, UK","to_stop_id":"8199","to_stop_name":"origin","to_stop_lat":"43.604363","to_stop_lon":"1.4429513","to_stop_placename":"Toulouse, France","to_stop":{"id":"8199","name":"origin","lat":"43.604363","lon":"1.4429513","placename":"Toulouse, France"},"from_stop":{"name":"origin","id":"8202","lat":"52.5857278","lon":"-2.1292507","placename":"Wolverhampton, UK"}}]}}},"processes":[],"eols":[]},{"oid":"3350","imid":"2529","linkid":"","weight":"0","rawemissions":"0","emissions":"0","shipping":"987.21","processemissions":null,"endoflifeemissions":null,"disposaltype":null,"disposalenergy":null,"disposalimpact":null,"disposalemissions":null,"description":"Strand Engineering\n\nhttp:\/\/www.strandeng.com\/web\/","name":"Engineering for Wing Parts","id":"2529","stops":{"origin":{"related_to":"2529","part_or_object":"p","notes":null,"placename":"Malvern, Hereford and Worcester, UK","id":8203,"name":"origin","lat":"52.107919","lon":"-2.325062","hops":{"incoming":[],"outgoing":[{"transport_id":"17","id":"5614","transport_name":"None Selected","transport_description":null,"transport_unit":"kg km","transport_co2_eq":"0.000000","from_stop_id":"8203","from_stop_lat":"52.107919","from_stop_lon":"-2.325062","from_stop_placename":"Malvern, Hereford and Worcester, UK","to_stop_id":"8199","to_stop_name":"origin","to_stop_lat":"43.604363","to_stop_lon":"1.4429513","to_stop_placename":"Toulouse, France","to_stop":{"id":"8199","name":"origin","lat":"43.604363","lon":"1.4429513","placename":"Toulouse, France"},"from_stop":{"name":"origin","id":"8203","lat":"52.107919","lon":"-2.325062","placename":"Malvern, Hereford and Worcester, UK"}}]}}},"processes":[],"eols":[]},{"oid":"3350","imid":"2530","linkid":"","weight":"0","rawemissions":"0","emissions":"0","shipping":"1082.19","processemissions":null,"endoflifeemissions":null,"disposaltype":null,"disposalenergy":null,"disposalimpact":null,"disposalemissions":null,"description":"Tekdata Interconnection Limited\n\nhttp:\/\/tekdata-interconnect.com\/","name":"Cable Interconnections","id":"2530","stops":{"origin":{"related_to":"2530","part_or_object":"p","notes":null,"placename":"Stoke-on-Trent, UK","id":8204,"name":"origin","lat":"53.0265029","lon":"-2.176636","hops":{"incoming":[],"outgoing":[{"transport_id":"17","id":"5615","transport_name":"None Selected","transport_description":null,"transport_unit":"kg km","transport_co2_eq":"0.000000","from_stop_id":"8204","from_stop_lat":"53.0265029","from_stop_lon":"-2.176636","from_stop_placename":"Stoke-on-Trent, UK","to_stop_id":"8199","to_stop_name":"origin","to_stop_lat":"43.604363","to_stop_lon":"1.4429513","to_stop_placename":"Toulouse, France","to_stop":{"id":"8199","name":"origin","lat":"43.604363","lon":"1.4429513","placename":"Toulouse, France"},"from_stop":{"name":"origin","id":"8204","lat":"53.0265029","lon":"-2.176636","placename":"Stoke-on-Trent, UK"}}]}}},"processes":[],"eols":[]},{"oid":"3350","imid":"2402","linkid":"","weight":"1000","rawemissions":"0","emissions":"0","shipping":"1018.79","processemissions":null,"endoflifeemissions":null,"disposaltype":null,"disposalenergy":null,"disposalimpact":null,"disposalemissions":null,"description":"Aero Engine Controls\n\nhttp:\/\/www.aeroenginecontrols.com\/","name":"Slat Motor Drive Electronics","id":"2402","stops":{"origin":{"related_to":"2402","part_or_object":"p","notes":null,"placename":"Birmingham, West Midlands, UK","id":8205,"name":"origin","lat":"52.4829614","lon":"-1.893592","hops":{"incoming":[],"outgoing":[{"transport_id":"9","id":"5616","transport_name":"container ship","transport_description":"moving boxcar size containers","transport_unit":"kg km","transport_co2_eq":"0.047800","from_stop_id":"8205","from_stop_lat":"52.4829614","from_stop_lon":"-1.893592","from_stop_placename":"Birmingham, West Midlands, UK","to_stop_id":"8199","to_stop_name":"origin","to_stop_lat":"43.604363","to_stop_lon":"1.4429513","to_stop_placename":"Toulouse, France","to_stop":{"id":"8199","name":"origin","lat":"43.604363","lon":"1.4429513","placename":"Toulouse, France"},"from_stop":{"name":"origin","id":"8205","lat":"52.4829614","lon":"-1.893592","placename":"Birmingham, West Midlands, UK"}}]}}},"processes":[],"eols":[]},{"oid":"3350","imid":"2403","linkid":"","weight":"1000","rawemissions":"0","emissions":"0","shipping":"966.35","processemissions":null,"endoflifeemissions":null,"disposaltype":null,"disposalenergy":null,"disposalimpact":null,"disposalemissions":null,"description":"Flowmaster\n\nhttp:\/\/www.flowmaster.com\/","name":"Fluid systems analysis tool","id":"2403","stops":{"origin":{"related_to":"2403","part_or_object":"p","notes":null,"placename":"Towcester, Northamptonshire, UK","id":8206,"name":"origin","lat":"52.1319884","lon":"-0.9884152","hops":{"incoming":[],"outgoing":[{"transport_id":"9","id":"5617","transport_name":"container ship","transport_description":"moving boxcar size containers","transport_unit":"kg km","transport_co2_eq":"0.047800","from_stop_id":"8206","from_stop_lat":"52.1319884","from_stop_lon":"-0.9884152","from_stop_placename":"Towcester, Northamptonshire, UK","to_stop_id":"8199","to_stop_name":"origin","to_stop_lat":"43.604363","to_stop_lon":"1.4429513","to_stop_placename":"Toulouse, France","to_stop":{"id":"8199","name":"origin","lat":"43.604363","lon":"1.4429513","placename":"Toulouse, France"},"from_stop":{"name":"origin","id":"8206","lat":"52.1319884","lon":"-0.9884152","placename":"Towcester, Northamptonshire, UK"}}]}}},"processes":[],"eols":[]},{"oid":"3350","imid":"2404","linkid":"","weight":"1000","rawemissions":"0","emissions":"0","shipping":"996.54","processemissions":null,"endoflifeemissions":null,"disposaltype":null,"disposalenergy":null,"disposalimpact":null,"disposalemissions":null,"description":"Technoset\n\nhttp:\/\/www.technoset.com\/","name":"Precision Machining","id":"2404","stops":{"origin":{"related_to":"2404","part_or_object":"p","notes":null,"placename":"Rugby, Warwickshire, UK","id":8207,"name":"origin","lat":"52.3732029","lon":"-1.2617395","hops":{"incoming":[],"outgoing":[{"transport_id":"9","id":"5618","transport_name":"container ship","transport_description":"moving boxcar size containers","transport_unit":"kg km","transport_co2_eq":"0.047800","from_stop_id":"8207","from_stop_lat":"52.3732029","from_stop_lon":"-1.2617395","from_stop_placename":"Rugby, Warwickshire, UK","to_stop_id":"8199","to_stop_name":"origin","to_stop_lat":"43.604363","to_stop_lon":"1.4429513","to_stop_placename":"Toulouse, France","to_stop":{"id":"8199","name":"origin","lat":"43.604363","lon":"1.4429513","placename":"Toulouse, France"},"from_stop":{"name":"origin","id":"8207","lat":"52.3732029","lon":"-1.2617395","placename":"Rugby, Warwickshire, UK"}}]}}},"processes":[],"eols":[]},{"oid":"3350","imid":"2405","linkid":"","weight":"1000","rawemissions":"0","emissions":"0","shipping":"1048.86","processemissions":null,"endoflifeemissions":null,"disposaltype":null,"disposalenergy":null,"disposalimpact":null,"disposalemissions":null,"description":"Industrial Measurements Ltd\n\nhttp:\/\/www.indmeas.co.uk\/","name":"Torque Measuring Equipment","id":"2405","stops":{"origin":{"related_to":"2405","part_or_object":"p","notes":null,"placename":"Castle Donington, Leicestershire, UK","id":8208,"name":"origin","lat":"52.8444299","lon":"-1.3376897","hops":{"incoming":[],"outgoing":[{"transport_id":"9","id":"5619","transport_name":"container ship","transport_description":"moving boxcar size containers","transport_unit":"kg km","transport_co2_eq":"0.047800","from_stop_id":"8208","from_stop_lat":"52.8444299","from_stop_lon":"-1.3376897","from_stop_placename":"Castle Donington, Leicestershire, UK","to_stop_id":"8199","to_stop_name":"origin","to_stop_lat":"43.604363","to_stop_lon":"1.4429513","to_stop_placename":"Toulouse, France","to_stop":{"id":"8199","name":"origin","lat":"43.604363","lon":"1.4429513","placename":"Toulouse, France"},"from_stop":{"name":"origin","id":"8208","lat":"52.8444299","lon":"-1.3376897","placename":"Castle Donington, Leicestershire, UK"}}]}}},"processes":[],"eols":[]},{"oid":"3350","imid":"2406","linkid":"","weight":"5000","rawemissions":"0","emissions":"0","shipping":"1055.92","processemissions":null,"endoflifeemissions":null,"disposaltype":null,"disposalenergy":null,"disposalimpact":null,"disposalemissions":null,"description":"Jet Blades Engineering\n\nhttp:\/\/www.jetblades.com\/","name":"Titanium Fuselage Parts and Engine Parts","id":"2406","stops":{"origin":{"related_to":"2406","part_or_object":"p","notes":null,"placename":"Beeston, Nottinghamshire, UK","id":8209,"name":"origin","lat":"52.9253838","lon":"-1.2129732","hops":{"incoming":[],"outgoing":[{"transport_id":"9","id":"5620","transport_name":"container ship","transport_description":"moving boxcar size containers","transport_unit":"kg km","transport_co2_eq":"0.047800","from_stop_id":"8209","from_stop_lat":"52.9253838","from_stop_lon":"-1.2129732","from_stop_placename":"Beeston, Nottinghamshire, UK","to_stop_id":"8199","to_stop_name":"origin","to_stop_lat":"43.604363","to_stop_lon":"1.4429513","to_stop_placename":"Toulouse, France","to_stop":{"id":"8199","name":"origin","lat":"43.604363","lon":"1.4429513","placename":"Toulouse, France"},"from_stop":{"name":"origin","id":"8209","lat":"52.9253838","lon":"-1.2129732","placename":"Beeston, Nottinghamshire, UK"}}]}}},"processes":[],"eols":[]},{"oid":"3350","imid":"2407","linkid":"","weight":"1000","rawemissions":"0","emissions":"0","shipping":"1000.8","processemissions":null,"endoflifeemissions":null,"disposaltype":null,"disposalenergy":null,"disposalimpact":null,"disposalemissions":null,"description":"Mettis Aerospace\n\nhttp:\/\/www.aerospace-forgings.com\/","name":"High Strength Titanium Alloys for Piston and Flap Drive Assembly","id":"2407","stops":{"origin":{"related_to":"2407","part_or_object":"p","notes":null,"placename":"Redditch, Worcestershire, UK","id":8210,"name":"origin","lat":"52.3065851","lon":"-1.9440406","hops":{"incoming":[],"outgoing":[{"transport_id":"9","id":"5621","transport_name":"container ship","transport_description":"moving boxcar size containers","transport_unit":"kg km","transport_co2_eq":"0.047800","from_stop_id":"8210","from_stop_lat":"52.3065851","from_stop_lon":"-1.9440406","from_stop_placename":"Redditch, Worcestershire, UK","to_stop_id":"8199","to_stop_name":"origin","to_stop_lat":"43.604363","to_stop_lon":"1.4429513","to_stop_placename":"Toulouse, France","to_stop":{"id":"8199","name":"origin","lat":"43.604363","lon":"1.4429513","placename":"Toulouse, France"},"from_stop":{"name":"origin","id":"8210","lat":"52.3065851","lon":"-1.9440406","placename":"Redditch, Worcestershire, UK"}}]}}},"processes":[],"eols":[]},{"oid":"3350","imid":"2408","linkid":"","weight":"5000","rawemissions":"0","emissions":"0","shipping":"1024.82","processemissions":null,"endoflifeemissions":null,"disposaltype":null,"disposalenergy":null,"disposalimpact":null,"disposalemissions":null,"description":"TM Engineers\n\nhttp:\/\/www.tmengineers.co.uk\/","name":"Ground Support Vehicles","id":"2408","stops":{"origin":{"related_to":"2408","part_or_object":"p","notes":null,"placename":"Kingswinford, Dudley DY6 8, UK","id":8211,"name":"origin","lat":"52.4937156","lon":"-2.1559113","hops":{"incoming":[],"outgoing":[{"transport_id":"9","id":"5622","transport_name":"container ship","transport_description":"moving boxcar size containers","transport_unit":"kg km","transport_co2_eq":"0.047800","from_stop_id":"8211","from_stop_lat":"52.4937156","from_stop_lon":"-2.1559113","from_stop_placename":"Kingswinford, Dudley DY6 8, UK","to_stop_id":"8199","to_stop_name":"origin","to_stop_lat":"43.604363","to_stop_lon":"1.4429513","to_stop_placename":"Toulouse, France","to_stop":{"id":"8199","name":"origin","lat":"43.604363","lon":"1.4429513","placename":"Toulouse, France"},"from_stop":{"name":"origin","id":"8211","lat":"52.4937156","lon":"-2.1559113","placename":"Kingswinford, Dudley DY6 8, UK"}}]}}},"processes":[],"eols":[]},{"oid":"3350","imid":"2520","linkid":"","weight":"0","rawemissions":"0","emissions":"0","shipping":"1018.79","processemissions":null,"endoflifeemissions":null,"disposaltype":null,"disposalenergy":null,"disposalimpact":null,"disposalemissions":null,"description":"Bromford Industries\n\nhttp:\/\/www.bromfordindustries.co.uk\/index.html","name":"Wing and flap motor housing ","id":"2520","stops":{"origin":{"related_to":"2520","part_or_object":"p","notes":null,"placename":"Birmingham, UK","id":8212,"name":"origin","lat":"52.4829614","lon":"-1.893592","hops":{"incoming":[],"outgoing":[{"transport_id":"17","id":"5623","transport_name":"None Selected","transport_description":null,"transport_unit":"kg km","transport_co2_eq":"0.000000","from_stop_id":"8212","from_stop_lat":"52.4829614","from_stop_lon":"-1.893592","from_stop_placename":"Birmingham, UK","to_stop_id":"8199","to_stop_name":"origin","to_stop_lat":"43.604363","to_stop_lon":"1.4429513","to_stop_placename":"Toulouse, France","to_stop":{"id":"8199","name":"origin","lat":"43.604363","lon":"1.4429513","placename":"Toulouse, France"},"from_stop":{"name":"origin","id":"8212","lat":"52.4829614","lon":"-1.893592","placename":"Birmingham, UK"}}]}}},"processes":[],"eols":[]},{"oid":"3350","imid":"2522","linkid":"","weight":"0","rawemissions":"0","emissions":"0","shipping":"1034.14","processemissions":null,"endoflifeemissions":null,"disposaltype":null,"disposalenergy":null,"disposalimpact":null,"disposalemissions":null,"description":"GE Aviation\n\nwww.geaviationsystems.com","name":"highlift Actuation System for wings","id":"2522","stops":{"origin":{"related_to":"2522","part_or_object":"p","notes":null,"placename":"Wolverhampton, UK","id":8213,"name":"origin","lat":"52.5857278","lon":"-2.1292507","hops":{"incoming":[],"outgoing":[{"transport_id":"17","id":"5624","transport_name":"None Selected","transport_description":null,"transport_unit":"kg km","transport_co2_eq":"0.000000","from_stop_id":"8213","from_stop_lat":"52.5857278","from_stop_lon":"-2.1292507","from_stop_placename":"Wolverhampton, UK","to_stop_id":"8199","to_stop_name":"origin","to_stop_lat":"43.604363","to_stop_lon":"1.4429513","to_stop_placename":"Toulouse, France","to_stop":{"id":"8199","name":"origin","lat":"43.604363","lon":"1.4429513","placename":"Toulouse, France"},"from_stop":{"name":"origin","id":"8213","lat":"52.5857278","lon":"-2.1292507","placename":"Wolverhampton, UK"}}]}}},"processes":[],"eols":[]},{"oid":"3350","imid":"2523","linkid":"","weight":"0","rawemissions":"0","emissions":"0","shipping":"1020.5","processemissions":null,"endoflifeemissions":null,"disposaltype":null,"disposalenergy":null,"disposalimpact":null,"disposalemissions":null,"description":"Jonathan Lee Recruitment\n\nhttp:\/\/www.jonlee.co.uk\/","name":"Skilled Staff","id":"2523","stops":{"origin":{"related_to":"2523","part_or_object":"p","notes":null,"placename":"Stourbridge, Dudley, UK","id":8214,"name":"origin","lat":"52.455542","lon":"-2.143233","hops":{"incoming":[],"outgoing":[{"transport_id":"17","id":"5625","transport_name":"None Selected","transport_description":null,"transport_unit":"kg km","transport_co2_eq":"0.000000","from_stop_id":"8214","from_stop_lat":"52.455542","from_stop_lon":"-2.143233","from_stop_placename":"Stourbridge, Dudley, UK","to_stop_id":"8199","to_stop_name":"origin","to_stop_lat":"43.604363","to_stop_lon":"1.4429513","to_stop_placename":"Toulouse, France","to_stop":{"id":"8199","name":"origin","lat":"43.604363","lon":"1.4429513","placename":"Toulouse, France"},"from_stop":{"name":"origin","id":"8214","lat":"52.455542","lon":"-2.143233","placename":"Stourbridge, Dudley, UK"}}]}}},"processes":[],"eols":[]},{"oid":"3350","imid":"2524","linkid":"","weight":"0","rawemissions":"0","emissions":"0","shipping":"1018.79","processemissions":null,"endoflifeemissions":null,"disposaltype":null,"disposalenergy":null,"disposalimpact":null,"disposalemissions":null,"description":"Timet UK\n\nhttp:\/\/www.timet.com\/index_new.htm","name":"Bearings","id":"2524","stops":{"origin":{"related_to":"2524","part_or_object":"p","notes":null,"placename":"Birmingham, UK","id":8215,"name":"origin","lat":"52.4829614","lon":"-1.893592","hops":{"incoming":[],"outgoing":[{"transport_id":"17","id":"5626","transport_name":"None Selected","transport_description":null,"transport_unit":"kg km","transport_co2_eq":"0.000000","from_stop_id":"8215","from_stop_lat":"52.4829614","from_stop_lon":"-1.893592","from_stop_placename":"Birmingham, UK","to_stop_id":"8199","to_stop_name":"origin","to_stop_lat":"43.604363","to_stop_lon":"1.4429513","to_stop_placename":"Toulouse, France","to_stop":{"id":"8199","name":"origin","lat":"43.604363","lon":"1.4429513","placename":"Toulouse, France"},"from_stop":{"name":"origin","id":"8215","lat":"52.4829614","lon":"-1.893592","placename":"Birmingham, UK"}}]}}},"processes":[],"eols":[]},{"oid":"3350","imid":"2525","linkid":"","weight":"0","rawemissions":"0","emissions":"0","shipping":"1051.49","processemissions":null,"endoflifeemissions":null,"disposaltype":null,"disposalenergy":null,"disposalimpact":null,"disposalemissions":null,"description":"Greene, Tweed & co.\n\nhttp:\/\/www.gtweed.com\/85256d3c0038d8da\/vwContentByKey\/N25NLPR4971DMPJEN","name":"Sealing Systems","id":"2525","stops":{"origin":{"related_to":"2525","part_or_object":"p","notes":null,"placename":"Ruddington, Nottinghamshire, UK","id":8216,"name":"origin","lat":"52.8926864","lon":"-1.1495467","hops":{"incoming":[],"outgoing":[{"transport_id":"17","id":"5627","transport_name":"None Selected","transport_description":null,"transport_unit":"kg km","transport_co2_eq":"0.000000","from_stop_id":"8216","from_stop_lat":"52.8926864","from_stop_lon":"-1.1495467","from_stop_placename":"Ruddington, Nottinghamshire, UK","to_stop_id":"8199","to_stop_name":"origin","to_stop_lat":"43.604363","to_stop_lon":"1.4429513","to_stop_placename":"Toulouse, France","to_stop":{"id":"8199","name":"origin","lat":"43.604363","lon":"1.4429513","placename":"Toulouse, France"},"from_stop":{"name":"origin","id":"8216","lat":"52.8926864","lon":"-1.1495467","placename":"Ruddington, Nottinghamshire, UK"}}]}}},"processes":[],"eols":[]},{"oid":"3350","imid":"2531","linkid":"","weight":"0","rawemissions":"0","emissions":"0","shipping":"1081.9","processemissions":null,"endoflifeemissions":null,"disposaltype":null,"disposalenergy":null,"disposalimpact":null,"disposalemissions":null,"description":"NMB-Minebea Group\n\nhttp:\/\/www.nmbusa.com\/minebea.html","name":"Bearings","id":"2531","stops":{"origin":{"related_to":"2531","part_or_object":"p","notes":null,"placename":"Lincoln, UK","id":8217,"name":"origin","lat":"53.234863","lon":"-0.538436","hops":{"incoming":[],"outgoing":[{"transport_id":"17","id":"5628","transport_name":"None Selected","transport_description":null,"transport_unit":"kg km","transport_co2_eq":"0.000000","from_stop_id":"8217","from_stop_lat":"53.234863","from_stop_lon":"-0.538436","from_stop_placename":"Lincoln, UK","to_stop_id":"8199","to_stop_name":"origin","to_stop_lat":"43.604363","to_stop_lon":"1.4429513","to_stop_placename":"Toulouse, France","to_stop":{"id":"8199","name":"origin","lat":"43.604363","lon":"1.4429513","placename":"Toulouse, France"},"from_stop":{"name":"origin","id":"8217","lat":"53.234863","lon":"-0.538436","placename":"Lincoln, UK"}}]}}},"processes":[],"eols":[]},{"oid":"3350","imid":"2532","linkid":"","weight":"0","rawemissions":"0","emissions":"0","shipping":"1000.8","processemissions":null,"endoflifeemissions":null,"disposaltype":null,"disposalenergy":null,"disposalimpact":null,"disposalemissions":null,"description":"Eaton Aerospace\n\nhttp:\/\/www.eaton.com\/EatonCom\/Markets\/Aerospace\/index.htm","name":"Flexible Hose Assemblea, Rigid Pipes","id":"2532","stops":{"origin":{"related_to":"2532","part_or_object":"p","notes":null,"placename":"Redditch, Worcestershire, UK","id":8218,"name":"origin","lat":"52.3065851","lon":"-1.9440406","hops":{"incoming":[],"outgoing":[{"transport_id":"17","id":"5629","transport_name":"None Selected","transport_description":null,"transport_unit":"kg km","transport_co2_eq":"0.000000","from_stop_id":"8218","from_stop_lat":"52.3065851","from_stop_lon":"-1.9440406","from_stop_placename":"Redditch, Worcestershire, UK","to_stop_id":"8199","to_stop_name":"origin","to_stop_lat":"43.604363","to_stop_lon":"1.4429513","to_stop_placename":"Toulouse, France","to_stop":{"id":"8199","name":"origin","lat":"43.604363","lon":"1.4429513","placename":"Toulouse, France"},"from_stop":{"name":"origin","id":"8218","lat":"52.3065851","lon":"-1.9440406","placename":"Redditch, Worcestershire, UK"}}]}}},"processes":[],"eols":[]},{"oid":"3350","imid":"2533","linkid":"","weight":"0","rawemissions":"0","emissions":"0","shipping":"1003.97","processemissions":null,"endoflifeemissions":null,"disposaltype":null,"disposalenergy":null,"disposalimpact":null,"disposalemissions":null,"description":"Meggitt Aircraft Braking Systems\n\nhttp:\/\/www.meggitt-mabs.com\/","name":"Nose Wheel and Major Brake Components","id":"2533","stops":{"origin":{"related_to":"2533","part_or_object":"p","notes":null,"placename":"Coventry, UK","id":8219,"name":"origin","lat":"52.4058375","lon":"-1.512661","hops":{"incoming":[],"outgoing":[{"transport_id":"17","id":"5630","transport_name":"None Selected","transport_description":null,"transport_unit":"kg km","transport_co2_eq":"0.000000","from_stop_id":"8219","from_stop_lat":"52.4058375","from_stop_lon":"-1.512661","from_stop_placename":"Coventry, UK","to_stop_id":"8199","to_stop_name":"origin","to_stop_lat":"43.604363","to_stop_lon":"1.4429513","to_stop_placename":"Toulouse, France","to_stop":{"id":"8199","name":"origin","lat":"43.604363","lon":"1.4429513","placename":"Toulouse, France"},"from_stop":{"name":"origin","id":"8219","lat":"52.4058375","lon":"-1.512661","placename":"Coventry, UK"}}]}}},"processes":[],"eols":[]},{"oid":"3350","imid":"2534","linkid":"","weight":"0","rawemissions":"0","emissions":"0","shipping":"1039.1","processemissions":null,"endoflifeemissions":null,"disposaltype":null,"disposalenergy":null,"disposalimpact":null,"disposalemissions":null,"description":"Unimerco\n\nhttp:\/\/www.unimerco.com\/","name":"Cutting Tools","id":"2534","stops":{"origin":{"related_to":"2534","part_or_object":"p","notes":null,"placename":"Lichfield, Staffordshire, UK","id":8220,"name":"origin","lat":"52.6835558","lon":"-1.8223586","hops":{"incoming":[],"outgoing":[{"transport_id":"17","id":"5631","transport_name":"None Selected","transport_description":null,"transport_unit":"kg km","transport_co2_eq":"0.000000","from_stop_id":"8220","from_stop_lat":"52.6835558","from_stop_lon":"-1.8223586","from_stop_placename":"Lichfield, Staffordshire, UK","to_stop_id":"8199","to_stop_name":"origin","to_stop_lat":"43.604363","to_stop_lon":"1.4429513","to_stop_placename":"Toulouse, France","to_stop":{"id":"8199","name":"origin","lat":"43.604363","lon":"1.4429513","placename":"Toulouse, France"},"from_stop":{"name":"origin","id":"8220","lat":"52.6835558","lon":"-1.8223586","placename":"Lichfield, Staffordshire, UK"}}]}}},"processes":[],"eols":[]},{"oid":"3350","imid":"2535","linkid":"","weight":"0","rawemissions":"0","emissions":"0","shipping":"1271.92","processemissions":null,"endoflifeemissions":null,"disposaltype":null,"disposalenergy":null,"disposalimpact":null,"disposalemissions":null,"description":"http:\/\/en.wikipedia.org\/wiki\/Airbus_A380","name":"Front Fuselage","id":"2535","stops":{"origin":{"related_to":"2535","part_or_object":"p","notes":null,"placename":"Hamburg, Germany","id":8221,"name":"origin","lat":"53.5534074","lon":"9.9921962","hops":{"incoming":[],"outgoing":[{"transport_id":"17","id":"5632","transport_name":"None Selected","transport_description":null,"transport_unit":"kg km","transport_co2_eq":"0.000000","from_stop_id":"8221","from_stop_lat":"53.5534074","from_stop_lon":"9.9921962","from_stop_placename":"Hamburg, Germany","to_stop_id":"8199","to_stop_name":"origin","to_stop_lat":"43.604363","to_stop_lon":"1.4429513","to_stop_placename":"Toulouse, France","to_stop":{"id":"8199","name":"origin","lat":"43.604363","lon":"1.4429513","placename":"Toulouse, France"},"from_stop":{"name":"origin","id":"8221","lat":"53.5534074","lon":"9.9921962","placename":"Hamburg, Germany"}}]}}},"processes":[],"eols":[]},{"oid":"3350","imid":"2536","linkid":"","weight":"10000","rawemissions":"0","emissions":"0","shipping":"951.1","processemissions":null,"endoflifeemissions":null,"disposaltype":null,"disposalenergy":null,"disposalimpact":null,"disposalemissions":null,"description":"","name":"Wings","id":"2536","stops":{"origin":{"related_to":"2536","part_or_object":"p","notes":null,"placename":"England, United Kingdom","id":8222,"name":"origin","lat":"52.0190289","lon":"-0.7704274","hops":{"incoming":[],"outgoing":[{"transport_id":"9","id":"5633","transport_name":"container ship","transport_description":"moving boxcar size containers","transport_unit":"kg km","transport_co2_eq":"0.047800","from_stop_id":"8222","from_stop_lat":"52.0190289","from_stop_lon":"-0.7704274","from_stop_placename":"England, United Kingdom","to_stop_id":"8199","to_stop_name":"origin","to_stop_lat":"43.604363","to_stop_lon":"1.4429513","to_stop_placename":"Toulouse, France","to_stop":{"id":"8199","name":"origin","lat":"43.604363","lon":"1.4429513","placename":"Toulouse, France"},"from_stop":{"name":"origin","id":"8222","lat":"52.0190289","lon":"-0.7704274","placename":"England, United Kingdom"}}]}}},"processes":[],"eols":[]},{"oid":"3350","imid":"2537","linkid":"","weight":"20000","rawemissions":"0","emissions":"0","shipping":"553.46","processemissions":null,"endoflifeemissions":null,"disposaltype":null,"disposalenergy":null,"disposalimpact":null,"disposalemissions":null,"description":"http:\/\/newsimg.bbc.co.uk\/media\/images\/40127000\/gif\/_40127815_airbus2_inf416.gif","name":"Tail Planes","id":"2537","stops":{"origin":{"related_to":"2537","part_or_object":"p","notes":null,"placename":"Spain","id":8223,"name":"origin","lat":"40.463667","lon":"-3.74922","hops":{"incoming":[],"outgoing":[{"transport_id":"12","id":"5634","transport_name":"train, long-distance","transport_description":"> 640 km, diesel, kg km from person-km","transport_unit":"kg km","transport_co2_eq":"0.043500","from_stop_id":"8223","from_stop_lat":"40.463667","from_stop_lon":"-3.74922","from_stop_placename":"Spain","to_stop_id":"8199","to_stop_name":"origin","to_stop_lat":"43.604363","to_stop_lon":"1.4429513","to_stop_placename":"Toulouse, France","to_stop":{"id":"8199","name":"origin","lat":"43.604363","lon":"1.4429513","placename":"Toulouse, France"},"from_stop":{"name":"origin","id":"8223","lat":"40.463667","lon":"-3.74922","placename":"Spain"}}]}}},"processes":[],"eols":[]},{"oid":"3350","imid":"2538","linkid":"","weight":"20000","rawemissions":"0","emissions":"0","shipping":"298.27","processemissions":null,"endoflifeemissions":null,"disposaltype":null,"disposalenergy":null,"disposalimpact":null,"disposalemissions":null,"description":"http:\/\/newsimg.bbc.co.uk\/media\/images\/40127000\/gif\/_40127815_airbus2_inf416.gif","name":"Center Wingbox","id":"2538","stops":{"origin":{"related_to":"2538","part_or_object":"p","notes":null,"placename":"France","id":8224,"name":"origin","lat":"46.227638","lon":"2.213749","hops":{"incoming":[],"outgoing":[{"transport_id":"12","id":"5635","transport_name":"train, long-distance","transport_description":"> 640 km, diesel, kg km from person-km","transport_unit":"kg km","transport_co2_eq":"0.043500","from_stop_id":"8224","from_stop_lat":"46.227638","from_stop_lon":"2.213749","from_stop_placename":"France","to_stop_id":"8199","to_stop_name":"origin","to_stop_lat":"43.604363","to_stop_lon":"1.4429513","to_stop_placename":"Toulouse, France","to_stop":{"id":"8199","name":"origin","lat":"43.604363","lon":"1.4429513","placename":"Toulouse, France"},"from_stop":{"name":"origin","id":"8224","lat":"46.227638","lon":"2.213749","placename":"France"}}]}}},"processes":[],"eols":[]},{"oid":"3350","imid":"2539","linkid":"","weight":"10000","rawemissions":"0","emissions":"0","shipping":"1079.8","processemissions":null,"endoflifeemissions":null,"disposaltype":null,"disposalenergy":null,"disposalimpact":null,"disposalemissions":null,"description":"http:\/\/newsimg.bbc.co.uk\/media\/images\/40127000\/gif\/_40127815_airbus2_inf416.gif","name":"Vertical Tail Plane","id":"2539","stops":{"origin":{"related_to":"2539","part_or_object":"p","notes":null,"placename":"Germany","id":8225,"name":"origin","lat":"51.165691","lon":"10.451526","hops":{"incoming":[],"outgoing":[{"transport_id":"17","id":"5636","transport_name":"None Selected","transport_description":null,"transport_unit":"kg km","transport_co2_eq":"0.000000","from_stop_id":"8225","from_stop_lat":"51.165691","from_stop_lon":"10.451526","from_stop_placename":"Germany","to_stop_id":"8199","to_stop_name":"origin","to_stop_lat":"43.604363","to_stop_lon":"1.4429513","to_stop_placename":"Toulouse, France","to_stop":{"id":"8199","name":"origin","lat":"43.604363","lon":"1.4429513","placename":"Toulouse, France"},"from_stop":{"name":"origin","id":"8225","lat":"51.165691","lon":"10.451526","placename":"Germany"}}]}}},"processes":[],"eols":[]},{"oid":"3350","imid":"2540","linkid":"","weight":"20000","rawemissions":"0","emissions":"0","shipping":"1079.8","processemissions":null,"endoflifeemissions":null,"disposaltype":null,"disposalenergy":null,"disposalimpact":null,"disposalemissions":null,"description":"http:\/\/newsimg.bbc.co.uk\/media\/images\/40127000\/gif\/_40127815_airbus2_inf416.gif","name":"Aft and Forward Fuselage","id":"2540","stops":{"origin":{"related_to":"2540","part_or_object":"p","notes":null,"placename":"Germany","id":8226,"name":"origin","lat":"51.165691","lon":"10.451526","hops":{"incoming":[],"outgoing":[{"transport_id":"12","id":"5637","transport_name":"train, long-distance","transport_description":"> 640 km, diesel, kg km from person-km","transport_unit":"kg km","transport_co2_eq":"0.043500","from_stop_id":"8226","from_stop_lat":"51.165691","from_stop_lon":"10.451526","from_stop_placename":"Germany","to_stop_id":"8199","to_stop_name":"origin","to_stop_lat":"43.604363","to_stop_lon":"1.4429513","to_stop_placename":"Toulouse, France","to_stop":{"id":"8199","name":"origin","lat":"43.604363","lon":"1.4429513","placename":"Toulouse, France"},"from_stop":{"name":"origin","id":"8226","lat":"51.165691","lon":"10.451526","placename":"Germany"}}]}}},"processes":[],"eols":[]}],"user":{"name":"geng_tan","id":"9044"}}}