{"3364":{"oid":"3364","type":"travel","flag":"","creator":"1","name":"Board Meeting","upc":"","imagelink":"","description":"This is our annual meeting of board members","slug":"board-meeting","category":"","weight":"679","emissions":"4321.73267276","embodied":"0","transport":"4321.73267276","process":"0","endoflife":"0","shipping":"24680.19","lifetime":null,"usagetype":"","usageenergy":null,"usageemissions":null,"timecreated":"2010-03-11 17:51:05.775899","timemodified":"2010-03-12 00:58:43","visibility":"private","showfootprint":"on","showembodied":"on","showtransport":"on","showprocess":"on","showendoflife":"on","showlastleg":"on","showuse":"on","showstats":"on","stops":{"origin":{"related_to":"3364","part_or_object":"o","notes":"","placename":"Boston, MA, USA","id":"1101","category":"1","lat":"42.3584308","lon":"-71.0597732","name":"origin","hops":{"incoming":[{"transport_id":"5","id":"2096","transport_name":"automobile, 50 mpg","transport_description":"high efficiency automobile","transport_unit":"kg km","transport_co2_eq":"0.026400","from_stop_id":"4356","from_stop_lat":"45.253783","from_stop_lon":"-69.4454689","to_stop_id":"1101","to_stop_name":"origin","to_stop_lat":"42.3584308","placename":"Maine, USA","to_stop_lon":"-71.0597732","to_stop":{"id":"1101","name":"origin","lat":"42.3584308","placename":"Boston, MA, USA","lon":"-71.0597732"},"from_stop":{"name":"origin","id":"4356","lat":"45.253783","lon":"-69.4454689","placename":"Maine, USA"}},{"transport_id":"12","id":"2097","transport_name":"train, long-distance","transport_description":"> 640 km, diesel, kg km from person-km","transport_unit":"kg km","transport_co2_eq":"0.043500","from_stop_id":"4357","from_stop_lat":"40.0583238","from_stop_lon":"-74.4056612","to_stop_id":"1101","to_stop_name":"origin","to_stop_lat":"42.3584308","placename":"New Jersey, USA","to_stop_lon":"-71.0597732","to_stop":{"id":"1101","name":"origin","lat":"42.3584308","placename":"Boston, MA, USA","lon":"-71.0597732"},"from_stop":{"name":"origin","id":"4357","lat":"40.0583238","lon":"-74.4056612","placename":"New Jersey, USA"}},{"transport_id":"14","id":"2098","transport_name":"air, passenger, intercontinental","transport_description":"intercontinental, kg km from person-km","transport_unit":"kg km","transport_co2_eq":"1.189000","from_stop_id":"4358","from_stop_lat":"34.0522342","from_stop_lon":"-118.2436849","to_stop_id":"1101","to_stop_name":"origin","to_stop_lat":"42.3584308","placename":"Los Angeles, CA, USA","to_stop_lon":"-71.0597732","to_stop":{"id":"1101","name":"origin","lat":"42.3584308","placename":"Boston, MA, USA","lon":"-71.0597732"},"from_stop":{"name":"origin","id":"4358","lat":"34.0522342","lon":"-118.2436849","placename":"Los Angeles, CA, USA"}},{"transport_id":"13","id":"2099","transport_name":"air, passenger, regional","transport_description":"within one continent, kg km from person-km","transport_unit":"kg km","transport_co2_eq":"2.262000","from_stop_id":"4359","from_stop_lat":"44.3148443","from_stop_lon":"-85.6023643","to_stop_id":"1101","to_stop_name":"origin","to_stop_lat":"42.3584308","placename":"Michigan, USA","to_stop_lon":"-71.0597732","to_stop":{"id":"1101","name":"origin","lat":"42.3584308","placename":"Boston, MA, USA","lon":"-71.0597732"},"from_stop":{"name":"origin","id":"4359","lat":"44.3148443","lon":"-85.6023643","placename":"Michigan, USA"}},{"transport_id":"14","id":"2100","transport_name":"air, passenger, intercontinental","transport_description":"intercontinental, kg km from person-km","transport_unit":"kg km","transport_co2_eq":"1.189000","from_stop_id":"4360","from_stop_lat":"45.4636889","from_stop_lon":"9.1881408","to_stop_id":"1101","to_stop_name":"origin","to_stop_lat":"42.3584308","placename":"Milan, Italy","to_stop_lon":"-71.0597732","to_stop":{"id":"1101","name":"origin","lat":"42.3584308","placename":"Boston, MA, USA","lon":"-71.0597732"},"from_stop":{"name":"origin","id":"4360","lat":"45.4636889","lon":"9.1881408","placename":"Milan, Italy"}},{"transport_id":"14","id":"2101","transport_name":"air, passenger, intercontinental","transport_description":"intercontinental, kg km from person-km","transport_unit":"kg km","transport_co2_eq":"1.189000","from_stop_id":"4361","from_stop_lat":"25.091075","from_stop_lon":"121.5598345","to_stop_id":"1101","to_stop_name":"origin","to_stop_lat":"42.3584308","placename":"Taipei City, Taiwan","to_stop_lon":"-71.0597732","to_stop":{"id":"1101","name":"origin","lat":"42.3584308","placename":"Boston, MA, USA","lon":"-71.0597732"},"from_stop":{"name":"origin","id":"4361","lat":"25.091075","lon":"121.5598345","placename":"Taipei City, Taiwan"}}],"outgoing":[]}}},"parts":[{"oid":"3364","imid":"2415","linkid":"","weight":"1","rawemissions":"0","emissions":"0","shipping":"347.4","processemissions":null,"endoflifeemissions":null,"disposaltype":null,"disposalenergy":null,"disposalimpact":null,"disposalemissions":null,"description":"","name":"Greg","id":"2415","stops":{"origin":{"related_to":"2415","part_or_object":"p","notes":"","placename":"Maine, USA","id":4356,"name":"origin","lat":"45.253783","lon":"-69.4454689","hops":{"incoming":[],"outgoing":[{"transport_id":"5","id":"2096","transport_name":"automobile, 50 mpg","transport_description":"high efficiency automobile","transport_unit":"kg km","transport_co2_eq":"0.026400","from_stop_id":"4356","from_stop_lat":"45.253783","from_stop_lon":"-69.4454689","from_stop_placename":"Maine, USA","to_stop_id":"1101","to_stop_name":"origin","to_stop_lat":"42.3584308","to_stop_lon":"-71.0597732","to_stop_placename":"Boston, MA, USA","to_stop":{"id":"1101","name":"origin","lat":"42.3584308","lon":"-71.0597732","placename":"Boston, MA, USA"},"from_stop":{"name":"origin","id":"4356","lat":"45.253783","lon":"-69.4454689","placename":"Maine, USA"}}]}}},"processes":[],"eols":[]},{"oid":"3364","imid":"2416","linkid":"","weight":"1","rawemissions":"0","emissions":"0","shipping":"379.52","processemissions":null,"endoflifeemissions":null,"disposaltype":null,"disposalenergy":null,"disposalimpact":null,"disposalemissions":null,"description":"","name":"Tony","id":"2416","stops":{"origin":{"related_to":"2416","part_or_object":"p","notes":"","placename":"New Jersey, USA","id":4357,"name":"origin","lat":"40.0583238","lon":"-74.4056612","hops":{"incoming":[],"outgoing":[{"transport_id":"12","id":"2097","transport_name":"train, long-distance","transport_description":"> 640 km, diesel, kg km from person-km","transport_unit":"kg km","transport_co2_eq":"0.043500","from_stop_id":"4357","from_stop_lat":"40.0583238","from_stop_lon":"-74.4056612","from_stop_placename":"New Jersey, USA","to_stop_id":"1101","to_stop_name":"origin","to_stop_lat":"42.3584308","to_stop_lon":"-71.0597732","to_stop_placename":"Boston, MA, USA","to_stop":{"id":"1101","name":"origin","lat":"42.3584308","lon":"-71.0597732","placename":"Boston, MA, USA"},"from_stop":{"name":"origin","id":"4357","lat":"40.0583238","lon":"-74.4056612","placename":"New Jersey, USA"}}]}}},"processes":[],"eols":[]},{"oid":"3364","imid":"2417","linkid":"","weight":"1","rawemissions":"0","emissions":"0","shipping":"4174.21","processemissions":null,"endoflifeemissions":null,"disposaltype":null,"disposalenergy":null,"disposalimpact":null,"disposalemissions":null,"description":"","name":"Matt","id":"2417","stops":{"origin":{"related_to":"2417","part_or_object":"p","notes":"","placename":"Los Angeles, CA, USA","id":4358,"name":"origin","lat":"34.0522342","lon":"-118.2436849","hops":{"incoming":[],"outgoing":[{"transport_id":"14","id":"2098","transport_name":"air, passenger, intercontinental","transport_description":"intercontinental, kg km from person-km","transport_unit":"kg km","transport_co2_eq":"1.189000","from_stop_id":"4358","from_stop_lat":"34.0522342","from_stop_lon":"-118.2436849","from_stop_placename":"Los Angeles, CA, USA","to_stop_id":"1101","to_stop_name":"origin","to_stop_lat":"42.3584308","to_stop_lon":"-71.0597732","to_stop_placename":"Boston, MA, USA","to_stop":{"id":"1101","name":"origin","lat":"42.3584308","lon":"-71.0597732","placename":"Boston, MA, USA"},"from_stop":{"name":"origin","id":"4358","lat":"34.0522342","lon":"-118.2436849","placename":"Los Angeles, CA, USA"}}]}}},"processes":[],"eols":[]},{"oid":"3364","imid":"2418","linkid":"","weight":"1","rawemissions":"0","emissions":"0","shipping":"1195.76","processemissions":null,"endoflifeemissions":null,"disposaltype":null,"disposalenergy":null,"disposalimpact":null,"disposalemissions":null,"description":"","name":"Belinda","id":"2418","stops":{"origin":{"related_to":"2418","part_or_object":"p","notes":"","placename":"Michigan, USA","id":4359,"name":"origin","lat":"44.3148443","lon":"-85.6023643","hops":{"incoming":[],"outgoing":[{"transport_id":"13","id":"2099","transport_name":"air, passenger, regional","transport_description":"within one continent, kg km from person-km","transport_unit":"kg km","transport_co2_eq":"2.262000","from_stop_id":"4359","from_stop_lat":"44.3148443","from_stop_lon":"-85.6023643","from_stop_placename":"Michigan, USA","to_stop_id":"1101","to_stop_name":"origin","to_stop_lat":"42.3584308","to_stop_lon":"-71.0597732","to_stop_placename":"Boston, MA, USA","to_stop":{"id":"1101","name":"origin","lat":"42.3584308","lon":"-71.0597732","placename":"Boston, MA, USA"},"from_stop":{"name":"origin","id":"4359","lat":"44.3148443","lon":"-85.6023643","placename":"Michigan, USA"}}]}}},"processes":[],"eols":[]},{"oid":"3364","imid":"2419","linkid":"","weight":"1","rawemissions":"0","emissions":"0","shipping":"6165.49","processemissions":null,"endoflifeemissions":null,"disposaltype":null,"disposalenergy":null,"disposalimpact":null,"disposalemissions":null,"description":"","name":"Alessandro","id":"2419","stops":{"origin":{"related_to":"2419","part_or_object":"p","notes":"","placename":"Milan, Italy","id":4360,"name":"origin","lat":"45.4636889","lon":"9.1881408","hops":{"incoming":[],"outgoing":[{"transport_id":"14","id":"2100","transport_name":"air, passenger, intercontinental","transport_description":"intercontinental, kg km from person-km","transport_unit":"kg km","transport_co2_eq":"1.189000","from_stop_id":"4360","from_stop_lat":"45.4636889","from_stop_lon":"9.1881408","from_stop_placename":"Milan, Italy","to_stop_id":"1101","to_stop_name":"origin","to_stop_lat":"42.3584308","to_stop_lon":"-71.0597732","to_stop_placename":"Boston, MA, USA","to_stop":{"id":"1101","name":"origin","lat":"42.3584308","lon":"-71.0597732","placename":"Boston, MA, USA"},"from_stop":{"name":"origin","id":"4360","lat":"45.4636889","lon":"9.1881408","placename":"Milan, Italy"}}]}}},"processes":[],"eols":[]},{"oid":"3364","imid":"2420","linkid":"","weight":"2","rawemissions":"0","emissions":"0","shipping":"12417.81","processemissions":null,"endoflifeemissions":null,"disposaltype":null,"disposalenergy":null,"disposalimpact":null,"disposalemissions":null,"description":"","name":"Gavin and jennifer","id":"2420","stops":{"origin":{"related_to":"2420","part_or_object":"p","notes":"","placename":"Taipei City, Taiwan","id":4361,"name":"origin","lat":"25.091075","lon":"121.5598345","hops":{"incoming":[],"outgoing":[{"transport_id":"14","id":"2101","transport_name":"air, passenger, intercontinental","transport_description":"intercontinental, kg km from person-km","transport_unit":"kg km","transport_co2_eq":"1.189000","from_stop_id":"4361","from_stop_lat":"25.091075","from_stop_lon":"121.5598345","from_stop_placename":"Taipei City, Taiwan","to_stop_id":"1101","to_stop_name":"origin","to_stop_lat":"42.3584308","to_stop_lon":"-71.0597732","to_stop_placename":"Boston, MA, USA","to_stop":{"id":"1101","name":"origin","lat":"42.3584308","lon":"-71.0597732","placename":"Boston, MA, USA"},"from_stop":{"name":"origin","id":"4361","lat":"25.091075","lon":"121.5598345","placename":"Taipei City, Taiwan"}}]}}},"processes":[],"eols":[]}],"user":{"name":"leo","id":"1"}}}