{"3365":{"oid":"3365","type":"travel","flag":"","creator":"1","name":"Team Meeting","upc":"","imagelink":"","description":"This is our annual board meeting","slug":"annual-meeting","category":"","weight":"873","emissions":"2444.75929983","embodied":"0","transport":"2444.75929983","process":"0","endoflife":"0","shipping":"21030.16","lifetime":null,"usagetype":"","usageenergy":null,"usageemissions":null,"timecreated":"2010-03-11 17:54:59.416311","timemodified":"2010-03-12 01:56:14","visibility":"private","showfootprint":"on","showembodied":"on","showtransport":"on","showprocess":"on","showendoflife":"on","showlastleg":"on","showuse":"on","showstats":"on","stops":{"origin":{"related_to":"3365","part_or_object":"o","notes":"","placename":"Cambridge, MA, USA","id":"1117","category":"1","lat":"42.3750969","lon":"-71.1056079","name":"origin","hops":{"incoming":[{"transport_id":"5","id":"2109","transport_name":"automobile, 50 mpg","transport_description":"high efficiency automobile","transport_unit":"kg km","transport_co2_eq":"0.026400","from_stop_id":"4369","from_stop_lat":"43.1546","from_stop_lon":"-70.6589","to_stop_id":"1117","to_stop_name":"origin","to_stop_lat":"42.3750969","placename":"York, ME, USA","to_stop_lon":"-71.1056079","to_stop":{"id":"1117","name":"origin","lat":"42.3750969","placename":"Cambridge, MA, USA","lon":"-71.1056079"},"from_stop":{"name":"origin","id":"4369","lat":"43.1546","lon":"-70.6589","placename":"York, ME, USA"}},{"transport_id":"13","id":"2111","transport_name":"air, passenger, regional","transport_description":"within one continent, kg km from person-km","transport_unit":"kg km","transport_co2_eq":"2.262000","from_stop_id":"4371","from_stop_lat":"40.1164204","from_stop_lon":"-88.2433829","to_stop_id":"1117","to_stop_name":"origin","to_stop_lat":"42.3750969","placename":"Champaign, IL, USA","to_stop_lon":"-71.1056079","to_stop":{"id":"1117","name":"origin","lat":"42.3750969","placename":"Cambridge, MA, USA","lon":"-71.1056079"},"from_stop":{"name":"origin","id":"4371","lat":"40.1164204","lon":"-88.2433829","placename":"Champaign, IL, USA"}},{"transport_id":"16","id":"2112","transport_name":"air, freight, intercontinental","transport_description":"intercontinental freight","transport_unit":"kg km","transport_co2_eq":"0.450000","from_stop_id":"4372","from_stop_lat":"37.615223","from_stop_lon":"-122.389979","to_stop_id":"1117","to_stop_name":"origin","to_stop_lat":"42.3750969","placename":"San Francisco International Airport, Millbrae, CA 94030, USA","to_stop_lon":"-71.1056079","to_stop":{"id":"1117","name":"origin","lat":"42.3750969","placename":"Cambridge, MA, USA","lon":"-71.1056079"},"from_stop":{"name":"origin","id":"4372","lat":"37.615223","lon":"-122.389979","placename":"San Francisco International Airport, Millbrae, CA 94030, USA"}},{"transport_id":"14","id":"2113","transport_name":"air, passenger, intercontinental","transport_description":"intercontinental, kg km from person-km","transport_unit":"kg km","transport_co2_eq":"1.189000","from_stop_id":"4373","from_stop_lat":"1.352083","from_stop_lon":"103.819836","to_stop_id":"1117","to_stop_name":"origin","to_stop_lat":"42.3750969","placename":"Singapore","to_stop_lon":"-71.1056079","to_stop":{"id":"1117","name":"origin","lat":"42.3750969","placename":"Cambridge, MA, USA","lon":"-71.1056079"},"from_stop":{"name":"origin","id":"4373","lat":"1.352083","lon":"103.819836","placename":"Singapore"}},{"transport_id":"17","id":"2108","transport_name":"None Selected","transport_description":null,"transport_unit":"kg km","transport_co2_eq":"0.000000","from_stop_id":"4368","from_stop_lat":"42.3750969","from_stop_lon":"-71.1056079","to_stop_id":"1117","to_stop_name":"origin","to_stop_lat":"42.3750969","placename":"Cambridge, MA, USA","to_stop_lon":"-71.1056079","to_stop":{"id":"1117","name":"origin","lat":"42.3750969","placename":"Cambridge, MA, USA","lon":"-71.1056079"},"from_stop":{"name":"origin","id":"4368","lat":"42.3750969","lon":"-71.1056079","placename":"Cambridge, MA, USA"}}],"outgoing":[]}}},"parts":[{"oid":"3365","imid":"2447","linkid":"","weight":"3","rawemissions":"0","emissions":"0","shipping":"0","processemissions":null,"endoflifeemissions":null,"disposaltype":null,"disposalenergy":null,"disposalimpact":null,"disposalemissions":null,"description":"(walking)","name":"David, Matt, leo","id":"2447","stops":{"origin":{"related_to":"2447","part_or_object":"p","notes":"","placename":"Cambridge, MA, USA","id":4368,"name":"origin","lat":"42.3750969","lon":"-71.1056079","hops":{"incoming":[],"outgoing":[{"transport_id":"17","id":"2108","transport_name":"None Selected","transport_description":null,"transport_unit":"kg km","transport_co2_eq":"0.000000","from_stop_id":"4368","from_stop_lat":"42.3750969","from_stop_lon":"-71.1056079","from_stop_placename":"Cambridge, MA, USA","to_stop_id":"1117","to_stop_name":"origin","to_stop_lat":"42.3750969","to_stop_lon":"-71.1056079","to_stop_placename":"Cambridge, MA, USA","to_stop":{"id":"1117","name":"origin","lat":"42.3750969","lon":"-71.1056079","placename":"Cambridge, MA, USA"},"from_stop":{"name":"origin","id":"4368","lat":"42.3750969","lon":"-71.1056079","placename":"Cambridge, MA, USA"}}]}}},"processes":[],"eols":[]},{"oid":"3365","imid":"2448","linkid":"","weight":"2","rawemissions":"0","emissions":"0","shipping":"94.14","processemissions":null,"endoflifeemissions":null,"disposaltype":null,"disposalenergy":null,"disposalimpact":null,"disposalemissions":null,"description":"","name":"Greg, Catherine","id":"2448","stops":{"origin":{"related_to":"2448","part_or_object":"p","notes":"","placename":"York, ME, USA","id":4369,"name":"origin","lat":"43.1546","lon":"-70.6589","hops":{"incoming":[],"outgoing":[{"transport_id":"5","id":"2109","transport_name":"automobile, 50 mpg","transport_description":"high efficiency automobile","transport_unit":"kg km","transport_co2_eq":"0.026400","from_stop_id":"4369","from_stop_lat":"43.1546","from_stop_lon":"-70.6589","from_stop_placename":"York, ME, USA","to_stop_id":"1117","to_stop_name":"origin","to_stop_lat":"42.3750969","to_stop_lon":"-71.1056079","to_stop_placename":"Cambridge, MA, USA","to_stop":{"id":"1117","name":"origin","lat":"42.3750969","lon":"-71.1056079","placename":"Cambridge, MA, USA"},"from_stop":{"name":"origin","id":"4369","lat":"43.1546","lon":"-70.6589","placename":"York, ME, USA"}}]}}},"processes":[],"eols":[]},{"oid":"3365","imid":"2449","linkid":"","weight":"1","rawemissions":"0","emissions":"0","shipping":"1453.7","processemissions":null,"endoflifeemissions":null,"disposaltype":null,"disposalenergy":null,"disposalimpact":null,"disposalemissions":null,"description":"","name":"Alex","id":"2449","stops":{"origin":{"related_to":"2449","part_or_object":"p","notes":"","placename":"Champaign, IL, USA","id":4371,"name":"origin","lat":"40.1164204","lon":"-88.2433829","hops":{"incoming":[],"outgoing":[{"transport_id":"13","id":"2111","transport_name":"air, passenger, regional","transport_description":"within one continent, kg km from person-km","transport_unit":"kg km","transport_co2_eq":"2.262000","from_stop_id":"4371","from_stop_lat":"40.1164204","from_stop_lon":"-88.2433829","from_stop_placename":"Champaign, IL, USA","to_stop_id":"1117","to_stop_name":"origin","to_stop_lat":"42.3750969","to_stop_lon":"-71.1056079","to_stop_placename":"Cambridge, MA, USA","to_stop":{"id":"1117","name":"origin","lat":"42.3750969","lon":"-71.1056079","placename":"Cambridge, MA, USA"},"from_stop":{"name":"origin","id":"4371","lat":"40.1164204","lon":"-88.2433829","placename":"Champaign, IL, USA"}}]}}},"processes":[],"eols":[]},{"oid":"3365","imid":"2450","linkid":"","weight":"2","rawemissions":"0","emissions":"0","shipping":"4339.15","processemissions":null,"endoflifeemissions":null,"disposaltype":null,"disposalenergy":null,"disposalimpact":null,"disposalemissions":null,"description":"","name":"Connie, Tim","id":"2450","stops":{"origin":{"related_to":"2450","part_or_object":"p","notes":"","placename":"San Francisco International Airport, Millbrae, CA 94030, USA","id":4372,"name":"origin","lat":"37.615223","lon":"-122.389979","hops":{"incoming":[],"outgoing":[{"transport_id":"16","id":"2112","transport_name":"air, freight, intercontinental","transport_description":"intercontinental freight","transport_unit":"kg km","transport_co2_eq":"0.450000","from_stop_id":"4372","from_stop_lat":"37.615223","from_stop_lon":"-122.389979","from_stop_placename":"San Francisco International Airport, Millbrae, CA 94030, USA","to_stop_id":"1117","to_stop_name":"origin","to_stop_lat":"42.3750969","to_stop_lon":"-71.1056079","to_stop_placename":"Cambridge, MA, USA","to_stop":{"id":"1117","name":"origin","lat":"42.3750969","lon":"-71.1056079","placename":"Cambridge, MA, USA"},"from_stop":{"name":"origin","id":"4372","lat":"37.615223","lon":"-122.389979","placename":"San Francisco International Airport, Millbrae, CA 94030, USA"}}]}}},"processes":[],"eols":[]},{"oid":"3365","imid":"2451","linkid":"","weight":"1","rawemissions":"0","emissions":"0","shipping":"15143.17","processemissions":null,"endoflifeemissions":null,"disposaltype":null,"disposalenergy":null,"disposalimpact":null,"disposalemissions":null,"description":"","name":"Mar","id":"2451","stops":{"origin":{"related_to":"2451","part_or_object":"p","notes":"","placename":"Singapore","id":4373,"name":"origin","lat":"1.352083","lon":"103.819836","hops":{"incoming":[],"outgoing":[{"transport_id":"14","id":"2113","transport_name":"air, passenger, intercontinental","transport_description":"intercontinental, kg km from person-km","transport_unit":"kg km","transport_co2_eq":"1.189000","from_stop_id":"4373","from_stop_lat":"1.352083","from_stop_lon":"103.819836","from_stop_placename":"Singapore","to_stop_id":"1117","to_stop_name":"origin","to_stop_lat":"42.3750969","to_stop_lon":"-71.1056079","to_stop_placename":"Cambridge, MA, USA","to_stop":{"id":"1117","name":"origin","lat":"42.3750969","lon":"-71.1056079","placename":"Cambridge, MA, USA"},"from_stop":{"name":"origin","id":"4373","lat":"1.352083","lon":"103.819836","placename":"Singapore"}}]}}},"processes":[],"eols":[]}],"user":{"name":"leo","id":"1"}}}