{"3376":{"oid":"3376","type":"travel","flag":"","creator":"1","name":"Meeting","upc":"","imagelink":"","description":"","slug":"meeting","category":"","weight":"388","emissions":"2792.74015514","embodied":"0","transport":"2792.74015514","process":"0","endoflife":"0","shipping":"24214.58","lifetime":null,"usagetype":"","usageenergy":null,"usageemissions":null,"timecreated":"2010-03-12 16:59:28.428921","timemodified":"2010-03-12 22:01:31","visibility":"private","showfootprint":"on","showembodied":"on","showtransport":"on","showprocess":"on","showendoflife":"on","showlastleg":"on","showuse":"on","showstats":"on","stops":{"origin":{"related_to":"3376","part_or_object":"o","notes":"","placename":"Iraq","id":"1112","category":"1","lat":"33.223191","lon":"43.679291","name":"origin","hops":{"incoming":[{"transport_id":"14","id":"2123","transport_name":"air, passenger, intercontinental","transport_description":"intercontinental, kg km from person-km","transport_unit":"kg km","transport_co2_eq":"1.189000","from_stop_id":"4383","from_stop_lat":"45.4636889","from_stop_lon":"9.1881408","to_stop_id":"1112","to_stop_name":"origin","to_stop_lat":"33.223191","placename":"Milan, Italy","to_stop_lon":"43.679291","to_stop":{"id":"1112","name":"origin","lat":"33.223191","placename":"Iraq","lon":"43.679291"},"from_stop":{"name":"origin","id":"4383","lat":"45.4636889","lon":"9.1881408","placename":"Milan, Italy"}},{"transport_id":"14","id":"2124","transport_name":"air, passenger, intercontinental","transport_description":"intercontinental, kg km from person-km","transport_unit":"kg km","transport_co2_eq":"1.189000","from_stop_id":"4384","from_stop_lat":"57.4766949","from_stop_lon":"-4.2314535","to_stop_id":"1112","to_stop_name":"origin","to_stop_lat":"33.223191","placename":"Inverness, Highland, UK","to_stop_lon":"43.679291","to_stop":{"id":"1112","name":"origin","lat":"33.223191","placename":"Iraq","lon":"43.679291"},"from_stop":{"name":"origin","id":"4384","lat":"57.4766949","lon":"-4.2314535","placename":"Inverness, Highland, UK"}},{"transport_id":"14","id":"2125","transport_name":"air, passenger, intercontinental","transport_description":"intercontinental, kg km from person-km","transport_unit":"kg km","transport_co2_eq":"1.189000","from_stop_id":"4385","from_stop_lat":"42.3584308","from_stop_lon":"-71.0597732","to_stop_id":"1112","to_stop_name":"origin","to_stop_lat":"33.223191","placename":"Boston, MA, USA","to_stop_lon":"43.679291","to_stop":{"id":"1112","name":"origin","lat":"33.223191","placename":"Iraq","lon":"43.679291"},"from_stop":{"name":"origin","id":"4385","lat":"42.3584308","lon":"-71.0597732","placename":"Boston, MA, USA"}},{"transport_id":"14","id":"2126","transport_name":"air, passenger, intercontinental","transport_description":"intercontinental, kg km from person-km","transport_unit":"kg km","transport_co2_eq":"1.189000","from_stop_id":"4386","from_stop_lat":"1.352083","from_stop_lon":"103.819836","to_stop_id":"1112","to_stop_name":"origin","to_stop_lat":"33.223191","placename":"Singapore","to_stop_lon":"43.679291","to_stop":{"id":"1112","name":"origin","lat":"33.223191","placename":"Iraq","lon":"43.679291"},"from_stop":{"name":"origin","id":"4386","lat":"1.352083","lon":"103.819836","placename":"Singapore"}}],"outgoing":[]}}},"parts":[{"oid":"3376","imid":"2473","linkid":"","weight":"1","rawemissions":"0","emissions":"0","shipping":"3234.71","processemissions":null,"endoflifeemissions":null,"disposaltype":null,"disposalenergy":null,"disposalimpact":null,"disposalemissions":null,"description":"","name":"Alessandro","id":"2473","stops":{"origin":{"related_to":"2473","part_or_object":"p","notes":"","placename":"Milan, Italy","id":4383,"name":"origin","lat":"45.4636889","lon":"9.1881408","hops":{"incoming":[],"outgoing":[{"transport_id":"14","id":"2123","transport_name":"air, passenger, intercontinental","transport_description":"intercontinental, kg km from person-km","transport_unit":"kg km","transport_co2_eq":"1.189000","from_stop_id":"4383","from_stop_lat":"45.4636889","from_stop_lon":"9.1881408","from_stop_placename":"Milan, Italy","to_stop_id":"1112","to_stop_name":"origin","to_stop_lat":"33.223191","to_stop_lon":"43.679291","to_stop_placename":"Iraq","to_stop":{"id":"1112","name":"origin","lat":"33.223191","lon":"43.679291","placename":"Iraq"},"from_stop":{"name":"origin","id":"4383","lat":"45.4636889","lon":"9.1881408","placename":"Milan, Italy"}}]}}},"processes":[],"eols":[]},{"oid":"3376","imid":"2474","linkid":"","weight":"1","rawemissions":"0","emissions":"0","shipping":"4478.51","processemissions":null,"endoflifeemissions":null,"disposaltype":null,"disposalenergy":null,"disposalimpact":null,"disposalemissions":null,"description":"","name":"Sam","id":"2474","stops":{"origin":{"related_to":"2474","part_or_object":"p","notes":"","placename":"Inverness, Highland, UK","id":4384,"name":"origin","lat":"57.4766949","lon":"-4.2314535","hops":{"incoming":[],"outgoing":[{"transport_id":"14","id":"2124","transport_name":"air, passenger, intercontinental","transport_description":"intercontinental, kg km from person-km","transport_unit":"kg km","transport_co2_eq":"1.189000","from_stop_id":"4384","from_stop_lat":"57.4766949","from_stop_lon":"-4.2314535","from_stop_placename":"Inverness, Highland, UK","to_stop_id":"1112","to_stop_name":"origin","to_stop_lat":"33.223191","to_stop_lon":"43.679291","to_stop_placename":"Iraq","to_stop":{"id":"1112","name":"origin","lat":"33.223191","lon":"43.679291","placename":"Iraq"},"from_stop":{"name":"origin","id":"4384","lat":"57.4766949","lon":"-4.2314535","placename":"Inverness, Highland, UK"}}]}}},"processes":[],"eols":[]},{"oid":"3376","imid":"2475","linkid":"","weight":"1","rawemissions":"0","emissions":"0","shipping":"9312.74","processemissions":null,"endoflifeemissions":null,"disposaltype":null,"disposalenergy":null,"disposalimpact":null,"disposalemissions":null,"description":"","name":"Greg","id":"2475","stops":{"origin":{"related_to":"2475","part_or_object":"p","notes":"","placename":"Boston, MA, USA","id":4385,"name":"origin","lat":"42.3584308","lon":"-71.0597732","hops":{"incoming":[],"outgoing":[{"transport_id":"14","id":"2125","transport_name":"air, passenger, intercontinental","transport_description":"intercontinental, kg km from person-km","transport_unit":"kg km","transport_co2_eq":"1.189000","from_stop_id":"4385","from_stop_lat":"42.3584308","from_stop_lon":"-71.0597732","from_stop_placename":"Boston, MA, USA","to_stop_id":"1112","to_stop_name":"origin","to_stop_lat":"33.223191","to_stop_lon":"43.679291","to_stop_placename":"Iraq","to_stop":{"id":"1112","name":"origin","lat":"33.223191","lon":"43.679291","placename":"Iraq"},"from_stop":{"name":"origin","id":"4385","lat":"42.3584308","lon":"-71.0597732","placename":"Boston, MA, USA"}}]}}},"processes":[],"eols":[]},{"oid":"3376","imid":"2476","linkid":"","weight":"1","rawemissions":"0","emissions":"0","shipping":"7188.62","processemissions":null,"endoflifeemissions":null,"disposaltype":null,"disposalenergy":null,"disposalimpact":null,"disposalemissions":null,"description":"","name":"mark","id":"2476","stops":{"origin":{"related_to":"2476","part_or_object":"p","notes":"","placename":"Singapore","id":4386,"name":"origin","lat":"1.352083","lon":"103.819836","hops":{"incoming":[],"outgoing":[{"transport_id":"14","id":"2126","transport_name":"air, passenger, intercontinental","transport_description":"intercontinental, kg km from person-km","transport_unit":"kg km","transport_co2_eq":"1.189000","from_stop_id":"4386","from_stop_lat":"1.352083","from_stop_lon":"103.819836","from_stop_placename":"Singapore","to_stop_id":"1112","to_stop_name":"origin","to_stop_lat":"33.223191","to_stop_lon":"43.679291","to_stop_placename":"Iraq","to_stop":{"id":"1112","name":"origin","lat":"33.223191","lon":"43.679291","placename":"Iraq"},"from_stop":{"name":"origin","id":"4386","lat":"1.352083","lon":"103.819836","placename":"Singapore"}}]}}},"processes":[],"eols":[]}],"user":{"name":"leo","id":"1"}}}