{"3394":{"oid":"3394","type":"object","flag":"","creator":"9299","name":"Kampul","upc":"","imagelink":"","description":"Kampul is a floating sea current power generator that integrate fish farming and photobioreactor for algae production","slug":"kampul","category":"","weight":"5980","emissions":"40986.3955163","embodied":"40190","transport":"641.3955163","process":"0","endoflife":"0","shipping":"22335.83","lifetime":null,"usagetype":"Fuel Oil","usageenergy":"500","usageemissions":"155","timecreated":"2010-03-16 14:14:36.16465","timemodified":"2010-03-24 00:19:18","visibility":"public","showfootprint":"on","showembodied":"on","showtransport":"on","showprocess":"on","showendoflife":"on","showlastleg":"on","showuse":"on","showstats":"on","stops":{"origin":{"related_to":"3394","part_or_object":"o","notes":"","placename":"Kota Batam, Indonesia","id":"1140","category":"1","lat":"1.0828276","lon":"104.0304535","name":"origin","hops":{"incoming":[{"transport_id":"8","id":"2146","transport_name":"freighter, oceanic","transport_description":"","transport_unit":"kg km","transport_co2_eq":"0.004200","from_stop_id":"4406","from_stop_lat":"4.695135","from_stop_lon":"96.7493993","to_stop_id":"1140","to_stop_name":"origin","to_stop_lat":"1.0828276","placename":"Aceh, Indonesia","to_stop_lon":"104.0304535","to_stop":{"id":"1140","name":"origin","lat":"1.0828276","placename":"Kota Batam, Indonesia","lon":"104.0304535"},"from_stop":{"name":"origin","id":"4406","lat":"4.695135","lon":"96.7493993","placename":"Aceh, Indonesia"}},{"transport_id":"8","id":"2147","transport_name":"freighter, oceanic","transport_description":"","transport_unit":"kg km","transport_co2_eq":"0.004200","from_stop_id":"4407","from_stop_lat":"-6.91243","from_stop_lon":"107.606903","to_stop_id":"1140","to_stop_name":"origin","to_stop_lat":"1.0828276","placename":"Bandung, Indonesia","to_stop_lon":"104.0304535","to_stop":{"id":"1140","name":"origin","lat":"1.0828276","placename":"Kota Batam, Indonesia","lon":"104.0304535"},"from_stop":{"name":"origin","id":"4407","lat":"-6.91243","lon":"107.606903","placename":"Bandung, Indonesia"}},{"transport_id":"8","id":"2148","transport_name":"freighter, oceanic","transport_description":"","transport_unit":"kg km","transport_co2_eq":"0.004200","from_stop_id":"4408","from_stop_lat":"1.352083","from_stop_lon":"103.819836","to_stop_id":"1140","to_stop_name":"origin","to_stop_lat":"1.0828276","placename":"Singapura","to_stop_lon":"104.0304535","to_stop":{"id":"1140","name":"origin","lat":"1.0828276","placename":"Kota Batam, Indonesia","lon":"104.0304535"},"from_stop":{"name":"origin","id":"4408","lat":"1.352083","lon":"103.819836","placename":"Singapura"}},{"transport_id":"8","id":"2149","transport_name":"freighter, oceanic","transport_description":"","transport_unit":"kg km","transport_co2_eq":"0.004200","from_stop_id":"4409","from_stop_lat":"-6.91243","from_stop_lon":"107.606903","to_stop_id":"1140","to_stop_name":"origin","to_stop_lat":"1.0828276","placename":"Bandung, Indonesia","to_stop_lon":"104.0304535","to_stop":{"id":"1140","name":"origin","lat":"1.0828276","placename":"Kota Batam, Indonesia","lon":"104.0304535"},"from_stop":{"name":"origin","id":"4409","lat":"-6.91243","lon":"107.606903","placename":"Bandung, Indonesia"}},{"transport_id":"13","id":"2150","transport_name":"air, passenger, regional","transport_description":"within one continent, kg km from person-km","transport_unit":"kg km","transport_co2_eq":"2.262000","from_stop_id":"4410","from_stop_lat":"36.204824","from_stop_lon":"138.252924","to_stop_id":"1140","to_stop_name":"origin","to_stop_lat":"1.0828276","placename":"Jepang","to_stop_lon":"104.0304535","to_stop":{"id":"1140","name":"origin","lat":"1.0828276","placename":"Kota Batam, Indonesia","lon":"104.0304535"},"from_stop":{"name":"origin","id":"4410","lat":"36.204824","lon":"138.252924","placename":"Jepang"}},{"transport_id":"8","id":"2151","transport_name":"freighter, oceanic","transport_description":"","transport_unit":"kg km","transport_co2_eq":"0.004200","from_stop_id":"4411","from_stop_lat":"34.0522342","from_stop_lon":"-118.2436849","to_stop_id":"1140","to_stop_name":"origin","to_stop_lat":"1.0828276","placename":"Los Angeles, CA, USA","to_stop_lon":"104.0304535","to_stop":{"id":"1140","name":"origin","lat":"1.0828276","placename":"Kota Batam, Indonesia","lon":"104.0304535"},"from_stop":{"name":"origin","id":"4411","lat":"34.0522342","lon":"-118.2436849","placename":"Los Angeles, CA, USA"}},{"transport_id":"9","id":"2237","transport_name":"container ship","transport_description":"moving boxcar size containers","transport_unit":"kg km","transport_co2_eq":"0.047800","from_stop_id":"4497","from_stop_lat":"1.352083","from_stop_lon":"103.819836","to_stop_id":"1140","to_stop_name":"origin","to_stop_lat":"1.0828276","placename":"Singapura","to_stop_lon":"104.0304535","to_stop":{"id":"1140","name":"origin","lat":"1.0828276","placename":"Kota Batam, Indonesia","lon":"104.0304535"},"from_stop":{"name":"origin","id":"4497","lat":"1.352083","lon":"103.819836","placename":"Singapura"}},{"transport_id":"17","id":"2152","transport_name":"None Selected","transport_description":null,"transport_unit":"kg km","transport_co2_eq":"0.000000","from_stop_id":"4412","from_stop_lat":"0","from_stop_lon":"0","to_stop_id":"1140","to_stop_name":"origin","to_stop_lat":"1.0828276","placename":"Part Location","to_stop_lon":"104.0304535","to_stop":{"id":"1140","name":"origin","lat":"1.0828276","placename":"Kota Batam, Indonesia","lon":"104.0304535"},"from_stop":{"name":"origin","id":"4412","lat":"0","lon":"0","placename":"Part Location"}},{"transport_id":"17","id":"2153","transport_name":"None Selected","transport_description":null,"transport_unit":"kg km","transport_co2_eq":"0.000000","from_stop_id":"4413","from_stop_lat":"0","from_stop_lon":"0","to_stop_id":"1140","to_stop_name":"origin","to_stop_lat":"1.0828276","placename":"Part Location","to_stop_lon":"104.0304535","to_stop":{"id":"1140","name":"origin","lat":"1.0828276","placename":"Kota Batam, Indonesia","lon":"104.0304535"},"from_stop":{"name":"origin","id":"4413","lat":"0","lon":"0","placename":"Part Location"}},{"transport_id":"17","id":"2154","transport_name":"None Selected","transport_description":null,"transport_unit":"kg km","transport_co2_eq":"0.000000","from_stop_id":"4414","from_stop_lat":"0","from_stop_lon":"0","to_stop_id":"1140","to_stop_name":"origin","to_stop_lat":"1.0828276","placename":"Part Location","to_stop_lon":"104.0304535","to_stop":{"id":"1140","name":"origin","lat":"1.0828276","placename":"Kota Batam, Indonesia","lon":"104.0304535"},"from_stop":{"name":"origin","id":"4414","lat":"0","lon":"0","placename":"Part Location"}}],"outgoing":[]}}},"parts":[{"oid":"3394","imid":"2510","linkid":"parts\/hemp-fiber-composite","weight":"300","rawemissions":"4.2","emissions":"1260","shipping":"903.75","processemissions":null,"endoflifeemissions":null,"disposaltype":null,"disposalenergy":null,"disposalimpact":null,"disposalemissions":null,"description":"","name":"Hemp Fiber Composite","id":"2510","stops":{"origin":{"related_to":"2510","part_or_object":"p","notes":"","placename":"Aceh, Indonesia","id":4406,"name":"origin","lat":"4.695135","lon":"96.7493993","hops":{"incoming":[],"outgoing":[{"transport_id":"8","id":"2146","transport_name":"freighter, oceanic","transport_description":"","transport_unit":"kg km","transport_co2_eq":"0.004200","from_stop_id":"4406","from_stop_lat":"4.695135","from_stop_lon":"96.7493993","from_stop_placename":"Aceh, Indonesia","to_stop_id":"1140","to_stop_name":"origin","to_stop_lat":"1.0828276","to_stop_lon":"104.0304535","to_stop_placename":"Kota Batam, Indonesia","to_stop":{"id":"1140","name":"origin","lat":"1.0828276","lon":"104.0304535","placename":"Kota Batam, Indonesia"},"from_stop":{"name":"origin","id":"4406","lat":"4.695135","lon":"96.7493993","placename":"Aceh, Indonesia"}}]}}},"processes":[],"eols":[]},{"oid":"3394","imid":"2511","linkid":"","weight":"5000","rawemissions":"5","emissions":"25000","shipping":"974.67","processemissions":null,"endoflifeemissions":null,"disposaltype":null,"disposalenergy":null,"disposalimpact":null,"disposalemissions":null,"description":"","name":"HDPE pipes","id":"2511","stops":{"origin":{"related_to":"2511","part_or_object":"p","notes":"","placename":"Bandung, Indonesia","id":4407,"name":"origin","lat":"-6.91243","lon":"107.606903","hops":{"incoming":[],"outgoing":[{"transport_id":"8","id":"2147","transport_name":"freighter, oceanic","transport_description":"","transport_unit":"kg km","transport_co2_eq":"0.004200","from_stop_id":"4407","from_stop_lat":"-6.91243","from_stop_lon":"107.606903","from_stop_placename":"Bandung, Indonesia","to_stop_id":"1140","to_stop_name":"origin","to_stop_lat":"1.0828276","to_stop_lon":"104.0304535","to_stop_placename":"Kota Batam, Indonesia","to_stop":{"id":"1140","name":"origin","lat":"1.0828276","lon":"104.0304535","placename":"Kota Batam, Indonesia"},"from_stop":{"name":"origin","id":"4407","lat":"-6.91243","lon":"107.606903","placename":"Bandung, Indonesia"}}]}}},"processes":[],"eols":[]},{"oid":"3394","imid":"2512","linkid":"","weight":"30","rawemissions":"11","emissions":"330","shipping":"38.05","processemissions":null,"endoflifeemissions":null,"disposaltype":null,"disposalenergy":null,"disposalimpact":null,"disposalemissions":null,"description":"","name":"Steinless steel bolt","id":"2512","stops":{"origin":{"related_to":"2512","part_or_object":"p","notes":"","placename":"Singapura","id":4408,"name":"origin","lat":"1.352083","lon":"103.819836","hops":{"incoming":[],"outgoing":[{"transport_id":"8","id":"2148","transport_name":"freighter, oceanic","transport_description":"","transport_unit":"kg km","transport_co2_eq":"0.004200","from_stop_id":"4408","from_stop_lat":"1.352083","from_stop_lon":"103.819836","from_stop_placename":"Singapura","to_stop_id":"1140","to_stop_name":"origin","to_stop_lat":"1.0828276","to_stop_lon":"104.0304535","to_stop_placename":"Kota Batam, Indonesia","to_stop":{"id":"1140","name":"origin","lat":"1.0828276","lon":"104.0304535","placename":"Kota Batam, Indonesia"},"from_stop":{"name":"origin","id":"4408","lat":"1.352083","lon":"103.819836","placename":"Singapura"}}]}}},"processes":[],"eols":[]},{"oid":"3394","imid":"2513","linkid":"","weight":"100","rawemissions":"12","emissions":"1200","shipping":"974.67","processemissions":null,"endoflifeemissions":null,"disposaltype":null,"disposalenergy":null,"disposalimpact":null,"disposalemissions":null,"description":"","name":"HDPE Fishnet","id":"2513","stops":{"origin":{"related_to":"2513","part_or_object":"p","notes":"","placename":"Bandung, Indonesia","id":4409,"name":"origin","lat":"-6.91243","lon":"107.606903","hops":{"incoming":[],"outgoing":[{"transport_id":"8","id":"2149","transport_name":"freighter, oceanic","transport_description":"","transport_unit":"kg km","transport_co2_eq":"0.004200","from_stop_id":"4409","from_stop_lat":"-6.91243","from_stop_lon":"107.606903","from_stop_placename":"Bandung, Indonesia","to_stop_id":"1140","to_stop_name":"origin","to_stop_lat":"1.0828276","to_stop_lon":"104.0304535","to_stop_placename":"Kota Batam, Indonesia","to_stop":{"id":"1140","name":"origin","lat":"1.0828276","lon":"104.0304535","placename":"Kota Batam, Indonesia"},"from_stop":{"name":"origin","id":"4409","lat":"-6.91243","lon":"107.606903","placename":"Bandung, Indonesia"}}]}}},"processes":[],"eols":[]},{"oid":"3394","imid":"2515","linkid":"","weight":"50","rawemissions":"30","emissions":"1500","shipping":"5264.67","processemissions":null,"endoflifeemissions":null,"disposaltype":null,"disposalenergy":null,"disposalimpact":null,"disposalemissions":null,"description":"","name":"Plastic Zipper","id":"2515","stops":{"origin":{"related_to":"2515","part_or_object":"p","notes":"","placename":"Jepang","id":4410,"name":"origin","lat":"36.204824","lon":"138.252924","hops":{"incoming":[],"outgoing":[{"transport_id":"13","id":"2150","transport_name":"air, passenger, regional","transport_description":"within one continent, kg km from person-km","transport_unit":"kg km","transport_co2_eq":"2.262000","from_stop_id":"4410","from_stop_lat":"36.204824","from_stop_lon":"138.252924","from_stop_placename":"Jepang","to_stop_id":"1140","to_stop_name":"origin","to_stop_lat":"1.0828276","to_stop_lon":"104.0304535","to_stop_placename":"Kota Batam, Indonesia","to_stop":{"id":"1140","name":"origin","lat":"1.0828276","lon":"104.0304535","placename":"Kota Batam, Indonesia"},"from_stop":{"name":"origin","id":"4410","lat":"36.204824","lon":"138.252924","placename":"Jepang"}}]}}},"processes":[],"eols":[]},{"oid":"3394","imid":"2516","linkid":"","weight":"400","rawemissions":"24","emissions":"9600","shipping":"14141.97","processemissions":null,"endoflifeemissions":null,"disposaltype":null,"disposalenergy":null,"disposalimpact":null,"disposalemissions":null,"description":"","name":"Planetary Transmission","id":"2516","stops":{"origin":{"related_to":"2516","part_or_object":"p","notes":"","placename":"Los Angeles, CA, USA","id":4411,"name":"origin","lat":"34.0522342","lon":"-118.2436849","hops":{"incoming":[],"outgoing":[{"transport_id":"8","id":"2151","transport_name":"freighter, oceanic","transport_description":"","transport_unit":"kg km","transport_co2_eq":"0.004200","from_stop_id":"4411","from_stop_lat":"34.0522342","from_stop_lon":"-118.2436849","from_stop_placename":"Los Angeles, CA, USA","to_stop_id":"1140","to_stop_name":"origin","to_stop_lat":"1.0828276","to_stop_lon":"104.0304535","to_stop_placename":"Kota Batam, Indonesia","to_stop":{"id":"1140","name":"origin","lat":"1.0828276","lon":"104.0304535","placename":"Kota Batam, Indonesia"},"from_stop":{"name":"origin","id":"4411","lat":"34.0522342","lon":"-118.2436849","placename":"Los Angeles, CA, USA"}}]}}},"processes":[],"eols":[]},{"oid":"3394","imid":"2517","linkid":"","weight":"0","rawemissions":"0","emissions":"0","shipping":"0","processemissions":null,"endoflifeemissions":null,"disposaltype":null,"disposalenergy":null,"disposalimpact":null,"disposalemissions":null,"description":"","name":"Part","id":"2517","stops":{"origin":{"related_to":"2517","part_or_object":"p","notes":"","placename":"Part Location","id":4412,"name":"origin","lat":"0","lon":"0","hops":{"incoming":[],"outgoing":[{"transport_id":"17","id":"2152","transport_name":"None Selected","transport_description":null,"transport_unit":"kg km","transport_co2_eq":"0.000000","from_stop_id":"4412","from_stop_lat":"0","from_stop_lon":"0","from_stop_placename":"Part Location","to_stop_id":"1140","to_stop_name":"origin","to_stop_lat":"1.0828276","to_stop_lon":"104.0304535","to_stop_placename":"Kota Batam, Indonesia","to_stop":{"id":"1140","name":"origin","lat":"1.0828276","lon":"104.0304535","placename":"Kota Batam, Indonesia"},"from_stop":{"name":"origin","id":"4412","lat":"0","lon":"0","placename":"Part Location"}}]}}},"processes":[],"eols":[]},{"oid":"3394","imid":"2518","linkid":"","weight":"0","rawemissions":"0","emissions":"0","shipping":"0","processemissions":null,"endoflifeemissions":null,"disposaltype":null,"disposalenergy":null,"disposalimpact":null,"disposalemissions":null,"description":"","name":"Part","id":"2518","stops":{"origin":{"related_to":"2518","part_or_object":"p","notes":"","placename":"Part Location","id":4413,"name":"origin","lat":"0","lon":"0","hops":{"incoming":[],"outgoing":[{"transport_id":"17","id":"2153","transport_name":"None Selected","transport_description":null,"transport_unit":"kg km","transport_co2_eq":"0.000000","from_stop_id":"4413","from_stop_lat":"0","from_stop_lon":"0","from_stop_placename":"Part Location","to_stop_id":"1140","to_stop_name":"origin","to_stop_lat":"1.0828276","to_stop_lon":"104.0304535","to_stop_placename":"Kota Batam, Indonesia","to_stop":{"id":"1140","name":"origin","lat":"1.0828276","lon":"104.0304535","placename":"Kota Batam, Indonesia"},"from_stop":{"name":"origin","id":"4413","lat":"0","lon":"0","placename":"Part Location"}}]}}},"processes":[],"eols":[]},{"oid":"3394","imid":"2519","linkid":"","weight":"0","rawemissions":"0","emissions":"0","shipping":"0","processemissions":null,"endoflifeemissions":null,"disposaltype":null,"disposalenergy":null,"disposalimpact":null,"disposalemissions":null,"description":"","name":"Part","id":"2519","stops":{"origin":{"related_to":"2519","part_or_object":"p","notes":"","placename":"Part Location","id":4414,"name":"origin","lat":"0","lon":"0","hops":{"incoming":[],"outgoing":[{"transport_id":"17","id":"2154","transport_name":"None Selected","transport_description":null,"transport_unit":"kg km","transport_co2_eq":"0.000000","from_stop_id":"4414","from_stop_lat":"0","from_stop_lon":"0","from_stop_placename":"Part Location","to_stop_id":"1140","to_stop_name":"origin","to_stop_lat":"1.0828276","to_stop_lon":"104.0304535","to_stop_placename":"Kota Batam, Indonesia","to_stop":{"id":"1140","name":"origin","lat":"1.0828276","lon":"104.0304535","placename":"Kota Batam, Indonesia"},"from_stop":{"name":"origin","id":"4414","lat":"0","lon":"0","placename":"Part Location"}}]}}},"processes":[],"eols":[]},{"oid":"3394","imid":"2514","linkid":"","weight":"100","rawemissions":"13","emissions":"1300","shipping":"38.05","processemissions":null,"endoflifeemissions":null,"disposaltype":null,"disposalenergy":null,"disposalimpact":null,"disposalemissions":null,"description":"","name":"Metal plate","id":"2514","stops":{"origin":{"related_to":"2514","part_or_object":"p","notes":"","placename":"Singapura","id":4497,"name":"origin","lat":"1.352083","lon":"103.819836","hops":{"incoming":[],"outgoing":[{"transport_id":"9","id":"2237","transport_name":"container ship","transport_description":"moving boxcar size containers","transport_unit":"kg km","transport_co2_eq":"0.047800","from_stop_id":"4497","from_stop_lat":"1.352083","from_stop_lon":"103.819836","from_stop_placename":"Singapura","to_stop_id":"1140","to_stop_name":"origin","to_stop_lat":"1.0828276","to_stop_lon":"104.0304535","to_stop_placename":"Kota Batam, Indonesia","to_stop":{"id":"1140","name":"origin","lat":"1.0828276","lon":"104.0304535","placename":"Kota Batam, Indonesia"},"from_stop":{"name":"origin","id":"4497","lat":"1.352083","lon":"103.819836","placename":"Singapura"}}]}}},"processes":[],"eols":[]}],"user":{"name":"Andy Jahol","id":"9299"}}}