{"3396":{"oid":"3396","type":"trace","flag":"","creator":"9303","name":"DeLorean","upc":"","imagelink":"","description":"","slug":"bttf-delorean","category":"","weight":"0","emissions":"0","embodied":"0","transport":"0","process":"0","endoflife":"0","shipping":"53732.83","lifetime":null,"usagetype":"","usageenergy":null,"usageemissions":null,"timecreated":"2010-03-17 01:46:47.289955","timemodified":"2010-03-18 00:18:39","visibility":"public","showfootprint":"on","showembodied":"on","showtransport":"on","showprocess":"on","showendoflife":"on","showlastleg":"on","showuse":"on","showstats":"on","stops":{"origin":{"related_to":"3396","part_or_object":"o","notes":"","placename":"Hill Valley, Campo, CA 91906, USA","id":"1138","category":"1","lat":"32.6445042","lon":"-116.3625172","name":"origin","hops":{"incoming":[{"transport_id":"17","id":"2176","transport_name":"None Selected","transport_description":null,"transport_unit":"kg km","transport_co2_eq":"0.000000","from_stop_id":"4436","from_stop_lat":"41.87194","from_stop_lon":"12.56738","to_stop_id":"1138","to_stop_name":"origin","to_stop_lat":"32.6445042","placename":"Italy","to_stop_lon":"-116.3625172","to_stop":{"id":"1138","name":"origin","lat":"32.6445042","placename":"Hill Valley, Campo, CA 91906, USA","lon":"-116.3625172"},"from_stop":{"name":"origin","id":"4436","lat":"41.87194","lon":"12.56738","placename":"Italy"}},{"transport_id":"17","id":"2177","transport_name":"None Selected","transport_description":null,"transport_unit":"kg km","transport_co2_eq":"0.000000","from_stop_id":"4437","from_stop_lat":"46.227638","from_stop_lon":"2.213749","to_stop_id":"1138","to_stop_name":"origin","to_stop_lat":"32.6445042","placename":"France","to_stop_lon":"-116.3625172","to_stop":{"id":"1138","name":"origin","lat":"32.6445042","placename":"Hill Valley, Campo, CA 91906, USA","lon":"-116.3625172"},"from_stop":{"name":"origin","id":"4437","lat":"46.227638","lon":"2.213749","placename":"France"}},{"transport_id":"17","id":"2178","transport_name":"None Selected","transport_description":null,"transport_unit":"kg km","transport_co2_eq":"0.000000","from_stop_id":"4438","from_stop_lat":"55.378051","from_stop_lon":"-3.435973","to_stop_id":"1138","to_stop_name":"origin","to_stop_lat":"32.6445042","placename":"United Kingdom","to_stop_lon":"-116.3625172","to_stop":{"id":"1138","name":"origin","lat":"32.6445042","placename":"Hill Valley, Campo, CA 91906, USA","lon":"-116.3625172"},"from_stop":{"name":"origin","id":"4438","lat":"55.378051","lon":"-3.435973","placename":"United Kingdom"}},{"transport_id":"17","id":"2179","transport_name":"None Selected","transport_description":null,"transport_unit":"kg km","transport_co2_eq":"0.000000","from_stop_id":"4439","from_stop_lat":"51.165691","from_stop_lon":"10.451526","to_stop_id":"1138","to_stop_name":"origin","to_stop_lat":"32.6445042","placename":"Germany","to_stop_lon":"-116.3625172","to_stop":{"id":"1138","name":"origin","lat":"32.6445042","placename":"Hill Valley, Campo, CA 91906, USA","lon":"-116.3625172"},"from_stop":{"name":"origin","id":"4439","lat":"51.165691","lon":"10.451526","placename":"Germany"}},{"transport_id":"17","id":"2180","transport_name":"None Selected","transport_description":null,"transport_unit":"kg km","transport_co2_eq":"0.000000","from_stop_id":"4440","from_stop_lat":"44.3148443","from_stop_lon":"-85.6023643","to_stop_id":"1138","to_stop_name":"origin","to_stop_lat":"32.6445042","placename":"Michigan, USA","to_stop_lon":"-116.3625172","to_stop":{"id":"1138","name":"origin","lat":"32.6445042","placename":"Hill Valley, Campo, CA 91906, USA","lon":"-116.3625172"},"from_stop":{"name":"origin","id":"4440","lat":"44.3148443","lon":"-85.6023643","placename":"Michigan, USA"}},{"transport_id":"17","id":"2181","transport_name":"None Selected","transport_description":null,"transport_unit":"kg km","transport_co2_eq":"0.000000","from_stop_id":"4441","from_stop_lat":"23.634501","from_stop_lon":"-102.552784","to_stop_id":"1138","to_stop_name":"origin","to_stop_lat":"32.6445042","placename":"Mexico","to_stop_lon":"-116.3625172","to_stop":{"id":"1138","name":"origin","lat":"32.6445042","placename":"Hill Valley, Campo, CA 91906, USA","lon":"-116.3625172"},"from_stop":{"name":"origin","id":"4441","lat":"23.634501","lon":"-102.552784","placename":"Mexico"}},{"transport_id":"17","id":"2182","transport_name":"None Selected","transport_description":null,"transport_unit":"kg km","transport_co2_eq":"0.000000","from_stop_id":"4442","from_stop_lat":"26.3351","from_stop_lon":"17.228331","to_stop_id":"1138","to_stop_name":"origin","to_stop_lat":"32.6445042","placename":"Libya","to_stop_lon":"-116.3625172","to_stop":{"id":"1138","name":"origin","lat":"32.6445042","placename":"Hill Valley, Campo, CA 91906, USA","lon":"-116.3625172"},"from_stop":{"name":"origin","id":"4442","lat":"26.3351","lon":"17.228331","placename":"Libya"}}],"outgoing":[]}}},"parts":[{"oid":"3396","imid":"2541","linkid":"","weight":"0","rawemissions":"0","emissions":"0","shipping":"10235.3","processemissions":null,"endoflifeemissions":null,"disposaltype":null,"disposalenergy":null,"disposalimpact":null,"disposalemissions":null,"description":"","name":"Chassis","id":"2541","stops":{"origin":{"related_to":"2541","part_or_object":"p","notes":"","placename":"Italy","id":4436,"name":"origin","lat":"41.87194","lon":"12.56738","hops":{"incoming":[],"outgoing":[{"transport_id":"17","id":"2176","transport_name":"None Selected","transport_description":null,"transport_unit":"kg km","transport_co2_eq":"0.000000","from_stop_id":"4436","from_stop_lat":"41.87194","from_stop_lon":"12.56738","from_stop_placename":"Italy","to_stop_id":"1138","to_stop_name":"origin","to_stop_lat":"32.6445042","to_stop_lon":"-116.3625172","to_stop_placename":"Hill Valley, Campo, CA 91906, USA","to_stop":{"id":"1138","name":"origin","lat":"32.6445042","lon":"-116.3625172","placename":"Hill Valley, Campo, CA 91906, USA"},"from_stop":{"name":"origin","id":"4436","lat":"41.87194","lon":"12.56738","placename":"Italy"}}]}}},"processes":[],"eols":[]},{"oid":"3396","imid":"2542","linkid":"","weight":"0","rawemissions":"0","emissions":"0","shipping":"9310.07","processemissions":null,"endoflifeemissions":null,"disposaltype":null,"disposalenergy":null,"disposalimpact":null,"disposalemissions":null,"description":"","name":"Engine","id":"2542","stops":{"origin":{"related_to":"2542","part_or_object":"p","notes":"","placename":"France","id":4437,"name":"origin","lat":"46.227638","lon":"2.213749","hops":{"incoming":[],"outgoing":[{"transport_id":"17","id":"2177","transport_name":"None Selected","transport_description":null,"transport_unit":"kg km","transport_co2_eq":"0.000000","from_stop_id":"4437","from_stop_lat":"46.227638","from_stop_lon":"2.213749","from_stop_placename":"France","to_stop_id":"1138","to_stop_name":"origin","to_stop_lat":"32.6445042","to_stop_lon":"-116.3625172","to_stop_placename":"Hill Valley, Campo, CA 91906, USA","to_stop":{"id":"1138","name":"origin","lat":"32.6445042","lon":"-116.3625172","placename":"Hill Valley, Campo, CA 91906, USA"},"from_stop":{"name":"origin","id":"4437","lat":"46.227638","lon":"2.213749","placename":"France"}}]}}},"processes":[],"eols":[]},{"oid":"3396","imid":"2543","linkid":"","weight":"0","rawemissions":"0","emissions":"0","shipping":"8357.42","processemissions":null,"endoflifeemissions":null,"disposaltype":null,"disposalenergy":null,"disposalimpact":null,"disposalemissions":null,"description":"","name":"Suspension","id":"2543","stops":{"origin":{"related_to":"2543","part_or_object":"p","notes":"","placename":"United Kingdom","id":4438,"name":"origin","lat":"55.378051","lon":"-3.435973","hops":{"incoming":[],"outgoing":[{"transport_id":"17","id":"2178","transport_name":"None Selected","transport_description":null,"transport_unit":"kg km","transport_co2_eq":"0.000000","from_stop_id":"4438","from_stop_lat":"55.378051","from_stop_lon":"-3.435973","from_stop_placename":"United Kingdom","to_stop_id":"1138","to_stop_name":"origin","to_stop_lat":"32.6445042","to_stop_lon":"-116.3625172","to_stop_placename":"Hill Valley, Campo, CA 91906, USA","to_stop":{"id":"1138","name":"origin","lat":"32.6445042","lon":"-116.3625172","placename":"Hill Valley, Campo, CA 91906, USA"},"from_stop":{"name":"origin","id":"4438","lat":"55.378051","lon":"-3.435973","placename":"United Kingdom"}}]}}},"processes":[],"eols":[]},{"oid":"3396","imid":"2544","linkid":"","weight":"0","rawemissions":"0","emissions":"0","shipping":"9355.54","processemissions":null,"endoflifeemissions":null,"disposaltype":null,"disposalenergy":null,"disposalimpact":null,"disposalemissions":null,"description":"","name":"Gullwing Doors","id":"2544","stops":{"origin":{"related_to":"2544","part_or_object":"p","notes":"","placename":"Germany","id":4439,"name":"origin","lat":"51.165691","lon":"10.451526","hops":{"incoming":[],"outgoing":[{"transport_id":"17","id":"2179","transport_name":"None Selected","transport_description":null,"transport_unit":"kg km","transport_co2_eq":"0.000000","from_stop_id":"4439","from_stop_lat":"51.165691","from_stop_lon":"10.451526","from_stop_placename":"Germany","to_stop_id":"1138","to_stop_name":"origin","to_stop_lat":"32.6445042","to_stop_lon":"-116.3625172","to_stop_placename":"Hill Valley, Campo, CA 91906, USA","to_stop":{"id":"1138","name":"origin","lat":"32.6445042","lon":"-116.3625172","placename":"Hill Valley, Campo, CA 91906, USA"},"from_stop":{"name":"origin","id":"4439","lat":"51.165691","lon":"10.451526","placename":"Germany"}}]}}},"processes":[],"eols":[]},{"oid":"3396","imid":"2545","linkid":"","weight":"0","rawemissions":"0","emissions":"0","shipping":"2955.21","processemissions":null,"endoflifeemissions":null,"disposaltype":null,"disposalenergy":null,"disposalimpact":null,"disposalemissions":null,"description":"","name":"Wheels","id":"2545","stops":{"origin":{"related_to":"2545","part_or_object":"p","notes":"","placename":"Michigan, USA","id":4440,"name":"origin","lat":"44.3148443","lon":"-85.6023643","hops":{"incoming":[],"outgoing":[{"transport_id":"17","id":"2180","transport_name":"None Selected","transport_description":null,"transport_unit":"kg km","transport_co2_eq":"0.000000","from_stop_id":"4440","from_stop_lat":"44.3148443","from_stop_lon":"-85.6023643","from_stop_placename":"Michigan, USA","to_stop_id":"1138","to_stop_name":"origin","to_stop_lat":"32.6445042","to_stop_lon":"-116.3625172","to_stop_placename":"Hill Valley, Campo, CA 91906, USA","to_stop":{"id":"1138","name":"origin","lat":"32.6445042","lon":"-116.3625172","placename":"Hill Valley, Campo, CA 91906, USA"},"from_stop":{"name":"origin","id":"4440","lat":"44.3148443","lon":"-85.6023643","placename":"Michigan, USA"}}]}}},"processes":[],"eols":[]},{"oid":"3396","imid":"2546","linkid":"","weight":"0","rawemissions":"0","emissions":"0","shipping":"1683.62","processemissions":null,"endoflifeemissions":null,"disposaltype":null,"disposalenergy":null,"disposalimpact":null,"disposalemissions":null,"description":"","name":"Radio","id":"2546","stops":{"origin":{"related_to":"2546","part_or_object":"p","notes":"","placename":"Mexico","id":4441,"name":"origin","lat":"23.634501","lon":"-102.552784","hops":{"incoming":[],"outgoing":[{"transport_id":"17","id":"2181","transport_name":"None Selected","transport_description":null,"transport_unit":"kg km","transport_co2_eq":"0.000000","from_stop_id":"4441","from_stop_lat":"23.634501","from_stop_lon":"-102.552784","from_stop_placename":"Mexico","to_stop_id":"1138","to_stop_name":"origin","to_stop_lat":"32.6445042","to_stop_lon":"-116.3625172","to_stop_placename":"Hill Valley, Campo, CA 91906, USA","to_stop":{"id":"1138","name":"origin","lat":"32.6445042","lon":"-116.3625172","placename":"Hill Valley, Campo, CA 91906, USA"},"from_stop":{"name":"origin","id":"4441","lat":"23.634501","lon":"-102.552784","placename":"Mexico"}}]}}},"processes":[],"eols":[]},{"oid":"3396","imid":"2547","linkid":"","weight":"0","rawemissions":"0","emissions":"0","shipping":"11835.67","processemissions":null,"endoflifeemissions":null,"disposaltype":null,"disposalenergy":null,"disposalimpact":null,"disposalemissions":null,"description":"","name":"Plutonium","id":"2547","stops":{"origin":{"related_to":"2547","part_or_object":"p","notes":"","placename":"Libya","id":4442,"name":"origin","lat":"26.3351","lon":"17.228331","hops":{"incoming":[],"outgoing":[{"transport_id":"17","id":"2182","transport_name":"None Selected","transport_description":null,"transport_unit":"kg km","transport_co2_eq":"0.000000","from_stop_id":"4442","from_stop_lat":"26.3351","from_stop_lon":"17.228331","from_stop_placename":"Libya","to_stop_id":"1138","to_stop_name":"origin","to_stop_lat":"32.6445042","to_stop_lon":"-116.3625172","to_stop_placename":"Hill Valley, Campo, CA 91906, USA","to_stop":{"id":"1138","name":"origin","lat":"32.6445042","lon":"-116.3625172","placename":"Hill Valley, Campo, CA 91906, USA"},"from_stop":{"name":"origin","id":"4442","lat":"26.3351","lon":"17.228331","placename":"Libya"}}]}}},"processes":[],"eols":[]}],"user":{"name":"pluimj","id":"9303"}}}