{"3402":{"oid":"3402","type":"object","flag":"","creator":"6893","name":"Client Exhbiit Property","upc":"","imagelink":"","description":"","slug":"cornelius-exhibit","category":"","weight":"723.92","emissions":"9660.0084648","embodied":"9403.1577","transport":"10.8507648","process":"0","endoflife":"0","shipping":"30073.4","lifetime":null,"usagetype":"","usageenergy":"300","usageemissions":"246","timecreated":"2010-03-18 09:29:30.64741","timemodified":"2010-11-22 12:19:07","visibility":"private","showfootprint":"on","showembodied":"on","showtransport":"on","showprocess":"on","showendoflife":"on","showlastleg":"on","showuse":"on","showstats":"on","stops":{"origin":{"related_to":"3402","part_or_object":"o","notes":null,"placename":"Chicago, IL, USA","id":"7116","category":"1","lat":"41.850033","lon":"-87.6500523","name":"origin","hops":{"incoming":[{"transport_id":"17","id":"4724","transport_name":"None Selected","transport_description":null,"transport_unit":"kg km","transport_co2_eq":"0.000000","from_stop_id":"7117","from_stop_lat":"32.1574351","from_stop_lon":"-82.907123","to_stop_id":"7116","to_stop_name":"origin","to_stop_lat":"41.850033","placename":"Georgia, USA","to_stop_lon":"-87.6500523","to_stop":{"id":"7116","name":"origin","lat":"41.850033","placename":"Chicago, IL, USA","lon":"-87.6500523"},"from_stop":{"name":"origin","id":"7117","lat":"32.1574351","lon":"-82.907123","placename":"Georgia, USA"}},{"transport_id":"3","id":"4725","transport_name":"truck, 40 tons","transport_description":"truck, half full","transport_unit":"kg km","transport_co2_eq":"0.030900","from_stop_id":"7118","from_stop_lat":"46.729553","from_stop_lon":"-94.6858998","to_stop_id":"7116","to_stop_name":"origin","to_stop_lat":"41.850033","placename":"Minnesota, USA","to_stop_lon":"-87.6500523","to_stop":{"id":"7116","name":"origin","lat":"41.850033","placename":"Chicago, IL, USA","lon":"-87.6500523"},"from_stop":{"name":"origin","id":"7118","lat":"46.729553","lon":"-94.6858998","placename":"Minnesota, USA"}},{"transport_id":"6","id":"4726","transport_name":"tanker ship","transport_description":"tanker for mobing liquids","transport_unit":"kg km","transport_co2_eq":"0.171600","from_stop_id":"7119","from_stop_lat":"35.86166","from_stop_lon":"104.195397","to_stop_id":"7116","to_stop_name":"origin","to_stop_lat":"41.850033","placename":"China","to_stop_lon":"-87.6500523","to_stop":{"id":"7116","name":"origin","lat":"41.850033","placename":"Chicago, IL, USA","lon":"-87.6500523"},"from_stop":{"name":"origin","id":"7119","lat":"35.86166","lon":"104.195397","placename":"China"}},{"transport_id":"3","id":"4727","transport_name":"truck, 40 tons","transport_description":"truck, half full","transport_unit":"kg km","transport_co2_eq":"0.030900","from_stop_id":"7120","from_stop_lat":"32.3182314","from_stop_lon":"-86.902298","to_stop_id":"7116","to_stop_name":"origin","to_stop_lat":"41.850033","placename":"Alabama, USA","to_stop_lon":"-87.6500523","to_stop":{"id":"7116","name":"origin","lat":"41.850033","placename":"Chicago, IL, USA","lon":"-87.6500523"},"from_stop":{"name":"origin","id":"7120","lat":"32.3182314","lon":"-86.902298","placename":"Alabama, USA"}},{"transport_id":"17","id":"4728","transport_name":"None Selected","transport_description":null,"transport_unit":"kg km","transport_co2_eq":"0.000000","from_stop_id":"7121","from_stop_lat":"46.729553","from_stop_lon":"-94.6858998","to_stop_id":"7116","to_stop_name":"origin","to_stop_lat":"41.850033","placename":"Minnesota, USA","to_stop_lon":"-87.6500523","to_stop":{"id":"7116","name":"origin","lat":"41.850033","placename":"Chicago, IL, USA","lon":"-87.6500523"},"from_stop":{"name":"origin","id":"7121","lat":"46.729553","lon":"-94.6858998","placename":"Minnesota, USA"}},{"transport_id":"3","id":"4729","transport_name":"truck, 40 tons","transport_description":"truck, half full","transport_unit":"kg km","transport_co2_eq":"0.030900","from_stop_id":"7122","from_stop_lat":"41.850033","from_stop_lon":"-87.6500523","to_stop_id":"7116","to_stop_name":"origin","to_stop_lat":"41.850033","placename":"Chicago, IL, USA","to_stop_lon":"-87.6500523","to_stop":{"id":"7116","name":"origin","lat":"41.850033","placename":"Chicago, IL, USA","lon":"-87.6500523"},"from_stop":{"name":"origin","id":"7122","lat":"41.850033","lon":"-87.6500523","placename":"Chicago, IL, USA"}},{"transport_id":"3","id":"4730","transport_name":"truck, 40 tons","transport_description":"truck, half full","transport_unit":"kg km","transport_co2_eq":"0.030900","from_stop_id":"7123","from_stop_lat":"35.7595731","from_stop_lon":"-79.0192997","to_stop_id":"7116","to_stop_name":"origin","to_stop_lat":"41.850033","placename":"North Carolina, USA","to_stop_lon":"-87.6500523","to_stop":{"id":"7116","name":"origin","lat":"41.850033","placename":"Chicago, IL, USA","lon":"-87.6500523"},"from_stop":{"name":"origin","id":"7123","lat":"35.7595731","lon":"-79.0192997","placename":"North Carolina, USA"}},{"transport_id":"17","id":"4731","transport_name":"None Selected","transport_description":null,"transport_unit":"kg km","transport_co2_eq":"0.000000","from_stop_id":"7124","from_stop_lat":"35.86166","from_stop_lon":"104.195397","to_stop_id":"7116","to_stop_name":"origin","to_stop_lat":"41.850033","placename":"China","to_stop_lon":"-87.6500523","to_stop":{"id":"7116","name":"origin","lat":"41.850033","placename":"Chicago, IL, USA","lon":"-87.6500523"},"from_stop":{"name":"origin","id":"7124","lat":"35.86166","lon":"104.195397","placename":"China"}},{"transport_id":"3","id":"4732","transport_name":"truck, 40 tons","transport_description":"truck, half full","transport_unit":"kg km","transport_co2_eq":"0.030900","from_stop_id":"7125","from_stop_lat":"43.8041334","from_stop_lon":"-120.5542012","to_stop_id":"7116","to_stop_name":"origin","to_stop_lat":"41.850033","placename":"Oregon, USA","to_stop_lon":"-87.6500523","to_stop":{"id":"7116","name":"origin","lat":"41.850033","placename":"Chicago, IL, USA","lon":"-87.6500523"},"from_stop":{"name":"origin","id":"7125","lat":"43.8041334","lon":"-120.5542012","placename":"Oregon, USA"}}],"outgoing":[]}}},"parts":[{"oid":"3402","imid":"2555","linkid":"","weight":"72","rawemissions":"9.8","emissions":"705.6","shipping":"1157.92","processemissions":null,"endoflifeemissions":null,"disposaltype":null,"disposalenergy":null,"disposalimpact":null,"disposalemissions":null,"description":"value for embodied energy determined from ICE v1.6A\nUse a median value for embodied energy 100MJ\/kg\n1 MJ\/kg = 0.098 kg\/CO2\n100MJ\/kg x 0.098kg\/CO2 = 9.8kgCO2\n\n1 sq ft of 40oz carpet weigh 0.12kg\n600sq ft used in exhibit weighs 72kg","name":"Carpet, nylon","id":"2555","stops":{"origin":{"related_to":"2555","part_or_object":"p","notes":null,"placename":"Georgia, USA","id":7117,"name":"origin","lat":"32.1574351","lon":"-82.907123","hops":{"incoming":[],"outgoing":[{"transport_id":"17","id":"4724","transport_name":"None Selected","transport_description":null,"transport_unit":"kg km","transport_co2_eq":"0.000000","from_stop_id":"7117","from_stop_lat":"32.1574351","from_stop_lon":"-82.907123","from_stop_placename":"Georgia, USA","to_stop_id":"7116","to_stop_name":"origin","to_stop_lat":"41.850033","to_stop_lon":"-87.6500523","to_stop_placename":"Chicago, IL, USA","to_stop":{"id":"7116","name":"origin","lat":"41.850033","lon":"-87.6500523","placename":"Chicago, IL, USA"},"from_stop":{"name":"origin","id":"7117","lat":"32.1574351","lon":"-82.907123","placename":"Georgia, USA"}}]}}},"processes":[],"eols":[]},{"oid":"3402","imid":"2551","linkid":"parts\/pvc-rigid","weight":"252","rawemissions":"1.7","emissions":"428.4","shipping":"780.03","processemissions":null,"endoflifeemissions":null,"disposaltype":null,"disposalenergy":null,"disposalimpact":null,"disposalemissions":null,"description":"1sqft of 1\/4\" black sintra weighs 360grams\n700sqft weighs 252Kg","name":"PVC, rigid","id":"2551","stops":{"origin":{"related_to":"2551","part_or_object":"p","notes":null,"placename":"Minnesota, USA","id":7118,"name":"origin","lat":"46.729553","lon":"-94.6858998","hops":{"incoming":[],"outgoing":[{"transport_id":"3","id":"4725","transport_name":"truck, 40 tons","transport_description":"truck, half full","transport_unit":"kg km","transport_co2_eq":"0.030900","from_stop_id":"7118","from_stop_lat":"46.729553","from_stop_lon":"-94.6858998","from_stop_placename":"Minnesota, USA","to_stop_id":"7116","to_stop_name":"origin","to_stop_lat":"41.850033","to_stop_lon":"-87.6500523","to_stop_placename":"Chicago, IL, USA","to_stop":{"id":"7116","name":"origin","lat":"41.850033","lon":"-87.6500523","placename":"Chicago, IL, USA"},"from_stop":{"name":"origin","id":"7118","lat":"46.729553","lon":"-94.6858998","placename":"Minnesota, USA"}}]}}},"processes":[],"eols":[]},{"oid":"3402","imid":"2552","linkid":"parts\/polyester-fabric","weight":"4.8","rawemissions":"8.9","emissions":"42.72","shipping":"11302.88","processemissions":null,"endoflifeemissions":null,"disposaltype":null,"disposalenergy":null,"disposalimpact":null,"disposalemissions":null,"description":"12g per sq ft\n400 sq ft in exhibit weighs ","name":"Polyester fabric","id":"2552","stops":{"origin":{"related_to":"2552","part_or_object":"p","notes":null,"placename":"China","id":7119,"name":"origin","lat":"35.86166","lon":"104.195397","hops":{"incoming":[],"outgoing":[{"transport_id":"6","id":"4726","transport_name":"tanker ship","transport_description":"tanker for mobing liquids","transport_unit":"kg km","transport_co2_eq":"0.171600","from_stop_id":"7119","from_stop_lat":"35.86166","from_stop_lon":"104.195397","from_stop_placename":"China","to_stop_id":"7116","to_stop_name":"origin","to_stop_lat":"41.850033","to_stop_lon":"-87.6500523","to_stop_placename":"Chicago, IL, USA","to_stop":{"id":"7116","name":"origin","lat":"41.850033","lon":"-87.6500523","placename":"Chicago, IL, USA"},"from_stop":{"name":"origin","id":"7119","lat":"35.86166","lon":"104.195397","placename":"China"}}]}}},"processes":[],"eols":[]},{"oid":"3402","imid":"2553","linkid":"parts\/aluminum-typical","weight":"107.7","rawemissions":"3.6","emissions":"387.72","shipping":"1063.14","processemissions":null,"endoflifeemissions":null,"disposaltype":null,"disposalenergy":null,"disposalimpact":null,"disposalemissions":null,"description":"1\"x3\" tubing with 1\/8\" walls weighs 0.54kg per ln foot\n200 ln ft in exhibit weighs 107.7kg","name":"Aluminum, Typical","id":"2553","stops":{"origin":{"related_to":"2553","part_or_object":"p","notes":null,"placename":"Alabama, USA","id":7120,"name":"origin","lat":"32.3182314","lon":"-86.902298","hops":{"incoming":[],"outgoing":[{"transport_id":"3","id":"4727","transport_name":"truck, 40 tons","transport_description":"truck, half full","transport_unit":"kg km","transport_co2_eq":"0.030900","from_stop_id":"7120","from_stop_lat":"32.3182314","from_stop_lon":"-86.902298","from_stop_placename":"Alabama, USA","to_stop_id":"7116","to_stop_name":"origin","to_stop_lat":"41.850033","to_stop_lon":"-87.6500523","to_stop_placename":"Chicago, IL, USA","to_stop":{"id":"7116","name":"origin","lat":"41.850033","lon":"-87.6500523","placename":"Chicago, IL, USA"},"from_stop":{"name":"origin","id":"7120","lat":"32.3182314","lon":"-86.902298","placename":"Alabama, USA"}}]}}},"processes":[],"eols":[]},{"oid":"3402","imid":"2554","linkid":"parts\/pmma","weight":"183","rawemissions":"2.5","emissions":"457.5","shipping":"780.03","processemissions":null,"endoflifeemissions":null,"disposaltype":null,"disposalenergy":null,"disposalimpact":null,"disposalemissions":null,"description":"1 sq ft of acrylic weighs 0.61kg\n300 sq ft used in exhibit weighs 183kg","name":"PMMA","id":"2554","stops":{"origin":{"related_to":"2554","part_or_object":"p","notes":null,"placename":"Minnesota, USA","id":7121,"name":"origin","lat":"46.729553","lon":"-94.6858998","hops":{"incoming":[],"outgoing":[{"transport_id":"17","id":"4728","transport_name":"None Selected","transport_description":null,"transport_unit":"kg km","transport_co2_eq":"0.000000","from_stop_id":"7121","from_stop_lat":"46.729553","from_stop_lon":"-94.6858998","from_stop_placename":"Minnesota, USA","to_stop_id":"7116","to_stop_name":"origin","to_stop_lat":"41.850033","to_stop_lon":"-87.6500523","to_stop_placename":"Chicago, IL, USA","to_stop":{"id":"7116","name":"origin","lat":"41.850033","lon":"-87.6500523","placename":"Chicago, IL, USA"},"from_stop":{"name":"origin","id":"7121","lat":"46.729553","lon":"-94.6858998","placename":"Minnesota, USA"}}]}}},"processes":[],"eols":[]},{"oid":"3402","imid":"2556","linkid":"","weight":"43.8","rawemissions":"1.82","emissions":"79.716","shipping":"0","processemissions":null,"endoflifeemissions":null,"disposaltype":null,"disposalenergy":null,"disposalimpact":null,"disposalemissions":null,"description":"embodied energy value calculated from ICE V1.61a\n\n1sq ft of 1\/2\" Winner pad weighs 73.44g\n600 sq ft used in exhibit weighs 43.8 kg ","name":"Carpet Cushion Pad","id":"2556","stops":{"origin":{"related_to":"2556","part_or_object":"p","notes":null,"placename":"Chicago, IL, USA","id":7122,"name":"origin","lat":"41.850033","lon":"-87.6500523","hops":{"incoming":[],"outgoing":[{"transport_id":"3","id":"4729","transport_name":"truck, 40 tons","transport_description":"truck, half full","transport_unit":"kg km","transport_co2_eq":"0.030900","from_stop_id":"7122","from_stop_lat":"41.850033","from_stop_lon":"-87.6500523","from_stop_placename":"Chicago, IL, USA","to_stop_id":"7116","to_stop_name":"origin","to_stop_lat":"41.850033","to_stop_lon":"-87.6500523","to_stop_placename":"Chicago, IL, USA","to_stop":{"id":"7116","name":"origin","lat":"41.850033","lon":"-87.6500523","placename":"Chicago, IL, USA"},"from_stop":{"name":"origin","id":"7122","lat":"41.850033","lon":"-87.6500523","placename":"Chicago, IL, USA"}}]}}},"processes":[],"eols":[]},{"oid":"3402","imid":"2558","linkid":"","weight":"13.27","rawemissions":"3.56","emissions":"47.2412","shipping":"1009.09","processemissions":null,"endoflifeemissions":null,"disposaltype":null,"disposalenergy":null,"disposalimpact":null,"disposalemissions":null,"description":"I used the embodied energy of wallpaper for this laminate.  The EE of wallpaper in ICE v1.6a is 36.4 MJ\/kg.\n\n1sq ft weighs approximately 104g\n128 sq ft weighs 13.27kg","name":"Laminate","id":"2558","stops":{"origin":{"related_to":"2558","part_or_object":"p","notes":null,"placename":"North Carolina, USA","id":7123,"name":"origin","lat":"35.7595731","lon":"-79.0192997","hops":{"incoming":[],"outgoing":[{"transport_id":"3","id":"4730","transport_name":"truck, 40 tons","transport_description":"truck, half full","transport_unit":"kg km","transport_co2_eq":"0.030900","from_stop_id":"7123","from_stop_lat":"35.7595731","from_stop_lon":"-79.0192997","from_stop_placename":"North Carolina, USA","to_stop_id":"7116","to_stop_name":"origin","to_stop_lat":"41.850033","to_stop_lon":"-87.6500523","to_stop_placename":"Chicago, IL, USA","to_stop":{"id":"7116","name":"origin","lat":"41.850033","lon":"-87.6500523","placename":"Chicago, IL, USA"},"from_stop":{"name":"origin","id":"7123","lat":"35.7595731","lon":"-79.0192997","placename":"North Carolina, USA"}}]}}},"processes":[],"eols":[]},{"oid":"3402","imid":"2561","linkid":"object\/typical-laptop-computer-1","weight":"2","rawemissions":"3608.31","emissions":"7216.62","shipping":"11302.88","processemissions":null,"endoflifeemissions":null,"disposaltype":null,"disposalenergy":null,"disposalimpact":null,"disposalemissions":null,"description":"2 laptops","name":"Typical Laptop Computer","id":"2561","stops":{"origin":{"related_to":"2561","part_or_object":"p","notes":null,"placename":"China","id":7124,"name":"origin","lat":"35.86166","lon":"104.195397","hops":{"incoming":[],"outgoing":[{"transport_id":"17","id":"4731","transport_name":"None Selected","transport_description":null,"transport_unit":"kg km","transport_co2_eq":"0.000000","from_stop_id":"7124","from_stop_lat":"35.86166","from_stop_lon":"104.195397","from_stop_placename":"China","to_stop_id":"7116","to_stop_name":"origin","to_stop_lat":"41.850033","to_stop_lon":"-87.6500523","to_stop_placename":"Chicago, IL, USA","to_stop":{"id":"7116","name":"origin","lat":"41.850033","lon":"-87.6500523","placename":"Chicago, IL, USA"},"from_stop":{"name":"origin","id":"7124","lat":"35.86166","lon":"104.195397","placename":"China"}}]}}},"processes":[],"eols":[]},{"oid":"3402","imid":"2567","linkid":"","weight":"45.35","rawemissions":"0.83","emissions":"37.6405","shipping":"2677.43","processemissions":null,"endoflifeemissions":null,"disposaltype":null,"disposalenergy":null,"disposalimpact":null,"disposalemissions":null,"description":"density of lumber is 32lbs per cubic foot\n 150 ln ft used in exhibit weighs 45.35kg","name":"1\" x 3\" lumber","id":"2567","stops":{"origin":{"related_to":"2567","part_or_object":"p","notes":null,"placename":"Oregon, USA","id":7125,"name":"origin","lat":"43.8041334","lon":"-120.5542012","hops":{"incoming":[],"outgoing":[{"transport_id":"3","id":"4732","transport_name":"truck, 40 tons","transport_description":"truck, half full","transport_unit":"kg km","transport_co2_eq":"0.030900","from_stop_id":"7125","from_stop_lat":"43.8041334","from_stop_lon":"-120.5542012","from_stop_placename":"Oregon, USA","to_stop_id":"7116","to_stop_name":"origin","to_stop_lat":"41.850033","to_stop_lon":"-87.6500523","to_stop_placename":"Chicago, IL, USA","to_stop":{"id":"7116","name":"origin","lat":"41.850033","lon":"-87.6500523","placename":"Chicago, IL, USA"},"from_stop":{"name":"origin","id":"7125","lat":"43.8041334","lon":"-120.5542012","placename":"Oregon, USA"}}]}}},"processes":[],"eols":[]}],"user":{"name":"znzn","id":"6893"}}}