{"3418":{"oid":"3418","type":"object","flag":"","creator":"9341","name":"SpagoBI","upc":"","imagelink":"","description":"that's from where spagobi come from....","slug":"spagobi","category":"","weight":"1400","emissions":"0","embodied":"0","transport":"0","process":"0","endoflife":"0","shipping":"7018.76","lifetime":null,"usagetype":"","usageenergy":null,"usageemissions":null,"timecreated":"2010-03-21 14:28:12.949745","timemodified":"2010-06-20 19:19:27","visibility":"public","showfootprint":"on","showembodied":"on","showtransport":"on","showprocess":"on","showendoflife":"on","showlastleg":"on","showuse":"on","showstats":"on","stops":{"origin":{"related_to":"3418","part_or_object":"o","notes":"","placename":"Italy","id":"1591","category":"1","lat":"41.87194","lon":"12.56738","name":"origin","hops":{"incoming":[{"transport_id":"17","id":"2208","transport_name":"None Selected","transport_description":null,"transport_unit":"kg km","transport_co2_eq":"0.000000","from_stop_id":"4468","from_stop_lat":"45.4095683","from_stop_lon":"11.8765886","to_stop_id":"1591","to_stop_name":"origin","to_stop_lat":"41.87194","placename":"Padua PD, Italy","to_stop_lon":"12.56738","to_stop":{"id":"1591","name":"origin","lat":"41.87194","placename":"Italy","lon":"12.56738"},"from_stop":{"name":"origin","id":"4468","lat":"45.4095683","lon":"11.8765886","placename":"Padua PD, Italy"}},{"transport_id":"17","id":"2209","transport_name":"None Selected","transport_description":null,"transport_unit":"kg km","transport_co2_eq":"0.000000","from_stop_id":"4469","from_stop_lat":"45.4636889","from_stop_lon":"9.1881408","to_stop_id":"1591","to_stop_name":"origin","to_stop_lat":"41.87194","placename":"Milan, Italy","to_stop_lon":"12.56738","to_stop":{"id":"1591","name":"origin","lat":"41.87194","placename":"Italy","lon":"12.56738"},"from_stop":{"name":"origin","id":"4469","lat":"45.4636889","lon":"9.1881408","placename":"Milan, Italy"}},{"transport_id":"17","id":"3377","transport_name":"None Selected","transport_description":null,"transport_unit":"kg km","transport_co2_eq":"0.000000","from_stop_id":"5637","from_stop_lat":"45.4095683","from_stop_lon":"11.8765886","to_stop_id":"1591","to_stop_name":"origin","to_stop_lat":"41.87194","placename":"Padova PD, Italia","to_stop_lon":"12.56738","to_stop":{"id":"1591","name":"origin","lat":"41.87194","placename":"Italy","lon":"12.56738"},"from_stop":{"name":"origin","id":"5637","lat":"45.4095683","lon":"11.8765886","placename":"Padova PD, Italia"}},{"transport_id":"17","id":"3378","transport_name":"None Selected","transport_description":null,"transport_unit":"kg km","transport_co2_eq":"0.000000","from_stop_id":"5638","from_stop_lat":"45.4636889","from_stop_lon":"9.1881408","to_stop_id":"1591","to_stop_name":"origin","to_stop_lat":"41.87194","placename":"Milano, Italia","to_stop_lon":"12.56738","to_stop":{"id":"1591","name":"origin","lat":"41.87194","placename":"Italy","lon":"12.56738"},"from_stop":{"name":"origin","id":"5638","lat":"45.4636889","lon":"9.1881408","placename":"Milano, Italia"}},{"transport_id":"17","id":"2210","transport_name":"None Selected","transport_description":null,"transport_unit":"kg km","transport_co2_eq":"0.000000","from_stop_id":"4470","from_stop_lat":"44.4942191","from_stop_lon":"11.3464815","to_stop_id":"1591","to_stop_name":"origin","to_stop_lat":"41.87194","placename":"Bologna, Italy","to_stop_lon":"12.56738","to_stop":{"id":"1591","name":"origin","lat":"41.87194","placename":"Italy","lon":"12.56738"},"from_stop":{"name":"origin","id":"4470","lat":"44.4942191","lon":"11.3464815","placename":"Bologna, Italy"}},{"transport_id":"17","id":"2213","transport_name":"None Selected","transport_description":null,"transport_unit":"kg km","transport_co2_eq":"0.000000","from_stop_id":"4473","from_stop_lat":"45.0705621","from_stop_lon":"7.6866186","to_stop_id":"1591","to_stop_name":"origin","to_stop_lat":"41.87194","placename":"Turin, Italy","to_stop_lon":"12.56738","to_stop":{"id":"1591","name":"origin","lat":"41.87194","placename":"Italy","lon":"12.56738"},"from_stop":{"name":"origin","id":"4473","lat":"45.0705621","lon":"7.6866186","placename":"Turin, Italy"}},{"transport_id":"17","id":"2214","transport_name":"None Selected","transport_description":null,"transport_unit":"kg km","transport_co2_eq":"0.000000","from_stop_id":"4474","from_stop_lat":"45.4095683","from_stop_lon":"11.8765886","to_stop_id":"1591","to_stop_name":"origin","to_stop_lat":"41.87194","placename":"Padua PD, Italy","to_stop_lon":"12.56738","to_stop":{"id":"1591","name":"origin","lat":"41.87194","placename":"Italy","lon":"12.56738"},"from_stop":{"name":"origin","id":"4474","lat":"45.4095683","lon":"11.8765886","placename":"Padua PD, Italy"}},{"transport_id":"17","id":"2215","transport_name":"None Selected","transport_description":null,"transport_unit":"kg km","transport_co2_eq":"0.000000","from_stop_id":"4475","from_stop_lat":"45.4095683","from_stop_lon":"11.8765886","to_stop_id":"1591","to_stop_name":"origin","to_stop_lat":"41.87194","placename":"Padua PD, Italy","to_stop_lon":"12.56738","to_stop":{"id":"1591","name":"origin","lat":"41.87194","placename":"Italy","lon":"12.56738"},"from_stop":{"name":"origin","id":"4475","lat":"45.4095683","lon":"11.8765886","placename":"Padua PD, Italy"}},{"transport_id":"17","id":"2216","transport_name":"None Selected","transport_description":null,"transport_unit":"kg km","transport_co2_eq":"0.000000","from_stop_id":"4476","from_stop_lat":"45.4095683","from_stop_lon":"11.8765886","to_stop_id":"1591","to_stop_name":"origin","to_stop_lat":"41.87194","placename":"Padua PD, Italy","to_stop_lon":"12.56738","to_stop":{"id":"1591","name":"origin","lat":"41.87194","placename":"Italy","lon":"12.56738"},"from_stop":{"name":"origin","id":"4476","lat":"45.4095683","lon":"11.8765886","placename":"Padua PD, Italy"}},{"transport_id":"17","id":"2217","transport_name":"None Selected","transport_description":null,"transport_unit":"kg km","transport_co2_eq":"0.000000","from_stop_id":"4477","from_stop_lat":"45.0705621","from_stop_lon":"7.6866186","to_stop_id":"1591","to_stop_name":"origin","to_stop_lat":"41.87194","placename":"Turin, Italy","to_stop_lon":"12.56738","to_stop":{"id":"1591","name":"origin","lat":"41.87194","placename":"Italy","lon":"12.56738"},"from_stop":{"name":"origin","id":"4477","lat":"45.0705621","lon":"7.6866186","placename":"Turin, Italy"}},{"transport_id":"17","id":"2225","transport_name":"None Selected","transport_description":null,"transport_unit":"kg km","transport_co2_eq":"0.000000","from_stop_id":"4485","from_stop_lat":"45.4636889","from_stop_lon":"9.1881408","to_stop_id":"1591","to_stop_name":"origin","to_stop_lat":"41.87194","placename":"Milan, Italy","to_stop_lon":"12.56738","to_stop":{"id":"1591","name":"origin","lat":"41.87194","placename":"Italy","lon":"12.56738"},"from_stop":{"name":"origin","id":"4485","lat":"45.4636889","lon":"9.1881408","placename":"Milan, Italy"}},{"transport_id":"17","id":"2229","transport_name":"None Selected","transport_description":null,"transport_unit":"kg km","transport_co2_eq":"0.000000","from_stop_id":"4489","from_stop_lat":"45.0705621","from_stop_lon":"7.6866186","to_stop_id":"1591","to_stop_name":"origin","to_stop_lat":"41.87194","placename":"Turin, Italy","to_stop_lon":"12.56738","to_stop":{"id":"1591","name":"origin","lat":"41.87194","placename":"Italy","lon":"12.56738"},"from_stop":{"name":"origin","id":"4489","lat":"45.0705621","lon":"7.6866186","placename":"Turin, Italy"}},{"transport_id":"17","id":"2230","transport_name":"None Selected","transport_description":null,"transport_unit":"kg km","transport_co2_eq":"0.000000","from_stop_id":"4490","from_stop_lat":"41.8954656","from_stop_lon":"12.4823243","to_stop_id":"1591","to_stop_name":"origin","to_stop_lat":"41.87194","placename":"Rome, Italy","to_stop_lon":"12.56738","to_stop":{"id":"1591","name":"origin","lat":"41.87194","placename":"Italy","lon":"12.56738"},"from_stop":{"name":"origin","id":"4490","lat":"41.8954656","lon":"12.4823243","placename":"Rome, Italy"}},{"transport_id":"17","id":"2231","transport_name":"None Selected","transport_description":null,"transport_unit":"kg km","transport_co2_eq":"0.000000","from_stop_id":"4491","from_stop_lat":"45.4636889","from_stop_lon":"9.1881408","to_stop_id":"1591","to_stop_name":"origin","to_stop_lat":"41.87194","placename":"Milan, Italy","to_stop_lon":"12.56738","to_stop":{"id":"1591","name":"origin","lat":"41.87194","placename":"Italy","lon":"12.56738"},"from_stop":{"name":"origin","id":"4491","lat":"45.4636889","lon":"9.1881408","placename":"Milan, Italy"}},{"transport_id":"17","id":"2232","transport_name":"None Selected","transport_description":null,"transport_unit":"kg km","transport_co2_eq":"0.000000","from_stop_id":"4492","from_stop_lat":"45.4095683","from_stop_lon":"11.8765886","to_stop_id":"1591","to_stop_name":"origin","to_stop_lat":"41.87194","placename":"Padua PD, Italy","to_stop_lon":"12.56738","to_stop":{"id":"1591","name":"origin","lat":"41.87194","placename":"Italy","lon":"12.56738"},"from_stop":{"name":"origin","id":"4492","lat":"45.4095683","lon":"11.8765886","placename":"Padua PD, Italy"}},{"transport_id":"17","id":"2233","transport_name":"None Selected","transport_description":null,"transport_unit":"kg km","transport_co2_eq":"0.000000","from_stop_id":"4493","from_stop_lat":"45.4095683","from_stop_lon":"11.8765886","to_stop_id":"1591","to_stop_name":"origin","to_stop_lat":"41.87194","placename":"Padua PD, Italy","to_stop_lon":"12.56738","to_stop":{"id":"1591","name":"origin","lat":"41.87194","placename":"Italy","lon":"12.56738"},"from_stop":{"name":"origin","id":"4493","lat":"45.4095683","lon":"11.8765886","placename":"Padua PD, Italy"}},{"transport_id":"17","id":"2234","transport_name":"None Selected","transport_description":null,"transport_unit":"kg km","transport_co2_eq":"0.000000","from_stop_id":"4494","from_stop_lat":"45.4095683","from_stop_lon":"11.8765886","to_stop_id":"1591","to_stop_name":"origin","to_stop_lat":"41.87194","placename":"Padua PD, Italy","to_stop_lon":"12.56738","to_stop":{"id":"1591","name":"origin","lat":"41.87194","placename":"Italy","lon":"12.56738"},"from_stop":{"name":"origin","id":"4494","lat":"45.4095683","lon":"11.8765886","placename":"Padua PD, Italy"}},{"transport_id":"17","id":"2235","transport_name":"None Selected","transport_description":null,"transport_unit":"kg km","transport_co2_eq":"0.000000","from_stop_id":"4495","from_stop_lat":"41.8954656","from_stop_lon":"12.4823243","to_stop_id":"1591","to_stop_name":"origin","to_stop_lat":"41.87194","placename":"Rome, Italy","to_stop_lon":"12.56738","to_stop":{"id":"1591","name":"origin","lat":"41.87194","placename":"Italy","lon":"12.56738"},"from_stop":{"name":"origin","id":"4495","lat":"41.8954656","lon":"12.4823243","placename":"Rome, Italy"}},{"transport_id":"17","id":"2236","transport_name":"None Selected","transport_description":null,"transport_unit":"kg km","transport_co2_eq":"0.000000","from_stop_id":"4496","from_stop_lat":"38.1156193","from_stop_lon":"13.3613758","to_stop_id":"1591","to_stop_name":"origin","to_stop_lat":"41.87194","placename":"Palermo, Italy","to_stop_lon":"12.56738","to_stop":{"id":"1591","name":"origin","lat":"41.87194","placename":"Italy","lon":"12.56738"},"from_stop":{"name":"origin","id":"4496","lat":"38.1156193","lon":"13.3613758","placename":"Palermo, Italy"}}],"outgoing":[]}}},"parts":[{"oid":"3418","imid":"2573","linkid":"","weight":"80","rawemissions":"0","emissions":"0","shipping":"330.55","processemissions":null,"endoflifeemissions":null,"disposaltype":null,"disposalenergy":null,"disposalimpact":null,"disposalemissions":null,"description":"Davide is an IT Solution Architect. He contributes to SpagoBI development, mainly dealing with the development of new functionalities and the integration of new components. He also provides contributors and final users with assistance and support services concerning technical aspects of the platform. He also carries out training activities on SpagoBI installation and usage. ","name":"Davide Zerbetto","id":"2573","stops":{"origin":{"related_to":"2573","part_or_object":"p","notes":"","placename":"Padua PD, Italy","id":4468,"name":"origin","lat":"45.4095683","lon":"11.8765886","hops":{"incoming":[],"outgoing":[{"transport_id":"17","id":"2208","transport_name":"None Selected","transport_description":null,"transport_unit":"kg km","transport_co2_eq":"0.000000","from_stop_id":"4468","from_stop_lat":"45.4095683","from_stop_lon":"11.8765886","from_stop_placename":"Padua PD, Italy","to_stop_id":"1591","to_stop_name":"origin","to_stop_lat":"41.87194","to_stop_lon":"12.56738","to_stop_placename":"Italy","to_stop":{"id":"1591","name":"origin","lat":"41.87194","lon":"12.56738","placename":"Italy"},"from_stop":{"name":"origin","id":"4468","lat":"45.4095683","lon":"11.8765886","placename":"Padua PD, Italy"}}]}}},"processes":[],"eols":[]},{"oid":"3418","imid":"2574","linkid":"","weight":"80","rawemissions":"0","emissions":"0","shipping":"125.51","processemissions":null,"endoflifeemissions":null,"disposaltype":null,"disposalenergy":null,"disposalimpact":null,"disposalemissions":null,"description":"Andrea is an IT Solution Architect. He mainly works on SpagoBI platform design and development. He also provides support on technical aspects to contributors and users, participates to conferences representing SpagoWorld and carries out SpagoBI training courses in Italy and abroad. ","name":"Andrea Gioia","id":"2574","stops":{"origin":{"related_to":"2574","part_or_object":"p","notes":"","placename":"Milan, Italy","id":4469,"name":"origin","lat":"45.4636889","lon":"9.1881408","hops":{"incoming":[],"outgoing":[{"transport_id":"17","id":"2209","transport_name":"None Selected","transport_description":null,"transport_unit":"kg km","transport_co2_eq":"0.000000","from_stop_id":"4469","from_stop_lat":"45.4636889","from_stop_lon":"9.1881408","from_stop_placename":"Milan, Italy","to_stop_id":"1591","to_stop_name":"origin","to_stop_lat":"41.87194","to_stop_lon":"12.56738","to_stop_placename":"Italy","to_stop":{"id":"1591","name":"origin","lat":"41.87194","lon":"12.56738","placename":"Italy"},"from_stop":{"name":"origin","id":"4469","lat":"45.4636889","lon":"9.1881408","placename":"Milan, Italy"}}]}}},"processes":[],"eols":[]},{"oid":"3418","imid":"2575","linkid":"","weight":"80","rawemissions":"0","emissions":"0","shipping":"296.18","processemissions":null,"endoflifeemissions":null,"disposaltype":null,"disposalenergy":null,"disposalimpact":null,"disposalemissions":null,"description":"Angelo is an IT Senior Solution Architect. He has been operating several years in the design and development of business applications on different markets: industry, finance, local government and public health, as well as in different thematic areas such as Register, CRM, Enterprise Portal, Security and Asset Allocation. It has  consolidated experience in designing Java Enterprise architectures, in open source frameworks and in the application of software development methodologies. He is currently involved in SpagoBI designing and he supports enterprise projects using SpagoBI platform. ","name":"Angelo Bernabei","id":"2575","stops":{"origin":{"related_to":"2575","part_or_object":"p","notes":"","placename":"Bologna, Italy","id":4470,"name":"origin","lat":"44.4942191","lon":"11.3464815","hops":{"incoming":[],"outgoing":[{"transport_id":"17","id":"2210","transport_name":"None Selected","transport_description":null,"transport_unit":"kg km","transport_co2_eq":"0.000000","from_stop_id":"4470","from_stop_lat":"44.4942191","from_stop_lon":"11.3464815","from_stop_placename":"Bologna, Italy","to_stop_id":"1591","to_stop_name":"origin","to_stop_lat":"41.87194","to_stop_lon":"12.56738","to_stop_placename":"Italy","to_stop":{"id":"1591","name":"origin","lat":"41.87194","lon":"12.56738","placename":"Italy"},"from_stop":{"name":"origin","id":"4470","lat":"44.4942191","lon":"11.3464815","placename":"Bologna, Italy"}}]}}},"processes":[],"eols":[]},{"oid":"3418","imid":"2578","linkid":"","weight":"60","rawemissions":"0","emissions":"0","shipping":"531.1","processemissions":null,"endoflifeemissions":null,"disposaltype":null,"disposalenergy":null,"disposalimpact":null,"disposalemissions":null,"description":"Antonella is an IT Solution Architect and SpagoBI Consultant. She builds portals for demonstrations and projects, manages applications developed through SpagoBI platform and works on SpagoBI evolutions. Before joining  SpagoBI team, she worked for many years in software development of financial and public administration applications, especially through Java Enterprise architectures and frameworks. ","name":"Antonella Giachino","id":"2578","stops":{"origin":{"related_to":"2578","part_or_object":"p","notes":"","placename":"Turin, Italy","id":4473,"name":"origin","lat":"45.0705621","lon":"7.6866186","hops":{"incoming":[],"outgoing":[{"transport_id":"17","id":"2213","transport_name":"None Selected","transport_description":null,"transport_unit":"kg km","transport_co2_eq":"0.000000","from_stop_id":"4473","from_stop_lat":"45.0705621","from_stop_lon":"7.6866186","from_stop_placename":"Turin, Italy","to_stop_id":"1591","to_stop_name":"origin","to_stop_lat":"41.87194","to_stop_lon":"12.56738","to_stop_placename":"Italy","to_stop":{"id":"1591","name":"origin","lat":"41.87194","lon":"12.56738","placename":"Italy"},"from_stop":{"name":"origin","id":"4473","lat":"45.0705621","lon":"7.6866186","placename":"Turin, Italy"}}]}}},"processes":[],"eols":[]},{"oid":"3418","imid":"2579","linkid":"","weight":"65","rawemissions":"0","emissions":"0","shipping":"397.71","processemissions":null,"endoflifeemissions":null,"disposaltype":null,"disposalenergy":null,"disposalimpact":null,"disposalemissions":null,"description":"Monica is IT Solution Architect, with ten-year experience in the development of projects for the industry and public administration, based on Java technnologies. She has worked in the field of content management, search engines, portals as well as web applications security and accessibility. At present, she takes part in the development of SpagoBI platform and in the realization of customers projects. ","name":"Monica Franceschini","id":"2579","stops":{"origin":{"related_to":"2579","part_or_object":"p","notes":"","placename":"Padua PD, Italy","id":4474,"name":"origin","lat":"45.4095683","lon":"11.8765886","hops":{"incoming":[],"outgoing":[{"transport_id":"17","id":"2214","transport_name":"None Selected","transport_description":null,"transport_unit":"kg km","transport_co2_eq":"0.000000","from_stop_id":"4474","from_stop_lat":"45.4095683","from_stop_lon":"11.8765886","from_stop_placename":"Padua PD, Italy","to_stop_id":"1591","to_stop_name":"origin","to_stop_lat":"41.87194","to_stop_lon":"12.56738","to_stop_placename":"Italy","to_stop":{"id":"1591","name":"origin","lat":"41.87194","lon":"12.56738","placename":"Italy"},"from_stop":{"name":"origin","id":"4474","lat":"45.4095683","lon":"11.8765886","placename":"Padua PD, Italy"}}]}}},"processes":[],"eols":[]},{"oid":"3418","imid":"2580","linkid":"","weight":"65","rawemissions":"0","emissions":"0","shipping":"397.71","processemissions":null,"endoflifeemissions":null,"disposaltype":null,"disposalenergy":null,"disposalimpact":null,"disposalemissions":null,"description":"Chiara is Web Developer for SpagoBI and Spago4Q projects. She obtained her Computer Science masters degree at the University of Padua, Italy. She has solid theoretical basis as a consequence of her university degree and good practical competences thanks to one-year study in the Engineering School ENSEIRB in Bordeaux (France). Before joining SpagoWorld team, she gained work experience in an important enterprise in the USA, testing a software for big networks management. ","name":"Chiara Chiarelli","id":"2580","stops":{"origin":{"related_to":"2580","part_or_object":"p","notes":"","placename":"Padua PD, Italy","id":4475,"name":"origin","lat":"45.4095683","lon":"11.8765886","hops":{"incoming":[],"outgoing":[{"transport_id":"17","id":"2215","transport_name":"None Selected","transport_description":null,"transport_unit":"kg km","transport_co2_eq":"0.000000","from_stop_id":"4475","from_stop_lat":"45.4095683","from_stop_lon":"11.8765886","from_stop_placename":"Padua PD, Italy","to_stop_id":"1591","to_stop_name":"origin","to_stop_lat":"41.87194","to_stop_lon":"12.56738","to_stop_placename":"Italy","to_stop":{"id":"1591","name":"origin","lat":"41.87194","lon":"12.56738","placename":"Italy"},"from_stop":{"name":"origin","id":"4475","lat":"45.4095683","lon":"11.8765886","placename":"Padua PD, Italy"}}]}}},"processes":[],"eols":[]},{"oid":"3418","imid":"2581","linkid":"","weight":"80","rawemissions":"0","emissions":"0","shipping":"397.71","processemissions":null,"endoflifeemissions":null,"disposaltype":null,"disposalenergy":null,"disposalimpact":null,"disposalemissions":null,"description":"Giulio is a SpagoBI and Spago4Q developer. He obtained his masters degree in Computer Science at the University of Padua, Italy. For his thesis, he collaborated with SpagoBI development team ","name":"Giulio Gavardi","id":"2581","stops":{"origin":{"related_to":"2581","part_or_object":"p","notes":"","placename":"Padua PD, Italy","id":4476,"name":"origin","lat":"45.4095683","lon":"11.8765886","hops":{"incoming":[],"outgoing":[{"transport_id":"17","id":"2216","transport_name":"None Selected","transport_description":null,"transport_unit":"kg km","transport_co2_eq":"0.000000","from_stop_id":"4476","from_stop_lat":"45.4095683","from_stop_lon":"11.8765886","from_stop_placename":"Padua PD, Italy","to_stop_id":"1591","to_stop_name":"origin","to_stop_lat":"41.87194","to_stop_lon":"12.56738","to_stop_placename":"Italy","to_stop":{"id":"1591","name":"origin","lat":"41.87194","lon":"12.56738","placename":"Italy"},"from_stop":{"name":"origin","id":"4476","lat":"45.4095683","lon":"11.8765886","placename":"Padua PD, Italy"}}]}}},"processes":[],"eols":[]},{"oid":"3418","imid":"2582","linkid":"","weight":"80","rawemissions":"0","emissions":"0","shipping":"531.1","processemissions":null,"endoflifeemissions":null,"disposaltype":null,"disposalenergy":null,"disposalimpact":null,"disposalemissions":null,"description":"Marco obtained his Computer Science degree at the University of Turin, Italy. In his thesis, he focused on Social Network Analysis. At present, he contributes to the development of SpagoBI platform, with good expertise on information management systems","name":"Marco Cortella","id":"2582","stops":{"origin":{"related_to":"2582","part_or_object":"p","notes":"","placename":"Turin, Italy","id":4477,"name":"origin","lat":"45.0705621","lon":"7.6866186","hops":{"incoming":[],"outgoing":[{"transport_id":"17","id":"2217","transport_name":"None Selected","transport_description":null,"transport_unit":"kg km","transport_co2_eq":"0.000000","from_stop_id":"4477","from_stop_lat":"45.0705621","from_stop_lon":"7.6866186","from_stop_placename":"Turin, Italy","to_stop_id":"1591","to_stop_name":"origin","to_stop_lat":"41.87194","to_stop_lon":"12.56738","to_stop_placename":"Italy","to_stop":{"id":"1591","name":"origin","lat":"41.87194","lon":"12.56738","placename":"Italy"},"from_stop":{"name":"origin","id":"4477","lat":"45.0705621","lon":"7.6866186","placename":"Turin, Italy"}}]}}},"processes":[],"eols":[]},{"oid":"3418","imid":"2576","linkid":"","weight":"80","rawemissions":"0","emissions":"0","shipping":"483.54","processemissions":null,"endoflifeemissions":null,"disposaltype":null,"disposalenergy":null,"disposalimpact":null,"disposalemissions":null,"description":"Stefano is Project Manager and SpagoBI Consultant. He has been working in the IT and Data Integration field for several years. Before joining SpagoWorld team, he worked on the customization of ERP packages in prominent companies of Industry, Telecommunications and Transportation sectors. He is currently working in BI and warehousing projects for the Italian Public sector, employing SpagoBI Platform, and he is teaching training courses on ETL and Data Warehouse.","name":"Stefano Modroni","id":"2576","stops":{"origin":{"related_to":"2576","part_or_object":"p","notes":"","placename":"Milan, Italy","id":4485,"name":"origin","lat":"45.4636889","lon":"9.1881408","hops":{"incoming":[],"outgoing":[{"transport_id":"17","id":"2225","transport_name":"None Selected","transport_description":null,"transport_unit":"kg km","transport_co2_eq":"0.000000","from_stop_id":"4485","from_stop_lat":"45.4636889","from_stop_lon":"9.1881408","from_stop_placename":"Milan, Italy","to_stop_id":"1591","to_stop_name":"origin","to_stop_lat":"41.87194","to_stop_lon":"12.56738","to_stop_placename":"Italy","to_stop":{"id":"1591","name":"origin","lat":"41.87194","lon":"12.56738","placename":"Italy"},"from_stop":{"name":"origin","id":"4485","lat":"45.4636889","lon":"9.1881408","placename":"Milan, Italy"}}]}}},"processes":[],"eols":[]},{"oid":"3418","imid":"2577","linkid":"","weight":"65","rawemissions":"0","emissions":"0","shipping":"531.1","processemissions":null,"endoflifeemissions":null,"disposaltype":null,"disposalenergy":null,"disposalimpact":null,"disposalemissions":null,"description":"Grazia, the SpagoBI Project Leader, is a Senior Consultant and Business Intelligence Analyst at Engineering Ingegneria Informatica. With many years of experience in enterprise application development, data modelling, data warehousing, dimensional analysis and business intelligence, she has gained valuable expertise working in several market sectors (industry, finance, public administration), covering several thematic areas (ERP, MRP, MPS, Enterprise Portals, CRM, DWH and BI). She is currently working on designing SpagoBI evolutionary steps and in supporting the start-up of SpagoBI projects for enterprises. ","name":"Grazia Cazzin","id":"2577","stops":{"origin":{"related_to":"2577","part_or_object":"p","notes":"","placename":"Turin, Italy","id":4489,"name":"origin","lat":"45.0705621","lon":"7.6866186","hops":{"incoming":[],"outgoing":[{"transport_id":"17","id":"2229","transport_name":"None Selected","transport_description":null,"transport_unit":"kg km","transport_co2_eq":"0.000000","from_stop_id":"4489","from_stop_lat":"45.0705621","from_stop_lon":"7.6866186","from_stop_placename":"Turin, Italy","to_stop_id":"1591","to_stop_name":"origin","to_stop_lat":"41.87194","to_stop_lon":"12.56738","to_stop_placename":"Italy","to_stop":{"id":"1591","name":"origin","lat":"41.87194","lon":"12.56738","placename":"Italy"},"from_stop":{"name":"origin","id":"4489","lat":"45.0705621","lon":"7.6866186","placename":"Turin, Italy"}}]}}},"processes":[],"eols":[]},{"oid":"3418","imid":"2583","linkid":"","weight":"80","rawemissions":"0","emissions":"0","shipping":"7.52","processemissions":null,"endoflifeemissions":null,"disposaltype":null,"disposalenergy":null,"disposalimpact":null,"disposalemissions":null,"description":"","name":"Marco Breda","id":"2583","stops":{"origin":{"related_to":"2583","part_or_object":"p","notes":"","placename":"Rome, Italy","id":4490,"name":"origin","lat":"41.8954656","lon":"12.4823243","hops":{"incoming":[],"outgoing":[{"transport_id":"17","id":"2230","transport_name":"None Selected","transport_description":null,"transport_unit":"kg km","transport_co2_eq":"0.000000","from_stop_id":"4490","from_stop_lat":"41.8954656","from_stop_lon":"12.4823243","from_stop_placename":"Rome, Italy","to_stop_id":"1591","to_stop_name":"origin","to_stop_lat":"41.87194","to_stop_lon":"12.56738","to_stop_placename":"Italy","to_stop":{"id":"1591","name":"origin","lat":"41.87194","lon":"12.56738","placename":"Italy"},"from_stop":{"name":"origin","id":"4490","lat":"41.8954656","lon":"12.4823243","placename":"Rome, Italy"}}]}}},"processes":[],"eols":[]},{"oid":"3418","imid":"2584","linkid":"","weight":"80","rawemissions":"0","emissions":"0","shipping":"483.54","processemissions":null,"endoflifeemissions":null,"disposaltype":null,"disposalenergy":null,"disposalimpact":null,"disposalemissions":null,"description":"Stefano Scamuzzo has long working experience in the IT field. Initially involved in European research projects on hypertext technology, he then undertook the technical management of complex projects in several technological areas such as document and workflow applications, web based applications, enterprise portals and business intelligence applications. He is presently Senior Technical Manager in the Research and Innovation Division of Engineering Ingegneria Informatica and member of the SpagoWorld Executive Board, mastering the domains of Service Oriented Architecture and Business Intelligence with a particular focus on open source solutions. He teaches training courses on Service Oriented Architecture at the Engineering Group ICT Training School in Italy. ","name":"Stefano Scamuzzo","id":"2584","stops":{"origin":{"related_to":"2584","part_or_object":"p","notes":"","placename":"Milan, Italy","id":4491,"name":"origin","lat":"45.4636889","lon":"9.1881408","hops":{"incoming":[],"outgoing":[{"transport_id":"17","id":"2231","transport_name":"None Selected","transport_description":null,"transport_unit":"kg km","transport_co2_eq":"0.000000","from_stop_id":"4491","from_stop_lat":"45.4636889","from_stop_lon":"9.1881408","from_stop_placename":"Milan, Italy","to_stop_id":"1591","to_stop_name":"origin","to_stop_lat":"41.87194","to_stop_lon":"12.56738","to_stop_placename":"Italy","to_stop":{"id":"1591","name":"origin","lat":"41.87194","lon":"12.56738","placename":"Italy"},"from_stop":{"name":"origin","id":"4491","lat":"45.4636889","lon":"9.1881408","placename":"Milan, Italy"}}]}}},"processes":[],"eols":[]},{"oid":"3418","imid":"2585","linkid":"","weight":"80","rawemissions":"0","emissions":"0","shipping":"397.71","processemissions":null,"endoflifeemissions":null,"disposaltype":null,"disposalenergy":null,"disposalimpact":null,"disposalemissions":null,"description":"Gabriele is Architectures & Consulting Director within the Research & Innovation Division of Engineering Ingegneria Informatica. He has held senior management positions at Engineering Ingegneria Informatica in project and product management, software process improvement & quality assurance and in architectural solutions definition. He contributed to the development of the corporate quality system and to the achievement of ISO 9001:2000 and CMMI certifications. He is active in project management activities and software engineering coordinating projects and communities within its company. He is a focus point for open source initiatives. In 2004 he started SpagoWorld initiative (www.spagoworld.org). He is currently member of the SpagoWorld Executive Board and of OW2 Board of Directors. From 2006 to 2008 he was also an Adjunct Professor for open source at the Department of Mathematics, Computer Science degree, University of Padua, Italy. ","name":"Gabriele Ruffatti","id":"2585","stops":{"origin":{"related_to":"2585","part_or_object":"p","notes":"","placename":"Padua PD, Italy","id":4492,"name":"origin","lat":"45.4095683","lon":"11.8765886","hops":{"incoming":[],"outgoing":[{"transport_id":"17","id":"2232","transport_name":"None Selected","transport_description":null,"transport_unit":"kg km","transport_co2_eq":"0.000000","from_stop_id":"4492","from_stop_lat":"45.4095683","from_stop_lon":"11.8765886","from_stop_placename":"Padua PD, Italy","to_stop_id":"1591","to_stop_name":"origin","to_stop_lat":"41.87194","to_stop_lon":"12.56738","to_stop_placename":"Italy","to_stop":{"id":"1591","name":"origin","lat":"41.87194","lon":"12.56738","placename":"Italy"},"from_stop":{"name":"origin","id":"4492","lat":"45.4095683","lon":"11.8765886","placename":"Padua PD, Italy"}}]}}},"processes":[],"eols":[]},{"oid":"3418","imid":"2586","linkid":"","weight":"60","rawemissions":"0","emissions":"0","shipping":"397.71","processemissions":null,"endoflifeemissions":null,"disposaltype":null,"disposalenergy":null,"disposalimpact":null,"disposalemissions":null,"description":"Adelina is in charge of SpagoWorld communications and deals with the open source marketing activities of the Research & Innovation Division. Furthermore, she supports the management activities related to the European Research Projects within Engineering Ingegneria Informatica. She has an arts degree and within the last years she has gained organizational and communication skills. ","name":"Adelina Sperlea","id":"2586","stops":{"origin":{"related_to":"2586","part_or_object":"p","notes":"","placename":"Padua PD, Italy","id":4493,"name":"origin","lat":"45.4095683","lon":"11.8765886","hops":{"incoming":[],"outgoing":[{"transport_id":"17","id":"2233","transport_name":"None Selected","transport_description":null,"transport_unit":"kg km","transport_co2_eq":"0.000000","from_stop_id":"4493","from_stop_lat":"45.4095683","from_stop_lon":"11.8765886","from_stop_placename":"Padua PD, Italy","to_stop_id":"1591","to_stop_name":"origin","to_stop_lat":"41.87194","to_stop_lon":"12.56738","to_stop_placename":"Italy","to_stop":{"id":"1591","name":"origin","lat":"41.87194","lon":"12.56738","placename":"Italy"},"from_stop":{"name":"origin","id":"4493","lat":"45.4095683","lon":"11.8765886","placename":"Padua PD, Italy"}}]}}},"processes":[],"eols":[]},{"oid":"3418","imid":"2587","linkid":"","weight":"60","rawemissions":"0","emissions":"0","shipping":"397.71","processemissions":null,"endoflifeemissions":null,"disposaltype":null,"disposalenergy":null,"disposalimpact":null,"disposalemissions":null,"description":"Cristina is in charge of the Spagoworld Communications and Open Source Marketing activities within the Research & Innovation Division at Engineering. Italian and French native speaker, she has a full mark degree in Foreign Languages and Literatures. With strong English and German knowledge, she has experience in the organizational and translation field. ","name":"Cristina Klein","id":"2587","stops":{"origin":{"related_to":"2587","part_or_object":"p","notes":"","placename":"Padua PD, Italy","id":4494,"name":"origin","lat":"45.4095683","lon":"11.8765886","hops":{"incoming":[],"outgoing":[{"transport_id":"17","id":"2234","transport_name":"None Selected","transport_description":null,"transport_unit":"kg km","transport_co2_eq":"0.000000","from_stop_id":"4494","from_stop_lat":"45.4095683","from_stop_lon":"11.8765886","from_stop_placename":"Padua PD, Italy","to_stop_id":"1591","to_stop_name":"origin","to_stop_lat":"41.87194","to_stop_lon":"12.56738","to_stop_placename":"Italy","to_stop":{"id":"1591","name":"origin","lat":"41.87194","lon":"12.56738","placename":"Italy"},"from_stop":{"name":"origin","id":"4494","lat":"45.4095683","lon":"11.8765886","placename":"Padua PD, Italy"}}]}}},"processes":[],"eols":[]},{"oid":"3418","imid":"2588","linkid":"","weight":"65","rawemissions":"0","emissions":"0","shipping":"7.52","processemissions":null,"endoflifeemissions":null,"disposaltype":null,"disposalenergy":null,"disposalimpact":null,"disposalemissions":null,"description":"","name":"Antonella Urso","id":"2588","stops":{"origin":{"related_to":"2588","part_or_object":"p","notes":"","placename":"Rome, Italy","id":4495,"name":"origin","lat":"41.8954656","lon":"12.4823243","hops":{"incoming":[],"outgoing":[{"transport_id":"17","id":"2235","transport_name":"None Selected","transport_description":null,"transport_unit":"kg km","transport_co2_eq":"0.000000","from_stop_id":"4495","from_stop_lat":"41.8954656","from_stop_lon":"12.4823243","from_stop_placename":"Rome, Italy","to_stop_id":"1591","to_stop_name":"origin","to_stop_lat":"41.87194","to_stop_lon":"12.56738","to_stop_placename":"Italy","to_stop":{"id":"1591","name":"origin","lat":"41.87194","lon":"12.56738","placename":"Italy"},"from_stop":{"name":"origin","id":"4495","lat":"41.8954656","lon":"12.4823243","placename":"Rome, Italy"}}]}}},"processes":[],"eols":[]},{"oid":"3418","imid":"2589","linkid":"","weight":"80","rawemissions":"0","emissions":"0","shipping":"423.59","processemissions":null,"endoflifeemissions":null,"disposaltype":null,"disposalenergy":null,"disposalimpact":null,"disposalemissions":null,"description":"","name":"Vittorio Pettonati","id":"2589","stops":{"origin":{"related_to":"2589","part_or_object":"p","notes":"","placename":"Palermo, Italy","id":4496,"name":"origin","lat":"38.1156193","lon":"13.3613758","hops":{"incoming":[],"outgoing":[{"transport_id":"17","id":"2236","transport_name":"None Selected","transport_description":null,"transport_unit":"kg km","transport_co2_eq":"0.000000","from_stop_id":"4496","from_stop_lat":"38.1156193","from_stop_lon":"13.3613758","from_stop_placename":"Palermo, Italy","to_stop_id":"1591","to_stop_name":"origin","to_stop_lat":"41.87194","to_stop_lon":"12.56738","to_stop_placename":"Italy","to_stop":{"id":"1591","name":"origin","lat":"41.87194","lon":"12.56738","placename":"Italy"},"from_stop":{"name":"origin","id":"4496","lat":"38.1156193","lon":"13.3613758","placename":"Palermo, Italy"}}]}}},"processes":[],"eols":[]},{"oid":"3418","imid":"3668","linkid":"","weight":"80","rawemissions":"0","emissions":"0","shipping":"397.71","processemissions":"0","endoflifeemissions":"0","disposaltype":null,"disposalenergy":null,"disposalimpact":null,"disposalemissions":null,"description":"Alberto obtained his Computer Science master?s degree at the University of Udine, Italy. His graduation thesis was focused on an important research project at the New Mexico State University, on autonomous agents, knowledge representation and reasoning.\nBefore joining SpagoBI project team, he worked for some years within Engineering Group, acquiring specific knowledge in the field of software security.","name":"Alberto Ghedin","id":"3668","stops":{"origin":{"related_to":"3668","part_or_object":"p","notes":"","placename":"Padova PD, Italia","id":5637,"name":"origin","lat":"45.4095683","lon":"11.8765886","hops":{"incoming":[],"outgoing":[{"transport_id":"17","id":"3377","transport_name":"None Selected","transport_description":null,"transport_unit":"kg km","transport_co2_eq":"0.000000","from_stop_id":"5637","from_stop_lat":"45.4095683","from_stop_lon":"11.8765886","from_stop_placename":"Padova PD, Italia","to_stop_id":"1591","to_stop_name":"origin","to_stop_lat":"41.87194","to_stop_lon":"12.56738","to_stop_placename":"Italy","to_stop":{"id":"1591","name":"origin","lat":"41.87194","lon":"12.56738","placename":"Italy"},"from_stop":{"name":"origin","id":"5637","lat":"45.4095683","lon":"11.8765886","placename":"Padova PD, Italia"}}]}}},"processes":[],"eols":[]},{"oid":"3418","imid":"3669","linkid":"","weight":"80","rawemissions":"0","emissions":"0","shipping":"483.54","processemissions":"0","endoflifeemissions":"0","disposaltype":null,"disposalenergy":null,"disposalimpact":null,"disposalemissions":null,"description":"Monia has obtained her Computer Science masters degree at the University of Milan, Italy. Before joining SpagoBI team, she had been working for many years on software development applications in different domains, such as the public administration. She has consolidated experience in designing and developing Java Enterprise architectures, Web Services and frameworks. She has worked in the field of CRM, ERP, web site development as well as documents dematerialisation and digitization.\nAt present, she contributes to the development of SpagoBI platform.","name":"Monia Spinelli","id":"3669","stops":{"origin":{"related_to":"3669","part_or_object":"p","notes":"","placename":"Milano, Italia","id":5638,"name":"origin","lat":"45.4636889","lon":"9.1881408","hops":{"incoming":[],"outgoing":[{"transport_id":"17","id":"3378","transport_name":"None Selected","transport_description":null,"transport_unit":"kg km","transport_co2_eq":"0.000000","from_stop_id":"5638","from_stop_lat":"45.4636889","from_stop_lon":"9.1881408","from_stop_placename":"Milano, Italia","to_stop_id":"1591","to_stop_name":"origin","to_stop_lat":"41.87194","to_stop_lon":"12.56738","to_stop_placename":"Italy","to_stop":{"id":"1591","name":"origin","lat":"41.87194","lon":"12.56738","placename":"Italy"},"from_stop":{"name":"origin","id":"5638","lat":"45.4636889","lon":"9.1881408","placename":"Milano, Italia"}}]}}},"processes":[],"eols":[]}],"user":{"name":"angioia","id":"9341"}}}