{"3429":{"oid":"3429","type":"object","flag":"","creator":"9044","name":"US's Top Importers","upc":"","imagelink":"","description":"http:\/\/www.census.gov\/foreign-trade\/statistics\/highlights\/top\/top0912yr.html","slug":"uss-top-importers","category":"","weight":"0","emissions":"0","embodied":"0","transport":"0","process":"0","endoflife":"0","shipping":"131676.98","lifetime":null,"usagetype":"","usageenergy":null,"usageemissions":null,"timecreated":"2010-03-23 21:58:24.256424","timemodified":"2010-03-24 02:48:33","visibility":"public","showfootprint":"on","showembodied":"on","showtransport":"on","showprocess":"on","showendoflife":"on","showlastleg":"on","showuse":"on","showstats":"on","stops":{"origin":{"related_to":"3429","part_or_object":"o","notes":"","placename":"United States","id":"1174","category":"1","lat":"37.09024","lon":"-95.712891","name":"origin","hops":{"incoming":[{"transport_id":"17","id":"2239","transport_name":"None Selected","transport_description":null,"transport_unit":"kg km","transport_co2_eq":"0.000000","from_stop_id":"4499","from_stop_lat":"56.130366","from_stop_lon":"-106.346771","to_stop_id":"1174","to_stop_name":"origin","to_stop_lat":"37.09024","placename":"Canada","to_stop_lon":"-95.712891","to_stop":{"id":"1174","name":"origin","lat":"37.09024","placename":"United States","lon":"-95.712891"},"from_stop":{"name":"origin","id":"4499","lat":"56.130366","lon":"-106.346771","placename":"Canada"}},{"transport_id":"17","id":"2240","transport_name":"None Selected","transport_description":null,"transport_unit":"kg km","transport_co2_eq":"0.000000","from_stop_id":"4500","from_stop_lat":"23.634501","from_stop_lon":"-102.552784","to_stop_id":"1174","to_stop_name":"origin","to_stop_lat":"37.09024","placename":"Mexico","to_stop_lon":"-95.712891","to_stop":{"id":"1174","name":"origin","lat":"37.09024","placename":"United States","lon":"-95.712891"},"from_stop":{"name":"origin","id":"4500","lat":"23.634501","lon":"-102.552784","placename":"Mexico"}},{"transport_id":"17","id":"2241","transport_name":"None Selected","transport_description":null,"transport_unit":"kg km","transport_co2_eq":"0.000000","from_stop_id":"4501","from_stop_lat":"36.204824","from_stop_lon":"138.252924","to_stop_id":"1174","to_stop_name":"origin","to_stop_lat":"37.09024","placename":"Japan","to_stop_lon":"-95.712891","to_stop":{"id":"1174","name":"origin","lat":"37.09024","placename":"United States","lon":"-95.712891"},"from_stop":{"name":"origin","id":"4501","lat":"36.204824","lon":"138.252924","placename":"Japan"}},{"transport_id":"17","id":"2242","transport_name":"None Selected","transport_description":null,"transport_unit":"kg km","transport_co2_eq":"0.000000","from_stop_id":"4502","from_stop_lat":"51.165691","from_stop_lon":"10.451526","to_stop_id":"1174","to_stop_name":"origin","to_stop_lat":"37.09024","placename":"Germany","to_stop_lon":"-95.712891","to_stop":{"id":"1174","name":"origin","lat":"37.09024","placename":"United States","lon":"-95.712891"},"from_stop":{"name":"origin","id":"4502","lat":"51.165691","lon":"10.451526","placename":"Germany"}},{"transport_id":"17","id":"2243","transport_name":"None Selected","transport_description":null,"transport_unit":"kg km","transport_co2_eq":"0.000000","from_stop_id":"4503","from_stop_lat":"55.378051","from_stop_lon":"-3.435973","to_stop_id":"1174","to_stop_name":"origin","to_stop_lat":"37.09024","placename":"United Kingdom","to_stop_lon":"-95.712891","to_stop":{"id":"1174","name":"origin","lat":"37.09024","placename":"United States","lon":"-95.712891"},"from_stop":{"name":"origin","id":"4503","lat":"55.378051","lon":"-3.435973","placename":"United Kingdom"}},{"transport_id":"17","id":"2244","transport_name":"None Selected","transport_description":null,"transport_unit":"kg km","transport_co2_eq":"0.000000","from_stop_id":"4504","from_stop_lat":"35.907757","from_stop_lon":"127.766922","to_stop_id":"1174","to_stop_name":"origin","to_stop_lat":"37.09024","placename":"South Korea","to_stop_lon":"-95.712891","to_stop":{"id":"1174","name":"origin","lat":"37.09024","placename":"United States","lon":"-95.712891"},"from_stop":{"name":"origin","id":"4504","lat":"35.907757","lon":"127.766922","placename":"South Korea"}},{"transport_id":"17","id":"2245","transport_name":"None Selected","transport_description":null,"transport_unit":"kg km","transport_co2_eq":"0.000000","from_stop_id":"4505","from_stop_lat":"46.227638","from_stop_lon":"2.213749","to_stop_id":"1174","to_stop_name":"origin","to_stop_lat":"37.09024","placename":"France","to_stop_lon":"-95.712891","to_stop":{"id":"1174","name":"origin","lat":"37.09024","placename":"United States","lon":"-95.712891"},"from_stop":{"name":"origin","id":"4505","lat":"46.227638","lon":"2.213749","placename":"France"}},{"transport_id":"17","id":"2246","transport_name":"None Selected","transport_description":null,"transport_unit":"kg km","transport_co2_eq":"0.000000","from_stop_id":"4506","from_stop_lat":"23.69781","from_stop_lon":"120.960515","to_stop_id":"1174","to_stop_name":"origin","to_stop_lat":"37.09024","placename":"Taiwan","to_stop_lon":"-95.712891","to_stop":{"id":"1174","name":"origin","lat":"37.09024","placename":"United States","lon":"-95.712891"},"from_stop":{"name":"origin","id":"4506","lat":"23.69781","lon":"120.960515","placename":"Taiwan"}},{"transport_id":"17","id":"2247","transport_name":"None Selected","transport_description":null,"transport_unit":"kg km","transport_co2_eq":"0.000000","from_stop_id":"4507","from_stop_lat":"6.42375","from_stop_lon":"-66.58973","to_stop_id":"1174","to_stop_name":"origin","to_stop_lat":"37.09024","placename":"Venezuela","to_stop_lon":"-95.712891","to_stop":{"id":"1174","name":"origin","lat":"37.09024","placename":"United States","lon":"-95.712891"},"from_stop":{"name":"origin","id":"4507","lat":"6.42375","lon":"-66.58973","placename":"Venezuela"}},{"transport_id":"17","id":"2248","transport_name":"None Selected","transport_description":null,"transport_unit":"kg km","transport_co2_eq":"0.000000","from_stop_id":"4508","from_stop_lat":"53.41291","from_stop_lon":"-8.24389","to_stop_id":"1174","to_stop_name":"origin","to_stop_lat":"37.09024","placename":"Ireland","to_stop_lon":"-95.712891","to_stop":{"id":"1174","name":"origin","lat":"37.09024","placename":"United States","lon":"-95.712891"},"from_stop":{"name":"origin","id":"4508","lat":"53.41291","lon":"-8.24389","placename":"Ireland"}},{"transport_id":"17","id":"2249","transport_name":"None Selected","transport_description":null,"transport_unit":"kg km","transport_co2_eq":"0.000000","from_stop_id":"4509","from_stop_lat":"41.87194","from_stop_lon":"12.56738","to_stop_id":"1174","to_stop_name":"origin","to_stop_lat":"37.09024","placename":"Italy","to_stop_lon":"-95.712891","to_stop":{"id":"1174","name":"origin","lat":"37.09024","placename":"United States","lon":"-95.712891"},"from_stop":{"name":"origin","id":"4509","lat":"41.87194","lon":"12.56738","placename":"Italy"}},{"transport_id":"17","id":"2250","transport_name":"None Selected","transport_description":null,"transport_unit":"kg km","transport_co2_eq":"0.000000","from_stop_id":"4510","from_stop_lat":"4.210484","from_stop_lon":"101.975766","to_stop_id":"1174","to_stop_name":"origin","to_stop_lat":"37.09024","placename":"Malaysia","to_stop_lon":"-95.712891","to_stop":{"id":"1174","name":"origin","lat":"37.09024","placename":"United States","lon":"-95.712891"},"from_stop":{"name":"origin","id":"4510","lat":"4.210484","lon":"101.975766","placename":"Malaysia"}},{"transport_id":"17","id":"2251","transport_name":"None Selected","transport_description":null,"transport_unit":"kg km","transport_co2_eq":"0.000000","from_stop_id":"4511","from_stop_lat":"23.885942","from_stop_lon":"45.079162","to_stop_id":"1174","to_stop_name":"origin","to_stop_lat":"37.09024","placename":"Saudi Arabia","to_stop_lon":"-95.712891","to_stop":{"id":"1174","name":"origin","lat":"37.09024","placename":"United States","lon":"-95.712891"},"from_stop":{"name":"origin","id":"4511","lat":"23.885942","lon":"45.079162","placename":"Saudi Arabia"}},{"transport_id":"17","id":"2252","transport_name":"None Selected","transport_description":null,"transport_unit":"kg km","transport_co2_eq":"0.000000","from_stop_id":"4512","from_stop_lat":"20.593684","from_stop_lon":"78.96288","to_stop_id":"1174","to_stop_name":"origin","to_stop_lat":"37.09024","placename":"India","to_stop_lon":"-95.712891","to_stop":{"id":"1174","name":"origin","lat":"37.09024","placename":"United States","lon":"-95.712891"},"from_stop":{"name":"origin","id":"4512","lat":"20.593684","lon":"78.96288","placename":"India"}},{"transport_id":"17","id":"2280","transport_name":"None Selected","transport_description":null,"transport_unit":"kg km","transport_co2_eq":"0.000000","from_stop_id":"4540","from_stop_lat":"35.86166","from_stop_lon":"104.195397","to_stop_id":"1174","to_stop_name":"origin","to_stop_lat":"37.09024","placename":"China","to_stop_lon":"-95.712891","to_stop":{"id":"1174","name":"origin","lat":"37.09024","placename":"United States","lon":"-95.712891"},"from_stop":{"name":"origin","id":"4540","lat":"35.86166","lon":"104.195397","placename":"China"}}],"outgoing":[]}}},"parts":[{"oid":"3429","imid":"2591","linkid":"","weight":"0","rawemissions":"21.1","emissions":"0","shipping":"2264.07","processemissions":null,"endoflifeemissions":null,"disposaltype":null,"disposalenergy":null,"disposalimpact":null,"disposalemissions":null,"description":"","name":"224.9 Billion Dollars","id":"2591","stops":{"origin":{"related_to":"2591","part_or_object":"p","notes":"","placename":"Canada","id":4499,"name":"origin","lat":"56.130366","lon":"-106.346771","hops":{"incoming":[],"outgoing":[{"transport_id":"17","id":"2239","transport_name":"None Selected","transport_description":null,"transport_unit":"kg km","transport_co2_eq":"0.000000","from_stop_id":"4499","from_stop_lat":"56.130366","from_stop_lon":"-106.346771","from_stop_placename":"Canada","to_stop_id":"1174","to_stop_name":"origin","to_stop_lat":"37.09024","to_stop_lon":"-95.712891","to_stop_placename":"United States","to_stop":{"id":"1174","name":"origin","lat":"37.09024","lon":"-95.712891","placename":"United States"},"from_stop":{"name":"origin","id":"4499","lat":"56.130366","lon":"-106.346771","placename":"Canada"}}]}}},"processes":[],"eols":[]},{"oid":"3429","imid":"2592","linkid":"","weight":"0","rawemissions":"16.1","emissions":"0","shipping":"1634.36","processemissions":null,"endoflifeemissions":null,"disposaltype":null,"disposalenergy":null,"disposalimpact":null,"disposalemissions":null,"description":"","name":"176.5 Billion Dollars","id":"2592","stops":{"origin":{"related_to":"2592","part_or_object":"p","notes":"","placename":"Mexico","id":4500,"name":"origin","lat":"23.634501","lon":"-102.552784","hops":{"incoming":[],"outgoing":[{"transport_id":"17","id":"2240","transport_name":"None Selected","transport_description":null,"transport_unit":"kg km","transport_co2_eq":"0.000000","from_stop_id":"4500","from_stop_lat":"23.634501","from_stop_lon":"-102.552784","from_stop_placename":"Mexico","to_stop_id":"1174","to_stop_name":"origin","to_stop_lat":"37.09024","to_stop_lon":"-95.712891","to_stop_placename":"United States","to_stop":{"id":"1174","name":"origin","lat":"37.09024","lon":"-95.712891","placename":"United States"},"from_stop":{"name":"origin","id":"4500","lat":"23.634501","lon":"-102.552784","placename":"Mexico"}}]}}},"processes":[],"eols":[]},{"oid":"3429","imid":"2593","linkid":"","weight":"0","rawemissions":"8.2","emissions":"0","shipping":"10161.81","processemissions":null,"endoflifeemissions":null,"disposaltype":null,"disposalenergy":null,"disposalimpact":null,"disposalemissions":null,"description":"","name":"95.9 Billion Dollars","id":"2593","stops":{"origin":{"related_to":"2593","part_or_object":"p","notes":"","placename":"Japan","id":4501,"name":"origin","lat":"36.204824","lon":"138.252924","hops":{"incoming":[],"outgoing":[{"transport_id":"17","id":"2241","transport_name":"None Selected","transport_description":null,"transport_unit":"kg km","transport_co2_eq":"0.000000","from_stop_id":"4501","from_stop_lat":"36.204824","from_stop_lon":"138.252924","from_stop_placename":"Japan","to_stop_id":"1174","to_stop_name":"origin","to_stop_lat":"37.09024","to_stop_lon":"-95.712891","to_stop_placename":"United States","to_stop":{"id":"1174","name":"origin","lat":"37.09024","lon":"-95.712891","placename":"United States"},"from_stop":{"name":"origin","id":"4501","lat":"36.204824","lon":"138.252924","placename":"Japan"}}]}}},"processes":[],"eols":[]},{"oid":"3429","imid":"2594","linkid":"","weight":"0","rawemissions":"5","emissions":"0","shipping":"7870.28","processemissions":null,"endoflifeemissions":null,"disposaltype":null,"disposalenergy":null,"disposalimpact":null,"disposalemissions":null,"description":"","name":"71.3 Billion Dollars","id":"2594","stops":{"origin":{"related_to":"2594","part_or_object":"p","notes":"","placename":"Germany","id":4502,"name":"origin","lat":"51.165691","lon":"10.451526","hops":{"incoming":[],"outgoing":[{"transport_id":"17","id":"2242","transport_name":"None Selected","transport_description":null,"transport_unit":"kg km","transport_co2_eq":"0.000000","from_stop_id":"4502","from_stop_lat":"51.165691","from_stop_lon":"10.451526","from_stop_placename":"Germany","to_stop_id":"1174","to_stop_name":"origin","to_stop_lat":"37.09024","to_stop_lon":"-95.712891","to_stop_placename":"United States","to_stop":{"id":"1174","name":"origin","lat":"37.09024","lon":"-95.712891","placename":"United States"},"from_stop":{"name":"origin","id":"4502","lat":"51.165691","lon":"10.451526","placename":"Germany"}}]}}},"processes":[],"eols":[]},{"oid":"3429","imid":"2595","linkid":"","weight":"0","rawemissions":"0","emissions":"0","shipping":"6838.06","processemissions":null,"endoflifeemissions":null,"disposaltype":null,"disposalenergy":null,"disposalimpact":null,"disposalemissions":null,"description":"","name":"47.5 Billion Dollars","id":"2595","stops":{"origin":{"related_to":"2595","part_or_object":"p","notes":"","placename":"United Kingdom","id":4503,"name":"origin","lat":"55.378051","lon":"-3.435973","hops":{"incoming":[],"outgoing":[{"transport_id":"17","id":"2243","transport_name":"None Selected","transport_description":null,"transport_unit":"kg km","transport_co2_eq":"0.000000","from_stop_id":"4503","from_stop_lat":"55.378051","from_stop_lon":"-3.435973","from_stop_placename":"United Kingdom","to_stop_id":"1174","to_stop_name":"origin","to_stop_lat":"37.09024","to_stop_lon":"-95.712891","to_stop_placename":"United States","to_stop":{"id":"1174","name":"origin","lat":"37.09024","lon":"-95.712891","placename":"United States"},"from_stop":{"name":"origin","id":"4503","lat":"55.378051","lon":"-3.435973","placename":"United Kingdom"}}]}}},"processes":[],"eols":[]},{"oid":"3429","imid":"2596","linkid":"","weight":"0","rawemissions":"3.1","emissions":"0","shipping":"10754.68","processemissions":null,"endoflifeemissions":null,"disposaltype":null,"disposalenergy":null,"disposalimpact":null,"disposalemissions":null,"description":"","name":"39.2 Billion Dollars","id":"2596","stops":{"origin":{"related_to":"2596","part_or_object":"p","notes":"","placename":"South Korea","id":4504,"name":"origin","lat":"35.907757","lon":"127.766922","hops":{"incoming":[],"outgoing":[{"transport_id":"17","id":"2244","transport_name":"None Selected","transport_description":null,"transport_unit":"kg km","transport_co2_eq":"0.000000","from_stop_id":"4504","from_stop_lat":"35.907757","from_stop_lon":"127.766922","from_stop_placename":"South Korea","to_stop_id":"1174","to_stop_name":"origin","to_stop_lat":"37.09024","to_stop_lon":"-95.712891","to_stop_placename":"United States","to_stop":{"id":"1174","name":"origin","lat":"37.09024","lon":"-95.712891","placename":"United States"},"from_stop":{"name":"origin","id":"4504","lat":"35.907757","lon":"127.766922","placename":"South Korea"}}]}}},"processes":[],"eols":[]},{"oid":"3429","imid":"2597","linkid":"","weight":"0","rawemissions":"2.8","emissions":"0","shipping":"7674.17","processemissions":null,"endoflifeemissions":null,"disposaltype":null,"disposalenergy":null,"disposalimpact":null,"disposalemissions":null,"description":"","name":"34 Billion Dollars","id":"2597","stops":{"origin":{"related_to":"2597","part_or_object":"p","notes":"","placename":"France","id":4505,"name":"origin","lat":"46.227638","lon":"2.213749","hops":{"incoming":[],"outgoing":[{"transport_id":"17","id":"2245","transport_name":"None Selected","transport_description":null,"transport_unit":"kg km","transport_co2_eq":"0.000000","from_stop_id":"4505","from_stop_lat":"46.227638","from_stop_lon":"2.213749","from_stop_placename":"France","to_stop_id":"1174","to_stop_name":"origin","to_stop_lat":"37.09024","to_stop_lon":"-95.712891","to_stop_placename":"United States","to_stop":{"id":"1174","name":"origin","lat":"37.09024","lon":"-95.712891","placename":"United States"},"from_stop":{"name":"origin","id":"4505","lat":"46.227638","lon":"2.213749","placename":"France"}}]}}},"processes":[],"eols":[]},{"oid":"3429","imid":"2598","linkid":"","weight":"0","rawemissions":"2.6","emissions":"0","shipping":"12254.9","processemissions":null,"endoflifeemissions":null,"disposaltype":null,"disposalenergy":null,"disposalimpact":null,"disposalemissions":null,"description":"","name":"28.4 Billion Dollars","id":"2598","stops":{"origin":{"related_to":"2598","part_or_object":"p","notes":"","placename":"Taiwan","id":4506,"name":"origin","lat":"23.69781","lon":"120.960515","hops":{"incoming":[],"outgoing":[{"transport_id":"17","id":"2246","transport_name":"None Selected","transport_description":null,"transport_unit":"kg km","transport_co2_eq":"0.000000","from_stop_id":"4506","from_stop_lat":"23.69781","from_stop_lon":"120.960515","from_stop_placename":"Taiwan","to_stop_id":"1174","to_stop_name":"origin","to_stop_lat":"37.09024","to_stop_lon":"-95.712891","to_stop_placename":"United States","to_stop":{"id":"1174","name":"origin","lat":"37.09024","lon":"-95.712891","placename":"United States"},"from_stop":{"name":"origin","id":"4506","lat":"23.69781","lon":"120.960515","placename":"Taiwan"}}]}}},"processes":[],"eols":[]},{"oid":"3429","imid":"2599","linkid":"","weight":"0","rawemissions":"1.9","emissions":"0","shipping":"4513.05","processemissions":null,"endoflifeemissions":null,"disposaltype":null,"disposalenergy":null,"disposalimpact":null,"disposalemissions":null,"description":"","name":"28.1 Billion Dollars","id":"2599","stops":{"origin":{"related_to":"2599","part_or_object":"p","notes":"","placename":"Venezuela","id":4507,"name":"origin","lat":"6.42375","lon":"-66.58973","hops":{"incoming":[],"outgoing":[{"transport_id":"17","id":"2247","transport_name":"None Selected","transport_description":null,"transport_unit":"kg km","transport_co2_eq":"0.000000","from_stop_id":"4507","from_stop_lat":"6.42375","from_stop_lon":"-66.58973","from_stop_placename":"Venezuela","to_stop_id":"1174","to_stop_name":"origin","to_stop_lat":"37.09024","to_stop_lon":"-95.712891","to_stop_placename":"United States","to_stop":{"id":"1174","name":"origin","lat":"37.09024","lon":"-95.712891","placename":"United States"},"from_stop":{"name":"origin","id":"4507","lat":"6.42375","lon":"-66.58973","placename":"Venezuela"}}]}}},"processes":[],"eols":[]},{"oid":"3429","imid":"2600","linkid":"","weight":"0","rawemissions":"2.3","emissions":"0","shipping":"6640.55","processemissions":null,"endoflifeemissions":null,"disposaltype":null,"disposalenergy":null,"disposalimpact":null,"disposalemissions":null,"description":"","name":"28.1 Billion Dollars","id":"2600","stops":{"origin":{"related_to":"2600","part_or_object":"p","notes":"","placename":"Ireland","id":4508,"name":"origin","lat":"53.41291","lon":"-8.24389","hops":{"incoming":[],"outgoing":[{"transport_id":"17","id":"2248","transport_name":"None Selected","transport_description":null,"transport_unit":"kg km","transport_co2_eq":"0.000000","from_stop_id":"4508","from_stop_lat":"53.41291","from_stop_lon":"-8.24389","from_stop_placename":"Ireland","to_stop_id":"1174","to_stop_name":"origin","to_stop_lat":"37.09024","to_stop_lon":"-95.712891","to_stop_placename":"United States","to_stop":{"id":"1174","name":"origin","lat":"37.09024","lon":"-95.712891","placename":"United States"},"from_stop":{"name":"origin","id":"4508","lat":"53.41291","lon":"-8.24389","placename":"Ireland"}}]}}},"processes":[],"eols":[]},{"oid":"3429","imid":"2601","linkid":"","weight":"0","rawemissions":"2.2","emissions":"0","shipping":"8628.71","processemissions":null,"endoflifeemissions":null,"disposaltype":null,"disposalenergy":null,"disposalimpact":null,"disposalemissions":null,"description":"","name":"26.4 Billion Dollars","id":"2601","stops":{"origin":{"related_to":"2601","part_or_object":"p","notes":"","placename":"Italy","id":4509,"name":"origin","lat":"41.87194","lon":"12.56738","hops":{"incoming":[],"outgoing":[{"transport_id":"17","id":"2249","transport_name":"None Selected","transport_description":null,"transport_unit":"kg km","transport_co2_eq":"0.000000","from_stop_id":"4509","from_stop_lat":"41.87194","from_stop_lon":"12.56738","from_stop_placename":"Italy","to_stop_id":"1174","to_stop_name":"origin","to_stop_lat":"37.09024","to_stop_lon":"-95.712891","to_stop_placename":"United States","to_stop":{"id":"1174","name":"origin","lat":"37.09024","lon":"-95.712891","placename":"United States"},"from_stop":{"name":"origin","id":"4509","lat":"41.87194","lon":"12.56738","placename":"Italy"}}]}}},"processes":[],"eols":[]},{"oid":"3429","imid":"2602","linkid":"","weight":"0","rawemissions":"2.1","emissions":"0","shipping":"15087.38","processemissions":null,"endoflifeemissions":null,"disposaltype":null,"disposalenergy":null,"disposalimpact":null,"disposalemissions":null,"description":"","name":"23.3 Billion Dollars","id":"2602","stops":{"origin":{"related_to":"2602","part_or_object":"p","notes":"","placename":"Malaysia","id":4510,"name":"origin","lat":"4.210484","lon":"101.975766","hops":{"incoming":[],"outgoing":[{"transport_id":"17","id":"2250","transport_name":"None Selected","transport_description":null,"transport_unit":"kg km","transport_co2_eq":"0.000000","from_stop_id":"4510","from_stop_lat":"4.210484","from_stop_lon":"101.975766","from_stop_placename":"Malaysia","to_stop_id":"1174","to_stop_name":"origin","to_stop_lat":"37.09024","to_stop_lon":"-95.712891","to_stop_placename":"United States","to_stop":{"id":"1174","name":"origin","lat":"37.09024","lon":"-95.712891","placename":"United States"},"from_stop":{"name":"origin","id":"4510","lat":"4.210484","lon":"101.975766","placename":"Malaysia"}}]}}},"processes":[],"eols":[]},{"oid":"3429","imid":"2603","linkid":"","weight":"0","rawemissions":"2.1","emissions":"0","shipping":"12102.77","processemissions":null,"endoflifeemissions":null,"disposaltype":null,"disposalenergy":null,"disposalimpact":null,"disposalemissions":null,"description":"","name":"22 Billion Dollars","id":"2603","stops":{"origin":{"related_to":"2603","part_or_object":"p","notes":"","placename":"Saudi Arabia","id":4511,"name":"origin","lat":"23.885942","lon":"45.079162","hops":{"incoming":[],"outgoing":[{"transport_id":"17","id":"2251","transport_name":"None Selected","transport_description":null,"transport_unit":"kg km","transport_co2_eq":"0.000000","from_stop_id":"4511","from_stop_lat":"23.885942","from_stop_lon":"45.079162","from_stop_placename":"Saudi Arabia","to_stop_id":"1174","to_stop_name":"origin","to_stop_lat":"37.09024","to_stop_lon":"-95.712891","to_stop_placename":"United States","to_stop":{"id":"1174","name":"origin","lat":"37.09024","lon":"-95.712891","placename":"United States"},"from_stop":{"name":"origin","id":"4511","lat":"23.885942","lon":"45.079162","placename":"Saudi Arabia"}}]}}},"processes":[],"eols":[]},{"oid":"3429","imid":"2604","linkid":"","weight":"0","rawemissions":"2.1","emissions":"0","shipping":"13591.88","processemissions":null,"endoflifeemissions":null,"disposaltype":null,"disposalenergy":null,"disposalimpact":null,"disposalemissions":null,"description":"","name":"21.2 Billion Dollars","id":"2604","stops":{"origin":{"related_to":"2604","part_or_object":"p","notes":"","placename":"India","id":4512,"name":"origin","lat":"20.593684","lon":"78.96288","hops":{"incoming":[],"outgoing":[{"transport_id":"17","id":"2252","transport_name":"None Selected","transport_description":null,"transport_unit":"kg km","transport_co2_eq":"0.000000","from_stop_id":"4512","from_stop_lat":"20.593684","from_stop_lon":"78.96288","from_stop_placename":"India","to_stop_id":"1174","to_stop_name":"origin","to_stop_lat":"37.09024","to_stop_lon":"-95.712891","to_stop_placename":"United States","to_stop":{"id":"1174","name":"origin","lat":"37.09024","lon":"-95.712891","placename":"United States"},"from_stop":{"name":"origin","id":"4512","lat":"20.593684","lon":"78.96288","placename":"India"}}]}}},"processes":[],"eols":[]},{"oid":"3429","imid":"2590","linkid":"","weight":"0","rawemissions":"25.2","emissions":"0","shipping":"11660.31","processemissions":null,"endoflifeemissions":null,"disposaltype":null,"disposalenergy":null,"disposalimpact":null,"disposalemissions":null,"description":"","name":"296.4 Billion Dollars","id":"2590","stops":{"origin":{"related_to":"2590","part_or_object":"p","notes":"","placename":"China","id":4540,"name":"origin","lat":"35.86166","lon":"104.195397","hops":{"incoming":[],"outgoing":[{"transport_id":"17","id":"2280","transport_name":"None Selected","transport_description":null,"transport_unit":"kg km","transport_co2_eq":"0.000000","from_stop_id":"4540","from_stop_lat":"35.86166","from_stop_lon":"104.195397","from_stop_placename":"China","to_stop_id":"1174","to_stop_name":"origin","to_stop_lat":"37.09024","to_stop_lon":"-95.712891","to_stop_placename":"United States","to_stop":{"id":"1174","name":"origin","lat":"37.09024","lon":"-95.712891","placename":"United States"},"from_stop":{"name":"origin","id":"4540","lat":"35.86166","lon":"104.195397","placename":"China"}}]}}},"processes":[],"eols":[]}],"user":{"name":"geng_tan","id":"9044"}}}