{"3432":{"oid":"3432","type":"object","flag":"","creator":"9044","name":"Canada's Top Importers","upc":"","imagelink":"","description":"According to Trademap.org","slug":"canadas-top-importers","category":"","weight":"0","emissions":"0","embodied":"0","transport":"0","process":"0","endoflife":"0","shipping":"58885.47","lifetime":null,"usagetype":"","usageenergy":null,"usageemissions":null,"timecreated":"2010-03-23 22:37:09.465823","timemodified":"2010-03-24 02:42:09","visibility":"public","showfootprint":"on","showembodied":"on","showtransport":"on","showprocess":"on","showendoflife":"on","showlastleg":"on","showuse":"on","showstats":"on","stops":{"origin":{"related_to":"3432","part_or_object":"o","notes":"","placename":"Canada","id":"1177","category":"1","lat":"56.130366","lon":"-106.346771","name":"origin","hops":{"incoming":[{"transport_id":"17","id":"2270","transport_name":"None Selected","transport_description":null,"transport_unit":"kg km","transport_co2_eq":"0.000000","from_stop_id":"4530","from_stop_lat":"37.09024","from_stop_lon":"-95.712891","to_stop_id":"1177","to_stop_name":"origin","to_stop_lat":"56.130366","placename":"United States","to_stop_lon":"-106.346771","to_stop":{"id":"1177","name":"origin","lat":"56.130366","placename":"Canada","lon":"-106.346771"},"from_stop":{"name":"origin","id":"4530","lat":"37.09024","lon":"-95.712891","placename":"United States"}},{"transport_id":"17","id":"2271","transport_name":"None Selected","transport_description":null,"transport_unit":"kg km","transport_co2_eq":"0.000000","from_stop_id":"4531","from_stop_lat":"35.86166","from_stop_lon":"104.195397","to_stop_id":"1177","to_stop_name":"origin","to_stop_lat":"56.130366","placename":"China","to_stop_lon":"-106.346771","to_stop":{"id":"1177","name":"origin","lat":"56.130366","placename":"Canada","lon":"-106.346771"},"from_stop":{"name":"origin","id":"4531","lat":"35.86166","lon":"104.195397","placename":"China"}},{"transport_id":"17","id":"2272","transport_name":"None Selected","transport_description":null,"transport_unit":"kg km","transport_co2_eq":"0.000000","from_stop_id":"4532","from_stop_lat":"23.634501","from_stop_lon":"-102.552784","to_stop_id":"1177","to_stop_name":"origin","to_stop_lat":"56.130366","placename":"Mexico","to_stop_lon":"-106.346771","to_stop":{"id":"1177","name":"origin","lat":"56.130366","placename":"Canada","lon":"-106.346771"},"from_stop":{"name":"origin","id":"4532","lat":"23.634501","lon":"-102.552784","placename":"Mexico"}},{"transport_id":"17","id":"2273","transport_name":"None Selected","transport_description":null,"transport_unit":"kg km","transport_co2_eq":"0.000000","from_stop_id":"4533","from_stop_lat":"36.204824","from_stop_lon":"138.252924","to_stop_id":"1177","to_stop_name":"origin","to_stop_lat":"56.130366","placename":"Japan","to_stop_lon":"-106.346771","to_stop":{"id":"1177","name":"origin","lat":"56.130366","placename":"Canada","lon":"-106.346771"},"from_stop":{"name":"origin","id":"4533","lat":"36.204824","lon":"138.252924","placename":"Japan"}},{"transport_id":"17","id":"2274","transport_name":"None Selected","transport_description":null,"transport_unit":"kg km","transport_co2_eq":"0.000000","from_stop_id":"4534","from_stop_lat":"51.165691","from_stop_lon":"10.451526","to_stop_id":"1177","to_stop_name":"origin","to_stop_lat":"56.130366","placename":"Germany","to_stop_lon":"-106.346771","to_stop":{"id":"1177","name":"origin","lat":"56.130366","placename":"Canada","lon":"-106.346771"},"from_stop":{"name":"origin","id":"4534","lat":"51.165691","lon":"10.451526","placename":"Germany"}},{"transport_id":"17","id":"2275","transport_name":"None Selected","transport_description":null,"transport_unit":"kg km","transport_co2_eq":"0.000000","from_stop_id":"4535","from_stop_lat":"55.378051","from_stop_lon":"-3.435973","to_stop_id":"1177","to_stop_name":"origin","to_stop_lat":"56.130366","placename":"United Kingdom","to_stop_lon":"-106.346771","to_stop":{"id":"1177","name":"origin","lat":"56.130366","placename":"Canada","lon":"-106.346771"},"from_stop":{"name":"origin","id":"4535","lat":"55.378051","lon":"-3.435973","placename":"United Kingdom"}},{"transport_id":"17","id":"2276","transport_name":"None Selected","transport_description":null,"transport_unit":"kg km","transport_co2_eq":"0.000000","from_stop_id":"4536","from_stop_lat":"28.033886","from_stop_lon":"1.659626","to_stop_id":"1177","to_stop_name":"origin","to_stop_lat":"56.130366","placename":"Algeria","to_stop_lon":"-106.346771","to_stop":{"id":"1177","name":"origin","lat":"56.130366","placename":"Canada","lon":"-106.346771"},"from_stop":{"name":"origin","id":"4536","lat":"28.033886","lon":"1.659626","placename":"Algeria"}},{"transport_id":"17","id":"2277","transport_name":"None Selected","transport_description":null,"transport_unit":"kg km","transport_co2_eq":"0.000000","from_stop_id":"4537","from_stop_lat":"60.472024","from_stop_lon":"8.468946","to_stop_id":"1177","to_stop_name":"origin","to_stop_lat":"56.130366","placename":"Norway","to_stop_lon":"-106.346771","to_stop":{"id":"1177","name":"origin","lat":"56.130366","placename":"Canada","lon":"-106.346771"},"from_stop":{"name":"origin","id":"4537","lat":"60.472024","lon":"8.468946","placename":"Norway"}},{"transport_id":"17","id":"2278","transport_name":"None Selected","transport_description":null,"transport_unit":"kg km","transport_co2_eq":"0.000000","from_stop_id":"4538","from_stop_lat":"35.907757","from_stop_lon":"127.766922","to_stop_id":"1177","to_stop_name":"origin","to_stop_lat":"56.130366","placename":"South Korea","to_stop_lon":"-106.346771","to_stop":{"id":"1177","name":"origin","lat":"56.130366","placename":"Canada","lon":"-106.346771"},"from_stop":{"name":"origin","id":"4538","lat":"35.907757","lon":"127.766922","placename":"South Korea"}},{"transport_id":"17","id":"2279","transport_name":"None Selected","transport_description":null,"transport_unit":"kg km","transport_co2_eq":"0.000000","from_stop_id":"4539","from_stop_lat":"0","from_stop_lon":"0","to_stop_id":"1177","to_stop_name":"origin","to_stop_lat":"56.130366","placename":"Part Location","to_stop_lon":"-106.346771","to_stop":{"id":"1177","name":"origin","lat":"56.130366","placename":"Canada","lon":"-106.346771"},"from_stop":{"name":"origin","id":"4539","lat":"0","lon":"0","placename":"Part Location"}}],"outgoing":[]}}},"parts":[{"oid":"3432","imid":"2625","linkid":"","weight":"0","rawemissions":"0","emissions":"0","shipping":"2264.07","processemissions":null,"endoflifeemissions":null,"disposaltype":null,"disposalenergy":null,"disposalimpact":null,"disposalemissions":null,"description":"","name":"408 Billion Dollars","id":"2625","stops":{"origin":{"related_to":"2625","part_or_object":"p","notes":"","placename":"United States","id":4530,"name":"origin","lat":"37.09024","lon":"-95.712891","hops":{"incoming":[],"outgoing":[{"transport_id":"17","id":"2270","transport_name":"None Selected","transport_description":null,"transport_unit":"kg km","transport_co2_eq":"0.000000","from_stop_id":"4530","from_stop_lat":"37.09024","from_stop_lon":"-95.712891","from_stop_placename":"United States","to_stop_id":"1177","to_stop_name":"origin","to_stop_lat":"56.130366","to_stop_lon":"-106.346771","to_stop_placename":"Canada","to_stop":{"id":"1177","name":"origin","lat":"56.130366","lon":"-106.346771","placename":"Canada"},"from_stop":{"name":"origin","id":"4530","lat":"37.09024","lon":"-95.712891","placename":"United States"}}]}}},"processes":[],"eols":[]},{"oid":"3432","imid":"2626","linkid":"","weight":"0","rawemissions":"0","emissions":"0","shipping":"9396.37","processemissions":null,"endoflifeemissions":null,"disposaltype":null,"disposalenergy":null,"disposalimpact":null,"disposalemissions":null,"description":"","name":"214 Billion Dollars","id":"2626","stops":{"origin":{"related_to":"2626","part_or_object":"p","notes":"","placename":"China","id":4531,"name":"origin","lat":"35.86166","lon":"104.195397","hops":{"incoming":[],"outgoing":[{"transport_id":"17","id":"2271","transport_name":"None Selected","transport_description":null,"transport_unit":"kg km","transport_co2_eq":"0.000000","from_stop_id":"4531","from_stop_lat":"35.86166","from_stop_lon":"104.195397","from_stop_placename":"China","to_stop_id":"1177","to_stop_name":"origin","to_stop_lat":"56.130366","to_stop_lon":"-106.346771","to_stop_placename":"Canada","to_stop":{"id":"1177","name":"origin","lat":"56.130366","lon":"-106.346771","placename":"Canada"},"from_stop":{"name":"origin","id":"4531","lat":"35.86166","lon":"104.195397","placename":"China"}}]}}},"processes":[],"eols":[]},{"oid":"3432","imid":"2627","linkid":"","weight":"0","rawemissions":"0","emissions":"0","shipping":"3630.69","processemissions":null,"endoflifeemissions":null,"disposaltype":null,"disposalenergy":null,"disposalimpact":null,"disposalemissions":null,"description":"","name":"40 BIllion Dollars","id":"2627","stops":{"origin":{"related_to":"2627","part_or_object":"p","notes":"","placename":"Mexico","id":4532,"name":"origin","lat":"23.634501","lon":"-102.552784","hops":{"incoming":[],"outgoing":[{"transport_id":"17","id":"2272","transport_name":"None Selected","transport_description":null,"transport_unit":"kg km","transport_co2_eq":"0.000000","from_stop_id":"4532","from_stop_lat":"23.634501","from_stop_lon":"-102.552784","from_stop_placename":"Mexico","to_stop_id":"1177","to_stop_name":"origin","to_stop_lat":"56.130366","to_stop_lon":"-106.346771","to_stop_placename":"Canada","to_stop":{"id":"1177","name":"origin","lat":"56.130366","lon":"-106.346771","placename":"Canada"},"from_stop":{"name":"origin","id":"4532","lat":"23.634501","lon":"-102.552784","placename":"Mexico"}}]}}},"processes":[],"eols":[]},{"oid":"3432","imid":"2628","linkid":"","weight":"0","rawemissions":"0","emissions":"0","shipping":"8091.77","processemissions":null,"endoflifeemissions":null,"disposaltype":null,"disposalenergy":null,"disposalimpact":null,"disposalemissions":null,"description":"","name":"16.9 Billion Dollars","id":"2628","stops":{"origin":{"related_to":"2628","part_or_object":"p","notes":"","placename":"Japan","id":4533,"name":"origin","lat":"36.204824","lon":"138.252924","hops":{"incoming":[],"outgoing":[{"transport_id":"17","id":"2273","transport_name":"None Selected","transport_description":null,"transport_unit":"kg km","transport_co2_eq":"0.000000","from_stop_id":"4533","from_stop_lat":"36.204824","from_stop_lon":"138.252924","from_stop_placename":"Japan","to_stop_id":"1177","to_stop_name":"origin","to_stop_lat":"56.130366","to_stop_lon":"-106.346771","to_stop_placename":"Canada","to_stop":{"id":"1177","name":"origin","lat":"56.130366","lon":"-106.346771","placename":"Canada"},"from_stop":{"name":"origin","id":"4533","lat":"36.204824","lon":"138.252924","placename":"Japan"}}]}}},"processes":[],"eols":[]},{"oid":"3432","imid":"2629","linkid":"","weight":"0","rawemissions":"0","emissions":"0","shipping":"6758.28","processemissions":null,"endoflifeemissions":null,"disposaltype":null,"disposalenergy":null,"disposalimpact":null,"disposalemissions":null,"description":"","name":"14.4 Billion Dollars","id":"2629","stops":{"origin":{"related_to":"2629","part_or_object":"p","notes":"","placename":"Germany","id":4534,"name":"origin","lat":"51.165691","lon":"10.451526","hops":{"incoming":[],"outgoing":[{"transport_id":"17","id":"2274","transport_name":"None Selected","transport_description":null,"transport_unit":"kg km","transport_co2_eq":"0.000000","from_stop_id":"4534","from_stop_lat":"51.165691","from_stop_lon":"10.451526","from_stop_placename":"Germany","to_stop_id":"1177","to_stop_name":"origin","to_stop_lat":"56.130366","to_stop_lon":"-106.346771","to_stop_placename":"Canada","to_stop":{"id":"1177","name":"origin","lat":"56.130366","lon":"-106.346771","placename":"Canada"},"from_stop":{"name":"origin","id":"4534","lat":"51.165691","lon":"10.451526","placename":"Germany"}}]}}},"processes":[],"eols":[]},{"oid":"3432","imid":"2630","linkid":"","weight":"0","rawemissions":"0","emissions":"0","shipping":"5813.93","processemissions":null,"endoflifeemissions":null,"disposaltype":null,"disposalenergy":null,"disposalimpact":null,"disposalemissions":null,"description":"","name":"11.9 Billion Dollars","id":"2630","stops":{"origin":{"related_to":"2630","part_or_object":"p","notes":"","placename":"United Kingdom","id":4535,"name":"origin","lat":"55.378051","lon":"-3.435973","hops":{"incoming":[],"outgoing":[{"transport_id":"17","id":"2275","transport_name":"None Selected","transport_description":null,"transport_unit":"kg km","transport_co2_eq":"0.000000","from_stop_id":"4535","from_stop_lat":"55.378051","from_stop_lon":"-3.435973","from_stop_placename":"United Kingdom","to_stop_id":"1177","to_stop_name":"origin","to_stop_lat":"56.130366","to_stop_lon":"-106.346771","to_stop_placename":"Canada","to_stop":{"id":"1177","name":"origin","lat":"56.130366","lon":"-106.346771","placename":"Canada"},"from_stop":{"name":"origin","id":"4535","lat":"55.378051","lon":"-3.435973","placename":"United Kingdom"}}]}}},"processes":[],"eols":[]},{"oid":"3432","imid":"2631","linkid":"","weight":"0","rawemissions":"0","emissions":"0","shipping":"8484.89","processemissions":null,"endoflifeemissions":null,"disposaltype":null,"disposalenergy":null,"disposalimpact":null,"disposalemissions":null,"description":"","name":"7.2 Billion Dollars","id":"2631","stops":{"origin":{"related_to":"2631","part_or_object":"p","notes":"","placename":"Algeria","id":4536,"name":"origin","lat":"28.033886","lon":"1.659626","hops":{"incoming":[],"outgoing":[{"transport_id":"17","id":"2276","transport_name":"None Selected","transport_description":null,"transport_unit":"kg km","transport_co2_eq":"0.000000","from_stop_id":"4536","from_stop_lat":"28.033886","from_stop_lon":"1.659626","from_stop_placename":"Algeria","to_stop_id":"1177","to_stop_name":"origin","to_stop_lat":"56.130366","to_stop_lon":"-106.346771","to_stop_placename":"Canada","to_stop":{"id":"1177","name":"origin","lat":"56.130366","lon":"-106.346771","placename":"Canada"},"from_stop":{"name":"origin","id":"4536","lat":"28.033886","lon":"1.659626","placename":"Algeria"}}]}}},"processes":[],"eols":[]},{"oid":"3432","imid":"2632","linkid":"","weight":"0","rawemissions":"0","emissions":"0","shipping":"5856.93","processemissions":null,"endoflifeemissions":null,"disposaltype":null,"disposalenergy":null,"disposalimpact":null,"disposalemissions":null,"description":"","name":"5.9 Billion Dollars","id":"2632","stops":{"origin":{"related_to":"2632","part_or_object":"p","notes":"","placename":"Norway","id":4537,"name":"origin","lat":"60.472024","lon":"8.468946","hops":{"incoming":[],"outgoing":[{"transport_id":"17","id":"2277","transport_name":"None Selected","transport_description":null,"transport_unit":"kg km","transport_co2_eq":"0.000000","from_stop_id":"4537","from_stop_lat":"60.472024","from_stop_lon":"8.468946","from_stop_placename":"Norway","to_stop_id":"1177","to_stop_name":"origin","to_stop_lat":"56.130366","to_stop_lon":"-106.346771","to_stop_placename":"Canada","to_stop":{"id":"1177","name":"origin","lat":"56.130366","lon":"-106.346771","placename":"Canada"},"from_stop":{"name":"origin","id":"4537","lat":"60.472024","lon":"8.468946","placename":"Norway"}}]}}},"processes":[],"eols":[]},{"oid":"3432","imid":"2633","linkid":"","weight":"0","rawemissions":"0","emissions":"0","shipping":"8588.54","processemissions":null,"endoflifeemissions":null,"disposaltype":null,"disposalenergy":null,"disposalimpact":null,"disposalemissions":null,"description":"","name":"5.7 Billion Dollars","id":"2633","stops":{"origin":{"related_to":"2633","part_or_object":"p","notes":"","placename":"South Korea","id":4538,"name":"origin","lat":"35.907757","lon":"127.766922","hops":{"incoming":[],"outgoing":[{"transport_id":"17","id":"2278","transport_name":"None Selected","transport_description":null,"transport_unit":"kg km","transport_co2_eq":"0.000000","from_stop_id":"4538","from_stop_lat":"35.907757","from_stop_lon":"127.766922","from_stop_placename":"South Korea","to_stop_id":"1177","to_stop_name":"origin","to_stop_lat":"56.130366","to_stop_lon":"-106.346771","to_stop_placename":"Canada","to_stop":{"id":"1177","name":"origin","lat":"56.130366","lon":"-106.346771","placename":"Canada"},"from_stop":{"name":"origin","id":"4538","lat":"35.907757","lon":"127.766922","placename":"South Korea"}}]}}},"processes":[],"eols":[]},{"oid":"3432","imid":"2634","linkid":"","weight":"0","rawemissions":"0","emissions":"0","shipping":"0","processemissions":null,"endoflifeemissions":null,"disposaltype":null,"disposalenergy":null,"disposalimpact":null,"disposalemissions":null,"description":"","name":"5.6 Billion Dollars","id":"2634","stops":{"origin":{"related_to":"2634","part_or_object":"p","notes":"","placename":"Part Location","id":4539,"name":"origin","lat":"0","lon":"0","hops":{"incoming":[],"outgoing":[{"transport_id":"17","id":"2279","transport_name":"None Selected","transport_description":null,"transport_unit":"kg km","transport_co2_eq":"0.000000","from_stop_id":"4539","from_stop_lat":"0","from_stop_lon":"0","from_stop_placename":"Part Location","to_stop_id":"1177","to_stop_name":"origin","to_stop_lat":"56.130366","to_stop_lon":"-106.346771","to_stop_placename":"Canada","to_stop":{"id":"1177","name":"origin","lat":"56.130366","lon":"-106.346771","placename":"Canada"},"from_stop":{"name":"origin","id":"4539","lat":"0","lon":"0","placename":"Part Location"}}]}}},"processes":[],"eols":[]}],"user":{"name":"geng_tan","id":"9044"}}}