{"3444":{"oid":"3444","type":"object","flag":"","creator":"9044","name":"World's Top Economies","upc":"","imagelink":"","description":"","slug":"worlds-top-economies","category":"","weight":"0","emissions":"0","embodied":"0","transport":"0","process":"0","endoflife":"0","shipping":"106603.04","lifetime":null,"usagetype":"","usageenergy":null,"usageemissions":null,"timecreated":"2010-03-24 00:19:39.375018","timemodified":"2010-03-24 04:39:49","visibility":"public","showfootprint":"on","showembodied":"on","showtransport":"on","showprocess":"on","showendoflife":"on","showlastleg":"on","showuse":"on","showstats":"on","stops":{"origin":{"related_to":"3444","part_or_object":"o","notes":"","placename":"North Pole, AK, USA","id":"1189","category":"1","lat":"64.7511111","lon":"-147.3494444","name":"origin","hops":{"incoming":[{"transport_id":"17","id":"2411","transport_name":"None Selected","transport_description":null,"transport_unit":"kg km","transport_co2_eq":"0.000000","from_stop_id":"4671","from_stop_lat":"37.09024","from_stop_lon":"-95.712891","to_stop_id":"1189","to_stop_name":"origin","to_stop_lat":"64.7511111","placename":"United States","to_stop_lon":"-147.3494444","to_stop":{"id":"1189","name":"origin","lat":"64.7511111","placename":"North Pole, AK, USA","lon":"-147.3494444"},"from_stop":{"name":"origin","id":"4671","lat":"37.09024","lon":"-95.712891","placename":"United States"}},{"transport_id":"17","id":"2412","transport_name":"None Selected","transport_description":null,"transport_unit":"kg km","transport_co2_eq":"0.000000","from_stop_id":"4672","from_stop_lat":"0","from_stop_lon":"0","to_stop_id":"1189","to_stop_name":"origin","to_stop_lat":"64.7511111","placename":"Part Location","to_stop_lon":"-147.3494444","to_stop":{"id":"1189","name":"origin","lat":"64.7511111","placename":"North Pole, AK, USA","lon":"-147.3494444"},"from_stop":{"name":"origin","id":"4672","lat":"0","lon":"0","placename":"Part Location"}},{"transport_id":"17","id":"2413","transport_name":"None Selected","transport_description":null,"transport_unit":"kg km","transport_co2_eq":"0.000000","from_stop_id":"4673","from_stop_lat":"35.86166","from_stop_lon":"104.195397","to_stop_id":"1189","to_stop_name":"origin","to_stop_lat":"64.7511111","placename":"China","to_stop_lon":"-147.3494444","to_stop":{"id":"1189","name":"origin","lat":"64.7511111","placename":"North Pole, AK, USA","lon":"-147.3494444"},"from_stop":{"name":"origin","id":"4673","lat":"35.86166","lon":"104.195397","placename":"China"}},{"transport_id":"17","id":"2414","transport_name":"None Selected","transport_description":null,"transport_unit":"kg km","transport_co2_eq":"0.000000","from_stop_id":"4674","from_stop_lat":"51.165691","from_stop_lon":"10.451526","to_stop_id":"1189","to_stop_name":"origin","to_stop_lat":"64.7511111","placename":"Germany","to_stop_lon":"-147.3494444","to_stop":{"id":"1189","name":"origin","lat":"64.7511111","placename":"North Pole, AK, USA","lon":"-147.3494444"},"from_stop":{"name":"origin","id":"4674","lat":"51.165691","lon":"10.451526","placename":"Germany"}},{"transport_id":"17","id":"2415","transport_name":"None Selected","transport_description":null,"transport_unit":"kg km","transport_co2_eq":"0.000000","from_stop_id":"4675","from_stop_lat":"46.227638","from_stop_lon":"2.213749","to_stop_id":"1189","to_stop_name":"origin","to_stop_lat":"64.7511111","placename":"France","to_stop_lon":"-147.3494444","to_stop":{"id":"1189","name":"origin","lat":"64.7511111","placename":"North Pole, AK, USA","lon":"-147.3494444"},"from_stop":{"name":"origin","id":"4675","lat":"46.227638","lon":"2.213749","placename":"France"}},{"transport_id":"17","id":"2416","transport_name":"None Selected","transport_description":null,"transport_unit":"kg km","transport_co2_eq":"0.000000","from_stop_id":"4676","from_stop_lat":"55.378051","from_stop_lon":"-3.435973","to_stop_id":"1189","to_stop_name":"origin","to_stop_lat":"64.7511111","placename":"United Kingdom","to_stop_lon":"-147.3494444","to_stop":{"id":"1189","name":"origin","lat":"64.7511111","placename":"North Pole, AK, USA","lon":"-147.3494444"},"from_stop":{"name":"origin","id":"4676","lat":"55.378051","lon":"-3.435973","placename":"United Kingdom"}},{"transport_id":"17","id":"2417","transport_name":"None Selected","transport_description":null,"transport_unit":"kg km","transport_co2_eq":"0.000000","from_stop_id":"4677","from_stop_lat":"41.87194","from_stop_lon":"12.56738","to_stop_id":"1189","to_stop_name":"origin","to_stop_lat":"64.7511111","placename":"Italy","to_stop_lon":"-147.3494444","to_stop":{"id":"1189","name":"origin","lat":"64.7511111","placename":"North Pole, AK, USA","lon":"-147.3494444"},"from_stop":{"name":"origin","id":"4677","lat":"41.87194","lon":"12.56738","placename":"Italy"}},{"transport_id":"17","id":"2418","transport_name":"None Selected","transport_description":null,"transport_unit":"kg km","transport_co2_eq":"0.000000","from_stop_id":"4678","from_stop_lat":"-14.235004","from_stop_lon":"-51.92528","to_stop_id":"1189","to_stop_name":"origin","to_stop_lat":"64.7511111","placename":"Brazil","to_stop_lon":"-147.3494444","to_stop":{"id":"1189","name":"origin","lat":"64.7511111","placename":"North Pole, AK, USA","lon":"-147.3494444"},"from_stop":{"name":"origin","id":"4678","lat":"-14.235004","lon":"-51.92528","placename":"Brazil"}},{"transport_id":"17","id":"2419","transport_name":"None Selected","transport_description":null,"transport_unit":"kg km","transport_co2_eq":"0.000000","from_stop_id":"4679","from_stop_lat":"40.463667","from_stop_lon":"-3.74922","to_stop_id":"1189","to_stop_name":"origin","to_stop_lat":"64.7511111","placename":"Spain","to_stop_lon":"-147.3494444","to_stop":{"id":"1189","name":"origin","lat":"64.7511111","placename":"North Pole, AK, USA","lon":"-147.3494444"},"from_stop":{"name":"origin","id":"4679","lat":"40.463667","lon":"-3.74922","placename":"Spain"}},{"transport_id":"17","id":"2420","transport_name":"None Selected","transport_description":null,"transport_unit":"kg km","transport_co2_eq":"0.000000","from_stop_id":"4680","from_stop_lat":"56.130366","from_stop_lon":"-106.346771","to_stop_id":"1189","to_stop_name":"origin","to_stop_lat":"64.7511111","placename":"Canada","to_stop_lon":"-147.3494444","to_stop":{"id":"1189","name":"origin","lat":"64.7511111","placename":"North Pole, AK, USA","lon":"-147.3494444"},"from_stop":{"name":"origin","id":"4680","lat":"56.130366","lon":"-106.346771","placename":"Canada"}},{"transport_id":"17","id":"2421","transport_name":"None Selected","transport_description":null,"transport_unit":"kg km","transport_co2_eq":"0.000000","from_stop_id":"4681","from_stop_lat":"61.52401","from_stop_lon":"105.318756","to_stop_id":"1189","to_stop_name":"origin","to_stop_lat":"64.7511111","placename":"Russian Federation","to_stop_lon":"-147.3494444","to_stop":{"id":"1189","name":"origin","lat":"64.7511111","placename":"North Pole, AK, USA","lon":"-147.3494444"},"from_stop":{"name":"origin","id":"4681","lat":"61.52401","lon":"105.318756","placename":"Russian Federation"}},{"transport_id":"17","id":"2422","transport_name":"None Selected","transport_description":null,"transport_unit":"kg km","transport_co2_eq":"0.000000","from_stop_id":"4682","from_stop_lat":"20.593684","from_stop_lon":"78.96288","to_stop_id":"1189","to_stop_name":"origin","to_stop_lat":"64.7511111","placename":"India","to_stop_lon":"-147.3494444","to_stop":{"id":"1189","name":"origin","lat":"64.7511111","placename":"North Pole, AK, USA","lon":"-147.3494444"},"from_stop":{"name":"origin","id":"4682","lat":"20.593684","lon":"78.96288","placename":"India"}},{"transport_id":"17","id":"2423","transport_name":"None Selected","transport_description":null,"transport_unit":"kg km","transport_co2_eq":"0.000000","from_stop_id":"4683","from_stop_lat":"-25.274398","from_stop_lon":"133.775136","to_stop_id":"1189","to_stop_name":"origin","to_stop_lat":"64.7511111","placename":"Australia","to_stop_lon":"-147.3494444","to_stop":{"id":"1189","name":"origin","lat":"64.7511111","placename":"North Pole, AK, USA","lon":"-147.3494444"},"from_stop":{"name":"origin","id":"4683","lat":"-25.274398","lon":"133.775136","placename":"Australia"}},{"transport_id":"17","id":"2424","transport_name":"None Selected","transport_description":null,"transport_unit":"kg km","transport_co2_eq":"0.000000","from_stop_id":"4684","from_stop_lat":"23.634501","from_stop_lon":"-102.552784","to_stop_id":"1189","to_stop_name":"origin","to_stop_lat":"64.7511111","placename":"Mexico","to_stop_lon":"-147.3494444","to_stop":{"id":"1189","name":"origin","lat":"64.7511111","placename":"North Pole, AK, USA","lon":"-147.3494444"},"from_stop":{"name":"origin","id":"4684","lat":"23.634501","lon":"-102.552784","placename":"Mexico"}},{"transport_id":"17","id":"2425","transport_name":"None Selected","transport_description":null,"transport_unit":"kg km","transport_co2_eq":"0.000000","from_stop_id":"4685","from_stop_lat":"35.907757","from_stop_lon":"127.766922","to_stop_id":"1189","to_stop_name":"origin","to_stop_lat":"64.7511111","placename":"South Korea","to_stop_lon":"-147.3494444","to_stop":{"id":"1189","name":"origin","lat":"64.7511111","placename":"North Pole, AK, USA","lon":"-147.3494444"},"from_stop":{"name":"origin","id":"4685","lat":"35.907757","lon":"127.766922","placename":"South Korea"}}],"outgoing":[]}}},"parts":[{"oid":"3444","imid":"2745","linkid":"object\/uss-top-importers","weight":"0","rawemissions":"0","emissions":"0","shipping":"4545.35","processemissions":null,"endoflifeemissions":null,"disposaltype":null,"disposalenergy":null,"disposalimpact":null,"disposalemissions":null,"description":"","name":"US's Top Importers","id":"2745","stops":{"origin":{"related_to":"2745","part_or_object":"p","notes":"","placename":"United States","id":4671,"name":"origin","lat":"37.09024","lon":"-95.712891","hops":{"incoming":[],"outgoing":[{"transport_id":"17","id":"2411","transport_name":"None Selected","transport_description":null,"transport_unit":"kg km","transport_co2_eq":"0.000000","from_stop_id":"4671","from_stop_lat":"37.09024","from_stop_lon":"-95.712891","from_stop_placename":"United States","to_stop_id":"1189","to_stop_name":"origin","to_stop_lat":"64.7511111","to_stop_lon":"-147.3494444","to_stop_placename":"North Pole, AK, USA","to_stop":{"id":"1189","name":"origin","lat":"64.7511111","lon":"-147.3494444","placename":"North Pole, AK, USA"},"from_stop":{"name":"origin","id":"4671","lat":"37.09024","lon":"-95.712891","placename":"United States"}}]}}},"processes":[],"eols":[]},{"oid":"3444","imid":"2746","linkid":"object\/japans-top-importers","weight":"0","rawemissions":"0","emissions":"0","shipping":"0","processemissions":null,"endoflifeemissions":null,"disposaltype":null,"disposalenergy":null,"disposalimpact":null,"disposalemissions":null,"description":"","name":"Japan's Top Importers","id":"2746","stops":{"origin":{"related_to":"2746","part_or_object":"p","notes":"","placename":"Part Location","id":4672,"name":"origin","lat":"0","lon":"0","hops":{"incoming":[],"outgoing":[{"transport_id":"17","id":"2412","transport_name":"None Selected","transport_description":null,"transport_unit":"kg km","transport_co2_eq":"0.000000","from_stop_id":"4672","from_stop_lat":"0","from_stop_lon":"0","from_stop_placename":"Part Location","to_stop_id":"1189","to_stop_name":"origin","to_stop_lat":"64.7511111","to_stop_lon":"-147.3494444","to_stop_placename":"North Pole, AK, USA","to_stop":{"id":"1189","name":"origin","lat":"64.7511111","lon":"-147.3494444","placename":"North Pole, AK, USA"},"from_stop":{"name":"origin","id":"4672","lat":"0","lon":"0","placename":"Part Location"}}]}}},"processes":[],"eols":[]},{"oid":"3444","imid":"2747","linkid":"object\/chinas-top-importers-2008","weight":"0","rawemissions":"0","emissions":"0","shipping":"7251.16","processemissions":null,"endoflifeemissions":null,"disposaltype":null,"disposalenergy":null,"disposalimpact":null,"disposalemissions":null,"description":"","name":"China's Top Importers (2008)","id":"2747","stops":{"origin":{"related_to":"2747","part_or_object":"p","notes":"","placename":"China","id":4673,"name":"origin","lat":"35.86166","lon":"104.195397","hops":{"incoming":[],"outgoing":[{"transport_id":"17","id":"2413","transport_name":"None Selected","transport_description":null,"transport_unit":"kg km","transport_co2_eq":"0.000000","from_stop_id":"4673","from_stop_lat":"35.86166","from_stop_lon":"104.195397","from_stop_placename":"China","to_stop_id":"1189","to_stop_name":"origin","to_stop_lat":"64.7511111","to_stop_lon":"-147.3494444","to_stop_placename":"North Pole, AK, USA","to_stop":{"id":"1189","name":"origin","lat":"64.7511111","lon":"-147.3494444","placename":"North Pole, AK, USA"},"from_stop":{"name":"origin","id":"4673","lat":"35.86166","lon":"104.195397","placename":"China"}}]}}},"processes":[],"eols":[]},{"oid":"3444","imid":"2748","linkid":"object\/germanys-top-importers","weight":"0","rawemissions":"0","emissions":"0","shipping":"6992.34","processemissions":null,"endoflifeemissions":null,"disposaltype":null,"disposalenergy":null,"disposalimpact":null,"disposalemissions":null,"description":"","name":"Germany's Top Importers","id":"2748","stops":{"origin":{"related_to":"2748","part_or_object":"p","notes":"","placename":"Germany","id":4674,"name":"origin","lat":"51.165691","lon":"10.451526","hops":{"incoming":[],"outgoing":[{"transport_id":"17","id":"2414","transport_name":"None Selected","transport_description":null,"transport_unit":"kg km","transport_co2_eq":"0.000000","from_stop_id":"4674","from_stop_lat":"51.165691","from_stop_lon":"10.451526","from_stop_placename":"Germany","to_stop_id":"1189","to_stop_name":"origin","to_stop_lat":"64.7511111","to_stop_lon":"-147.3494444","to_stop_placename":"North Pole, AK, USA","to_stop":{"id":"1189","name":"origin","lat":"64.7511111","lon":"-147.3494444","placename":"North Pole, AK, USA"},"from_stop":{"name":"origin","id":"4674","lat":"51.165691","lon":"10.451526","placename":"Germany"}}]}}},"processes":[],"eols":[]},{"oid":"3444","imid":"2749","linkid":"object\/frances-top-importers","weight":"0","rawemissions":"0","emissions":"0","shipping":"7403.17","processemissions":null,"endoflifeemissions":null,"disposaltype":null,"disposalenergy":null,"disposalimpact":null,"disposalemissions":null,"description":"","name":"France's Top Importers","id":"2749","stops":{"origin":{"related_to":"2749","part_or_object":"p","notes":"","placename":"France","id":4675,"name":"origin","lat":"46.227638","lon":"2.213749","hops":{"incoming":[],"outgoing":[{"transport_id":"17","id":"2415","transport_name":"None Selected","transport_description":null,"transport_unit":"kg km","transport_co2_eq":"0.000000","from_stop_id":"4675","from_stop_lat":"46.227638","from_stop_lon":"2.213749","from_stop_placename":"France","to_stop_id":"1189","to_stop_name":"origin","to_stop_lat":"64.7511111","to_stop_lon":"-147.3494444","to_stop_placename":"North Pole, AK, USA","to_stop":{"id":"1189","name":"origin","lat":"64.7511111","lon":"-147.3494444","placename":"North Pole, AK, USA"},"from_stop":{"name":"origin","id":"4675","lat":"46.227638","lon":"2.213749","placename":"France"}}]}}},"processes":[],"eols":[]},{"oid":"3444","imid":"2750","linkid":"object\/uks-top-importers","weight":"0","rawemissions":"0","emissions":"0","shipping":"6316.18","processemissions":null,"endoflifeemissions":null,"disposaltype":null,"disposalenergy":null,"disposalimpact":null,"disposalemissions":null,"description":"","name":"UK's Top Importers","id":"2750","stops":{"origin":{"related_to":"2750","part_or_object":"p","notes":"","placename":"United Kingdom","id":4676,"name":"origin","lat":"55.378051","lon":"-3.435973","hops":{"incoming":[],"outgoing":[{"transport_id":"17","id":"2416","transport_name":"None Selected","transport_description":null,"transport_unit":"kg km","transport_co2_eq":"0.000000","from_stop_id":"4676","from_stop_lat":"55.378051","from_stop_lon":"-3.435973","from_stop_placename":"United Kingdom","to_stop_id":"1189","to_stop_name":"origin","to_stop_lat":"64.7511111","to_stop_lon":"-147.3494444","to_stop_placename":"North Pole, AK, USA","to_stop":{"id":"1189","name":"origin","lat":"64.7511111","lon":"-147.3494444","placename":"North Pole, AK, USA"},"from_stop":{"name":"origin","id":"4676","lat":"55.378051","lon":"-3.435973","placename":"United Kingdom"}}]}}},"processes":[],"eols":[]},{"oid":"3444","imid":"2751","linkid":"object\/italys-top-importers","weight":"0","rawemissions":"0","emissions":"0","shipping":"8039.33","processemissions":null,"endoflifeemissions":null,"disposaltype":null,"disposalenergy":null,"disposalimpact":null,"disposalemissions":null,"description":"","name":"Italy's Top Importers","id":"2751","stops":{"origin":{"related_to":"2751","part_or_object":"p","notes":"","placename":"Italy","id":4677,"name":"origin","lat":"41.87194","lon":"12.56738","hops":{"incoming":[],"outgoing":[{"transport_id":"17","id":"2417","transport_name":"None Selected","transport_description":null,"transport_unit":"kg km","transport_co2_eq":"0.000000","from_stop_id":"4677","from_stop_lat":"41.87194","from_stop_lon":"12.56738","from_stop_placename":"Italy","to_stop_id":"1189","to_stop_name":"origin","to_stop_lat":"64.7511111","to_stop_lon":"-147.3494444","to_stop_placename":"North Pole, AK, USA","to_stop":{"id":"1189","name":"origin","lat":"64.7511111","lon":"-147.3494444","placename":"North Pole, AK, USA"},"from_stop":{"name":"origin","id":"4677","lat":"41.87194","lon":"12.56738","placename":"Italy"}}]}}},"processes":[],"eols":[]},{"oid":"3444","imid":"2752","linkid":"object\/brazis-top-importers","weight":"0","rawemissions":"0","emissions":"0","shipping":"11706.19","processemissions":null,"endoflifeemissions":null,"disposaltype":null,"disposalenergy":null,"disposalimpact":null,"disposalemissions":null,"description":"","name":"Brazi's Top Importers","id":"2752","stops":{"origin":{"related_to":"2752","part_or_object":"p","notes":"","placename":"Brazil","id":4678,"name":"origin","lat":"-14.235004","lon":"-51.92528","hops":{"incoming":[],"outgoing":[{"transport_id":"17","id":"2418","transport_name":"None Selected","transport_description":null,"transport_unit":"kg km","transport_co2_eq":"0.000000","from_stop_id":"4678","from_stop_lat":"-14.235004","from_stop_lon":"-51.92528","from_stop_placename":"Brazil","to_stop_id":"1189","to_stop_name":"origin","to_stop_lat":"64.7511111","to_stop_lon":"-147.3494444","to_stop_placename":"North Pole, AK, USA","to_stop":{"id":"1189","name":"origin","lat":"64.7511111","lon":"-147.3494444","placename":"North Pole, AK, USA"},"from_stop":{"name":"origin","id":"4678","lat":"-14.235004","lon":"-51.92528","placename":"Brazil"}}]}}},"processes":[],"eols":[]},{"oid":"3444","imid":"2753","linkid":"object\/spains-top-importers","weight":"0","rawemissions":"0","emissions":"0","shipping":"7902.43","processemissions":null,"endoflifeemissions":null,"disposaltype":null,"disposalenergy":null,"disposalimpact":null,"disposalemissions":null,"description":"","name":"Spain's Top Importers","id":"2753","stops":{"origin":{"related_to":"2753","part_or_object":"p","notes":"","placename":"Spain","id":4679,"name":"origin","lat":"40.463667","lon":"-3.74922","hops":{"incoming":[],"outgoing":[{"transport_id":"17","id":"2419","transport_name":"None Selected","transport_description":null,"transport_unit":"kg km","transport_co2_eq":"0.000000","from_stop_id":"4679","from_stop_lat":"40.463667","from_stop_lon":"-3.74922","from_stop_placename":"Spain","to_stop_id":"1189","to_stop_name":"origin","to_stop_lat":"64.7511111","to_stop_lon":"-147.3494444","to_stop_placename":"North Pole, AK, USA","to_stop":{"id":"1189","name":"origin","lat":"64.7511111","lon":"-147.3494444","placename":"North Pole, AK, USA"},"from_stop":{"name":"origin","id":"4679","lat":"40.463667","lon":"-3.74922","placename":"Spain"}}]}}},"processes":[],"eols":[]},{"oid":"3444","imid":"2754","linkid":"object\/canadas-top-importers","weight":"0","rawemissions":"0","emissions":"0","shipping":"2393.94","processemissions":null,"endoflifeemissions":null,"disposaltype":null,"disposalenergy":null,"disposalimpact":null,"disposalemissions":null,"description":"","name":"Canada's Top Importers","id":"2754","stops":{"origin":{"related_to":"2754","part_or_object":"p","notes":"","placename":"Canada","id":4680,"name":"origin","lat":"56.130366","lon":"-106.346771","hops":{"incoming":[],"outgoing":[{"transport_id":"17","id":"2420","transport_name":"None Selected","transport_description":null,"transport_unit":"kg km","transport_co2_eq":"0.000000","from_stop_id":"4680","from_stop_lat":"56.130366","from_stop_lon":"-106.346771","from_stop_placename":"Canada","to_stop_id":"1189","to_stop_name":"origin","to_stop_lat":"64.7511111","to_stop_lon":"-147.3494444","to_stop_placename":"North Pole, AK, USA","to_stop":{"id":"1189","name":"origin","lat":"64.7511111","lon":"-147.3494444","placename":"North Pole, AK, USA"},"from_stop":{"name":"origin","id":"4680","lat":"56.130366","lon":"-106.346771","placename":"Canada"}}]}}},"processes":[],"eols":[]},{"oid":"3444","imid":"2755","linkid":"object\/russias-top-importers","weight":"0","rawemissions":"0","emissions":"0","shipping":"4757.69","processemissions":null,"endoflifeemissions":null,"disposaltype":null,"disposalenergy":null,"disposalimpact":null,"disposalemissions":null,"description":"","name":"Russia's Top Importers","id":"2755","stops":{"origin":{"related_to":"2755","part_or_object":"p","notes":"","placename":"Russian Federation","id":4681,"name":"origin","lat":"61.52401","lon":"105.318756","hops":{"incoming":[],"outgoing":[{"transport_id":"17","id":"2421","transport_name":"None Selected","transport_description":null,"transport_unit":"kg km","transport_co2_eq":"0.000000","from_stop_id":"4681","from_stop_lat":"61.52401","from_stop_lon":"105.318756","from_stop_placename":"Russian Federation","to_stop_id":"1189","to_stop_name":"origin","to_stop_lat":"64.7511111","to_stop_lon":"-147.3494444","to_stop_placename":"North Pole, AK, USA","to_stop":{"id":"1189","name":"origin","lat":"64.7511111","lon":"-147.3494444","placename":"North Pole, AK, USA"},"from_stop":{"name":"origin","id":"4681","lat":"61.52401","lon":"105.318756","placename":"Russian Federation"}}]}}},"processes":[],"eols":[]},{"oid":"3444","imid":"2756","linkid":"object\/indias-top-importers","weight":"0","rawemissions":"0","emissions":"0","shipping":"9748.68","processemissions":null,"endoflifeemissions":null,"disposaltype":null,"disposalenergy":null,"disposalimpact":null,"disposalemissions":null,"description":"","name":"India's Top Importers","id":"2756","stops":{"origin":{"related_to":"2756","part_or_object":"p","notes":"","placename":"India","id":4682,"name":"origin","lat":"20.593684","lon":"78.96288","hops":{"incoming":[],"outgoing":[{"transport_id":"17","id":"2422","transport_name":"None Selected","transport_description":null,"transport_unit":"kg km","transport_co2_eq":"0.000000","from_stop_id":"4682","from_stop_lat":"20.593684","from_stop_lon":"78.96288","from_stop_placename":"India","to_stop_id":"1189","to_stop_name":"origin","to_stop_lat":"64.7511111","to_stop_lon":"-147.3494444","to_stop_placename":"North Pole, AK, USA","to_stop":{"id":"1189","name":"origin","lat":"64.7511111","lon":"-147.3494444","placename":"North Pole, AK, USA"},"from_stop":{"name":"origin","id":"4682","lat":"20.593684","lon":"78.96288","placename":"India"}}]}}},"processes":[],"eols":[]},{"oid":"3444","imid":"2757","linkid":"object\/indias-top-importers-1","weight":"0","rawemissions":"0","emissions":"0","shipping":"12040.79","processemissions":null,"endoflifeemissions":null,"disposaltype":null,"disposalenergy":null,"disposalimpact":null,"disposalemissions":null,"description":"","name":"Australia's Top Importers","id":"2757","stops":{"origin":{"related_to":"2757","part_or_object":"p","notes":"","placename":"Australia","id":4683,"name":"origin","lat":"-25.274398","lon":"133.775136","hops":{"incoming":[],"outgoing":[{"transport_id":"17","id":"2423","transport_name":"None Selected","transport_description":null,"transport_unit":"kg km","transport_co2_eq":"0.000000","from_stop_id":"4683","from_stop_lat":"-25.274398","from_stop_lon":"133.775136","from_stop_placename":"Australia","to_stop_id":"1189","to_stop_name":"origin","to_stop_lat":"64.7511111","to_stop_lon":"-147.3494444","to_stop_placename":"North Pole, AK, USA","to_stop":{"id":"1189","name":"origin","lat":"64.7511111","lon":"-147.3494444","placename":"North Pole, AK, USA"},"from_stop":{"name":"origin","id":"4683","lat":"-25.274398","lon":"133.775136","placename":"Australia"}}]}}},"processes":[],"eols":[]},{"oid":"3444","imid":"2758","linkid":"object\/mexicos-top-importers","weight":"0","rawemissions":"0","emissions":"0","shipping":"5590","processemissions":null,"endoflifeemissions":null,"disposaltype":null,"disposalenergy":null,"disposalimpact":null,"disposalemissions":null,"description":"","name":"Mexico's Top Importers","id":"2758","stops":{"origin":{"related_to":"2758","part_or_object":"p","notes":"","placename":"Mexico","id":4684,"name":"origin","lat":"23.634501","lon":"-102.552784","hops":{"incoming":[],"outgoing":[{"transport_id":"17","id":"2424","transport_name":"None Selected","transport_description":null,"transport_unit":"kg km","transport_co2_eq":"0.000000","from_stop_id":"4684","from_stop_lat":"23.634501","from_stop_lon":"-102.552784","from_stop_placename":"Mexico","to_stop_id":"1189","to_stop_name":"origin","to_stop_lat":"64.7511111","to_stop_lon":"-147.3494444","to_stop_placename":"North Pole, AK, USA","to_stop":{"id":"1189","name":"origin","lat":"64.7511111","lon":"-147.3494444","placename":"North Pole, AK, USA"},"from_stop":{"name":"origin","id":"4684","lat":"23.634501","lon":"-102.552784","placename":"Mexico"}}]}}},"processes":[],"eols":[]},{"oid":"3444","imid":"2759","linkid":"object\/south-koreas-top-importers","weight":"0","rawemissions":"0","emissions":"0","shipping":"6217.96","processemissions":null,"endoflifeemissions":null,"disposaltype":null,"disposalenergy":null,"disposalimpact":null,"disposalemissions":null,"description":"","name":"South Korea's Top Importers","id":"2759","stops":{"origin":{"related_to":"2759","part_or_object":"p","notes":"","placename":"South Korea","id":4685,"name":"origin","lat":"35.907757","lon":"127.766922","hops":{"incoming":[],"outgoing":[{"transport_id":"17","id":"2425","transport_name":"None Selected","transport_description":null,"transport_unit":"kg km","transport_co2_eq":"0.000000","from_stop_id":"4685","from_stop_lat":"35.907757","from_stop_lon":"127.766922","from_stop_placename":"South Korea","to_stop_id":"1189","to_stop_name":"origin","to_stop_lat":"64.7511111","to_stop_lon":"-147.3494444","to_stop_placename":"North Pole, AK, USA","to_stop":{"id":"1189","name":"origin","lat":"64.7511111","lon":"-147.3494444","placename":"North Pole, AK, USA"},"from_stop":{"name":"origin","id":"4685","lat":"35.907757","lon":"127.766922","placename":"South Korea"}}]}}},"processes":[],"eols":[]}],"user":{"name":"geng_tan","id":"9044"}}}