{"3510":{"oid":"3510","type":"travel","flag":"","creator":"9443","name":"GIVAS Blue Sky","upc":"","imagelink":"","description":"GIVAS Blue Sky Thinkers Workshop","slug":"givas-blue-sky","category":"","weight":"1649","emissions":"11946.8662022","embodied":"0","transport":"11946.8662022","process":"0","endoflife":"0","shipping":"117601.96","lifetime":null,"usagetype":"","usageenergy":null,"usageemissions":null,"timecreated":"2010-04-07 02:55:26.551743","timemodified":"2010-04-07 14:26:54","visibility":"public","showfootprint":"on","showembodied":"on","showtransport":"on","showprocess":"on","showendoflife":"on","showlastleg":"on","showuse":"on","showstats":"on","stops":{"origin":{"related_to":"3510","part_or_object":"o","notes":"","placename":"Bellagio CO, Italy","id":"1258","category":"1","lat":"45.9877495","lon":"9.2619766","name":"origin","hops":{"incoming":[{"transport_id":"14","id":"2494","transport_name":"air, passenger, intercontinental","transport_description":"intercontinental, kg km from person-km","transport_unit":"kg km","transport_co2_eq":"1.189000","from_stop_id":"4754","from_stop_lat":"42.3875968","from_stop_lon":"-71.0994968","to_stop_id":"1258","to_stop_name":"origin","to_stop_lat":"45.9877495","placename":"Somerville, MA, USA","to_stop_lon":"9.2619766","to_stop":{"id":"1258","name":"origin","lat":"45.9877495","placename":"Bellagio CO, Italy","lon":"9.2619766"},"from_stop":{"name":"origin","id":"4754","lat":"42.3875968","lon":"-71.0994968","placename":"Somerville, MA, USA"}},{"transport_id":"15","id":"2495","transport_name":"air, freight, regional","transport_description":"freight within one continent","transport_unit":"kg km","transport_co2_eq":"0.787500","from_stop_id":"4755","from_stop_lat":"50.9280143","from_stop_lon":"-0.4617075","to_stop_id":"1258","to_stop_name":"origin","to_stop_lat":"45.9877495","placename":"West Sussex, UK","to_stop_lon":"9.2619766","to_stop":{"id":"1258","name":"origin","lat":"45.9877495","placename":"Bellagio CO, Italy","lon":"9.2619766"},"from_stop":{"name":"origin","id":"4755","lat":"50.9280143","lon":"-0.4617075","placename":"West Sussex, UK"}},{"transport_id":"14","id":"2496","transport_name":"air, passenger, intercontinental","transport_description":"intercontinental, kg km from person-km","transport_unit":"kg km","transport_co2_eq":"1.189000","from_stop_id":"4756","from_stop_lat":"42.3750969","from_stop_lon":"-71.1056079","to_stop_id":"1258","to_stop_name":"origin","to_stop_lat":"45.9877495","placename":"Cambridge, MA, USA","to_stop_lon":"9.2619766","to_stop":{"id":"1258","name":"origin","lat":"45.9877495","placename":"Bellagio CO, Italy","lon":"9.2619766"},"from_stop":{"name":"origin","id":"4756","lat":"42.3750969","lon":"-71.1056079","placename":"Cambridge, MA, USA"}},{"transport_id":"14","id":"2497","transport_name":"air, passenger, intercontinental","transport_description":"intercontinental, kg km from person-km","transport_unit":"kg km","transport_co2_eq":"1.189000","from_stop_id":"4757","from_stop_lat":"-34.894119","from_stop_lon":"-56.067451","to_stop_id":"1258","to_stop_name":"origin","to_stop_lat":"45.9877495","placename":"Montevideo, Uruguay","to_stop_lon":"9.2619766","to_stop":{"id":"1258","name":"origin","lat":"45.9877495","placename":"Bellagio CO, Italy","lon":"9.2619766"},"from_stop":{"name":"origin","id":"4757","lat":"-34.894119","lon":"-56.067451","placename":"Montevideo, Uruguay"}},{"transport_id":"14","id":"2498","transport_name":"air, passenger, intercontinental","transport_description":"intercontinental, kg km from person-km","transport_unit":"kg km","transport_co2_eq":"1.189000","from_stop_id":"4758","from_stop_lat":"40.4406248","from_stop_lon":"-79.9958864","to_stop_id":"1258","to_stop_name":"origin","to_stop_lat":"45.9877495","placename":"Pittsburgh, PA, USA","to_stop_lon":"9.2619766","to_stop":{"id":"1258","name":"origin","lat":"45.9877495","placename":"Bellagio CO, Italy","lon":"9.2619766"},"from_stop":{"name":"origin","id":"4758","lat":"40.4406248","lon":"-79.9958864","placename":"Pittsburgh, PA, USA"}},{"transport_id":"14","id":"2499","transport_name":"air, passenger, intercontinental","transport_description":"intercontinental, kg km from person-km","transport_unit":"kg km","transport_co2_eq":"1.189000","from_stop_id":"4759","from_stop_lat":"34.0522342","from_stop_lon":"-118.2436849","to_stop_id":"1258","to_stop_name":"origin","to_stop_lat":"45.9877495","placename":"Los Angeles, CA, USA","to_stop_lon":"9.2619766","to_stop":{"id":"1258","name":"origin","lat":"45.9877495","placename":"Bellagio CO, Italy","lon":"9.2619766"},"from_stop":{"name":"origin","id":"4759","lat":"34.0522342","lon":"-118.2436849","placename":"Los Angeles, CA, USA"}},{"transport_id":"14","id":"2500","transport_name":"air, passenger, intercontinental","transport_description":"intercontinental, kg km from person-km","transport_unit":"kg km","transport_co2_eq":"1.189000","from_stop_id":"4760","from_stop_lat":"47.6062095","from_stop_lon":"-122.3320708","to_stop_id":"1258","to_stop_name":"origin","to_stop_lat":"45.9877495","placename":"Seattle, WA, USA","to_stop_lon":"9.2619766","to_stop":{"id":"1258","name":"origin","lat":"45.9877495","placename":"Bellagio CO, Italy","lon":"9.2619766"},"from_stop":{"name":"origin","id":"4760","lat":"47.6062095","lon":"-122.3320708","placename":"Seattle, WA, USA"}},{"transport_id":"14","id":"2501","transport_name":"air, passenger, intercontinental","transport_description":"intercontinental, kg km from person-km","transport_unit":"kg km","transport_co2_eq":"1.189000","from_stop_id":"4761","from_stop_lat":"40.4881605","from_stop_lon":"-74.4107062","to_stop_id":"1258","to_stop_name":"origin","to_stop_lat":"45.9877495","placename":"Rutgers, NJ, USA","to_stop_lon":"9.2619766","to_stop":{"id":"1258","name":"origin","lat":"45.9877495","placename":"Bellagio CO, Italy","lon":"9.2619766"},"from_stop":{"name":"origin","id":"4761","lat":"40.4881605","lon":"-74.4107062","placename":"Rutgers, NJ, USA"}},{"transport_id":"14","id":"2502","transport_name":"air, passenger, intercontinental","transport_description":"intercontinental, kg km from person-km","transport_unit":"kg km","transport_co2_eq":"1.189000","from_stop_id":"4762","from_stop_lat":"13.7234186","from_stop_lon":"100.4762319","to_stop_id":"1258","to_stop_name":"origin","to_stop_lat":"45.9877495","placename":"Bangkok, Thailand","to_stop_lon":"9.2619766","to_stop":{"id":"1258","name":"origin","lat":"45.9877495","placename":"Bellagio CO, Italy","lon":"9.2619766"},"from_stop":{"name":"origin","id":"4762","lat":"13.7234186","lon":"100.4762319","placename":"Bangkok, Thailand"}},{"transport_id":"14","id":"2503","transport_name":"air, passenger, intercontinental","transport_description":"intercontinental, kg km from person-km","transport_unit":"kg km","transport_co2_eq":"1.189000","from_stop_id":"4763","from_stop_lat":"36.1658899","from_stop_lon":"-86.7844432","to_stop_id":"1258","to_stop_name":"origin","to_stop_lat":"45.9877495","placename":"Nashville, TN, USA","to_stop_lon":"9.2619766","to_stop":{"id":"1258","name":"origin","lat":"45.9877495","placename":"Bellagio CO, Italy","lon":"9.2619766"},"from_stop":{"name":"origin","id":"4763","lat":"36.1658899","lon":"-86.7844432","placename":"Nashville, TN, USA"}},{"transport_id":"14","id":"2504","transport_name":"air, passenger, intercontinental","transport_description":"intercontinental, kg km from person-km","transport_unit":"kg km","transport_co2_eq":"1.189000","from_stop_id":"4764","from_stop_lat":"42.4184296","from_stop_lon":"-71.1061639","to_stop_id":"1258","to_stop_name":"origin","to_stop_lat":"45.9877495","placename":"Medford, MA, USA","to_stop_lon":"9.2619766","to_stop":{"id":"1258","name":"origin","lat":"45.9877495","placename":"Bellagio CO, Italy","lon":"9.2619766"},"from_stop":{"name":"origin","id":"4764","lat":"42.4184296","lon":"-71.1061639","placename":"Medford, MA, USA"}},{"transport_id":"13","id":"2505","transport_name":"air, passenger, regional","transport_description":"within one continent, kg km from person-km","transport_unit":"kg km","transport_co2_eq":"2.262000","from_stop_id":"4765","from_stop_lat":"51.5001524","from_stop_lon":"-0.1262362","to_stop_id":"1258","to_stop_name":"origin","to_stop_lat":"45.9877495","placename":"Westminster, London, UK","to_stop_lon":"9.2619766","to_stop":{"id":"1258","name":"origin","lat":"45.9877495","placename":"Bellagio CO, Italy","lon":"9.2619766"},"from_stop":{"name":"origin","id":"4765","lat":"51.5001524","lon":"-0.1262362","placename":"Westminster, London, UK"}},{"transport_id":"14","id":"2506","transport_name":"air, passenger, intercontinental","transport_description":"intercontinental, kg km from person-km","transport_unit":"kg km","transport_co2_eq":"1.189000","from_stop_id":"4766","from_stop_lat":"39.6302643","from_stop_lon":"-106.0433518","to_stop_id":"1258","to_stop_name":"origin","to_stop_lat":"45.9877495","placename":"Dillon, CO, USA","to_stop_lon":"9.2619766","to_stop":{"id":"1258","name":"origin","lat":"45.9877495","placename":"Bellagio CO, Italy","lon":"9.2619766"},"from_stop":{"name":"origin","id":"4766","lat":"39.6302643","lon":"-106.0433518","placename":"Dillon, CO, USA"}},{"transport_id":"14","id":"2507","transport_name":"air, passenger, intercontinental","transport_description":"intercontinental, kg km from person-km","transport_unit":"kg km","transport_co2_eq":"1.189000","from_stop_id":"4767","from_stop_lat":"41.4994954","from_stop_lon":"-81.6954088","to_stop_id":"1258","to_stop_name":"origin","to_stop_lat":"45.9877495","placename":"Cleveland, OH, USA","to_stop_lon":"9.2619766","to_stop":{"id":"1258","name":"origin","lat":"45.9877495","placename":"Bellagio CO, Italy","lon":"9.2619766"},"from_stop":{"name":"origin","id":"4767","lat":"41.4994954","lon":"-81.6954088","placename":"Cleveland, OH, USA"}},{"transport_id":"14","id":"2508","transport_name":"air, passenger, intercontinental","transport_description":"intercontinental, kg km from person-km","transport_unit":"kg km","transport_co2_eq":"1.189000","from_stop_id":"4768","from_stop_lat":"40.7142691","from_stop_lon":"-74.0059729","to_stop_id":"1258","to_stop_name":"origin","to_stop_lat":"45.9877495","placename":"New York, NY, USA","to_stop_lon":"9.2619766","to_stop":{"id":"1258","name":"origin","lat":"45.9877495","placename":"Bellagio CO, Italy","lon":"9.2619766"},"from_stop":{"name":"origin","id":"4768","lat":"40.7142691","lon":"-74.0059729","placename":"New York, NY, USA"}},{"transport_id":"16","id":"2509","transport_name":"air, freight, intercontinental","transport_description":"intercontinental freight","transport_unit":"kg km","transport_co2_eq":"0.450000","from_stop_id":"4769","from_stop_lat":"37.4418834","from_stop_lon":"-122.1430195","to_stop_id":"1258","to_stop_name":"origin","to_stop_lat":"45.9877495","placename":"Palo Alto, CA, USA","to_stop_lon":"9.2619766","to_stop":{"id":"1258","name":"origin","lat":"45.9877495","placename":"Bellagio CO, Italy","lon":"9.2619766"},"from_stop":{"name":"origin","id":"4769","lat":"37.4418834","lon":"-122.1430195","placename":"Palo Alto, CA, USA"}},{"transport_id":"14","id":"2510","transport_name":"air, passenger, intercontinental","transport_description":"intercontinental, kg km from person-km","transport_unit":"kg km","transport_co2_eq":"1.189000","from_stop_id":"4770","from_stop_lat":"40.7142691","from_stop_lon":"-74.0059729","to_stop_id":"1258","to_stop_name":"origin","to_stop_lat":"45.9877495","placename":"New York, NY, USA","to_stop_lon":"9.2619766","to_stop":{"id":"1258","name":"origin","lat":"45.9877495","placename":"Bellagio CO, Italy","lon":"9.2619766"},"from_stop":{"name":"origin","id":"4770","lat":"40.7142691","lon":"-74.0059729","placename":"New York, NY, USA"}}],"outgoing":[]}}},"parts":[{"oid":"3510","imid":"2825","linkid":"","weight":"1","rawemissions":"0","emissions":"0","shipping":"6144.46","processemissions":null,"endoflifeemissions":null,"disposaltype":null,"disposalenergy":null,"disposalimpact":null,"disposalemissions":null,"description":"","name":"Chris Csikszentmihalyi","id":"2825","stops":{"origin":{"related_to":"2825","part_or_object":"p","notes":"","placename":"Somerville, MA, USA","id":4754,"name":"origin","lat":"42.3875968","lon":"-71.0994968","hops":{"incoming":[],"outgoing":[{"transport_id":"14","id":"2494","transport_name":"air, passenger, intercontinental","transport_description":"intercontinental, kg km from person-km","transport_unit":"kg km","transport_co2_eq":"1.189000","from_stop_id":"4754","from_stop_lat":"42.3875968","from_stop_lon":"-71.0994968","from_stop_placename":"Somerville, MA, USA","to_stop_id":"1258","to_stop_name":"origin","to_stop_lat":"45.9877495","to_stop_lon":"9.2619766","to_stop_placename":"Bellagio CO, Italy","to_stop":{"id":"1258","name":"origin","lat":"45.9877495","lon":"9.2619766","placename":"Bellagio CO, Italy"},"from_stop":{"name":"origin","id":"4754","lat":"42.3875968","lon":"-71.0994968","placename":"Somerville, MA, USA"}}]}}},"processes":[],"eols":[]},{"oid":"3510","imid":"2826","linkid":"","weight":"1","rawemissions":"0","emissions":"0","shipping":"903.05","processemissions":null,"endoflifeemissions":null,"disposaltype":null,"disposalenergy":null,"disposalimpact":null,"disposalemissions":null,"description":"","name":"Allister MacGregor","id":"2826","stops":{"origin":{"related_to":"2826","part_or_object":"p","notes":"","placename":"West Sussex, UK","id":4755,"name":"origin","lat":"50.9280143","lon":"-0.4617075","hops":{"incoming":[],"outgoing":[{"transport_id":"15","id":"2495","transport_name":"air, freight, regional","transport_description":"freight within one continent","transport_unit":"kg km","transport_co2_eq":"0.787500","from_stop_id":"4755","from_stop_lat":"50.9280143","from_stop_lon":"-0.4617075","from_stop_placename":"West Sussex, UK","to_stop_id":"1258","to_stop_name":"origin","to_stop_lat":"45.9877495","to_stop_lon":"9.2619766","to_stop_placename":"Bellagio CO, Italy","to_stop":{"id":"1258","name":"origin","lat":"45.9877495","lon":"9.2619766","placename":"Bellagio CO, Italy"},"from_stop":{"name":"origin","id":"4755","lat":"50.9280143","lon":"-0.4617075","placename":"West Sussex, UK"}}]}}},"processes":[],"eols":[]},{"oid":"3510","imid":"2827","linkid":"","weight":"1","rawemissions":"0","emissions":"0","shipping":"6145.65","processemissions":null,"endoflifeemissions":null,"disposaltype":null,"disposalenergy":null,"disposalimpact":null,"disposalemissions":null,"description":"","name":"Jennifer Leaning","id":"2827","stops":{"origin":{"related_to":"2827","part_or_object":"p","notes":"","placename":"Cambridge, MA, USA","id":4756,"name":"origin","lat":"42.3750969","lon":"-71.1056079","hops":{"incoming":[],"outgoing":[{"transport_id":"14","id":"2496","transport_name":"air, passenger, intercontinental","transport_description":"intercontinental, kg km from person-km","transport_unit":"kg km","transport_co2_eq":"1.189000","from_stop_id":"4756","from_stop_lat":"42.3750969","from_stop_lon":"-71.1056079","from_stop_placename":"Cambridge, MA, USA","to_stop_id":"1258","to_stop_name":"origin","to_stop_lat":"45.9877495","to_stop_lon":"9.2619766","to_stop_placename":"Bellagio CO, Italy","to_stop":{"id":"1258","name":"origin","lat":"45.9877495","lon":"9.2619766","placename":"Bellagio CO, Italy"},"from_stop":{"name":"origin","id":"4756","lat":"42.3750969","lon":"-71.1056079","placename":"Cambridge, MA, USA"}}]}}},"processes":[],"eols":[]},{"oid":"3510","imid":"2828","linkid":"","weight":"1","rawemissions":"0","emissions":"0","shipping":"11131.3","processemissions":null,"endoflifeemissions":null,"disposaltype":null,"disposalenergy":null,"disposalimpact":null,"disposalemissions":null,"description":"","name":"Roberto Bissio","id":"2828","stops":{"origin":{"related_to":"2828","part_or_object":"p","notes":"","placename":"Montevideo, Uruguay","id":4757,"name":"origin","lat":"-34.894119","lon":"-56.067451","hops":{"incoming":[],"outgoing":[{"transport_id":"14","id":"2497","transport_name":"air, passenger, intercontinental","transport_description":"intercontinental, kg km from person-km","transport_unit":"kg km","transport_co2_eq":"1.189000","from_stop_id":"4757","from_stop_lat":"-34.894119","from_stop_lon":"-56.067451","from_stop_placename":"Montevideo, Uruguay","to_stop_id":"1258","to_stop_name":"origin","to_stop_lat":"45.9877495","to_stop_lon":"9.2619766","to_stop_placename":"Bellagio CO, Italy","to_stop":{"id":"1258","name":"origin","lat":"45.9877495","lon":"9.2619766","placename":"Bellagio CO, Italy"},"from_stop":{"name":"origin","id":"4757","lat":"-34.894119","lon":"-56.067451","placename":"Montevideo, Uruguay"}}]}}},"processes":[],"eols":[]},{"oid":"3510","imid":"2829","linkid":"","weight":"1","rawemissions":"0","emissions":"0","shipping":"6873.69","processemissions":null,"endoflifeemissions":null,"disposaltype":null,"disposalenergy":null,"disposalimpact":null,"disposalemissions":null,"description":"","name":"Artur Dubrawski","id":"2829","stops":{"origin":{"related_to":"2829","part_or_object":"p","notes":"","placename":"Pittsburgh, PA, USA","id":4758,"name":"origin","lat":"40.4406248","lon":"-79.9958864","hops":{"incoming":[],"outgoing":[{"transport_id":"14","id":"2498","transport_name":"air, passenger, intercontinental","transport_description":"intercontinental, kg km from person-km","transport_unit":"kg km","transport_co2_eq":"1.189000","from_stop_id":"4758","from_stop_lat":"40.4406248","from_stop_lon":"-79.9958864","from_stop_placename":"Pittsburgh, PA, USA","to_stop_id":"1258","to_stop_name":"origin","to_stop_lat":"45.9877495","to_stop_lon":"9.2619766","to_stop_placename":"Bellagio CO, Italy","to_stop":{"id":"1258","name":"origin","lat":"45.9877495","lon":"9.2619766","placename":"Bellagio CO, Italy"},"from_stop":{"name":"origin","id":"4758","lat":"40.4406248","lon":"-79.9958864","placename":"Pittsburgh, PA, USA"}}]}}},"processes":[],"eols":[]},{"oid":"3510","imid":"2830","linkid":"","weight":"1","rawemissions":"0","emissions":"0","shipping":"9685.54","processemissions":null,"endoflifeemissions":null,"disposaltype":null,"disposalenergy":null,"disposalimpact":null,"disposalemissions":null,"description":"","name":"Deborah Estrin","id":"2830","stops":{"origin":{"related_to":"2830","part_or_object":"p","notes":"","placename":"Los Angeles, CA, USA","id":4759,"name":"origin","lat":"34.0522342","lon":"-118.2436849","hops":{"incoming":[],"outgoing":[{"transport_id":"14","id":"2499","transport_name":"air, passenger, intercontinental","transport_description":"intercontinental, kg km from person-km","transport_unit":"kg km","transport_co2_eq":"1.189000","from_stop_id":"4759","from_stop_lat":"34.0522342","from_stop_lon":"-118.2436849","from_stop_placename":"Los Angeles, CA, USA","to_stop_id":"1258","to_stop_name":"origin","to_stop_lat":"45.9877495","to_stop_lon":"9.2619766","to_stop_placename":"Bellagio CO, Italy","to_stop":{"id":"1258","name":"origin","lat":"45.9877495","lon":"9.2619766","placename":"Bellagio CO, Italy"},"from_stop":{"name":"origin","id":"4759","lat":"34.0522342","lon":"-118.2436849","placename":"Los Angeles, CA, USA"}}]}}},"processes":[],"eols":[]},{"oid":"3510","imid":"2831","linkid":"","weight":"0","rawemissions":"0","emissions":"0","shipping":"8602.96","processemissions":null,"endoflifeemissions":null,"disposaltype":null,"disposalenergy":null,"disposalimpact":null,"disposalemissions":null,"description":"","name":"Eduardo Jezierski","id":"2831","stops":{"origin":{"related_to":"2831","part_or_object":"p","notes":"","placename":"Seattle, WA, USA","id":4760,"name":"origin","lat":"47.6062095","lon":"-122.3320708","hops":{"incoming":[],"outgoing":[{"transport_id":"14","id":"2500","transport_name":"air, passenger, intercontinental","transport_description":"intercontinental, kg km from person-km","transport_unit":"kg km","transport_co2_eq":"1.189000","from_stop_id":"4760","from_stop_lat":"47.6062095","from_stop_lon":"-122.3320708","from_stop_placename":"Seattle, WA, USA","to_stop_id":"1258","to_stop_name":"origin","to_stop_lat":"45.9877495","to_stop_lon":"9.2619766","to_stop_placename":"Bellagio CO, Italy","to_stop":{"id":"1258","name":"origin","lat":"45.9877495","lon":"9.2619766","placename":"Bellagio CO, Italy"},"from_stop":{"name":"origin","id":"4760","lat":"47.6062095","lon":"-122.3320708","placename":"Seattle, WA, USA"}}]}}},"processes":[],"eols":[]},{"oid":"3510","imid":"2832","linkid":"","weight":"1","rawemissions":"0","emissions":"0","shipping":"6491.95","processemissions":null,"endoflifeemissions":null,"disposaltype":null,"disposalenergy":null,"disposalimpact":null,"disposalemissions":null,"description":"","name":"Leslie Kennedy","id":"2832","stops":{"origin":{"related_to":"2832","part_or_object":"p","notes":"","placename":"Rutgers, NJ, USA","id":4761,"name":"origin","lat":"40.4881605","lon":"-74.4107062","hops":{"incoming":[],"outgoing":[{"transport_id":"14","id":"2501","transport_name":"air, passenger, intercontinental","transport_description":"intercontinental, kg km from person-km","transport_unit":"kg km","transport_co2_eq":"1.189000","from_stop_id":"4761","from_stop_lat":"40.4881605","from_stop_lon":"-74.4107062","from_stop_placename":"Rutgers, NJ, USA","to_stop_id":"1258","to_stop_name":"origin","to_stop_lat":"45.9877495","to_stop_lon":"9.2619766","to_stop_placename":"Bellagio CO, Italy","to_stop":{"id":"1258","name":"origin","lat":"45.9877495","lon":"9.2619766","placename":"Bellagio CO, Italy"},"from_stop":{"name":"origin","id":"4761","lat":"40.4881605","lon":"-74.4107062","placename":"Rutgers, NJ, USA"}}]}}},"processes":[],"eols":[]},{"oid":"3510","imid":"2833","linkid":"","weight":"1","rawemissions":"0","emissions":"0","shipping":"9017.66","processemissions":null,"endoflifeemissions":null,"disposaltype":null,"disposalenergy":null,"disposalimpact":null,"disposalemissions":null,"description":"","name":"Zia Khan","id":"2833","stops":{"origin":{"related_to":"2833","part_or_object":"p","notes":"","placename":"Bangkok, Thailand","id":4762,"name":"origin","lat":"13.7234186","lon":"100.4762319","hops":{"incoming":[],"outgoing":[{"transport_id":"14","id":"2502","transport_name":"air, passenger, intercontinental","transport_description":"intercontinental, kg km from person-km","transport_unit":"kg km","transport_co2_eq":"1.189000","from_stop_id":"4762","from_stop_lat":"13.7234186","from_stop_lon":"100.4762319","from_stop_placename":"Bangkok, Thailand","to_stop_id":"1258","to_stop_name":"origin","to_stop_lat":"45.9877495","to_stop_lon":"9.2619766","to_stop_placename":"Bellagio CO, Italy","to_stop":{"id":"1258","name":"origin","lat":"45.9877495","lon":"9.2619766","placename":"Bellagio CO, Italy"},"from_stop":{"name":"origin","id":"4762","lat":"13.7234186","lon":"100.4762319","placename":"Bangkok, Thailand"}}]}}},"processes":[],"eols":[]},{"oid":"3510","imid":"2834","linkid":"","weight":"1","rawemissions":"0","emissions":"0","shipping":"7633.43","processemissions":null,"endoflifeemissions":null,"disposaltype":null,"disposalenergy":null,"disposalimpact":null,"disposalemissions":null,"description":"","name":"Michael Lesnick","id":"2834","stops":{"origin":{"related_to":"2834","part_or_object":"p","notes":"","placename":"Nashville, TN, USA","id":4763,"name":"origin","lat":"36.1658899","lon":"-86.7844432","hops":{"incoming":[],"outgoing":[{"transport_id":"14","id":"2503","transport_name":"air, passenger, intercontinental","transport_description":"intercontinental, kg km from person-km","transport_unit":"kg km","transport_co2_eq":"1.189000","from_stop_id":"4763","from_stop_lat":"36.1658899","from_stop_lon":"-86.7844432","from_stop_placename":"Nashville, TN, USA","to_stop_id":"1258","to_stop_name":"origin","to_stop_lat":"45.9877495","to_stop_lon":"9.2619766","to_stop_placename":"Bellagio CO, Italy","to_stop":{"id":"1258","name":"origin","lat":"45.9877495","lon":"9.2619766","placename":"Bellagio CO, Italy"},"from_stop":{"name":"origin","id":"4763","lat":"36.1658899","lon":"-86.7844432","placename":"Nashville, TN, USA"}}]}}},"processes":[],"eols":[]},{"oid":"3510","imid":"2835","linkid":"","weight":"1","rawemissions":"0","emissions":"0","shipping":"6143.03","processemissions":null,"endoflifeemissions":null,"disposaltype":null,"disposalenergy":null,"disposalimpact":null,"disposalemissions":null,"description":"","name":"Patrick Meier","id":"2835","stops":{"origin":{"related_to":"2835","part_or_object":"p","notes":"","placename":"Medford, MA, USA","id":4764,"name":"origin","lat":"42.4184296","lon":"-71.1061639","hops":{"incoming":[],"outgoing":[{"transport_id":"14","id":"2504","transport_name":"air, passenger, intercontinental","transport_description":"intercontinental, kg km from person-km","transport_unit":"kg km","transport_co2_eq":"1.189000","from_stop_id":"4764","from_stop_lat":"42.4184296","from_stop_lon":"-71.1061639","from_stop_placename":"Medford, MA, USA","to_stop_id":"1258","to_stop_name":"origin","to_stop_lat":"45.9877495","to_stop_lon":"9.2619766","to_stop_placename":"Bellagio CO, Italy","to_stop":{"id":"1258","name":"origin","lat":"45.9877495","lon":"9.2619766","placename":"Bellagio CO, Italy"},"from_stop":{"name":"origin","id":"4764","lat":"42.4184296","lon":"-71.1061639","placename":"Medford, MA, USA"}}]}}},"processes":[],"eols":[]},{"oid":"3510","imid":"2836","linkid":"","weight":"1","rawemissions":"0","emissions":"0","shipping":"921.46","processemissions":null,"endoflifeemissions":null,"disposaltype":null,"disposalenergy":null,"disposalimpact":null,"disposalemissions":null,"description":"","name":"Roberto Picciotto","id":"2836","stops":{"origin":{"related_to":"2836","part_or_object":"p","notes":"","placename":"Westminster, London, UK","id":4765,"name":"origin","lat":"51.5001524","lon":"-0.1262362","hops":{"incoming":[],"outgoing":[{"transport_id":"13","id":"2505","transport_name":"air, passenger, regional","transport_description":"within one continent, kg km from person-km","transport_unit":"kg km","transport_co2_eq":"2.262000","from_stop_id":"4765","from_stop_lat":"51.5001524","from_stop_lon":"-0.1262362","from_stop_placename":"Westminster, London, UK","to_stop_id":"1258","to_stop_name":"origin","to_stop_lat":"45.9877495","to_stop_lon":"9.2619766","to_stop_placename":"Bellagio CO, Italy","to_stop":{"id":"1258","name":"origin","lat":"45.9877495","lon":"9.2619766","placename":"Bellagio CO, Italy"},"from_stop":{"name":"origin","id":"4765","lat":"51.5001524","lon":"-0.1262362","placename":"Westminster, London, UK"}}]}}},"processes":[],"eols":[]},{"oid":"3510","imid":"2837","linkid":"","weight":"1","rawemissions":"0","emissions":"0","shipping":"8538.62","processemissions":null,"endoflifeemissions":null,"disposaltype":null,"disposalenergy":null,"disposalimpact":null,"disposalemissions":null,"description":"","name":"Kathleen Rutherford","id":"2837","stops":{"origin":{"related_to":"2837","part_or_object":"p","notes":"","placename":"Dillon, CO, USA","id":4766,"name":"origin","lat":"39.6302643","lon":"-106.0433518","hops":{"incoming":[],"outgoing":[{"transport_id":"14","id":"2506","transport_name":"air, passenger, intercontinental","transport_description":"intercontinental, kg km from person-km","transport_unit":"kg km","transport_co2_eq":"1.189000","from_stop_id":"4766","from_stop_lat":"39.6302643","from_stop_lon":"-106.0433518","from_stop_placename":"Dillon, CO, USA","to_stop_id":"1258","to_stop_name":"origin","to_stop_lat":"45.9877495","to_stop_lon":"9.2619766","to_stop_placename":"Bellagio CO, Italy","to_stop":{"id":"1258","name":"origin","lat":"45.9877495","lon":"9.2619766","placename":"Bellagio CO, Italy"},"from_stop":{"name":"origin","id":"4766","lat":"39.6302643","lon":"-106.0433518","placename":"Dillon, CO, USA"}}]}}},"processes":[],"eols":[]},{"oid":"3510","imid":"2838","linkid":"","weight":"1","rawemissions":"0","emissions":"0","shipping":"6913.51","processemissions":null,"endoflifeemissions":null,"disposaltype":null,"disposalenergy":null,"disposalimpact":null,"disposalemissions":null,"description":"","name":"Jen Ziemke","id":"2838","stops":{"origin":{"related_to":"2838","part_or_object":"p","notes":"","placename":"Cleveland, OH, USA","id":4767,"name":"origin","lat":"41.4994954","lon":"-81.6954088","hops":{"incoming":[],"outgoing":[{"transport_id":"14","id":"2507","transport_name":"air, passenger, intercontinental","transport_description":"intercontinental, kg km from person-km","transport_unit":"kg km","transport_co2_eq":"1.189000","from_stop_id":"4767","from_stop_lat":"41.4994954","from_stop_lon":"-81.6954088","from_stop_placename":"Cleveland, OH, USA","to_stop_id":"1258","to_stop_name":"origin","to_stop_lat":"45.9877495","to_stop_lon":"9.2619766","to_stop_placename":"Bellagio CO, Italy","to_stop":{"id":"1258","name":"origin","lat":"45.9877495","lon":"9.2619766","placename":"Bellagio CO, Italy"},"from_stop":{"name":"origin","id":"4767","lat":"41.4994954","lon":"-81.6954088","placename":"Cleveland, OH, USA"}}]}}},"processes":[],"eols":[]},{"oid":"3510","imid":"2839","linkid":"","weight":"1","rawemissions":"0","emissions":"0","shipping":"6449.48","processemissions":null,"endoflifeemissions":null,"disposaltype":null,"disposalenergy":null,"disposalimpact":null,"disposalemissions":null,"description":"","name":"Zazie Schafer","id":"2839","stops":{"origin":{"related_to":"2839","part_or_object":"p","notes":"","placename":"New York, NY, USA","id":4768,"name":"origin","lat":"40.7142691","lon":"-74.0059729","hops":{"incoming":[],"outgoing":[{"transport_id":"14","id":"2508","transport_name":"air, passenger, intercontinental","transport_description":"intercontinental, kg km from person-km","transport_unit":"kg km","transport_co2_eq":"1.189000","from_stop_id":"4768","from_stop_lat":"40.7142691","from_stop_lon":"-74.0059729","from_stop_placename":"New York, NY, USA","to_stop_id":"1258","to_stop_name":"origin","to_stop_lat":"45.9877495","to_stop_lon":"9.2619766","to_stop_placename":"Bellagio CO, Italy","to_stop":{"id":"1258","name":"origin","lat":"45.9877495","lon":"9.2619766","placename":"Bellagio CO, Italy"},"from_stop":{"name":"origin","id":"4768","lat":"40.7142691","lon":"-74.0059729","placename":"New York, NY, USA"}}]}}},"processes":[],"eols":[]},{"oid":"3510","imid":"2841","linkid":"","weight":"1","rawemissions":"0","emissions":"0","shipping":"9556.69","processemissions":null,"endoflifeemissions":null,"disposaltype":null,"disposalenergy":null,"disposalimpact":null,"disposalemissions":null,"description":"","name":"Robert Kirkpatrick","id":"2841","stops":{"origin":{"related_to":"2841","part_or_object":"p","notes":"","placename":"Palo Alto, CA, USA","id":4769,"name":"origin","lat":"37.4418834","lon":"-122.1430195","hops":{"incoming":[],"outgoing":[{"transport_id":"16","id":"2509","transport_name":"air, freight, intercontinental","transport_description":"intercontinental freight","transport_unit":"kg km","transport_co2_eq":"0.450000","from_stop_id":"4769","from_stop_lat":"37.4418834","from_stop_lon":"-122.1430195","from_stop_placename":"Palo Alto, CA, USA","to_stop_id":"1258","to_stop_name":"origin","to_stop_lat":"45.9877495","to_stop_lon":"9.2619766","to_stop_placename":"Bellagio CO, Italy","to_stop":{"id":"1258","name":"origin","lat":"45.9877495","lon":"9.2619766","placename":"Bellagio CO, Italy"},"from_stop":{"name":"origin","id":"4769","lat":"37.4418834","lon":"-122.1430195","placename":"Palo Alto, CA, USA"}}]}}},"processes":[],"eols":[]},{"oid":"3510","imid":"2842","linkid":"","weight":"1","rawemissions":"0","emissions":"0","shipping":"6449.48","processemissions":null,"endoflifeemissions":null,"disposaltype":null,"disposalenergy":null,"disposalimpact":null,"disposalemissions":null,"description":"","name":"Pascale Andree Micheau","id":"2842","stops":{"origin":{"related_to":"2842","part_or_object":"p","notes":"","placename":"New York, NY, USA","id":4770,"name":"origin","lat":"40.7142691","lon":"-74.0059729","hops":{"incoming":[],"outgoing":[{"transport_id":"14","id":"2510","transport_name":"air, passenger, intercontinental","transport_description":"intercontinental, kg km from person-km","transport_unit":"kg km","transport_co2_eq":"1.189000","from_stop_id":"4770","from_stop_lat":"40.7142691","from_stop_lon":"-74.0059729","from_stop_placename":"New York, NY, USA","to_stop_id":"1258","to_stop_name":"origin","to_stop_lat":"45.9877495","to_stop_lon":"9.2619766","to_stop_placename":"Bellagio CO, Italy","to_stop":{"id":"1258","name":"origin","lat":"45.9877495","lon":"9.2619766","placename":"Bellagio CO, Italy"},"from_stop":{"name":"origin","id":"4770","lat":"40.7142691","lon":"-74.0059729","placename":"New York, NY, USA"}}]}}},"processes":[],"eols":[]}],"user":{"name":"csik","id":"9443"}}}