{"3511":{"oid":"3511","type":"trace","flag":"","creator":"7641","name":"Denim Jeans","upc":"","imagelink":"","description":"This is a test map, based on some preliminary research of the denim life-cycle, testing the steps of making a sourcemap for an item of clothing. ","slug":"denim-jeans","category":"","weight":"0","emissions":"0","embodied":"0","transport":"0","process":"0","endoflife":"0","shipping":"37842.52","lifetime":null,"usagetype":"","usageenergy":null,"usageemissions":null,"timecreated":"2010-04-07 14:16:10.218624","timemodified":"2010-04-10 14:22:39","visibility":"public","showfootprint":"on","showembodied":"on","showtransport":"on","showprocess":"on","showendoflife":"on","showlastleg":"on","showuse":"on","showstats":"on","stops":{"origin":{"related_to":"3511","part_or_object":"o","notes":"","placename":"Indonesia","id":"1299","category":"1","lat":"-0.789275","lon":"113.921327","name":"origin","hops":{"incoming":[{"transport_id":"17","id":"2511","transport_name":"None Selected","transport_description":null,"transport_unit":"kg km","transport_co2_eq":"0.000000","from_stop_id":"4771","from_stop_lat":"31.9685988","from_stop_lon":"-99.9018131","to_stop_id":"1299","to_stop_name":"origin","to_stop_lat":"-0.789275","placename":"Texas, USA","to_stop_lon":"113.921327","to_stop":{"id":"1299","name":"origin","lat":"-0.789275","placename":"Indonesia","lon":"113.921327"},"from_stop":{"name":"origin","id":"4771","lat":"31.9685988","lon":"-99.9018131","placename":"Texas, USA"}},{"transport_id":"17","id":"2512","transport_name":"None Selected","transport_description":null,"transport_unit":"kg km","transport_co2_eq":"0.000000","from_stop_id":"4772","from_stop_lat":"35.86166","from_stop_lon":"104.195397","to_stop_id":"1299","to_stop_name":"origin","to_stop_lat":"-0.789275","placename":"China","to_stop_lon":"113.921327","to_stop":{"id":"1299","name":"origin","lat":"-0.789275","placename":"Indonesia","lon":"113.921327"},"from_stop":{"name":"origin","id":"4772","lat":"35.86166","lon":"104.195397","placename":"China"}},{"transport_id":"17","id":"2513","transport_name":"None Selected","transport_description":null,"transport_unit":"kg km","transport_co2_eq":"0.000000","from_stop_id":"4773","from_stop_lat":"4.210484","from_stop_lon":"101.975766","to_stop_id":"1299","to_stop_name":"origin","to_stop_lat":"-0.789275","placename":"Malaysia","to_stop_lon":"113.921327","to_stop":{"id":"1299","name":"origin","lat":"-0.789275","placename":"Indonesia","lon":"113.921327"},"from_stop":{"name":"origin","id":"4773","lat":"4.210484","lon":"101.975766","placename":"Malaysia"}},{"transport_id":"17","id":"2514","transport_name":"None Selected","transport_description":null,"transport_unit":"kg km","transport_co2_eq":"0.000000","from_stop_id":"4774","from_stop_lat":"15.870032","from_stop_lon":"100.992541","to_stop_id":"1299","to_stop_name":"origin","to_stop_lat":"-0.789275","placename":"Thailand","to_stop_lon":"113.921327","to_stop":{"id":"1299","name":"origin","lat":"-0.789275","placename":"Indonesia","lon":"113.921327"},"from_stop":{"name":"origin","id":"4774","lat":"15.870032","lon":"100.992541","placename":"Thailand"}},{"transport_id":"17","id":"2515","transport_name":"None Selected","transport_description":null,"transport_unit":"kg km","transport_co2_eq":"0.000000","from_stop_id":"4775","from_stop_lat":"1.352083","from_stop_lon":"103.819836","to_stop_id":"1299","to_stop_name":"origin","to_stop_lat":"-0.789275","placename":"Singapore","to_stop_lon":"113.921327","to_stop":{"id":"1299","name":"origin","lat":"-0.789275","placename":"Indonesia","lon":"113.921327"},"from_stop":{"name":"origin","id":"4775","lat":"1.352083","lon":"103.819836","placename":"Singapore"}},{"transport_id":"17","id":"2516","transport_name":"None Selected","transport_description":null,"transport_unit":"kg km","transport_co2_eq":"0.000000","from_stop_id":"4776","from_stop_lat":"-0.789275","from_stop_lon":"113.921327","to_stop_id":"1299","to_stop_name":"origin","to_stop_lat":"-0.789275","placename":"Indonesia","to_stop_lon":"113.921327","to_stop":{"id":"1299","name":"origin","lat":"-0.789275","placename":"Indonesia","lon":"113.921327"},"from_stop":{"name":"origin","id":"4776","lat":"-0.789275","lon":"113.921327","placename":"Indonesia"}},{"transport_id":"17","id":"2517","transport_name":"None Selected","transport_description":null,"transport_unit":"kg km","transport_co2_eq":"0.000000","from_stop_id":"4777","from_stop_lat":"22.396428","from_stop_lon":"114.109497","to_stop_id":"1299","to_stop_name":"origin","to_stop_lat":"-0.789275","placename":"Hong Kong","to_stop_lon":"113.921327","to_stop":{"id":"1299","name":"origin","lat":"-0.789275","placename":"Indonesia","lon":"113.921327"},"from_stop":{"name":"origin","id":"4777","lat":"22.396428","lon":"114.109497","placename":"Hong Kong"}},{"transport_id":"17","id":"2518","transport_name":"None Selected","transport_description":null,"transport_unit":"kg km","transport_co2_eq":"0.000000","from_stop_id":"4778","from_stop_lat":"4.210484","from_stop_lon":"101.975766","to_stop_id":"1299","to_stop_name":"origin","to_stop_lat":"-0.789275","placename":"Malaysia","to_stop_lon":"113.921327","to_stop":{"id":"1299","name":"origin","lat":"-0.789275","placename":"Indonesia","lon":"113.921327"},"from_stop":{"name":"origin","id":"4778","lat":"4.210484","lon":"101.975766","placename":"Malaysia"}},{"transport_id":"17","id":"2519","transport_name":"None Selected","transport_description":null,"transport_unit":"kg km","transport_co2_eq":"0.000000","from_stop_id":"4779","from_stop_lat":"23.69781","from_stop_lon":"120.960515","to_stop_id":"1299","to_stop_name":"origin","to_stop_lat":"-0.789275","placename":"Taiwan","to_stop_lon":"113.921327","to_stop":{"id":"1299","name":"origin","lat":"-0.789275","placename":"Indonesia","lon":"113.921327"},"from_stop":{"name":"origin","id":"4779","lat":"23.69781","lon":"120.960515","placename":"Taiwan"}},{"transport_id":"17","id":"2520","transport_name":"None Selected","transport_description":null,"transport_unit":"kg km","transport_co2_eq":"0.000000","from_stop_id":"4780","from_stop_lat":"1.352083","from_stop_lon":"103.819836","to_stop_id":"1299","to_stop_name":"origin","to_stop_lat":"-0.789275","placename":"Singapore","to_stop_lon":"113.921327","to_stop":{"id":"1299","name":"origin","lat":"-0.789275","placename":"Indonesia","lon":"113.921327"},"from_stop":{"name":"origin","id":"4780","lat":"1.352083","lon":"103.819836","placename":"Singapore"}},{"transport_id":"17","id":"2521","transport_name":"None Selected","transport_description":null,"transport_unit":"kg km","transport_co2_eq":"0.000000","from_stop_id":"4781","from_stop_lat":"20.593684","from_stop_lon":"78.96288","to_stop_id":"1299","to_stop_name":"origin","to_stop_lat":"-0.789275","placename":"India","to_stop_lon":"113.921327","to_stop":{"id":"1299","name":"origin","lat":"-0.789275","placename":"Indonesia","lon":"113.921327"},"from_stop":{"name":"origin","id":"4781","lat":"20.593684","lon":"78.96288","placename":"India"}},{"transport_id":"17","id":"2522","transport_name":"None Selected","transport_description":null,"transport_unit":"kg km","transport_co2_eq":"0.000000","from_stop_id":"4782","from_stop_lat":"1.352083","from_stop_lon":"103.819836","to_stop_id":"1299","to_stop_name":"origin","to_stop_lat":"-0.789275","placename":"Singapore","to_stop_lon":"113.921327","to_stop":{"id":"1299","name":"origin","lat":"-0.789275","placename":"Indonesia","lon":"113.921327"},"from_stop":{"name":"origin","id":"4782","lat":"1.352083","lon":"103.819836","placename":"Singapore"}}],"outgoing":[]}}},"parts":[{"oid":"3511","imid":"2843","linkid":"","weight":"0","rawemissions":"0","emissions":"0","shipping":"15072.35","processemissions":null,"endoflifeemissions":null,"disposaltype":null,"disposalenergy":null,"disposalimpact":null,"disposalemissions":null,"description":"Raw material grown here. \nAgriculture Inputs: Planting, fertilizing, cultivating, picking\nWater\nEnergy\nLabour","name":"Cotton","id":"2843","stops":{"origin":{"related_to":"2843","part_or_object":"p","notes":"","placename":"Texas, USA","id":4771,"name":"origin","lat":"31.9685988","lon":"-99.9018131","hops":{"incoming":[],"outgoing":[{"transport_id":"17","id":"2511","transport_name":"None Selected","transport_description":null,"transport_unit":"kg km","transport_co2_eq":"0.000000","from_stop_id":"4771","from_stop_lat":"31.9685988","from_stop_lon":"-99.9018131","from_stop_placename":"Texas, USA","to_stop_id":"1299","to_stop_name":"origin","to_stop_lat":"-0.789275","to_stop_lon":"113.921327","to_stop_placename":"Indonesia","to_stop":{"id":"1299","name":"origin","lat":"-0.789275","lon":"113.921327","placename":"Indonesia"},"from_stop":{"name":"origin","id":"4771","lat":"31.9685988","lon":"-99.9018131","placename":"Texas, USA"}}]}}},"processes":[],"eols":[]},{"oid":"3511","imid":"2844","linkid":"","weight":"0","rawemissions":"0","emissions":"0","shipping":"4202.83","processemissions":null,"endoflifeemissions":null,"disposaltype":null,"disposalenergy":null,"disposalimpact":null,"disposalemissions":null,"description":"The raw cotton is put through a finishing process, where impurities are removed.","name":"Cotton finishing","id":"2844","stops":{"origin":{"related_to":"2844","part_or_object":"p","notes":"","placename":"China","id":4772,"name":"origin","lat":"35.86166","lon":"104.195397","hops":{"incoming":[],"outgoing":[{"transport_id":"17","id":"2512","transport_name":"None Selected","transport_description":null,"transport_unit":"kg km","transport_co2_eq":"0.000000","from_stop_id":"4772","from_stop_lat":"35.86166","from_stop_lon":"104.195397","from_stop_placename":"China","to_stop_id":"1299","to_stop_name":"origin","to_stop_lat":"-0.789275","to_stop_lon":"113.921327","to_stop_placename":"Indonesia","to_stop":{"id":"1299","name":"origin","lat":"-0.789275","lon":"113.921327","placename":"Indonesia"},"from_stop":{"name":"origin","id":"4772","lat":"35.86166","lon":"104.195397","placename":"China"}}]}}},"processes":[],"eols":[]},{"oid":"3511","imid":"2845","linkid":"","weight":"0","rawemissions":"0","emissions":"0","shipping":"1440.61","processemissions":null,"endoflifeemissions":null,"disposaltype":null,"disposalenergy":null,"disposalimpact":null,"disposalemissions":null,"description":"Once impurities have been removed, the cotton is shipped to Malaysia to be spun into yarn.","name":"Yarn","id":"2845","stops":{"origin":{"related_to":"2845","part_or_object":"p","notes":"","placename":"Malaysia","id":4773,"name":"origin","lat":"4.210484","lon":"101.975766","hops":{"incoming":[],"outgoing":[{"transport_id":"17","id":"2513","transport_name":"None Selected","transport_description":null,"transport_unit":"kg km","transport_co2_eq":"0.000000","from_stop_id":"4773","from_stop_lat":"4.210484","from_stop_lon":"101.975766","from_stop_placename":"Malaysia","to_stop_id":"1299","to_stop_name":"origin","to_stop_lat":"-0.789275","to_stop_lon":"113.921327","to_stop_placename":"Indonesia","to_stop":{"id":"1299","name":"origin","lat":"-0.789275","lon":"113.921327","placename":"Indonesia"},"from_stop":{"name":"origin","id":"4773","lat":"4.210484","lon":"101.975766","placename":"Malaysia"}}]}}},"processes":[],"eols":[]},{"oid":"3511","imid":"2846","linkid":"","weight":"0","rawemissions":"0","emissions":"0","shipping":"2336.58","processemissions":null,"endoflifeemissions":null,"disposaltype":null,"disposalenergy":null,"disposalimpact":null,"disposalemissions":null,"description":"Once made into yarn, it travels to Thailand to be woven into fabric. ","name":"Weaving- Fabric","id":"2846","stops":{"origin":{"related_to":"2846","part_or_object":"p","notes":"","placename":"Thailand","id":4774,"name":"origin","lat":"15.870032","lon":"100.992541","hops":{"incoming":[],"outgoing":[{"transport_id":"17","id":"2514","transport_name":"None Selected","transport_description":null,"transport_unit":"kg km","transport_co2_eq":"0.000000","from_stop_id":"4774","from_stop_lat":"15.870032","from_stop_lon":"100.992541","from_stop_placename":"Thailand","to_stop_id":"1299","to_stop_name":"origin","to_stop_lat":"-0.789275","to_stop_lon":"113.921327","to_stop_placename":"Indonesia","to_stop":{"id":"1299","name":"origin","lat":"-0.789275","lon":"113.921327","placename":"Indonesia"},"from_stop":{"name":"origin","id":"4774","lat":"15.870032","lon":"100.992541","placename":"Thailand"}}]}}},"processes":[],"eols":[]},{"oid":"3511","imid":"2847","linkid":"","weight":"0","rawemissions":"0","emissions":"0","shipping":"1149.4","processemissions":null,"endoflifeemissions":null,"disposaltype":null,"disposalenergy":null,"disposalimpact":null,"disposalemissions":null,"description":"The fabric is then sent to Singapore to be cut ","name":"Cutting","id":"2847","stops":{"origin":{"related_to":"2847","part_or_object":"p","notes":"","placename":"Singapore","id":4775,"name":"origin","lat":"1.352083","lon":"103.819836","hops":{"incoming":[],"outgoing":[{"transport_id":"17","id":"2515","transport_name":"None Selected","transport_description":null,"transport_unit":"kg km","transport_co2_eq":"0.000000","from_stop_id":"4775","from_stop_lat":"1.352083","from_stop_lon":"103.819836","from_stop_placename":"Singapore","to_stop_id":"1299","to_stop_name":"origin","to_stop_lat":"-0.789275","to_stop_lon":"113.921327","to_stop_placename":"Indonesia","to_stop":{"id":"1299","name":"origin","lat":"-0.789275","lon":"113.921327","placename":"Indonesia"},"from_stop":{"name":"origin","id":"4775","lat":"1.352083","lon":"103.819836","placename":"Singapore"}}]}}},"processes":[],"eols":[]},{"oid":"3511","imid":"2848","linkid":"","weight":"0","rawemissions":"0","emissions":"0","shipping":"0","processemissions":null,"endoflifeemissions":null,"disposaltype":null,"disposalenergy":null,"disposalimpact":null,"disposalemissions":null,"description":"Once cut, the pieces are sent to Indonesia to be sewn, and assembled. ","name":"Sewing","id":"2848","stops":{"origin":{"related_to":"2848","part_or_object":"p","notes":"","placename":"Indonesia","id":4776,"name":"origin","lat":"-0.789275","lon":"113.921327","hops":{"incoming":[],"outgoing":[{"transport_id":"17","id":"2516","transport_name":"None Selected","transport_description":null,"transport_unit":"kg km","transport_co2_eq":"0.000000","from_stop_id":"4776","from_stop_lat":"-0.789275","from_stop_lon":"113.921327","from_stop_placename":"Indonesia","to_stop_id":"1299","to_stop_name":"origin","to_stop_lat":"-0.789275","to_stop_lon":"113.921327","to_stop_placename":"Indonesia","to_stop":{"id":"1299","name":"origin","lat":"-0.789275","lon":"113.921327","placename":"Indonesia"},"from_stop":{"name":"origin","id":"4776","lat":"-0.789275","lon":"113.921327","placename":"Indonesia"}}]}}},"processes":[],"eols":[]},{"oid":"3511","imid":"2849","linkid":"","weight":"0","rawemissions":"0","emissions":"0","shipping":"2581.1","processemissions":null,"endoflifeemissions":null,"disposaltype":null,"disposalenergy":null,"disposalimpact":null,"disposalemissions":null,"description":"Zippers come from Hong Kong, shipped to Indonesia for assembly. ","name":"Zippers","id":"2849","stops":{"origin":{"related_to":"2849","part_or_object":"p","notes":"","placename":"Hong Kong","id":4777,"name":"origin","lat":"22.396428","lon":"114.109497","hops":{"incoming":[],"outgoing":[{"transport_id":"17","id":"2517","transport_name":"None Selected","transport_description":null,"transport_unit":"kg km","transport_co2_eq":"0.000000","from_stop_id":"4777","from_stop_lat":"22.396428","from_stop_lon":"114.109497","from_stop_placename":"Hong Kong","to_stop_id":"1299","to_stop_name":"origin","to_stop_lat":"-0.789275","to_stop_lon":"113.921327","to_stop_placename":"Indonesia","to_stop":{"id":"1299","name":"origin","lat":"-0.789275","lon":"113.921327","placename":"Indonesia"},"from_stop":{"name":"origin","id":"4777","lat":"22.396428","lon":"114.109497","placename":"Hong Kong"}}]}}},"processes":[],"eols":[]},{"oid":"3511","imid":"2850","linkid":"","weight":"0","rawemissions":"0","emissions":"0","shipping":"1440.61","processemissions":null,"endoflifeemissions":null,"disposaltype":null,"disposalenergy":null,"disposalimpact":null,"disposalemissions":null,"description":"The thread is shipped to Indonesia for sewing.","name":"Thread","id":"2850","stops":{"origin":{"related_to":"2850","part_or_object":"p","notes":"","placename":"Malaysia","id":4778,"name":"origin","lat":"4.210484","lon":"101.975766","hops":{"incoming":[],"outgoing":[{"transport_id":"17","id":"2518","transport_name":"None Selected","transport_description":null,"transport_unit":"kg km","transport_co2_eq":"0.000000","from_stop_id":"4778","from_stop_lat":"4.210484","from_stop_lon":"101.975766","from_stop_placename":"Malaysia","to_stop_id":"1299","to_stop_name":"origin","to_stop_lat":"-0.789275","to_stop_lon":"113.921327","to_stop_placename":"Indonesia","to_stop":{"id":"1299","name":"origin","lat":"-0.789275","lon":"113.921327","placename":"Indonesia"},"from_stop":{"name":"origin","id":"4778","lat":"4.210484","lon":"101.975766","placename":"Malaysia"}}]}}},"processes":[],"eols":[]},{"oid":"3511","imid":"2851","linkid":"","weight":"0","rawemissions":"0","emissions":"0","shipping":"2830.22","processemissions":null,"endoflifeemissions":null,"disposaltype":null,"disposalenergy":null,"disposalimpact":null,"disposalemissions":null,"description":"Buttons and rivets are shipped to Indonesia for assembly.","name":"Buttons & Rivets ","id":"2851","stops":{"origin":{"related_to":"2851","part_or_object":"p","notes":"","placename":"Taiwan","id":4779,"name":"origin","lat":"23.69781","lon":"120.960515","hops":{"incoming":[],"outgoing":[{"transport_id":"17","id":"2519","transport_name":"None Selected","transport_description":null,"transport_unit":"kg km","transport_co2_eq":"0.000000","from_stop_id":"4779","from_stop_lat":"23.69781","from_stop_lon":"120.960515","from_stop_placename":"Taiwan","to_stop_id":"1299","to_stop_name":"origin","to_stop_lat":"-0.789275","to_stop_lon":"113.921327","to_stop_placename":"Indonesia","to_stop":{"id":"1299","name":"origin","lat":"-0.789275","lon":"113.921327","placename":"Indonesia"},"from_stop":{"name":"origin","id":"4779","lat":"23.69781","lon":"120.960515","placename":"Taiwan"}}]}}},"processes":[],"eols":[]},{"oid":"3511","imid":"2852","linkid":"","weight":"0","rawemissions":"0","emissions":"0","shipping":"1149.4","processemissions":null,"endoflifeemissions":null,"disposaltype":null,"disposalenergy":null,"disposalimpact":null,"disposalemissions":null,"description":"The embroidery is shipped from Singapore to Indonesia for assembly. ","name":"Embroidery ","id":"2852","stops":{"origin":{"related_to":"2852","part_or_object":"p","notes":"","placename":"Singapore","id":4780,"name":"origin","lat":"1.352083","lon":"103.819836","hops":{"incoming":[],"outgoing":[{"transport_id":"17","id":"2520","transport_name":"None Selected","transport_description":null,"transport_unit":"kg km","transport_co2_eq":"0.000000","from_stop_id":"4780","from_stop_lat":"1.352083","from_stop_lon":"103.819836","from_stop_placename":"Singapore","to_stop_id":"1299","to_stop_name":"origin","to_stop_lat":"-0.789275","to_stop_lon":"113.921327","to_stop_placename":"Indonesia","to_stop":{"id":"1299","name":"origin","lat":"-0.789275","lon":"113.921327","placename":"Indonesia"},"from_stop":{"name":"origin","id":"4780","lat":"1.352083","lon":"103.819836","placename":"Singapore"}}]}}},"processes":[],"eols":[]},{"oid":"3511","imid":"2853","linkid":"","weight":"0","rawemissions":"0","emissions":"0","shipping":"4490.02","processemissions":null,"endoflifeemissions":null,"disposaltype":null,"disposalenergy":null,"disposalimpact":null,"disposalemissions":null,"description":"The labels for the jeans are shipped in from India.","name":"Labels ","id":"2853","stops":{"origin":{"related_to":"2853","part_or_object":"p","notes":"","placename":"India","id":4781,"name":"origin","lat":"20.593684","lon":"78.96288","hops":{"incoming":[],"outgoing":[{"transport_id":"17","id":"2521","transport_name":"None Selected","transport_description":null,"transport_unit":"kg km","transport_co2_eq":"0.000000","from_stop_id":"4781","from_stop_lat":"20.593684","from_stop_lon":"78.96288","from_stop_placename":"India","to_stop_id":"1299","to_stop_name":"origin","to_stop_lat":"-0.789275","to_stop_lon":"113.921327","to_stop_placename":"Indonesia","to_stop":{"id":"1299","name":"origin","lat":"-0.789275","lon":"113.921327","placename":"Indonesia"},"from_stop":{"name":"origin","id":"4781","lat":"20.593684","lon":"78.96288","placename":"India"}}]}}},"processes":[],"eols":[]},{"oid":"3511","imid":"2854","linkid":"","weight":"0","rawemissions":"0","emissions":"0","shipping":"1149.4","processemissions":null,"endoflifeemissions":null,"disposaltype":null,"disposalenergy":null,"disposalimpact":null,"disposalemissions":null,"description":"Once the jeans are assembled in Indonesia, they are shipped to Singapore for final branding and inspection, before being shipped to different markets all over the globe. ","name":"Branding & Inspection","id":"2854","stops":{"origin":{"related_to":"2854","part_or_object":"p","notes":"","placename":"Singapore","id":4782,"name":"origin","lat":"1.352083","lon":"103.819836","hops":{"incoming":[],"outgoing":[{"transport_id":"17","id":"2522","transport_name":"None Selected","transport_description":null,"transport_unit":"kg km","transport_co2_eq":"0.000000","from_stop_id":"4782","from_stop_lat":"1.352083","from_stop_lon":"103.819836","from_stop_placename":"Singapore","to_stop_id":"1299","to_stop_name":"origin","to_stop_lat":"-0.789275","to_stop_lon":"113.921327","to_stop_placename":"Indonesia","to_stop":{"id":"1299","name":"origin","lat":"-0.789275","lon":"113.921327","placename":"Indonesia"},"from_stop":{"name":"origin","id":"4782","lat":"1.352083","lon":"103.819836","placename":"Singapore"}}]}}},"processes":[],"eols":[]}],"user":{"name":"jenniferksharpe","id":"7641"}}}