{"3516":{"oid":"3516","type":"trace","flag":"","creator":"9447","name":"Dell","upc":"","imagelink":"","description":"","slug":"dell","category":"","weight":"0","emissions":"0","embodied":"0","transport":"0","process":"0","endoflife":"0","shipping":"17038.84","lifetime":null,"usagetype":"","usageenergy":null,"usageemissions":null,"timecreated":"2010-04-07 16:18:48.459912","timemodified":"2010-04-07 20:46:46","visibility":"public","showfootprint":"on","showembodied":"on","showtransport":"on","showprocess":"on","showendoflife":"on","showlastleg":"on","showuse":"on","showstats":"on","stops":{"origin":{"related_to":"3516","part_or_object":"o","notes":"","placename":"Xiamen, Fujian, China","id":"1267","category":"1","lat":"24.479615","lon":"118.08939","name":"origin","hops":{"incoming":[{"transport_id":"17","id":"2523","transport_name":"None Selected","transport_description":null,"transport_unit":"kg km","transport_co2_eq":"0.000000","from_stop_id":"4783","from_stop_lat":"31.297779","from_stop_lon":"120.585586","to_stop_id":"1267","to_stop_name":"origin","to_stop_lat":"24.479615","placename":"Suzhou, Jiangsu, China","to_stop_lon":"118.08939","to_stop":{"id":"1267","name":"origin","lat":"24.479615","placename":"Xiamen, Fujian, China","lon":"118.08939"},"from_stop":{"name":"origin","id":"4783","lat":"31.297779","lon":"120.585586","placename":"Suzhou, Jiangsu, China"}},{"transport_id":"17","id":"2524","transport_name":"None Selected","transport_description":null,"transport_unit":"kg km","transport_co2_eq":"0.000000","from_stop_id":"4784","from_stop_lat":"31.230708","from_stop_lon":"121.472916","to_stop_id":"1267","to_stop_name":"origin","to_stop_lat":"24.479615","placename":"Shanghai, China","to_stop_lon":"118.08939","to_stop":{"id":"1267","name":"origin","lat":"24.479615","placename":"Xiamen, Fujian, China","lon":"118.08939"},"from_stop":{"name":"origin","id":"4784","lat":"31.230708","lon":"121.472916","placename":"Shanghai, China"}},{"transport_id":"17","id":"2525","transport_name":"None Selected","transport_description":null,"transport_unit":"kg km","transport_co2_eq":"0.000000","from_stop_id":"4785","from_stop_lat":"23.69781","from_stop_lon":"120.960515","to_stop_id":"1267","to_stop_name":"origin","to_stop_lat":"24.479615","placename":"Taiwan","to_stop_lon":"118.08939","to_stop":{"id":"1267","name":"origin","lat":"24.479615","placename":"Xiamen, Fujian, China","lon":"118.08939"},"from_stop":{"name":"origin","id":"4785","lat":"23.69781","lon":"120.960515","placename":"Taiwan"}},{"transport_id":"17","id":"2526","transport_name":"None Selected","transport_description":null,"transport_unit":"kg km","transport_co2_eq":"0.000000","from_stop_id":"4786","from_stop_lat":"22.543447","from_stop_lon":"114.057818","to_stop_id":"1267","to_stop_name":"origin","to_stop_lat":"24.479615","placename":"Shenzhen, Guangdong, China","to_stop_lon":"118.08939","to_stop":{"id":"1267","name":"origin","lat":"24.479615","placename":"Xiamen, Fujian, China","lon":"118.08939"},"from_stop":{"name":"origin","id":"4786","lat":"22.543447","lon":"114.057818","placename":"Shenzhen, Guangdong, China"}},{"transport_id":"17","id":"2527","transport_name":"None Selected","transport_description":null,"transport_unit":"kg km","transport_co2_eq":"0.000000","from_stop_id":"4787","from_stop_lat":"36.204824","from_stop_lon":"138.252924","to_stop_id":"1267","to_stop_name":"origin","to_stop_lat":"24.479615","placename":"Japan","to_stop_lon":"118.08939","to_stop":{"id":"1267","name":"origin","lat":"24.479615","placename":"Xiamen, Fujian, China","lon":"118.08939"},"from_stop":{"name":"origin","id":"4787","lat":"36.204824","lon":"138.252924","placename":"Japan"}},{"transport_id":"17","id":"2528","transport_name":"None Selected","transport_description":null,"transport_unit":"kg km","transport_co2_eq":"0.000000","from_stop_id":"4788","from_stop_lat":"37.09024","from_stop_lon":"-95.712891","to_stop_id":"1267","to_stop_name":"origin","to_stop_lat":"24.479615","placename":"United States","to_stop_lon":"118.08939","to_stop":{"id":"1267","name":"origin","lat":"24.479615","placename":"Xiamen, Fujian, China","lon":"118.08939"},"from_stop":{"name":"origin","id":"4788","lat":"37.09024","lon":"-95.712891","placename":"United States"}}],"outgoing":[]}}},"parts":[{"oid":"3516","imid":"2855","linkid":"","weight":"0","rawemissions":"0","emissions":"0","shipping":"797.66","processemissions":null,"endoflifeemissions":null,"disposaltype":null,"disposalenergy":null,"disposalimpact":null,"disposalemissions":null,"description":"","name":"Printers","id":"2855","stops":{"origin":{"related_to":"2855","part_or_object":"p","notes":"","placename":"Suzhou, Jiangsu, China","id":4783,"name":"origin","lat":"31.297779","lon":"120.585586","hops":{"incoming":[],"outgoing":[{"transport_id":"17","id":"2523","transport_name":"None Selected","transport_description":null,"transport_unit":"kg km","transport_co2_eq":"0.000000","from_stop_id":"4783","from_stop_lat":"31.297779","from_stop_lon":"120.585586","from_stop_placename":"Suzhou, Jiangsu, China","to_stop_id":"1267","to_stop_name":"origin","to_stop_lat":"24.479615","to_stop_lon":"118.08939","to_stop_placename":"Xiamen, Fujian, China","to_stop":{"id":"1267","name":"origin","lat":"24.479615","lon":"118.08939","placename":"Xiamen, Fujian, China"},"from_stop":{"name":"origin","id":"4783","lat":"31.297779","lon":"120.585586","placename":"Suzhou, Jiangsu, China"}}]}}},"processes":[],"eols":[]},{"oid":"3516","imid":"2856","linkid":"","weight":"0","rawemissions":"0","emissions":"0","shipping":"821.86","processemissions":null,"endoflifeemissions":null,"disposaltype":null,"disposalenergy":null,"disposalimpact":null,"disposalemissions":null,"description":"","name":"Box Builders","id":"2856","stops":{"origin":{"related_to":"2856","part_or_object":"p","notes":"","placename":"Shanghai, China","id":4784,"name":"origin","lat":"31.230708","lon":"121.472916","hops":{"incoming":[],"outgoing":[{"transport_id":"17","id":"2524","transport_name":"None Selected","transport_description":null,"transport_unit":"kg km","transport_co2_eq":"0.000000","from_stop_id":"4784","from_stop_lat":"31.230708","from_stop_lon":"121.472916","from_stop_placename":"Shanghai, China","to_stop_id":"1267","to_stop_name":"origin","to_stop_lat":"24.479615","to_stop_lon":"118.08939","to_stop_placename":"Xiamen, Fujian, China","to_stop":{"id":"1267","name":"origin","lat":"24.479615","lon":"118.08939","placename":"Xiamen, Fujian, China"},"from_stop":{"name":"origin","id":"4784","lat":"31.230708","lon":"121.472916","placename":"Shanghai, China"}}]}}},"processes":[],"eols":[]},{"oid":"3516","imid":"2857","linkid":"","weight":"0","rawemissions":"0","emissions":"0","shipping":"304.47","processemissions":null,"endoflifeemissions":null,"disposaltype":null,"disposalenergy":null,"disposalimpact":null,"disposalemissions":null,"description":"","name":"Graphic Card","id":"2857","stops":{"origin":{"related_to":"2857","part_or_object":"p","notes":"","placename":"Taiwan","id":4785,"name":"origin","lat":"23.69781","lon":"120.960515","hops":{"incoming":[],"outgoing":[{"transport_id":"17","id":"2525","transport_name":"None Selected","transport_description":null,"transport_unit":"kg km","transport_co2_eq":"0.000000","from_stop_id":"4785","from_stop_lat":"23.69781","from_stop_lon":"120.960515","from_stop_placename":"Taiwan","to_stop_id":"1267","to_stop_name":"origin","to_stop_lat":"24.479615","to_stop_lon":"118.08939","to_stop_placename":"Xiamen, Fujian, China","to_stop":{"id":"1267","name":"origin","lat":"24.479615","lon":"118.08939","placename":"Xiamen, Fujian, China"},"from_stop":{"name":"origin","id":"4785","lat":"23.69781","lon":"120.960515","placename":"Taiwan"}}]}}},"processes":[],"eols":[]},{"oid":"3516","imid":"2858","linkid":"","weight":"0","rawemissions":"0","emissions":"0","shipping":"464.52","processemissions":null,"endoflifeemissions":null,"disposaltype":null,"disposalenergy":null,"disposalimpact":null,"disposalemissions":null,"description":"","name":"CPU","id":"2858","stops":{"origin":{"related_to":"2858","part_or_object":"p","notes":"","placename":"Shenzhen, Guangdong, China","id":4786,"name":"origin","lat":"22.543447","lon":"114.057818","hops":{"incoming":[],"outgoing":[{"transport_id":"17","id":"2526","transport_name":"None Selected","transport_description":null,"transport_unit":"kg km","transport_co2_eq":"0.000000","from_stop_id":"4786","from_stop_lat":"22.543447","from_stop_lon":"114.057818","from_stop_placename":"Shenzhen, Guangdong, China","to_stop_id":"1267","to_stop_name":"origin","to_stop_lat":"24.479615","to_stop_lon":"118.08939","to_stop_placename":"Xiamen, Fujian, China","to_stop":{"id":"1267","name":"origin","lat":"24.479615","lon":"118.08939","placename":"Xiamen, Fujian, China"},"from_stop":{"name":"origin","id":"4786","lat":"22.543447","lon":"114.057818","placename":"Shenzhen, Guangdong, China"}}]}}},"processes":[],"eols":[]},{"oid":"3516","imid":"2859","linkid":"","weight":"0","rawemissions":"0","emissions":"0","shipping":"2327.99","processemissions":null,"endoflifeemissions":null,"disposaltype":null,"disposalenergy":null,"disposalimpact":null,"disposalemissions":null,"description":"","name":"Monitors","id":"2859","stops":{"origin":{"related_to":"2859","part_or_object":"p","notes":"","placename":"Japan","id":4787,"name":"origin","lat":"36.204824","lon":"138.252924","hops":{"incoming":[],"outgoing":[{"transport_id":"17","id":"2527","transport_name":"None Selected","transport_description":null,"transport_unit":"kg km","transport_co2_eq":"0.000000","from_stop_id":"4787","from_stop_lat":"36.204824","from_stop_lon":"138.252924","from_stop_placename":"Japan","to_stop_id":"1267","to_stop_name":"origin","to_stop_lat":"24.479615","to_stop_lon":"118.08939","to_stop_placename":"Xiamen, Fujian, China","to_stop":{"id":"1267","name":"origin","lat":"24.479615","lon":"118.08939","placename":"Xiamen, Fujian, China"},"from_stop":{"name":"origin","id":"4787","lat":"36.204824","lon":"138.252924","placename":"Japan"}}]}}},"processes":[],"eols":[]},{"oid":"3516","imid":"2860","linkid":"","weight":"0","rawemissions":"0","emissions":"0","shipping":"12322.34","processemissions":null,"endoflifeemissions":null,"disposaltype":null,"disposalenergy":null,"disposalimpact":null,"disposalemissions":null,"description":"","name":"Manager","id":"2860","stops":{"origin":{"related_to":"2860","part_or_object":"p","notes":"","placename":"United States","id":4788,"name":"origin","lat":"37.09024","lon":"-95.712891","hops":{"incoming":[],"outgoing":[{"transport_id":"17","id":"2528","transport_name":"None Selected","transport_description":null,"transport_unit":"kg km","transport_co2_eq":"0.000000","from_stop_id":"4788","from_stop_lat":"37.09024","from_stop_lon":"-95.712891","from_stop_placename":"United States","to_stop_id":"1267","to_stop_name":"origin","to_stop_lat":"24.479615","to_stop_lon":"118.08939","to_stop_placename":"Xiamen, Fujian, China","to_stop":{"id":"1267","name":"origin","lat":"24.479615","lon":"118.08939","placename":"Xiamen, Fujian, China"},"from_stop":{"name":"origin","id":"4788","lat":"37.09024","lon":"-95.712891","placename":"United States"}}]}}},"processes":[],"eols":[]}],"user":{"name":"kangping","id":"9447"}}}