{"3517":{"oid":"3517","type":"trace","flag":"","creator":"9446","name":"Trek Madone 6.9","upc":"","imagelink":"","description":"High-end road bike","slug":"trek-madone-6-9","category":"","weight":"0","emissions":"0","embodied":"0","transport":"0","process":"0","endoflife":"0","shipping":"41927.57","lifetime":null,"usagetype":"","usageenergy":null,"usageemissions":null,"timecreated":"2010-04-07 20:48:37.77826","timemodified":"2010-04-08 05:11:21","visibility":"private","showfootprint":"on","showembodied":"on","showtransport":"on","showprocess":"on","showendoflife":"on","showlastleg":"on","showuse":"on","showstats":"on","stops":{"origin":{"related_to":"3517","part_or_object":"o","notes":"","placename":"Waterloo, WI, USA","id":"1270","category":"1","lat":"43.1838843","lon":"-88.9884421","name":"origin","hops":{"incoming":[{"transport_id":"17","id":"2529","transport_name":"None Selected","transport_description":null,"transport_unit":"kg km","transport_co2_eq":"0.000000","from_stop_id":"4789","from_stop_lat":"43.1838843","from_stop_lon":"-88.9884421","to_stop_id":"1270","to_stop_name":"origin","to_stop_lat":"43.1838843","placename":"Waterloo, WI, USA","to_stop_lon":"-88.9884421","to_stop":{"id":"1270","name":"origin","lat":"43.1838843","placename":"Waterloo, WI, USA","lon":"-88.9884421"},"from_stop":{"name":"origin","id":"4789","lat":"43.1838843","lon":"-88.9884421","placename":"Waterloo, WI, USA"}},{"transport_id":"17","id":"2530","transport_name":"None Selected","transport_description":null,"transport_unit":"kg km","transport_co2_eq":"0.000000","from_stop_id":"4790","from_stop_lat":"-40.900557","from_stop_lon":"174.885971","to_stop_id":"1270","to_stop_name":"origin","to_stop_lat":"43.1838843","placename":"New Zealand","to_stop_lon":"-88.9884421","to_stop":{"id":"1270","name":"origin","lat":"43.1838843","placename":"Waterloo, WI, USA","lon":"-88.9884421"},"from_stop":{"name":"origin","id":"4790","lat":"-40.900557","lon":"174.885971","placename":"New Zealand"}},{"transport_id":"17","id":"2531","transport_name":"None Selected","transport_description":null,"transport_unit":"kg km","transport_co2_eq":"0.000000","from_stop_id":"4791","from_stop_lat":"20.593684","from_stop_lon":"78.96288","to_stop_id":"1270","to_stop_name":"origin","to_stop_lat":"43.1838843","placename":"India","to_stop_lon":"-88.9884421","to_stop":{"id":"1270","name":"origin","lat":"43.1838843","placename":"Waterloo, WI, USA","lon":"-88.9884421"},"from_stop":{"name":"origin","id":"4791","lat":"20.593684","lon":"78.96288","placename":"India"}},{"transport_id":"17","id":"2532","transport_name":"None Selected","transport_description":null,"transport_unit":"kg km","transport_co2_eq":"0.000000","from_stop_id":"4792","from_stop_lat":"-25.274398","from_stop_lon":"133.775136","to_stop_id":"1270","to_stop_name":"origin","to_stop_lat":"43.1838843","placename":"Australia","to_stop_lon":"-88.9884421","to_stop":{"id":"1270","name":"origin","lat":"43.1838843","placename":"Waterloo, WI, USA","lon":"-88.9884421"},"from_stop":{"name":"origin","id":"4792","lat":"-25.274398","lon":"133.775136","placename":"Australia"}}],"outgoing":[]}}},"parts":[{"oid":"3517","imid":"2861","linkid":"","weight":"0","rawemissions":"0","emissions":"0","shipping":"0","processemissions":null,"endoflifeemissions":null,"disposaltype":null,"disposalenergy":null,"disposalimpact":null,"disposalemissions":null,"description":"","name":"OCLV carbon","id":"2861","stops":{"origin":{"related_to":"2861","part_or_object":"p","notes":"","placename":"Waterloo, WI, USA","id":4789,"name":"origin","lat":"43.1838843","lon":"-88.9884421","hops":{"incoming":[],"outgoing":[{"transport_id":"17","id":"2529","transport_name":"None Selected","transport_description":null,"transport_unit":"kg km","transport_co2_eq":"0.000000","from_stop_id":"4789","from_stop_lat":"43.1838843","from_stop_lon":"-88.9884421","from_stop_placename":"Waterloo, WI, USA","to_stop_id":"1270","to_stop_name":"origin","to_stop_lat":"43.1838843","to_stop_lon":"-88.9884421","to_stop_placename":"Waterloo, WI, USA","to_stop":{"id":"1270","name":"origin","lat":"43.1838843","lon":"-88.9884421","placename":"Waterloo, WI, USA"},"from_stop":{"name":"origin","id":"4789","lat":"43.1838843","lon":"-88.9884421","placename":"Waterloo, WI, USA"}}]}}},"processes":[],"eols":[]},{"oid":"3517","imid":"2862","linkid":"","weight":"0","rawemissions":"0","emissions":"0","shipping":"13409.14","processemissions":null,"endoflifeemissions":null,"disposaltype":null,"disposalenergy":null,"disposalimpact":null,"disposalemissions":null,"description":"","name":"aluminum","id":"2862","stops":{"origin":{"related_to":"2862","part_or_object":"p","notes":"","placename":"New Zealand","id":4790,"name":"origin","lat":"-40.900557","lon":"174.885971","hops":{"incoming":[],"outgoing":[{"transport_id":"17","id":"2530","transport_name":"None Selected","transport_description":null,"transport_unit":"kg km","transport_co2_eq":"0.000000","from_stop_id":"4790","from_stop_lat":"-40.900557","from_stop_lon":"174.885971","from_stop_placename":"New Zealand","to_stop_id":"1270","to_stop_name":"origin","to_stop_lat":"43.1838843","to_stop_lon":"-88.9884421","to_stop_placename":"Waterloo, WI, USA","to_stop":{"id":"1270","name":"origin","lat":"43.1838843","lon":"-88.9884421","placename":"Waterloo, WI, USA"},"from_stop":{"name":"origin","id":"4790","lat":"-40.900557","lon":"174.885971","placename":"New Zealand"}}]}}},"processes":[],"eols":[]},{"oid":"3517","imid":"2863","linkid":"","weight":"0","rawemissions":"0","emissions":"0","shipping":"12831.35","processemissions":null,"endoflifeemissions":null,"disposaltype":null,"disposalenergy":null,"disposalimpact":null,"disposalemissions":null,"description":"","name":"polyurethane cushion foam","id":"2863","stops":{"origin":{"related_to":"2863","part_or_object":"p","notes":"","placename":"India","id":4791,"name":"origin","lat":"20.593684","lon":"78.96288","hops":{"incoming":[],"outgoing":[{"transport_id":"17","id":"2531","transport_name":"None Selected","transport_description":null,"transport_unit":"kg km","transport_co2_eq":"0.000000","from_stop_id":"4791","from_stop_lat":"20.593684","from_stop_lon":"78.96288","from_stop_placename":"India","to_stop_id":"1270","to_stop_name":"origin","to_stop_lat":"43.1838843","to_stop_lon":"-88.9884421","to_stop_placename":"Waterloo, WI, USA","to_stop":{"id":"1270","name":"origin","lat":"43.1838843","lon":"-88.9884421","placename":"Waterloo, WI, USA"},"from_stop":{"name":"origin","id":"4791","lat":"20.593684","lon":"78.96288","placename":"India"}}]}}},"processes":[],"eols":[]},{"oid":"3517","imid":"2864","linkid":"","weight":"0","rawemissions":"0","emissions":"0","shipping":"15687.08","processemissions":null,"endoflifeemissions":null,"disposaltype":null,"disposalenergy":null,"disposalimpact":null,"disposalemissions":null,"description":"","name":"Titanium","id":"2864","stops":{"origin":{"related_to":"2864","part_or_object":"p","notes":"","placename":"Australia","id":4792,"name":"origin","lat":"-25.274398","lon":"133.775136","hops":{"incoming":[],"outgoing":[{"transport_id":"17","id":"2532","transport_name":"None Selected","transport_description":null,"transport_unit":"kg km","transport_co2_eq":"0.000000","from_stop_id":"4792","from_stop_lat":"-25.274398","from_stop_lon":"133.775136","from_stop_placename":"Australia","to_stop_id":"1270","to_stop_name":"origin","to_stop_lat":"43.1838843","to_stop_lon":"-88.9884421","to_stop_placename":"Waterloo, WI, USA","to_stop":{"id":"1270","name":"origin","lat":"43.1838843","lon":"-88.9884421","placename":"Waterloo, WI, USA"},"from_stop":{"name":"origin","id":"4792","lat":"-25.274398","lon":"133.775136","placename":"Australia"}}]}}},"processes":[],"eols":[]}],"user":{"name":"albertlee","id":"9446"}}}