{"3533":{"oid":"3533","type":"object","flag":"","creator":"9428","name":"Nano Speed 9900 badminton racket","upc":"","imagelink":"","description":"This is one of the top models of badminton rackets available for now.It is often used by the professional players due to its advanced functionality and ease of use. Nevertheless, the material used in making this product is considered not eco-friendly at all.","slug":"nano-speed-9900-badminton-racket","category":"","weight":"0.105","emissions":"0.49439691412","embodied":"0.4444","transport":"0.04999691412","process":"0","endoflife":"0","shipping":"30376.77","lifetime":null,"usagetype":"","usageenergy":null,"usageemissions":null,"timecreated":"2010-04-09 12:45:58.345154","timemodified":"2010-04-09 17:25:12","visibility":"public","showfootprint":"on","showembodied":"on","showtransport":"on","showprocess":"on","showendoflife":"on","showlastleg":"on","showuse":"on","showstats":"on","stops":{"origin":{"related_to":"3533","part_or_object":"o","notes":"","placename":"Japan","id":"1287","category":"1","lat":"36.204824","lon":"138.252924","name":"origin","hops":{"incoming":[{"transport_id":"17","id":"2535","transport_name":"None Selected","transport_description":null,"transport_unit":"kg km","transport_co2_eq":"0.000000","from_stop_id":"4795","from_stop_lat":"-25.274398","from_stop_lon":"133.775136","to_stop_id":"1287","to_stop_name":"origin","to_stop_lat":"36.204824","placename":"Australia","to_stop_lon":"138.252924","to_stop":{"id":"1287","name":"origin","lat":"36.204824","placename":"Japan","lon":"138.252924"},"from_stop":{"name":"origin","id":"4795","lat":"-25.274398","lon":"133.775136","placename":"Australia"}},{"transport_id":"17","id":"2539","transport_name":"None Selected","transport_description":null,"transport_unit":"kg km","transport_co2_eq":"0.000000","from_stop_id":"4799","from_stop_lat":"37.09024","from_stop_lon":"-95.712891","to_stop_id":"1287","to_stop_name":"origin","to_stop_lat":"36.204824","placename":"United States","to_stop_lon":"138.252924","to_stop":{"id":"1287","name":"origin","lat":"36.204824","placename":"Japan","lon":"138.252924"},"from_stop":{"name":"origin","id":"4799","lat":"37.09024","lon":"-95.712891","placename":"United States"}},{"transport_id":"17","id":"2552","transport_name":"None Selected","transport_description":null,"transport_unit":"kg km","transport_co2_eq":"0.000000","from_stop_id":"4812","from_stop_lat":"37.9642529","from_stop_lon":"-91.8318334","to_stop_id":"1287","to_stop_name":"origin","to_stop_lat":"36.204824","placename":"Missouri, USA","to_stop_lon":"138.252924","to_stop":{"id":"1287","name":"origin","lat":"36.204824","placename":"Japan","lon":"138.252924"},"from_stop":{"name":"origin","id":"4812","lat":"37.9642529","lon":"-91.8318334","placename":"Missouri, USA"}},{"transport_id":"17","id":"2560","transport_name":"None Selected","transport_description":null,"transport_unit":"kg km","transport_co2_eq":"0.000000","from_stop_id":"4820","from_stop_lat":"35.86166","from_stop_lon":"104.195397","to_stop_id":"1287","to_stop_name":"origin","to_stop_lat":"36.204824","placename":"China","to_stop_lon":"138.252924","to_stop":{"id":"1287","name":"origin","lat":"36.204824","placename":"Japan","lon":"138.252924"},"from_stop":{"name":"origin","id":"4820","lat":"35.86166","lon":"104.195397","placename":"China"}}],"outgoing":[]}}},"parts":[{"oid":"3533","imid":"2894","linkid":"parts\/polyester-fabric","weight":"0.02","rawemissions":"8.9","emissions":"0.178","shipping":"6859.99","processemissions":null,"endoflifeemissions":null,"disposaltype":null,"disposalenergy":null,"disposalimpact":null,"disposalemissions":null,"description":"","name":"Polyester fabric","id":"2894","stops":{"origin":{"related_to":"2894","part_or_object":"p","notes":"","placename":"Australia","id":4795,"name":"origin","lat":"-25.274398","lon":"133.775136","hops":{"incoming":[],"outgoing":[{"transport_id":"17","id":"2535","transport_name":"None Selected","transport_description":null,"transport_unit":"kg km","transport_co2_eq":"0.000000","from_stop_id":"4795","from_stop_lat":"-25.274398","from_stop_lon":"133.775136","from_stop_placename":"Australia","to_stop_id":"1287","to_stop_name":"origin","to_stop_lat":"36.204824","to_stop_lon":"138.252924","to_stop_placename":"Japan","to_stop":{"id":"1287","name":"origin","lat":"36.204824","lon":"138.252924","placename":"Japan"},"from_stop":{"name":"origin","id":"4795","lat":"-25.274398","lon":"133.775136","placename":"Australia"}}]}}},"processes":[],"eols":[]},{"oid":"3533","imid":"2895","linkid":"parts\/wood-oak-or-walnut","weight":"0.03","rawemissions":"0.33","emissions":"0.0099","shipping":"10161.81","processemissions":null,"endoflifeemissions":null,"disposaltype":null,"disposalenergy":null,"disposalimpact":null,"disposalemissions":null,"description":"","name":"Wood, Oak or Walnut","id":"2895","stops":{"origin":{"related_to":"2895","part_or_object":"p","notes":"","placename":"United States","id":4799,"name":"origin","lat":"37.09024","lon":"-95.712891","hops":{"incoming":[],"outgoing":[{"transport_id":"17","id":"2539","transport_name":"None Selected","transport_description":null,"transport_unit":"kg km","transport_co2_eq":"0.000000","from_stop_id":"4799","from_stop_lat":"37.09024","from_stop_lon":"-95.712891","from_stop_placename":"United States","to_stop_id":"1287","to_stop_name":"origin","to_stop_lat":"36.204824","to_stop_lon":"138.252924","to_stop_placename":"Japan","to_stop":{"id":"1287","name":"origin","lat":"36.204824","lon":"138.252924","placename":"Japan"},"from_stop":{"name":"origin","id":"4799","lat":"37.09024","lon":"-95.712891","placename":"United States"}}]}}},"processes":[],"eols":[]},{"oid":"3533","imid":"2896","linkid":"parts\/carbon-fiber","weight":"0.045","rawemissions":"5.7","emissions":"0.2565","shipping":"10304.8","processemissions":null,"endoflifeemissions":null,"disposaltype":null,"disposalenergy":null,"disposalimpact":null,"disposalemissions":null,"description":"","name":"Carbon Fiber","id":"2896","stops":{"origin":{"related_to":"2896","part_or_object":"p","notes":"","placename":"Missouri, USA","id":4812,"name":"origin","lat":"37.9642529","lon":"-91.8318334","hops":{"incoming":[],"outgoing":[{"transport_id":"17","id":"2552","transport_name":"None Selected","transport_description":null,"transport_unit":"kg km","transport_co2_eq":"0.000000","from_stop_id":"4812","from_stop_lat":"37.9642529","from_stop_lon":"-91.8318334","from_stop_placename":"Missouri, USA","to_stop_id":"1287","to_stop_name":"origin","to_stop_lat":"36.204824","to_stop_lon":"138.252924","to_stop_placename":"Japan","to_stop":{"id":"1287","name":"origin","lat":"36.204824","lon":"138.252924","placename":"Japan"},"from_stop":{"name":"origin","id":"4812","lat":"37.9642529","lon":"-91.8318334","placename":"Missouri, USA"}}]}}},"processes":[],"eols":[]},{"oid":"3533","imid":"2897","linkid":"object\/plastic","weight":"0.01","rawemissions":"0","emissions":"0","shipping":"3050.17","processemissions":null,"endoflifeemissions":null,"disposaltype":null,"disposalenergy":null,"disposalimpact":null,"disposalemissions":null,"description":"","name":"plastic","id":"2897","stops":{"origin":{"related_to":"2897","part_or_object":"p","notes":"","placename":"China","id":4820,"name":"origin","lat":"35.86166","lon":"104.195397","hops":{"incoming":[],"outgoing":[{"transport_id":"17","id":"2560","transport_name":"None Selected","transport_description":null,"transport_unit":"kg km","transport_co2_eq":"0.000000","from_stop_id":"4820","from_stop_lat":"35.86166","from_stop_lon":"104.195397","from_stop_placename":"China","to_stop_id":"1287","to_stop_name":"origin","to_stop_lat":"36.204824","to_stop_lon":"138.252924","to_stop_placename":"Japan","to_stop":{"id":"1287","name":"origin","lat":"36.204824","lon":"138.252924","placename":"Japan"},"from_stop":{"name":"origin","id":"4820","lat":"35.86166","lon":"104.195397","placename":"China"}}]}}},"processes":[],"eols":[]}],"user":{"name":"dnghi1990","id":"9428"}}}