{"3534":{"oid":"3534","type":"trace","flag":"","creator":"9460","name":"Martin Acoustic Guitar-2010","upc":"","imagelink":"","description":"","slug":"martin-acoustic-guitar-2010","category":"","weight":"0","emissions":"0","embodied":"0","transport":"0","process":"0","endoflife":"0","shipping":"17497.02","lifetime":null,"usagetype":"","usageenergy":null,"usageemissions":null,"timecreated":"2010-04-09 13:41:48.756505","timemodified":"2010-04-09 18:25:34","visibility":"public","showfootprint":"on","showembodied":"on","showtransport":"on","showprocess":"on","showendoflife":"on","showlastleg":"on","showuse":"on","showstats":"on","stops":{"origin":{"related_to":"3534","part_or_object":"o","notes":"","placename":"Nazareth, PA, USA","id":"1288","category":"1","lat":"40.740375","lon":"-75.3096237","name":"origin","hops":{"incoming":[{"transport_id":"17","id":"2561","transport_name":"None Selected","transport_description":null,"transport_unit":"kg km","transport_co2_eq":"0.000000","from_stop_id":"4821","from_stop_lat":"-14.235004","from_stop_lon":"-51.92528","to_stop_id":"1288","to_stop_name":"origin","to_stop_lat":"40.740375","placename":"Brazil","to_stop_lon":"-75.3096237","to_stop":{"id":"1288","name":"origin","lat":"40.740375","placename":"Nazareth, PA, USA","lon":"-75.3096237"},"from_stop":{"name":"origin","id":"4821","lat":"-14.235004","lon":"-51.92528","placename":"Brazil"}},{"transport_id":"17","id":"2562","transport_name":"None Selected","transport_description":null,"transport_unit":"kg km","transport_co2_eq":"0.000000","from_stop_id":"4822","from_stop_lat":"46.5653163","from_stop_lon":"-66.4619164","to_stop_id":"1288","to_stop_name":"origin","to_stop_lat":"40.740375","placename":"New Brunswick, Canada","to_stop_lon":"-75.3096237","to_stop":{"id":"1288","name":"origin","lat":"40.740375","placename":"Nazareth, PA, USA","lon":"-75.3096237"},"from_stop":{"name":"origin","id":"4822","lat":"46.5653163","lon":"-66.4619164","placename":"New Brunswick, Canada"}},{"transport_id":"17","id":"2563","transport_name":"None Selected","transport_description":null,"transport_unit":"kg km","transport_co2_eq":"0.000000","from_stop_id":"4823","from_stop_lat":"7.369722","from_stop_lon":"12.354722","to_stop_id":"1288","to_stop_name":"origin","to_stop_lat":"40.740375","placename":"Cameroon","to_stop_lon":"-75.3096237","to_stop":{"id":"1288","name":"origin","lat":"40.740375","placename":"Nazareth, PA, USA","lon":"-75.3096237"},"from_stop":{"name":"origin","id":"4823","lat":"7.369722","lon":"12.354722","placename":"Cameroon"}},{"transport_id":"17","id":"2564","transport_name":"None Selected","transport_description":null,"transport_unit":"kg km","transport_co2_eq":"0.000000","from_stop_id":"4824","from_stop_lat":"42.331427","from_stop_lon":"-83.0457538","to_stop_id":"1288","to_stop_name":"origin","to_stop_lat":"40.740375","placename":"Detroit, MI, USA","to_stop_lon":"-75.3096237","to_stop":{"id":"1288","name":"origin","lat":"40.740375","placename":"Nazareth, PA, USA","lon":"-75.3096237"},"from_stop":{"name":"origin","id":"4824","lat":"42.331427","lon":"-83.0457538","placename":"Detroit, MI, USA"}}],"outgoing":[]}}},"parts":[{"oid":"3534","imid":"2898","linkid":"","weight":"0","rawemissions":"0","emissions":"0","shipping":"6578.5","processemissions":null,"endoflifeemissions":null,"disposaltype":null,"disposalenergy":null,"disposalimpact":null,"disposalemissions":null,"description":"Mahogany is used for the structure of the acoustic guitar","name":"Mahogany","id":"2898","stops":{"origin":{"related_to":"2898","part_or_object":"p","notes":"","placename":"Brazil","id":4821,"name":"origin","lat":"-14.235004","lon":"-51.92528","hops":{"incoming":[],"outgoing":[{"transport_id":"17","id":"2561","transport_name":"None Selected","transport_description":null,"transport_unit":"kg km","transport_co2_eq":"0.000000","from_stop_id":"4821","from_stop_lat":"-14.235004","from_stop_lon":"-51.92528","from_stop_placename":"Brazil","to_stop_id":"1288","to_stop_name":"origin","to_stop_lat":"40.740375","to_stop_lon":"-75.3096237","to_stop_placename":"Nazareth, PA, USA","to_stop":{"id":"1288","name":"origin","lat":"40.740375","lon":"-75.3096237","placename":"Nazareth, PA, USA"},"from_stop":{"name":"origin","id":"4821","lat":"-14.235004","lon":"-51.92528","placename":"Brazil"}}]}}},"processes":[],"eols":[]},{"oid":"3534","imid":"2899","linkid":"","weight":"0","rawemissions":"0","emissions":"0","shipping":"962.38","processemissions":null,"endoflifeemissions":null,"disposaltype":null,"disposalenergy":null,"disposalimpact":null,"disposalemissions":null,"description":"Cedar wood is used as the side paneling for the guitar","name":"Cedar","id":"2899","stops":{"origin":{"related_to":"2899","part_or_object":"p","notes":"","placename":"New Brunswick, Canada","id":4822,"name":"origin","lat":"46.5653163","lon":"-66.4619164","hops":{"incoming":[],"outgoing":[{"transport_id":"17","id":"2562","transport_name":"None Selected","transport_description":null,"transport_unit":"kg km","transport_co2_eq":"0.000000","from_stop_id":"4822","from_stop_lat":"46.5653163","from_stop_lon":"-66.4619164","from_stop_placename":"New Brunswick, Canada","to_stop_id":"1288","to_stop_name":"origin","to_stop_lat":"40.740375","to_stop_lon":"-75.3096237","to_stop_placename":"Nazareth, PA, USA","to_stop":{"id":"1288","name":"origin","lat":"40.740375","lon":"-75.3096237","placename":"Nazareth, PA, USA"},"from_stop":{"name":"origin","id":"4822","lat":"46.5653163","lon":"-66.4619164","placename":"New Brunswick, Canada"}}]}}},"processes":[],"eols":[]},{"oid":"3534","imid":"2900","linkid":"","weight":"0","rawemissions":"0","emissions":"0","shipping":"9287.9","processemissions":null,"endoflifeemissions":null,"disposaltype":null,"disposalenergy":null,"disposalimpact":null,"disposalemissions":null,"description":"Ebony is used to make the fingerboard of the guitar","name":"Ebony","id":"2900","stops":{"origin":{"related_to":"2900","part_or_object":"p","notes":"","placename":"Cameroon","id":4823,"name":"origin","lat":"7.369722","lon":"12.354722","hops":{"incoming":[],"outgoing":[{"transport_id":"17","id":"2563","transport_name":"None Selected","transport_description":null,"transport_unit":"kg km","transport_co2_eq":"0.000000","from_stop_id":"4823","from_stop_lat":"7.369722","from_stop_lon":"12.354722","from_stop_placename":"Cameroon","to_stop_id":"1288","to_stop_name":"origin","to_stop_lat":"40.740375","to_stop_lon":"-75.3096237","to_stop_placename":"Nazareth, PA, USA","to_stop":{"id":"1288","name":"origin","lat":"40.740375","lon":"-75.3096237","placename":"Nazareth, PA, USA"},"from_stop":{"name":"origin","id":"4823","lat":"7.369722","lon":"12.354722","placename":"Cameroon"}}]}}},"processes":[],"eols":[]},{"oid":"3534","imid":"2901","linkid":"","weight":"0","rawemissions":"0","emissions":"0","shipping":"668.24","processemissions":null,"endoflifeemissions":null,"disposaltype":null,"disposalenergy":null,"disposalimpact":null,"disposalemissions":null,"description":"Steel is one of the main components of the guitars strings","name":"Steel Wire","id":"2901","stops":{"origin":{"related_to":"2901","part_or_object":"p","notes":"","placename":"Detroit, MI, USA","id":4824,"name":"origin","lat":"42.331427","lon":"-83.0457538","hops":{"incoming":[],"outgoing":[{"transport_id":"17","id":"2564","transport_name":"None Selected","transport_description":null,"transport_unit":"kg km","transport_co2_eq":"0.000000","from_stop_id":"4824","from_stop_lat":"42.331427","from_stop_lon":"-83.0457538","from_stop_placename":"Detroit, MI, USA","to_stop_id":"1288","to_stop_name":"origin","to_stop_lat":"40.740375","to_stop_lon":"-75.3096237","to_stop_placename":"Nazareth, PA, USA","to_stop":{"id":"1288","name":"origin","lat":"40.740375","lon":"-75.3096237","placename":"Nazareth, PA, USA"},"from_stop":{"name":"origin","id":"4824","lat":"42.331427","lon":"-83.0457538","placename":"Detroit, MI, USA"}}]}}},"processes":[],"eols":[]}],"user":{"name":"nrecker","id":"9460"}}}