{"3565":{"oid":"3565","type":"travel","flag":"","creator":"9481","name":"my 30th Birthday","upc":"","imagelink":"","description":"Getting all my friends to party with me for my 30th birthday","slug":"my-30th-birthday","category":"","weight":"1843","emissions":"141.783290576","embodied":"0","transport":"141.783290576","process":"0","endoflife":"0","shipping":"3916.55","lifetime":null,"usagetype":"","usageenergy":null,"usageemissions":null,"timecreated":"2010-04-13 18:58:02.314072","timemodified":"2010-04-13 23:11:35","visibility":"public","showfootprint":"on","showembodied":"on","showtransport":"on","showprocess":"on","showendoflife":"on","showlastleg":"on","showuse":"on","showstats":"on","stops":{"origin":{"related_to":"3565","part_or_object":"o","notes":"","placename":"Montpellier, France","id":"1321","category":"1","lat":"43.608176","lon":"3.8794455","name":"origin","hops":{"incoming":[{"transport_id":"12","id":"2650","transport_name":"train, long-distance","transport_description":"> 640 km, diesel, kg km from person-km","transport_unit":"kg km","transport_co2_eq":"0.043500","from_stop_id":"4910","from_stop_lat":"48.8566667","from_stop_lon":"2.3509871","to_stop_id":"1321","to_stop_name":"origin","to_stop_lat":"43.608176","placename":"Paris, France","to_stop_lon":"3.8794455","to_stop":{"id":"1321","name":"origin","lat":"43.608176","placename":"Montpellier, France","lon":"3.8794455"},"from_stop":{"name":"origin","id":"4910","lat":"48.8566667","lon":"2.3509871","placename":"Paris, France"}},{"transport_id":"5","id":"2651","transport_name":"automobile, 50 mpg","transport_description":"high efficiency automobile","transport_unit":"kg km","transport_co2_eq":"0.026400","from_stop_id":"4911","from_stop_lat":"48.6481785","from_stop_lon":"-2.0260898","to_stop_id":"1321","to_stop_name":"origin","to_stop_lat":"43.608176","placename":"Saint-Malo, France","to_stop_lon":"3.8794455","to_stop":{"id":"1321","name":"origin","lat":"43.608176","placename":"Montpellier, France","lon":"3.8794455"},"from_stop":{"name":"origin","id":"4911","lat":"48.6481785","lon":"-2.0260898","placename":"Saint-Malo, France"}},{"transport_id":"14","id":"2652","transport_name":"air, passenger, intercontinental","transport_description":"intercontinental, kg km from person-km","transport_unit":"kg km","transport_co2_eq":"1.189000","from_stop_id":"4912","from_stop_lat":"51.5001524","from_stop_lon":"-0.1262362","to_stop_id":"1321","to_stop_name":"origin","to_stop_lat":"43.608176","placename":"Westminster, Londres, Royaume Uni","to_stop_lon":"3.8794455","to_stop":{"id":"1321","name":"origin","lat":"43.608176","placename":"Montpellier, France","lon":"3.8794455"},"from_stop":{"name":"origin","id":"4912","lat":"51.5001524","lon":"-0.1262362","placename":"Westminster, Londres, Royaume Uni"}},{"transport_id":"12","id":"2653","transport_name":"train, long-distance","transport_description":"> 640 km, diesel, kg km from person-km","transport_unit":"kg km","transport_co2_eq":"0.043500","from_stop_id":"4913","from_stop_lat":"48.8987307","from_stop_lon":"2.093595","to_stop_id":"1321","to_stop_name":"origin","to_stop_lat":"43.608176","placename":"Saint-Germain-en-Laye, France","to_stop_lon":"3.8794455","to_stop":{"id":"1321","name":"origin","lat":"43.608176","placename":"Montpellier, France","lon":"3.8794455"},"from_stop":{"name":"origin","id":"4913","lat":"48.8987307","lon":"2.093595","placename":"Saint-Germain-en-Laye, France"}},{"transport_id":"12","id":"2654","transport_name":"train, long-distance","transport_description":"> 640 km, diesel, kg km from person-km","transport_unit":"kg km","transport_co2_eq":"0.043500","from_stop_id":"4914","from_stop_lat":"48.8566667","from_stop_lon":"2.3509871","to_stop_id":"1321","to_stop_name":"origin","to_stop_lat":"43.608176","placename":"Paris, France","to_stop_lon":"3.8794455","to_stop":{"id":"1321","name":"origin","lat":"43.608176","placename":"Montpellier, France","lon":"3.8794455"},"from_stop":{"name":"origin","id":"4914","lat":"48.8566667","lon":"2.3509871","placename":"Paris, France"}},{"transport_id":"5","id":"2655","transport_name":"automobile, 50 mpg","transport_description":"high efficiency automobile","transport_unit":"kg km","transport_co2_eq":"0.026400","from_stop_id":"4915","from_stop_lat":"43.604363","from_stop_lon":"1.4429513","to_stop_id":"1321","to_stop_name":"origin","to_stop_lat":"43.608176","placename":"Toulouse, France","to_stop_lon":"3.8794455","to_stop":{"id":"1321","name":"origin","lat":"43.608176","placename":"Montpellier, France","lon":"3.8794455"},"from_stop":{"name":"origin","id":"4915","lat":"43.604363","lon":"1.4429513","placename":"Toulouse, France"}},{"transport_id":"5","id":"2656","transport_name":"automobile, 50 mpg","transport_description":"high efficiency automobile","transport_unit":"kg km","transport_co2_eq":"0.026400","from_stop_id":"4916","from_stop_lat":"43.7034273","from_stop_lon":"7.2662656","to_stop_id":"1321","to_stop_name":"origin","to_stop_lat":"43.608176","placename":"Nice, France","to_stop_lon":"3.8794455","to_stop":{"id":"1321","name":"origin","lat":"43.608176","placename":"Montpellier, France","lon":"3.8794455"},"from_stop":{"name":"origin","id":"4916","lat":"43.7034273","lon":"7.2662656","placename":"Nice, France"}}],"outgoing":[]}}},"parts":[{"oid":"3565","imid":"2942","linkid":"","weight":"0","rawemissions":"0","emissions":"0","shipping":"595.96","processemissions":null,"endoflifeemissions":null,"disposaltype":null,"disposalenergy":null,"disposalimpact":null,"disposalemissions":null,"description":"","name":"Coline","id":"2942","stops":{"origin":{"related_to":"2942","part_or_object":"p","notes":"","placename":"Paris, France","id":4910,"name":"origin","lat":"48.8566667","lon":"2.3509871","hops":{"incoming":[],"outgoing":[{"transport_id":"12","id":"2650","transport_name":"train, long-distance","transport_description":"> 640 km, diesel, kg km from person-km","transport_unit":"kg km","transport_co2_eq":"0.043500","from_stop_id":"4910","from_stop_lat":"48.8566667","from_stop_lon":"2.3509871","from_stop_placename":"Paris, France","to_stop_id":"1321","to_stop_name":"origin","to_stop_lat":"43.608176","to_stop_lon":"3.8794455","to_stop_placename":"Montpellier, France","to_stop":{"id":"1321","name":"origin","lat":"43.608176","lon":"3.8794455","placename":"Montpellier, France"},"from_stop":{"name":"origin","id":"4910","lat":"48.8566667","lon":"2.3509871","placename":"Paris, France"}}]}}},"processes":[],"eols":[]},{"oid":"3565","imid":"2943","linkid":"","weight":"2","rawemissions":"0","emissions":"0","shipping":"722.28","processemissions":null,"endoflifeemissions":null,"disposaltype":null,"disposalenergy":null,"disposalimpact":null,"disposalemissions":null,"description":"","name":"Claire","id":"2943","stops":{"origin":{"related_to":"2943","part_or_object":"p","notes":"","placename":"Saint-Malo, France","id":4911,"name":"origin","lat":"48.6481785","lon":"-2.0260898","hops":{"incoming":[],"outgoing":[{"transport_id":"5","id":"2651","transport_name":"automobile, 50 mpg","transport_description":"high efficiency automobile","transport_unit":"kg km","transport_co2_eq":"0.026400","from_stop_id":"4911","from_stop_lat":"48.6481785","from_stop_lon":"-2.0260898","from_stop_placename":"Saint-Malo, France","to_stop_id":"1321","to_stop_name":"origin","to_stop_lat":"43.608176","to_stop_lon":"3.8794455","to_stop_placename":"Montpellier, France","to_stop":{"id":"1321","name":"origin","lat":"43.608176","lon":"3.8794455","placename":"Montpellier, France"},"from_stop":{"name":"origin","id":"4911","lat":"48.6481785","lon":"-2.0260898","placename":"Saint-Malo, France"}}]}}},"processes":[],"eols":[]},{"oid":"3565","imid":"2944","linkid":"","weight":"1","rawemissions":"0","emissions":"0","shipping":"928.28","processemissions":null,"endoflifeemissions":null,"disposaltype":null,"disposalenergy":null,"disposalimpact":null,"disposalemissions":null,"description":"","name":"John","id":"2944","stops":{"origin":{"related_to":"2944","part_or_object":"p","notes":"","placename":"Westminster, Londres, Royaume Uni","id":4912,"name":"origin","lat":"51.5001524","lon":"-0.1262362","hops":{"incoming":[],"outgoing":[{"transport_id":"14","id":"2652","transport_name":"air, passenger, intercontinental","transport_description":"intercontinental, kg km from person-km","transport_unit":"kg km","transport_co2_eq":"1.189000","from_stop_id":"4912","from_stop_lat":"51.5001524","from_stop_lon":"-0.1262362","from_stop_placename":"Westminster, Londres, Royaume Uni","to_stop_id":"1321","to_stop_name":"origin","to_stop_lat":"43.608176","to_stop_lon":"3.8794455","to_stop_placename":"Montpellier, France","to_stop":{"id":"1321","name":"origin","lat":"43.608176","lon":"3.8794455","placename":"Montpellier, France"},"from_stop":{"name":"origin","id":"4912","lat":"51.5001524","lon":"-0.1262362","placename":"Westminster, Londres, Royaume Uni"}}]}}},"processes":[],"eols":[]},{"oid":"3565","imid":"2945","linkid":"","weight":"7","rawemissions":"0","emissions":"0","shipping":"604.72","processemissions":null,"endoflifeemissions":null,"disposaltype":null,"disposalenergy":null,"disposalimpact":null,"disposalemissions":null,"description":"","name":"Team de louest","id":"2945","stops":{"origin":{"related_to":"2945","part_or_object":"p","notes":"","placename":"Saint-Germain-en-Laye, France","id":4913,"name":"origin","lat":"48.8987307","lon":"2.093595","hops":{"incoming":[],"outgoing":[{"transport_id":"12","id":"2653","transport_name":"train, long-distance","transport_description":"> 640 km, diesel, kg km from person-km","transport_unit":"kg km","transport_co2_eq":"0.043500","from_stop_id":"4913","from_stop_lat":"48.8987307","from_stop_lon":"2.093595","from_stop_placename":"Saint-Germain-en-Laye, France","to_stop_id":"1321","to_stop_name":"origin","to_stop_lat":"43.608176","to_stop_lon":"3.8794455","to_stop_placename":"Montpellier, France","to_stop":{"id":"1321","name":"origin","lat":"43.608176","lon":"3.8794455","placename":"Montpellier, France"},"from_stop":{"name":"origin","id":"4913","lat":"48.8987307","lon":"2.093595","placename":"Saint-Germain-en-Laye, France"}}]}}},"processes":[],"eols":[]},{"oid":"3565","imid":"2946","linkid":"","weight":"4","rawemissions":"0","emissions":"0","shipping":"595.96","processemissions":null,"endoflifeemissions":null,"disposaltype":null,"disposalenergy":null,"disposalimpact":null,"disposalemissions":null,"description":"","name":"Les filles","id":"2946","stops":{"origin":{"related_to":"2946","part_or_object":"p","notes":"","placename":"Paris, France","id":4914,"name":"origin","lat":"48.8566667","lon":"2.3509871","hops":{"incoming":[],"outgoing":[{"transport_id":"12","id":"2654","transport_name":"train, long-distance","transport_description":"> 640 km, diesel, kg km from person-km","transport_unit":"kg km","transport_co2_eq":"0.043500","from_stop_id":"4914","from_stop_lat":"48.8566667","from_stop_lon":"2.3509871","from_stop_placename":"Paris, France","to_stop_id":"1321","to_stop_name":"origin","to_stop_lat":"43.608176","to_stop_lon":"3.8794455","to_stop_placename":"Montpellier, France","to_stop":{"id":"1321","name":"origin","lat":"43.608176","lon":"3.8794455","placename":"Montpellier, France"},"from_stop":{"name":"origin","id":"4914","lat":"48.8566667","lon":"2.3509871","placename":"Paris, France"}}]}}},"processes":[],"eols":[]},{"oid":"3565","imid":"2947","linkid":"","weight":"2","rawemissions":"0","emissions":"0","shipping":"196.39","processemissions":null,"endoflifeemissions":null,"disposaltype":null,"disposalenergy":null,"disposalimpact":null,"disposalemissions":null,"description":"","name":"Mel & Matthieu","id":"2947","stops":{"origin":{"related_to":"2947","part_or_object":"p","notes":"","placename":"Toulouse, France","id":4915,"name":"origin","lat":"43.604363","lon":"1.4429513","hops":{"incoming":[],"outgoing":[{"transport_id":"5","id":"2655","transport_name":"automobile, 50 mpg","transport_description":"high efficiency automobile","transport_unit":"kg km","transport_co2_eq":"0.026400","from_stop_id":"4915","from_stop_lat":"43.604363","from_stop_lon":"1.4429513","from_stop_placename":"Toulouse, France","to_stop_id":"1321","to_stop_name":"origin","to_stop_lat":"43.608176","to_stop_lon":"3.8794455","to_stop_placename":"Montpellier, France","to_stop":{"id":"1321","name":"origin","lat":"43.608176","lon":"3.8794455","placename":"Montpellier, France"},"from_stop":{"name":"origin","id":"4915","lat":"43.604363","lon":"1.4429513","placename":"Toulouse, France"}}]}}},"processes":[],"eols":[]},{"oid":"3565","imid":"2948","linkid":"","weight":"3","rawemissions":"0","emissions":"0","shipping":"272.96","processemissions":null,"endoflifeemissions":null,"disposaltype":null,"disposalenergy":null,"disposalimpact":null,"disposalemissions":null,"description":"","name":"Flore","id":"2948","stops":{"origin":{"related_to":"2948","part_or_object":"p","notes":"","placename":"Nice, France","id":4916,"name":"origin","lat":"43.7034273","lon":"7.2662656","hops":{"incoming":[],"outgoing":[{"transport_id":"5","id":"2656","transport_name":"automobile, 50 mpg","transport_description":"high efficiency automobile","transport_unit":"kg km","transport_co2_eq":"0.026400","from_stop_id":"4916","from_stop_lat":"43.7034273","from_stop_lon":"7.2662656","from_stop_placename":"Nice, France","to_stop_id":"1321","to_stop_name":"origin","to_stop_lat":"43.608176","to_stop_lon":"3.8794455","to_stop_placename":"Montpellier, France","to_stop":{"id":"1321","name":"origin","lat":"43.608176","lon":"3.8794455","placename":"Montpellier, France"},"from_stop":{"name":"origin","id":"4916","lat":"43.7034273","lon":"7.2662656","placename":"Nice, France"}}]}}},"processes":[],"eols":[]}],"user":{"name":"coline","id":"9481"}}}