{"3569":{"oid":"3569","type":"trace","flag":"","creator":"9470","name":"World Cup ticket sales","upc":"","imagelink":"","description":"More than two million tickets have been sold for the 2010 World Cup, but organizers are worried they could end up with empty seats when the matches get underway. Here is a map of who is buying those tickets around the globe.","slug":"world-cup-ticket-sales","category":"","weight":"0","emissions":"0","embodied":"0","transport":"0","process":"0","endoflife":"0","shipping":"14414.9","lifetime":null,"usagetype":"","usageenergy":null,"usageemissions":null,"timecreated":"2010-04-14 09:35:28.936852","timemodified":"2010-04-14 13:56:48","visibility":"public","showfootprint":"on","showembodied":"on","showtransport":"on","showprocess":"on","showendoflife":"on","showlastleg":"on","showuse":"on","showstats":"on","stops":{"origin":{"related_to":"3569","part_or_object":"o","notes":"","placename":"South Africa","id":"1318","category":"1","lat":"-30.559482","lon":"22.937506","name":"origin","hops":{"incoming":[{"transport_id":"17","id":"2646","transport_name":"None Selected","transport_description":null,"transport_unit":"kg km","transport_co2_eq":"0.000000","from_stop_id":"4906","from_stop_lat":"-30.559482","from_stop_lon":"22.937506","to_stop_id":"1318","to_stop_name":"origin","to_stop_lat":"-30.559482","placename":"South Africa","to_stop_lon":"22.937506","to_stop":{"id":"1318","name":"origin","lat":"-30.559482","placename":"South Africa","lon":"22.937506"},"from_stop":{"name":"origin","id":"4906","lat":"-30.559482","lon":"22.937506","placename":"South Africa"}},{"transport_id":"17","id":"2657","transport_name":"None Selected","transport_description":null,"transport_unit":"kg km","transport_co2_eq":"0.000000","from_stop_id":"4917","from_stop_lat":"37.09024","from_stop_lon":"-95.712891","to_stop_id":"1318","to_stop_name":"origin","to_stop_lat":"-30.559482","placename":"United States","to_stop_lon":"22.937506","to_stop":{"id":"1318","name":"origin","lat":"-30.559482","placename":"South Africa","lon":"22.937506"},"from_stop":{"name":"origin","id":"4917","lat":"37.09024","lon":"-95.712891","placename":"United States"}},{"transport_id":"17","id":"2658","transport_name":"None Selected","transport_description":null,"transport_unit":"kg km","transport_co2_eq":"0.000000","from_stop_id":"4918","from_stop_lat":"0","from_stop_lon":"0","to_stop_id":"1318","to_stop_name":"origin","to_stop_lat":"-30.559482","placename":"Part Location","to_stop_lon":"22.937506","to_stop":{"id":"1318","name":"origin","lat":"-30.559482","placename":"South Africa","lon":"22.937506"},"from_stop":{"name":"origin","id":"4918","lat":"0","lon":"0","placename":"Part Location"}},{"transport_id":"17","id":"2659","transport_name":"None Selected","transport_description":null,"transport_unit":"kg km","transport_co2_eq":"0.000000","from_stop_id":"4919","from_stop_lat":"0","from_stop_lon":"0","to_stop_id":"1318","to_stop_name":"origin","to_stop_lat":"-30.559482","placename":"Part Location","to_stop_lon":"22.937506","to_stop":{"id":"1318","name":"origin","lat":"-30.559482","placename":"South Africa","lon":"22.937506"},"from_stop":{"name":"origin","id":"4919","lat":"0","lon":"0","placename":"Part Location"}}],"outgoing":[]}}},"parts":[{"oid":"3569","imid":"2949","linkid":"","weight":"0","rawemissions":"0","emissions":"0","shipping":"0","processemissions":null,"endoflifeemissions":null,"disposaltype":null,"disposalenergy":null,"disposalimpact":null,"disposalemissions":null,"description":"Fans in the host country have purchased 925,437 tickets. These tickets are available at a reduced rate.","name":"Host country","id":"2949","stops":{"origin":{"related_to":"2949","part_or_object":"p","notes":"","placename":"South Africa","id":4906,"name":"origin","lat":"-30.559482","lon":"22.937506","hops":{"incoming":[],"outgoing":[{"transport_id":"17","id":"2646","transport_name":"None Selected","transport_description":null,"transport_unit":"kg km","transport_co2_eq":"0.000000","from_stop_id":"4906","from_stop_lat":"-30.559482","from_stop_lon":"22.937506","from_stop_placename":"South Africa","to_stop_id":"1318","to_stop_name":"origin","to_stop_lat":"-30.559482","to_stop_lon":"22.937506","to_stop_placename":"South Africa","to_stop":{"id":"1318","name":"origin","lat":"-30.559482","lon":"22.937506","placename":"South Africa"},"from_stop":{"name":"origin","id":"4906","lat":"-30.559482","lon":"22.937506","placename":"South Africa"}}]}}},"processes":[],"eols":[]},{"oid":"3569","imid":"2950","linkid":"","weight":"0","rawemissions":"0","emissions":"0","shipping":"14414.9","processemissions":null,"endoflifeemissions":null,"disposaltype":null,"disposalenergy":null,"disposalimpact":null,"disposalemissions":null,"description":"The greatest number of tickets -- 118,945 -- has been sold to fans living in the United States.","name":"United States","id":"2950","stops":{"origin":{"related_to":"2950","part_or_object":"p","notes":"","placename":"United States","id":4917,"name":"origin","lat":"37.09024","lon":"-95.712891","hops":{"incoming":[],"outgoing":[{"transport_id":"17","id":"2657","transport_name":"None Selected","transport_description":null,"transport_unit":"kg km","transport_co2_eq":"0.000000","from_stop_id":"4917","from_stop_lat":"37.09024","from_stop_lon":"-95.712891","from_stop_placename":"United States","to_stop_id":"1318","to_stop_name":"origin","to_stop_lat":"-30.559482","to_stop_lon":"22.937506","to_stop_placename":"South Africa","to_stop":{"id":"1318","name":"origin","lat":"-30.559482","lon":"22.937506","placename":"South Africa"},"from_stop":{"name":"origin","id":"4917","lat":"37.09024","lon":"-95.712891","placename":"United States"}}]}}},"processes":[],"eols":[]},{"oid":"3569","imid":"2951","linkid":"","weight":"0","rawemissions":"0","emissions":"0","shipping":"0","processemissions":null,"endoflifeemissions":null,"disposaltype":null,"disposalenergy":null,"disposalimpact":null,"disposalemissions":null,"description":"","name":"Part","id":"2951","stops":{"origin":{"related_to":"2951","part_or_object":"p","notes":"","placename":"Part Location","id":4918,"name":"origin","lat":"0","lon":"0","hops":{"incoming":[],"outgoing":[{"transport_id":"17","id":"2658","transport_name":"None Selected","transport_description":null,"transport_unit":"kg km","transport_co2_eq":"0.000000","from_stop_id":"4918","from_stop_lat":"0","from_stop_lon":"0","from_stop_placename":"Part Location","to_stop_id":"1318","to_stop_name":"origin","to_stop_lat":"-30.559482","to_stop_lon":"22.937506","to_stop_placename":"South Africa","to_stop":{"id":"1318","name":"origin","lat":"-30.559482","lon":"22.937506","placename":"South Africa"},"from_stop":{"name":"origin","id":"4918","lat":"0","lon":"0","placename":"Part Location"}}]}}},"processes":[],"eols":[]},{"oid":"3569","imid":"2952","linkid":"","weight":"0","rawemissions":"0","emissions":"0","shipping":"0","processemissions":null,"endoflifeemissions":null,"disposaltype":null,"disposalenergy":null,"disposalimpact":null,"disposalemissions":null,"description":"","name":"Part","id":"2952","stops":{"origin":{"related_to":"2952","part_or_object":"p","notes":"","placename":"Part Location","id":4919,"name":"origin","lat":"0","lon":"0","hops":{"incoming":[],"outgoing":[{"transport_id":"17","id":"2659","transport_name":"None Selected","transport_description":null,"transport_unit":"kg km","transport_co2_eq":"0.000000","from_stop_id":"4919","from_stop_lat":"0","from_stop_lon":"0","from_stop_placename":"Part Location","to_stop_id":"1318","to_stop_name":"origin","to_stop_lat":"-30.559482","to_stop_lon":"22.937506","to_stop_placename":"South Africa","to_stop":{"id":"1318","name":"origin","lat":"-30.559482","lon":"22.937506","placename":"South Africa"},"from_stop":{"name":"origin","id":"4919","lat":"0","lon":"0","placename":"Part Location"}}]}}},"processes":[],"eols":[]}],"user":{"name":"dnklatt","id":"9470"}}}