{"3574":{"oid":"3574","type":"trace","flag":"","creator":"22","name":"Solar PV Top 10 Producers 2008","upc":"","imagelink":"","description":"Based on the top ten producers of photovoltaics, describe supply chain of PV installation in Boston, MA.","slug":"solar-pv-top-10-producers-2008","category":"","weight":"0","emissions":"0","embodied":"0","transport":"0","process":"0","endoflife":"0","shipping":"94360","lifetime":null,"usagetype":"","usageenergy":null,"usageemissions":null,"timecreated":"2010-04-15 14:38:34.135306","timemodified":"2010-04-15 18:52:56","visibility":"public","showfootprint":"on","showembodied":"on","showtransport":"on","showprocess":"on","showendoflife":"on","showlastleg":"on","showuse":"on","showstats":"on","stops":{"origin":{"related_to":"3574","part_or_object":"o","notes":"","placename":"Boston, MA, USA","id":"1316","category":"1","lat":"42.3584308","lon":"-71.0597732","name":"origin","hops":{"incoming":[{"transport_id":"17","id":"2669","transport_name":"None Selected","transport_description":null,"transport_unit":"kg km","transport_co2_eq":"0.000000","from_stop_id":"4929","from_stop_lat":"33.414768","from_stop_lon":"-111.9093095","to_stop_id":"1316","to_stop_name":"origin","to_stop_lat":"42.3584308","placename":"Tempe, AZ, USA","to_stop_lon":"-71.0597732","to_stop":{"id":"1316","name":"origin","lat":"42.3584308","placename":"Boston, MA, USA","lon":"-71.0597732"},"from_stop":{"name":"origin","id":"4929","lat":"33.414768","lon":"-111.9093095","placename":"Tempe, AZ, USA"}},{"transport_id":"17","id":"2670","transport_name":"None Selected","transport_description":null,"transport_unit":"kg km","transport_co2_eq":"0.000000","from_stop_id":"4930","from_stop_lat":"31.566148","from_stop_lon":"120.303027","to_stop_id":"1316","to_stop_name":"origin","to_stop_lat":"42.3584308","placename":"Wuxi, Jiangsu, China","to_stop_lon":"-71.0597732","to_stop":{"id":"1316","name":"origin","lat":"42.3584308","placename":"Boston, MA, USA","lon":"-71.0597732"},"from_stop":{"name":"origin","id":"4930","lat":"31.566148","lon":"120.303027","placename":"Wuxi, Jiangsu, China"}},{"transport_id":"17","id":"2671","transport_name":"None Selected","transport_description":null,"transport_unit":"kg km","transport_co2_eq":"0.000000","from_stop_id":"4931","from_stop_lat":"34.6937378","from_stop_lon":"135.5021651","to_stop_id":"1316","to_stop_name":"origin","to_stop_lat":"42.3584308","placename":"\u014csaka City, \u014csaka Prefecture, Japan","to_stop_lon":"-71.0597732","to_stop":{"id":"1316","name":"origin","lat":"42.3584308","placename":"Boston, MA, USA","lon":"-71.0597732"},"from_stop":{"name":"origin","id":"4931","lat":"34.6937378","lon":"135.5021651","placename":"\u014csaka City, \u014csaka Prefecture, Japan"}},{"transport_id":"17","id":"2672","transport_name":"None Selected","transport_description":null,"transport_unit":"kg km","transport_co2_eq":"0.000000","from_stop_id":"4932","from_stop_lat":"23.0058966","from_stop_lon":"120.182022","to_stop_id":"1316","to_stop_name":"origin","to_stop_lat":"42.3584308","placename":"Tainan City, Taiwan","to_stop_lon":"-71.0597732","to_stop":{"id":"1316","name":"origin","lat":"42.3584308","placename":"Boston, MA, USA","lon":"-71.0597732"},"from_stop":{"name":"origin","id":"4932","lat":"23.0058966","lon":"120.182022","placename":"Tainan City, Taiwan"}},{"transport_id":"17","id":"2673","transport_name":"None Selected","transport_description":null,"transport_unit":"kg km","transport_co2_eq":"0.000000","from_stop_id":"4933","from_stop_lat":"35.0116363","from_stop_lon":"135.7680294","to_stop_id":"1316","to_stop_name":"origin","to_stop_lat":"42.3584308","placename":"Ky\u014dto City, Ky\u014dto Prefecture, Japan","to_stop_lon":"-71.0597732","to_stop":{"id":"1316","name":"origin","lat":"42.3584308","placename":"Boston, MA, USA","lon":"-71.0597732"},"from_stop":{"name":"origin","id":"4933","lat":"35.0116363","lon":"135.7680294","placename":"Ky\u014dto City, Ky\u014dto Prefecture, Japan"}},{"transport_id":"17","id":"2674","transport_name":"None Selected","transport_description":null,"transport_unit":"kg km","transport_co2_eq":"0.000000","from_stop_id":"4934","from_stop_lat":"38.037252","from_stop_lon":"114.469259","to_stop_id":"1316","to_stop_name":"origin","to_stop_lat":"42.3584308","placename":"Hebei, China","to_stop_lon":"-71.0597732","to_stop":{"id":"1316","name":"origin","lat":"42.3584308","placename":"Boston, MA, USA","lon":"-71.0597732"},"from_stop":{"name":"origin","id":"4934","lat":"38.037252","lon":"114.469259","placename":"Hebei, China"}},{"transport_id":"17","id":"2675","transport_name":"None Selected","transport_description":null,"transport_unit":"kg km","transport_co2_eq":"0.000000","from_stop_id":"4935","from_stop_lat":"31.230708","from_stop_lon":"121.472916","to_stop_id":"1316","to_stop_name":"origin","to_stop_lat":"42.3584308","placename":"Shanghai, China","to_stop_lon":"-71.0597732","to_stop":{"id":"1316","name":"origin","lat":"42.3584308","placename":"Boston, MA, USA","lon":"-71.0597732"},"from_stop":{"name":"origin","id":"4935","lat":"31.230708","lon":"121.472916","placename":"Shanghai, China"}},{"transport_id":"17","id":"2676","transport_name":"None Selected","transport_description":null,"transport_unit":"kg km","transport_co2_eq":"0.000000","from_stop_id":"4936","from_stop_lat":"37.3393857","from_stop_lon":"-121.8949555","to_stop_id":"1316","to_stop_name":"origin","to_stop_lat":"42.3584308","placename":"San Jose, CA, USA","to_stop_lon":"-71.0597732","to_stop":{"id":"1316","name":"origin","lat":"42.3584308","placename":"Boston, MA, USA","lon":"-71.0597732"},"from_stop":{"name":"origin","id":"4936","lat":"37.3393857","lon":"-121.8949555","placename":"San Jose, CA, USA"}},{"transport_id":"17","id":"2677","transport_name":"None Selected","transport_description":null,"transport_unit":"kg km","transport_co2_eq":"0.000000","from_stop_id":"4937","from_stop_lat":"34.7376953","from_stop_lon":"135.5639036","to_stop_id":"1316","to_stop_name":"origin","to_stop_lat":"42.3584308","placename":"Moriguchi City, \u014csaka Prefecture, Japan","to_stop_lon":"-71.0597732","to_stop":{"id":"1316","name":"origin","lat":"42.3584308","placename":"Boston, MA, USA","lon":"-71.0597732"},"from_stop":{"name":"origin","id":"4937","lat":"34.7376953","lon":"135.5639036","placename":"Moriguchi City, \u014csaka Prefecture, Japan"}}],"outgoing":[]}}},"parts":[{"oid":"3574","imid":"2962","linkid":"","weight":"0","rawemissions":"0","emissions":"0","shipping":"3685.98","processemissions":null,"endoflifeemissions":null,"disposaltype":null,"disposalenergy":null,"disposalimpact":null,"disposalemissions":null,"description":"","name":"First Solar","id":"2962","stops":{"origin":{"related_to":"2962","part_or_object":"p","notes":"","placename":"Tempe, AZ, USA","id":4929,"name":"origin","lat":"33.414768","lon":"-111.9093095","hops":{"incoming":[],"outgoing":[{"transport_id":"17","id":"2669","transport_name":"None Selected","transport_description":null,"transport_unit":"kg km","transport_co2_eq":"0.000000","from_stop_id":"4929","from_stop_lat":"33.414768","from_stop_lon":"-111.9093095","from_stop_placename":"Tempe, AZ, USA","to_stop_id":"1316","to_stop_name":"origin","to_stop_lat":"42.3584308","to_stop_lon":"-71.0597732","to_stop_placename":"Boston, MA, USA","to_stop":{"id":"1316","name":"origin","lat":"42.3584308","lon":"-71.0597732","placename":"Boston, MA, USA"},"from_stop":{"name":"origin","id":"4929","lat":"33.414768","lon":"-111.9093095","placename":"Tempe, AZ, USA"}}]}}},"processes":[],"eols":[]},{"oid":"3574","imid":"2963","linkid":"","weight":"0","rawemissions":"0","emissions":"0","shipping":"11726.5","processemissions":null,"endoflifeemissions":null,"disposaltype":null,"disposalenergy":null,"disposalimpact":null,"disposalemissions":null,"description":"","name":"Suntech","id":"2963","stops":{"origin":{"related_to":"2963","part_or_object":"p","notes":"","placename":"Wuxi, Jiangsu, China","id":4930,"name":"origin","lat":"31.566148","lon":"120.303027","hops":{"incoming":[],"outgoing":[{"transport_id":"17","id":"2670","transport_name":"None Selected","transport_description":null,"transport_unit":"kg km","transport_co2_eq":"0.000000","from_stop_id":"4930","from_stop_lat":"31.566148","from_stop_lon":"120.303027","from_stop_placename":"Wuxi, Jiangsu, China","to_stop_id":"1316","to_stop_name":"origin","to_stop_lat":"42.3584308","to_stop_lon":"-71.0597732","to_stop_placename":"Boston, MA, USA","to_stop":{"id":"1316","name":"origin","lat":"42.3584308","lon":"-71.0597732","placename":"Boston, MA, USA"},"from_stop":{"name":"origin","id":"4930","lat":"31.566148","lon":"120.303027","placename":"Wuxi, Jiangsu, China"}}]}}},"processes":[],"eols":[]},{"oid":"3574","imid":"2964","linkid":"","weight":"0","rawemissions":"0","emissions":"0","shipping":"11043.25","processemissions":null,"endoflifeemissions":null,"disposaltype":null,"disposalenergy":null,"disposalimpact":null,"disposalemissions":null,"description":"","name":"Sharp","id":"2964","stops":{"origin":{"related_to":"2964","part_or_object":"p","notes":"","placename":"\u014csaka City, \u014csaka Prefecture, Japan","id":4931,"name":"origin","lat":"34.6937378","lon":"135.5021651","hops":{"incoming":[],"outgoing":[{"transport_id":"17","id":"2671","transport_name":"None Selected","transport_description":null,"transport_unit":"kg km","transport_co2_eq":"0.000000","from_stop_id":"4931","from_stop_lat":"34.6937378","from_stop_lon":"135.5021651","from_stop_placename":"\u014csaka City, \u014csaka Prefecture, Japan","to_stop_id":"1316","to_stop_name":"origin","to_stop_lat":"42.3584308","to_stop_lon":"-71.0597732","to_stop_placename":"Boston, MA, USA","to_stop":{"id":"1316","name":"origin","lat":"42.3584308","lon":"-71.0597732","placename":"Boston, MA, USA"},"from_stop":{"name":"origin","id":"4931","lat":"34.6937378","lon":"135.5021651","placename":"\u014csaka City, \u014csaka Prefecture, Japan"}}]}}},"processes":[],"eols":[]},{"oid":"3574","imid":"2965","linkid":"","weight":"0","rawemissions":"0","emissions":"0","shipping":"12669.91","processemissions":null,"endoflifeemissions":null,"disposaltype":null,"disposalenergy":null,"disposalimpact":null,"disposalemissions":null,"description":"","name":"Motech","id":"2965","stops":{"origin":{"related_to":"2965","part_or_object":"p","notes":"","placename":"Tainan City, Taiwan","id":4932,"name":"origin","lat":"23.0058966","lon":"120.182022","hops":{"incoming":[],"outgoing":[{"transport_id":"17","id":"2672","transport_name":"None Selected","transport_description":null,"transport_unit":"kg km","transport_co2_eq":"0.000000","from_stop_id":"4932","from_stop_lat":"23.0058966","from_stop_lon":"120.182022","from_stop_placename":"Tainan City, Taiwan","to_stop_id":"1316","to_stop_name":"origin","to_stop_lat":"42.3584308","to_stop_lon":"-71.0597732","to_stop_placename":"Boston, MA, USA","to_stop":{"id":"1316","name":"origin","lat":"42.3584308","lon":"-71.0597732","placename":"Boston, MA, USA"},"from_stop":{"name":"origin","id":"4932","lat":"23.0058966","lon":"120.182022","placename":"Tainan City, Taiwan"}}]}}},"processes":[],"eols":[]},{"oid":"3574","imid":"2966","linkid":"","weight":"0","rawemissions":"0","emissions":"0","shipping":"11001.76","processemissions":null,"endoflifeemissions":null,"disposaltype":null,"disposalenergy":null,"disposalimpact":null,"disposalemissions":null,"description":"","name":"Kyocera","id":"2966","stops":{"origin":{"related_to":"2966","part_or_object":"p","notes":"","placename":"Ky\u014dto City, Ky\u014dto Prefecture, Japan","id":4933,"name":"origin","lat":"35.0116363","lon":"135.7680294","hops":{"incoming":[],"outgoing":[{"transport_id":"17","id":"2673","transport_name":"None Selected","transport_description":null,"transport_unit":"kg km","transport_co2_eq":"0.000000","from_stop_id":"4933","from_stop_lat":"35.0116363","from_stop_lon":"135.7680294","from_stop_placename":"Ky\u014dto City, Ky\u014dto Prefecture, Japan","to_stop_id":"1316","to_stop_name":"origin","to_stop_lat":"42.3584308","to_stop_lon":"-71.0597732","to_stop_placename":"Boston, MA, USA","to_stop":{"id":"1316","name":"origin","lat":"42.3584308","lon":"-71.0597732","placename":"Boston, MA, USA"},"from_stop":{"name":"origin","id":"4933","lat":"35.0116363","lon":"135.7680294","placename":"Ky\u014dto City, Ky\u014dto Prefecture, Japan"}}]}}},"processes":[],"eols":[]},{"oid":"3574","imid":"2967","linkid":"","weight":"0","rawemissions":"0","emissions":"0","shipping":"11070.39","processemissions":null,"endoflifeemissions":null,"disposaltype":null,"disposalenergy":null,"disposalimpact":null,"disposalemissions":null,"description":"","name":"Baoding Yingli","id":"2967","stops":{"origin":{"related_to":"2967","part_or_object":"p","notes":"","placename":"Hebei, China","id":4934,"name":"origin","lat":"38.037252","lon":"114.469259","hops":{"incoming":[],"outgoing":[{"transport_id":"17","id":"2674","transport_name":"None Selected","transport_description":null,"transport_unit":"kg km","transport_co2_eq":"0.000000","from_stop_id":"4934","from_stop_lat":"38.037252","from_stop_lon":"114.469259","from_stop_placename":"Hebei, China","to_stop_id":"1316","to_stop_name":"origin","to_stop_lat":"42.3584308","to_stop_lon":"-71.0597732","to_stop_placename":"Boston, MA, USA","to_stop":{"id":"1316","name":"origin","lat":"42.3584308","lon":"-71.0597732","placename":"Boston, MA, USA"},"from_stop":{"name":"origin","id":"4934","lat":"38.037252","lon":"114.469259","placename":"Hebei, China"}}]}}},"processes":[],"eols":[]},{"oid":"3574","imid":"2968","linkid":"","weight":"0","rawemissions":"0","emissions":"0","shipping":"11745.72","processemissions":null,"endoflifeemissions":null,"disposaltype":null,"disposalenergy":null,"disposalimpact":null,"disposalemissions":null,"description":"","name":"JA Solar","id":"2968","stops":{"origin":{"related_to":"2968","part_or_object":"p","notes":"","placename":"Shanghai, China","id":4935,"name":"origin","lat":"31.230708","lon":"121.472916","hops":{"incoming":[],"outgoing":[{"transport_id":"17","id":"2675","transport_name":"None Selected","transport_description":null,"transport_unit":"kg km","transport_co2_eq":"0.000000","from_stop_id":"4935","from_stop_lat":"31.230708","from_stop_lon":"121.472916","from_stop_placename":"Shanghai, China","to_stop_id":"1316","to_stop_name":"origin","to_stop_lat":"42.3584308","to_stop_lon":"-71.0597732","to_stop_placename":"Boston, MA, USA","to_stop":{"id":"1316","name":"origin","lat":"42.3584308","lon":"-71.0597732","placename":"Boston, MA, USA"},"from_stop":{"name":"origin","id":"4935","lat":"31.230708","lon":"121.472916","placename":"Shanghai, China"}}]}}},"processes":[],"eols":[]},{"oid":"3574","imid":"2969","linkid":"","weight":"0","rawemissions":"0","emissions":"0","shipping":"4315.49","processemissions":null,"endoflifeemissions":null,"disposaltype":null,"disposalenergy":null,"disposalimpact":null,"disposalemissions":null,"description":"","name":"SunPower","id":"2969","stops":{"origin":{"related_to":"2969","part_or_object":"p","notes":"","placename":"San Jose, CA, USA","id":4936,"name":"origin","lat":"37.3393857","lon":"-121.8949555","hops":{"incoming":[],"outgoing":[{"transport_id":"17","id":"2676","transport_name":"None Selected","transport_description":null,"transport_unit":"kg km","transport_co2_eq":"0.000000","from_stop_id":"4936","from_stop_lat":"37.3393857","from_stop_lon":"-121.8949555","from_stop_placename":"San Jose, CA, USA","to_stop_id":"1316","to_stop_name":"origin","to_stop_lat":"42.3584308","to_stop_lon":"-71.0597732","to_stop_placename":"Boston, MA, USA","to_stop":{"id":"1316","name":"origin","lat":"42.3584308","lon":"-71.0597732","placename":"Boston, MA, USA"},"from_stop":{"name":"origin","id":"4936","lat":"37.3393857","lon":"-121.8949555","placename":"San Jose, CA, USA"}}]}}},"processes":[],"eols":[]},{"oid":"3574","imid":"2970","linkid":"","weight":"0","rawemissions":"0","emissions":"0","shipping":"11036.75","processemissions":null,"endoflifeemissions":null,"disposaltype":null,"disposalenergy":null,"disposalimpact":null,"disposalemissions":null,"description":"","name":"Sanyo","id":"2970","stops":{"origin":{"related_to":"2970","part_or_object":"p","notes":"","placename":"Moriguchi City, \u014csaka Prefecture, Japan","id":4937,"name":"origin","lat":"34.7376953","lon":"135.5639036","hops":{"incoming":[],"outgoing":[{"transport_id":"17","id":"2677","transport_name":"None Selected","transport_description":null,"transport_unit":"kg km","transport_co2_eq":"0.000000","from_stop_id":"4937","from_stop_lat":"34.7376953","from_stop_lon":"135.5639036","from_stop_placename":"Moriguchi City, \u014csaka Prefecture, Japan","to_stop_id":"1316","to_stop_name":"origin","to_stop_lat":"42.3584308","to_stop_lon":"-71.0597732","to_stop_placename":"Boston, MA, USA","to_stop":{"id":"1316","name":"origin","lat":"42.3584308","lon":"-71.0597732","placename":"Boston, MA, USA"},"from_stop":{"name":"origin","id":"4937","lat":"34.7376953","lon":"135.5639036","placename":"Moriguchi City, \u014csaka Prefecture, Japan"}}]}}},"processes":[],"eols":[]}],"user":{"name":"pakles","id":"22"}}}