{"3579":{"oid":"3579","type":"object","flag":"","creator":"9044","name":"BlackBerry Storm","upc":"","imagelink":"","description":"<a href=\"http:\/\/www2.electronicproducts.com\/Blackberry_Storm_9530_Smartphone_-whatsinside_text-76.aspx\">\nReference<\/a> ","slug":"blackberry-storm","category":"","weight":"2.6","emissions":"7.4262652269","embodied":"0","transport":"7.4262652269","process":"0","endoflife":"0","shipping":"343577.71","lifetime":null,"usagetype":"","usageenergy":null,"usageemissions":null,"timecreated":"2010-04-16 16:02:20.374584","timemodified":"2010-04-28 18:34:27","visibility":"public","showfootprint":"on","showembodied":"on","showtransport":"on","showprocess":"on","showendoflife":"on","showlastleg":"on","showuse":"on","showstats":"on","stops":{"origin":{"related_to":"3579","part_or_object":"o","notes":"","placename":"China","id":"1336","category":"1","lat":"35.86166","lon":"104.195397","name":"origin","hops":{"incoming":[{"transport_id":"16","id":"2731","transport_name":"air, freight, intercontinental","transport_description":"intercontinental freight","transport_unit":"kg km","transport_co2_eq":"0.450000","from_stop_id":"4991","from_stop_lat":"40.6208604","from_stop_lon":"-74.511172","to_stop_id":"1336","to_stop_name":"origin","to_stop_lat":"35.86166","placename":"Warren, NJ, USA","to_stop_lon":"104.195397","to_stop":{"id":"1336","name":"origin","lat":"35.86166","placename":"China","lon":"104.195397"},"from_stop":{"name":"origin","id":"4991","lat":"40.6208604","lon":"-74.511172","placename":"Warren, NJ, USA"}},{"transport_id":"16","id":"2732","transport_name":"air, freight, intercontinental","transport_description":"intercontinental freight","transport_unit":"kg km","transport_co2_eq":"0.450000","from_stop_id":"4992","from_stop_lat":"42.194543","from_stop_lon":"-71.1994976","to_stop_id":"1336","to_stop_name":"origin","to_stop_lat":"35.86166","placename":"Norwood, MA, USA","to_stop_lon":"104.195397","to_stop":{"id":"1336","name":"origin","lat":"35.86166","placename":"China","lon":"104.195397"},"from_stop":{"name":"origin","id":"4992","lat":"42.194543","lon":"-71.1994976","placename":"Norwood, MA, USA"}},{"transport_id":"16","id":"2733","transport_name":"air, freight, intercontinental","transport_description":"intercontinental freight","transport_unit":"kg km","transport_co2_eq":"0.450000","from_stop_id":"4993","from_stop_lat":"37.3541079","from_stop_lon":"-121.9552356","to_stop_id":"1336","to_stop_name":"origin","to_stop_lat":"35.86166","placename":"Santa Clara, CA, USA","to_stop_lon":"104.195397","to_stop":{"id":"1336","name":"origin","lat":"35.86166","placename":"China","lon":"104.195397"},"from_stop":{"name":"origin","id":"4993","lat":"37.3541079","lon":"-121.9552356","placename":"Santa Clara, CA, USA"}},{"transport_id":"16","id":"2734","transport_name":"air, freight, intercontinental","transport_description":"intercontinental freight","transport_unit":"kg km","transport_co2_eq":"0.450000","from_stop_id":"4994","from_stop_lat":"37.3541079","from_stop_lon":"-121.9552356","to_stop_id":"1336","to_stop_name":"origin","to_stop_lat":"35.86166","placename":"Santa Clara, CA, USA","to_stop_lon":"104.195397","to_stop":{"id":"1336","name":"origin","lat":"35.86166","placename":"China","lon":"104.195397"},"from_stop":{"name":"origin","id":"4994","lat":"37.3541079","lon":"-121.9552356","placename":"Santa Clara, CA, USA"}},{"transport_id":"16","id":"2735","transport_name":"air, freight, intercontinental","transport_description":"intercontinental freight","transport_unit":"kg km","transport_co2_eq":"0.450000","from_stop_id":"4995","from_stop_lat":"37.3541079","from_stop_lon":"-121.9552356","to_stop_id":"1336","to_stop_name":"origin","to_stop_lat":"35.86166","placename":"Santa Clara, CA, USA","to_stop_lon":"104.195397","to_stop":{"id":"1336","name":"origin","lat":"35.86166","placename":"China","lon":"104.195397"},"from_stop":{"name":"origin","id":"4995","lat":"37.3541079","lon":"-121.9552356","placename":"Santa Clara, CA, USA"}},{"transport_id":"16","id":"2736","transport_name":"air, freight, intercontinental","transport_description":"intercontinental freight","transport_unit":"kg km","transport_co2_eq":"0.450000","from_stop_id":"4996","from_stop_lat":"50.42","from_stop_lon":"-3.56","to_stop_id":"1336","to_stop_name":"origin","to_stop_lat":"35.86166","placename":"Paignton, Torbay, UK","to_stop_lon":"104.195397","to_stop":{"id":"1336","name":"origin","lat":"35.86166","placename":"China","lon":"104.195397"},"from_stop":{"name":"origin","id":"4996","lat":"50.42","lon":"-3.56","placename":"Paignton, Torbay, UK"}},{"transport_id":"16","id":"2737","transport_name":"air, freight, intercontinental","transport_description":"intercontinental freight","transport_unit":"kg km","transport_co2_eq":"0.450000","from_stop_id":"4997","from_stop_lat":"50.42","from_stop_lon":"-3.56","to_stop_id":"1336","to_stop_name":"origin","to_stop_lat":"35.86166","placename":"Paignton, UK","to_stop_lon":"104.195397","to_stop":{"id":"1336","name":"origin","lat":"35.86166","placename":"China","lon":"104.195397"},"from_stop":{"name":"origin","id":"4997","lat":"50.42","lon":"-3.56","placename":"Paignton, UK"}},{"transport_id":"16","id":"2738","transport_name":"air, freight, intercontinental","transport_description":"intercontinental freight","transport_unit":"kg km","transport_co2_eq":"0.450000","from_stop_id":"4998","from_stop_lat":"52.2025441","from_stop_lon":"0.1312368","to_stop_id":"1336","to_stop_name":"origin","to_stop_lat":"35.86166","placename":"Cambridge, UK","to_stop_lon":"104.195397","to_stop":{"id":"1336","name":"origin","lat":"35.86166","placename":"China","lon":"104.195397"},"from_stop":{"name":"origin","id":"4998","lat":"52.2025441","lon":"0.1312368","placename":"Cambridge, UK"}},{"transport_id":"16","id":"2739","transport_name":"air, freight, intercontinental","transport_description":"intercontinental freight","transport_unit":"kg km","transport_co2_eq":"0.450000","from_stop_id":"4999","from_stop_lat":"1.322901","from_stop_lon":"103.8779432","to_stop_id":"1336","to_stop_name":"origin","to_stop_lat":"35.86166","placename":"Kallang Way, Singapore","to_stop_lon":"104.195397","to_stop":{"id":"1336","name":"origin","lat":"35.86166","placename":"China","lon":"104.195397"},"from_stop":{"name":"origin","id":"4999","lat":"1.322901","lon":"103.8779432","placename":"Kallang Way, Singapore"}},{"transport_id":"16","id":"2741","transport_name":"air, freight, intercontinental","transport_description":"intercontinental freight","transport_unit":"kg km","transport_co2_eq":"0.450000","from_stop_id":"5001","from_stop_lat":"1.322901","from_stop_lon":"103.8779432","to_stop_id":"1336","to_stop_name":"origin","to_stop_lat":"35.86166","placename":"Kallang Way, Singapore","to_stop_lon":"104.195397","to_stop":{"id":"1336","name":"origin","lat":"35.86166","placename":"China","lon":"104.195397"},"from_stop":{"name":"origin","id":"5001","lat":"1.322901","lon":"103.8779432","placename":"Kallang Way, Singapore"}},{"transport_id":"16","id":"2742","transport_name":"air, freight, intercontinental","transport_description":"intercontinental freight","transport_unit":"kg km","transport_co2_eq":"0.450000","from_stop_id":"5002","from_stop_lat":"1.322901","from_stop_lon":"103.8779432","to_stop_id":"1336","to_stop_name":"origin","to_stop_lat":"35.86166","placename":"Kallang Way, Singapore","to_stop_lon":"104.195397","to_stop":{"id":"1336","name":"origin","lat":"35.86166","placename":"China","lon":"104.195397"},"from_stop":{"name":"origin","id":"5002","lat":"1.322901","lon":"103.8779432","placename":"Kallang Way, Singapore"}},{"transport_id":"16","id":"2743","transport_name":"air, freight, intercontinental","transport_description":"intercontinental freight","transport_unit":"kg km","transport_co2_eq":"0.450000","from_stop_id":"5003","from_stop_lat":"1.322901","from_stop_lon":"103.8779432","to_stop_id":"1336","to_stop_name":"origin","to_stop_lat":"35.86166","placename":"Kallang Way, Singapore","to_stop_lon":"104.195397","to_stop":{"id":"1336","name":"origin","lat":"35.86166","placename":"China","lon":"104.195397"},"from_stop":{"name":"origin","id":"5003","lat":"1.322901","lon":"103.8779432","placename":"Kallang Way, Singapore"}},{"transport_id":"16","id":"2744","transport_name":"air, freight, intercontinental","transport_description":"intercontinental freight","transport_unit":"kg km","transport_co2_eq":"0.450000","from_stop_id":"5004","from_stop_lat":"39.9156386","from_stop_lon":"116.42659","to_stop_id":"1336","to_stop_name":"origin","to_stop_lat":"35.86166","placename":"Jinbao St, Dongcheng, Beijing, China","to_stop_lon":"104.195397","to_stop":{"id":"1336","name":"origin","lat":"35.86166","placename":"China","lon":"104.195397"},"from_stop":{"name":"origin","id":"5004","lat":"39.9156386","lon":"116.42659","placename":"Jinbao St, Dongcheng, Beijing, China"}},{"transport_id":"16","id":"2745","transport_name":"air, freight, intercontinental","transport_description":"intercontinental freight","transport_unit":"kg km","transport_co2_eq":"0.450000","from_stop_id":"5005","from_stop_lat":"37.4138","from_stop_lon":"127.5183","to_stop_id":"1336","to_stop_name":"origin","to_stop_lat":"35.86166","placename":"Gyeonggi-do, South Korea","to_stop_lon":"104.195397","to_stop":{"id":"1336","name":"origin","lat":"35.86166","placename":"China","lon":"104.195397"},"from_stop":{"name":"origin","id":"5005","lat":"37.4138","lon":"127.5183","placename":"Gyeonggi-do, South Korea"}},{"transport_id":"16","id":"2746","transport_name":"air, freight, intercontinental","transport_description":"intercontinental freight","transport_unit":"kg km","transport_co2_eq":"0.450000","from_stop_id":"5006","from_stop_lat":"37.4138","from_stop_lon":"127.5183","to_stop_id":"1336","to_stop_name":"origin","to_stop_lat":"35.86166","placename":"Gyeonggi-do, South Korea","to_stop_lon":"104.195397","to_stop":{"id":"1336","name":"origin","lat":"35.86166","placename":"China","lon":"104.195397"},"from_stop":{"name":"origin","id":"5006","lat":"37.4138","lon":"127.5183","placename":"Gyeonggi-do, South Korea"}},{"transport_id":"16","id":"2747","transport_name":"air, freight, intercontinental","transport_description":"intercontinental freight","transport_unit":"kg km","transport_co2_eq":"0.450000","from_stop_id":"5007","from_stop_lat":"37.4138","from_stop_lon":"127.5183","to_stop_id":"1336","to_stop_name":"origin","to_stop_lat":"35.86166","placename":"Gyeonggi-do, South Korea","to_stop_lon":"104.195397","to_stop":{"id":"1336","name":"origin","lat":"35.86166","placename":"China","lon":"104.195397"},"from_stop":{"name":"origin","id":"5007","lat":"37.4138","lon":"127.5183","placename":"Gyeonggi-do, South Korea"}},{"transport_id":"16","id":"2748","transport_name":"air, freight, intercontinental","transport_description":"intercontinental freight","transport_unit":"kg km","transport_co2_eq":"0.450000","from_stop_id":"5008","from_stop_lat":"37.4138","from_stop_lon":"127.5183","to_stop_id":"1336","to_stop_name":"origin","to_stop_lat":"35.86166","placename":"Gyeonggi-do, South Korea","to_stop_lon":"104.195397","to_stop":{"id":"1336","name":"origin","lat":"35.86166","placename":"China","lon":"104.195397"},"from_stop":{"name":"origin","id":"5008","lat":"37.4138","lon":"127.5183","placename":"Gyeonggi-do, South Korea"}},{"transport_id":"16","id":"2749","transport_name":"air, freight, intercontinental","transport_description":"intercontinental freight","transport_unit":"kg km","transport_co2_eq":"0.450000","from_stop_id":"5009","from_stop_lat":"0","from_stop_lon":"0","to_stop_id":"1336","to_stop_name":"origin","to_stop_lat":"35.86166","placename":"Part Location","to_stop_lon":"104.195397","to_stop":{"id":"1336","name":"origin","lat":"35.86166","placename":"China","lon":"104.195397"},"from_stop":{"name":"origin","id":"5009","lat":"0","lon":"0","placename":"Part Location"}},{"transport_id":"16","id":"2750","transport_name":"air, freight, intercontinental","transport_description":"intercontinental freight","transport_unit":"kg km","transport_co2_eq":"0.450000","from_stop_id":"5010","from_stop_lat":"0","from_stop_lon":"0","to_stop_id":"1336","to_stop_name":"origin","to_stop_lat":"35.86166","placename":"Part Location","to_stop_lon":"104.195397","to_stop":{"id":"1336","name":"origin","lat":"35.86166","placename":"China","lon":"104.195397"},"from_stop":{"name":"origin","id":"5010","lat":"0","lon":"0","placename":"Part Location"}},{"transport_id":"16","id":"2751","transport_name":"air, freight, intercontinental","transport_description":"intercontinental freight","transport_unit":"kg km","transport_co2_eq":"0.450000","from_stop_id":"5011","from_stop_lat":"35.6894875","from_stop_lon":"139.6917064","to_stop_id":"1336","to_stop_name":"origin","to_stop_lat":"35.86166","placename":"T\u00c5\u008dky\u00c5\u008d Metropolis, Japan","to_stop_lon":"104.195397","to_stop":{"id":"1336","name":"origin","lat":"35.86166","placename":"China","lon":"104.195397"},"from_stop":{"name":"origin","id":"5011","lat":"35.6894875","lon":"139.6917064","placename":"T\u00c5\u008dky\u00c5\u008d Metropolis, Japan"}},{"transport_id":"16","id":"2752","transport_name":"air, freight, intercontinental","transport_description":"intercontinental freight","transport_unit":"kg km","transport_co2_eq":"0.450000","from_stop_id":"5012","from_stop_lat":"35.1814464","from_stop_lon":"136.906398","to_stop_id":"1336","to_stop_name":"origin","to_stop_lat":"35.86166","placename":"Nagoya City, Aichi Prefecture, Japan","to_stop_lon":"104.195397","to_stop":{"id":"1336","name":"origin","lat":"35.86166","placename":"China","lon":"104.195397"},"from_stop":{"name":"origin","id":"5012","lat":"35.1814464","lon":"136.906398","placename":"Nagoya City, Aichi Prefecture, Japan"}},{"transport_id":"16","id":"2753","transport_name":"air, freight, intercontinental","transport_description":"intercontinental freight","transport_unit":"kg km","transport_co2_eq":"0.450000","from_stop_id":"5013","from_stop_lat":"38.0169444","from_stop_lon":"-122.7244444","to_stop_id":"1336","to_stop_name":"origin","to_stop_lat":"35.86166","placename":"Irving, USA","to_stop_lon":"104.195397","to_stop":{"id":"1336","name":"origin","lat":"35.86166","placename":"China","lon":"104.195397"},"from_stop":{"name":"origin","id":"5013","lat":"38.0169444","lon":"-122.7244444","placename":"Irving, USA"}},{"transport_id":"16","id":"2754","transport_name":"air, freight, intercontinental","transport_description":"intercontinental freight","transport_unit":"kg km","transport_co2_eq":"0.450000","from_stop_id":"5014","from_stop_lat":"32.802955","from_stop_lon":"-96.769923","to_stop_id":"1336","to_stop_name":"origin","to_stop_lat":"35.86166","placename":"Dallas, TX, USA","to_stop_lon":"104.195397","to_stop":{"id":"1336","name":"origin","lat":"35.86166","placename":"China","lon":"104.195397"},"from_stop":{"name":"origin","id":"5014","lat":"32.802955","lon":"-96.769923","placename":"Dallas, TX, USA"}},{"transport_id":"16","id":"2755","transport_name":"air, freight, intercontinental","transport_description":"intercontinental freight","transport_unit":"kg km","transport_co2_eq":"0.450000","from_stop_id":"5015","from_stop_lat":"37.3393857","from_stop_lon":"-121.8949555","to_stop_id":"1336","to_stop_name":"origin","to_stop_lat":"35.86166","placename":"San Jose, CA, USA","to_stop_lon":"104.195397","to_stop":{"id":"1336","name":"origin","lat":"35.86166","placename":"China","lon":"104.195397"},"from_stop":{"name":"origin","id":"5015","lat":"37.3393857","lon":"-121.8949555","placename":"San Jose, CA, USA"}},{"transport_id":"16","id":"2756","transport_name":"air, freight, intercontinental","transport_description":"intercontinental freight","transport_unit":"kg km","transport_co2_eq":"0.450000","from_stop_id":"5016","from_stop_lat":"37.3393857","from_stop_lon":"-121.8949555","to_stop_id":"1336","to_stop_name":"origin","to_stop_lat":"35.86166","placename":"San Jose, CA, USA","to_stop_lon":"104.195397","to_stop":{"id":"1336","name":"origin","lat":"35.86166","placename":"China","lon":"104.195397"},"from_stop":{"name":"origin","id":"5016","lat":"37.3393857","lon":"-121.8949555","placename":"San Jose, CA, USA"}},{"transport_id":"16","id":"2757","transport_name":"air, freight, intercontinental","transport_description":"intercontinental freight","transport_unit":"kg km","transport_co2_eq":"0.450000","from_stop_id":"5017","from_stop_lat":"33.3061605","from_stop_lon":"-111.8412502","to_stop_id":"1336","to_stop_name":"origin","to_stop_lat":"35.86166","placename":"Chandler, AZ, USA","to_stop_lon":"104.195397","to_stop":{"id":"1336","name":"origin","lat":"35.86166","placename":"China","lon":"104.195397"},"from_stop":{"name":"origin","id":"5017","lat":"33.3061605","lon":"-111.8412502","placename":"Chandler, AZ, USA"}},{"transport_id":"16","id":"2758","transport_name":"air, freight, intercontinental","transport_description":"intercontinental freight","transport_unit":"kg km","transport_co2_eq":"0.450000","from_stop_id":"5018","from_stop_lat":"35.6894875","from_stop_lon":"139.6917064","to_stop_id":"1336","to_stop_name":"origin","to_stop_lat":"35.86166","placename":"T\u00c5\u008dky\u00c5\u008d Metropolis, Japan","to_stop_lon":"104.195397","to_stop":{"id":"1336","name":"origin","lat":"35.86166","placename":"China","lon":"104.195397"},"from_stop":{"name":"origin","id":"5018","lat":"35.6894875","lon":"139.6917064","placename":"T\u00c5\u008dky\u00c5\u008d Metropolis, Japan"}},{"transport_id":"16","id":"2759","transport_name":"air, freight, intercontinental","transport_description":"intercontinental freight","transport_unit":"kg km","transport_co2_eq":"0.450000","from_stop_id":"5019","from_stop_lat":"35.0116363","from_stop_lon":"135.7680294","to_stop_id":"1336","to_stop_name":"origin","to_stop_lat":"35.86166","placename":"Ky\u00c5\u008dto City, Ky\u00c5\u008dto Prefecture, Japan","to_stop_lon":"104.195397","to_stop":{"id":"1336","name":"origin","lat":"35.86166","placename":"China","lon":"104.195397"},"from_stop":{"name":"origin","id":"5019","lat":"35.0116363","lon":"135.7680294","placename":"Ky\u00c5\u008dto City, Ky\u00c5\u008dto Prefecture, Japan"}},{"transport_id":"16","id":"2760","transport_name":"air, freight, intercontinental","transport_description":"intercontinental freight","transport_unit":"kg km","transport_co2_eq":"0.450000","from_stop_id":"5020","from_stop_lat":"39.904667","from_stop_lon":"116.408198","to_stop_id":"1336","to_stop_name":"origin","to_stop_lat":"35.86166","placename":"Beijing, China","to_stop_lon":"104.195397","to_stop":{"id":"1336","name":"origin","lat":"35.86166","placename":"China","lon":"104.195397"},"from_stop":{"name":"origin","id":"5020","lat":"39.904667","lon":"116.408198","placename":"Beijing, China"}},{"transport_id":"16","id":"2761","transport_name":"air, freight, intercontinental","transport_description":"intercontinental freight","transport_unit":"kg km","transport_co2_eq":"0.450000","from_stop_id":"5021","from_stop_lat":"35.0045306","from_stop_lon":"135.8685899","to_stop_id":"1336","to_stop_name":"origin","to_stop_lat":"35.86166","placename":"Shiga Prefecture, Japan","to_stop_lon":"104.195397","to_stop":{"id":"1336","name":"origin","lat":"35.86166","placename":"China","lon":"104.195397"},"from_stop":{"name":"origin","id":"5021","lat":"35.0045306","lon":"135.8685899","placename":"Shiga Prefecture, Japan"}},{"transport_id":"16","id":"2762","transport_name":"air, freight, intercontinental","transport_description":"intercontinental freight","transport_unit":"kg km","transport_co2_eq":"0.450000","from_stop_id":"5022","from_stop_lat":"32.735687","from_stop_lon":"-97.1080656","to_stop_id":"1336","to_stop_name":"origin","to_stop_lat":"35.86166","placename":"Arlington, TX, USA","to_stop_lon":"104.195397","to_stop":{"id":"1336","name":"origin","lat":"35.86166","placename":"China","lon":"104.195397"},"from_stop":{"name":"origin","id":"5022","lat":"32.735687","lon":"-97.1080656","placename":"Arlington, TX, USA"}},{"transport_id":"16","id":"2764","transport_name":"air, freight, intercontinental","transport_description":"intercontinental freight","transport_unit":"kg km","transport_co2_eq":"0.450000","from_stop_id":"5024","from_stop_lat":"2.326349","from_stop_lon":"102.3463875","to_stop_id":"1336","to_stop_name":"origin","to_stop_lat":"35.86166","placename":"Melaka, Malaysia","to_stop_lon":"104.195397","to_stop":{"id":"1336","name":"origin","lat":"35.86166","placename":"China","lon":"104.195397"},"from_stop":{"name":"origin","id":"5024","lat":"2.326349","lon":"102.3463875","placename":"Melaka, Malaysia"}},{"transport_id":"16","id":"2765","transport_name":"air, freight, intercontinental","transport_description":"intercontinental freight","transport_unit":"kg km","transport_co2_eq":"0.450000","from_stop_id":"5025","from_stop_lat":"43.6414716","from_stop_lon":"-70.2408811","to_stop_id":"1336","to_stop_name":"origin","to_stop_lat":"35.86166","placename":"South Portland, ME, USA","to_stop_lon":"104.195397","to_stop":{"id":"1336","name":"origin","lat":"35.86166","placename":"China","lon":"104.195397"},"from_stop":{"name":"origin","id":"5025","lat":"43.6414716","lon":"-70.2408811","placename":"South Portland, ME, USA"}},{"transport_id":"16","id":"2766","transport_name":"air, freight, intercontinental","transport_description":"intercontinental freight","transport_unit":"kg km","transport_co2_eq":"0.450000","from_stop_id":"5026","from_stop_lat":"51.4365957","from_stop_lon":"5.4780014","to_stop_id":"1336","to_stop_name":"origin","to_stop_lat":"35.86166","placename":"Eindhoven, The Netherlands","to_stop_lon":"104.195397","to_stop":{"id":"1336","name":"origin","lat":"35.86166","placename":"China","lon":"104.195397"},"from_stop":{"name":"origin","id":"5026","lat":"51.4365957","lon":"5.4780014","placename":"Eindhoven, The Netherlands"}},{"transport_id":"16","id":"2767","transport_name":"air, freight, intercontinental","transport_description":"intercontinental freight","transport_unit":"kg km","transport_co2_eq":"0.450000","from_stop_id":"5027","from_stop_lat":"51.4365957","from_stop_lon":"5.4780014","to_stop_id":"1336","to_stop_name":"origin","to_stop_lat":"35.86166","placename":"Eindhoven, The Netherlands","to_stop_lon":"104.195397","to_stop":{"id":"1336","name":"origin","lat":"35.86166","placename":"China","lon":"104.195397"},"from_stop":{"name":"origin","id":"5027","lat":"51.4365957","lon":"5.4780014","placename":"Eindhoven, The Netherlands"}},{"transport_id":"16","id":"2768","transport_name":"air, freight, intercontinental","transport_description":"intercontinental freight","transport_unit":"kg km","transport_co2_eq":"0.450000","from_stop_id":"5028","from_stop_lat":"51.4365957","from_stop_lon":"5.4780014","to_stop_id":"1336","to_stop_name":"origin","to_stop_lat":"35.86166","placename":"Eindhoven, The Netherlands","to_stop_lon":"104.195397","to_stop":{"id":"1336","name":"origin","lat":"35.86166","placename":"China","lon":"104.195397"},"from_stop":{"name":"origin","id":"5028","lat":"51.4365957","lon":"5.4780014","placename":"Eindhoven, The Netherlands"}},{"transport_id":"16","id":"2769","transport_name":"air, freight, intercontinental","transport_description":"intercontinental freight","transport_unit":"kg km","transport_co2_eq":"0.450000","from_stop_id":"5029","from_stop_lat":"37.3541079","from_stop_lon":"-121.9552356","to_stop_id":"1336","to_stop_name":"origin","to_stop_lat":"35.86166","placename":"Santa Clara, CA, USA","to_stop_lon":"104.195397","to_stop":{"id":"1336","name":"origin","lat":"35.86166","placename":"China","lon":"104.195397"},"from_stop":{"name":"origin","id":"5029","lat":"37.3541079","lon":"-121.9552356","placename":"Santa Clara, CA, USA"}},{"transport_id":"16","id":"2770","transport_name":"air, freight, intercontinental","transport_description":"intercontinental freight","transport_unit":"kg km","transport_co2_eq":"0.450000","from_stop_id":"5030","from_stop_lat":"29.552064","from_stop_lon":"103.765623","to_stop_id":"1336","to_stop_name":"origin","to_stop_lat":"35.86166","placename":"Leshan, Sichuan, China","to_stop_lon":"104.195397","to_stop":{"id":"1336","name":"origin","lat":"35.86166","placename":"China","lon":"104.195397"},"from_stop":{"name":"origin","id":"5030","lat":"29.552064","lon":"103.765623","placename":"Leshan, Sichuan, China"}},{"transport_id":"16","id":"2772","transport_name":"air, freight, intercontinental","transport_description":"intercontinental freight","transport_unit":"kg km","transport_co2_eq":"0.450000","from_stop_id":"5032","from_stop_lat":"32.7153292","from_stop_lon":"-117.1572551","to_stop_id":"1336","to_stop_name":"origin","to_stop_lat":"35.86166","placename":"San Diego, CA, USA","to_stop_lon":"104.195397","to_stop":{"id":"1336","name":"origin","lat":"35.86166","placename":"China","lon":"104.195397"},"from_stop":{"name":"origin","id":"5032","lat":"32.7153292","lon":"-117.1572551","placename":"San Diego, CA, USA"}},{"transport_id":"16","id":"2773","transport_name":"air, freight, intercontinental","transport_description":"intercontinental freight","transport_unit":"kg km","transport_co2_eq":"0.450000","from_stop_id":"5033","from_stop_lat":"51.4365957","from_stop_lon":"5.4780014","to_stop_id":"1336","to_stop_name":"origin","to_stop_lat":"35.86166","placename":"Eindhoven, The Netherlands","to_stop_lon":"104.195397","to_stop":{"id":"1336","name":"origin","lat":"35.86166","placename":"China","lon":"104.195397"},"from_stop":{"name":"origin","id":"5033","lat":"51.4365957","lon":"5.4780014","placename":"Eindhoven, The Netherlands"}},{"transport_id":"16","id":"2774","transport_name":"air, freight, intercontinental","transport_description":"intercontinental freight","transport_unit":"kg km","transport_co2_eq":"0.450000","from_stop_id":"5034","from_stop_lat":"51.4365957","from_stop_lon":"5.4780014","to_stop_id":"1336","to_stop_name":"origin","to_stop_lat":"35.86166","placename":"Eindhoven, The Netherlands","to_stop_lon":"104.195397","to_stop":{"id":"1336","name":"origin","lat":"35.86166","placename":"China","lon":"104.195397"},"from_stop":{"name":"origin","id":"5034","lat":"51.4365957","lon":"5.4780014","placename":"Eindhoven, The Netherlands"}},{"transport_id":"16","id":"2775","transport_name":"air, freight, intercontinental","transport_description":"intercontinental freight","transport_unit":"kg km","transport_co2_eq":"0.450000","from_stop_id":"5035","from_stop_lat":"37.3541079","from_stop_lon":"-121.9552356","to_stop_id":"1336","to_stop_name":"origin","to_stop_lat":"35.86166","placename":"Santa Clara, CA, USA","to_stop_lon":"104.195397","to_stop":{"id":"1336","name":"origin","lat":"35.86166","placename":"China","lon":"104.195397"},"from_stop":{"name":"origin","id":"5035","lat":"37.3541079","lon":"-121.9552356","placename":"Santa Clara, CA, USA"}},{"transport_id":"16","id":"2776","transport_name":"air, freight, intercontinental","transport_description":"intercontinental freight","transport_unit":"kg km","transport_co2_eq":"0.450000","from_stop_id":"5036","from_stop_lat":"29.552064","from_stop_lon":"103.765623","to_stop_id":"1336","to_stop_name":"origin","to_stop_lat":"35.86166","placename":"Leshan, Sichuan, China","to_stop_lon":"104.195397","to_stop":{"id":"1336","name":"origin","lat":"35.86166","placename":"China","lon":"104.195397"},"from_stop":{"name":"origin","id":"5036","lat":"29.552064","lon":"103.765623","placename":"Leshan, Sichuan, China"}},{"transport_id":"16","id":"2778","transport_name":"air, freight, intercontinental","transport_description":"intercontinental freight","transport_unit":"kg km","transport_co2_eq":"0.450000","from_stop_id":"5038","from_stop_lat":"32.7153292","from_stop_lon":"-117.1572551","to_stop_id":"1336","to_stop_name":"origin","to_stop_lat":"35.86166","placename":"San Diego, CA, USA","to_stop_lon":"104.195397","to_stop":{"id":"1336","name":"origin","lat":"35.86166","placename":"China","lon":"104.195397"},"from_stop":{"name":"origin","id":"5038","lat":"32.7153292","lon":"-117.1572551","placename":"San Diego, CA, USA"}},{"transport_id":"16","id":"2779","transport_name":"air, freight, intercontinental","transport_description":"intercontinental freight","transport_unit":"kg km","transport_co2_eq":"0.450000","from_stop_id":"5039","from_stop_lat":"51.4365957","from_stop_lon":"5.4780014","to_stop_id":"1336","to_stop_name":"origin","to_stop_lat":"35.86166","placename":"Eindhoven, The Netherlands","to_stop_lon":"104.195397","to_stop":{"id":"1336","name":"origin","lat":"35.86166","placename":"China","lon":"104.195397"},"from_stop":{"name":"origin","id":"5039","lat":"51.4365957","lon":"5.4780014","placename":"Eindhoven, The Netherlands"}},{"transport_id":"16","id":"2781","transport_name":"air, freight, intercontinental","transport_description":"intercontinental freight","transport_unit":"kg km","transport_co2_eq":"0.450000","from_stop_id":"5041","from_stop_lat":"37.3541079","from_stop_lon":"-121.9552356","to_stop_id":"1336","to_stop_name":"origin","to_stop_lat":"35.86166","placename":"Santa Clara, CA, USA","to_stop_lon":"104.195397","to_stop":{"id":"1336","name":"origin","lat":"35.86166","placename":"China","lon":"104.195397"},"from_stop":{"name":"origin","id":"5041","lat":"37.3541079","lon":"-121.9552356","placename":"Santa Clara, CA, USA"}},{"transport_id":"16","id":"2782","transport_name":"air, freight, intercontinental","transport_description":"intercontinental freight","transport_unit":"kg km","transport_co2_eq":"0.450000","from_stop_id":"5042","from_stop_lat":"29.552064","from_stop_lon":"103.765623","to_stop_id":"1336","to_stop_name":"origin","to_stop_lat":"35.86166","placename":"Leshan, Sichuan, China","to_stop_lon":"104.195397","to_stop":{"id":"1336","name":"origin","lat":"35.86166","placename":"China","lon":"104.195397"},"from_stop":{"name":"origin","id":"5042","lat":"29.552064","lon":"103.765623","placename":"Leshan, Sichuan, China"}},{"transport_id":"16","id":"2783","transport_name":"air, freight, intercontinental","transport_description":"intercontinental freight","transport_unit":"kg km","transport_co2_eq":"0.450000","from_stop_id":"5043","from_stop_lat":"32.7153292","from_stop_lon":"-117.1572551","to_stop_id":"1336","to_stop_name":"origin","to_stop_lat":"35.86166","placename":"San Diego, CA, USA","to_stop_lon":"104.195397","to_stop":{"id":"1336","name":"origin","lat":"35.86166","placename":"China","lon":"104.195397"},"from_stop":{"name":"origin","id":"5043","lat":"32.7153292","lon":"-117.1572551","placename":"San Diego, CA, USA"}},{"transport_id":"16","id":"2808","transport_name":"air, freight, intercontinental","transport_description":"intercontinental freight","transport_unit":"kg km","transport_co2_eq":"0.450000","from_stop_id":"5068","from_stop_lat":"42.3093999","from_stop_lon":"-71.7692","to_stop_id":"1336","to_stop_name":"origin","to_stop_lat":"35.86166","placename":"NE Cutoff, Worcester, MA 01606, USA","to_stop_lon":"104.195397","to_stop":{"id":"1336","name":"origin","lat":"35.86166","placename":"China","lon":"104.195397"},"from_stop":{"name":"origin","id":"5068","lat":"42.3093999","lon":"-71.7692","placename":"NE Cutoff, Worcester, MA 01606, USA"}},{"transport_id":"16","id":"2894","transport_name":"air, freight, intercontinental","transport_description":"intercontinental freight","transport_unit":"kg km","transport_co2_eq":"0.450000","from_stop_id":"5154","from_stop_lat":"24.905232","from_stop_lon":"121.149661","to_stop_id":"1336","to_stop_name":"origin","to_stop_lat":"35.86166","placename":"Gu\u00c3\u00acSh\u00c4\u0081n St, Yangmei Township, Taoyuan County, Taiwan 326","to_stop_lon":"104.195397","to_stop":{"id":"1336","name":"origin","lat":"35.86166","placename":"China","lon":"104.195397"},"from_stop":{"name":"origin","id":"5154","lat":"24.905232","lon":"121.149661","placename":"Gu\u00c3\u00acSh\u00c4\u0081n St, Yangmei Township, Taoyuan County, Taiwan 326"}},{"transport_id":"17","id":"2763","transport_name":"None Selected","transport_description":null,"transport_unit":"kg km","transport_co2_eq":"0.000000","from_stop_id":"5023","from_stop_lat":"55.9480414","from_stop_lon":"-4.760328","to_stop_id":"1336","to_stop_name":"origin","to_stop_lat":"35.86166","placename":"Greenock, Inverclyde, UK","to_stop_lon":"104.195397","to_stop":{"id":"1336","name":"origin","lat":"35.86166","placename":"China","lon":"104.195397"},"from_stop":{"name":"origin","id":"5023","lat":"55.9480414","lon":"-4.760328","placename":"Greenock, Inverclyde, UK"}},{"transport_id":"17","id":"2780","transport_name":"None Selected","transport_description":null,"transport_unit":"kg km","transport_co2_eq":"0.000000","from_stop_id":"5040","from_stop_lat":"51.4365957","from_stop_lon":"5.4780014","to_stop_id":"1336","to_stop_name":"origin","to_stop_lat":"35.86166","placename":"Eindhoven, The Netherlands","to_stop_lon":"104.195397","to_stop":{"id":"1336","name":"origin","lat":"35.86166","placename":"China","lon":"104.195397"},"from_stop":{"name":"origin","id":"5040","lat":"51.4365957","lon":"5.4780014","placename":"Eindhoven, The Netherlands"}}],"outgoing":[]}}},"parts":[{"oid":"3579","imid":"3023","linkid":"","weight":"0.05","rawemissions":"0","emissions":"0","shipping":"11522.48","processemissions":null,"endoflifeemissions":null,"disposaltype":null,"disposalenergy":null,"disposalimpact":null,"disposalemissions":null,"description":"AWT6241RM27Q7 \tmade by\tAnadigics \nhttp:\/\/www.anadigics.com\/company\/facilities_directions\n","name":"PAM - WCDMA, 1950MHz ","id":"3023","stops":{"origin":{"related_to":"3023","part_or_object":"p","notes":"","placename":"Warren, NJ, USA","id":4991,"name":"origin","lat":"40.6208604","lon":"-74.511172","hops":{"incoming":[],"outgoing":[{"transport_id":"16","id":"2731","transport_name":"air, freight, intercontinental","transport_description":"intercontinental freight","transport_unit":"kg km","transport_co2_eq":"0.450000","from_stop_id":"4991","from_stop_lat":"40.6208604","from_stop_lon":"-74.511172","from_stop_placename":"Warren, NJ, USA","to_stop_id":"1336","to_stop_name":"origin","to_stop_lat":"35.86166","to_stop_lon":"104.195397","to_stop_placename":"China","to_stop":{"id":"1336","name":"origin","lat":"35.86166","lon":"104.195397","placename":"China"},"from_stop":{"name":"origin","id":"4991","lat":"40.6208604","lon":"-74.511172","placename":"Warren, NJ, USA"}}]}}},"processes":[],"eols":[]},{"oid":"3579","imid":"3024","linkid":"","weight":"0.05","rawemissions":"0","emissions":"0","shipping":"11335.7","processemissions":null,"endoflifeemissions":null,"disposaltype":null,"disposalenergy":null,"disposalimpact":null,"disposalemissions":null,"description":"ADL5500ACBZ-P2 \tmade by\tAnalog Devices \nhttp:\/\/www.hoovers.com\/company\/Analog_Devices_Inc\/rfrrti-1.html\n","name":"RF Power Detector - 100MHz to 6GHz ","id":"3024","stops":{"origin":{"related_to":"3024","part_or_object":"p","notes":"","placename":"Norwood, MA, USA","id":4992,"name":"origin","lat":"42.194543","lon":"-71.1994976","hops":{"incoming":[],"outgoing":[{"transport_id":"16","id":"2732","transport_name":"air, freight, intercontinental","transport_description":"intercontinental freight","transport_unit":"kg km","transport_co2_eq":"0.450000","from_stop_id":"4992","from_stop_lat":"42.194543","from_stop_lon":"-71.1994976","from_stop_placename":"Norwood, MA, USA","to_stop_id":"1336","to_stop_name":"origin","to_stop_lat":"35.86166","to_stop_lon":"104.195397","to_stop_placename":"China","to_stop":{"id":"1336","name":"origin","lat":"35.86166","lon":"104.195397","placename":"China"},"from_stop":{"name":"origin","id":"4992","lat":"42.194543","lon":"-71.1994976","placename":"Norwood, MA, USA"}}]}}},"processes":[],"eols":[]},{"oid":"3579","imid":"3025","linkid":"","weight":"0.05","rawemissions":"0","emissions":"0","shipping":"10598.96","processemissions":null,"endoflifeemissions":null,"disposaltype":null,"disposalenergy":null,"disposalimpact":null,"disposalemissions":null,"description":"ALM-1412 \tmade by\tAvago \nhttp:\/\/www.google.com\/url?q=http:\/\/www.avagotech.com\/docs\/AV02-2026EN&sa=X&ei=Ib7IS5DyC4O78gaFloDXCg&ved=0CAoQzgQoADAA&usg=AFQjCNFSmbYb8k_5zV8m9OYr3HHhku7bHg\n","name":"LNA - GPS, 1.575GHz, w\/ Integrated Filter ","id":"3025","stops":{"origin":{"related_to":"3025","part_or_object":"p","notes":"","placename":"Santa Clara, CA, USA","id":4993,"name":"origin","lat":"37.3541079","lon":"-121.9552356","hops":{"incoming":[],"outgoing":[{"transport_id":"16","id":"2733","transport_name":"air, freight, intercontinental","transport_description":"intercontinental freight","transport_unit":"kg km","transport_co2_eq":"0.450000","from_stop_id":"4993","from_stop_lat":"37.3541079","from_stop_lon":"-121.9552356","from_stop_placename":"Santa Clara, CA, USA","to_stop_id":"1336","to_stop_name":"origin","to_stop_lat":"35.86166","to_stop_lon":"104.195397","to_stop_placename":"China","to_stop":{"id":"1336","name":"origin","lat":"35.86166","lon":"104.195397","placename":"China"},"from_stop":{"name":"origin","id":"4993","lat":"37.3541079","lon":"-121.9552356","placename":"Santa Clara, CA, USA"}}]}}},"processes":[],"eols":[]},{"oid":"3579","imid":"3026","linkid":"","weight":"0.05","rawemissions":"0","emissions":"0","shipping":"10598.96","processemissions":null,"endoflifeemissions":null,"disposaltype":null,"disposalenergy":null,"disposalimpact":null,"disposalemissions":null,"description":"ALM-1412 \tmade by\tAvago \nhttp:\/\/www.google.com\/url?q=http:\/\/www.avagotech.com\/docs\/AV02-2026EN&sa=X&ei=Ib7IS5DyC4O78gaFloDXCg&ved=0CAoQzgQoADAA&usg=AFQjCNFSmbYb8k_5zV8m9OYr3HHhku7bHg\n","name":"PAM - CDMA2000 1X, 1880MHz ","id":"3026","stops":{"origin":{"related_to":"3026","part_or_object":"p","notes":"","placename":"Santa Clara, CA, USA","id":4994,"name":"origin","lat":"37.3541079","lon":"-121.9552356","hops":{"incoming":[],"outgoing":[{"transport_id":"16","id":"2734","transport_name":"air, freight, intercontinental","transport_description":"intercontinental freight","transport_unit":"kg km","transport_co2_eq":"0.450000","from_stop_id":"4994","from_stop_lat":"37.3541079","from_stop_lon":"-121.9552356","from_stop_placename":"Santa Clara, CA, USA","to_stop_id":"1336","to_stop_name":"origin","to_stop_lat":"35.86166","to_stop_lon":"104.195397","to_stop_placename":"China","to_stop":{"id":"1336","name":"origin","lat":"35.86166","lon":"104.195397","placename":"China"},"from_stop":{"name":"origin","id":"4994","lat":"37.3541079","lon":"-121.9552356","placename":"Santa Clara, CA, USA"}}]}}},"processes":[],"eols":[]},{"oid":"3579","imid":"3027","linkid":"","weight":"0.05","rawemissions":"0","emissions":"0","shipping":"10598.96","processemissions":null,"endoflifeemissions":null,"disposaltype":null,"disposalenergy":null,"disposalimpact":null,"disposalemissions":null,"description":"ALM-1412 \tmade by\tAvago \nhttp:\/\/www.google.com\/url?q=http:\/\/www.avagotech.com\/docs\/AV02-2026EN&sa=X&ei=Ib7IS5DyC4O78gaFloDXCg&ved=0CAoQzgQoADAA&usg=AFQjCNFSmbYb8k_5zV8m9OYr3HHhku7bHg\n","name":"Duplexer - CDMA 1900, 1880\/1960MHz ","id":"3027","stops":{"origin":{"related_to":"3027","part_or_object":"p","notes":"","placename":"Santa Clara, CA, USA","id":4995,"name":"origin","lat":"37.3541079","lon":"-121.9552356","hops":{"incoming":[],"outgoing":[{"transport_id":"16","id":"2735","transport_name":"air, freight, intercontinental","transport_description":"intercontinental freight","transport_unit":"kg km","transport_co2_eq":"0.450000","from_stop_id":"4995","from_stop_lat":"37.3541079","from_stop_lon":"-121.9552356","from_stop_placename":"Santa Clara, CA, USA","to_stop_id":"1336","to_stop_name":"origin","to_stop_lat":"35.86166","to_stop_lon":"104.195397","to_stop_placename":"China","to_stop":{"id":"1336","name":"origin","lat":"35.86166","lon":"104.195397","placename":"China"},"from_stop":{"name":"origin","id":"4995","lat":"37.3541079","lon":"-121.9552356","placename":"Santa Clara, CA, USA"}}]}}},"processes":[],"eols":[]},{"oid":"3579","imid":"3028","linkid":"","weight":"0.05","rawemissions":"0","emissions":"0","shipping":"8115.12","processemissions":null,"endoflifeemissions":null,"disposaltype":null,"disposalenergy":null,"disposalimpact":null,"disposalemissions":null,"description":"TAC Series \tmade by\tAVX \nhttp:\/\/www.themanufacturer.com\/uk\/profile\/6392\/AVX_Corporation\n","name":"Tantalum Microchip ","id":"3028","stops":{"origin":{"related_to":"3028","part_or_object":"p","notes":"","placename":"Paignton, Torbay, UK","id":4996,"name":"origin","lat":"50.42","lon":"-3.56","hops":{"incoming":[],"outgoing":[{"transport_id":"16","id":"2736","transport_name":"air, freight, intercontinental","transport_description":"intercontinental freight","transport_unit":"kg km","transport_co2_eq":"0.450000","from_stop_id":"4996","from_stop_lat":"50.42","from_stop_lon":"-3.56","from_stop_placename":"Paignton, Torbay, UK","to_stop_id":"1336","to_stop_name":"origin","to_stop_lat":"35.86166","to_stop_lon":"104.195397","to_stop_placename":"China","to_stop":{"id":"1336","name":"origin","lat":"35.86166","lon":"104.195397","placename":"China"},"from_stop":{"name":"origin","id":"4996","lat":"50.42","lon":"-3.56","placename":"Paignton, Torbay, UK"}}]}}},"processes":[],"eols":[]},{"oid":"3579","imid":"3029","linkid":"","weight":"0.05","rawemissions":"0","emissions":"0","shipping":"8115.12","processemissions":null,"endoflifeemissions":null,"disposaltype":null,"disposalenergy":null,"disposalimpact":null,"disposalemissions":null,"description":"TAC Series \tmade by\tAVX \nhttp:\/\/www.themanufacturer.com\/uk\/profile\/6392\/AVX_Corporation\n","name":"Tantalum - Encapsulated, 4.0V, 100uF, 125C, 20%, Low ESR ","id":"3029","stops":{"origin":{"related_to":"3029","part_or_object":"p","notes":"","placename":"Paignton, UK","id":4997,"name":"origin","lat":"50.42","lon":"-3.56","hops":{"incoming":[],"outgoing":[{"transport_id":"16","id":"2737","transport_name":"air, freight, intercontinental","transport_description":"intercontinental freight","transport_unit":"kg km","transport_co2_eq":"0.450000","from_stop_id":"4997","from_stop_lat":"50.42","from_stop_lon":"-3.56","from_stop_placename":"Paignton, UK","to_stop_id":"1336","to_stop_name":"origin","to_stop_lat":"35.86166","to_stop_lon":"104.195397","to_stop_placename":"China","to_stop":{"id":"1336","name":"origin","lat":"35.86166","lon":"104.195397","placename":"China"},"from_stop":{"name":"origin","id":"4997","lat":"50.42","lon":"-3.56","placename":"Paignton, UK"}}]}}},"processes":[],"eols":[]},{"oid":"3579","imid":"3030","linkid":"","weight":"0.05","rawemissions":"0","emissions":"0","shipping":"7791.06","processemissions":null,"endoflifeemissions":null,"disposaltype":null,"disposalenergy":null,"disposalimpact":null,"disposalemissions":null,"description":"BC63B239A04IYBE \tmade by\tCSR \nhttp:\/\/www.csr.com\/contacts.htm\n","name":"BlueCore6ROM - Single Chip Solution, V2.1 EDR ","id":"3030","stops":{"origin":{"related_to":"3030","part_or_object":"p","notes":"","placename":"Cambridge, UK","id":4998,"name":"origin","lat":"52.2025441","lon":"0.1312368","hops":{"incoming":[],"outgoing":[{"transport_id":"16","id":"2738","transport_name":"air, freight, intercontinental","transport_description":"intercontinental freight","transport_unit":"kg km","transport_co2_eq":"0.450000","from_stop_id":"4998","from_stop_lat":"52.2025441","from_stop_lon":"0.1312368","from_stop_placename":"Cambridge, UK","to_stop_id":"1336","to_stop_name":"origin","to_stop_lat":"35.86166","to_stop_lon":"104.195397","to_stop_placename":"China","to_stop":{"id":"1336","name":"origin","lat":"35.86166","lon":"104.195397","placename":"China"},"from_stop":{"name":"origin","id":"4998","lat":"52.2025441","lon":"0.1312368","placename":"Cambridge, UK"}}]}}},"processes":[],"eols":[]},{"oid":"3579","imid":"3031","linkid":"","weight":"0.05","rawemissions":"0","emissions":"0","shipping":"3844.98","processemissions":null,"endoflifeemissions":null,"disposaltype":null,"disposalenergy":null,"disposalimpact":null,"disposalemissions":null,"description":"B39841B9425M410 \tmade by\tEpcos \nhttp:\/\/siva-sg.jobstreet.com\/_ads\/sg\/jobs\/2010\/4\/e\/20\/2253604.htm?fr=J\n","name":"TX RF SAW Filter - CDMA 850, 836.5MHz ","id":"3031","stops":{"origin":{"related_to":"3031","part_or_object":"p","notes":"","placename":"Kallang Way, Singapore","id":4999,"name":"origin","lat":"1.322901","lon":"103.8779432","hops":{"incoming":[],"outgoing":[{"transport_id":"16","id":"2739","transport_name":"air, freight, intercontinental","transport_description":"intercontinental freight","transport_unit":"kg km","transport_co2_eq":"0.450000","from_stop_id":"4999","from_stop_lat":"1.322901","from_stop_lon":"103.8779432","from_stop_placename":"Kallang Way, Singapore","to_stop_id":"1336","to_stop_name":"origin","to_stop_lat":"35.86166","to_stop_lon":"104.195397","to_stop_placename":"China","to_stop":{"id":"1336","name":"origin","lat":"35.86166","lon":"104.195397","placename":"China"},"from_stop":{"name":"origin","id":"4999","lat":"1.322901","lon":"103.8779432","placename":"Kallang Way, Singapore"}}]}}},"processes":[],"eols":[]},{"oid":"3579","imid":"3034","linkid":"","weight":"0.05","rawemissions":"0","emissions":"0","shipping":"3844.98","processemissions":null,"endoflifeemissions":null,"disposaltype":null,"disposalenergy":null,"disposalimpact":null,"disposalemissions":null,"description":"B39881B9432M410 \tmade by\tEpcos \nhttp:\/\/siva-sg.jobstreet.com\/_ads\/sg\/jobs\/2010\/4\/e\/20\/2253604.htm?fr=J\n","name":"RX RF SAW Filter - CDMA 850, 881.5MHz ","id":"3034","stops":{"origin":{"related_to":"3034","part_or_object":"p","notes":"","placename":"Kallang Way, Singapore","id":5001,"name":"origin","lat":"1.322901","lon":"103.8779432","hops":{"incoming":[],"outgoing":[{"transport_id":"16","id":"2741","transport_name":"air, freight, intercontinental","transport_description":"intercontinental freight","transport_unit":"kg km","transport_co2_eq":"0.450000","from_stop_id":"5001","from_stop_lat":"1.322901","from_stop_lon":"103.8779432","from_stop_placename":"Kallang Way, Singapore","to_stop_id":"1336","to_stop_name":"origin","to_stop_lat":"35.86166","to_stop_lon":"104.195397","to_stop_placename":"China","to_stop":{"id":"1336","name":"origin","lat":"35.86166","lon":"104.195397","placename":"China"},"from_stop":{"name":"origin","id":"5001","lat":"1.322901","lon":"103.8779432","placename":"Kallang Way, Singapore"}}]}}},"processes":[],"eols":[]},{"oid":"3579","imid":"3036","linkid":"","weight":"0.05","rawemissions":"0","emissions":"0","shipping":"3844.98","processemissions":null,"endoflifeemissions":null,"disposaltype":null,"disposalenergy":null,"disposalimpact":null,"disposalemissions":null,"description":"B39941B9301G110 \tmade by\tEpcos \nhttp:\/\/siva-sg.jobstreet.com\/_ads\/sg\/jobs\/2010\/4\/e\/20\/2253604.htm?fr=J\n","name":"RX RF SAW Filter - Dual, GSM850\/900, 881.5\/942.5MHz ","id":"3036","stops":{"origin":{"related_to":"3036","part_or_object":"p","notes":"","placename":"Kallang Way, Singapore","id":5002,"name":"origin","lat":"1.322901","lon":"103.8779432","hops":{"incoming":[],"outgoing":[{"transport_id":"16","id":"2742","transport_name":"air, freight, intercontinental","transport_description":"intercontinental freight","transport_unit":"kg km","transport_co2_eq":"0.450000","from_stop_id":"5002","from_stop_lat":"1.322901","from_stop_lon":"103.8779432","from_stop_placename":"Kallang Way, Singapore","to_stop_id":"1336","to_stop_name":"origin","to_stop_lat":"35.86166","to_stop_lon":"104.195397","to_stop_placename":"China","to_stop":{"id":"1336","name":"origin","lat":"35.86166","lon":"104.195397","placename":"China"},"from_stop":{"name":"origin","id":"5002","lat":"1.322901","lon":"103.8779432","placename":"Kallang Way, Singapore"}}]}}},"processes":[],"eols":[]},{"oid":"3579","imid":"3037","linkid":"","weight":"0.05","rawemissions":"0","emissions":"0","shipping":"3844.98","processemissions":null,"endoflifeemissions":null,"disposaltype":null,"disposalenergy":null,"disposalimpact":null,"disposalemissions":null,"description":"B39212B9411K610 \tmade by\tEpcos \nhttp:\/\/siva-sg.jobstreet.com\/_ads\/sg\/jobs\/2010\/4\/e\/20\/2253604.htm?fr=J\n","name":"RX RF SAW Filter - WCDMA 2100, 2140.0MHz ","id":"3037","stops":{"origin":{"related_to":"3037","part_or_object":"p","notes":"","placename":"Kallang Way, Singapore","id":5003,"name":"origin","lat":"1.322901","lon":"103.8779432","hops":{"incoming":[],"outgoing":[{"transport_id":"16","id":"2743","transport_name":"air, freight, intercontinental","transport_description":"intercontinental freight","transport_unit":"kg km","transport_co2_eq":"0.450000","from_stop_id":"5003","from_stop_lat":"1.322901","from_stop_lon":"103.8779432","from_stop_placename":"Kallang Way, Singapore","to_stop_id":"1336","to_stop_name":"origin","to_stop_lat":"35.86166","to_stop_lon":"104.195397","to_stop_placename":"China","to_stop":{"id":"1336","name":"origin","lat":"35.86166","lon":"104.195397","placename":"China"},"from_stop":{"name":"origin","id":"5003","lat":"1.322901","lon":"103.8779432","placename":"Kallang Way, Singapore"}}]}}},"processes":[],"eols":[]},{"oid":"3579","imid":"3038","linkid":"","weight":"0.05","rawemissions":"0","emissions":"0","shipping":"1164.18","processemissions":null,"endoflifeemissions":null,"disposaltype":null,"disposalenergy":null,"disposalimpact":null,"disposalemissions":null,"description":"FC-135 \tmade by\tEpson Toyocom \nhttp:\/\/www.epsontoyocom.co.jp\/english\/","name":"Crystal - 32.768kHz ","id":"3038","stops":{"origin":{"related_to":"3038","part_or_object":"p","notes":"","placename":"Jinbao St, Dongcheng, Beijing, China","id":5004,"name":"origin","lat":"39.9156386","lon":"116.42659","hops":{"incoming":[],"outgoing":[{"transport_id":"16","id":"2744","transport_name":"air, freight, intercontinental","transport_description":"intercontinental freight","transport_unit":"kg km","transport_co2_eq":"0.450000","from_stop_id":"5004","from_stop_lat":"39.9156386","from_stop_lon":"116.42659","from_stop_placename":"Jinbao St, Dongcheng, Beijing, China","to_stop_id":"1336","to_stop_name":"origin","to_stop_lat":"35.86166","to_stop_lon":"104.195397","to_stop_placename":"China","to_stop":{"id":"1336","name":"origin","lat":"35.86166","lon":"104.195397","placename":"China"},"from_stop":{"name":"origin","id":"5004","lat":"39.9156386","lon":"116.42659","placename":"Jinbao St, Dongcheng, Beijing, China"}}]}}},"processes":[],"eols":[]},{"oid":"3579","imid":"3039","linkid":"","weight":"0.05","rawemissions":"0","emissions":"0","shipping":"2085.16","processemissions":null,"endoflifeemissions":null,"disposaltype":null,"disposalenergy":null,"disposalimpact":null,"disposalemissions":null,"description":"NC7SV00L6X \tmade by\tFairchild Semiconductor \nhttp:\/\/www.fairchildsemi.com\/cf\/design_manufacturing.html\n","name":"NAND Gate - Single, 2-Input ","id":"3039","stops":{"origin":{"related_to":"3039","part_or_object":"p","notes":"","placename":"Gyeonggi-do, South Korea","id":5005,"name":"origin","lat":"37.4138","lon":"127.5183","hops":{"incoming":[],"outgoing":[{"transport_id":"16","id":"2745","transport_name":"air, freight, intercontinental","transport_description":"intercontinental freight","transport_unit":"kg km","transport_co2_eq":"0.450000","from_stop_id":"5005","from_stop_lat":"37.4138","from_stop_lon":"127.5183","from_stop_placename":"Gyeonggi-do, South Korea","to_stop_id":"1336","to_stop_name":"origin","to_stop_lat":"35.86166","to_stop_lon":"104.195397","to_stop_placename":"China","to_stop":{"id":"1336","name":"origin","lat":"35.86166","lon":"104.195397","placename":"China"},"from_stop":{"name":"origin","id":"5005","lat":"37.4138","lon":"127.5183","placename":"Gyeonggi-do, South Korea"}}]}}},"processes":[],"eols":[]},{"oid":"3579","imid":"3040","linkid":"","weight":"0.05","rawemissions":"0","emissions":"0","shipping":"2085.16","processemissions":null,"endoflifeemissions":null,"disposaltype":null,"disposalenergy":null,"disposalimpact":null,"disposalemissions":null,"description":"NC7SV32L6X \tmade by\tFairchild Semiconductor \nhttp:\/\/www.fairchildsemi.com\/cf\/design_manufacturing.html","name":"OR Gate - Single, 2-Input ","id":"3040","stops":{"origin":{"related_to":"3040","part_or_object":"p","notes":"","placename":"Gyeonggi-do, South Korea","id":5006,"name":"origin","lat":"37.4138","lon":"127.5183","hops":{"incoming":[],"outgoing":[{"transport_id":"16","id":"2746","transport_name":"air, freight, intercontinental","transport_description":"intercontinental freight","transport_unit":"kg km","transport_co2_eq":"0.450000","from_stop_id":"5006","from_stop_lat":"37.4138","from_stop_lon":"127.5183","from_stop_placename":"Gyeonggi-do, South Korea","to_stop_id":"1336","to_stop_name":"origin","to_stop_lat":"35.86166","to_stop_lon":"104.195397","to_stop_placename":"China","to_stop":{"id":"1336","name":"origin","lat":"35.86166","lon":"104.195397","placename":"China"},"from_stop":{"name":"origin","id":"5006","lat":"37.4138","lon":"127.5183","placename":"Gyeonggi-do, South Korea"}}]}}},"processes":[],"eols":[]},{"oid":"3579","imid":"3041","linkid":"","weight":"0.05","rawemissions":"0","emissions":"0","shipping":"2085.16","processemissions":null,"endoflifeemissions":null,"disposaltype":null,"disposalenergy":null,"disposalimpact":null,"disposalemissions":null,"description":"NC7SZ74L8X \tmade by\tFairchild Semiconductor \nhttp:\/\/www.fairchildsemi.com\/cf\/design_manufacturing.html","name":"Flip Flop - D-Type, CMOS, w\/ Preset and Clear, Ultra Low Power ","id":"3041","stops":{"origin":{"related_to":"3041","part_or_object":"p","notes":"","placename":"Gyeonggi-do, South Korea","id":5007,"name":"origin","lat":"37.4138","lon":"127.5183","hops":{"incoming":[],"outgoing":[{"transport_id":"16","id":"2747","transport_name":"air, freight, intercontinental","transport_description":"intercontinental freight","transport_unit":"kg km","transport_co2_eq":"0.450000","from_stop_id":"5007","from_stop_lat":"37.4138","from_stop_lon":"127.5183","from_stop_placename":"Gyeonggi-do, South Korea","to_stop_id":"1336","to_stop_name":"origin","to_stop_lat":"35.86166","to_stop_lon":"104.195397","to_stop_placename":"China","to_stop":{"id":"1336","name":"origin","lat":"35.86166","lon":"104.195397","placename":"China"},"from_stop":{"name":"origin","id":"5007","lat":"37.4138","lon":"127.5183","placename":"Gyeonggi-do, South Korea"}}]}}},"processes":[],"eols":[]},{"oid":"3579","imid":"3042","linkid":"","weight":"0.05","rawemissions":"0","emissions":"0","shipping":"2085.16","processemissions":null,"endoflifeemissions":null,"disposaltype":null,"disposalenergy":null,"disposalimpact":null,"disposalemissions":null,"description":"NC7SV32L6X \tmade by\tFairchild Semiconductor \nhttp:\/\/www.fairchildsemi.com\/cf\/design_manufacturing.html","name":"OR Gate - Single, 2-Input ","id":"3042","stops":{"origin":{"related_to":"3042","part_or_object":"p","notes":"","placename":"Gyeonggi-do, South Korea","id":5008,"name":"origin","lat":"37.4138","lon":"127.5183","hops":{"incoming":[],"outgoing":[{"transport_id":"16","id":"2748","transport_name":"air, freight, intercontinental","transport_description":"intercontinental freight","transport_unit":"kg km","transport_co2_eq":"0.450000","from_stop_id":"5008","from_stop_lat":"37.4138","from_stop_lon":"127.5183","from_stop_placename":"Gyeonggi-do, South Korea","to_stop_id":"1336","to_stop_name":"origin","to_stop_lat":"35.86166","to_stop_lon":"104.195397","to_stop_placename":"China","to_stop":{"id":"1336","name":"origin","lat":"35.86166","lon":"104.195397","placename":"China"},"from_stop":{"name":"origin","id":"5008","lat":"37.4138","lon":"127.5183","placename":"Gyeonggi-do, South Korea"}}]}}},"processes":[],"eols":[]},{"oid":"3579","imid":"3043","linkid":"","weight":"0.05","rawemissions":"0","emissions":"0","shipping":"0","processemissions":null,"endoflifeemissions":null,"disposaltype":null,"disposalenergy":null,"disposalimpact":null,"disposalemissions":null,"description":"NC7SV04L6X \tmade by\tFairchild Semiconductor \nhttp:\/\/www.fairchildsemi.com\/cf\/design_manufacturing.html","name":"Inverter - Single, Ultra Low Power ","id":"3043","stops":{"origin":{"related_to":"3043","part_or_object":"p","notes":"","placename":"Part Location","id":5009,"name":"origin","lat":"0","lon":"0","hops":{"incoming":[],"outgoing":[{"transport_id":"16","id":"2749","transport_name":"air, freight, intercontinental","transport_description":"intercontinental freight","transport_unit":"kg km","transport_co2_eq":"0.450000","from_stop_id":"5009","from_stop_lat":"0","from_stop_lon":"0","from_stop_placename":"Part Location","to_stop_id":"1336","to_stop_name":"origin","to_stop_lat":"35.86166","to_stop_lon":"104.195397","to_stop_placename":"China","to_stop":{"id":"1336","name":"origin","lat":"35.86166","lon":"104.195397","placename":"China"},"from_stop":{"name":"origin","id":"5009","lat":"0","lon":"0","placename":"Part Location"}}]}}},"processes":[],"eols":[]},{"oid":"3579","imid":"3044","linkid":"","weight":"0.05","rawemissions":"0","emissions":"0","shipping":"0","processemissions":null,"endoflifeemissions":null,"disposaltype":null,"disposalenergy":null,"disposalimpact":null,"disposalemissions":null,"description":"NC7SZ74L8X \tmade by\tFairchild Semiconductor \nhttp:\/\/www.fairchildsemi.com\/cf\/design_manufacturing.html","name":"Flip Flop - D-Type, CMOS, w\/ Preset and Clear, Ultra Low Power ","id":"3044","stops":{"origin":{"related_to":"3044","part_or_object":"p","notes":"","placename":"Part Location","id":5010,"name":"origin","lat":"0","lon":"0","hops":{"incoming":[],"outgoing":[{"transport_id":"16","id":"2750","transport_name":"air, freight, intercontinental","transport_description":"intercontinental freight","transport_unit":"kg km","transport_co2_eq":"0.450000","from_stop_id":"5010","from_stop_lat":"0","from_stop_lon":"0","from_stop_placename":"Part Location","to_stop_id":"1336","to_stop_name":"origin","to_stop_lat":"35.86166","to_stop_lon":"104.195397","to_stop_placename":"China","to_stop":{"id":"1336","name":"origin","lat":"35.86166","lon":"104.195397","placename":"China"},"from_stop":{"name":"origin","id":"5010","lat":"0","lon":"0","placename":"Part Location"}}]}}},"processes":[],"eols":[]},{"oid":"3579","imid":"3045","linkid":"","weight":"0.05","rawemissions":"0","emissions":"0","shipping":"3187.96","processemissions":null,"endoflifeemissions":null,"disposaltype":null,"disposalenergy":null,"disposalimpact":null,"disposalemissions":null,"description":"made by\tHirose \nhttp:\/\/www.hirose.com\/worldlocations\/index.htm\n","name":"Board to Board - Receptacle, Gold Plated Contacts ","id":"3045","stops":{"origin":{"related_to":"3045","part_or_object":"p","notes":"","placename":"T\u00c5\u008dky\u00c5\u008d Metropolis, Japan","id":5011,"name":"origin","lat":"35.6894875","lon":"139.6917064","hops":{"incoming":[],"outgoing":[{"transport_id":"16","id":"2751","transport_name":"air, freight, intercontinental","transport_description":"intercontinental freight","transport_unit":"kg km","transport_co2_eq":"0.450000","from_stop_id":"5011","from_stop_lat":"35.6894875","from_stop_lon":"139.6917064","from_stop_placename":"T\u00c5\u008dky\u00c5\u008d Metropolis, Japan","to_stop_id":"1336","to_stop_name":"origin","to_stop_lat":"35.86166","to_stop_lon":"104.195397","to_stop_placename":"China","to_stop":{"id":"1336","name":"origin","lat":"35.86166","lon":"104.195397","placename":"China"},"from_stop":{"name":"origin","id":"5011","lat":"35.6894875","lon":"139.6917064","placename":"T\u00c5\u008dky\u00c5\u008d Metropolis, Japan"}}]}}},"processes":[],"eols":[]},{"oid":"3579","imid":"3046","linkid":"","weight":"0.05","rawemissions":"0","emissions":"0","shipping":"2950.76","processemissions":null,"endoflifeemissions":null,"disposaltype":null,"disposalenergy":null,"disposalimpact":null,"disposalemissions":null,"description":"ESD8V0L1B-02LRH \tmade by\tInfineon \nhttp:\/\/www.infineonventures.com\/cms\/jp\/corporate\/company\/regional-subsidaries\/infineon-japan\/contact\/\n","name":"Transient Voltage Suppressor - Bi-Directional ","id":"3046","stops":{"origin":{"related_to":"3046","part_or_object":"p","notes":"","placename":"Nagoya City, Aichi Prefecture, Japan","id":5012,"name":"origin","lat":"35.1814464","lon":"136.906398","hops":{"incoming":[],"outgoing":[{"transport_id":"16","id":"2752","transport_name":"air, freight, intercontinental","transport_description":"intercontinental freight","transport_unit":"kg km","transport_co2_eq":"0.450000","from_stop_id":"5012","from_stop_lat":"35.1814464","from_stop_lon":"136.906398","from_stop_placename":"Nagoya City, Aichi Prefecture, Japan","to_stop_id":"1336","to_stop_name":"origin","to_stop_lat":"35.86166","to_stop_lon":"104.195397","to_stop_placename":"China","to_stop":{"id":"1336","name":"origin","lat":"35.86166","lon":"104.195397","placename":"China"},"from_stop":{"name":"origin","id":"5012","lat":"35.1814464","lon":"136.906398","placename":"Nagoya City, Aichi Prefecture, Japan"}}]}}},"processes":[],"eols":[]},{"oid":"3579","imid":"3047","linkid":"","weight":"0.05","rawemissions":"0","emissions":"0","shipping":"10499.4","processemissions":null,"endoflifeemissions":null,"disposaltype":null,"disposalenergy":null,"disposalimpact":null,"disposalemissions":null,"description":"MAX9938TEBS  \tmade by\tMaxim \nhttp:\/\/www.maxim-ic.com\/company\/wafer_fab\/\n","name":"Amplifier - High-Side, Precision Current-Sense ","id":"3047","stops":{"origin":{"related_to":"3047","part_or_object":"p","notes":"","placename":"Irving, USA","id":5013,"name":"origin","lat":"38.0169444","lon":"-122.7244444","hops":{"incoming":[],"outgoing":[{"transport_id":"16","id":"2753","transport_name":"air, freight, intercontinental","transport_description":"intercontinental freight","transport_unit":"kg km","transport_co2_eq":"0.450000","from_stop_id":"5013","from_stop_lat":"38.0169444","from_stop_lon":"-122.7244444","from_stop_placename":"Irving, USA","to_stop_id":"1336","to_stop_name":"origin","to_stop_lat":"35.86166","to_stop_lon":"104.195397","to_stop_placename":"China","to_stop":{"id":"1336","name":"origin","lat":"35.86166","lon":"104.195397","placename":"China"},"from_stop":{"name":"origin","id":"5013","lat":"38.0169444","lon":"-122.7244444","placename":"Irving, USA"}}]}}},"processes":[],"eols":[]},{"oid":"3579","imid":"3048","linkid":"","weight":"0.05","rawemissions":"0","emissions":"0","shipping":"12087.75","processemissions":null,"endoflifeemissions":null,"disposaltype":null,"disposalenergy":null,"disposalimpact":null,"disposalemissions":null,"description":"MAX9718EEBL T \tmade by\tMaxim \nhttp:\/\/www.maxim-ic.com\/company\/wafer_fab\/\n","name":"Audio Power Amplifier - Mono, 1.4W, w\/ Differential Input ","id":"3048","stops":{"origin":{"related_to":"3048","part_or_object":"p","notes":"","placename":"Dallas, TX, USA","id":5014,"name":"origin","lat":"32.802955","lon":"-96.769923","hops":{"incoming":[],"outgoing":[{"transport_id":"16","id":"2754","transport_name":"air, freight, intercontinental","transport_description":"intercontinental freight","transport_unit":"kg km","transport_co2_eq":"0.450000","from_stop_id":"5014","from_stop_lat":"32.802955","from_stop_lon":"-96.769923","from_stop_placename":"Dallas, TX, USA","to_stop_id":"1336","to_stop_name":"origin","to_stop_lat":"35.86166","to_stop_lon":"104.195397","to_stop_placename":"China","to_stop":{"id":"1336","name":"origin","lat":"35.86166","lon":"104.195397","placename":"China"},"from_stop":{"name":"origin","id":"5014","lat":"32.802955","lon":"-96.769923","placename":"Dallas, TX, USA"}}]}}},"processes":[],"eols":[]},{"oid":"3579","imid":"3049","linkid":"","weight":"0.05","rawemissions":"0","emissions":"0","shipping":"10603.42","processemissions":null,"endoflifeemissions":null,"disposaltype":null,"disposalenergy":null,"disposalimpact":null,"disposalemissions":null,"description":"MAX6946CAWE  \tmade by\tMaxim \nhttp:\/\/www.maxim-ic.com\/company\/wafer_fab\/\n","name":"LED Driver - 10-Port, w\/ PWM Intensity Control ","id":"3049","stops":{"origin":{"related_to":"3049","part_or_object":"p","notes":"","placename":"San Jose, CA, USA","id":5015,"name":"origin","lat":"37.3393857","lon":"-121.8949555","hops":{"incoming":[],"outgoing":[{"transport_id":"16","id":"2755","transport_name":"air, freight, intercontinental","transport_description":"intercontinental freight","transport_unit":"kg km","transport_co2_eq":"0.450000","from_stop_id":"5015","from_stop_lat":"37.3393857","from_stop_lon":"-121.8949555","from_stop_placename":"San Jose, CA, USA","to_stop_id":"1336","to_stop_name":"origin","to_stop_lat":"35.86166","to_stop_lon":"104.195397","to_stop_placename":"China","to_stop":{"id":"1336","name":"origin","lat":"35.86166","lon":"104.195397","placename":"China"},"from_stop":{"name":"origin","id":"5015","lat":"37.3393857","lon":"-121.8949555","placename":"San Jose, CA, USA"}}]}}},"processes":[],"eols":[]},{"oid":"3579","imid":"3050","linkid":"","weight":"0.05","rawemissions":"0","emissions":"0","shipping":"10603.42","processemissions":null,"endoflifeemissions":null,"disposaltype":null,"disposalenergy":null,"disposalimpact":null,"disposalemissions":null,"description":"MIC2293-34YML \tmade by\tMicrel  \nhttp:\/\/www.micrel.com\/offices.do?m_menu=5&submenu=1\n","name":"Regulator - White LED Driver, PWM, w\/ Internal Schottky Diode and Overvoltage Protect ","id":"3050","stops":{"origin":{"related_to":"3050","part_or_object":"p","notes":"","placename":"San Jose, CA, USA","id":5016,"name":"origin","lat":"37.3393857","lon":"-121.8949555","hops":{"incoming":[],"outgoing":[{"transport_id":"16","id":"2756","transport_name":"air, freight, intercontinental","transport_description":"intercontinental freight","transport_unit":"kg km","transport_co2_eq":"0.450000","from_stop_id":"5016","from_stop_lat":"37.3393857","from_stop_lon":"-121.8949555","from_stop_placename":"San Jose, CA, USA","to_stop_id":"1336","to_stop_name":"origin","to_stop_lat":"35.86166","to_stop_lon":"104.195397","to_stop_placename":"China","to_stop":{"id":"1336","name":"origin","lat":"35.86166","lon":"104.195397","placename":"China"},"from_stop":{"name":"origin","id":"5016","lat":"37.3393857","lon":"-121.8949555","placename":"San Jose, CA, USA"}}]}}},"processes":[],"eols":[]},{"oid":"3579","imid":"3051","linkid":"","weight":"0.05","rawemissions":"0","emissions":"0","shipping":"11472.91","processemissions":null,"endoflifeemissions":null,"disposaltype":null,"disposalenergy":null,"disposalimpact":null,"disposalemissions":null,"description":"made by\tMicrochip \nhttp:\/\/www.microchip.com\/stellent\/idcplg?IdcService=SS_GET_PAGE&nodeId=96\n","name":"Microcontroller - 8-Bit ","id":"3051","stops":{"origin":{"related_to":"3051","part_or_object":"p","notes":"","placename":"Chandler, AZ, USA","id":5017,"name":"origin","lat":"33.3061605","lon":"-111.8412502","hops":{"incoming":[],"outgoing":[{"transport_id":"16","id":"2757","transport_name":"air, freight, intercontinental","transport_description":"intercontinental freight","transport_unit":"kg km","transport_co2_eq":"0.450000","from_stop_id":"5017","from_stop_lat":"33.3061605","from_stop_lon":"-111.8412502","from_stop_placename":"Chandler, AZ, USA","to_stop_id":"1336","to_stop_name":"origin","to_stop_lat":"35.86166","to_stop_lon":"104.195397","to_stop_placename":"China","to_stop":{"id":"1336","name":"origin","lat":"35.86166","lon":"104.195397","placename":"China"},"from_stop":{"name":"origin","id":"5017","lat":"33.3061605","lon":"-111.8412502","placename":"Chandler, AZ, USA"}}]}}},"processes":[],"eols":[]},{"oid":"3579","imid":"3052","linkid":"","weight":"0.05","rawemissions":"0","emissions":"0","shipping":"3187.96","processemissions":null,"endoflifeemissions":null,"disposaltype":null,"disposalenergy":null,"disposalimpact":null,"disposalemissions":null,"description":"SAFEB1G57KB0F00 \tmade by\tMurata \nhttp:\/\/www.murata.com\/corporate\/network\/japan\/index.html#honsha\n","name":"RX RF SAW Filter - GPS, 1575.42MHz ","id":"3052","stops":{"origin":{"related_to":"3052","part_or_object":"p","notes":"","placename":"T\u00c5\u008dky\u00c5\u008d Metropolis, Japan","id":5018,"name":"origin","lat":"35.6894875","lon":"139.6917064","hops":{"incoming":[],"outgoing":[{"transport_id":"16","id":"2758","transport_name":"air, freight, intercontinental","transport_description":"intercontinental freight","transport_unit":"kg km","transport_co2_eq":"0.450000","from_stop_id":"5018","from_stop_lat":"35.6894875","from_stop_lon":"139.6917064","from_stop_placename":"T\u00c5\u008dky\u00c5\u008d Metropolis, Japan","to_stop_id":"1336","to_stop_name":"origin","to_stop_lat":"35.86166","to_stop_lon":"104.195397","to_stop_placename":"China","to_stop":{"id":"1336","name":"origin","lat":"35.86166","lon":"104.195397","placename":"China"},"from_stop":{"name":"origin","id":"5018","lat":"35.6894875","lon":"139.6917064","placename":"T\u00c5\u008dky\u00c5\u008d Metropolis, Japan"}}]}}},"processes":[],"eols":[]},{"oid":"3579","imid":"3053","linkid":"","weight":"0.05","rawemissions":"0","emissions":"0","shipping":"2852.68","processemissions":null,"endoflifeemissions":null,"disposaltype":null,"disposalenergy":null,"disposalimpact":null,"disposalemissions":null,"description":"CES20 Series \tmade by\tMurata \nhttp:\/\/www.murata.com\/corporate\/network\/japan\/index.html#honsha\n","name":"Isolator ","id":"3053","stops":{"origin":{"related_to":"3053","part_or_object":"p","notes":"","placename":"Ky\u00c5\u008dto City, Ky\u00c5\u008dto Prefecture, Japan","id":5019,"name":"origin","lat":"35.0116363","lon":"135.7680294","hops":{"incoming":[],"outgoing":[{"transport_id":"16","id":"2759","transport_name":"air, freight, intercontinental","transport_description":"intercontinental freight","transport_unit":"kg km","transport_co2_eq":"0.450000","from_stop_id":"5019","from_stop_lat":"35.0116363","from_stop_lon":"135.7680294","from_stop_placename":"Ky\u00c5\u008dto City, Ky\u00c5\u008dto Prefecture, Japan","to_stop_id":"1336","to_stop_name":"origin","to_stop_lat":"35.86166","to_stop_lon":"104.195397","to_stop_placename":"China","to_stop":{"id":"1336","name":"origin","lat":"35.86166","lon":"104.195397","placename":"China"},"from_stop":{"name":"origin","id":"5019","lat":"35.0116363","lon":"135.7680294","placename":"Ky\u00c5\u008dto City, Ky\u00c5\u008dto Prefecture, Japan"}}]}}},"processes":[],"eols":[]},{"oid":"3579","imid":"3054","linkid":"","weight":"0.05","rawemissions":"0","emissions":"0","shipping":"1162.3","processemissions":null,"endoflifeemissions":null,"disposaltype":null,"disposalenergy":null,"disposalimpact":null,"disposalemissions":null,"description":"SAYZW836MAF0F00 \tmade by\tMurata \nhttp:\/\/www.murata.com\/corporate\/network\/japan\/index.html#honsha\n","name":"Duplexer - CDMA 850, 836.5\/881.5MHz ","id":"3054","stops":{"origin":{"related_to":"3054","part_or_object":"p","notes":"","placename":"Beijing, China","id":5020,"name":"origin","lat":"39.904667","lon":"116.408198","hops":{"incoming":[],"outgoing":[{"transport_id":"16","id":"2760","transport_name":"air, freight, intercontinental","transport_description":"intercontinental freight","transport_unit":"kg km","transport_co2_eq":"0.450000","from_stop_id":"5020","from_stop_lat":"39.904667","from_stop_lon":"116.408198","from_stop_placename":"Beijing, China","to_stop_id":"1336","to_stop_name":"origin","to_stop_lat":"35.86166","to_stop_lon":"104.195397","to_stop_placename":"China","to_stop":{"id":"1336","name":"origin","lat":"35.86166","lon":"104.195397","placename":"China"},"from_stop":{"name":"origin","id":"5020","lat":"39.904667","lon":"116.408198","placename":"Beijing, China"}}]}}},"processes":[],"eols":[]},{"oid":"3579","imid":"3055","linkid":"","weight":"0.05","rawemissions":"0","emissions":"0","shipping":"2861.82","processemissions":null,"endoflifeemissions":null,"disposaltype":null,"disposalenergy":null,"disposalimpact":null,"disposalemissions":null,"description":"LQP15M Series \tmade by\tMurata \nhttp:\/\/www.murata.com\/corporate\/network\/japan\/index.html#honsha\n","name":"High Frequency Film Type ","id":"3055","stops":{"origin":{"related_to":"3055","part_or_object":"p","notes":"","placename":"Shiga Prefecture, Japan","id":5021,"name":"origin","lat":"35.0045306","lon":"135.8685899","hops":{"incoming":[],"outgoing":[{"transport_id":"16","id":"2761","transport_name":"air, freight, intercontinental","transport_description":"intercontinental freight","transport_unit":"kg km","transport_co2_eq":"0.450000","from_stop_id":"5021","from_stop_lat":"35.0045306","from_stop_lon":"135.8685899","from_stop_placename":"Shiga Prefecture, Japan","to_stop_id":"1336","to_stop_name":"origin","to_stop_lat":"35.86166","to_stop_lon":"104.195397","to_stop_placename":"China","to_stop":{"id":"1336","name":"origin","lat":"35.86166","lon":"104.195397","placename":"China"},"from_stop":{"name":"origin","id":"5021","lat":"35.0045306","lon":"135.8685899","placename":"Shiga Prefecture, Japan"}}]}}},"processes":[],"eols":[]},{"oid":"3579","imid":"3056","linkid":"","weight":"0.05","rawemissions":"0","emissions":"0","shipping":"12085.11","processemissions":null,"endoflifeemissions":null,"disposaltype":null,"disposalenergy":null,"disposalimpact":null,"disposalemissions":null,"description":"LM3215TLX \tmade by\tNational Semiconductor \nhttp:\/\/www.national.com\/analog\/locations\n","name":"Amplifier - Op-Amp ","id":"3056","stops":{"origin":{"related_to":"3056","part_or_object":"p","notes":"","placename":"Arlington, TX, USA","id":5022,"name":"origin","lat":"32.735687","lon":"-97.1080656","hops":{"incoming":[],"outgoing":[{"transport_id":"16","id":"2762","transport_name":"air, freight, intercontinental","transport_description":"intercontinental freight","transport_unit":"kg km","transport_co2_eq":"0.450000","from_stop_id":"5022","from_stop_lat":"32.735687","from_stop_lon":"-97.1080656","from_stop_placename":"Arlington, TX, USA","to_stop_id":"1336","to_stop_name":"origin","to_stop_lat":"35.86166","to_stop_lon":"104.195397","to_stop_placename":"China","to_stop":{"id":"1336","name":"origin","lat":"35.86166","lon":"104.195397","placename":"China"},"from_stop":{"name":"origin","id":"5022","lat":"32.735687","lon":"-97.1080656","placename":"Arlington, TX, USA"}}]}}},"processes":[],"eols":[]},{"oid":"3579","imid":"3057","linkid":"","weight":"0.05","rawemissions":"0","emissions":"0","shipping":"7819.85","processemissions":null,"endoflifeemissions":null,"disposaltype":null,"disposalenergy":null,"disposalimpact":null,"disposalemissions":null,"description":"LP5900TL-2.6 \tmade by\tNational Semiconductor \nhttp:\/\/www.national.com\/analog\/locations\n","name":"Regulator - 2.6V, 150mA, Ultra Low Noise ","id":"3057","stops":{"origin":{"related_to":"3057","part_or_object":"p","notes":"","placename":"Greenock, Inverclyde, UK","id":5023,"name":"origin","lat":"55.9480414","lon":"-4.760328","hops":{"incoming":[],"outgoing":[{"transport_id":"17","id":"2763","transport_name":"None Selected","transport_description":null,"transport_unit":"kg km","transport_co2_eq":"0.000000","from_stop_id":"5023","from_stop_lat":"55.9480414","from_stop_lon":"-4.760328","from_stop_placename":"Greenock, Inverclyde, UK","to_stop_id":"1336","to_stop_name":"origin","to_stop_lat":"35.86166","to_stop_lon":"104.195397","to_stop_placename":"China","to_stop":{"id":"1336","name":"origin","lat":"35.86166","lon":"104.195397","placename":"China"},"from_stop":{"name":"origin","id":"5023","lat":"55.9480414","lon":"-4.760328","placename":"Greenock, Inverclyde, UK"}}]}}},"processes":[],"eols":[]},{"oid":"3579","imid":"3058","linkid":"","weight":"0.05","rawemissions":"0","emissions":"0","shipping":"3738","processemissions":null,"endoflifeemissions":null,"disposaltype":null,"disposalenergy":null,"disposalimpact":null,"disposalemissions":null,"description":"LMV981TL \tmade by\tNational Semiconductor \nhttp:\/\/www.national.com\/analog\/locations\n","name":"Amplifier - Op-Amp, Rail-to-Rail, w\/ Shut Down ","id":"3058","stops":{"origin":{"related_to":"3058","part_or_object":"p","notes":"","placename":"Melaka, Malaysia","id":5024,"name":"origin","lat":"2.326349","lon":"102.3463875","hops":{"incoming":[],"outgoing":[{"transport_id":"16","id":"2764","transport_name":"air, freight, intercontinental","transport_description":"intercontinental freight","transport_unit":"kg km","transport_co2_eq":"0.450000","from_stop_id":"5024","from_stop_lat":"2.326349","from_stop_lon":"102.3463875","from_stop_placename":"Melaka, Malaysia","to_stop_id":"1336","to_stop_name":"origin","to_stop_lat":"35.86166","to_stop_lon":"104.195397","to_stop_placename":"China","to_stop":{"id":"1336","name":"origin","lat":"35.86166","lon":"104.195397","placename":"China"},"from_stop":{"name":"origin","id":"5024","lat":"2.326349","lon":"102.3463875","placename":"Melaka, Malaysia"}}]}}},"processes":[],"eols":[]},{"oid":"3579","imid":"3059","linkid":"","weight":"0.05","rawemissions":"0","emissions":"0","shipping":"11169.34","processemissions":null,"endoflifeemissions":null,"disposaltype":null,"disposalenergy":null,"disposalimpact":null,"disposalemissions":null,"description":"LP5900TL-2.6 \tmade by\tNational Semiconductor \nhttp:\/\/www.national.com\/analog\/locations\n","name":"Regulator - 2.6V, 150mA, Ultra Low Noise ","id":"3059","stops":{"origin":{"related_to":"3059","part_or_object":"p","notes":"","placename":"South Portland, ME, USA","id":5025,"name":"origin","lat":"43.6414716","lon":"-70.2408811","hops":{"incoming":[],"outgoing":[{"transport_id":"16","id":"2765","transport_name":"air, freight, intercontinental","transport_description":"intercontinental freight","transport_unit":"kg km","transport_co2_eq":"0.450000","from_stop_id":"5025","from_stop_lat":"43.6414716","from_stop_lon":"-70.2408811","from_stop_placename":"South Portland, ME, USA","to_stop_id":"1336","to_stop_name":"origin","to_stop_lat":"35.86166","to_stop_lon":"104.195397","to_stop_placename":"China","to_stop":{"id":"1336","name":"origin","lat":"35.86166","lon":"104.195397","placename":"China"},"from_stop":{"name":"origin","id":"5025","lat":"43.6414716","lon":"-70.2408811","placename":"South Portland, ME, USA"}}]}}},"processes":[],"eols":[]},{"oid":"3579","imid":"3060","linkid":"","weight":"0.05","rawemissions":"0","emissions":"0","shipping":"7522.22","processemissions":null,"endoflifeemissions":null,"disposaltype":null,"disposalenergy":null,"disposalimpact":null,"disposalemissions":null,"description":"PMEG3010BEV \tmade by\tNXP Semiconductors \nhttp:\/\/www.nxp.com\/profile\/\n","name":"Schottky Rectifier - 30V, 1A ","id":"3060","stops":{"origin":{"related_to":"3060","part_or_object":"p","notes":"","placename":"Eindhoven, The Netherlands","id":5026,"name":"origin","lat":"51.4365957","lon":"5.4780014","hops":{"incoming":[],"outgoing":[{"transport_id":"16","id":"2766","transport_name":"air, freight, intercontinental","transport_description":"intercontinental freight","transport_unit":"kg km","transport_co2_eq":"0.450000","from_stop_id":"5026","from_stop_lat":"51.4365957","from_stop_lon":"5.4780014","from_stop_placename":"Eindhoven, The Netherlands","to_stop_id":"1336","to_stop_name":"origin","to_stop_lat":"35.86166","to_stop_lon":"104.195397","to_stop_placename":"China","to_stop":{"id":"1336","name":"origin","lat":"35.86166","lon":"104.195397","placename":"China"},"from_stop":{"name":"origin","id":"5026","lat":"51.4365957","lon":"5.4780014","placename":"Eindhoven, The Netherlands"}}]}}},"processes":[],"eols":[]},{"oid":"3579","imid":"3061","linkid":"","weight":"0.05","rawemissions":"0","emissions":"0","shipping":"7522.22","processemissions":null,"endoflifeemissions":null,"disposaltype":null,"disposalenergy":null,"disposalimpact":null,"disposalemissions":null,"description":"BAW101S \tmade by\tNXP Semiconductors \nhttp:\/\/www.nxp.com\/profile\/\n","name":"High Speed Switching - Dual, 300V, 140mA ","id":"3061","stops":{"origin":{"related_to":"3061","part_or_object":"p","notes":"","placename":"Eindhoven, The Netherlands","id":5027,"name":"origin","lat":"51.4365957","lon":"5.4780014","hops":{"incoming":[],"outgoing":[{"transport_id":"16","id":"2767","transport_name":"air, freight, intercontinental","transport_description":"intercontinental freight","transport_unit":"kg km","transport_co2_eq":"0.450000","from_stop_id":"5027","from_stop_lat":"51.4365957","from_stop_lon":"5.4780014","from_stop_placename":"Eindhoven, The Netherlands","to_stop_id":"1336","to_stop_name":"origin","to_stop_lat":"35.86166","to_stop_lon":"104.195397","to_stop_placename":"China","to_stop":{"id":"1336","name":"origin","lat":"35.86166","lon":"104.195397","placename":"China"},"from_stop":{"name":"origin","id":"5027","lat":"51.4365957","lon":"5.4780014","placename":"Eindhoven, The Netherlands"}}]}}},"processes":[],"eols":[]},{"oid":"3579","imid":"3062","linkid":"","weight":"0.05","rawemissions":"0","emissions":"0","shipping":"7522.22","processemissions":null,"endoflifeemissions":null,"disposaltype":null,"disposalenergy":null,"disposalimpact":null,"disposalemissions":null,"description":"74LVC1G58GF \tmade by\tNXP Semiconductors \nhttp:\/\/www.nxp.com\/profile\/\n","name":"Logic Gate - Low Power, Configurable Multiple Function, 3-Input ","id":"3062","stops":{"origin":{"related_to":"3062","part_or_object":"p","notes":"","placename":"Eindhoven, The Netherlands","id":5028,"name":"origin","lat":"51.4365957","lon":"5.4780014","hops":{"incoming":[],"outgoing":[{"transport_id":"16","id":"2768","transport_name":"air, freight, intercontinental","transport_description":"intercontinental freight","transport_unit":"kg km","transport_co2_eq":"0.450000","from_stop_id":"5028","from_stop_lat":"51.4365957","from_stop_lon":"5.4780014","from_stop_placename":"Eindhoven, The Netherlands","to_stop_id":"1336","to_stop_name":"origin","to_stop_lat":"35.86166","to_stop_lon":"104.195397","to_stop_placename":"China","to_stop":{"id":"1336","name":"origin","lat":"35.86166","lon":"104.195397","placename":"China"},"from_stop":{"name":"origin","id":"5028","lat":"51.4365957","lon":"5.4780014","placename":"Eindhoven, The Netherlands"}}]}}},"processes":[],"eols":[]},{"oid":"3579","imid":"3063","linkid":"","weight":"0.05","rawemissions":"0","emissions":"0","shipping":"10598.96","processemissions":null,"endoflifeemissions":null,"disposaltype":null,"disposalenergy":null,"disposalimpact":null,"disposalemissions":null,"description":"OV3647 \tmade by\tOmniVision \nhttp:\/\/www.ovt.com\/aboutus\/locations.php\n","name":"Image Sensor - 3.1MP, CMOS, 1\/4\u201c Format, 1.75um x 1.75um Pixel Size, 3.58mm x 2.69mm Active Image Area ","id":"3063","stops":{"origin":{"related_to":"3063","part_or_object":"p","notes":"","placename":"Santa Clara, CA, USA","id":5029,"name":"origin","lat":"37.3541079","lon":"-121.9552356","hops":{"incoming":[],"outgoing":[{"transport_id":"16","id":"2769","transport_name":"air, freight, intercontinental","transport_description":"intercontinental freight","transport_unit":"kg km","transport_co2_eq":"0.450000","from_stop_id":"5029","from_stop_lat":"37.3541079","from_stop_lon":"-121.9552356","from_stop_placename":"Santa Clara, CA, USA","to_stop_id":"1336","to_stop_name":"origin","to_stop_lat":"35.86166","to_stop_lon":"104.195397","to_stop_placename":"China","to_stop":{"id":"1336","name":"origin","lat":"35.86166","lon":"104.195397","placename":"China"},"from_stop":{"name":"origin","id":"5029","lat":"37.3541079","lon":"-121.9552356","placename":"Santa Clara, CA, USA"}}]}}},"processes":[],"eols":[]},{"oid":"3579","imid":"3064","linkid":"","weight":"0.05","rawemissions":"0","emissions":"0","shipping":"703.53","processemissions":null,"endoflifeemissions":null,"disposaltype":null,"disposalenergy":null,"disposalimpact":null,"disposalemissions":null,"description":"ESD5B5.0ST1G \tmade by\tOn Semiconductor \nhttp:\/\/www.onsemi.com\/PowerSolutions\/content.do?id=1136\n","name":"Transient Voltage Suppressor, For ESD Protection ","id":"3064","stops":{"origin":{"related_to":"3064","part_or_object":"p","notes":"","placename":"Leshan, Sichuan, China","id":5030,"name":"origin","lat":"29.552064","lon":"103.765623","hops":{"incoming":[],"outgoing":[{"transport_id":"16","id":"2770","transport_name":"air, freight, intercontinental","transport_description":"intercontinental freight","transport_unit":"kg km","transport_co2_eq":"0.450000","from_stop_id":"5030","from_stop_lat":"29.552064","from_stop_lon":"103.765623","from_stop_placename":"Leshan, Sichuan, China","to_stop_id":"1336","to_stop_name":"origin","to_stop_lat":"35.86166","to_stop_lon":"104.195397","to_stop_placename":"China","to_stop":{"id":"1336","name":"origin","lat":"35.86166","lon":"104.195397","placename":"China"},"from_stop":{"name":"origin","id":"5030","lat":"29.552064","lon":"103.765623","placename":"Leshan, Sichuan, China"}}]}}},"processes":[],"eols":[]},{"oid":"3579","imid":"3066","linkid":"","weight":"0.05","rawemissions":"0","emissions":"0","shipping":"11272.01","processemissions":null,"endoflifeemissions":null,"disposaltype":null,"disposalenergy":null,"disposalimpact":null,"disposalemissions":null,"description":"RTR6500 \tmade by\tQualcomm \nhttp:\/\/www.qualcomm.com\/worldwide\/index.html\n","name":"RF Transceiver - Single-Chip, CDMA2000, 0.18-micron RF CMOS, w\/ Integrated GPS Receiver & Receive Diversity ","id":"3066","stops":{"origin":{"related_to":"3066","part_or_object":"p","notes":"","placename":"San Diego, CA, USA","id":5032,"name":"origin","lat":"32.7153292","lon":"-117.1572551","hops":{"incoming":[],"outgoing":[{"transport_id":"16","id":"2772","transport_name":"air, freight, intercontinental","transport_description":"intercontinental freight","transport_unit":"kg km","transport_co2_eq":"0.450000","from_stop_id":"5032","from_stop_lat":"32.7153292","from_stop_lon":"-117.1572551","from_stop_placename":"San Diego, CA, USA","to_stop_id":"1336","to_stop_name":"origin","to_stop_lat":"35.86166","to_stop_lon":"104.195397","to_stop_placename":"China","to_stop":{"id":"1336","name":"origin","lat":"35.86166","lon":"104.195397","placename":"China"},"from_stop":{"name":"origin","id":"5032","lat":"32.7153292","lon":"-117.1572551","placename":"San Diego, CA, USA"}}]}}},"processes":[],"eols":[]},{"oid":"3579","imid":"3067","linkid":"","weight":"0.05","rawemissions":"0","emissions":"0","shipping":"7522.22","processemissions":null,"endoflifeemissions":null,"disposaltype":null,"disposalenergy":null,"disposalimpact":null,"disposalemissions":null,"description":"BAW101S \tmade by\tNXP Semiconductors \nhttp:\/\/www.nxp.com\/profile\/\n","name":"High Speed Switching - Dual, 300V, 140mA ","id":"3067","stops":{"origin":{"related_to":"3067","part_or_object":"p","notes":"","placename":"Eindhoven, The Netherlands","id":5033,"name":"origin","lat":"51.4365957","lon":"5.4780014","hops":{"incoming":[],"outgoing":[{"transport_id":"16","id":"2773","transport_name":"air, freight, intercontinental","transport_description":"intercontinental freight","transport_unit":"kg km","transport_co2_eq":"0.450000","from_stop_id":"5033","from_stop_lat":"51.4365957","from_stop_lon":"5.4780014","from_stop_placename":"Eindhoven, The Netherlands","to_stop_id":"1336","to_stop_name":"origin","to_stop_lat":"35.86166","to_stop_lon":"104.195397","to_stop_placename":"China","to_stop":{"id":"1336","name":"origin","lat":"35.86166","lon":"104.195397","placename":"China"},"from_stop":{"name":"origin","id":"5033","lat":"51.4365957","lon":"5.4780014","placename":"Eindhoven, The Netherlands"}}]}}},"processes":[],"eols":[]},{"oid":"3579","imid":"3068","linkid":"","weight":"0.05","rawemissions":"0","emissions":"0","shipping":"7522.22","processemissions":null,"endoflifeemissions":null,"disposaltype":null,"disposalenergy":null,"disposalimpact":null,"disposalemissions":null,"description":"74LVC1G58GF \tmade by\tNXP Semiconductors \nhttp:\/\/www.nxp.com\/profile\/\n","name":"Logic Gate - Low Power, Configurable Multiple Function, 3-Input ","id":"3068","stops":{"origin":{"related_to":"3068","part_or_object":"p","notes":"","placename":"Eindhoven, The Netherlands","id":5034,"name":"origin","lat":"51.4365957","lon":"5.4780014","hops":{"incoming":[],"outgoing":[{"transport_id":"16","id":"2774","transport_name":"air, freight, intercontinental","transport_description":"intercontinental freight","transport_unit":"kg km","transport_co2_eq":"0.450000","from_stop_id":"5034","from_stop_lat":"51.4365957","from_stop_lon":"5.4780014","from_stop_placename":"Eindhoven, The Netherlands","to_stop_id":"1336","to_stop_name":"origin","to_stop_lat":"35.86166","to_stop_lon":"104.195397","to_stop_placename":"China","to_stop":{"id":"1336","name":"origin","lat":"35.86166","lon":"104.195397","placename":"China"},"from_stop":{"name":"origin","id":"5034","lat":"51.4365957","lon":"5.4780014","placename":"Eindhoven, The Netherlands"}}]}}},"processes":[],"eols":[]},{"oid":"3579","imid":"3069","linkid":"","weight":"0.05","rawemissions":"0","emissions":"0","shipping":"10598.96","processemissions":null,"endoflifeemissions":null,"disposaltype":null,"disposalenergy":null,"disposalimpact":null,"disposalemissions":null,"description":"OV3647 \tmade by\tOmniVision \nhttp:\/\/www.ovt.com\/aboutus\/locations.php\n","name":"Image Sensor - 3.1MP, CMOS, 1\/4\u201c Format, 1.75um x 1.75um Pixel Size, 3.58mm x 2.69mm Active Image Area ","id":"3069","stops":{"origin":{"related_to":"3069","part_or_object":"p","notes":"","placename":"Santa Clara, CA, USA","id":5035,"name":"origin","lat":"37.3541079","lon":"-121.9552356","hops":{"incoming":[],"outgoing":[{"transport_id":"16","id":"2775","transport_name":"air, freight, intercontinental","transport_description":"intercontinental freight","transport_unit":"kg km","transport_co2_eq":"0.450000","from_stop_id":"5035","from_stop_lat":"37.3541079","from_stop_lon":"-121.9552356","from_stop_placename":"Santa Clara, CA, USA","to_stop_id":"1336","to_stop_name":"origin","to_stop_lat":"35.86166","to_stop_lon":"104.195397","to_stop_placename":"China","to_stop":{"id":"1336","name":"origin","lat":"35.86166","lon":"104.195397","placename":"China"},"from_stop":{"name":"origin","id":"5035","lat":"37.3541079","lon":"-121.9552356","placename":"Santa Clara, CA, USA"}}]}}},"processes":[],"eols":[]},{"oid":"3579","imid":"3070","linkid":"","weight":"0.05","rawemissions":"0","emissions":"0","shipping":"703.53","processemissions":null,"endoflifeemissions":null,"disposaltype":null,"disposalenergy":null,"disposalimpact":null,"disposalemissions":null,"description":"ESD5B5.0ST1G \tmade by\tOn Semiconductor \nhttp:\/\/www.onsemi.com\/PowerSolutions\/content.do?id=1136\n","name":"Transient Voltage Suppressor, For ESD Protection ","id":"3070","stops":{"origin":{"related_to":"3070","part_or_object":"p","notes":"","placename":"Leshan, Sichuan, China","id":5036,"name":"origin","lat":"29.552064","lon":"103.765623","hops":{"incoming":[],"outgoing":[{"transport_id":"16","id":"2776","transport_name":"air, freight, intercontinental","transport_description":"intercontinental freight","transport_unit":"kg km","transport_co2_eq":"0.450000","from_stop_id":"5036","from_stop_lat":"29.552064","from_stop_lon":"103.765623","from_stop_placename":"Leshan, Sichuan, China","to_stop_id":"1336","to_stop_name":"origin","to_stop_lat":"35.86166","to_stop_lon":"104.195397","to_stop_placename":"China","to_stop":{"id":"1336","name":"origin","lat":"35.86166","lon":"104.195397","placename":"China"},"from_stop":{"name":"origin","id":"5036","lat":"29.552064","lon":"103.765623","placename":"Leshan, Sichuan, China"}}]}}},"processes":[],"eols":[]},{"oid":"3579","imid":"3072","linkid":"","weight":"0.05","rawemissions":"0","emissions":"0","shipping":"11272.01","processemissions":null,"endoflifeemissions":null,"disposaltype":null,"disposalenergy":null,"disposalimpact":null,"disposalemissions":null,"description":"RTR6500 \tmade by\tQualcomm \nhttp:\/\/www.qualcomm.com\/worldwide\/index.html\n","name":"RF Transceiver - Single-Chip, CDMA2000, 0.18-micron RF CMOS, w\/ Integrated GPS Receiver & Receive Diversity ","id":"3072","stops":{"origin":{"related_to":"3072","part_or_object":"p","notes":"","placename":"San Diego, CA, USA","id":5038,"name":"origin","lat":"32.7153292","lon":"-117.1572551","hops":{"incoming":[],"outgoing":[{"transport_id":"16","id":"2778","transport_name":"air, freight, intercontinental","transport_description":"intercontinental freight","transport_unit":"kg km","transport_co2_eq":"0.450000","from_stop_id":"5038","from_stop_lat":"32.7153292","from_stop_lon":"-117.1572551","from_stop_placename":"San Diego, CA, USA","to_stop_id":"1336","to_stop_name":"origin","to_stop_lat":"35.86166","to_stop_lon":"104.195397","to_stop_placename":"China","to_stop":{"id":"1336","name":"origin","lat":"35.86166","lon":"104.195397","placename":"China"},"from_stop":{"name":"origin","id":"5038","lat":"32.7153292","lon":"-117.1572551","placename":"San Diego, CA, USA"}}]}}},"processes":[],"eols":[]},{"oid":"3579","imid":"3073","linkid":"","weight":"0.05","rawemissions":"0","emissions":"0","shipping":"7522.22","processemissions":null,"endoflifeemissions":null,"disposaltype":null,"disposalenergy":null,"disposalimpact":null,"disposalemissions":null,"description":"BAW101S \tmade by\tNXP Semiconductors \nhttp:\/\/www.nxp.com\/profile\/\n","name":"High Speed Switching - Dual, 300V, 140mA ","id":"3073","stops":{"origin":{"related_to":"3073","part_or_object":"p","notes":"","placename":"Eindhoven, The Netherlands","id":5039,"name":"origin","lat":"51.4365957","lon":"5.4780014","hops":{"incoming":[],"outgoing":[{"transport_id":"16","id":"2779","transport_name":"air, freight, intercontinental","transport_description":"intercontinental freight","transport_unit":"kg km","transport_co2_eq":"0.450000","from_stop_id":"5039","from_stop_lat":"51.4365957","from_stop_lon":"5.4780014","from_stop_placename":"Eindhoven, The Netherlands","to_stop_id":"1336","to_stop_name":"origin","to_stop_lat":"35.86166","to_stop_lon":"104.195397","to_stop_placename":"China","to_stop":{"id":"1336","name":"origin","lat":"35.86166","lon":"104.195397","placename":"China"},"from_stop":{"name":"origin","id":"5039","lat":"51.4365957","lon":"5.4780014","placename":"Eindhoven, The Netherlands"}}]}}},"processes":[],"eols":[]},{"oid":"3579","imid":"3074","linkid":"","weight":"0.05","rawemissions":"0","emissions":"0","shipping":"7522.22","processemissions":null,"endoflifeemissions":null,"disposaltype":null,"disposalenergy":null,"disposalimpact":null,"disposalemissions":null,"description":"74LVC1G58GF \tmade by\tNXP Semiconductors \nhttp:\/\/www.nxp.com\/profile\/\n","name":"Logic Gate - Low Power, Configurable Multiple Function, 3-Input ","id":"3074","stops":{"origin":{"related_to":"3074","part_or_object":"p","notes":"","placename":"Eindhoven, The Netherlands","id":5040,"name":"origin","lat":"51.4365957","lon":"5.4780014","hops":{"incoming":[],"outgoing":[{"transport_id":"17","id":"2780","transport_name":"None Selected","transport_description":null,"transport_unit":"kg km","transport_co2_eq":"0.000000","from_stop_id":"5040","from_stop_lat":"51.4365957","from_stop_lon":"5.4780014","from_stop_placename":"Eindhoven, The Netherlands","to_stop_id":"1336","to_stop_name":"origin","to_stop_lat":"35.86166","to_stop_lon":"104.195397","to_stop_placename":"China","to_stop":{"id":"1336","name":"origin","lat":"35.86166","lon":"104.195397","placename":"China"},"from_stop":{"name":"origin","id":"5040","lat":"51.4365957","lon":"5.4780014","placename":"Eindhoven, The Netherlands"}}]}}},"processes":[],"eols":[]},{"oid":"3579","imid":"3075","linkid":"","weight":"0.05","rawemissions":"0","emissions":"0","shipping":"10598.96","processemissions":null,"endoflifeemissions":null,"disposaltype":null,"disposalenergy":null,"disposalimpact":null,"disposalemissions":null,"description":"OV3647 \tmade by\tOmniVision \nhttp:\/\/www.ovt.com\/aboutus\/locations.php\n","name":"Image Sensor - 3.1MP, CMOS, 1\/4\u201c Format, 1.75um x 1.75um Pixel Size, 3.58mm x 2.69mm Active Image Area ","id":"3075","stops":{"origin":{"related_to":"3075","part_or_object":"p","notes":"","placename":"Santa Clara, CA, USA","id":5041,"name":"origin","lat":"37.3541079","lon":"-121.9552356","hops":{"incoming":[],"outgoing":[{"transport_id":"16","id":"2781","transport_name":"air, freight, intercontinental","transport_description":"intercontinental freight","transport_unit":"kg km","transport_co2_eq":"0.450000","from_stop_id":"5041","from_stop_lat":"37.3541079","from_stop_lon":"-121.9552356","from_stop_placename":"Santa Clara, CA, USA","to_stop_id":"1336","to_stop_name":"origin","to_stop_lat":"35.86166","to_stop_lon":"104.195397","to_stop_placename":"China","to_stop":{"id":"1336","name":"origin","lat":"35.86166","lon":"104.195397","placename":"China"},"from_stop":{"name":"origin","id":"5041","lat":"37.3541079","lon":"-121.9552356","placename":"Santa Clara, CA, USA"}}]}}},"processes":[],"eols":[]},{"oid":"3579","imid":"3076","linkid":"","weight":"0.05","rawemissions":"0","emissions":"0","shipping":"703.53","processemissions":null,"endoflifeemissions":null,"disposaltype":null,"disposalenergy":null,"disposalimpact":null,"disposalemissions":null,"description":"ESD5B5.0ST1G \tmade by\tOn Semiconductor \nhttp:\/\/www.onsemi.com\/PowerSolutions\/content.do?id=1136\n","name":"Transient Voltage Suppressor, For ESD Protection ","id":"3076","stops":{"origin":{"related_to":"3076","part_or_object":"p","notes":"","placename":"Leshan, Sichuan, China","id":5042,"name":"origin","lat":"29.552064","lon":"103.765623","hops":{"incoming":[],"outgoing":[{"transport_id":"16","id":"2782","transport_name":"air, freight, intercontinental","transport_description":"intercontinental freight","transport_unit":"kg km","transport_co2_eq":"0.450000","from_stop_id":"5042","from_stop_lat":"29.552064","from_stop_lon":"103.765623","from_stop_placename":"Leshan, Sichuan, China","to_stop_id":"1336","to_stop_name":"origin","to_stop_lat":"35.86166","to_stop_lon":"104.195397","to_stop_placename":"China","to_stop":{"id":"1336","name":"origin","lat":"35.86166","lon":"104.195397","placename":"China"},"from_stop":{"name":"origin","id":"5042","lat":"29.552064","lon":"103.765623","placename":"Leshan, Sichuan, China"}}]}}},"processes":[],"eols":[]},{"oid":"3579","imid":"3078","linkid":"","weight":"0.05","rawemissions":"0","emissions":"0","shipping":"11272.01","processemissions":null,"endoflifeemissions":null,"disposaltype":null,"disposalenergy":null,"disposalimpact":null,"disposalemissions":null,"description":"RTR6500 \tmade by\tQualcomm \nhttp:\/\/www.qualcomm.com\/worldwide\/index.html\n","name":"RF Transceiver - Single-Chip, CDMA2000, 0.18-micron RF CMOS, w\/ Integrated GPS Receiver & Receive Diversity ","id":"3078","stops":{"origin":{"related_to":"3078","part_or_object":"p","notes":"","placename":"San Diego, CA, USA","id":5043,"name":"origin","lat":"32.7153292","lon":"-117.1572551","hops":{"incoming":[],"outgoing":[{"transport_id":"16","id":"2783","transport_name":"air, freight, intercontinental","transport_description":"intercontinental freight","transport_unit":"kg km","transport_co2_eq":"0.450000","from_stop_id":"5043","from_stop_lat":"32.7153292","from_stop_lon":"-117.1572551","from_stop_placename":"San Diego, CA, USA","to_stop_id":"1336","to_stop_name":"origin","to_stop_lat":"35.86166","to_stop_lon":"104.195397","to_stop_placename":"China","to_stop":{"id":"1336","name":"origin","lat":"35.86166","lon":"104.195397","placename":"China"},"from_stop":{"name":"origin","id":"5043","lat":"32.7153292","lon":"-117.1572551","placename":"San Diego, CA, USA"}}]}}},"processes":[],"eols":[]},{"oid":"3579","imid":"3022","linkid":"","weight":"0.05","rawemissions":"0","emissions":"0","shipping":"11325.86","processemissions":null,"endoflifeemissions":null,"disposaltype":null,"disposalenergy":null,"disposalimpact":null,"disposalemissions":null,"description":"A3212ELHLT made by\tAllegro Microsystems \nhttp:\/\/www.allegromicro.com\/en\/Corporate\/Facilities\/index.asp\n","name":"A3212ELHLT","id":"3022","stops":{"origin":{"related_to":"3022","part_or_object":"p","notes":"","placename":"NE Cutoff, Worcester, MA 01606, USA","id":5068,"name":"origin","lat":"42.3093999","lon":"-71.7692","hops":{"incoming":[],"outgoing":[{"transport_id":"16","id":"2808","transport_name":"air, freight, intercontinental","transport_description":"intercontinental freight","transport_unit":"kg km","transport_co2_eq":"0.450000","from_stop_id":"5068","from_stop_lat":"42.3093999","from_stop_lon":"-71.7692","from_stop_placename":"NE Cutoff, Worcester, MA 01606, USA","to_stop_id":"1336","to_stop_name":"origin","to_stop_lat":"35.86166","to_stop_lon":"104.195397","to_stop_placename":"China","to_stop":{"id":"1336","name":"origin","lat":"35.86166","lon":"104.195397","placename":"China"},"from_stop":{"name":"origin","id":"5068","lat":"42.3093999","lon":"-71.7692","placename":"NE Cutoff, Worcester, MA 01606, USA"}}]}}},"processes":[],"eols":[]},{"oid":"3579","imid":"3065","linkid":"","weight":"0.05","rawemissions":"0","emissions":"0","shipping":"2029.03","processemissions":null,"endoflifeemissions":null,"disposaltype":null,"disposalenergy":null,"disposalimpact":null,"disposalemissions":null,"description":"PSM04R-050CHW1(M) \tmade by\tPhihong \nhttp:\/\/www.hoovers.com\/company\/Phihong_Enterprise_Co_Ltd\/jrctsi-1.html\n","name":"Charger - 5V, 700mA, Flip Plug ","id":"3065","stops":{"origin":{"related_to":"3065","part_or_object":"p","notes":"","placename":"Gu\u00c3\u00acSh\u00c4\u0081n St, Yangmei Township, Taoyuan County, Taiwan 326","id":5154,"name":"origin","lat":"24.905232","lon":"121.149661","hops":{"incoming":[],"outgoing":[{"transport_id":"16","id":"2894","transport_name":"air, freight, intercontinental","transport_description":"intercontinental freight","transport_unit":"kg km","transport_co2_eq":"0.450000","from_stop_id":"5154","from_stop_lat":"24.905232","from_stop_lon":"121.149661","from_stop_placename":"Gu\u00c3\u00acSh\u00c4\u0081n St, Yangmei Township, Taoyuan County, Taiwan 326","to_stop_id":"1336","to_stop_name":"origin","to_stop_lat":"35.86166","to_stop_lon":"104.195397","to_stop_placename":"China","to_stop":{"id":"1336","name":"origin","lat":"35.86166","lon":"104.195397","placename":"China"},"from_stop":{"name":"origin","id":"5154","lat":"24.905232","lon":"121.149661","placename":"Gu\u00c3\u00acSh\u00c4\u0081n St, Yangmei Township, Taoyuan County, Taiwan 326"}}]}}},"processes":[],"eols":[]}],"user":{"name":"geng_tan","id":"9044"}}}