{"3584":{"oid":"3584","type":"object","flag":"","creator":"9388","name":"NYC Condom","upc":"","imagelink":"","description":"","slug":"nyc-condom","category":"","weight":"0","emissions":"3.43","embodied":"3.43","transport":"0","process":"0","endoflife":"0","shipping":"63549.1","lifetime":null,"usagetype":"","usageenergy":null,"usageemissions":null,"timecreated":"2010-04-19 13:02:25.901715","timemodified":"2010-04-19 22:04:17","visibility":"public","showfootprint":"on","showembodied":"on","showtransport":"on","showprocess":"on","showendoflife":"on","showlastleg":"on","showuse":"on","showstats":"on","stops":{"origin":{"related_to":"3584","part_or_object":"o","notes":"","placename":"Thailand","id":"1334","category":"1","lat":"15.870032","lon":"100.992541","name":"origin","hops":{"incoming":[{"transport_id":"17","id":"2800","transport_name":"None Selected","transport_description":null,"transport_unit":"kg km","transport_co2_eq":"0.000000","from_stop_id":"5060","from_stop_lat":"22.258652","from_stop_lon":"71.1923805","to_stop_id":"1334","to_stop_name":"origin","to_stop_lat":"15.870032","placename":"Gujarat, India","to_stop_lon":"100.992541","to_stop":{"id":"1334","name":"origin","lat":"15.870032","placename":"Thailand","lon":"100.992541"},"from_stop":{"name":"origin","id":"5060","lat":"22.258652","lon":"71.1923805","placename":"Gujarat, India"}},{"transport_id":"17","id":"2801","transport_name":"None Selected","transport_description":null,"transport_unit":"kg km","transport_co2_eq":"0.000000","from_stop_id":"5061","from_stop_lat":"34.0633443","from_stop_lon":"-117.6508876","to_stop_id":"1334","to_stop_name":"origin","to_stop_lat":"15.870032","placename":"Ontario, CA, USA","to_stop_lon":"100.992541","to_stop":{"id":"1334","name":"origin","lat":"15.870032","placename":"Thailand","lon":"100.992541"},"from_stop":{"name":"origin","id":"5061","lat":"34.0633443","lon":"-117.6508876","placename":"Ontario, CA, USA"}},{"transport_id":"17","id":"2802","transport_name":"None Selected","transport_description":null,"transport_unit":"kg km","transport_co2_eq":"0.000000","from_stop_id":"5062","from_stop_lat":"19.7514798","from_stop_lon":"75.7138884","to_stop_id":"1334","to_stop_name":"origin","to_stop_lat":"15.870032","placename":"Maharashtra, India","to_stop_lon":"100.992541","to_stop":{"id":"1334","name":"origin","lat":"15.870032","placename":"Thailand","lon":"100.992541"},"from_stop":{"name":"origin","id":"5062","lat":"19.7514798","lon":"75.7138884","placename":"Maharashtra, India"}},{"transport_id":"17","id":"2803","transport_name":"None Selected","transport_description":null,"transport_unit":"kg km","transport_co2_eq":"0.000000","from_stop_id":"5063","from_stop_lat":"30.266214","from_stop_lon":"120.15383","to_stop_id":"1334","to_stop_name":"origin","to_stop_lat":"15.870032","placename":"Zhejiang, China","to_stop_lon":"100.992541","to_stop":{"id":"1334","name":"origin","lat":"15.870032","placename":"Thailand","lon":"100.992541"},"from_stop":{"name":"origin","id":"5063","lat":"30.266214","lon":"120.15383","placename":"Zhejiang, China"}},{"transport_id":"17","id":"2804","transport_name":"None Selected","transport_description":null,"transport_unit":"kg km","transport_co2_eq":"0.000000","from_stop_id":"5064","from_stop_lat":"30.266214","from_stop_lon":"120.15383","to_stop_id":"1334","to_stop_name":"origin","to_stop_lat":"15.870032","placename":"Zhejiang, China","to_stop_lon":"100.992541","to_stop":{"id":"1334","name":"origin","lat":"15.870032","placename":"Thailand","lon":"100.992541"},"from_stop":{"name":"origin","id":"5064","lat":"30.266214","lon":"120.15383","placename":"Zhejiang, China"}},{"transport_id":"17","id":"2805","transport_name":"None Selected","transport_description":null,"transport_unit":"kg km","transport_co2_eq":"0.000000","from_stop_id":"5065","from_stop_lat":"-14.235004","from_stop_lon":"-51.92528","to_stop_id":"1334","to_stop_name":"origin","to_stop_lat":"15.870032","placename":"Brazil","to_stop_lon":"100.992541","to_stop":{"id":"1334","name":"origin","lat":"15.870032","placename":"Thailand","lon":"100.992541"},"from_stop":{"name":"origin","id":"5065","lat":"-14.235004","lon":"-51.92528","placename":"Brazil"}},{"transport_id":"17","id":"2806","transport_name":"None Selected","transport_description":null,"transport_unit":"kg km","transport_co2_eq":"0.000000","from_stop_id":"5066","from_stop_lat":"-37.651811","from_stop_lon":"144.930466","to_stop_id":"1334","to_stop_name":"origin","to_stop_lat":"15.870032","placename":"Coolaroo VIC, Australia","to_stop_lon":"100.992541","to_stop":{"id":"1334","name":"origin","lat":"15.870032","placename":"Thailand","lon":"100.992541"},"from_stop":{"name":"origin","id":"5066","lat":"-37.651811","lon":"144.930466","placename":"Coolaroo VIC, Australia"}},{"transport_id":"17","id":"2807","transport_name":"None Selected","transport_description":null,"transport_unit":"kg km","transport_co2_eq":"0.000000","from_stop_id":"5067","from_stop_lat":"30.9037995","from_stop_lon":"-84.5754699","to_stop_id":"1334","to_stop_name":"origin","to_stop_lat":"15.870032","placename":"Bainbridge, GA, USA","to_stop_lon":"100.992541","to_stop":{"id":"1334","name":"origin","lat":"15.870032","placename":"Thailand","lon":"100.992541"},"from_stop":{"name":"origin","id":"5067","lat":"30.9037995","lon":"-84.5754699","placename":"Bainbridge, GA, USA"}}],"outgoing":[]}}},"parts":[{"oid":"3584","imid":"3095","linkid":"","weight":"0","rawemissions":"0","emissions":"0","shipping":"3209.1","processemissions":null,"endoflifeemissions":null,"disposaltype":null,"disposalenergy":null,"disposalimpact":null,"disposalemissions":null,"description":"","name":"Potassium Laurate","id":"3095","stops":{"origin":{"related_to":"3095","part_or_object":"p","notes":"","placename":"Gujarat, India","id":5060,"name":"origin","lat":"22.258652","lon":"71.1923805","hops":{"incoming":[],"outgoing":[{"transport_id":"17","id":"2800","transport_name":"None Selected","transport_description":null,"transport_unit":"kg km","transport_co2_eq":"0.000000","from_stop_id":"5060","from_stop_lat":"22.258652","from_stop_lon":"71.1923805","from_stop_placename":"Gujarat, India","to_stop_id":"1334","to_stop_name":"origin","to_stop_lat":"15.870032","to_stop_lon":"100.992541","to_stop_placename":"Thailand","to_stop":{"id":"1334","name":"origin","lat":"15.870032","lon":"100.992541","placename":"Thailand"},"from_stop":{"name":"origin","id":"5060","lat":"22.258652","lon":"71.1923805","placename":"Gujarat, India"}}]}}},"processes":[],"eols":[]},{"oid":"3584","imid":"3097","linkid":"","weight":"0","rawemissions":"0","emissions":"0","shipping":"13133.79","processemissions":null,"endoflifeemissions":null,"disposaltype":null,"disposalenergy":null,"disposalimpact":null,"disposalemissions":null,"description":"","name":"Zinc Oxide","id":"3097","stops":{"origin":{"related_to":"3097","part_or_object":"p","notes":"","placename":"Ontario, CA, USA","id":5061,"name":"origin","lat":"34.0633443","lon":"-117.6508876","hops":{"incoming":[],"outgoing":[{"transport_id":"17","id":"2801","transport_name":"None Selected","transport_description":null,"transport_unit":"kg km","transport_co2_eq":"0.000000","from_stop_id":"5061","from_stop_lat":"34.0633443","from_stop_lon":"-117.6508876","from_stop_placename":"Ontario, CA, USA","to_stop_id":"1334","to_stop_name":"origin","to_stop_lat":"15.870032","to_stop_lon":"100.992541","to_stop_placename":"Thailand","to_stop":{"id":"1334","name":"origin","lat":"15.870032","lon":"100.992541","placename":"Thailand"},"from_stop":{"name":"origin","id":"5061","lat":"34.0633443","lon":"-117.6508876","placename":"Ontario, CA, USA"}}]}}},"processes":[],"eols":[]},{"oid":"3584","imid":"3098","linkid":"parts\/ldpe-virgin","weight":"0","rawemissions":"2.47","emissions":"2.47","shipping":"2711.05","processemissions":null,"endoflifeemissions":null,"disposaltype":null,"disposalenergy":null,"disposalimpact":null,"disposalemissions":null,"description":"Packaging component","name":"LDPE, virgin","id":"3098","stops":{"origin":{"related_to":"3098","part_or_object":"p","notes":"","placename":"Maharashtra, India","id":5062,"name":"origin","lat":"19.7514798","lon":"75.7138884","hops":{"incoming":[],"outgoing":[{"transport_id":"17","id":"2802","transport_name":"None Selected","transport_description":null,"transport_unit":"kg km","transport_co2_eq":"0.000000","from_stop_id":"5062","from_stop_lat":"19.7514798","from_stop_lon":"75.7138884","from_stop_placename":"Maharashtra, India","to_stop_id":"1334","to_stop_name":"origin","to_stop_lat":"15.870032","to_stop_lon":"100.992541","to_stop_placename":"Thailand","to_stop":{"id":"1334","name":"origin","lat":"15.870032","lon":"100.992541","placename":"Thailand"},"from_stop":{"name":"origin","id":"5062","lat":"19.7514798","lon":"75.7138884","placename":"Maharashtra, India"}}]}}},"processes":[],"eols":[]},{"oid":"3584","imid":"3099","linkid":"","weight":"0","rawemissions":"0","emissions":"0","shipping":"2526.37","processemissions":null,"endoflifeemissions":null,"disposaltype":null,"disposalenergy":null,"disposalimpact":null,"disposalemissions":null,"description":"packaging component","name":"SURLYN","id":"3099","stops":{"origin":{"related_to":"3099","part_or_object":"p","notes":"","placename":"Zhejiang, China","id":5063,"name":"origin","lat":"30.266214","lon":"120.15383","hops":{"incoming":[],"outgoing":[{"transport_id":"17","id":"2803","transport_name":"None Selected","transport_description":null,"transport_unit":"kg km","transport_co2_eq":"0.000000","from_stop_id":"5063","from_stop_lat":"30.266214","from_stop_lon":"120.15383","from_stop_placename":"Zhejiang, China","to_stop_id":"1334","to_stop_name":"origin","to_stop_lat":"15.870032","to_stop_lon":"100.992541","to_stop_placename":"Thailand","to_stop":{"id":"1334","name":"origin","lat":"15.870032","lon":"100.992541","placename":"Thailand"},"from_stop":{"name":"origin","id":"5063","lat":"30.266214","lon":"120.15383","placename":"Zhejiang, China"}}]}}},"processes":[],"eols":[]},{"oid":"3584","imid":"3100","linkid":"","weight":"0","rawemissions":"0","emissions":"0","shipping":"2526.37","processemissions":null,"endoflifeemissions":null,"disposaltype":null,"disposalenergy":null,"disposalimpact":null,"disposalemissions":null,"description":"Packaging component","name":"BOPP","id":"3100","stops":{"origin":{"related_to":"3100","part_or_object":"p","notes":"","placename":"Zhejiang, China","id":5064,"name":"origin","lat":"30.266214","lon":"120.15383","hops":{"incoming":[],"outgoing":[{"transport_id":"17","id":"2804","transport_name":"None Selected","transport_description":null,"transport_unit":"kg km","transport_co2_eq":"0.000000","from_stop_id":"5064","from_stop_lat":"30.266214","from_stop_lon":"120.15383","from_stop_placename":"Zhejiang, China","to_stop_id":"1334","to_stop_name":"origin","to_stop_lat":"15.870032","to_stop_lon":"100.992541","to_stop_placename":"Thailand","to_stop":{"id":"1334","name":"origin","lat":"15.870032","lon":"100.992541","placename":"Thailand"},"from_stop":{"name":"origin","id":"5064","lat":"30.266214","lon":"120.15383","placename":"Zhejiang, China"}}]}}},"processes":[],"eols":[]},{"oid":"3584","imid":"3101","linkid":"parts\/rubber-natural","weight":"0","rawemissions":"0.96","emissions":"0.96","shipping":"17122.48","processemissions":null,"endoflifeemissions":null,"disposaltype":null,"disposalenergy":null,"disposalimpact":null,"disposalemissions":null,"description":"","name":"Rubber, Natural","id":"3101","stops":{"origin":{"related_to":"3101","part_or_object":"p","notes":"","placename":"Brazil","id":5065,"name":"origin","lat":"-14.235004","lon":"-51.92528","hops":{"incoming":[],"outgoing":[{"transport_id":"17","id":"2805","transport_name":"None Selected","transport_description":null,"transport_unit":"kg km","transport_co2_eq":"0.000000","from_stop_id":"5065","from_stop_lat":"-14.235004","from_stop_lon":"-51.92528","from_stop_placename":"Brazil","to_stop_id":"1334","to_stop_name":"origin","to_stop_lat":"15.870032","to_stop_lon":"100.992541","to_stop_placename":"Thailand","to_stop":{"id":"1334","name":"origin","lat":"15.870032","lon":"100.992541","placename":"Thailand"},"from_stop":{"name":"origin","id":"5065","lat":"-14.235004","lon":"-51.92528","placename":"Brazil"}}]}}},"processes":[],"eols":[]},{"oid":"3584","imid":"3102","linkid":"","weight":"0","rawemissions":"0","emissions":"0","shipping":"7523.27","processemissions":null,"endoflifeemissions":null,"disposaltype":null,"disposalenergy":null,"disposalimpact":null,"disposalemissions":null,"description":"","name":"Ammonia","id":"3102","stops":{"origin":{"related_to":"3102","part_or_object":"p","notes":"","placename":"Coolaroo VIC, Australia","id":5066,"name":"origin","lat":"-37.651811","lon":"144.930466","hops":{"incoming":[],"outgoing":[{"transport_id":"17","id":"2806","transport_name":"None Selected","transport_description":null,"transport_unit":"kg km","transport_co2_eq":"0.000000","from_stop_id":"5066","from_stop_lat":"-37.651811","from_stop_lon":"144.930466","from_stop_placename":"Coolaroo VIC, Australia","to_stop_id":"1334","to_stop_name":"origin","to_stop_lat":"15.870032","to_stop_lon":"100.992541","to_stop_placename":"Thailand","to_stop":{"id":"1334","name":"origin","lat":"15.870032","lon":"100.992541","placename":"Thailand"},"from_stop":{"name":"origin","id":"5066","lat":"-37.651811","lon":"144.930466","placename":"Coolaroo VIC, Australia"}}]}}},"processes":[],"eols":[]},{"oid":"3584","imid":"3103","linkid":"","weight":"0","rawemissions":"0","emissions":"0","shipping":"14796.67","processemissions":null,"endoflifeemissions":null,"disposaltype":null,"disposalenergy":null,"disposalimpact":null,"disposalemissions":null,"description":"","name":"Sulfur","id":"3103","stops":{"origin":{"related_to":"3103","part_or_object":"p","notes":"","placename":"Bainbridge, GA, USA","id":5067,"name":"origin","lat":"30.9037995","lon":"-84.5754699","hops":{"incoming":[],"outgoing":[{"transport_id":"17","id":"2807","transport_name":"None Selected","transport_description":null,"transport_unit":"kg km","transport_co2_eq":"0.000000","from_stop_id":"5067","from_stop_lat":"30.9037995","from_stop_lon":"-84.5754699","from_stop_placename":"Bainbridge, GA, USA","to_stop_id":"1334","to_stop_name":"origin","to_stop_lat":"15.870032","to_stop_lon":"100.992541","to_stop_placename":"Thailand","to_stop":{"id":"1334","name":"origin","lat":"15.870032","lon":"100.992541","placename":"Thailand"},"from_stop":{"name":"origin","id":"5067","lat":"30.9037995","lon":"-84.5754699","placename":"Bainbridge, GA, USA"}}]}}},"processes":[],"eols":[]}],"user":{"name":"sarahjenny","id":"9388"}}}