{"3605":{"oid":"3605","type":"object","flag":"","creator":"9538","name":"Samsung Omnia","upc":"","imagelink":"","description":"Samsung\/Verizon Omnia i910","slug":"samsung-omnia","category":"","weight":"0.2355","emissions":"233.892526121","embodied":"188.74248","transport":"0.050046121276","process":"0","endoflife":"0","shipping":"54561.94","lifetime":null,"usagetype":"","usageenergy":"55","usageemissions":"45.1","timecreated":"2010-04-22 13:47:14.448881","timemodified":"2010-04-30 15:24:24","visibility":"public","showfootprint":"on","showembodied":"on","showtransport":"on","showprocess":"on","showendoflife":"on","showlastleg":"on","showuse":"on","showstats":"on","stops":{"origin":{"related_to":"3605","part_or_object":"o","notes":"","placename":"Seoul, South Korea","id":"1433","category":"1","lat":"37.566535","lon":"126.9779692","name":"origin","hops":{"incoming":[{"transport_id":"8","id":"2831","transport_name":"freighter, oceanic","transport_description":"","transport_unit":"kg km","transport_co2_eq":"0.004200","from_stop_id":"5091","from_stop_lat":"4.210484","from_stop_lon":"101.975766","to_stop_id":"1433","to_stop_name":"origin","to_stop_lat":"37.566535","placename":"Malaysia","to_stop_lon":"126.9779692","to_stop":{"id":"1433","name":"origin","lat":"37.566535","placename":"Seoul, South Korea","lon":"126.9779692"},"from_stop":{"name":"origin","id":"5091","lat":"4.210484","lon":"101.975766","placename":"Malaysia"}},{"transport_id":"3","id":"2832","transport_name":"truck, 40 tons","transport_description":"truck, half full","transport_unit":"kg km","transport_co2_eq":"0.030900","from_stop_id":"5092","from_stop_lat":"37.566535","from_stop_lon":"126.9779692","to_stop_id":"1433","to_stop_name":"origin","to_stop_lat":"37.566535","placename":"Seoul, South Korea","to_stop_lon":"126.9779692","to_stop":{"id":"1433","name":"origin","lat":"37.566535","placename":"Seoul, South Korea","lon":"126.9779692"},"from_stop":{"name":"origin","id":"5092","lat":"37.566535","lon":"126.9779692","placename":"Seoul, South Korea"}},{"transport_id":"3","id":"2833","transport_name":"truck, 40 tons","transport_description":"truck, half full","transport_unit":"kg km","transport_co2_eq":"0.030900","from_stop_id":"5093","from_stop_lat":"37.566535","from_stop_lon":"126.9779692","to_stop_id":"1433","to_stop_name":"origin","to_stop_lat":"37.566535","placename":"Seoul, South Korea","to_stop_lon":"126.9779692","to_stop":{"id":"1433","name":"origin","lat":"37.566535","placename":"Seoul, South Korea","lon":"126.9779692"},"from_stop":{"name":"origin","id":"5093","lat":"37.566535","lon":"126.9779692","placename":"Seoul, South Korea"}},{"transport_id":"8","id":"2834","transport_name":"freighter, oceanic","transport_description":"","transport_unit":"kg km","transport_co2_eq":"0.004200","from_stop_id":"5094","from_stop_lat":"-25.274398","from_stop_lon":"133.775136","to_stop_id":"1433","to_stop_name":"origin","to_stop_lat":"37.566535","placename":"Australia","to_stop_lon":"126.9779692","to_stop":{"id":"1433","name":"origin","lat":"37.566535","placename":"Seoul, South Korea","lon":"126.9779692"},"from_stop":{"name":"origin","id":"5094","lat":"-25.274398","lon":"133.775136","placename":"Australia"}},{"transport_id":"8","id":"2835","transport_name":"freighter, oceanic","transport_description":"","transport_unit":"kg km","transport_co2_eq":"0.004200","from_stop_id":"5095","from_stop_lat":"22.543447","from_stop_lon":"114.057818","to_stop_id":"1433","to_stop_name":"origin","to_stop_lat":"37.566535","placename":"Shenzhen, Guangdong, China","to_stop_lon":"126.9779692","to_stop":{"id":"1433","name":"origin","lat":"37.566535","placename":"Seoul, South Korea","lon":"126.9779692"},"from_stop":{"name":"origin","id":"5095","lat":"22.543447","lon":"114.057818","placename":"Shenzhen, Guangdong, China"}},{"transport_id":"9","id":"2840","transport_name":"container ship","transport_description":"moving boxcar size containers","transport_unit":"kg km","transport_co2_eq":"0.047800","from_stop_id":"5100","from_stop_lat":"22.543447","from_stop_lon":"114.057818","to_stop_id":"1433","to_stop_name":"origin","to_stop_lat":"37.566535","placename":"Shenzhen, Guangdong, China","to_stop_lon":"126.9779692","to_stop":{"id":"1433","name":"origin","lat":"37.566535","placename":"Seoul, South Korea","lon":"126.9779692"},"from_stop":{"name":"origin","id":"5100","lat":"22.543447","lon":"114.057818","placename":"Shenzhen, Guangdong, China"}},{"transport_id":"8","id":"2841","transport_name":"freighter, oceanic","transport_description":"","transport_unit":"kg km","transport_co2_eq":"0.004200","from_stop_id":"5101","from_stop_lat":"-35.675147","from_stop_lon":"-71.542969","to_stop_id":"1433","to_stop_name":"origin","to_stop_lat":"37.566535","placename":"Chile","to_stop_lon":"126.9779692","to_stop":{"id":"1433","name":"origin","lat":"37.566535","placename":"Seoul, South Korea","lon":"126.9779692"},"from_stop":{"name":"origin","id":"5101","lat":"-35.675147","lon":"-71.542969","placename":"Chile"}},{"transport_id":"9","id":"2843","transport_name":"container ship","transport_description":"moving boxcar size containers","transport_unit":"kg km","transport_co2_eq":"0.047800","from_stop_id":"5103","from_stop_lat":"49.263588","from_stop_lon":"-123.138565","to_stop_id":"1433","to_stop_name":"origin","to_stop_lat":"37.566535","placename":"Vancouver, BC, Canada","to_stop_lon":"126.9779692","to_stop":{"id":"1433","name":"origin","lat":"37.566535","placename":"Seoul, South Korea","lon":"126.9779692"},"from_stop":{"name":"origin","id":"5103","lat":"49.263588","lon":"-123.138565","placename":"Vancouver, BC, Canada"}},{"transport_id":"9","id":"2844","transport_name":"container ship","transport_description":"moving boxcar size containers","transport_unit":"kg km","transport_co2_eq":"0.047800","from_stop_id":"5104","from_stop_lat":"0","from_stop_lon":"0","to_stop_id":"1433","to_stop_name":"origin","to_stop_lat":"37.566535","placename":"Part Location","to_stop_lon":"126.9779692","to_stop":{"id":"1433","name":"origin","lat":"37.566535","placename":"Seoul, South Korea","lon":"126.9779692"},"from_stop":{"name":"origin","id":"5104","lat":"0","lon":"0","placename":"Part Location"}},{"transport_id":"9","id":"2845","transport_name":"container ship","transport_description":"moving boxcar size containers","transport_unit":"kg km","transport_co2_eq":"0.047800","from_stop_id":"5105","from_stop_lat":"22.543447","from_stop_lon":"114.057818","to_stop_id":"1433","to_stop_name":"origin","to_stop_lat":"37.566535","placename":"Shenzhen, Guangdong, China","to_stop_lon":"126.9779692","to_stop":{"id":"1433","name":"origin","lat":"37.566535","placename":"Seoul, South Korea","lon":"126.9779692"},"from_stop":{"name":"origin","id":"5105","lat":"22.543447","lon":"114.057818","placename":"Shenzhen, Guangdong, China"}},{"transport_id":"17","id":"2842","transport_name":"None Selected","transport_description":null,"transport_unit":"kg km","transport_co2_eq":"0.000000","from_stop_id":"5102","from_stop_lat":"49.263588","from_stop_lon":"-123.138565","to_stop_id":"1433","to_stop_name":"origin","to_stop_lat":"37.566535","placename":"Vancouver, BC, Canada","to_stop_lon":"126.9779692","to_stop":{"id":"1433","name":"origin","lat":"37.566535","placename":"Seoul, South Korea","lon":"126.9779692"},"from_stop":{"name":"origin","id":"5102","lat":"49.263588","lon":"-123.138565","placename":"Vancouver, BC, Canada"}},{"transport_id":"17","id":"2904","transport_name":"None Selected","transport_description":null,"transport_unit":"kg km","transport_co2_eq":"0.000000","from_stop_id":"5164","from_stop_lat":"22.543447","from_stop_lon":"114.057818","to_stop_id":"1433","to_stop_name":"origin","to_stop_lat":"37.566535","placename":"Shenzhen, Guangdong, China","to_stop_lon":"126.9779692","to_stop":{"id":"1433","name":"origin","lat":"37.566535","placename":"Seoul, South Korea","lon":"126.9779692"},"from_stop":{"name":"origin","id":"5164","lat":"22.543447","lon":"114.057818","placename":"Shenzhen, Guangdong, China"}},{"transport_id":"17","id":"2788","transport_name":"None Selected","transport_description":null,"transport_unit":"kg km","transport_co2_eq":"0.000000","from_stop_id":"5048","from_stop_lat":"22.543447","from_stop_lon":"114.057818","to_stop_id":"1433","to_stop_name":"origin","to_stop_lat":"37.566535","placename":"Shenzhen, Guangdong, China","to_stop_lon":"126.9779692","to_stop":{"id":"1433","name":"origin","lat":"37.566535","placename":"Seoul, South Korea","lon":"126.9779692"},"from_stop":{"name":"origin","id":"5048","lat":"22.543447","lon":"114.057818","placename":"Shenzhen, Guangdong, China"}}],"outgoing":[]}}},"parts":[{"oid":"3605","imid":"3116","linkid":"parts\/abs","weight":"0.015","rawemissions":"3.2","emissions":"0.048","shipping":"2080.15","processemissions":null,"endoflifeemissions":null,"disposaltype":null,"disposalenergy":null,"disposalimpact":null,"disposalemissions":null,"description":"outer shell","name":"ABS","id":"3116","stops":{"origin":{"related_to":"3116","part_or_object":"p","notes":"","placename":"Shenzhen, Guangdong, China","id":5048,"name":"origin","lat":"22.543447","lon":"114.057818","hops":{"incoming":[],"outgoing":[{"transport_id":"17","id":"2788","transport_name":"None Selected","transport_description":null,"transport_unit":"kg km","transport_co2_eq":"0.000000","from_stop_id":"5048","from_stop_lat":"22.543447","from_stop_lon":"114.057818","from_stop_placename":"Shenzhen, Guangdong, China","to_stop_id":"1433","to_stop_name":"origin","to_stop_lat":"37.566535","to_stop_lon":"126.9779692","to_stop_placename":"Seoul, South Korea","to_stop":{"id":"1433","name":"origin","lat":"37.566535","lon":"126.9779692","placename":"Seoul, South Korea"},"from_stop":{"name":"origin","id":"5048","lat":"22.543447","lon":"114.057818","placename":"Shenzhen, Guangdong, China"}}]}}},"processes":[],"eols":[]},{"oid":"3605","imid":"3132","linkid":"","weight":"0.003","rawemissions":"0","emissions":"0","shipping":"4500.71","processemissions":null,"endoflifeemissions":null,"disposaltype":null,"disposalenergy":null,"disposalimpact":null,"disposalemissions":null,"description":"guess on the radio component manufacture","name":"Qualcomm radio","id":"3132","stops":{"origin":{"related_to":"3132","part_or_object":"p","notes":"","placename":"Malaysia","id":5091,"name":"origin","lat":"4.210484","lon":"101.975766","hops":{"incoming":[],"outgoing":[{"transport_id":"8","id":"2831","transport_name":"freighter, oceanic","transport_description":"","transport_unit":"kg km","transport_co2_eq":"0.004200","from_stop_id":"5091","from_stop_lat":"4.210484","from_stop_lon":"101.975766","from_stop_placename":"Malaysia","to_stop_id":"1433","to_stop_name":"origin","to_stop_lat":"37.566535","to_stop_lon":"126.9779692","to_stop_placename":"Seoul, South Korea","to_stop":{"id":"1433","name":"origin","lat":"37.566535","lon":"126.9779692","placename":"Seoul, South Korea"},"from_stop":{"name":"origin","id":"5091","lat":"4.210484","lon":"101.975766","placename":"Malaysia"}}]}}},"processes":[],"eols":[]},{"oid":"3605","imid":"3133","linkid":"parts\/integrated-circuitry-rohs","weight":"0.0125","rawemissions":"12000","emissions":"150","shipping":"0","processemissions":null,"endoflifeemissions":null,"disposaltype":null,"disposalenergy":null,"disposalimpact":null,"disposalemissions":null,"description":"mainboard","name":"Integrated circuitry, RoHS","id":"3133","stops":{"origin":{"related_to":"3133","part_or_object":"p","notes":"","placename":"Seoul, South Korea","id":5092,"name":"origin","lat":"37.566535","lon":"126.9779692","hops":{"incoming":[],"outgoing":[{"transport_id":"3","id":"2832","transport_name":"truck, 40 tons","transport_description":"truck, half full","transport_unit":"kg km","transport_co2_eq":"0.030900","from_stop_id":"5092","from_stop_lat":"37.566535","from_stop_lon":"126.9779692","from_stop_placename":"Seoul, South Korea","to_stop_id":"1433","to_stop_name":"origin","to_stop_lat":"37.566535","to_stop_lon":"126.9779692","to_stop_placename":"Seoul, South Korea","to_stop":{"id":"1433","name":"origin","lat":"37.566535","lon":"126.9779692","placename":"Seoul, South Korea"},"from_stop":{"name":"origin","id":"5092","lat":"37.566535","lon":"126.9779692","placename":"Seoul, South Korea"}}]}}},"processes":[],"eols":[]},{"oid":"3605","imid":"3134","linkid":"","weight":"0.007","rawemissions":"1600","emissions":"11.2","shipping":"0","processemissions":null,"endoflifeemissions":null,"disposaltype":null,"disposalenergy":null,"disposalimpact":null,"disposalemissions":null,"description":"assuming similar CO2e impact to the ICs","name":"LCD Display","id":"3134","stops":{"origin":{"related_to":"3134","part_or_object":"p","notes":"","placename":"Seoul, South Korea","id":5093,"name":"origin","lat":"37.566535","lon":"126.9779692","hops":{"incoming":[],"outgoing":[{"transport_id":"3","id":"2833","transport_name":"truck, 40 tons","transport_description":"truck, half full","transport_unit":"kg km","transport_co2_eq":"0.030900","from_stop_id":"5093","from_stop_lat":"37.566535","from_stop_lon":"126.9779692","from_stop_placename":"Seoul, South Korea","to_stop_id":"1433","to_stop_name":"origin","to_stop_lat":"37.566535","to_stop_lon":"126.9779692","to_stop_placename":"Seoul, South Korea","to_stop":{"id":"1433","name":"origin","lat":"37.566535","lon":"126.9779692","placename":"Seoul, South Korea"},"from_stop":{"name":"origin","id":"5093","lat":"37.566535","lon":"126.9779692","placename":"Seoul, South Korea"}}]}}},"processes":[],"eols":[]},{"oid":"3605","imid":"3135","linkid":"object\/aluminum-1","weight":"0.015","rawemissions":"1671.46","emissions":"25.0719","shipping":"7031.48","processemissions":null,"endoflifeemissions":null,"disposaltype":null,"disposalenergy":null,"disposalimpact":null,"disposalemissions":null,"description":"shielding for components","name":"Aluminum","id":"3135","stops":{"origin":{"related_to":"3135","part_or_object":"p","notes":"","placename":"Australia","id":5094,"name":"origin","lat":"-25.274398","lon":"133.775136","hops":{"incoming":[],"outgoing":[{"transport_id":"8","id":"2834","transport_name":"freighter, oceanic","transport_description":"","transport_unit":"kg km","transport_co2_eq":"0.004200","from_stop_id":"5094","from_stop_lat":"-25.274398","from_stop_lon":"133.775136","from_stop_placename":"Australia","to_stop_id":"1433","to_stop_name":"origin","to_stop_lat":"37.566535","to_stop_lon":"126.9779692","to_stop_placename":"Seoul, South Korea","to_stop":{"id":"1433","name":"origin","lat":"37.566535","lon":"126.9779692","placename":"Seoul, South Korea"},"from_stop":{"name":"origin","id":"5094","lat":"-25.274398","lon":"133.775136","placename":"Australia"}}]}}},"processes":[],"eols":[]},{"oid":"3605","imid":"3136","linkid":"parts\/pc","weight":"0.005","rawemissions":"4.2","emissions":"0.021","shipping":"2080.15","processemissions":null,"endoflifeemissions":null,"disposaltype":null,"disposalenergy":null,"disposalimpact":null,"disposalemissions":null,"description":"Polycarbonate shell material","name":"PC","id":"3136","stops":{"origin":{"related_to":"3136","part_or_object":"p","notes":"","placename":"Shenzhen, Guangdong, China","id":5095,"name":"origin","lat":"22.543447","lon":"114.057818","hops":{"incoming":[],"outgoing":[{"transport_id":"8","id":"2835","transport_name":"freighter, oceanic","transport_description":"","transport_unit":"kg km","transport_co2_eq":"0.004200","from_stop_id":"5095","from_stop_lat":"22.543447","from_stop_lon":"114.057818","from_stop_placename":"Shenzhen, Guangdong, China","to_stop_id":"1433","to_stop_name":"origin","to_stop_lat":"37.566535","to_stop_lon":"126.9779692","to_stop_placename":"Seoul, South Korea","to_stop":{"id":"1433","name":"origin","lat":"37.566535","lon":"126.9779692","placename":"Seoul, South Korea"},"from_stop":{"name":"origin","id":"5095","lat":"22.543447","lon":"114.057818","placename":"Shenzhen, Guangdong, China"}}]}}},"processes":[],"eols":[]},{"oid":"3605","imid":"3141","linkid":"parts\/pvc-flexible","weight":"0.005","rawemissions":"1.2","emissions":"0.006","shipping":"2080.15","processemissions":null,"endoflifeemissions":null,"disposaltype":null,"disposalenergy":null,"disposalimpact":null,"disposalemissions":null,"description":"PVC insulation for cabling 5g.","name":"PVC, flexible","id":"3141","stops":{"origin":{"related_to":"3141","part_or_object":"p","notes":"","placename":"Shenzhen, Guangdong, China","id":5100,"name":"origin","lat":"22.543447","lon":"114.057818","hops":{"incoming":[],"outgoing":[{"transport_id":"9","id":"2840","transport_name":"container ship","transport_description":"moving boxcar size containers","transport_unit":"kg km","transport_co2_eq":"0.047800","from_stop_id":"5100","from_stop_lat":"22.543447","from_stop_lon":"114.057818","from_stop_placename":"Shenzhen, Guangdong, China","to_stop_id":"1433","to_stop_name":"origin","to_stop_lat":"37.566535","to_stop_lon":"126.9779692","to_stop_placename":"Seoul, South Korea","to_stop":{"id":"1433","name":"origin","lat":"37.566535","lon":"126.9779692","placename":"Seoul, South Korea"},"from_stop":{"name":"origin","id":"5100","lat":"22.543447","lon":"114.057818","placename":"Shenzhen, Guangdong, China"}}]}}},"processes":[],"eols":[]},{"oid":"3605","imid":"3142","linkid":"parts\/copper-virgin","weight":"0","rawemissions":"2.15","emissions":"2.15","shipping":"18372.17","processemissions":null,"endoflifeemissions":null,"disposaltype":null,"disposalenergy":null,"disposalimpact":null,"disposalemissions":null,"description":"there is a lot of copper in Chile, seems like a reasonable place to source it","name":"Copper, Virgin","id":"3142","stops":{"origin":{"related_to":"3142","part_or_object":"p","notes":"","placename":"Chile","id":5101,"name":"origin","lat":"-35.675147","lon":"-71.542969","hops":{"incoming":[],"outgoing":[{"transport_id":"8","id":"2841","transport_name":"freighter, oceanic","transport_description":"","transport_unit":"kg km","transport_co2_eq":"0.004200","from_stop_id":"5101","from_stop_lat":"-35.675147","from_stop_lon":"-71.542969","from_stop_placename":"Chile","to_stop_id":"1433","to_stop_name":"origin","to_stop_lat":"37.566535","to_stop_lon":"126.9779692","to_stop_placename":"Seoul, South Korea","to_stop":{"id":"1433","name":"origin","lat":"37.566535","lon":"126.9779692","placename":"Seoul, South Korea"},"from_stop":{"name":"origin","id":"5101","lat":"-35.675147","lon":"-71.542969","placename":"Chile"}}]}}},"processes":[],"eols":[]},{"oid":"3605","imid":"3143","linkid":"parts\/paperboard-bleached","weight":"0.05","rawemissions":"0.39","emissions":"0.0195","shipping":"8168.49","processemissions":null,"endoflifeemissions":null,"disposaltype":null,"disposalenergy":null,"disposalimpact":null,"disposalemissions":null,"description":"box","name":"Paperboard, Bleached","id":"3143","stops":{"origin":{"related_to":"3143","part_or_object":"p","notes":"","placename":"Vancouver, BC, Canada","id":5102,"name":"origin","lat":"49.263588","lon":"-123.138565","hops":{"incoming":[],"outgoing":[{"transport_id":"17","id":"2842","transport_name":"None Selected","transport_description":null,"transport_unit":"kg km","transport_co2_eq":"0.000000","from_stop_id":"5102","from_stop_lat":"49.263588","from_stop_lon":"-123.138565","from_stop_placename":"Vancouver, BC, Canada","to_stop_id":"1433","to_stop_name":"origin","to_stop_lat":"37.566535","to_stop_lon":"126.9779692","to_stop_placename":"Seoul, South Korea","to_stop":{"id":"1433","name":"origin","lat":"37.566535","lon":"126.9779692","placename":"Seoul, South Korea"},"from_stop":{"name":"origin","id":"5102","lat":"49.263588","lon":"-123.138565","placename":"Vancouver, BC, Canada"}}]}}},"processes":[],"eols":[]},{"oid":"3605","imid":"3144","linkid":"parts\/paper-recycled-white","weight":"0.125","rawemissions":"0.32","emissions":"0.04","shipping":"8168.49","processemissions":null,"endoflifeemissions":null,"disposaltype":null,"disposalenergy":null,"disposalimpact":null,"disposalemissions":null,"description":"paper for documentation","name":"Paper, Recycled, White","id":"3144","stops":{"origin":{"related_to":"3144","part_or_object":"p","notes":"","placename":"Vancouver, BC, Canada","id":5103,"name":"origin","lat":"49.263588","lon":"-123.138565","hops":{"incoming":[],"outgoing":[{"transport_id":"9","id":"2843","transport_name":"container ship","transport_description":"moving boxcar size containers","transport_unit":"kg km","transport_co2_eq":"0.047800","from_stop_id":"5103","from_stop_lat":"49.263588","from_stop_lon":"-123.138565","from_stop_placename":"Vancouver, BC, Canada","to_stop_id":"1433","to_stop_name":"origin","to_stop_lat":"37.566535","to_stop_lon":"126.9779692","to_stop_placename":"Seoul, South Korea","to_stop":{"id":"1433","name":"origin","lat":"37.566535","lon":"126.9779692","placename":"Seoul, South Korea"},"from_stop":{"name":"origin","id":"5103","lat":"49.263588","lon":"-123.138565","placename":"Vancouver, BC, Canada"}}]}}},"processes":[],"eols":[]},{"oid":"3605","imid":"3145","linkid":"parts\/steel-virgin","weight":"0.001","rawemissions":"2.08","emissions":"0.00208","shipping":"0","processemissions":null,"endoflifeemissions":null,"disposaltype":null,"disposalenergy":null,"disposalimpact":null,"disposalemissions":null,"description":"fasteners, steel","name":"Steel, Virgin","id":"3145","stops":{"origin":{"related_to":"3145","part_or_object":"p","notes":"","placename":"Part Location","id":5104,"name":"origin","lat":"0","lon":"0","hops":{"incoming":[],"outgoing":[{"transport_id":"9","id":"2844","transport_name":"container ship","transport_description":"moving boxcar size containers","transport_unit":"kg km","transport_co2_eq":"0.047800","from_stop_id":"5104","from_stop_lat":"0","from_stop_lon":"0","from_stop_placename":"Part Location","to_stop_id":"1433","to_stop_name":"origin","to_stop_lat":"37.566535","to_stop_lon":"126.9779692","to_stop_placename":"Seoul, South Korea","to_stop":{"id":"1433","name":"origin","lat":"37.566535","lon":"126.9779692","placename":"Seoul, South Korea"},"from_stop":{"name":"origin","id":"5104","lat":"0","lon":"0","placename":"Part Location"}}]}}},"processes":[],"eols":[]},{"oid":"3605","imid":"3146","linkid":"","weight":"0.002","rawemissions":"100","emissions":"0.2","shipping":"2080.15","processemissions":null,"endoflifeemissions":null,"disposaltype":null,"disposalenergy":null,"disposalimpact":null,"disposalemissions":null,"description":"total guess on speaker, using a rare-earth magnet.","name":"speaker","id":"3146","stops":{"origin":{"related_to":"3146","part_or_object":"p","notes":"","placename":"Shenzhen, Guangdong, China","id":5105,"name":"origin","lat":"22.543447","lon":"114.057818","hops":{"incoming":[],"outgoing":[{"transport_id":"9","id":"2845","transport_name":"container ship","transport_description":"moving boxcar size containers","transport_unit":"kg km","transport_co2_eq":"0.047800","from_stop_id":"5105","from_stop_lat":"22.543447","from_stop_lon":"114.057818","from_stop_placename":"Shenzhen, Guangdong, China","to_stop_id":"1433","to_stop_name":"origin","to_stop_lat":"37.566535","to_stop_lon":"126.9779692","to_stop_placename":"Seoul, South Korea","to_stop":{"id":"1433","name":"origin","lat":"37.566535","lon":"126.9779692","placename":"Seoul, South Korea"},"from_stop":{"name":"origin","id":"5105","lat":"22.543447","lon":"114.057818","placename":"Shenzhen, Guangdong, China"}}]}}},"processes":[],"eols":[]},{"oid":"3605","imid":"3205","linkid":"parts\/ldpe-virgin","weight":"0.01","rawemissions":"2.47","emissions":"0.0247","shipping":"2080.15","processemissions":null,"endoflifeemissions":null,"disposaltype":null,"disposalenergy":null,"disposalimpact":null,"disposalemissions":null,"description":"LDPE packaging material","name":"LDPE, virgin","id":"3205","stops":{"origin":{"related_to":"3205","part_or_object":"p","notes":"","placename":"Shenzhen, Guangdong, China","id":5164,"name":"origin","lat":"22.543447","lon":"114.057818","hops":{"incoming":[],"outgoing":[{"transport_id":"17","id":"2904","transport_name":"None Selected","transport_description":null,"transport_unit":"kg km","transport_co2_eq":"0.000000","from_stop_id":"5164","from_stop_lat":"22.543447","from_stop_lon":"114.057818","from_stop_placename":"Shenzhen, Guangdong, China","to_stop_id":"1433","to_stop_name":"origin","to_stop_lat":"37.566535","to_stop_lon":"126.9779692","to_stop_placename":"Seoul, South Korea","to_stop":{"id":"1433","name":"origin","lat":"37.566535","lon":"126.9779692","placename":"Seoul, South Korea"},"from_stop":{"name":"origin","id":"5164","lat":"22.543447","lon":"114.057818","placename":"Shenzhen, Guangdong, China"}}]}}},"processes":[],"eols":[]}],"user":{"name":"davebmiller","id":"9538"}}}