{"3606":{"oid":"3606","type":"object","flag":"","creator":"7111","name":"Box of 6 Annieglass Ruffle Plate 13inch","upc":"","imagelink":"","description":"","slug":"box-of-6-annieglass-ruffle-plate-13inch","category":"","weight":"7.26","emissions":"41158.3256","embodied":"41158.3256","transport":"0","process":"0","endoflife":"0","shipping":"5696","lifetime":null,"usagetype":"","usageenergy":null,"usageemissions":null,"timecreated":"2010-04-22 19:14:33.958189","timemodified":"2010-04-27 19:00:46","visibility":"private","showfootprint":"on","showembodied":"on","showtransport":"on","showprocess":"on","showendoflife":"on","showlastleg":"on","showuse":"on","showstats":"on","stops":{"origin":{"related_to":"3606","part_or_object":"o","notes":"","placename":"Watsonville, CA, USA","id":"1358","category":"1","lat":"36.910231","lon":"-121.7568946","name":"origin","hops":{"incoming":[{"transport_id":"17","id":"2789","transport_name":"None Selected","transport_description":null,"transport_unit":"kg km","transport_co2_eq":"0.000000","from_stop_id":"5049","from_stop_lat":"36.910231","from_stop_lon":"-121.7568946","to_stop_id":"1358","to_stop_name":"origin","to_stop_lat":"36.910231","placename":"Watsonville, CA, USA","to_stop_lon":"-121.7568946","to_stop":{"id":"1358","name":"origin","lat":"36.910231","placename":"Watsonville, CA, USA","lon":"-121.7568946"},"from_stop":{"name":"origin","id":"5049","lat":"36.910231","lon":"-121.7568946","placename":"Watsonville, CA, USA"}},{"transport_id":"17","id":"2790","transport_name":"None Selected","transport_description":null,"transport_unit":"kg km","transport_co2_eq":"0.000000","from_stop_id":"5050","from_stop_lat":"36.9741171","from_stop_lon":"-122.0307963","to_stop_id":"1358","to_stop_name":"origin","to_stop_lat":"36.910231","placename":"Santa Cruz, CA, USA","to_stop_lon":"-121.7568946","to_stop":{"id":"1358","name":"origin","lat":"36.910231","placename":"Watsonville, CA, USA","lon":"-121.7568946"},"from_stop":{"name":"origin","id":"5050","lat":"36.9741171","lon":"-122.0307963","placename":"Santa Cruz, CA, USA"}},{"transport_id":"17","id":"2791","transport_name":"None Selected","transport_description":null,"transport_unit":"kg km","transport_co2_eq":"0.000000","from_stop_id":"5051","from_stop_lat":"36.9741171","from_stop_lon":"-122.0307963","to_stop_id":"1358","to_stop_name":"origin","to_stop_lat":"36.910231","placename":"Santa Cruz, CA, USA","to_stop_lon":"-121.7568946","to_stop":{"id":"1358","name":"origin","lat":"36.910231","placename":"Watsonville, CA, USA","lon":"-121.7568946"},"from_stop":{"name":"origin","id":"5051","lat":"36.9741171","lon":"-122.0307963","placename":"Santa Cruz, CA, USA"}},{"transport_id":"17","id":"2792","transport_name":"None Selected","transport_description":null,"transport_unit":"kg km","transport_co2_eq":"0.000000","from_stop_id":"5052","from_stop_lat":"40.6331249","from_stop_lon":"-89.3985283","to_stop_id":"1358","to_stop_name":"origin","to_stop_lat":"36.910231","placename":"Illinois, USA","to_stop_lon":"-121.7568946","to_stop":{"id":"1358","name":"origin","lat":"36.910231","placename":"Watsonville, CA, USA","lon":"-121.7568946"},"from_stop":{"name":"origin","id":"5052","lat":"40.6331249","lon":"-89.3985283","placename":"Illinois, USA"}},{"transport_id":"17","id":"2793","transport_name":"None Selected","transport_description":null,"transport_unit":"kg km","transport_co2_eq":"0.000000","from_stop_id":"5053","from_stop_lat":"40.6331249","from_stop_lon":"-89.3985283","to_stop_id":"1358","to_stop_name":"origin","to_stop_lat":"36.910231","placename":"Illinois, USA","to_stop_lon":"-121.7568946","to_stop":{"id":"1358","name":"origin","lat":"36.910231","placename":"Watsonville, CA, USA","lon":"-121.7568946"},"from_stop":{"name":"origin","id":"5053","lat":"40.6331249","lon":"-89.3985283","placename":"Illinois, USA"}}],"outgoing":[]}}},"parts":[{"oid":"3606","imid":"3117","linkid":"object\/annieglass-ruffle-plate-13-g144","weight":"6.05","rawemissions":"6802.91","emissions":"41157.6055","shipping":"0","processemissions":null,"endoflifeemissions":null,"disposaltype":null,"disposalenergy":null,"disposalimpact":null,"disposalemissions":null,"description":"Six ruffle plates from Annieglass factory in Watsonville,CA","name":"Annieglass Ruffle Plate 13in,  Part number: G144","id":"3117","stops":{"origin":{"related_to":"3117","part_or_object":"p","notes":"","placename":"Watsonville, CA, USA","id":5049,"name":"origin","lat":"36.910231","lon":"-121.7568946","hops":{"incoming":[],"outgoing":[{"transport_id":"17","id":"2789","transport_name":"None Selected","transport_description":null,"transport_unit":"kg km","transport_co2_eq":"0.000000","from_stop_id":"5049","from_stop_lat":"36.910231","from_stop_lon":"-121.7568946","from_stop_placename":"Watsonville, CA, USA","to_stop_id":"1358","to_stop_name":"origin","to_stop_lat":"36.910231","to_stop_lon":"-121.7568946","to_stop_placename":"Watsonville, CA, USA","to_stop":{"id":"1358","name":"origin","lat":"36.910231","lon":"-121.7568946","placename":"Watsonville, CA, USA"},"from_stop":{"name":"origin","id":"5049","lat":"36.910231","lon":"-121.7568946","placename":"Watsonville, CA, USA"}}]}}},"processes":[],"eols":[]},{"oid":"3606","imid":"3118","linkid":"parts\/cardboard-virgin","weight":"0.6","rawemissions":"0.47","emissions":"0.282","shipping":"25.39","processemissions":null,"endoflifeemissions":null,"disposaltype":null,"disposalenergy":null,"disposalimpact":null,"disposalemissions":null,"description":"One 16x16x6 box","name":"Cardboard, Virgin","id":"3118","stops":{"origin":{"related_to":"3118","part_or_object":"p","notes":"","placename":"Santa Cruz, CA, USA","id":5050,"name":"origin","lat":"36.9741171","lon":"-122.0307963","hops":{"incoming":[],"outgoing":[{"transport_id":"17","id":"2790","transport_name":"None Selected","transport_description":null,"transport_unit":"kg km","transport_co2_eq":"0.000000","from_stop_id":"5050","from_stop_lat":"36.9741171","from_stop_lon":"-122.0307963","from_stop_placename":"Santa Cruz, CA, USA","to_stop_id":"1358","to_stop_name":"origin","to_stop_lat":"36.910231","to_stop_lon":"-121.7568946","to_stop_placename":"Watsonville, CA, USA","to_stop":{"id":"1358","name":"origin","lat":"36.910231","lon":"-121.7568946","placename":"Watsonville, CA, USA"},"from_stop":{"name":"origin","id":"5050","lat":"36.9741171","lon":"-122.0307963","placename":"Santa Cruz, CA, USA"}}]}}},"processes":[],"eols":[]},{"oid":"3606","imid":"3119","linkid":"parts\/gps-recycled","weight":"0.01","rawemissions":"0.61","emissions":"0.0061","shipping":"25.39","processemissions":null,"endoflifeemissions":null,"disposaltype":null,"disposalenergy":null,"disposalimpact":null,"disposalemissions":null,"description":"","name":"GPS, recycled","id":"3119","stops":{"origin":{"related_to":"3119","part_or_object":"p","notes":"","placename":"Santa Cruz, CA, USA","id":5051,"name":"origin","lat":"36.9741171","lon":"-122.0307963","hops":{"incoming":[],"outgoing":[{"transport_id":"17","id":"2791","transport_name":"None Selected","transport_description":null,"transport_unit":"kg km","transport_co2_eq":"0.000000","from_stop_id":"5051","from_stop_lat":"36.9741171","from_stop_lon":"-122.0307963","from_stop_placename":"Santa Cruz, CA, USA","to_stop_id":"1358","to_stop_name":"origin","to_stop_lat":"36.910231","to_stop_lon":"-121.7568946","to_stop_placename":"Watsonville, CA, USA","to_stop":{"id":"1358","name":"origin","lat":"36.910231","lon":"-121.7568946","placename":"Watsonville, CA, USA"},"from_stop":{"name":"origin","id":"5051","lat":"36.9741171","lon":"-122.0307963","placename":"Santa Cruz, CA, USA"}}]}}},"processes":[],"eols":[]},{"oid":"3606","imid":"3120","linkid":"parts\/printing-flexographic","weight":"0.1","rawemissions":"0.22","emissions":"0.022","shipping":"2822.61","processemissions":null,"endoflifeemissions":null,"disposaltype":null,"disposalenergy":null,"disposalimpact":null,"disposalemissions":null,"description":"To account for labels used in packaging","name":"Printing, Flexographic","id":"3120","stops":{"origin":{"related_to":"3120","part_or_object":"p","notes":"","placename":"Illinois, USA","id":5052,"name":"origin","lat":"40.6331249","lon":"-89.3985283","hops":{"incoming":[],"outgoing":[{"transport_id":"17","id":"2792","transport_name":"None Selected","transport_description":null,"transport_unit":"kg km","transport_co2_eq":"0.000000","from_stop_id":"5052","from_stop_lat":"40.6331249","from_stop_lon":"-89.3985283","from_stop_placename":"Illinois, USA","to_stop_id":"1358","to_stop_name":"origin","to_stop_lat":"36.910231","to_stop_lon":"-121.7568946","to_stop_placename":"Watsonville, CA, USA","to_stop":{"id":"1358","name":"origin","lat":"36.910231","lon":"-121.7568946","placename":"Watsonville, CA, USA"},"from_stop":{"name":"origin","id":"5052","lat":"40.6331249","lon":"-89.3985283","placename":"Illinois, USA"}}]}}},"processes":[],"eols":[]},{"oid":"3606","imid":"3121","linkid":"parts\/eps-recycled","weight":"0.5","rawemissions":"0.82","emissions":"0.41","shipping":"2822.61","processemissions":null,"endoflifeemissions":null,"disposaltype":null,"disposalenergy":null,"disposalimpact":null,"disposalemissions":null,"description":"To account for 4 foam corners used","name":"EPS, Recycled","id":"3121","stops":{"origin":{"related_to":"3121","part_or_object":"p","notes":"","placename":"Illinois, USA","id":5053,"name":"origin","lat":"40.6331249","lon":"-89.3985283","hops":{"incoming":[],"outgoing":[{"transport_id":"17","id":"2793","transport_name":"None Selected","transport_description":null,"transport_unit":"kg km","transport_co2_eq":"0.000000","from_stop_id":"5053","from_stop_lat":"40.6331249","from_stop_lon":"-89.3985283","from_stop_placename":"Illinois, USA","to_stop_id":"1358","to_stop_name":"origin","to_stop_lat":"36.910231","to_stop_lon":"-121.7568946","to_stop_placename":"Watsonville, CA, USA","to_stop":{"id":"1358","name":"origin","lat":"36.910231","lon":"-121.7568946","placename":"Watsonville, CA, USA"},"from_stop":{"name":"origin","id":"5053","lat":"40.6331249","lon":"-89.3985283","placename":"Illinois, USA"}}]}}},"processes":[],"eols":[]}],"user":{"name":"ckwan","id":"7111"}}}