{"3628":{"oid":"3628","type":"food","flag":"","creator":"9563","name":"Cr\u00c3\u00aapes \u00c3\u00a0 la cassonade","upc":"","imagelink":"","description":"","slug":"crpes-la-cassonade","category":"","weight":"2.22","emissions":"14.03577093","embodied":"13.9675","transport":"0.06827093","process":"0","endoflife":"0","shipping":"28875.46","lifetime":null,"usagetype":"","usageenergy":null,"usageemissions":null,"timecreated":"2010-04-28 11:52:25.566136","timemodified":"2010-04-28 16:22:14","visibility":"public","showfootprint":"on","showembodied":"on","showtransport":"on","showprocess":"on","showendoflife":"on","showlastleg":"on","showuse":"on","showstats":"on","stops":{"origin":{"related_to":"3628","part_or_object":"o","notes":"","placename":"Vancouver, BC, Canada","id":"1398","category":"1","lat":"49.263588","lon":"-123.138565","name":"origin","hops":{"incoming":[{"transport_id":"17","id":"2888","transport_name":"None Selected","transport_description":null,"transport_unit":"kg km","transport_co2_eq":"0.000000","from_stop_id":"5148","from_stop_lat":"41.8954656","from_stop_lon":"12.4823243","to_stop_id":"1398","to_stop_name":"origin","to_stop_lat":"49.263588","placename":"Rome, Italie","to_stop_lon":"-123.138565","to_stop":{"id":"1398","name":"origin","lat":"49.263588","placename":"Vancouver, BC, Canada","lon":"-123.138565"},"from_stop":{"name":"origin","id":"5148","lat":"41.8954656","lon":"12.4823243","placename":"Rome, Italie"}},{"transport_id":"17","id":"2889","transport_name":"None Selected","transport_description":null,"transport_unit":"kg km","transport_co2_eq":"0.000000","from_stop_id":"5149","from_stop_lat":"0","from_stop_lon":"0","to_stop_id":"1398","to_stop_name":"origin","to_stop_lat":"49.263588","placename":"Ingredient Source","to_stop_lon":"-123.138565","to_stop":{"id":"1398","name":"origin","lat":"49.263588","placename":"Vancouver, BC, Canada","lon":"-123.138565"},"from_stop":{"name":"origin","id":"5149","lat":"0","lon":"0","placename":"Ingredient Source"}},{"transport_id":"17","id":"2890","transport_name":"None Selected","transport_description":null,"transport_unit":"kg km","transport_co2_eq":"0.000000","from_stop_id":"5150","from_stop_lat":"31.9685988","from_stop_lon":"-99.9018131","to_stop_id":"1398","to_stop_name":"origin","to_stop_lat":"49.263588","placename":"Texas, USA","to_stop_lon":"-123.138565","to_stop":{"id":"1398","name":"origin","lat":"49.263588","placename":"Vancouver, BC, Canada","lon":"-123.138565"},"from_stop":{"name":"origin","id":"5150","lat":"31.9685988","lon":"-99.9018131","placename":"Texas, USA"}},{"transport_id":"17","id":"2891","transport_name":"None Selected","transport_description":null,"transport_unit":"kg km","transport_co2_eq":"0.000000","from_stop_id":"5151","from_stop_lat":"21.521757","from_stop_lon":"-77.781167","to_stop_id":"1398","to_stop_name":"origin","to_stop_lat":"49.263588","placename":"Cuba","to_stop_lon":"-123.138565","to_stop":{"id":"1398","name":"origin","lat":"49.263588","placename":"Vancouver, BC, Canada","lon":"-123.138565"},"from_stop":{"name":"origin","id":"5151","lat":"21.521757","lon":"-77.781167","placename":"Cuba"}},{"transport_id":"17","id":"2892","transport_name":"None Selected","transport_description":null,"transport_unit":"kg km","transport_co2_eq":"0.000000","from_stop_id":"5152","from_stop_lat":"53.4807125","from_stop_lon":"-2.2343765","to_stop_id":"1398","to_stop_name":"origin","to_stop_lat":"49.263588","placename":"Manchester, Grand Manchester, Royaume Uni","to_stop_lon":"-123.138565","to_stop":{"id":"1398","name":"origin","lat":"49.263588","placename":"Vancouver, BC, Canada","lon":"-123.138565"},"from_stop":{"name":"origin","id":"5152","lat":"53.4807125","lon":"-2.2343765","placename":"Manchester, Grand Manchester, Royaume Uni"}},{"transport_id":"17","id":"2893","transport_name":"None Selected","transport_description":null,"transport_unit":"kg km","transport_co2_eq":"0.000000","from_stop_id":"5153","from_stop_lat":"36.778261","from_stop_lon":"-119.4179324","to_stop_id":"1398","to_stop_name":"origin","to_stop_lat":"49.263588","placename":"Californie, USA","to_stop_lon":"-123.138565","to_stop":{"id":"1398","name":"origin","lat":"49.263588","placename":"Vancouver, BC, Canada","lon":"-123.138565"},"from_stop":{"name":"origin","id":"5153","lat":"36.778261","lon":"-119.4179324","placename":"Californie, USA"}}],"outgoing":[]}}},"parts":[{"oid":"3628","imid":"3191","linkid":"parts\/eggs","weight":"0.1","rawemissions":"1.95","emissions":"0.195","shipping":"9001.59","processemissions":null,"endoflifeemissions":null,"disposaltype":null,"disposalenergy":null,"disposalimpact":null,"disposalemissions":null,"description":"","name":"Huile olive","id":"3191","stops":{"origin":{"related_to":"3191","part_or_object":"p","notes":"","placename":"Rome, Italie","id":5148,"name":"origin","lat":"41.8954656","lon":"12.4823243","hops":{"incoming":[],"outgoing":[{"transport_id":"17","id":"2888","transport_name":"None Selected","transport_description":null,"transport_unit":"kg km","transport_co2_eq":"0.000000","from_stop_id":"5148","from_stop_lat":"41.8954656","from_stop_lon":"12.4823243","from_stop_placename":"Rome, Italie","to_stop_id":"1398","to_stop_name":"origin","to_stop_lat":"49.263588","to_stop_lon":"-123.138565","to_stop_placename":"Vancouver, BC, Canada","to_stop":{"id":"1398","name":"origin","lat":"49.263588","lon":"-123.138565","placename":"Vancouver, BC, Canada"},"from_stop":{"name":"origin","id":"5148","lat":"41.8954656","lon":"12.4823243","placename":"Rome, Italie"}}]}}},"processes":[],"eols":[]},{"oid":"3628","imid":"3192","linkid":"parts\/eggs","weight":"0","rawemissions":"1.95","emissions":"1.95","shipping":"0","processemissions":null,"endoflifeemissions":null,"disposaltype":null,"disposalenergy":null,"disposalimpact":null,"disposalemissions":null,"description":"","name":"Eggs","id":"3192","stops":{"origin":{"related_to":"3192","part_or_object":"p","notes":"","placename":"Ingredient Source","id":5149,"name":"origin","lat":"0","lon":"0","hops":{"incoming":[],"outgoing":[{"transport_id":"17","id":"2889","transport_name":"None Selected","transport_description":null,"transport_unit":"kg km","transport_co2_eq":"0.000000","from_stop_id":"5149","from_stop_lat":"0","from_stop_lon":"0","from_stop_placename":"Ingredient Source","to_stop_id":"1398","to_stop_name":"origin","to_stop_lat":"49.263588","to_stop_lon":"-123.138565","to_stop_placename":"Vancouver, BC, Canada","to_stop":{"id":"1398","name":"origin","lat":"49.263588","lon":"-123.138565","placename":"Vancouver, BC, Canada"},"from_stop":{"name":"origin","id":"5149","lat":"0","lon":"0","placename":"Ingredient Source"}}]}}},"processes":[],"eols":[]},{"oid":"3628","imid":"3193","linkid":"parts\/wheat-flour-at-retail","weight":"0.1","rawemissions":"1.13","emissions":"0.113","shipping":"2728.59","processemissions":null,"endoflifeemissions":null,"disposaltype":null,"disposalenergy":null,"disposalimpact":null,"disposalemissions":null,"description":"","name":"Wheat Flour at retail","id":"3193","stops":{"origin":{"related_to":"3193","part_or_object":"p","notes":"","placename":"Texas, USA","id":5150,"name":"origin","lat":"31.9685988","lon":"-99.9018131","hops":{"incoming":[],"outgoing":[{"transport_id":"17","id":"2890","transport_name":"None Selected","transport_description":null,"transport_unit":"kg km","transport_co2_eq":"0.000000","from_stop_id":"5150","from_stop_lat":"31.9685988","from_stop_lon":"-99.9018131","from_stop_placename":"Texas, USA","to_stop_id":"1398","to_stop_name":"origin","to_stop_lat":"49.263588","to_stop_lon":"-123.138565","to_stop_placename":"Vancouver, BC, Canada","to_stop":{"id":"1398","name":"origin","lat":"49.263588","lon":"-123.138565","placename":"Vancouver, BC, Canada"},"from_stop":{"name":"origin","id":"5150","lat":"31.9685988","lon":"-99.9018131","placename":"Texas, USA"}}]}}},"processes":[],"eols":[]},{"oid":"3628","imid":"3194","linkid":"parts\/sugar-conventional-at-factory","weight":"0.01","rawemissions":"0.84","emissions":"0.0084","shipping":"5032.33","processemissions":null,"endoflifeemissions":null,"disposaltype":null,"disposalenergy":null,"disposalimpact":null,"disposalemissions":null,"description":"","name":"Sugar, Conventional at Factory","id":"3194","stops":{"origin":{"related_to":"3194","part_or_object":"p","notes":"","placename":"Cuba","id":5151,"name":"origin","lat":"21.521757","lon":"-77.781167","hops":{"incoming":[],"outgoing":[{"transport_id":"17","id":"2891","transport_name":"None Selected","transport_description":null,"transport_unit":"kg km","transport_co2_eq":"0.000000","from_stop_id":"5151","from_stop_lat":"21.521757","from_stop_lon":"-77.781167","from_stop_placename":"Cuba","to_stop_id":"1398","to_stop_name":"origin","to_stop_lat":"49.263588","to_stop_lon":"-123.138565","to_stop_placename":"Vancouver, BC, Canada","to_stop":{"id":"1398","name":"origin","lat":"49.263588","lon":"-123.138565","placename":"Vancouver, BC, Canada"},"from_stop":{"name":"origin","id":"5151","lat":"21.521757","lon":"-77.781167","placename":"Cuba"}}]}}},"processes":[],"eols":[]},{"oid":"3628","imid":"3195","linkid":"","weight":"0.01","rawemissions":"0.11","emissions":"0.0011","shipping":"7327.85","processemissions":null,"endoflifeemissions":null,"disposaltype":null,"disposalenergy":null,"disposalimpact":null,"disposalemissions":null,"description":"","name":"Salt","id":"3195","stops":{"origin":{"related_to":"3195","part_or_object":"p","notes":"","placename":"Manchester, Grand Manchester, Royaume Uni","id":5152,"name":"origin","lat":"53.4807125","lon":"-2.2343765","hops":{"incoming":[],"outgoing":[{"transport_id":"17","id":"2892","transport_name":"None Selected","transport_description":null,"transport_unit":"kg km","transport_co2_eq":"0.000000","from_stop_id":"5152","from_stop_lat":"53.4807125","from_stop_lon":"-2.2343765","from_stop_placename":"Manchester, Grand Manchester, Royaume Uni","to_stop_id":"1398","to_stop_name":"origin","to_stop_lat":"49.263588","to_stop_lon":"-123.138565","to_stop_placename":"Vancouver, BC, Canada","to_stop":{"id":"1398","name":"origin","lat":"49.263588","lon":"-123.138565","placename":"Vancouver, BC, Canada"},"from_stop":{"name":"origin","id":"5152","lat":"53.4807125","lon":"-2.2343765","placename":"Manchester, Grand Manchester, Royaume Uni"}}]}}},"processes":[],"eols":[]},{"oid":"3628","imid":"3196","linkid":"parts\/highland-brewing-company","weight":"1","rawemissions":"0","emissions":"0","shipping":"1422","processemissions":null,"endoflifeemissions":null,"disposaltype":null,"disposalenergy":null,"disposalimpact":null,"disposalemissions":null,"description":"","name":"Highland Brewing Company","id":"3196","stops":{"origin":{"related_to":"3196","part_or_object":"p","notes":"","placename":"Californie, USA","id":5153,"name":"origin","lat":"36.778261","lon":"-119.4179324","hops":{"incoming":[],"outgoing":[{"transport_id":"17","id":"2893","transport_name":"None Selected","transport_description":null,"transport_unit":"kg km","transport_co2_eq":"0.000000","from_stop_id":"5153","from_stop_lat":"36.778261","from_stop_lon":"-119.4179324","from_stop_placename":"Californie, USA","to_stop_id":"1398","to_stop_name":"origin","to_stop_lat":"49.263588","to_stop_lon":"-123.138565","to_stop_placename":"Vancouver, BC, Canada","to_stop":{"id":"1398","name":"origin","lat":"49.263588","lon":"-123.138565","placename":"Vancouver, BC, Canada"},"from_stop":{"name":"origin","id":"5153","lat":"36.778261","lon":"-119.4179324","placename":"Californie, USA"}}]}}},"processes":[],"eols":[]}],"user":{"name":"eap15beco","id":"9563"}}}