{"3690":{"oid":"3690","type":"food","flag":"","creator":"1","name":"dinner","upc":"","imagelink":"","description":"","slug":"dinner-14","category":"","weight":"0.575","emissions":"5.61356674852","embodied":"5.3865","transport":"0.227066748525","process":"0","endoflife":"0","shipping":"5315.47","lifetime":null,"usagetype":"","usageenergy":null,"usageemissions":null,"timecreated":"2010-05-03 09:40:35.346315","timemodified":"2010-05-03 21:56:20","visibility":"public","showfootprint":"on","showembodied":"on","showtransport":"on","showprocess":"on","showendoflife":"on","showlastleg":"on","showuse":"on","showstats":"on","stops":{"origin":{"related_to":"3690","part_or_object":"o","notes":"","placename":"Cambridge, MA 02139, USA","id":"1439","category":"1","lat":"42.3647559","lon":"-71.1032591","name":"origin","hops":{"incoming":[{"transport_id":"3","id":"2930","transport_name":"truck, 40 tons","transport_description":"truck, half full","transport_unit":"kg km","transport_co2_eq":"0.030900","from_stop_id":"5190","from_stop_lat":"44.0682019","from_stop_lon":"-114.7420408","to_stop_id":"1439","to_stop_name":"origin","to_stop_lat":"42.3647559","placename":"Idaho, USA","to_stop_lon":"-71.1032591","to_stop":{"id":"1439","name":"origin","lat":"42.3647559","placename":"Cambridge, MA 02139, USA","lon":"-71.1032591"},"from_stop":{"name":"origin","id":"5190","lat":"44.0682019","lon":"-114.7420408","placename":"Idaho, USA"}},{"transport_id":"15","id":"2931","transport_name":"air, freight, regional","transport_description":"freight within one continent","transport_unit":"kg km","transport_co2_eq":"0.787500","from_stop_id":"5191","from_stop_lat":"41.8780025","from_stop_lon":"-93.097702","to_stop_id":"1439","to_stop_name":"origin","to_stop_lat":"42.3647559","placename":"Iowa, USA","to_stop_lon":"-71.1032591","to_stop":{"id":"1439","name":"origin","lat":"42.3647559","placename":"Cambridge, MA 02139, USA","lon":"-71.1032591"},"from_stop":{"name":"origin","id":"5191","lat":"41.8780025","lon":"-93.097702","placename":"Iowa, USA"}},{"transport_id":"17","id":"2941","transport_name":"None Selected","transport_description":null,"transport_unit":"kg km","transport_co2_eq":"0.000000","from_stop_id":"5201","from_stop_lat":"0","from_stop_lon":"0","to_stop_id":"1439","to_stop_name":"origin","to_stop_lat":"42.3647559","placename":"Ingredient Source","to_stop_lon":"-71.1032591","to_stop":{"id":"1439","name":"origin","lat":"42.3647559","placename":"Cambridge, MA 02139, USA","lon":"-71.1032591"},"from_stop":{"name":"origin","id":"5201","lat":"0","lon":"0","placename":"Ingredient Source"}},{"transport_id":"17","id":"2942","transport_name":"None Selected","transport_description":null,"transport_unit":"kg km","transport_co2_eq":"0.000000","from_stop_id":"5202","from_stop_lat":"0","from_stop_lon":"0","to_stop_id":"1439","to_stop_name":"origin","to_stop_lat":"42.3647559","placename":"Ingredient Source","to_stop_lon":"-71.1032591","to_stop":{"id":"1439","name":"origin","lat":"42.3647559","placename":"Cambridge, MA 02139, USA","lon":"-71.1032591"},"from_stop":{"name":"origin","id":"5202","lat":"0","lon":"0","placename":"Ingredient Source"}}],"outgoing":[]}}},"parts":[{"oid":"3690","imid":"3231","linkid":"parts\/potatoes-at-retail","weight":"0.45","rawemissions":"0.22","emissions":"0.099","shipping":"3503.68","processemissions":null,"endoflifeemissions":null,"disposaltype":null,"disposalenergy":null,"disposalimpact":null,"disposalemissions":null,"description":"","name":"Potatoes at retail","id":"3231","stops":{"origin":{"related_to":"3231","part_or_object":"p","notes":"","placename":"Idaho, USA","id":5190,"name":"origin","lat":"44.0682019","lon":"-114.7420408","hops":{"incoming":[],"outgoing":[{"transport_id":"3","id":"2930","transport_name":"truck, 40 tons","transport_description":"truck, half full","transport_unit":"kg km","transport_co2_eq":"0.030900","from_stop_id":"5190","from_stop_lat":"44.0682019","from_stop_lon":"-114.7420408","from_stop_placename":"Idaho, USA","to_stop_id":"1439","to_stop_name":"origin","to_stop_lat":"42.3647559","to_stop_lon":"-71.1032591","to_stop_placename":"Cambridge, MA 02139, USA","to_stop":{"id":"1439","name":"origin","lat":"42.3647559","lon":"-71.1032591","placename":"Cambridge, MA 02139, USA"},"from_stop":{"name":"origin","id":"5190","lat":"44.0682019","lon":"-114.7420408","placename":"Idaho, USA"}}]}}},"processes":[],"eols":[]},{"oid":"3690","imid":"3232","linkid":"parts\/beef-top-round-conventional","weight":"0.125","rawemissions":"42.3","emissions":"5.2875","shipping":"1811.79","processemissions":null,"endoflifeemissions":null,"disposaltype":null,"disposalenergy":null,"disposalimpact":null,"disposalemissions":null,"description":"","name":"Beef Top Round, Conventional","id":"3232","stops":{"origin":{"related_to":"3232","part_or_object":"p","notes":"","placename":"Iowa, USA","id":5191,"name":"origin","lat":"41.8780025","lon":"-93.097702","hops":{"incoming":[],"outgoing":[{"transport_id":"15","id":"2931","transport_name":"air, freight, regional","transport_description":"freight within one continent","transport_unit":"kg km","transport_co2_eq":"0.787500","from_stop_id":"5191","from_stop_lat":"41.8780025","from_stop_lon":"-93.097702","from_stop_placename":"Iowa, USA","to_stop_id":"1439","to_stop_name":"origin","to_stop_lat":"42.3647559","to_stop_lon":"-71.1032591","to_stop_placename":"Cambridge, MA 02139, USA","to_stop":{"id":"1439","name":"origin","lat":"42.3647559","lon":"-71.1032591","placename":"Cambridge, MA 02139, USA"},"from_stop":{"name":"origin","id":"5191","lat":"41.8780025","lon":"-93.097702","placename":"Iowa, USA"}}]}}},"processes":[],"eols":[]},{"oid":"3690","imid":"3241","linkid":"object\/mms","weight":"0","rawemissions":"0","emissions":"0","shipping":"0","processemissions":null,"endoflifeemissions":null,"disposaltype":null,"disposalenergy":null,"disposalimpact":null,"disposalemissions":null,"description":"","name":"Ingredient","id":"3241","stops":{"origin":{"related_to":"3241","part_or_object":"p","notes":"","placename":"Ingredient Source","id":5201,"name":"origin","lat":"0","lon":"0","hops":{"incoming":[],"outgoing":[{"transport_id":"17","id":"2941","transport_name":"None Selected","transport_description":null,"transport_unit":"kg km","transport_co2_eq":"0.000000","from_stop_id":"5201","from_stop_lat":"0","from_stop_lon":"0","from_stop_placename":"Ingredient Source","to_stop_id":"1439","to_stop_name":"origin","to_stop_lat":"42.3647559","to_stop_lon":"-71.1032591","to_stop_placename":"Cambridge, MA 02139, USA","to_stop":{"id":"1439","name":"origin","lat":"42.3647559","lon":"-71.1032591","placename":"Cambridge, MA 02139, USA"},"from_stop":{"name":"origin","id":"5201","lat":"0","lon":"0","placename":"Ingredient Source"}}]}}},"processes":[],"eols":[]},{"oid":"3690","imid":"3242","linkid":"parts\/a-dinner","weight":"0","rawemissions":"0","emissions":"0","shipping":"0","processemissions":null,"endoflifeemissions":null,"disposaltype":null,"disposalenergy":null,"disposalimpact":null,"disposalemissions":null,"description":"","name":"A Dinner","id":"3242","stops":{"origin":{"related_to":"3242","part_or_object":"p","notes":"","placename":"Ingredient Source","id":5202,"name":"origin","lat":"0","lon":"0","hops":{"incoming":[],"outgoing":[{"transport_id":"17","id":"2942","transport_name":"None Selected","transport_description":null,"transport_unit":"kg km","transport_co2_eq":"0.000000","from_stop_id":"5202","from_stop_lat":"0","from_stop_lon":"0","from_stop_placename":"Ingredient Source","to_stop_id":"1439","to_stop_name":"origin","to_stop_lat":"42.3647559","to_stop_lon":"-71.1032591","to_stop_placename":"Cambridge, MA 02139, USA","to_stop":{"id":"1439","name":"origin","lat":"42.3647559","lon":"-71.1032591","placename":"Cambridge, MA 02139, USA"},"from_stop":{"name":"origin","id":"5202","lat":"0","lon":"0","placename":"Ingredient Source"}}]}}},"processes":[],"eols":[]}],"user":{"name":"leo","id":"1"}}}