{"371":{"oid":"371","type":"trace","flag":"","creator":"10265","name":"LCD Module","upc":"","imagelink":"","description":"","slug":"LCD-Module","category":"","weight":"0","emissions":"0","embodied":"0","transport":"0","process":null,"endoflife":null,"shipping":"63948.19","lifetime":null,"usagetype":"","usageenergy":null,"usageemissions":null,"timecreated":"2011-01-27 16:31:19","timemodified":"2011-01-27 17:40:29","visibility":"public","showfootprint":"on","showembodied":"on","showtransport":"on","showprocess":"on","showendoflife":"on","showlastleg":"on","showuse":"on","showstats":"on","stops":{"origin":{"related_to":"371","part_or_object":"o","notes":null,"placename":"Poland","id":"10074","category":"1","lat":"51.919438","lon":"19.145136","name":"origin","hops":{"incoming":[{"transport_id":null,"id":"7115","transport_name":null,"transport_description":null,"transport_unit":null,"transport_co2_eq":null,"from_stop_id":"10075","from_stop_lat":"35.907757","from_stop_lon":"127.766922","to_stop_id":"10074","to_stop_name":"origin","to_stop_lat":"51.919438","placename":"South Korea","to_stop_lon":"19.145136","to_stop":{"id":"10074","name":"origin","lat":"51.919438","placename":"Poland","lon":"19.145136"},"from_stop":{"name":"origin","id":"10075","lat":"35.907757","lon":"127.766922","placename":"South Korea"}},{"transport_id":null,"id":"7116","transport_name":null,"transport_description":null,"transport_unit":null,"transport_co2_eq":null,"from_stop_id":"10076","from_stop_lat":"46.818188","from_stop_lon":"8.227512","to_stop_id":"10074","to_stop_name":"origin","to_stop_lat":"51.919438","placename":"Switzerland","to_stop_lon":"19.145136","to_stop":{"id":"10074","name":"origin","lat":"51.919438","placename":"Poland","lon":"19.145136"},"from_stop":{"name":"origin","id":"10076","lat":"46.818188","lon":"8.227512","placename":"Switzerland"}},{"transport_id":null,"id":"7117","transport_name":null,"transport_description":null,"transport_unit":null,"transport_co2_eq":null,"from_stop_id":"10077","from_stop_lat":"-14.235004","from_stop_lon":"-51.92528","to_stop_id":"10074","to_stop_name":"origin","to_stop_lat":"51.919438","placename":"Brazil","to_stop_lon":"19.145136","to_stop":{"id":"10074","name":"origin","lat":"51.919438","placename":"Poland","lon":"19.145136"},"from_stop":{"name":"origin","id":"10077","lat":"-14.235004","lon":"-51.92528","placename":"Brazil"}},{"transport_id":null,"id":"7118","transport_name":null,"transport_description":null,"transport_unit":null,"transport_co2_eq":null,"from_stop_id":"10078","from_stop_lat":"23.69781","from_stop_lon":"120.960515","to_stop_id":"10074","to_stop_name":"origin","to_stop_lat":"51.919438","placename":"Taiwan","to_stop_lon":"19.145136","to_stop":{"id":"10074","name":"origin","lat":"51.919438","placename":"Poland","lon":"19.145136"},"from_stop":{"name":"origin","id":"10078","lat":"23.69781","lon":"120.960515","placename":"Taiwan"}},{"transport_id":null,"id":"7119","transport_name":null,"transport_description":null,"transport_unit":null,"transport_co2_eq":null,"from_stop_id":"10079","from_stop_lat":"-25.274398","from_stop_lon":"133.775136","to_stop_id":"10074","to_stop_name":"origin","to_stop_lat":"51.919438","placename":"Australia","to_stop_lon":"19.145136","to_stop":{"id":"10074","name":"origin","lat":"51.919438","placename":"Poland","lon":"19.145136"},"from_stop":{"name":"origin","id":"10079","lat":"-25.274398","lon":"133.775136","placename":"Australia"}},{"transport_id":null,"id":"7120","transport_name":null,"transport_description":null,"transport_unit":null,"transport_co2_eq":null,"from_stop_id":"10080","from_stop_lat":"-35.675147","from_stop_lon":"-71.542969","to_stop_id":"10074","to_stop_name":"origin","to_stop_lat":"51.919438","placename":"Chile","to_stop_lon":"19.145136","to_stop":{"id":"10074","name":"origin","lat":"51.919438","placename":"Poland","lon":"19.145136"},"from_stop":{"name":"origin","id":"10080","lat":"-35.675147","lon":"-71.542969","placename":"Chile"}},{"transport_id":null,"id":"7121","transport_name":null,"transport_description":null,"transport_unit":null,"transport_co2_eq":null,"from_stop_id":"10081","from_stop_lat":"-30.559482","from_stop_lon":"22.937506","to_stop_id":"10074","to_stop_name":"origin","to_stop_lat":"51.919438","placename":"South Africa","to_stop_lon":"19.145136","to_stop":{"id":"10074","name":"origin","lat":"51.919438","placename":"Poland","lon":"19.145136"},"from_stop":{"name":"origin","id":"10081","lat":"-30.559482","lon":"22.937506","placename":"South Africa"}}],"outgoing":[]}}},"parts":[{"oid":"371","imid":"5767","linkid":"0","weight":"0","rawemissions":"0","emissions":"0","shipping":"8061.16","processemissions":"0","endoflifeemissions":"0","disposaltype":null,"disposalenergy":null,"disposalimpact":null,"disposalemissions":null,"description":"","name":"Glass","id":"5767","stops":{"origin":{"related_to":"5767","part_or_object":"p","notes":null,"placename":"South Korea","id":10075,"name":"origin","lat":"35.907757","lon":"127.766922","hops":{"incoming":[],"outgoing":[{"transport_id":null,"id":"7115","transport_name":null,"transport_description":null,"transport_unit":null,"transport_co2_eq":null,"from_stop_id":"10075","from_stop_lat":"35.907757","from_stop_lon":"127.766922","from_stop_placename":"South Korea","to_stop_id":"10074","to_stop_name":"origin","to_stop_lat":"51.919438","to_stop_lon":"19.145136","to_stop_placename":"Poland","to_stop":{"id":"10074","name":"origin","lat":"51.919438","lon":"19.145136","placename":"Poland"},"from_stop":{"name":"origin","id":"10075","lat":"35.907757","lon":"127.766922","placename":"South Korea"}}]}}},"processes":[],"eols":[]},{"oid":"371","imid":"5768","linkid":"0","weight":"0","rawemissions":"0","emissions":"0","shipping":"972.43","processemissions":"0","endoflifeemissions":"0","disposaltype":null,"disposalenergy":null,"disposalimpact":null,"disposalemissions":null,"description":"","name":"Backlight","id":"5768","stops":{"origin":{"related_to":"5768","part_or_object":"p","notes":null,"placename":"Switzerland","id":10076,"name":"origin","lat":"46.818188","lon":"8.227512","hops":{"incoming":[],"outgoing":[{"transport_id":null,"id":"7116","transport_name":null,"transport_description":null,"transport_unit":null,"transport_co2_eq":null,"from_stop_id":"10076","from_stop_lat":"46.818188","from_stop_lon":"8.227512","from_stop_placename":"Switzerland","to_stop_id":"10074","to_stop_name":"origin","to_stop_lat":"51.919438","to_stop_lon":"19.145136","to_stop_placename":"Poland","to_stop":{"id":"10074","name":"origin","lat":"51.919438","lon":"19.145136","placename":"Poland"},"from_stop":{"name":"origin","id":"10076","lat":"46.818188","lon":"8.227512","placename":"Switzerland"}}]}}},"processes":[],"eols":[]},{"oid":"371","imid":"5769","linkid":"0","weight":"0","rawemissions":"0","emissions":"0","shipping":"10016.32","processemissions":"0","endoflifeemissions":"0","disposaltype":null,"disposalenergy":null,"disposalimpact":null,"disposalemissions":null,"description":"","name":"Silicon Dioxide","id":"5769","stops":{"origin":{"related_to":"5769","part_or_object":"p","notes":null,"placename":"Brazil","id":10077,"name":"origin","lat":"-14.235004","lon":"-51.92528","hops":{"incoming":[],"outgoing":[{"transport_id":null,"id":"7117","transport_name":null,"transport_description":null,"transport_unit":null,"transport_co2_eq":null,"from_stop_id":"10077","from_stop_lat":"-14.235004","from_stop_lon":"-51.92528","from_stop_placename":"Brazil","to_stop_id":"10074","to_stop_name":"origin","to_stop_lat":"51.919438","to_stop_lon":"19.145136","to_stop_placename":"Poland","to_stop":{"id":"10074","name":"origin","lat":"51.919438","lon":"19.145136","placename":"Poland"},"from_stop":{"name":"origin","id":"10077","lat":"-14.235004","lon":"-51.92528","placename":"Brazil"}}]}}},"processes":[],"eols":[]},{"oid":"371","imid":"5770","linkid":"0","weight":"0","rawemissions":"0","emissions":"0","shipping":"8729.76","processemissions":"0","endoflifeemissions":"0","disposaltype":null,"disposalenergy":null,"disposalimpact":null,"disposalemissions":null,"description":"","name":"Printed Circuit Board","id":"5770","stops":{"origin":{"related_to":"5770","part_or_object":"p","notes":null,"placename":"Taiwan","id":10078,"name":"origin","lat":"23.69781","lon":"120.960515","hops":{"incoming":[],"outgoing":[{"transport_id":null,"id":"7118","transport_name":null,"transport_description":null,"transport_unit":null,"transport_co2_eq":null,"from_stop_id":"10078","from_stop_lat":"23.69781","from_stop_lon":"120.960515","from_stop_placename":"Taiwan","to_stop_id":"10074","to_stop_name":"origin","to_stop_lat":"51.919438","to_stop_lon":"19.145136","to_stop_placename":"Poland","to_stop":{"id":"10074","name":"origin","lat":"51.919438","lon":"19.145136","placename":"Poland"},"from_stop":{"name":"origin","id":"10078","lat":"23.69781","lon":"120.960515","placename":"Taiwan"}}]}}},"processes":[],"eols":[]},{"oid":"371","imid":"5771","linkid":"0","weight":"0","rawemissions":"0","emissions":"0","shipping":"13875.58","processemissions":"0","endoflifeemissions":"0","disposaltype":null,"disposalenergy":null,"disposalimpact":null,"disposalemissions":null,"description":"","name":"Liquid Crystal","id":"5771","stops":{"origin":{"related_to":"5771","part_or_object":"p","notes":null,"placename":"Australia","id":10079,"name":"origin","lat":"-25.274398","lon":"133.775136","hops":{"incoming":[],"outgoing":[{"transport_id":null,"id":"7119","transport_name":null,"transport_description":null,"transport_unit":null,"transport_co2_eq":null,"from_stop_id":"10079","from_stop_lat":"-25.274398","from_stop_lon":"133.775136","from_stop_placename":"Australia","to_stop_id":"10074","to_stop_name":"origin","to_stop_lat":"51.919438","to_stop_lon":"19.145136","to_stop_placename":"Poland","to_stop":{"id":"10074","name":"origin","lat":"51.919438","lon":"19.145136","placename":"Poland"},"from_stop":{"name":"origin","id":"10079","lat":"-25.274398","lon":"133.775136","placename":"Australia"}}]}}},"processes":[],"eols":[]},{"oid":"371","imid":"5772","linkid":"0","weight":"0","rawemissions":"0","emissions":"0","shipping":"13103.95","processemissions":"0","endoflifeemissions":"0","disposaltype":null,"disposalenergy":null,"disposalimpact":null,"disposalemissions":null,"description":"","name":"Copper","id":"5772","stops":{"origin":{"related_to":"5772","part_or_object":"p","notes":null,"placename":"Chile","id":10080,"name":"origin","lat":"-35.675147","lon":"-71.542969","hops":{"incoming":[],"outgoing":[{"transport_id":null,"id":"7120","transport_name":null,"transport_description":null,"transport_unit":null,"transport_co2_eq":null,"from_stop_id":"10080","from_stop_lat":"-35.675147","from_stop_lon":"-71.542969","from_stop_placename":"Chile","to_stop_id":"10074","to_stop_name":"origin","to_stop_lat":"51.919438","to_stop_lon":"19.145136","to_stop_placename":"Poland","to_stop":{"id":"10074","name":"origin","lat":"51.919438","lon":"19.145136","placename":"Poland"},"from_stop":{"name":"origin","id":"10080","lat":"-35.675147","lon":"-71.542969","placename":"Chile"}}]}}},"processes":[],"eols":[]},{"oid":"371","imid":"5773","linkid":"0","weight":"0","rawemissions":"0","emissions":"0","shipping":"9188.99","processemissions":"0","endoflifeemissions":"0","disposaltype":null,"disposalenergy":null,"disposalimpact":null,"disposalemissions":null,"description":"","name":"Gold","id":"5773","stops":{"origin":{"related_to":"5773","part_or_object":"p","notes":null,"placename":"South Africa","id":10081,"name":"origin","lat":"-30.559482","lon":"22.937506","hops":{"incoming":[],"outgoing":[{"transport_id":null,"id":"7121","transport_name":null,"transport_description":null,"transport_unit":null,"transport_co2_eq":null,"from_stop_id":"10081","from_stop_lat":"-30.559482","from_stop_lon":"22.937506","from_stop_placename":"South Africa","to_stop_id":"10074","to_stop_name":"origin","to_stop_lat":"51.919438","to_stop_lon":"19.145136","to_stop_placename":"Poland","to_stop":{"id":"10074","name":"origin","lat":"51.919438","lon":"19.145136","placename":"Poland"},"from_stop":{"name":"origin","id":"10081","lat":"-30.559482","lon":"22.937506","placename":"South Africa"}}]}}},"processes":[],"eols":[]}],"user":{"name":"deanaaulisio","id":"10265"}}}