{"3710":{"oid":"3710","type":"food","flag":"","creator":"9450","name":"Nike Air Max 360 - 2007","upc":"","imagelink":"","description":"From Wikipedia","slug":"nike-air-max-360-2007-18","category":"","weight":"0","emissions":"0.48","embodied":"0.48","transport":"0","process":"0","endoflife":"0","shipping":"0","lifetime":null,"usagetype":"","usageenergy":null,"usageemissions":null,"timecreated":"2010-05-05 11:22:41.937225","timemodified":"2010-05-05 15:24:34","visibility":"public","showfootprint":"on","showembodied":"on","showtransport":"on","showprocess":"on","showendoflife":"on","showlastleg":"on","showuse":"on","showstats":"on","stops":{"origin":{"related_to":"3710","part_or_object":"o","notes":"","placename":"Shenzhen, Guangdong, China","id":"1460","category":"1","lat":"22.543447","lon":"114.057818","name":"origin","hops":{"incoming":[{"transport_id":"17","id":"2953","transport_name":"None Selected","transport_description":null,"transport_unit":"kg km","transport_co2_eq":"0.000000","from_stop_id":"5213","from_stop_lat":"0","from_stop_lon":"0","to_stop_id":"1460","to_stop_name":"origin","to_stop_lat":"22.543447","placename":"Ingredient Source","to_stop_lon":"114.057818","to_stop":{"id":"1460","name":"origin","lat":"22.543447","placename":"Shenzhen, Guangdong, China","lon":"114.057818"},"from_stop":{"name":"origin","id":"5213","lat":"0","lon":"0","placename":"Ingredient Source"}},{"transport_id":"17","id":"2954","transport_name":"None Selected","transport_description":null,"transport_unit":"kg km","transport_co2_eq":"0.000000","from_stop_id":"5214","from_stop_lat":"0","from_stop_lon":"0","to_stop_id":"1460","to_stop_name":"origin","to_stop_lat":"22.543447","placename":"Ingredient Source","to_stop_lon":"114.057818","to_stop":{"id":"1460","name":"origin","lat":"22.543447","placename":"Shenzhen, Guangdong, China","lon":"114.057818"},"from_stop":{"name":"origin","id":"5214","lat":"0","lon":"0","placename":"Ingredient Source"}},{"transport_id":"17","id":"2955","transport_name":"None Selected","transport_description":null,"transport_unit":"kg km","transport_co2_eq":"0.000000","from_stop_id":"5215","from_stop_lat":"0","from_stop_lon":"0","to_stop_id":"1460","to_stop_name":"origin","to_stop_lat":"22.543447","placename":"Ingredient Source","to_stop_lon":"114.057818","to_stop":{"id":"1460","name":"origin","lat":"22.543447","placename":"Shenzhen, Guangdong, China","lon":"114.057818"},"from_stop":{"name":"origin","id":"5215","lat":"0","lon":"0","placename":"Ingredient Source"}},{"transport_id":"17","id":"2956","transport_name":"None Selected","transport_description":null,"transport_unit":"kg km","transport_co2_eq":"0.000000","from_stop_id":"5216","from_stop_lat":"0","from_stop_lon":"0","to_stop_id":"1460","to_stop_name":"origin","to_stop_lat":"22.543447","placename":"Ingredient Source","to_stop_lon":"114.057818","to_stop":{"id":"1460","name":"origin","lat":"22.543447","placename":"Shenzhen, Guangdong, China","lon":"114.057818"},"from_stop":{"name":"origin","id":"5216","lat":"0","lon":"0","placename":"Ingredient Source"}},{"transport_id":"17","id":"2957","transport_name":"None Selected","transport_description":null,"transport_unit":"kg km","transport_co2_eq":"0.000000","from_stop_id":"5217","from_stop_lat":"0","from_stop_lon":"0","to_stop_id":"1460","to_stop_name":"origin","to_stop_lat":"22.543447","placename":"Ingredient Source","to_stop_lon":"114.057818","to_stop":{"id":"1460","name":"origin","lat":"22.543447","placename":"Shenzhen, Guangdong, China","lon":"114.057818"},"from_stop":{"name":"origin","id":"5217","lat":"0","lon":"0","placename":"Ingredient Source"}}],"outgoing":[]}}},"parts":[{"oid":"3710","imid":"3251","linkid":"parts\/acoustic-guitar-improved","weight":"0","rawemissions":"0","emissions":"0","shipping":"0","processemissions":null,"endoflifeemissions":null,"disposaltype":null,"disposalenergy":null,"disposalimpact":null,"disposalemissions":null,"description":"","name":"Acoustic Guitar Improved","id":"3251","stops":{"origin":{"related_to":"3251","part_or_object":"p","notes":"","placename":"Ingredient Source","id":5213,"name":"origin","lat":"0","lon":"0","hops":{"incoming":[],"outgoing":[{"transport_id":"17","id":"2953","transport_name":"None Selected","transport_description":null,"transport_unit":"kg km","transport_co2_eq":"0.000000","from_stop_id":"5213","from_stop_lat":"0","from_stop_lon":"0","from_stop_placename":"Ingredient Source","to_stop_id":"1460","to_stop_name":"origin","to_stop_lat":"22.543447","to_stop_lon":"114.057818","to_stop_placename":"Shenzhen, Guangdong, China","to_stop":{"id":"1460","name":"origin","lat":"22.543447","lon":"114.057818","placename":"Shenzhen, Guangdong, China"},"from_stop":{"name":"origin","id":"5213","lat":"0","lon":"0","placename":"Ingredient Source"}}]}}},"processes":[],"eols":[]},{"oid":"3710","imid":"3252","linkid":"object\/750-ralph-lauren-jeans","weight":"0","rawemissions":"0.48","emissions":"0.48","shipping":"0","processemissions":null,"endoflifeemissions":null,"disposaltype":null,"disposalenergy":null,"disposalimpact":null,"disposalemissions":null,"description":"","name":"$750 Ralph Lauren Jeans","id":"3252","stops":{"origin":{"related_to":"3252","part_or_object":"p","notes":"","placename":"Ingredient Source","id":5214,"name":"origin","lat":"0","lon":"0","hops":{"incoming":[],"outgoing":[{"transport_id":"17","id":"2954","transport_name":"None Selected","transport_description":null,"transport_unit":"kg km","transport_co2_eq":"0.000000","from_stop_id":"5214","from_stop_lat":"0","from_stop_lon":"0","from_stop_placename":"Ingredient Source","to_stop_id":"1460","to_stop_name":"origin","to_stop_lat":"22.543447","to_stop_lon":"114.057818","to_stop_placename":"Shenzhen, Guangdong, China","to_stop":{"id":"1460","name":"origin","lat":"22.543447","lon":"114.057818","placename":"Shenzhen, Guangdong, China"},"from_stop":{"name":"origin","id":"5214","lat":"0","lon":"0","placename":"Ingredient Source"}}]}}},"processes":[],"eols":[]},{"oid":"3710","imid":"3253","linkid":"object\/womens-cotton-t-shirt","weight":"0","rawemissions":"0","emissions":"0","shipping":"0","processemissions":null,"endoflifeemissions":null,"disposaltype":null,"disposalenergy":null,"disposalimpact":null,"disposalemissions":null,"description":"","name":"Women's Cotton T-Shirt","id":"3253","stops":{"origin":{"related_to":"3253","part_or_object":"p","notes":"","placename":"Ingredient Source","id":5215,"name":"origin","lat":"0","lon":"0","hops":{"incoming":[],"outgoing":[{"transport_id":"17","id":"2955","transport_name":"None Selected","transport_description":null,"transport_unit":"kg km","transport_co2_eq":"0.000000","from_stop_id":"5215","from_stop_lat":"0","from_stop_lon":"0","from_stop_placename":"Ingredient Source","to_stop_id":"1460","to_stop_name":"origin","to_stop_lat":"22.543447","to_stop_lon":"114.057818","to_stop_placename":"Shenzhen, Guangdong, China","to_stop":{"id":"1460","name":"origin","lat":"22.543447","lon":"114.057818","placename":"Shenzhen, Guangdong, China"},"from_stop":{"name":"origin","id":"5215","lat":"0","lon":"0","placename":"Ingredient Source"}}]}}},"processes":[],"eols":[]},{"oid":"3710","imid":"3254","linkid":"parts\/womans-wool-sweater","weight":"0","rawemissions":"0","emissions":"0","shipping":"0","processemissions":null,"endoflifeemissions":null,"disposaltype":null,"disposalenergy":null,"disposalimpact":null,"disposalemissions":null,"description":"","name":"Womans wool sweater","id":"3254","stops":{"origin":{"related_to":"3254","part_or_object":"p","notes":"","placename":"Ingredient Source","id":5216,"name":"origin","lat":"0","lon":"0","hops":{"incoming":[],"outgoing":[{"transport_id":"17","id":"2956","transport_name":"None Selected","transport_description":null,"transport_unit":"kg km","transport_co2_eq":"0.000000","from_stop_id":"5216","from_stop_lat":"0","from_stop_lon":"0","from_stop_placename":"Ingredient Source","to_stop_id":"1460","to_stop_name":"origin","to_stop_lat":"22.543447","to_stop_lon":"114.057818","to_stop_placename":"Shenzhen, Guangdong, China","to_stop":{"id":"1460","name":"origin","lat":"22.543447","lon":"114.057818","placename":"Shenzhen, Guangdong, China"},"from_stop":{"name":"origin","id":"5216","lat":"0","lon":"0","placename":"Ingredient Source"}}]}}},"processes":[],"eols":[]},{"oid":"3710","imid":"3255","linkid":"object\/wk1d1-1","weight":"0","rawemissions":"0","emissions":"0","shipping":"0","processemissions":null,"endoflifeemissions":null,"disposaltype":null,"disposalenergy":null,"disposalimpact":null,"disposalemissions":null,"description":"","name":"Wk1D1","id":"3255","stops":{"origin":{"related_to":"3255","part_or_object":"p","notes":"","placename":"Ingredient Source","id":5217,"name":"origin","lat":"0","lon":"0","hops":{"incoming":[],"outgoing":[{"transport_id":"17","id":"2957","transport_name":"None Selected","transport_description":null,"transport_unit":"kg km","transport_co2_eq":"0.000000","from_stop_id":"5217","from_stop_lat":"0","from_stop_lon":"0","from_stop_placename":"Ingredient Source","to_stop_id":"1460","to_stop_name":"origin","to_stop_lat":"22.543447","to_stop_lon":"114.057818","to_stop_placename":"Shenzhen, Guangdong, China","to_stop":{"id":"1460","name":"origin","lat":"22.543447","lon":"114.057818","placename":"Shenzhen, Guangdong, China"},"from_stop":{"name":"origin","id":"5217","lat":"0","lon":"0","placename":"Ingredient Source"}}]}}},"processes":[],"eols":[]}],"user":{"name":"emmagshep","id":"9450"}}}