{"372":{"oid":"372","type":"trace","flag":"","creator":"10265","name":"Printed Circuit Board","upc":"","imagelink":"","description":"","slug":"Printed-Circuit-Board","category":"","weight":"0","emissions":"0","embodied":"0","transport":"0","process":null,"endoflife":null,"shipping":"11117.02","lifetime":null,"usagetype":"","usageenergy":null,"usageemissions":null,"timecreated":"2011-01-27 17:45:55","timemodified":"2011-01-27 17:57:51","visibility":"public","showfootprint":"on","showembodied":"on","showtransport":"on","showprocess":"on","showendoflife":"on","showlastleg":"on","showuse":"on","showstats":"on","stops":{"origin":{"related_to":"372","part_or_object":"o","notes":null,"placename":"Beijing, China","id":"10156","category":"1","lat":"39.904214","lon":"116.407413","name":"origin","hops":{"incoming":[{"transport_id":null,"id":"7181","transport_name":null,"transport_description":null,"transport_unit":null,"transport_co2_eq":null,"from_stop_id":"10157","from_stop_lat":"22.543099","from_stop_lon":"114.057868","to_stop_id":"10156","to_stop_name":"origin","to_stop_lat":"39.904214","placename":"Shenzhen, Guangdong, China","to_stop_lon":"116.407413","to_stop":{"id":"10156","name":"origin","lat":"39.904214","placename":"Beijing, China","lon":"116.407413"},"from_stop":{"name":"origin","id":"10157","lat":"22.543099","lon":"114.057868","placename":"Shenzhen, Guangdong, China"}},{"transport_id":null,"id":"7182","transport_name":null,"transport_description":null,"transport_unit":null,"transport_co2_eq":null,"from_stop_id":"10158","from_stop_lat":"25.829209","from_stop_lon":"114.933553","to_stop_id":"10156","to_stop_name":"origin","to_stop_lat":"39.904214","placename":"Ganzhou, Jiangxi, China","to_stop_lon":"116.407413","to_stop":{"id":"10156","name":"origin","lat":"39.904214","placename":"Beijing, China","lon":"116.407413"},"from_stop":{"name":"origin","id":"10158","lat":"25.829209","lon":"114.933553","placename":"Ganzhou, Jiangxi, China"}},{"transport_id":null,"id":"7183","transport_name":null,"transport_description":null,"transport_unit":null,"transport_co2_eq":null,"from_stop_id":"10159","from_stop_lat":"22.396428","from_stop_lon":"114.109497","to_stop_id":"10156","to_stop_name":"origin","to_stop_lat":"39.904214","placename":"Hong Kong","to_stop_lon":"116.407413","to_stop":{"id":"10156","name":"origin","lat":"39.904214","placename":"Beijing, China","lon":"116.407413"},"from_stop":{"name":"origin","id":"10159","lat":"22.396428","lon":"114.109497","placename":"Hong Kong"}},{"transport_id":null,"id":"7184","transport_name":null,"transport_description":null,"transport_unit":null,"transport_co2_eq":null,"from_stop_id":"10160","from_stop_lat":"30.267184","from_stop_lon":"120.153696","to_stop_id":"10156","to_stop_name":"origin","to_stop_lat":"39.904214","placename":"Zhejiang, China","to_stop_lon":"116.407413","to_stop":{"id":"10156","name":"origin","lat":"39.904214","placename":"Beijing, China","lon":"116.407413"},"from_stop":{"name":"origin","id":"10160","lat":"30.267184","lon":"120.153696","placename":"Zhejiang, China"}},{"transport_id":null,"id":"7185","transport_name":null,"transport_description":null,"transport_unit":null,"transport_co2_eq":null,"from_stop_id":"10161","from_stop_lat":"31.861184","from_stop_lon":"117.284923","to_stop_id":"10156","to_stop_name":"origin","to_stop_lat":"39.904214","placename":"Anhui, China","to_stop_lon":"116.407413","to_stop":{"id":"10156","name":"origin","lat":"39.904214","placename":"Beijing, China","lon":"116.407413"},"from_stop":{"name":"origin","id":"10161","lat":"31.861184","lon":"117.284923","placename":"Anhui, China"}},{"transport_id":null,"id":"7186","transport_name":null,"transport_description":null,"transport_unit":null,"transport_co2_eq":null,"from_stop_id":"10162","from_stop_lat":"35.907757","from_stop_lon":"127.766922","to_stop_id":"10156","to_stop_name":"origin","to_stop_lat":"39.904214","placename":"South Korea","to_stop_lon":"116.407413","to_stop":{"id":"10156","name":"origin","lat":"39.904214","placename":"Beijing, China","lon":"116.407413"},"from_stop":{"name":"origin","id":"10162","lat":"35.907757","lon":"127.766922","placename":"South Korea"}},{"transport_id":null,"id":"7187","transport_name":null,"transport_description":null,"transport_unit":null,"transport_co2_eq":null,"from_stop_id":"10163","from_stop_lat":"61.52401","from_stop_lon":"105.318756","to_stop_id":"10156","to_stop_name":"origin","to_stop_lat":"39.904214","placename":"Russian Federation","to_stop_lon":"116.407413","to_stop":{"id":"10156","name":"origin","lat":"39.904214","placename":"Beijing, China","lon":"116.407413"},"from_stop":{"name":"origin","id":"10163","lat":"61.52401","lon":"105.318756","placename":"Russian Federation"}},{"transport_id":null,"id":"7188","transport_name":null,"transport_description":null,"transport_unit":null,"transport_co2_eq":null,"from_stop_id":"10164","from_stop_lat":"0","from_stop_lon":"0","to_stop_id":"10156","to_stop_name":"origin","to_stop_lat":"39.904214","placename":"Shanghai, China","to_stop_lon":"116.407413","to_stop":{"id":"10156","name":"origin","lat":"39.904214","placename":"Beijing, China","lon":"116.407413"},"from_stop":{"name":"origin","id":"10164","lat":"0","lon":"0","placename":"Shanghai, China"}}],"outgoing":[]}}},"parts":[{"oid":"372","imid":"5780","linkid":"0","weight":"0","rawemissions":"0","emissions":"0","shipping":"1945.32","processemissions":"0","endoflifeemissions":"0","disposaltype":null,"disposalenergy":null,"disposalimpact":null,"disposalemissions":null,"description":"","name":"Capacitor","id":"5780","stops":{"origin":{"related_to":"5780","part_or_object":"p","notes":null,"placename":"Shenzhen, Guangdong, China","id":10157,"name":"origin","lat":"22.543099","lon":"114.057868","hops":{"incoming":[],"outgoing":[{"transport_id":null,"id":"7181","transport_name":null,"transport_description":null,"transport_unit":null,"transport_co2_eq":null,"from_stop_id":"10157","from_stop_lat":"22.543099","from_stop_lon":"114.057868","from_stop_placename":"Shenzhen, Guangdong, China","to_stop_id":"10156","to_stop_name":"origin","to_stop_lat":"39.904214","to_stop_lon":"116.407413","to_stop_placename":"Beijing, China","to_stop":{"id":"10156","name":"origin","lat":"39.904214","lon":"116.407413","placename":"Beijing, China"},"from_stop":{"name":"origin","id":"10157","lat":"22.543099","lon":"114.057868","placename":"Shenzhen, Guangdong, China"}}]}}},"processes":[],"eols":[]},{"oid":"372","imid":"5781","linkid":"0","weight":"0","rawemissions":"0","emissions":"0","shipping":"1572.8","processemissions":"0","endoflifeemissions":"0","disposaltype":null,"disposalenergy":null,"disposalimpact":null,"disposalemissions":null,"description":"","name":"Resistor","id":"5781","stops":{"origin":{"related_to":"5781","part_or_object":"p","notes":null,"placename":"Ganzhou, Jiangxi, China","id":10158,"name":"origin","lat":"25.829209","lon":"114.933553","hops":{"incoming":[],"outgoing":[{"transport_id":null,"id":"7182","transport_name":null,"transport_description":null,"transport_unit":null,"transport_co2_eq":null,"from_stop_id":"10158","from_stop_lat":"25.829209","from_stop_lon":"114.933553","from_stop_placename":"Ganzhou, Jiangxi, China","to_stop_id":"10156","to_stop_name":"origin","to_stop_lat":"39.904214","to_stop_lon":"116.407413","to_stop_placename":"Beijing, China","to_stop":{"id":"10156","name":"origin","lat":"39.904214","lon":"116.407413","placename":"Beijing, China"},"from_stop":{"name":"origin","id":"10158","lat":"25.829209","lon":"114.933553","placename":"Ganzhou, Jiangxi, China"}}]}}},"processes":[],"eols":[]},{"oid":"372","imid":"5782","linkid":"0","weight":"0","rawemissions":"0","emissions":"0","shipping":"1961.01","processemissions":"0","endoflifeemissions":"0","disposaltype":null,"disposalenergy":null,"disposalimpact":null,"disposalemissions":null,"description":"","name":"Integrated Circuit","id":"5782","stops":{"origin":{"related_to":"5782","part_or_object":"p","notes":null,"placename":"Hong Kong","id":10159,"name":"origin","lat":"22.396428","lon":"114.109497","hops":{"incoming":[],"outgoing":[{"transport_id":null,"id":"7183","transport_name":null,"transport_description":null,"transport_unit":null,"transport_co2_eq":null,"from_stop_id":"10159","from_stop_lat":"22.396428","from_stop_lon":"114.109497","from_stop_placename":"Hong Kong","to_stop_id":"10156","to_stop_name":"origin","to_stop_lat":"39.904214","to_stop_lon":"116.407413","to_stop_placename":"Beijing, China","to_stop":{"id":"10156","name":"origin","lat":"39.904214","lon":"116.407413","placename":"Beijing, China"},"from_stop":{"name":"origin","id":"10159","lat":"22.396428","lon":"114.109497","placename":"Hong Kong"}}]}}},"processes":[],"eols":[]},{"oid":"372","imid":"5783","linkid":"0","weight":"0","rawemissions":"0","emissions":"0","shipping":"1125.45","processemissions":"0","endoflifeemissions":"0","disposaltype":null,"disposalenergy":null,"disposalimpact":null,"disposalemissions":null,"description":"","name":"Epoxy","id":"5783","stops":{"origin":{"related_to":"5783","part_or_object":"p","notes":null,"placename":"Zhejiang, China","id":10160,"name":"origin","lat":"30.267184","lon":"120.153696","hops":{"incoming":[],"outgoing":[{"transport_id":null,"id":"7184","transport_name":null,"transport_description":null,"transport_unit":null,"transport_co2_eq":null,"from_stop_id":"10160","from_stop_lat":"30.267184","from_stop_lon":"120.153696","from_stop_placename":"Zhejiang, China","to_stop_id":"10156","to_stop_name":"origin","to_stop_lat":"39.904214","to_stop_lon":"116.407413","to_stop_placename":"Beijing, China","to_stop":{"id":"10156","name":"origin","lat":"39.904214","lon":"116.407413","placename":"Beijing, China"},"from_stop":{"name":"origin","id":"10160","lat":"30.267184","lon":"120.153696","placename":"Zhejiang, China"}}]}}},"processes":[],"eols":[]},{"oid":"372","imid":"5784","linkid":"0","weight":"0","rawemissions":"0","emissions":"0","shipping":"898.82","processemissions":"0","endoflifeemissions":"0","disposaltype":null,"disposalenergy":null,"disposalimpact":null,"disposalemissions":null,"description":"","name":"Paladium","id":"5784","stops":{"origin":{"related_to":"5784","part_or_object":"p","notes":null,"placename":"Anhui, China","id":10161,"name":"origin","lat":"31.861184","lon":"117.284923","hops":{"incoming":[],"outgoing":[{"transport_id":null,"id":"7185","transport_name":null,"transport_description":null,"transport_unit":null,"transport_co2_eq":null,"from_stop_id":"10161","from_stop_lat":"31.861184","from_stop_lon":"117.284923","from_stop_placename":"Anhui, China","to_stop_id":"10156","to_stop_name":"origin","to_stop_lat":"39.904214","to_stop_lon":"116.407413","to_stop_placename":"Beijing, China","to_stop":{"id":"10156","name":"origin","lat":"39.904214","lon":"116.407413","placename":"Beijing, China"},"from_stop":{"name":"origin","id":"10161","lat":"31.861184","lon":"117.284923","placename":"Anhui, China"}}]}}},"processes":[],"eols":[]},{"oid":"372","imid":"5785","linkid":"0","weight":"0","rawemissions":"0","emissions":"0","shipping":"1091.35","processemissions":"0","endoflifeemissions":"0","disposaltype":null,"disposalenergy":null,"disposalimpact":null,"disposalemissions":null,"description":"","name":"Glass","id":"5785","stops":{"origin":{"related_to":"5785","part_or_object":"p","notes":null,"placename":"South Korea","id":10162,"name":"origin","lat":"35.907757","lon":"127.766922","hops":{"incoming":[],"outgoing":[{"transport_id":null,"id":"7186","transport_name":null,"transport_description":null,"transport_unit":null,"transport_co2_eq":null,"from_stop_id":"10162","from_stop_lat":"35.907757","from_stop_lon":"127.766922","from_stop_placename":"South Korea","to_stop_id":"10156","to_stop_name":"origin","to_stop_lat":"39.904214","to_stop_lon":"116.407413","to_stop_placename":"Beijing, China","to_stop":{"id":"10156","name":"origin","lat":"39.904214","lon":"116.407413","placename":"Beijing, China"},"from_stop":{"name":"origin","id":"10162","lat":"35.907757","lon":"127.766922","placename":"South Korea"}}]}}},"processes":[],"eols":[]},{"oid":"372","imid":"5786","linkid":"0","weight":"0","rawemissions":"0","emissions":"0","shipping":"2522.27","processemissions":"0","endoflifeemissions":"0","disposaltype":null,"disposalenergy":null,"disposalimpact":null,"disposalemissions":null,"description":"","name":"Light Fuel Oil","id":"5786","stops":{"origin":{"related_to":"5786","part_or_object":"p","notes":null,"placename":"Russian Federation","id":10163,"name":"origin","lat":"61.52401","lon":"105.318756","hops":{"incoming":[],"outgoing":[{"transport_id":null,"id":"7187","transport_name":null,"transport_description":null,"transport_unit":null,"transport_co2_eq":null,"from_stop_id":"10163","from_stop_lat":"61.52401","from_stop_lon":"105.318756","from_stop_placename":"Russian Federation","to_stop_id":"10156","to_stop_name":"origin","to_stop_lat":"39.904214","to_stop_lon":"116.407413","to_stop_placename":"Beijing, China","to_stop":{"id":"10156","name":"origin","lat":"39.904214","lon":"116.407413","placename":"Beijing, China"},"from_stop":{"name":"origin","id":"10163","lat":"61.52401","lon":"105.318756","placename":"Russian Federation"}}]}}},"processes":[],"eols":[]},{"oid":"372","imid":"5787","linkid":"0","weight":"0","rawemissions":"0","emissions":"0","shipping":"12239.42","processemissions":"0","endoflifeemissions":"0","disposaltype":null,"disposalenergy":null,"disposalimpact":null,"disposalemissions":null,"description":"","name":"Gold","id":"5787","stops":{"origin":{"related_to":"5787","part_or_object":"p","notes":null,"placename":"Shanghai, China","id":10164,"name":"origin","lat":"0","lon":"0","hops":{"incoming":[],"outgoing":[{"transport_id":null,"id":"7188","transport_name":null,"transport_description":null,"transport_unit":null,"transport_co2_eq":null,"from_stop_id":"10164","from_stop_lat":"0","from_stop_lon":"0","from_stop_placename":"Shanghai, China","to_stop_id":"10156","to_stop_name":"origin","to_stop_lat":"39.904214","to_stop_lon":"116.407413","to_stop_placename":"Beijing, China","to_stop":{"id":"10156","name":"origin","lat":"39.904214","lon":"116.407413","placename":"Beijing, China"},"from_stop":{"name":"origin","id":"10164","lat":"0","lon":"0","placename":"Shanghai, China"}}]}}},"processes":[],"eols":[]}],"user":{"name":"deanaaulisio","id":"10265"}}}