{"3721":{"oid":"3721","type":"object","flag":"","creator":"9599","name":"Unilever Ragu Sauce","upc":"","imagelink":"","description":"","slug":"unilever-mock-up","category":"","weight":"0.55","emissions":"0.50822905492","embodied":"0.4714","transport":"0.03682905492","process":"0","endoflife":"0","shipping":"19818.38","lifetime":null,"usagetype":"","usageenergy":null,"usageemissions":null,"timecreated":"2010-05-07 14:17:42.846823","timemodified":"2010-05-11 19:31:20","visibility":"public","showfootprint":"on","showembodied":"on","showtransport":"on","showprocess":"on","showendoflife":"on","showlastleg":"on","showuse":"on","showstats":"on","stops":{"origin":{"related_to":"3721","part_or_object":"o","notes":"","placename":"Owensboro, KY, USA","id":"1483","category":"1","lat":"37.7742152","lon":"-87.1133304","name":"origin","hops":{"incoming":[{"transport_id":"3","id":"2964","transport_name":"truck, 40 tons","transport_description":"truck, half full","transport_unit":"kg km","transport_co2_eq":"0.030900","from_stop_id":"5224","from_stop_lat":"41.8780025","from_stop_lon":"-93.097702","to_stop_id":"1483","to_stop_name":"origin","to_stop_lat":"37.7742152","placename":"Iowa, USA","to_stop_lon":"-87.1133304","to_stop":{"id":"1483","name":"origin","lat":"37.7742152","placename":"Owensboro, KY, USA","lon":"-87.1133304"},"from_stop":{"name":"origin","id":"5224","lat":"41.8780025","lon":"-93.097702","placename":"Iowa, USA"}},{"transport_id":"3","id":"2965","transport_name":"truck, 40 tons","transport_description":"truck, half full","transport_unit":"kg km","transport_co2_eq":"0.030900","from_stop_id":"5225","from_stop_lat":"36.778261","from_stop_lon":"-119.4179324","to_stop_id":"1483","to_stop_name":"origin","to_stop_lat":"37.7742152","placename":"California, USA","to_stop_lon":"-87.1133304","to_stop":{"id":"1483","name":"origin","lat":"37.7742152","placename":"Owensboro, KY, USA","lon":"-87.1133304"},"from_stop":{"name":"origin","id":"5225","lat":"36.778261","lon":"-119.4179324","placename":"California, USA"}},{"transport_id":"3","id":"2966","transport_name":"truck, 40 tons","transport_description":"truck, half full","transport_unit":"kg km","transport_co2_eq":"0.030900","from_stop_id":"5226","from_stop_lat":"0","from_stop_lon":"0","to_stop_id":"1483","to_stop_name":"origin","to_stop_lat":"37.7742152","placename":"Part Location","to_stop_lon":"-87.1133304","to_stop":{"id":"1483","name":"origin","lat":"37.7742152","placename":"Owensboro, KY, USA","lon":"-87.1133304"},"from_stop":{"name":"origin","id":"5226","lat":"0","lon":"0","placename":"Part Location"}},{"transport_id":"3","id":"2967","transport_name":"truck, 40 tons","transport_description":"truck, half full","transport_unit":"kg km","transport_co2_eq":"0.030900","from_stop_id":"5227","from_stop_lat":"39.0457549","from_stop_lon":"-76.6412712","to_stop_id":"1483","to_stop_name":"origin","to_stop_lat":"37.7742152","placename":"Maryland, USA","to_stop_lon":"-87.1133304","to_stop":{"id":"1483","name":"origin","lat":"37.7742152","placename":"Owensboro, KY, USA","lon":"-87.1133304"},"from_stop":{"name":"origin","id":"5227","lat":"39.0457549","lon":"-76.6412712","placename":"Maryland, USA"}},{"transport_id":"3","id":"2976","transport_name":"truck, 40 tons","transport_description":"truck, half full","transport_unit":"kg km","transport_co2_eq":"0.030900","from_stop_id":"5236","from_stop_lat":"36.778261","from_stop_lon":"-119.4179324","to_stop_id":"1483","to_stop_name":"origin","to_stop_lat":"37.7742152","placename":"California, USA","to_stop_lon":"-87.1133304","to_stop":{"id":"1483","name":"origin","lat":"37.7742152","placename":"Owensboro, KY, USA","lon":"-87.1133304"},"from_stop":{"name":"origin","id":"5236","lat":"36.778261","lon":"-119.4179324","placename":"California, USA"}},{"transport_id":"3","id":"2977","transport_name":"truck, 40 tons","transport_description":"truck, half full","transport_unit":"kg km","transport_co2_eq":"0.030900","from_stop_id":"5237","from_stop_lat":"32.2176855","from_stop_lon":"-82.4134614","to_stop_id":"1483","to_stop_name":"origin","to_stop_lat":"37.7742152","placename":"Vidalia, GA, USA","to_stop_lon":"-87.1133304","to_stop":{"id":"1483","name":"origin","lat":"37.7742152","placename":"Owensboro, KY, USA","lon":"-87.1133304"},"from_stop":{"name":"origin","id":"5237","lat":"32.2176855","lon":"-82.4134614","placename":"Vidalia, GA, USA"}},{"transport_id":"17","id":"2978","transport_name":"None Selected","transport_description":null,"transport_unit":"kg km","transport_co2_eq":"0.000000","from_stop_id":"5238","from_stop_lat":"35.86166","from_stop_lon":"104.195397","to_stop_id":"1483","to_stop_name":"origin","to_stop_lat":"37.7742152","placename":"China","to_stop_lon":"-87.1133304","to_stop":{"id":"1483","name":"origin","lat":"37.7742152","placename":"Owensboro, KY, USA","lon":"-87.1133304"},"from_stop":{"name":"origin","id":"5238","lat":"35.86166","lon":"104.195397","placename":"China"}}],"outgoing":[]}}},"parts":[{"oid":"3721","imid":"3264","linkid":"parts\/soy-bean-oil-conventional-at-factory","weight":"0.01","rawemissions":"1.1","emissions":"0.011","shipping":"685.57","processemissions":null,"endoflifeemissions":null,"disposaltype":null,"disposalenergy":null,"disposalimpact":null,"disposalemissions":null,"description":"","name":"Soy Bean Oil, Conventional at Factory","id":"3264","stops":{"origin":{"related_to":"3264","part_or_object":"p","notes":"","placename":"Iowa, USA","id":5224,"name":"origin","lat":"41.8780025","lon":"-93.097702","hops":{"incoming":[],"outgoing":[{"transport_id":"3","id":"2964","transport_name":"truck, 40 tons","transport_description":"truck, half full","transport_unit":"kg km","transport_co2_eq":"0.030900","from_stop_id":"5224","from_stop_lat":"41.8780025","from_stop_lon":"-93.097702","from_stop_placename":"Iowa, USA","to_stop_id":"1483","to_stop_name":"origin","to_stop_lat":"37.7742152","to_stop_lon":"-87.1133304","to_stop_placename":"Owensboro, KY, USA","to_stop":{"id":"1483","name":"origin","lat":"37.7742152","lon":"-87.1133304","placename":"Owensboro, KY, USA"},"from_stop":{"name":"origin","id":"5224","lat":"41.8780025","lon":"-93.097702","placename":"Iowa, USA"}}]}}},"processes":[],"eols":[]},{"oid":"3721","imid":"3265","linkid":"","weight":"0.01","rawemissions":"0.41","emissions":"0.0041","shipping":"2849.42","processemissions":null,"endoflifeemissions":null,"disposaltype":null,"disposalenergy":null,"disposalimpact":null,"disposalemissions":null,"description":"","name":"Carrots","id":"3265","stops":{"origin":{"related_to":"3265","part_or_object":"p","notes":"","placename":"California, USA","id":5225,"name":"origin","lat":"36.778261","lon":"-119.4179324","hops":{"incoming":[],"outgoing":[{"transport_id":"3","id":"2965","transport_name":"truck, 40 tons","transport_description":"truck, half full","transport_unit":"kg km","transport_co2_eq":"0.030900","from_stop_id":"5225","from_stop_lat":"36.778261","from_stop_lon":"-119.4179324","from_stop_placename":"California, USA","to_stop_id":"1483","to_stop_name":"origin","to_stop_lat":"37.7742152","to_stop_lon":"-87.1133304","to_stop_placename":"Owensboro, KY, USA","to_stop":{"id":"1483","name":"origin","lat":"37.7742152","lon":"-87.1133304","placename":"Owensboro, KY, USA"},"from_stop":{"name":"origin","id":"5225","lat":"36.778261","lon":"-119.4179324","placename":"California, USA"}}]}}},"processes":[],"eols":[]},{"oid":"3721","imid":"3266","linkid":"","weight":"0.01","rawemissions":"0.47","emissions":"0.0047","shipping":"0","processemissions":null,"endoflifeemissions":null,"disposaltype":null,"disposalenergy":null,"disposalimpact":null,"disposalemissions":null,"description":"","name":"Celery","id":"3266","stops":{"origin":{"related_to":"3266","part_or_object":"p","notes":"","placename":"Part Location","id":5226,"name":"origin","lat":"0","lon":"0","hops":{"incoming":[],"outgoing":[{"transport_id":"3","id":"2966","transport_name":"truck, 40 tons","transport_description":"truck, half full","transport_unit":"kg km","transport_co2_eq":"0.030900","from_stop_id":"5226","from_stop_lat":"0","from_stop_lon":"0","from_stop_placename":"Part Location","to_stop_id":"1483","to_stop_name":"origin","to_stop_lat":"37.7742152","to_stop_lon":"-87.1133304","to_stop_placename":"Owensboro, KY, USA","to_stop":{"id":"1483","name":"origin","lat":"37.7742152","lon":"-87.1133304","placename":"Owensboro, KY, USA"},"from_stop":{"name":"origin","id":"5226","lat":"0","lon":"0","placename":"Part Location"}}]}}},"processes":[],"eols":[]},{"oid":"3721","imid":"3267","linkid":"","weight":"0.01","rawemissions":"3.57","emissions":"0.0357","shipping":"923.82","processemissions":null,"endoflifeemissions":null,"disposaltype":null,"disposalenergy":null,"disposalimpact":null,"disposalemissions":null,"description":"","name":"Spices","id":"3267","stops":{"origin":{"related_to":"3267","part_or_object":"p","notes":"","placename":"Maryland, USA","id":5227,"name":"origin","lat":"39.0457549","lon":"-76.6412712","hops":{"incoming":[],"outgoing":[{"transport_id":"3","id":"2967","transport_name":"truck, 40 tons","transport_description":"truck, half full","transport_unit":"kg km","transport_co2_eq":"0.030900","from_stop_id":"5227","from_stop_lat":"39.0457549","from_stop_lon":"-76.6412712","from_stop_placename":"Maryland, USA","to_stop_id":"1483","to_stop_name":"origin","to_stop_lat":"37.7742152","to_stop_lon":"-87.1133304","to_stop_placename":"Owensboro, KY, USA","to_stop":{"id":"1483","name":"origin","lat":"37.7742152","lon":"-87.1133304","placename":"Owensboro, KY, USA"},"from_stop":{"name":"origin","id":"5227","lat":"39.0457549","lon":"-76.6412712","placename":"Maryland, USA"}}]}}},"processes":[],"eols":[]},{"oid":"3721","imid":"3262","linkid":"","weight":"0.4","rawemissions":"1.03","emissions":"0.412","shipping":"2849.42","processemissions":null,"endoflifeemissions":null,"disposaltype":null,"disposalenergy":null,"disposalimpact":null,"disposalemissions":null,"description":"<object width=\"240\" height=\"150\"><param name=\"movie\" value=\"http:\/\/www.youtube.com\/v\/XvWZIj-XCjM&hl=en_US&fs=1&\"><\/param><param name=\"allowFullScreen\" value=\"true\"><\/param><param name=\"allowscriptaccess\" value=\"always\"><\/param><embed src=\"http:\/\/www.youtube.com\/v\/XvWZIj-XCjM&hl=en_US&fs=1&\" type=\"application\/x-shockwave-flash\" allowscriptaccess=\"always\" allowfullscreen=\"true\" width=\"240\" height=\"150\"><\/embed><\/object>","name":"Tomatoes","id":"3262","stops":{"origin":{"related_to":"3262","part_or_object":"p","notes":"","placename":"California, USA","id":5236,"name":"origin","lat":"36.778261","lon":"-119.4179324","hops":{"incoming":[],"outgoing":[{"transport_id":"3","id":"2976","transport_name":"truck, 40 tons","transport_description":"truck, half full","transport_unit":"kg km","transport_co2_eq":"0.030900","from_stop_id":"5236","from_stop_lat":"36.778261","from_stop_lon":"-119.4179324","from_stop_placename":"California, USA","to_stop_id":"1483","to_stop_name":"origin","to_stop_lat":"37.7742152","to_stop_lon":"-87.1133304","to_stop_placename":"Owensboro, KY, USA","to_stop":{"id":"1483","name":"origin","lat":"37.7742152","lon":"-87.1133304","placename":"Owensboro, KY, USA"},"from_stop":{"name":"origin","id":"5236","lat":"36.778261","lon":"-119.4179324","placename":"California, USA"}}]}}},"processes":[],"eols":[]},{"oid":"3721","imid":"3263","linkid":"","weight":"0.01","rawemissions":"0.39","emissions":"0.0039","shipping":"752.27","processemissions":null,"endoflifeemissions":null,"disposaltype":null,"disposalenergy":null,"disposalimpact":null,"disposalemissions":null,"description":"<object width=\"240\" height=\"150\"><param name=\"movie\" value=\"http:\/\/www.youtube.com\/v\/WWCOvjhT_rs&hl=en_US&fs=1&\"><\/param><param name=\"allowFullScreen\" value=\"true\"><\/param><param name=\"allowscriptaccess\" value=\"always\"><\/param><embed src=\"http:\/\/www.youtube.com\/v\/WWCOvjhT_rs&hl=en_US&fs=1&\" type=\"application\/x-shockwave-flash\" allowscriptaccess=\"always\" allowfullscreen=\"true\" width=\"240\" height=\"150\"><\/embed><\/object>","name":"Onions","id":"3263","stops":{"origin":{"related_to":"3263","part_or_object":"p","notes":"","placename":"Vidalia, GA, USA","id":5237,"name":"origin","lat":"32.2176855","lon":"-82.4134614","hops":{"incoming":[],"outgoing":[{"transport_id":"3","id":"2977","transport_name":"truck, 40 tons","transport_description":"truck, half full","transport_unit":"kg km","transport_co2_eq":"0.030900","from_stop_id":"5237","from_stop_lat":"32.2176855","from_stop_lon":"-82.4134614","from_stop_placename":"Vidalia, GA, USA","to_stop_id":"1483","to_stop_name":"origin","to_stop_lat":"37.7742152","to_stop_lon":"-87.1133304","to_stop_placename":"Owensboro, KY, USA","to_stop":{"id":"1483","name":"origin","lat":"37.7742152","lon":"-87.1133304","placename":"Owensboro, KY, USA"},"from_stop":{"name":"origin","id":"5237","lat":"32.2176855","lon":"-82.4134614","placename":"Vidalia, GA, USA"}}]}}},"processes":[],"eols":[]},{"oid":"3721","imid":"3278","linkid":"","weight":"0.1","rawemissions":"0","emissions":"0","shipping":"11757.88","processemissions":null,"endoflifeemissions":null,"disposaltype":null,"disposalenergy":null,"disposalimpact":null,"disposalemissions":null,"description":"","name":"Bottle Packaging","id":"3278","stops":{"origin":{"related_to":"3278","part_or_object":"p","notes":"","placename":"China","id":5238,"name":"origin","lat":"35.86166","lon":"104.195397","hops":{"incoming":[],"outgoing":[{"transport_id":"17","id":"2978","transport_name":"None Selected","transport_description":null,"transport_unit":"kg km","transport_co2_eq":"0.000000","from_stop_id":"5238","from_stop_lat":"35.86166","from_stop_lon":"104.195397","from_stop_placename":"China","to_stop_id":"1483","to_stop_name":"origin","to_stop_lat":"37.7742152","to_stop_lon":"-87.1133304","to_stop_placename":"Owensboro, KY, USA","to_stop":{"id":"1483","name":"origin","lat":"37.7742152","lon":"-87.1133304","placename":"Owensboro, KY, USA"},"from_stop":{"name":"origin","id":"5238","lat":"35.86166","lon":"104.195397","placename":"China"}}]}}},"processes":[],"eols":[]}],"user":{"name":"elishagoodman","id":"9599"}}}