{"373":{"oid":"373","type":"trace","flag":"","creator":"10265","name":"Lithium Ion Battery","upc":"","imagelink":"","description":"","slug":"Lithium-Ion-Battery","category":"featured","weight":"0","emissions":"0","embodied":"0","transport":"0","process":null,"endoflife":null,"shipping":"53011.83","lifetime":null,"usagetype":"","usageenergy":null,"usageemissions":null,"timecreated":"2011-01-27 18:01:30","timemodified":"2011-02-14 11:42:47","visibility":"public","showfootprint":"on","showembodied":"on","showtransport":"on","showprocess":"on","showendoflife":"on","showlastleg":"on","showuse":"on","showstats":"on","stops":{"origin":{"related_to":"373","part_or_object":"o","notes":null,"placename":"South Korea","id":"10894","category":"1","lat":"35.907757","lon":"127.766922","name":"origin","hops":{"incoming":[{"transport_id":null,"id":"7692","transport_name":null,"transport_description":null,"transport_unit":null,"transport_co2_eq":null,"from_stop_id":"10895","from_stop_lat":"37.09024","from_stop_lon":"-95.712891","to_stop_id":"10894","to_stop_name":"origin","to_stop_lat":"35.907757","placename":"United States","to_stop_lon":"127.766922","to_stop":{"id":"10894","name":"origin","lat":"35.907757","placename":"South Korea","lon":"127.766922"},"from_stop":{"name":"origin","id":"10895","lat":"37.09024","lon":"-95.712891","placename":"United States"}},{"transport_id":null,"id":"7693","transport_name":null,"transport_description":null,"transport_unit":null,"transport_co2_eq":null,"from_stop_id":"10896","from_stop_lat":"-19.015438","from_stop_lon":"29.154857","to_stop_id":"10894","to_stop_name":"origin","to_stop_lat":"35.907757","placename":"Zimbabwe","to_stop_lon":"127.766922","to_stop":{"id":"10894","name":"origin","lat":"35.907757","placename":"South Korea","lon":"127.766922"},"from_stop":{"name":"origin","id":"10896","lat":"-19.015438","lon":"29.154857","placename":"Zimbabwe"}},{"transport_id":null,"id":"7694","transport_name":null,"transport_description":null,"transport_unit":null,"transport_co2_eq":null,"from_stop_id":"10897","from_stop_lat":"-25.274398","from_stop_lon":"133.775136","to_stop_id":"10894","to_stop_name":"origin","to_stop_lat":"35.907757","placename":"Australia","to_stop_lon":"127.766922","to_stop":{"id":"10894","name":"origin","lat":"35.907757","placename":"South Korea","lon":"127.766922"},"from_stop":{"name":"origin","id":"10897","lat":"-25.274398","lon":"133.775136","placename":"Australia"}},{"transport_id":null,"id":"7695","transport_name":null,"transport_description":null,"transport_unit":null,"transport_co2_eq":null,"from_stop_id":"10898","from_stop_lat":"35.86166","from_stop_lon":"104.195397","to_stop_id":"10894","to_stop_name":"origin","to_stop_lat":"35.907757","placename":"China","to_stop_lon":"127.766922","to_stop":{"id":"10894","name":"origin","lat":"35.907757","placename":"South Korea","lon":"127.766922"},"from_stop":{"name":"origin","id":"10898","lat":"35.86166","lon":"104.195397","placename":"China"}},{"transport_id":null,"id":"7696","transport_name":null,"transport_description":null,"transport_unit":null,"transport_co2_eq":null,"from_stop_id":"10899","from_stop_lat":"20.593684","from_stop_lon":"78.96288","to_stop_id":"10894","to_stop_name":"origin","to_stop_lat":"35.907757","placename":"India","to_stop_lon":"127.766922","to_stop":{"id":"10894","name":"origin","lat":"35.907757","placename":"South Korea","lon":"127.766922"},"from_stop":{"name":"origin","id":"10899","lat":"20.593684","lon":"78.96288","placename":"India"}},{"transport_id":null,"id":"7697","transport_name":null,"transport_description":null,"transport_unit":null,"transport_co2_eq":null,"from_stop_id":"10900","from_stop_lat":"-9.189967","from_stop_lon":"-75.015152","to_stop_id":"10894","to_stop_name":"origin","to_stop_lat":"35.907757","placename":"Peru","to_stop_lon":"127.766922","to_stop":{"id":"10894","name":"origin","lat":"35.907757","placename":"South Korea","lon":"127.766922"},"from_stop":{"name":"origin","id":"10900","lat":"-9.189967","lon":"-75.015152","placename":"Peru"}}],"outgoing":[]}}},"parts":[{"oid":"373","imid":"5789","linkid":"0","weight":"0","rawemissions":"0","emissions":"0","shipping":"12000.66","processemissions":"0","endoflifeemissions":"0","disposaltype":null,"disposalenergy":null,"disposalimpact":null,"disposalemissions":null,"description":"","name":"Lithium","id":"5789","stops":{"origin":{"related_to":"5789","part_or_object":"p","notes":null,"placename":"Zimbabwe","id":10896,"name":"origin","lat":"-19.015438","lon":"29.154857","hops":{"incoming":[],"outgoing":[{"transport_id":null,"id":"7693","transport_name":null,"transport_description":null,"transport_unit":null,"transport_co2_eq":null,"from_stop_id":"10896","from_stop_lat":"-19.015438","from_stop_lon":"29.154857","from_stop_placename":"Zimbabwe","to_stop_id":"10894","to_stop_name":"origin","to_stop_lat":"35.907757","to_stop_lon":"127.766922","to_stop_placename":"South Korea","to_stop":{"id":"10894","name":"origin","lat":"35.907757","lon":"127.766922","placename":"South Korea"},"from_stop":{"name":"origin","id":"10896","lat":"-19.015438","lon":"29.154857","placename":"Zimbabwe"}}]}}},"processes":[],"eols":[]},{"oid":"373","imid":"5788","linkid":"0","weight":"0","rawemissions":"0","emissions":"0","shipping":"10754.68","processemissions":"0","endoflifeemissions":"0","disposaltype":null,"disposalenergy":null,"disposalimpact":null,"disposalemissions":null,"description":"","name":"Organic Chemicals (eg., Tetrafluoroethylene)","id":"5788","stops":{"origin":{"related_to":"5788","part_or_object":"p","notes":null,"placename":"United States","id":10895,"name":"origin","lat":"37.09024","lon":"-95.712891","hops":{"incoming":[],"outgoing":[{"transport_id":null,"id":"7692","transport_name":null,"transport_description":null,"transport_unit":null,"transport_co2_eq":null,"from_stop_id":"10895","from_stop_lat":"37.09024","from_stop_lon":"-95.712891","from_stop_placename":"United States","to_stop_id":"10894","to_stop_name":"origin","to_stop_lat":"35.907757","to_stop_lon":"127.766922","to_stop_placename":"South Korea","to_stop":{"id":"10894","name":"origin","lat":"35.907757","lon":"127.766922","placename":"South Korea"},"from_stop":{"name":"origin","id":"10895","lat":"37.09024","lon":"-95.712891","placename":"United States"}}]}}},"processes":[],"eols":[]},{"oid":"373","imid":"5790","linkid":"0","weight":"0","rawemissions":"0","emissions":"0","shipping":"6840.02","processemissions":"0","endoflifeemissions":"0","disposaltype":null,"disposalenergy":null,"disposalimpact":null,"disposalemissions":null,"description":"","name":"Aluminum","id":"5790","stops":{"origin":{"related_to":"5790","part_or_object":"p","notes":null,"placename":"Australia","id":10897,"name":"origin","lat":"-25.274398","lon":"133.775136","hops":{"incoming":[],"outgoing":[{"transport_id":null,"id":"7694","transport_name":null,"transport_description":null,"transport_unit":null,"transport_co2_eq":null,"from_stop_id":"10897","from_stop_lat":"-25.274398","from_stop_lon":"133.775136","from_stop_placename":"Australia","to_stop_id":"10894","to_stop_name":"origin","to_stop_lat":"35.907757","to_stop_lon":"127.766922","to_stop_placename":"South Korea","to_stop":{"id":"10894","name":"origin","lat":"35.907757","lon":"127.766922","placename":"South Korea"},"from_stop":{"name":"origin","id":"10897","lat":"-25.274398","lon":"133.775136","placename":"Australia"}}]}}},"processes":[],"eols":[]},{"oid":"373","imid":"5791","linkid":"0","weight":"0","rawemissions":"0","emissions":"0","shipping":"2120.74","processemissions":"0","endoflifeemissions":"0","disposaltype":null,"disposalenergy":null,"disposalimpact":null,"disposalemissions":null,"description":"","name":"Polyethylene","id":"5791","stops":{"origin":{"related_to":"5791","part_or_object":"p","notes":null,"placename":"China","id":10898,"name":"origin","lat":"35.86166","lon":"104.195397","hops":{"incoming":[],"outgoing":[{"transport_id":null,"id":"7695","transport_name":null,"transport_description":null,"transport_unit":null,"transport_co2_eq":null,"from_stop_id":"10898","from_stop_lat":"35.86166","from_stop_lon":"104.195397","from_stop_placename":"China","to_stop_id":"10894","to_stop_name":"origin","to_stop_lat":"35.907757","to_stop_lon":"127.766922","to_stop_placename":"South Korea","to_stop":{"id":"10894","name":"origin","lat":"35.907757","lon":"127.766922","placename":"South Korea"},"from_stop":{"name":"origin","id":"10898","lat":"35.86166","lon":"104.195397","placename":"China"}}]}}},"processes":[],"eols":[]},{"oid":"373","imid":"5792","linkid":"0","weight":"0","rawemissions":"0","emissions":"0","shipping":"5022.33","processemissions":"0","endoflifeemissions":"0","disposaltype":null,"disposalenergy":null,"disposalimpact":null,"disposalemissions":null,"description":"","name":"Carbon","id":"5792","stops":{"origin":{"related_to":"5792","part_or_object":"p","notes":null,"placename":"India","id":10899,"name":"origin","lat":"20.593684","lon":"78.96288","hops":{"incoming":[],"outgoing":[{"transport_id":null,"id":"7696","transport_name":null,"transport_description":null,"transport_unit":null,"transport_co2_eq":null,"from_stop_id":"10899","from_stop_lat":"20.593684","from_stop_lon":"78.96288","from_stop_placename":"India","to_stop_id":"10894","to_stop_name":"origin","to_stop_lat":"35.907757","to_stop_lon":"127.766922","to_stop_placename":"South Korea","to_stop":{"id":"10894","name":"origin","lat":"35.907757","lon":"127.766922","placename":"South Korea"},"from_stop":{"name":"origin","id":"10899","lat":"20.593684","lon":"78.96288","placename":"India"}}]}}},"processes":[],"eols":[]},{"oid":"373","imid":"5793","linkid":"0","weight":"0","rawemissions":"0","emissions":"0","shipping":"16273.4","processemissions":"0","endoflifeemissions":"0","disposaltype":null,"disposalenergy":null,"disposalimpact":null,"disposalemissions":null,"description":"","name":"Copper","id":"5793","stops":{"origin":{"related_to":"5793","part_or_object":"p","notes":null,"placename":"Peru","id":10900,"name":"origin","lat":"-9.189967","lon":"-75.015152","hops":{"incoming":[],"outgoing":[{"transport_id":null,"id":"7697","transport_name":null,"transport_description":null,"transport_unit":null,"transport_co2_eq":null,"from_stop_id":"10900","from_stop_lat":"-9.189967","from_stop_lon":"-75.015152","from_stop_placename":"Peru","to_stop_id":"10894","to_stop_name":"origin","to_stop_lat":"35.907757","to_stop_lon":"127.766922","to_stop_placename":"South Korea","to_stop":{"id":"10894","name":"origin","lat":"35.907757","lon":"127.766922","placename":"South Korea"},"from_stop":{"name":"origin","id":"10900","lat":"-9.189967","lon":"-75.015152","placename":"Peru"}}]}}},"processes":[],"eols":[]}],"user":{"name":"deanaaulisio","id":"10265"}}}