{"3756":{"oid":"3756","type":"trace","flag":"","creator":"9701","name":"UNMIT","upc":"","imagelink":"","description":"UN Peace Operation","slug":"unmit","category":"","weight":"0","emissions":"0","embodied":"0","transport":"0","process":"0","endoflife":"0","shipping":"15620.41","lifetime":null,"usagetype":"","usageenergy":null,"usageemissions":null,"timecreated":"2010-05-23 21:02:11.75377","timemodified":"2010-05-24 01:04:09","visibility":"public","showfootprint":"on","showembodied":"on","showtransport":"on","showprocess":"on","showendoflife":"on","showlastleg":"on","showuse":"on","showstats":"on","stops":{"origin":{"related_to":"3756","part_or_object":"o","notes":"","placename":"Timor-Leste","id":"1509","category":"1","lat":"-8.874217","lon":"125.727539","name":"origin","hops":{"incoming":[{"transport_id":"17","id":"2991","transport_name":"None Selected","transport_description":null,"transport_unit":"kg km","transport_co2_eq":"0.000000","from_stop_id":"5251","from_stop_lat":"-7.289166","from_stop_lon":"112.734398","to_stop_id":"1509","to_stop_name":"origin","to_stop_lat":"-8.874217","placename":"Surabaya, Indonesia","to_stop_lon":"125.727539","to_stop":{"id":"1509","name":"origin","lat":"-8.874217","placename":"Timor-Leste","lon":"125.727539"},"from_stop":{"name":"origin","id":"5251","lat":"-7.289166","lon":"112.734398","placename":"Surabaya, Indonesia"}},{"transport_id":"17","id":"2992","transport_name":"None Selected","transport_description":null,"transport_unit":"kg km","transport_co2_eq":"0.000000","from_stop_id":"5252","from_stop_lat":"7.946527","from_stop_lon":"-1.023194","to_stop_id":"1509","to_stop_name":"origin","to_stop_lat":"-8.874217","placename":"Ghana","to_stop_lon":"125.727539","to_stop":{"id":"1509","name":"origin","lat":"-8.874217","placename":"Timor-Leste","lon":"125.727539"},"from_stop":{"name":"origin","id":"5252","lat":"7.946527","lon":"-1.023194","placename":"Ghana"}},{"transport_id":"17","id":"2993","transport_name":"None Selected","transport_description":null,"transport_unit":"kg km","transport_co2_eq":"0.000000","from_stop_id":"5253","from_stop_lat":"0","from_stop_lon":"0","to_stop_id":"1509","to_stop_name":"origin","to_stop_lat":"-8.874217","placename":"Part Location","to_stop_lon":"125.727539","to_stop":{"id":"1509","name":"origin","lat":"-8.874217","placename":"Timor-Leste","lon":"125.727539"},"from_stop":{"name":"origin","id":"5253","lat":"0","lon":"0","placename":"Part Location"}}],"outgoing":[]}}},"parts":[{"oid":"3756","imid":"3292","linkid":"","weight":"0","rawemissions":"0","emissions":"0","shipping":"1442.75","processemissions":null,"endoflifeemissions":null,"disposaltype":null,"disposalenergy":null,"disposalimpact":null,"disposalemissions":null,"description":"","name":"Water","id":"3292","stops":{"origin":{"related_to":"3292","part_or_object":"p","notes":"","placename":"Surabaya, Indonesia","id":5251,"name":"origin","lat":"-7.289166","lon":"112.734398","hops":{"incoming":[],"outgoing":[{"transport_id":"17","id":"2991","transport_name":"None Selected","transport_description":null,"transport_unit":"kg km","transport_co2_eq":"0.000000","from_stop_id":"5251","from_stop_lat":"-7.289166","from_stop_lon":"112.734398","from_stop_placename":"Surabaya, Indonesia","to_stop_id":"1509","to_stop_name":"origin","to_stop_lat":"-8.874217","to_stop_lon":"125.727539","to_stop_placename":"Timor-Leste","to_stop":{"id":"1509","name":"origin","lat":"-8.874217","lon":"125.727539","placename":"Timor-Leste"},"from_stop":{"name":"origin","id":"5251","lat":"-7.289166","lon":"112.734398","placename":"Surabaya, Indonesia"}}]}}},"processes":[],"eols":[]},{"oid":"3756","imid":"3293","linkid":"","weight":"0","rawemissions":"0","emissions":"0","shipping":"14177.66","processemissions":null,"endoflifeemissions":null,"disposaltype":null,"disposalenergy":null,"disposalimpact":null,"disposalemissions":null,"description":"","name":"Police","id":"3293","stops":{"origin":{"related_to":"3293","part_or_object":"p","notes":"","placename":"Ghana","id":5252,"name":"origin","lat":"7.946527","lon":"-1.023194","hops":{"incoming":[],"outgoing":[{"transport_id":"17","id":"2992","transport_name":"None Selected","transport_description":null,"transport_unit":"kg km","transport_co2_eq":"0.000000","from_stop_id":"5252","from_stop_lat":"7.946527","from_stop_lon":"-1.023194","from_stop_placename":"Ghana","to_stop_id":"1509","to_stop_name":"origin","to_stop_lat":"-8.874217","to_stop_lon":"125.727539","to_stop_placename":"Timor-Leste","to_stop":{"id":"1509","name":"origin","lat":"-8.874217","lon":"125.727539","placename":"Timor-Leste"},"from_stop":{"name":"origin","id":"5252","lat":"7.946527","lon":"-1.023194","placename":"Ghana"}}]}}},"processes":[],"eols":[]},{"oid":"3756","imid":"3294","linkid":"","weight":"0","rawemissions":"0","emissions":"0","shipping":"0","processemissions":null,"endoflifeemissions":null,"disposaltype":null,"disposalenergy":null,"disposalimpact":null,"disposalemissions":null,"description":"","name":"Part","id":"3294","stops":{"origin":{"related_to":"3294","part_or_object":"p","notes":"","placename":"Part Location","id":5253,"name":"origin","lat":"0","lon":"0","hops":{"incoming":[],"outgoing":[{"transport_id":"17","id":"2993","transport_name":"None Selected","transport_description":null,"transport_unit":"kg km","transport_co2_eq":"0.000000","from_stop_id":"5253","from_stop_lat":"0","from_stop_lon":"0","from_stop_placename":"Part Location","to_stop_id":"1509","to_stop_name":"origin","to_stop_lat":"-8.874217","to_stop_lon":"125.727539","to_stop_placename":"Timor-Leste","to_stop":{"id":"1509","name":"origin","lat":"-8.874217","lon":"125.727539","placename":"Timor-Leste"},"from_stop":{"name":"origin","id":"5253","lat":"0","lon":"0","placename":"Part Location"}}]}}},"processes":[],"eols":[]}],"user":{"name":"edward rees","id":"9701"}}}