{"3771":{"oid":"3771","type":"trace","flag":"","creator":"9725","name":"Swisscard","upc":"","imagelink":"","description":"","slug":"swisscard","category":"","weight":"0","emissions":"0","embodied":"0","transport":"0","process":"0","endoflife":"0","shipping":"30323.85","lifetime":null,"usagetype":"","usageenergy":null,"usageemissions":null,"timecreated":"2010-05-27 15:31:59.414729","timemodified":"2010-05-28 20:49:08","visibility":"public","showfootprint":"on","showembodied":"on","showtransport":"on","showprocess":"on","showendoflife":"on","showlastleg":"on","showuse":"on","showstats":"on","stops":{"origin":{"related_to":"3771","part_or_object":"o","notes":"","placename":"Suiza","id":"1527","category":"1","lat":"46.818188","lon":"8.227512","name":"origin","hops":{"incoming":[{"transport_id":"17","id":"3035","transport_name":"None Selected","transport_description":null,"transport_unit":"kg km","transport_co2_eq":"0.000000","from_stop_id":"5295","from_stop_lat":"23.69781","from_stop_lon":"120.960515","to_stop_id":"1527","to_stop_name":"origin","to_stop_lat":"46.818188","placename":"Taiw\u00c3\u00a1n","to_stop_lon":"8.227512","to_stop":{"id":"1527","name":"origin","lat":"46.818188","placename":"Suiza","lon":"8.227512"},"from_stop":{"name":"origin","id":"5295","lat":"23.69781","lon":"120.960515","placename":"Taiw\u00c3\u00a1n"}},{"transport_id":"17","id":"3036","transport_name":"None Selected","transport_description":null,"transport_unit":"kg km","transport_co2_eq":"0.000000","from_stop_id":"5296","from_stop_lat":"35.86166","from_stop_lon":"104.195397","to_stop_id":"1527","to_stop_name":"origin","to_stop_lat":"46.818188","placename":"China","to_stop_lon":"8.227512","to_stop":{"id":"1527","name":"origin","lat":"46.818188","placename":"Suiza","lon":"8.227512"},"from_stop":{"name":"origin","id":"5296","lat":"35.86166","lon":"104.195397","placename":"China"}},{"transport_id":"17","id":"3044","transport_name":"None Selected","transport_description":null,"transport_unit":"kg km","transport_co2_eq":"0.000000","from_stop_id":"5304","from_stop_lat":"36.204824","from_stop_lon":"138.252924","to_stop_id":"1527","to_stop_name":"origin","to_stop_lat":"46.818188","placename":"Jap\u00c3\u00b3n","to_stop_lon":"8.227512","to_stop":{"id":"1527","name":"origin","lat":"46.818188","placename":"Suiza","lon":"8.227512"},"from_stop":{"name":"origin","id":"5304","lat":"36.204824","lon":"138.252924","placename":"Jap\u00c3\u00b3n"}},{"transport_id":"17","id":"3045","transport_name":"None Selected","transport_description":null,"transport_unit":"kg km","transport_co2_eq":"0.000000","from_stop_id":"5305","from_stop_lat":"51.165691","from_stop_lon":"10.451526","to_stop_id":"1527","to_stop_name":"origin","to_stop_lat":"46.818188","placename":"Alemania","to_stop_lon":"8.227512","to_stop":{"id":"1527","name":"origin","lat":"46.818188","placename":"Suiza","lon":"8.227512"},"from_stop":{"name":"origin","id":"5305","lat":"51.165691","lon":"10.451526","placename":"Alemania"}},{"transport_id":"17","id":"3046","transport_name":"None Selected","transport_description":null,"transport_unit":"kg km","transport_co2_eq":"0.000000","from_stop_id":"5306","from_stop_lat":"26.820553","from_stop_lon":"30.802498","to_stop_id":"1527","to_stop_name":"origin","to_stop_lat":"46.818188","placename":"Egipto","to_stop_lon":"8.227512","to_stop":{"id":"1527","name":"origin","lat":"46.818188","placename":"Suiza","lon":"8.227512"},"from_stop":{"name":"origin","id":"5306","lat":"26.820553","lon":"30.802498","placename":"Egipto"}},{"transport_id":"17","id":"3047","transport_name":"None Selected","transport_description":null,"transport_unit":"kg km","transport_co2_eq":"0.000000","from_stop_id":"5307","from_stop_lat":"0","from_stop_lon":"0","to_stop_id":"1527","to_stop_name":"origin","to_stop_lat":"46.818188","placename":"Part Location","to_stop_lon":"8.227512","to_stop":{"id":"1527","name":"origin","lat":"46.818188","placename":"Suiza","lon":"8.227512"},"from_stop":{"name":"origin","id":"5307","lat":"0","lon":"0","placename":"Part Location"}}],"outgoing":[]}}},"parts":[{"oid":"3771","imid":"3342","linkid":"","weight":"0","rawemissions":"0","emissions":"0","shipping":"9693.82","processemissions":"0","endoflifeemissions":"0","disposaltype":null,"disposalenergy":null,"disposalimpact":null,"disposalemissions":null,"description":"","name":"Bombillo Led de linterna","id":"3342","stops":{"origin":{"related_to":"3342","part_or_object":"p","notes":"","placename":"Taiw\u00c3\u00a1n","id":5295,"name":"origin","lat":"23.69781","lon":"120.960515","hops":{"incoming":[],"outgoing":[{"transport_id":"17","id":"3035","transport_name":"None Selected","transport_description":null,"transport_unit":"kg km","transport_co2_eq":"0.000000","from_stop_id":"5295","from_stop_lat":"23.69781","from_stop_lon":"120.960515","from_stop_placename":"Taiw\u00c3\u00a1n","to_stop_id":"1527","to_stop_name":"origin","to_stop_lat":"46.818188","to_stop_lon":"8.227512","to_stop_placename":"Suiza","to_stop":{"id":"1527","name":"origin","lat":"46.818188","lon":"8.227512","placename":"Suiza"},"from_stop":{"name":"origin","id":"5295","lat":"23.69781","lon":"120.960515","placename":"Taiw\u00c3\u00a1n"}}]}}},"processes":[],"eols":[]},{"oid":"3771","imid":"3343","linkid":"","weight":"0","rawemissions":"0","emissions":"0","shipping":"7604.69","processemissions":"0","endoflifeemissions":"0","disposaltype":null,"disposalenergy":null,"disposalimpact":null,"disposalemissions":null,"description":"","name":"PVC, rigid (pestanas  lapicero - pinza - linterna)","id":"3343","stops":{"origin":{"related_to":"3343","part_or_object":"p","notes":"","placename":"China","id":5296,"name":"origin","lat":"35.86166","lon":"104.195397","hops":{"incoming":[],"outgoing":[{"transport_id":"17","id":"3036","transport_name":"None Selected","transport_description":null,"transport_unit":"kg km","transport_co2_eq":"0.000000","from_stop_id":"5296","from_stop_lat":"35.86166","from_stop_lon":"104.195397","from_stop_placename":"China","to_stop_id":"1527","to_stop_name":"origin","to_stop_lat":"46.818188","to_stop_lon":"8.227512","to_stop_placename":"Suiza","to_stop":{"id":"1527","name":"origin","lat":"46.818188","lon":"8.227512","placename":"Suiza"},"from_stop":{"name":"origin","id":"5296","lat":"35.86166","lon":"104.195397","placename":"China"}}]}}},"processes":[],"eols":[]},{"oid":"3771","imid":"3350","linkid":"","weight":"0","rawemissions":"0","emissions":"0","shipping":"9536.18","processemissions":"0","endoflifeemissions":"0","disposaltype":null,"disposalenergy":null,"disposalimpact":null,"disposalemissions":null,"description":"","name":"Pila Alcalina","id":"3350","stops":{"origin":{"related_to":"3350","part_or_object":"p","notes":"","placename":"Jap\u00c3\u00b3n","id":5304,"name":"origin","lat":"36.204824","lon":"138.252924","hops":{"incoming":[],"outgoing":[{"transport_id":"17","id":"3044","transport_name":"None Selected","transport_description":null,"transport_unit":"kg km","transport_co2_eq":"0.000000","from_stop_id":"5304","from_stop_lat":"36.204824","from_stop_lon":"138.252924","from_stop_placename":"Jap\u00c3\u00b3n","to_stop_id":"1527","to_stop_name":"origin","to_stop_lat":"46.818188","to_stop_lon":"8.227512","to_stop_placename":"Suiza","to_stop":{"id":"1527","name":"origin","lat":"46.818188","lon":"8.227512","placename":"Suiza"},"from_stop":{"name":"origin","id":"5304","lat":"36.204824","lon":"138.252924","placename":"Jap\u00c3\u00b3n"}}]}}},"processes":[],"eols":[]},{"oid":"3771","imid":"3351","linkid":"","weight":"0","rawemissions":"0","emissions":"0","shipping":"510.44","processemissions":"0","endoflifeemissions":"0","disposaltype":null,"disposalenergy":null,"disposalimpact":null,"disposalemissions":null,"description":"","name":"Acero Inoxidable","id":"3351","stops":{"origin":{"related_to":"3351","part_or_object":"p","notes":"","placename":"Alemania","id":5305,"name":"origin","lat":"51.165691","lon":"10.451526","hops":{"incoming":[],"outgoing":[{"transport_id":"17","id":"3045","transport_name":"None Selected","transport_description":null,"transport_unit":"kg km","transport_co2_eq":"0.000000","from_stop_id":"5305","from_stop_lat":"51.165691","from_stop_lon":"10.451526","from_stop_placename":"Alemania","to_stop_id":"1527","to_stop_name":"origin","to_stop_lat":"46.818188","to_stop_lon":"8.227512","to_stop_placename":"Suiza","to_stop":{"id":"1527","name":"origin","lat":"46.818188","lon":"8.227512","placename":"Suiza"},"from_stop":{"name":"origin","id":"5305","lat":"51.165691","lon":"10.451526","placename":"Alemania"}}]}}},"processes":[],"eols":[]},{"oid":"3771","imid":"3352","linkid":"","weight":"0","rawemissions":"0","emissions":"0","shipping":"2978.72","processemissions":"0","endoflifeemissions":"0","disposaltype":null,"disposalenergy":null,"disposalimpact":null,"disposalemissions":null,"description":"","name":"Policarbonato","id":"3352","stops":{"origin":{"related_to":"3352","part_or_object":"p","notes":"","placename":"Egipto","id":5306,"name":"origin","lat":"26.820553","lon":"30.802498","hops":{"incoming":[],"outgoing":[{"transport_id":"17","id":"3046","transport_name":"None Selected","transport_description":null,"transport_unit":"kg km","transport_co2_eq":"0.000000","from_stop_id":"5306","from_stop_lat":"26.820553","from_stop_lon":"30.802498","from_stop_placename":"Egipto","to_stop_id":"1527","to_stop_name":"origin","to_stop_lat":"46.818188","to_stop_lon":"8.227512","to_stop_placename":"Suiza","to_stop":{"id":"1527","name":"origin","lat":"46.818188","lon":"8.227512","placename":"Suiza"},"from_stop":{"name":"origin","id":"5306","lat":"26.820553","lon":"30.802498","placename":"Egipto"}}]}}},"processes":[],"eols":[]},{"oid":"3771","imid":"3353","linkid":"","weight":"0","rawemissions":"0","emissions":"0","shipping":"0","processemissions":"0","endoflifeemissions":"0","disposaltype":null,"disposalenergy":null,"disposalimpact":null,"disposalemissions":null,"description":"","name":"Carton","id":"3353","stops":{"origin":{"related_to":"3353","part_or_object":"p","notes":"","placename":"Part Location","id":5307,"name":"origin","lat":"0","lon":"0","hops":{"incoming":[],"outgoing":[{"transport_id":"17","id":"3047","transport_name":"None Selected","transport_description":null,"transport_unit":"kg km","transport_co2_eq":"0.000000","from_stop_id":"5307","from_stop_lat":"0","from_stop_lon":"0","from_stop_placename":"Part Location","to_stop_id":"1527","to_stop_name":"origin","to_stop_lat":"46.818188","to_stop_lon":"8.227512","to_stop_placename":"Suiza","to_stop":{"id":"1527","name":"origin","lat":"46.818188","lon":"8.227512","placename":"Suiza"},"from_stop":{"name":"origin","id":"5307","lat":"0","lon":"0","placename":"Part Location"}}]}}},"processes":[],"eols":[]}],"user":{"name":"viviamt","id":"9725"}}}