{"3775":{"oid":"3775","type":"object","flag":"","creator":"9044","name":"Clover Food Truck (Weekly Consumption)","upc":"","imagelink":"","description":"<a href=\"http:\/\/www.cloverfoodlab.com\/\">Reference<\/a> \n\n<a href=\"http:\/\/www.cloverfoodlab.com\/wp-content\/uploads\/2010\/01\/food-truck-17.jpg\">Picture <\/a> ","slug":"clover-food-truck","category":"","weight":"662.25","emissions":"687.849604517","embodied":"660.885","transport":"26.9646045168","process":"0","endoflife":"0","shipping":"24352.24","lifetime":null,"usagetype":"","usageenergy":null,"usageemissions":null,"timecreated":"2010-05-28 09:55:30.851449","timemodified":"2010-06-28 18:09:49","visibility":"public","showfootprint":"on","showembodied":"on","showtransport":"on","showprocess":"on","showendoflife":"on","showlastleg":"on","showuse":"on","showstats":"on","stops":{"origin":{"related_to":"3775","part_or_object":"o","notes":"","placename":"Cambridge, MA, USA","id":"1621","category":"1","lat":"42.3726399","lon":"-71.1096528","name":"origin","hops":{"incoming":[{"transport_id":"2","id":"3049","transport_name":"truck, 16 tons","transport_description":"truck, half full","transport_unit":"kg km","transport_co2_eq":"0.020300","from_stop_id":"5309","from_stop_lat":"42.4905556","from_stop_lon":"-71.2766667","to_stop_id":"1621","to_stop_name":"origin","to_stop_lat":"42.3726399","placename":"Bedford, USA","to_stop_lon":"-71.1096528","to_stop":{"id":"1621","name":"origin","lat":"42.3726399","placename":"Cambridge, MA, USA","lon":"-71.1096528"},"from_stop":{"name":"origin","id":"5309","lat":"42.4905556","lon":"-71.2766667","placename":"Bedford, USA"}},{"transport_id":"2","id":"3050","transport_name":"truck, 16 tons","transport_description":"truck, half full","transport_unit":"kg km","transport_co2_eq":"0.020300","from_stop_id":"5310","from_stop_lat":"41.740657","from_stop_lon":"-71.3086618","to_stop_id":"1621","to_stop_name":"origin","to_stop_lat":"42.3726399","placename":"Barrington, RI, USA","to_stop_lon":"-71.1096528","to_stop":{"id":"1621","name":"origin","lat":"42.3726399","placename":"Cambridge, MA, USA","lon":"-71.1096528"},"from_stop":{"name":"origin","id":"5310","lat":"41.740657","lon":"-71.3086618","placename":"Barrington, RI, USA"}},{"transport_id":"2","id":"3051","transport_name":"truck, 16 tons","transport_description":"truck, half full","transport_unit":"kg km","transport_co2_eq":"0.020300","from_stop_id":"5311","from_stop_lat":"41.8239891","from_stop_lon":"-71.4128343","to_stop_id":"1621","to_stop_name":"origin","to_stop_lat":"42.3726399","placename":"Providence, RI, USA","to_stop_lon":"-71.1096528","to_stop":{"id":"1621","name":"origin","lat":"42.3726399","placename":"Cambridge, MA, USA","lon":"-71.1096528"},"from_stop":{"name":"origin","id":"5311","lat":"41.8239891","lon":"-71.4128343","placename":"Providence, RI, USA"}},{"transport_id":"2","id":"3052","transport_name":"truck, 16 tons","transport_description":"truck, half full","transport_unit":"kg km","transport_co2_eq":"0.020300","from_stop_id":"5312","from_stop_lat":"40.65","from_stop_lon":"-73.95","to_stop_id":"1621","to_stop_name":"origin","to_stop_lat":"42.3726399","placename":"Brooklyn, NY, USA","to_stop_lon":"-71.1096528","to_stop":{"id":"1621","name":"origin","lat":"42.3726399","placename":"Cambridge, MA, USA","lon":"-71.1096528"},"from_stop":{"name":"origin","id":"5312","lat":"40.65","lon":"-73.95","placename":"Brooklyn, NY, USA"}},{"transport_id":"2","id":"3053","transport_name":"truck, 16 tons","transport_description":"truck, half full","transport_unit":"kg km","transport_co2_eq":"0.020300","from_stop_id":"5313","from_stop_lat":"46.247847","from_stop_lon":"-63.12021","to_stop_id":"1621","to_stop_name":"origin","to_stop_lat":"42.3726399","placename":"Charlottetown, PE, Canada","to_stop_lon":"-71.1096528","to_stop":{"id":"1621","name":"origin","lat":"42.3726399","placename":"Cambridge, MA, USA","lon":"-71.1096528"},"from_stop":{"name":"origin","id":"5313","lat":"46.247847","lon":"-63.12021","placename":"Charlottetown, PE, Canada"}},{"transport_id":"3","id":"3054","transport_name":"truck, 40 tons","transport_description":"truck, half full","transport_unit":"kg km","transport_co2_eq":"0.030900","from_stop_id":"5314","from_stop_lat":"41.8780025","from_stop_lon":"-93.097702","to_stop_id":"1621","to_stop_name":"origin","to_stop_lat":"42.3726399","placename":"Iowa, USA","to_stop_lon":"-71.1096528","to_stop":{"id":"1621","name":"origin","lat":"42.3726399","placename":"Cambridge, MA, USA","lon":"-71.1096528"},"from_stop":{"name":"origin","id":"5314","lat":"41.8780025","lon":"-93.097702","placename":"Iowa, USA"}},{"transport_id":"9","id":"3322","transport_name":"container ship","transport_description":"moving boxcar size containers","transport_unit":"kg km","transport_co2_eq":"0.047800","from_stop_id":"5582","from_stop_lat":"35.86166","from_stop_lon":"104.195397","to_stop_id":"1621","to_stop_name":"origin","to_stop_lat":"42.3726399","placename":"China","to_stop_lon":"-71.1096528","to_stop":{"id":"1621","name":"origin","lat":"42.3726399","placename":"Cambridge, MA, USA","lon":"-71.1096528"},"from_stop":{"name":"origin","id":"5582","lat":"35.86166","lon":"104.195397","placename":"China"}},{"transport_id":"2","id":"3323","transport_name":"truck, 16 tons","transport_description":"truck, half full","transport_unit":"kg km","transport_co2_eq":"0.020300","from_stop_id":"5583","from_stop_lat":"36.778261","from_stop_lon":"-119.4179324","to_stop_id":"1621","to_stop_name":"origin","to_stop_lat":"42.3726399","placename":"California, USA","to_stop_lon":"-71.1096528","to_stop":{"id":"1621","name":"origin","lat":"42.3726399","placename":"Cambridge, MA, USA","lon":"-71.1096528"},"from_stop":{"name":"origin","id":"5583","lat":"36.778261","lon":"-119.4179324","placename":"California, USA"}},{"transport_id":"2","id":"3333","transport_name":"truck, 16 tons","transport_description":"truck, half full","transport_unit":"kg km","transport_co2_eq":"0.020300","from_stop_id":"5593","from_stop_lat":"45.253783","from_stop_lon":"-69.4454689","to_stop_id":"1621","to_stop_name":"origin","to_stop_lat":"42.3726399","placename":"Maine, USA","to_stop_lon":"-71.1096528","to_stop":{"id":"1621","name":"origin","lat":"42.3726399","placename":"Cambridge, MA, USA","lon":"-71.1096528"},"from_stop":{"name":"origin","id":"5593","lat":"45.253783","lon":"-69.4454689","placename":"Maine, USA"}},{"transport_id":"2","id":"3412","transport_name":"truck, 16 tons","transport_description":"truck, half full","transport_unit":"kg km","transport_co2_eq":"0.020300","from_stop_id":"5672","from_stop_lat":"36.778261","from_stop_lon":"-119.4179324","to_stop_id":"1621","to_stop_name":"origin","to_stop_lat":"42.3726399","placename":"California, USA","to_stop_lon":"-71.1096528","to_stop":{"id":"1621","name":"origin","lat":"42.3726399","placename":"Cambridge, MA, USA","lon":"-71.1096528"},"from_stop":{"name":"origin","id":"5672","lat":"36.778261","lon":"-119.4179324","placename":"California, USA"}},{"transport_id":"17","id":"3362","transport_name":"None Selected","transport_description":null,"transport_unit":"kg km","transport_co2_eq":"0.000000","from_stop_id":"5622","from_stop_lat":"40.4172871","from_stop_lon":"-82.907123","to_stop_id":"1621","to_stop_name":"origin","to_stop_lat":"42.3726399","placename":"Ohio, USA","to_stop_lon":"-71.1096528","to_stop":{"id":"1621","name":"origin","lat":"42.3726399","placename":"Cambridge, MA, USA","lon":"-71.1096528"},"from_stop":{"name":"origin","id":"5622","lat":"40.4172871","lon":"-82.907123","placename":"Ohio, USA"}},{"transport_id":"17","id":"3335","transport_name":"None Selected","transport_description":null,"transport_unit":"kg km","transport_co2_eq":"0.000000","from_stop_id":"5595","from_stop_lat":"41.6032207","from_stop_lon":"-73.087749","to_stop_id":"1621","to_stop_name":"origin","to_stop_lat":"42.3726399","placename":"Connecticut, USA","to_stop_lon":"-71.1096528","to_stop":{"id":"1621","name":"origin","lat":"42.3726399","placename":"Cambridge, MA, USA","lon":"-71.1096528"},"from_stop":{"name":"origin","id":"5595","lat":"41.6032207","lon":"-73.087749","placename":"Connecticut, USA"}},{"transport_id":"17","id":"3336","transport_name":"None Selected","transport_description":null,"transport_unit":"kg km","transport_co2_eq":"0.000000","from_stop_id":"5596","from_stop_lat":"41.6032207","from_stop_lon":"-73.087749","to_stop_id":"1621","to_stop_name":"origin","to_stop_lat":"42.3726399","placename":"Connecticut, USA","to_stop_lon":"-71.1096528","to_stop":{"id":"1621","name":"origin","lat":"42.3726399","placename":"Cambridge, MA, USA","lon":"-71.1096528"},"from_stop":{"name":"origin","id":"5596","lat":"41.6032207","lon":"-73.087749","placename":"Connecticut, USA"}}],"outgoing":[]}}},"parts":[{"oid":"3775","imid":"3356","linkid":"","weight":"7.5","rawemissions":"1.95","emissions":"14.625","shipping":"18.99","processemissions":"0","endoflifeemissions":"0","disposaltype":null,"disposalenergy":null,"disposalimpact":null,"disposalemissions":null,"description":"<a href=\"http:\/\/www.cloverfoodlab.com\/?p=1848\">link<\/a>\n\n300 people served per day. 5 days a week, 100 breakfast, 1\/2 egg per breakfast, 200 lunch, 1\/2 egg per lunch, 1\/10 lb per egg, \n150\/10\/2","name":"Eggs","id":"3356","stops":{"origin":{"related_to":"3356","part_or_object":"p","notes":"","placename":"Bedford, USA","id":5309,"name":"origin","lat":"42.4905556","lon":"-71.2766667","hops":{"incoming":[],"outgoing":[{"transport_id":"2","id":"3049","transport_name":"truck, 16 tons","transport_description":"truck, half full","transport_unit":"kg km","transport_co2_eq":"0.020300","from_stop_id":"5309","from_stop_lat":"42.4905556","from_stop_lon":"-71.2766667","from_stop_placename":"Bedford, USA","to_stop_id":"1621","to_stop_name":"origin","to_stop_lat":"42.3726399","to_stop_lon":"-71.1096528","to_stop_placename":"Cambridge, MA, USA","to_stop":{"id":"1621","name":"origin","lat":"42.3726399","lon":"-71.1096528","placename":"Cambridge, MA, USA"},"from_stop":{"name":"origin","id":"5309","lat":"42.4905556","lon":"-71.2766667","placename":"Bedford, USA"}}]}}},"processes":[],"eols":[]},{"oid":"3775","imid":"3357","linkid":"","weight":"10","rawemissions":"6.31","emissions":"63.1","shipping":"72.25","processemissions":"0","endoflifeemissions":"0","disposaltype":null,"disposalenergy":null,"disposalimpact":null,"disposalemissions":null,"description":"<a href=\"http:\/\/www.cloverfoodlab.com\/?p=1925\">link<\/a>\n\n300 people served per day. 5 days a week, 100 breakfast, 1 cup of coffee per breakfast, 200 lunch, half of lunch eaters get 1 cup of coffee.\n200 cups of coffee total. 10 gr per cup. 200*10\/1000*5","name":"Coffee","id":"3357","stops":{"origin":{"related_to":"3357","part_or_object":"p","notes":"","placename":"Barrington, RI, USA","id":5310,"name":"origin","lat":"41.740657","lon":"-71.3086618","hops":{"incoming":[],"outgoing":[{"transport_id":"2","id":"3050","transport_name":"truck, 16 tons","transport_description":"truck, half full","transport_unit":"kg km","transport_co2_eq":"0.020300","from_stop_id":"5310","from_stop_lat":"41.740657","from_stop_lon":"-71.3086618","from_stop_placename":"Barrington, RI, USA","to_stop_id":"1621","to_stop_name":"origin","to_stop_lat":"42.3726399","to_stop_lon":"-71.1096528","to_stop_placename":"Cambridge, MA, USA","to_stop":{"id":"1621","name":"origin","lat":"42.3726399","lon":"-71.1096528","placename":"Cambridge, MA, USA"},"from_stop":{"name":"origin","id":"5310","lat":"41.740657","lon":"-71.3086618","placename":"Barrington, RI, USA"}}]}}},"processes":[],"eols":[]},{"oid":"3775","imid":"3358","linkid":"","weight":"37.5","rawemissions":"1.25","emissions":"46.875","shipping":"66.01","processemissions":"0","endoflifeemissions":"0","disposaltype":null,"disposalenergy":null,"disposalimpact":null,"disposalemissions":null,"description":"<a href=\"http:\/\/www.cloverfoodlab.com\/?p=1667\">link<\/a>\n\n300 people served per day. 5 days a week, 100 breakfast, 75 of them order an yogurt, 1\/4 lb per yogurt 75*1\/4*1\/2*5\n\nEmbodied CO2 estimated using milk(0.95 KG\/Unit)","name":"yogurt","id":"3358","stops":{"origin":{"related_to":"3358","part_or_object":"p","notes":"","placename":"Providence, RI, USA","id":5311,"name":"origin","lat":"41.8239891","lon":"-71.4128343","hops":{"incoming":[],"outgoing":[{"transport_id":"2","id":"3051","transport_name":"truck, 16 tons","transport_description":"truck, half full","transport_unit":"kg km","transport_co2_eq":"0.020300","from_stop_id":"5311","from_stop_lat":"41.8239891","from_stop_lon":"-71.4128343","from_stop_placename":"Providence, RI, USA","to_stop_id":"1621","to_stop_name":"origin","to_stop_lat":"42.3726399","to_stop_lon":"-71.1096528","to_stop_placename":"Cambridge, MA, USA","to_stop":{"id":"1621","name":"origin","lat":"42.3726399","lon":"-71.1096528","placename":"Cambridge, MA, USA"},"from_stop":{"name":"origin","id":"5311","lat":"41.8239891","lon":"-71.4128343","placename":"Providence, RI, USA"}}]}}},"processes":[],"eols":[]},{"oid":"3775","imid":"3360","linkid":"","weight":"281.25","rawemissions":"0.88","emissions":"247.5","shipping":"304.65","processemissions":"0","endoflifeemissions":"0","disposaltype":null,"disposalenergy":null,"disposalimpact":null,"disposalemissions":null,"description":"<a href=\"http:\/\/www.cloverfoodlab.com\/?p=1557\">link<\/a>\n\n300 people served per day. 5 days a week, 200 lunch, 1 bread per lunch, 1\/2 lb per bread, 100 breakfast, 25 bread during bread fast. 3\/4 lb per bread.  \n(200*1\/2 25*1\/2)*5*1\/2","name":"Bread","id":"3360","stops":{"origin":{"related_to":"3360","part_or_object":"p","notes":"","placename":"Brooklyn, NY, USA","id":5312,"name":"origin","lat":"40.65","lon":"-73.95","hops":{"incoming":[],"outgoing":[{"transport_id":"2","id":"3052","transport_name":"truck, 16 tons","transport_description":"truck, half full","transport_unit":"kg km","transport_co2_eq":"0.020300","from_stop_id":"5312","from_stop_lat":"40.65","from_stop_lon":"-73.95","from_stop_placename":"Brooklyn, NY, USA","to_stop_id":"1621","to_stop_name":"origin","to_stop_lat":"42.3726399","to_stop_lon":"-71.1096528","to_stop_placename":"Cambridge, MA, USA","to_stop":{"id":"1621","name":"origin","lat":"42.3726399","lon":"-71.1096528","placename":"Cambridge, MA, USA"},"from_stop":{"name":"origin","id":"5312","lat":"40.65","lon":"-73.95","placename":"Brooklyn, NY, USA"}}]}}},"processes":[],"eols":[]},{"oid":"3775","imid":"3361","linkid":"","weight":"47","rawemissions":"0.18","emissions":"8.46","shipping":"768.24","processemissions":"0","endoflifeemissions":"0","disposaltype":null,"disposalenergy":null,"disposalimpact":null,"disposalemissions":null,"description":"<a href=\"http:\/\/www.cloverfoodlab.com\/?p=1310\">link<\/a>\n\n300 people served per day. 5 days a week, 200 lunches, 75 of them order fries. 1\/4 lb per fry. = 75*1\/4*5","name":"Potatoes","id":"3361","stops":{"origin":{"related_to":"3361","part_or_object":"p","notes":"","placename":"Charlottetown, PE, Canada","id":5313,"name":"origin","lat":"46.247847","lon":"-63.12021","hops":{"incoming":[],"outgoing":[{"transport_id":"2","id":"3053","transport_name":"truck, 16 tons","transport_description":"truck, half full","transport_unit":"kg km","transport_co2_eq":"0.020300","from_stop_id":"5313","from_stop_lat":"46.247847","from_stop_lon":"-63.12021","from_stop_placename":"Charlottetown, PE, Canada","to_stop_id":"1621","to_stop_name":"origin","to_stop_lat":"42.3726399","to_stop_lon":"-71.1096528","to_stop_placename":"Cambridge, MA, USA","to_stop":{"id":"1621","name":"origin","lat":"42.3726399","lon":"-71.1096528","placename":"Cambridge, MA, USA"},"from_stop":{"name":"origin","id":"5313","lat":"46.247847","lon":"-63.12021","placename":"Charlottetown, PE, Canada"}}]}}},"processes":[],"eols":[]},{"oid":"3775","imid":"3362","linkid":"","weight":"2","rawemissions":"1","emissions":"2","shipping":"1811.18","processemissions":"0","endoflifeemissions":"0","disposaltype":null,"disposalenergy":null,"disposalimpact":null,"disposalemissions":null,"description":"estimate: ~2 kg of Oil per week\n\nEmbodied CO2 1 KG per unit","name":"Corn Oil","id":"3362","stops":{"origin":{"related_to":"3362","part_or_object":"p","notes":"","placename":"Iowa, USA","id":5314,"name":"origin","lat":"41.8780025","lon":"-93.097702","hops":{"incoming":[],"outgoing":[{"transport_id":"3","id":"3054","transport_name":"truck, 40 tons","transport_description":"truck, half full","transport_unit":"kg km","transport_co2_eq":"0.030900","from_stop_id":"5314","from_stop_lat":"41.8780025","from_stop_lon":"-93.097702","from_stop_placename":"Iowa, USA","to_stop_id":"1621","to_stop_name":"origin","to_stop_lat":"42.3726399","to_stop_lon":"-71.1096528","to_stop_placename":"Cambridge, MA, USA","to_stop":{"id":"1621","name":"origin","lat":"42.3726399","lon":"-71.1096528","placename":"Cambridge, MA, USA"},"from_stop":{"name":"origin","id":"5314","lat":"41.8780025","lon":"-93.097702","placename":"Iowa, USA"}}]}}},"processes":[],"eols":[]},{"oid":"3775","imid":"3363","linkid":"","weight":"37.5","rawemissions":"2.1","emissions":"78.75","shipping":"11315.42","processemissions":"0","endoflifeemissions":"0","disposaltype":null,"disposalenergy":null,"disposalimpact":null,"disposalemissions":null,"description":"Plastic Cups, Napkins, Forks, and plates\n\n300 people served per day. 5 days a week, 1 set of utensil per person, 1\/20 lb per utensil set, ","name":"Polystyrene Utensils","id":"3363","stops":{"origin":{"related_to":"3363","part_or_object":"p","notes":"","placename":"China","id":5582,"name":"origin","lat":"35.86166","lon":"104.195397","hops":{"incoming":[],"outgoing":[{"transport_id":"9","id":"3322","transport_name":"container ship","transport_description":"moving boxcar size containers","transport_unit":"kg km","transport_co2_eq":"0.047800","from_stop_id":"5582","from_stop_lat":"35.86166","from_stop_lon":"104.195397","from_stop_placename":"China","to_stop_id":"1621","to_stop_name":"origin","to_stop_lat":"42.3726399","to_stop_lon":"-71.1096528","to_stop_placename":"Cambridge, MA, USA","to_stop":{"id":"1621","name":"origin","lat":"42.3726399","lon":"-71.1096528","placename":"Cambridge, MA, USA"},"from_stop":{"name":"origin","id":"5582","lat":"35.86166","lon":"104.195397","placename":"China"}}]}}},"processes":[],"eols":[]},{"oid":"3775","imid":"3619","linkid":"","weight":"25","rawemissions":"0.62","emissions":"15.5","shipping":"4135.28","processemissions":"0","endoflifeemissions":"0","disposaltype":null,"disposalenergy":null,"disposalimpact":null,"disposalemissions":null,"description":"300 people served per day. 5 days a week, 200 lunch, 100 of them contain tofu, 1\/10 lb of tofu per serving. 100*1\/10*5\/2\n\nembodied CO2 from soy bean","name":"Tofu","id":"3619","stops":{"origin":{"related_to":"3619","part_or_object":"p","notes":"","placename":"California, USA","id":5583,"name":"origin","lat":"36.778261","lon":"-119.4179324","hops":{"incoming":[],"outgoing":[{"transport_id":"2","id":"3323","transport_name":"truck, 16 tons","transport_description":"truck, half full","transport_unit":"kg km","transport_co2_eq":"0.020300","from_stop_id":"5583","from_stop_lat":"36.778261","from_stop_lon":"-119.4179324","from_stop_placename":"California, USA","to_stop_id":"1621","to_stop_name":"origin","to_stop_lat":"42.3726399","to_stop_lon":"-71.1096528","to_stop_placename":"Cambridge, MA, USA","to_stop":{"id":"1621","name":"origin","lat":"42.3726399","lon":"-71.1096528","placename":"Cambridge, MA, USA"},"from_stop":{"name":"origin","id":"5583","lat":"36.778261","lon":"-119.4179324","placename":"California, USA"}}]}}},"processes":[],"eols":[]},{"oid":"3775","imid":"3355","linkid":"","weight":"125","rawemissions":"1.03","emissions":"128.75","shipping":"347.45","processemissions":"0","endoflifeemissions":"0","disposaltype":null,"disposalenergy":null,"disposalimpact":null,"disposalemissions":null,"description":"Based on a comment from a Clover Employee\n\n300 people served per day. 5 days a week, 200 lunch sandwich, 3\/4 lb per tomato, 1\/3 tomato per sandwich, 5*200*3\/4*1\/3\/2","name":"Tomatoes","id":"3355","stops":{"origin":{"related_to":"3355","part_or_object":"p","notes":"","placename":"Maine, USA","id":5593,"name":"origin","lat":"45.253783","lon":"-69.4454689","hops":{"incoming":[],"outgoing":[{"transport_id":"2","id":"3333","transport_name":"truck, 16 tons","transport_description":"truck, half full","transport_unit":"kg km","transport_co2_eq":"0.020300","from_stop_id":"5593","from_stop_lat":"45.253783","from_stop_lon":"-69.4454689","from_stop_placename":"Maine, USA","to_stop_id":"1621","to_stop_name":"origin","to_stop_lat":"42.3726399","to_stop_lon":"-71.1096528","to_stop_placename":"Cambridge, MA, USA","to_stop":{"id":"1621","name":"origin","lat":"42.3726399","lon":"-71.1096528","placename":"Cambridge, MA, USA"},"from_stop":{"name":"origin","id":"5593","lat":"45.253783","lon":"-69.4454689","placename":"Maine, USA"}}]}}},"processes":[],"eols":[]},{"oid":"3775","imid":"3634","linkid":"","weight":"37.5","rawemissions":"0.54","emissions":"20.25","shipping":"184.72","processemissions":"0","endoflifeemissions":"0","disposaltype":null,"disposalenergy":null,"disposalimpact":null,"disposalemissions":null,"description":"\n<a href=\"http:\/\/upload.wikimedia.org\/wikipedia\/en\/9\/97\/2005lettuce_and_chicory.PNG\">link<\/a>\n300 people served per day. 5 days a week, 200 lunch, 150 of them contain lettuce, 1\/10 lb of lettuce per serving. 150*1\/10*5\/2","name":"Lettuce","id":"3634","stops":{"origin":{"related_to":"3634","part_or_object":"p","notes":"","placename":"Connecticut, USA","id":5595,"name":"origin","lat":"41.6032207","lon":"-73.087749","hops":{"incoming":[],"outgoing":[{"transport_id":"17","id":"3335","transport_name":"None Selected","transport_description":null,"transport_unit":"kg km","transport_co2_eq":"0.000000","from_stop_id":"5595","from_stop_lat":"41.6032207","from_stop_lon":"-73.087749","from_stop_placename":"Connecticut, USA","to_stop_id":"1621","to_stop_name":"origin","to_stop_lat":"42.3726399","to_stop_lon":"-71.1096528","to_stop_placename":"Cambridge, MA, USA","to_stop":{"id":"1621","name":"origin","lat":"42.3726399","lon":"-71.1096528","placename":"Cambridge, MA, USA"},"from_stop":{"name":"origin","id":"5595","lat":"41.6032207","lon":"-73.087749","placename":"Connecticut, USA"}}]}}},"processes":[],"eols":[]},{"oid":"3775","imid":"3635","linkid":"","weight":"37.5","rawemissions":"0.41","emissions":"15.375","shipping":"184.72","processemissions":"0","endoflifeemissions":"0","disposaltype":null,"disposalenergy":null,"disposalimpact":null,"disposalemissions":null,"description":"300 people served per day. 5 days a week, 200 lunch, 150 of them contain carrot, 1\/10 lb of carrot per serving. 150*1\/10*5\/2","name":"Carrots","id":"3635","stops":{"origin":{"related_to":"3635","part_or_object":"p","notes":"","placename":"Connecticut, USA","id":5596,"name":"origin","lat":"41.6032207","lon":"-73.087749","hops":{"incoming":[],"outgoing":[{"transport_id":"17","id":"3336","transport_name":"None Selected","transport_description":null,"transport_unit":"kg km","transport_co2_eq":"0.000000","from_stop_id":"5596","from_stop_lat":"41.6032207","from_stop_lon":"-73.087749","from_stop_placename":"Connecticut, USA","to_stop_id":"1621","to_stop_name":"origin","to_stop_lat":"42.3726399","to_stop_lon":"-71.1096528","to_stop_placename":"Cambridge, MA, USA","to_stop":{"id":"1621","name":"origin","lat":"42.3726399","lon":"-71.1096528","placename":"Cambridge, MA, USA"},"from_stop":{"name":"origin","id":"5596","lat":"41.6032207","lon":"-73.087749","placename":"Connecticut, USA"}}]}}},"processes":[],"eols":[]},{"oid":"3775","imid":"3653","linkid":"","weight":"2","rawemissions":"3.6","emissions":"7.2","shipping":"1008.05","processemissions":"0","endoflifeemissions":"0","disposaltype":null,"disposalenergy":null,"disposalimpact":null,"disposalemissions":null,"description":"Everyone uses 18 inch by 1 ft of aluminum foil. 300 people a day, 5 days a week. 18 inch by 1500 ft.\n\n","name":"Aluminum Foil","id":"3653","stops":{"origin":{"related_to":"3653","part_or_object":"p","notes":"","placename":"Ohio, USA","id":5622,"name":"origin","lat":"40.4172871","lon":"-82.907123","hops":{"incoming":[],"outgoing":[{"transport_id":"17","id":"3362","transport_name":"None Selected","transport_description":null,"transport_unit":"kg km","transport_co2_eq":"0.000000","from_stop_id":"5622","from_stop_lat":"40.4172871","from_stop_lon":"-82.907123","from_stop_placename":"Ohio, USA","to_stop_id":"1621","to_stop_name":"origin","to_stop_lat":"42.3726399","to_stop_lon":"-71.1096528","to_stop_placename":"Cambridge, MA, USA","to_stop":{"id":"1621","name":"origin","lat":"42.3726399","lon":"-71.1096528","placename":"Cambridge, MA, USA"},"from_stop":{"name":"origin","id":"5622","lat":"40.4172871","lon":"-82.907123","placename":"Ohio, USA"}}]}}},"processes":[],"eols":[]},{"oid":"3775","imid":"3618","linkid":"","weight":"12.5","rawemissions":"1","emissions":"12.5","shipping":"4135.28","processemissions":"0","endoflifeemissions":"0","disposaltype":null,"disposalenergy":null,"disposalimpact":null,"disposalemissions":null,"description":"<a href=\"http:\/\/www.hort.purdue.edu\/newcrop\/afcm\/chickpea.html\">link<\/a>\n300 people served per day. 5 days a week, 100 people each chickpeas per day, 1\/20 lb of chickpea per person, 100*5*1\/20*1\/2\n\nEstimated embodied CO2 1KG per unit","name":"Chickpea","id":"3618","stops":{"origin":{"related_to":"3618","part_or_object":"p","notes":"","placename":"California, USA","id":5672,"name":"origin","lat":"36.778261","lon":"-119.4179324","hops":{"incoming":[],"outgoing":[{"transport_id":"2","id":"3412","transport_name":"truck, 16 tons","transport_description":"truck, half full","transport_unit":"kg km","transport_co2_eq":"0.020300","from_stop_id":"5672","from_stop_lat":"36.778261","from_stop_lon":"-119.4179324","from_stop_placename":"California, USA","to_stop_id":"1621","to_stop_name":"origin","to_stop_lat":"42.3726399","to_stop_lon":"-71.1096528","to_stop_placename":"Cambridge, MA, USA","to_stop":{"id":"1621","name":"origin","lat":"42.3726399","lon":"-71.1096528","placename":"Cambridge, MA, USA"},"from_stop":{"name":"origin","id":"5672","lat":"36.778261","lon":"-119.4179324","placename":"California, USA"}}]}}},"processes":[],"eols":[]}],"user":{"name":"geng_tan","id":"9044"}}}