{"3793":{"oid":"3793","type":"food","flag":"","creator":"9770","name":"prueba","upc":"","imagelink":"","description":"es un mapa de prueba","slug":"prueba","category":"","weight":"14","emissions":"184.92","embodied":"184.92","transport":"0","process":"0","endoflife":"0","shipping":"0","lifetime":null,"usagetype":"","usageenergy":null,"usageemissions":null,"timecreated":"2010-06-04 11:25:43.555934","timemodified":"2010-06-04 15:27:20","visibility":"public","showfootprint":"on","showembodied":"on","showtransport":"on","showprocess":"on","showendoflife":"on","showlastleg":"on","showuse":"on","showstats":"on","stops":{"origin":{"related_to":"3793","part_or_object":"o","notes":"","placename":"Mexico","id":"1557","category":"1","lat":"23.634501","lon":"-102.552784","name":"origin","hops":{"incoming":[{"transport_id":"3","id":"3122","transport_name":"truck, 40 tons","transport_description":"truck, half full","transport_unit":"kg km","transport_co2_eq":"0.030900","from_stop_id":"5382","from_stop_lat":"0","from_stop_lon":"0","to_stop_id":"1557","to_stop_name":"origin","to_stop_lat":"23.634501","placename":"Ingredient Source","to_stop_lon":"-102.552784","to_stop":{"id":"1557","name":"origin","lat":"23.634501","placename":"Mexico","lon":"-102.552784"},"from_stop":{"name":"origin","id":"5382","lat":"0","lon":"0","placename":"Ingredient Source"}},{"transport_id":"2","id":"3149","transport_name":"truck, 16 tons","transport_description":"truck, half full","transport_unit":"kg km","transport_co2_eq":"0.020300","from_stop_id":"5409","from_stop_lat":"0","from_stop_lon":"0","to_stop_id":"1557","to_stop_name":"origin","to_stop_lat":"23.634501","placename":"Ingredient Source","to_stop_lon":"-102.552784","to_stop":{"id":"1557","name":"origin","lat":"23.634501","placename":"Mexico","lon":"-102.552784"},"from_stop":{"name":"origin","id":"5409","lat":"0","lon":"0","placename":"Ingredient Source"}}],"outgoing":[]}}},"parts":[{"oid":"3793","imid":"3624","linkid":"parts\/avocados","weight":"10","rawemissions":"2.26","emissions":"22.6","shipping":"0","processemissions":"0","endoflifeemissions":"0","disposaltype":null,"disposalenergy":null,"disposalimpact":null,"disposalemissions":null,"description":"","name":"Avocados","id":"3624","stops":{"origin":{"related_to":"3624","part_or_object":"p","notes":"","placename":"Ingredient Source","id":5382,"name":"origin","lat":"0","lon":"0","hops":{"incoming":[],"outgoing":[{"transport_id":"3","id":"3122","transport_name":"truck, 40 tons","transport_description":"truck, half full","transport_unit":"kg km","transport_co2_eq":"0.030900","from_stop_id":"5382","from_stop_lat":"0","from_stop_lon":"0","from_stop_placename":"Ingredient Source","to_stop_id":"1557","to_stop_name":"origin","to_stop_lat":"23.634501","to_stop_lon":"-102.552784","to_stop_placename":"Mexico","to_stop":{"id":"1557","name":"origin","lat":"23.634501","lon":"-102.552784","placename":"Mexico"},"from_stop":{"name":"origin","id":"5382","lat":"0","lon":"0","placename":"Ingredient Source"}}]}}},"processes":[],"eols":[]},{"oid":"3793","imid":"3625","linkid":"parts\/hamburger-3","weight":"4","rawemissions":"40.58","emissions":"162.32","shipping":"0","processemissions":"0","endoflifeemissions":"0","disposaltype":null,"disposalenergy":null,"disposalimpact":null,"disposalemissions":null,"description":"","name":"Beef Burger","id":"3625","stops":{"origin":{"related_to":"3625","part_or_object":"p","notes":"","placename":"Ingredient Source","id":5409,"name":"origin","lat":"0","lon":"0","hops":{"incoming":[],"outgoing":[{"transport_id":"2","id":"3149","transport_name":"truck, 16 tons","transport_description":"truck, half full","transport_unit":"kg km","transport_co2_eq":"0.020300","from_stop_id":"5409","from_stop_lat":"0","from_stop_lon":"0","from_stop_placename":"Ingredient Source","to_stop_id":"1557","to_stop_name":"origin","to_stop_lat":"23.634501","to_stop_lon":"-102.552784","to_stop_placename":"Mexico","to_stop":{"id":"1557","name":"origin","lat":"23.634501","lon":"-102.552784","placename":"Mexico"},"from_stop":{"name":"origin","id":"5409","lat":"0","lon":"0","placename":"Ingredient Source"}}]}}},"processes":[],"eols":[]}],"user":{"name":"MARCOMORENO","id":"9770"}}}