{"3804":{"oid":"3804","type":"object","flag":"","creator":"9044","name":"Goosebeary Food Truck (Weekly Consumption)","upc":"","imagelink":"","description":"<a href=\"http:\/\/media1.px.yelpcdn.com\/bphoto\/jN906foK5avSRvNn7SnQ8w\/l\">Reference<\/a>\n","slug":"gooseberry-food-truck","category":"","weight":"440.5","emissions":"1105.96119165","embodied":"1035.415","transport":"70.546191651","process":"0","endoflife":"0","shipping":"36822.91","lifetime":null,"usagetype":"","usageenergy":null,"usageemissions":null,"timecreated":"2010-06-09 12:41:15.496824","timemodified":"2010-11-11 21:28:12","visibility":"private","showfootprint":"on","showembodied":"on","showtransport":"on","showprocess":"on","showendoflife":"on","showlastleg":"on","showuse":"on","showstats":"on","stops":{"origin":{"related_to":"3804","part_or_object":"o","notes":"","placename":"Cambridge, MA, USA","id":"2135","category":"1","lat":"42.3726399","lon":"-71.1096528","name":"origin","hops":{"incoming":[{"transport_id":"9","id":"3338","transport_name":"container ship","transport_description":"moving boxcar size containers","transport_unit":"kg km","transport_co2_eq":"0.047800","from_stop_id":"5598","from_stop_lat":"40.463667","from_stop_lon":"-3.74922","to_stop_id":"2135","to_stop_name":"origin","to_stop_lat":"42.3726399","placename":"Spain","to_stop_lon":"-71.1096528","to_stop":{"id":"2135","name":"origin","lat":"42.3726399","placename":"Cambridge, MA, USA","lon":"-71.1096528"},"from_stop":{"name":"origin","id":"5598","lat":"40.463667","lon":"-3.74922","placename":"Spain"}},{"transport_id":"2","id":"3339","transport_name":"truck, 16 tons","transport_description":"truck, half full","transport_unit":"kg km","transport_co2_eq":"0.020300","from_stop_id":"5599","from_stop_lat":"38.9108325","from_stop_lon":"-75.5276699","to_stop_id":"2135","to_stop_name":"origin","to_stop_lat":"42.3726399","placename":"Delaware, USA","to_stop_lon":"-71.1096528","to_stop":{"id":"2135","name":"origin","lat":"42.3726399","placename":"Cambridge, MA, USA","lon":"-71.1096528"},"from_stop":{"name":"origin","id":"5599","lat":"38.9108325","lon":"-75.5276699","placename":"Delaware, USA"}},{"transport_id":"2","id":"3340","transport_name":"truck, 16 tons","transport_description":"truck, half full","transport_unit":"kg km","transport_co2_eq":"0.020300","from_stop_id":"5600","from_stop_lat":"36.778261","from_stop_lon":"-119.4179324","to_stop_id":"2135","to_stop_name":"origin","to_stop_lat":"42.3726399","placename":"California, USA","to_stop_lon":"-71.1096528","to_stop":{"id":"2135","name":"origin","lat":"42.3726399","placename":"Cambridge, MA, USA","lon":"-71.1096528"},"from_stop":{"name":"origin","id":"5600","lat":"36.778261","lon":"-119.4179324","placename":"California, USA"}},{"transport_id":"2","id":"3341","transport_name":"truck, 16 tons","transport_description":"truck, half full","transport_unit":"kg km","transport_co2_eq":"0.020300","from_stop_id":"5601","from_stop_lat":"27.6648274","from_stop_lon":"-81.5157535","to_stop_id":"2135","to_stop_name":"origin","to_stop_lat":"42.3726399","placename":"Florida, USA","to_stop_lon":"-71.1096528","to_stop":{"id":"2135","name":"origin","lat":"42.3726399","placename":"Cambridge, MA, USA","lon":"-71.1096528"},"from_stop":{"name":"origin","id":"5601","lat":"27.6648274","lon":"-81.5157535","placename":"Florida, USA"}},{"transport_id":"3","id":"3342","transport_name":"truck, 40 tons","transport_description":"truck, half full","transport_unit":"kg km","transport_co2_eq":"0.030900","from_stop_id":"5602","from_stop_lat":"36.778261","from_stop_lon":"-119.4179324","to_stop_id":"2135","to_stop_name":"origin","to_stop_lat":"42.3726399","placename":"California, USA","to_stop_lon":"-71.1096528","to_stop":{"id":"2135","name":"origin","lat":"42.3726399","placename":"Cambridge, MA, USA","lon":"-71.1096528"},"from_stop":{"name":"origin","id":"5602","lat":"36.778261","lon":"-119.4179324","placename":"California, USA"}},{"transport_id":"2","id":"3343","transport_name":"truck, 16 tons","transport_description":"truck, half full","transport_unit":"kg km","transport_co2_eq":"0.020300","from_stop_id":"5603","from_stop_lat":"36.778261","from_stop_lon":"-119.4179324","to_stop_id":"2135","to_stop_name":"origin","to_stop_lat":"42.3726399","placename":"California, USA","to_stop_lon":"-71.1096528","to_stop":{"id":"2135","name":"origin","lat":"42.3726399","placename":"Cambridge, MA, USA","lon":"-71.1096528"},"from_stop":{"name":"origin","id":"5603","lat":"36.778261","lon":"-119.4179324","placename":"California, USA"}},{"transport_id":"2","id":"3344","transport_name":"truck, 16 tons","transport_description":"truck, half full","transport_unit":"kg km","transport_co2_eq":"0.020300","from_stop_id":"5604","from_stop_lat":"45.253783","from_stop_lon":"-69.4454689","to_stop_id":"2135","to_stop_name":"origin","to_stop_lat":"42.3726399","placename":"Maine, USA","to_stop_lon":"-71.1096528","to_stop":{"id":"2135","name":"origin","lat":"42.3726399","placename":"Cambridge, MA, USA","lon":"-71.1096528"},"from_stop":{"name":"origin","id":"5604","lat":"45.253783","lon":"-69.4454689","placename":"Maine, USA"}},{"transport_id":"2","id":"3345","transport_name":"truck, 16 tons","transport_description":"truck, half full","transport_unit":"kg km","transport_co2_eq":"0.020300","from_stop_id":"5605","from_stop_lat":"42.4072107","from_stop_lon":"-71.3824374","to_stop_id":"2135","to_stop_name":"origin","to_stop_lat":"42.3726399","placename":"Massachusetts, USA","to_stop_lon":"-71.1096528","to_stop":{"id":"2135","name":"origin","lat":"42.3726399","placename":"Cambridge, MA, USA","lon":"-71.1096528"},"from_stop":{"name":"origin","id":"5605","lat":"42.4072107","lon":"-71.3824374","placename":"Massachusetts, USA"}},{"transport_id":"2","id":"3346","transport_name":"truck, 16 tons","transport_description":"truck, half full","transport_unit":"kg km","transport_co2_eq":"0.020300","from_stop_id":"5606","from_stop_lat":"42.4072107","from_stop_lon":"-71.3824374","to_stop_id":"2135","to_stop_name":"origin","to_stop_lat":"42.3726399","placename":"Massachusetts, USA","to_stop_lon":"-71.1096528","to_stop":{"id":"2135","name":"origin","lat":"42.3726399","placename":"Cambridge, MA, USA","lon":"-71.1096528"},"from_stop":{"name":"origin","id":"5606","lat":"42.4072107","lon":"-71.3824374","placename":"Massachusetts, USA"}},{"transport_id":"2","id":"3347","transport_name":"truck, 16 tons","transport_description":"truck, half full","transport_unit":"kg km","transport_co2_eq":"0.020300","from_stop_id":"5607","from_stop_lat":"42.4072107","from_stop_lon":"-71.3824374","to_stop_id":"2135","to_stop_name":"origin","to_stop_lat":"42.3726399","placename":"Massachusetts, USA","to_stop_lon":"-71.1096528","to_stop":{"id":"2135","name":"origin","lat":"42.3726399","placename":"Cambridge, MA, USA","lon":"-71.1096528"},"from_stop":{"name":"origin","id":"5607","lat":"42.4072107","lon":"-71.3824374","placename":"Massachusetts, USA"}},{"transport_id":"9","id":"3348","transport_name":"container ship","transport_description":"moving boxcar size containers","transport_unit":"kg km","transport_co2_eq":"0.047800","from_stop_id":"5608","from_stop_lat":"35.86166","from_stop_lon":"104.195397","to_stop_id":"2135","to_stop_name":"origin","to_stop_lat":"42.3726399","placename":"China","to_stop_lon":"-71.1096528","to_stop":{"id":"2135","name":"origin","lat":"42.3726399","placename":"Cambridge, MA, USA","lon":"-71.1096528"},"from_stop":{"name":"origin","id":"5608","lat":"35.86166","lon":"104.195397","placename":"China"}},{"transport_id":"2","id":"3368","transport_name":"truck, 16 tons","transport_description":"truck, half full","transport_unit":"kg km","transport_co2_eq":"0.020300","from_stop_id":"5628","from_stop_lat":"45.253783","from_stop_lon":"-69.4454689","to_stop_id":"2135","to_stop_name":"origin","to_stop_lat":"42.3726399","placename":"Maine, USA","to_stop_lon":"-71.1096528","to_stop":{"id":"2135","name":"origin","lat":"42.3726399","placename":"Cambridge, MA, USA","lon":"-71.1096528"},"from_stop":{"name":"origin","id":"5628","lat":"45.253783","lon":"-69.4454689","placename":"Maine, USA"}},{"transport_id":"2","id":"3371","transport_name":"truck, 16 tons","transport_description":"truck, half full","transport_unit":"kg km","transport_co2_eq":"0.020300","from_stop_id":"5631","from_stop_lat":"36.778261","from_stop_lon":"-119.4179324","to_stop_id":"2135","to_stop_name":"origin","to_stop_lat":"42.3726399","placename":"California, USA","to_stop_lon":"-71.1096528","to_stop":{"id":"2135","name":"origin","lat":"42.3726399","placename":"Cambridge, MA, USA","lon":"-71.1096528"},"from_stop":{"name":"origin","id":"5631","lat":"36.778261","lon":"-119.4179324","placename":"California, USA"}},{"transport_id":"17","id":"3369","transport_name":"None Selected","transport_description":null,"transport_unit":"kg km","transport_co2_eq":"0.000000","from_stop_id":"5629","from_stop_lat":"0","from_stop_lon":"0","to_stop_id":"2135","to_stop_name":"origin","to_stop_lat":"42.3726399","placename":"Part Location","to_stop_lon":"-71.1096528","to_stop":{"id":"2135","name":"origin","lat":"42.3726399","placename":"Cambridge, MA, USA","lon":"-71.1096528"},"from_stop":{"name":"origin","id":"5629","lat":"0","lon":"0","placename":"Part Location"}},{"transport_id":"17","id":"3370","transport_name":"None Selected","transport_description":null,"transport_unit":"kg km","transport_co2_eq":"0.000000","from_stop_id":"5630","from_stop_lat":"40.7142691","from_stop_lon":"-74.0059729","to_stop_id":"2135","to_stop_name":"origin","to_stop_lat":"42.3726399","placename":"New York, NY, USA","to_stop_lon":"-71.1096528","to_stop":{"id":"2135","name":"origin","lat":"42.3726399","placename":"Cambridge, MA, USA","lon":"-71.1096528"},"from_stop":{"name":"origin","id":"5630","lat":"40.7142691","lon":"-74.0059729","placename":"New York, NY, USA"}}],"outgoing":[]}}},"parts":[{"oid":"3804","imid":"3637","linkid":"0","weight":"187.5","rawemissions":"2.06","emissions":"386.25","shipping":"5474.3","processemissions":"0","endoflifeemissions":"0","disposaltype":null,"disposalenergy":null,"disposalimpact":null,"disposalemissions":null,"description":"200 lunch per day, 5 days a week, 150 of them have rice, 1\/2 lb of rice per serving, 150*5*1\/2\/2","name":"Rice","id":"3637","stops":{"origin":{"related_to":"3637","part_or_object":"p","notes":"","placename":"Spain","id":5598,"name":"origin","lat":"40.463667","lon":"-3.74922","hops":{"incoming":[],"outgoing":[{"transport_id":"9","id":"3338","transport_name":"container ship","transport_description":"moving boxcar size containers","transport_unit":"kg km","transport_co2_eq":"0.047800","from_stop_id":"5598","from_stop_lat":"40.463667","from_stop_lon":"-3.74922","from_stop_placename":"Spain","to_stop_id":"2135","to_stop_name":"origin","to_stop_lat":"42.3726399","to_stop_lon":"-71.1096528","to_stop_placename":"Cambridge, MA, USA","to_stop":{"id":"2135","name":"origin","lat":"42.3726399","lon":"-71.1096528","placename":"Cambridge, MA, USA"},"from_stop":{"name":"origin","id":"5598","lat":"40.463667","lon":"-3.74922","placename":"Spain"}}]}}},"processes":[],"eols":[]},{"oid":"3804","imid":"3638","linkid":"0","weight":"62.5","rawemissions":"3.5","emissions":"218.75","shipping":"536.29","processemissions":"0","endoflifeemissions":"0","disposaltype":null,"disposalenergy":null,"disposalimpact":null,"disposalemissions":null,"description":"200 lunch per day, 5 days a week, 100 of them have rice, 1\/4 lb of chicken per serving, 100*5*1\/4\/2","name":"Chicken","id":"3638","stops":{"origin":{"related_to":"3638","part_or_object":"p","notes":"","placename":"Delaware, USA","id":5599,"name":"origin","lat":"38.9108325","lon":"-75.5276699","hops":{"incoming":[],"outgoing":[{"transport_id":"2","id":"3339","transport_name":"truck, 16 tons","transport_description":"truck, half full","transport_unit":"kg km","transport_co2_eq":"0.020300","from_stop_id":"5599","from_stop_lat":"38.9108325","from_stop_lon":"-75.5276699","from_stop_placename":"Delaware, USA","to_stop_id":"2135","to_stop_name":"origin","to_stop_lat":"42.3726399","to_stop_lon":"-71.1096528","to_stop_placename":"Cambridge, MA, USA","to_stop":{"id":"2135","name":"origin","lat":"42.3726399","lon":"-71.1096528","placename":"Cambridge, MA, USA"},"from_stop":{"name":"origin","id":"5599","lat":"38.9108325","lon":"-75.5276699","placename":"Delaware, USA"}}]}}},"processes":[],"eols":[]},{"oid":"3804","imid":"3639","linkid":"0","weight":"12.5","rawemissions":"0.91","emissions":"11.375","shipping":"4135.28","processemissions":"0","endoflifeemissions":"0","disposaltype":null,"disposalenergy":null,"disposalimpact":null,"disposalemissions":null,"description":"200 lunch per day, 5 days a week, 100 of them have broccoli, 1\/20 lb of broccoli per serving, 100*5*1\/10\/2","name":"Broccoli","id":"3639","stops":{"origin":{"related_to":"3639","part_or_object":"p","notes":"","placename":"California, USA","id":5600,"name":"origin","lat":"36.778261","lon":"-119.4179324","hops":{"incoming":[],"outgoing":[{"transport_id":"2","id":"3340","transport_name":"truck, 16 tons","transport_description":"truck, half full","transport_unit":"kg km","transport_co2_eq":"0.020300","from_stop_id":"5600","from_stop_lat":"36.778261","from_stop_lon":"-119.4179324","from_stop_placename":"California, USA","to_stop_id":"2135","to_stop_name":"origin","to_stop_lat":"42.3726399","to_stop_lon":"-71.1096528","to_stop_placename":"Cambridge, MA, USA","to_stop":{"id":"2135","name":"origin","lat":"42.3726399","lon":"-71.1096528","placename":"Cambridge, MA, USA"},"from_stop":{"name":"origin","id":"5600","lat":"36.778261","lon":"-119.4179324","placename":"California, USA"}}]}}},"processes":[],"eols":[]},{"oid":"3804","imid":"3640","linkid":"0","weight":"25","rawemissions":"0.74","emissions":"18.5","shipping":"1888.8","processemissions":"0","endoflifeemissions":"0","disposaltype":null,"disposalenergy":null,"disposalimpact":null,"disposalemissions":null,"description":"200 lunch per day, 5 days a week, 50 of them have eggplant, 1\/5 lb of broccoli per serving, 50*5*1\/5\/2","name":"Eggplant","id":"3640","stops":{"origin":{"related_to":"3640","part_or_object":"p","notes":"","placename":"Florida, USA","id":5601,"name":"origin","lat":"27.6648274","lon":"-81.5157535","hops":{"incoming":[],"outgoing":[{"transport_id":"2","id":"3341","transport_name":"truck, 16 tons","transport_description":"truck, half full","transport_unit":"kg km","transport_co2_eq":"0.020300","from_stop_id":"5601","from_stop_lat":"27.6648274","from_stop_lon":"-81.5157535","from_stop_placename":"Florida, USA","to_stop_id":"2135","to_stop_name":"origin","to_stop_lat":"42.3726399","to_stop_lon":"-71.1096528","to_stop_placename":"Cambridge, MA, USA","to_stop":{"id":"2135","name":"origin","lat":"42.3726399","lon":"-71.1096528","placename":"Cambridge, MA, USA"},"from_stop":{"name":"origin","id":"5601","lat":"27.6648274","lon":"-81.5157535","placename":"Florida, USA"}}]}}},"processes":[],"eols":[]},{"oid":"3804","imid":"3641","linkid":"0","weight":"18","rawemissions":"0.98","emissions":"17.64","shipping":"4135.28","processemissions":"0","endoflifeemissions":"0","disposaltype":null,"disposalenergy":null,"disposalimpact":null,"disposalemissions":null,"description":"200 lunch per day, 5 days a week, 150 of them have Cauliflower, 1\/20 lb of Cauliflower per serving, 150*5*1\/10\/2","name":"Cauliflower","id":"3641","stops":{"origin":{"related_to":"3641","part_or_object":"p","notes":"","placename":"California, USA","id":5602,"name":"origin","lat":"36.778261","lon":"-119.4179324","hops":{"incoming":[],"outgoing":[{"transport_id":"3","id":"3342","transport_name":"truck, 40 tons","transport_description":"truck, half full","transport_unit":"kg km","transport_co2_eq":"0.030900","from_stop_id":"5602","from_stop_lat":"36.778261","from_stop_lon":"-119.4179324","from_stop_placename":"California, USA","to_stop_id":"2135","to_stop_name":"origin","to_stop_lat":"42.3726399","to_stop_lon":"-71.1096528","to_stop_placename":"Cambridge, MA, USA","to_stop":{"id":"2135","name":"origin","lat":"42.3726399","lon":"-71.1096528","placename":"Cambridge, MA, USA"},"from_stop":{"name":"origin","id":"5602","lat":"36.778261","lon":"-119.4179324","placename":"California, USA"}}]}}},"processes":[],"eols":[]},{"oid":"3804","imid":"3642","linkid":"0","weight":"12.5","rawemissions":"0.47","emissions":"5.875","shipping":"4135.28","processemissions":"0","endoflifeemissions":"0","disposaltype":null,"disposalenergy":null,"disposalimpact":null,"disposalemissions":null,"description":"200 lunch per day, 5 days a week, 100 of them have celery, 1\/20 lb of celery per serving, 100*5*1\/20\/2\n\n","name":"Celery","id":"3642","stops":{"origin":{"related_to":"3642","part_or_object":"p","notes":"","placename":"California, USA","id":5603,"name":"origin","lat":"36.778261","lon":"-119.4179324","hops":{"incoming":[],"outgoing":[{"transport_id":"2","id":"3343","transport_name":"truck, 16 tons","transport_description":"truck, half full","transport_unit":"kg km","transport_co2_eq":"0.020300","from_stop_id":"5603","from_stop_lat":"36.778261","from_stop_lon":"-119.4179324","from_stop_placename":"California, USA","to_stop_id":"2135","to_stop_name":"origin","to_stop_lat":"42.3726399","to_stop_lon":"-71.1096528","to_stop_placename":"Cambridge, MA, USA","to_stop":{"id":"2135","name":"origin","lat":"42.3726399","lon":"-71.1096528","placename":"Cambridge, MA, USA"},"from_stop":{"name":"origin","id":"5603","lat":"36.778261","lon":"-119.4179324","placename":"California, USA"}}]}}},"processes":[],"eols":[]},{"oid":"3804","imid":"3643","linkid":"0","weight":"12.5","rawemissions":"1","emissions":"12.5","shipping":"347.45","processemissions":"0","endoflifeemissions":"0","disposaltype":null,"disposalenergy":null,"disposalimpact":null,"disposalemissions":null,"description":"200 lunch per day, 5 days a week, 25 of them have salmon, 1\/5 lb of salmon per serving, 25*5*1\/5\/2\n\nestimated embodied co2 1kg\/unit","name":"Salmon","id":"3643","stops":{"origin":{"related_to":"3643","part_or_object":"p","notes":"","placename":"Maine, USA","id":5604,"name":"origin","lat":"45.253783","lon":"-69.4454689","hops":{"incoming":[],"outgoing":[{"transport_id":"2","id":"3344","transport_name":"truck, 16 tons","transport_description":"truck, half full","transport_unit":"kg km","transport_co2_eq":"0.020300","from_stop_id":"5604","from_stop_lat":"45.253783","from_stop_lon":"-69.4454689","from_stop_placename":"Maine, USA","to_stop_id":"2135","to_stop_name":"origin","to_stop_lat":"42.3726399","to_stop_lon":"-71.1096528","to_stop_placename":"Cambridge, MA, USA","to_stop":{"id":"2135","name":"origin","lat":"42.3726399","lon":"-71.1096528","placename":"Cambridge, MA, USA"},"from_stop":{"name":"origin","id":"5604","lat":"45.253783","lon":"-69.4454689","placename":"Maine, USA"}}]}}},"processes":[],"eols":[]},{"oid":"3804","imid":"3644","linkid":"","weight":"12.5","rawemissions":"1","emissions":"12.5","shipping":"22.76","processemissions":"0","endoflifeemissions":"0","disposaltype":null,"disposalenergy":null,"disposalimpact":null,"disposalemissions":null,"description":"200 lunch per day, 5 days a week, 25 of them have scallops, 1\/5 lb of scallops per serving, 25*5*1\/5\/2\n\nestimated embodied co2 1kg\/unit","name":"Scallops","id":"3644","stops":{"origin":{"related_to":"3644","part_or_object":"p","notes":"","placename":"Massachusetts, USA","id":5605,"name":"origin","lat":"42.4072107","lon":"-71.3824374","hops":{"incoming":[],"outgoing":[{"transport_id":"2","id":"3345","transport_name":"truck, 16 tons","transport_description":"truck, half full","transport_unit":"kg km","transport_co2_eq":"0.020300","from_stop_id":"5605","from_stop_lat":"42.4072107","from_stop_lon":"-71.3824374","from_stop_placename":"Massachusetts, USA","to_stop_id":"2135","to_stop_name":"origin","to_stop_lat":"42.3726399","to_stop_lon":"-71.1096528","to_stop_placename":"Cambridge, MA, USA","to_stop":{"id":"2135","name":"origin","lat":"42.3726399","lon":"-71.1096528","placename":"Cambridge, MA, USA"},"from_stop":{"name":"origin","id":"5605","lat":"42.4072107","lon":"-71.3824374","placename":"Massachusetts, USA"}}]}}},"processes":[],"eols":[]},{"oid":"3804","imid":"3645","linkid":"","weight":"12.5","rawemissions":"1","emissions":"12.5","shipping":"22.76","processemissions":"0","endoflifeemissions":"0","disposaltype":null,"disposalenergy":null,"disposalimpact":null,"disposalemissions":null,"description":"200 lunch per day, 5 days a week, 25 of them have haddock, 1\/5 lb of haddock per serving, 25*5*1\/5\/2\n\nestimated embodied co2 1kg\/unit","name":"Haddock","id":"3645","stops":{"origin":{"related_to":"3645","part_or_object":"p","notes":"","placename":"Massachusetts, USA","id":5606,"name":"origin","lat":"42.4072107","lon":"-71.3824374","hops":{"incoming":[],"outgoing":[{"transport_id":"2","id":"3346","transport_name":"truck, 16 tons","transport_description":"truck, half full","transport_unit":"kg km","transport_co2_eq":"0.020300","from_stop_id":"5606","from_stop_lat":"42.4072107","from_stop_lon":"-71.3824374","from_stop_placename":"Massachusetts, USA","to_stop_id":"2135","to_stop_name":"origin","to_stop_lat":"42.3726399","to_stop_lon":"-71.1096528","to_stop_placename":"Cambridge, MA, USA","to_stop":{"id":"2135","name":"origin","lat":"42.3726399","lon":"-71.1096528","placename":"Cambridge, MA, USA"},"from_stop":{"name":"origin","id":"5606","lat":"42.4072107","lon":"-71.3824374","placename":"Massachusetts, USA"}}]}}},"processes":[],"eols":[]},{"oid":"3804","imid":"3646","linkid":"","weight":"7.5","rawemissions":"0.5","emissions":"3.75","shipping":"22.76","processemissions":"0","endoflifeemissions":"0","disposaltype":null,"disposalenergy":null,"disposalimpact":null,"disposalemissions":null,"description":"200 lunch per day, 5 days a week, 150 of them have basil, 1\/50 lb of basil per serving, 150*5*1\/50\/2\n\nEstimated embodied CO2 at 0.5 kn\/unit","name":"Basil","id":"3646","stops":{"origin":{"related_to":"3646","part_or_object":"p","notes":"","placename":"Massachusetts, USA","id":5607,"name":"origin","lat":"42.4072107","lon":"-71.3824374","hops":{"incoming":[],"outgoing":[{"transport_id":"2","id":"3347","transport_name":"truck, 16 tons","transport_description":"truck, half full","transport_unit":"kg km","transport_co2_eq":"0.020300","from_stop_id":"5607","from_stop_lat":"42.4072107","from_stop_lon":"-71.3824374","from_stop_placename":"Massachusetts, USA","to_stop_id":"2135","to_stop_name":"origin","to_stop_lat":"42.3726399","to_stop_lon":"-71.1096528","to_stop_placename":"Cambridge, MA, USA","to_stop":{"id":"2135","name":"origin","lat":"42.3726399","lon":"-71.1096528","placename":"Cambridge, MA, USA"},"from_stop":{"name":"origin","id":"5607","lat":"42.4072107","lon":"-71.3824374","placename":"Massachusetts, USA"}}]}}},"processes":[],"eols":[]},{"oid":"3804","imid":"3647","linkid":"","weight":"25","rawemissions":"2.1","emissions":"52.5","shipping":"11315.42","processemissions":"0","endoflifeemissions":"0","disposaltype":null,"disposalenergy":null,"disposalimpact":null,"disposalemissions":null,"description":"Plastic Cups, Napkins, Forks, and plates 200 lunches served per day. 5 days a week, 1 set of utensil per person, 1\/20 lb per utensil set,","name":"Polystyrene Utensils","id":"3647","stops":{"origin":{"related_to":"3647","part_or_object":"p","notes":"","placename":"China","id":5608,"name":"origin","lat":"35.86166","lon":"104.195397","hops":{"incoming":[],"outgoing":[{"transport_id":"9","id":"3348","transport_name":"container ship","transport_description":"moving boxcar size containers","transport_unit":"kg km","transport_co2_eq":"0.047800","from_stop_id":"5608","from_stop_lat":"35.86166","from_stop_lon":"104.195397","from_stop_placename":"China","to_stop_id":"2135","to_stop_name":"origin","to_stop_lat":"42.3726399","to_stop_lon":"-71.1096528","to_stop_placename":"Cambridge, MA, USA","to_stop":{"id":"2135","name":"origin","lat":"42.3726399","lon":"-71.1096528","placename":"Cambridge, MA, USA"},"from_stop":{"name":"origin","id":"5608","lat":"35.86166","lon":"104.195397","placename":"China"}}]}}},"processes":[],"eols":[]},{"oid":"3804","imid":"3659","linkid":"parts\/beef-grain-fed","weight":"20","rawemissions":"13.3","emissions":"266","shipping":"347.45","processemissions":"0","endoflifeemissions":"0","disposaltype":null,"disposalenergy":null,"disposalimpact":null,"disposalemissions":null,"description":"<a href=\"http:\/\/www.northeastlivestockexpo.com\/beef\/index.html\">Reference<\/a>\n200 lunch per day, 5 days a week, 40 of them have beef, 1\/5 lb of beef per serving, 40*5*1\/5\/2\n","name":"Beef, Grain-fed","id":"3659","stops":{"origin":{"related_to":"3659","part_or_object":"p","notes":"","placename":"Maine, USA","id":5628,"name":"origin","lat":"45.253783","lon":"-69.4454689","hops":{"incoming":[],"outgoing":[{"transport_id":"2","id":"3368","transport_name":"truck, 16 tons","transport_description":"truck, half full","transport_unit":"kg km","transport_co2_eq":"0.020300","from_stop_id":"5628","from_stop_lat":"45.253783","from_stop_lon":"-69.4454689","from_stop_placename":"Maine, USA","to_stop_id":"2135","to_stop_name":"origin","to_stop_lat":"42.3726399","to_stop_lon":"-71.1096528","to_stop_placename":"Cambridge, MA, USA","to_stop":{"id":"2135","name":"origin","lat":"42.3726399","lon":"-71.1096528","placename":"Cambridge, MA, USA"},"from_stop":{"name":"origin","id":"5628","lat":"45.253783","lon":"-69.4454689","placename":"Maine, USA"}}]}}},"processes":[],"eols":[]},{"oid":"3804","imid":"3660","linkid":"parts\/carrots","weight":"0","rawemissions":"0.41","emissions":"0","shipping":"0","processemissions":"0","endoflifeemissions":"0","disposaltype":null,"disposalenergy":null,"disposalimpact":null,"disposalemissions":null,"description":"","name":"Carrots","id":"3660","stops":{"origin":{"related_to":"3660","part_or_object":"p","notes":"","placename":"Part Location","id":5629,"name":"origin","lat":"0","lon":"0","hops":{"incoming":[],"outgoing":[{"transport_id":"17","id":"3369","transport_name":"None Selected","transport_description":null,"transport_unit":"kg km","transport_co2_eq":"0.000000","from_stop_id":"5629","from_stop_lat":"0","from_stop_lon":"0","from_stop_placename":"Part Location","to_stop_id":"2135","to_stop_name":"origin","to_stop_lat":"42.3726399","to_stop_lon":"-71.1096528","to_stop_placename":"Cambridge, MA, USA","to_stop":{"id":"2135","name":"origin","lat":"42.3726399","lon":"-71.1096528","placename":"Cambridge, MA, USA"},"from_stop":{"name":"origin","id":"5629","lat":"0","lon":"0","placename":"Part Location"}}]}}},"processes":[],"eols":[]},{"oid":"3804","imid":"3661","linkid":"parts\/onions","weight":"12.5","rawemissions":"0.39","emissions":"4.875","shipping":"303.8","processemissions":"0","endoflifeemissions":"0","disposaltype":null,"disposalenergy":null,"disposalimpact":null,"disposalemissions":null,"description":"\n<a href=\"http:\/\/www.hort.purdue.edu\/rhodcv\/hort410\/onions\/on00002.htm\">Reference<\/a>\n200 lunch served per day. 5 days a week, 100 of them contain onions, 1\/20 lb of onion per serving. 100*1\/20*5\/2","name":"Onions","id":"3661","stops":{"origin":{"related_to":"3661","part_or_object":"p","notes":"","placename":"New York, NY, USA","id":5630,"name":"origin","lat":"40.7142691","lon":"-74.0059729","hops":{"incoming":[],"outgoing":[{"transport_id":"17","id":"3370","transport_name":"None Selected","transport_description":null,"transport_unit":"kg km","transport_co2_eq":"0.000000","from_stop_id":"5630","from_stop_lat":"40.7142691","from_stop_lon":"-74.0059729","from_stop_placename":"New York, NY, USA","to_stop_id":"2135","to_stop_name":"origin","to_stop_lat":"42.3726399","to_stop_lon":"-71.1096528","to_stop_placename":"Cambridge, MA, USA","to_stop":{"id":"2135","name":"origin","lat":"42.3726399","lon":"-71.1096528","placename":"Cambridge, MA, USA"},"from_stop":{"name":"origin","id":"5630","lat":"40.7142691","lon":"-74.0059729","placename":"New York, NY, USA"}}]}}},"processes":[],"eols":[]},{"oid":"3804","imid":"3662","linkid":"","weight":"20","rawemissions":"0.62","emissions":"12.4","shipping":"4135.28","processemissions":"0","endoflifeemissions":"0","disposaltype":null,"disposalenergy":null,"disposalimpact":null,"disposalemissions":null,"description":"200 lunch served per day. 5 days a week, 40 of them contain tofu, 1\/5 lb of onion per serving. 40*1\/5*5\/2","name":"Tofu","id":"3662","stops":{"origin":{"related_to":"3662","part_or_object":"p","notes":"","placename":"California, USA","id":5631,"name":"origin","lat":"36.778261","lon":"-119.4179324","hops":{"incoming":[],"outgoing":[{"transport_id":"2","id":"3371","transport_name":"truck, 16 tons","transport_description":"truck, half full","transport_unit":"kg km","transport_co2_eq":"0.020300","from_stop_id":"5631","from_stop_lat":"36.778261","from_stop_lon":"-119.4179324","from_stop_placename":"California, USA","to_stop_id":"2135","to_stop_name":"origin","to_stop_lat":"42.3726399","to_stop_lon":"-71.1096528","to_stop_placename":"Cambridge, MA, USA","to_stop":{"id":"2135","name":"origin","lat":"42.3726399","lon":"-71.1096528","placename":"Cambridge, MA, USA"},"from_stop":{"name":"origin","id":"5631","lat":"36.778261","lon":"-119.4179324","placename":"California, USA"}}]}}},"processes":[],"eols":[]}],"user":{"name":"geng_tan","id":"9044"}}}