{"3855":{"oid":"3855","type":"trace","flag":"","creator":"9807","name":"Fruit and other Natural Sweeteners","upc":"","imagelink":"","description":"Fruits and natural sweeteners that come from family farmers around the world.","slug":"fruit-at-stonyfield","category":"","weight":"0","emissions":"0","embodied":"0","transport":"0","process":"0","endoflife":"0","shipping":"93150.13","lifetime":null,"usagetype":"","usageenergy":null,"usageemissions":null,"timecreated":"2010-06-25 15:23:32.337009","timemodified":"2010-12-10 13:04:52","visibility":"private","showfootprint":"on","showembodied":"on","showtransport":"on","showprocess":"on","showendoflife":"on","showlastleg":"on","showuse":"on","showstats":"on","stops":{"origin":{"related_to":"3855","part_or_object":"o","notes":null,"placename":"Londonderry, NH, USA","id":"8800","category":"1","lat":"42.8650869","lon":"-71.3739532","name":"origin","hops":{"incoming":[{"transport_id":"17","id":"6141","transport_name":"None Selected","transport_description":null,"transport_unit":"kg km","transport_co2_eq":"0.000000","from_stop_id":"8801","from_stop_lat":"51.3896076","from_stop_lon":"5.9192873","to_stop_id":"8800","to_stop_name":"origin","to_stop_lat":"42.8650869","placename":"Helenaveen, The Netherlands","to_stop_lon":"-71.3739532","to_stop":{"id":"8800","name":"origin","lat":"42.8650869","placename":"Londonderry, NH, USA","lon":"-71.3739532"},"from_stop":{"name":"origin","id":"8801","lat":"51.3896076","lon":"5.9192873","placename":"Helenaveen, The Netherlands"}},{"transport_id":null,"id":"6142","transport_name":null,"transport_description":null,"transport_unit":null,"transport_co2_eq":null,"from_stop_id":"8802","from_stop_lat":"0.0344566","from_stop_lon":"-51.0665639","to_stop_id":"8800","to_stop_name":"origin","to_stop_lat":"42.8650869","placename":"Macap\u00e1 - Amap\u00e1, Brazil","to_stop_lon":"-71.3739532","to_stop":{"id":"8800","name":"origin","lat":"42.8650869","placename":"Londonderry, NH, USA","lon":"-71.3739532"},"from_stop":{"name":"origin","id":"8802","lat":"0.0344566","lon":"-51.0665639","placename":"Macap\u00e1 - Amap\u00e1, Brazil"}},{"transport_id":null,"id":"6143","transport_name":null,"transport_description":null,"transport_unit":null,"transport_co2_eq":null,"from_stop_id":"8803","from_stop_lat":"45.50012","from_stop_lon":"-122.5014799","to_stop_id":"8800","to_stop_name":"origin","to_stop_lat":"42.8650869","placename":"Willamette Valley, Portland, OR 97236, USA","to_stop_lon":"-71.3739532","to_stop":{"id":"8800","name":"origin","lat":"42.8650869","placename":"Londonderry, NH, USA","lon":"-71.3739532"},"from_stop":{"name":"origin","id":"8803","lat":"45.50012","lon":"-122.5014799","placename":"Willamette Valley, Portland, OR 97236, USA"}},{"transport_id":null,"id":"6144","transport_name":null,"transport_description":null,"transport_unit":null,"transport_co2_eq":null,"from_stop_id":"8804","from_stop_lat":"45.50012","from_stop_lon":"-122.5014799","to_stop_id":"8800","to_stop_name":"origin","to_stop_lat":"42.8650869","placename":"Willamette Valley, Portland, OR 97236, USA","to_stop_lon":"-71.3739532","to_stop":{"id":"8800","name":"origin","lat":"42.8650869","placename":"Londonderry, NH, USA","lon":"-71.3739532"},"from_stop":{"name":"origin","id":"8804","lat":"45.50012","lon":"-122.5014799","placename":"Willamette Valley, Portland, OR 97236, USA"}},{"transport_id":null,"id":"6145","transport_name":null,"transport_description":null,"transport_unit":null,"transport_co2_eq":null,"from_stop_id":"8805","from_stop_lat":"45.50012","from_stop_lon":"-122.5014799","to_stop_id":"8800","to_stop_name":"origin","to_stop_lat":"42.8650869","placename":"Willamette Valley, Portland, OR 97236, USA","to_stop_lon":"-71.3739532","to_stop":{"id":"8800","name":"origin","lat":"42.8650869","placename":"Londonderry, NH, USA","lon":"-71.3739532"},"from_stop":{"name":"origin","id":"8805","lat":"45.50012","lon":"-122.5014799","placename":"Willamette Valley, Portland, OR 97236, USA"}},{"transport_id":null,"id":"6146","transport_name":null,"transport_description":null,"transport_unit":null,"transport_co2_eq":null,"from_stop_id":"8806","from_stop_lat":"47.7510741","from_stop_lon":"-120.7401386","to_stop_id":"8800","to_stop_name":"origin","to_stop_lat":"42.8650869","placename":"Washington, USA","to_stop_lon":"-71.3739532","to_stop":{"id":"8800","name":"origin","lat":"42.8650869","placename":"Londonderry, NH, USA","lon":"-71.3739532"},"from_stop":{"name":"origin","id":"8806","lat":"47.7510741","lon":"-120.7401386","placename":"Washington, USA"}},{"transport_id":"17","id":"6147","transport_name":"None Selected","transport_description":null,"transport_unit":"kg km","transport_co2_eq":"0.000000","from_stop_id":"8807","from_stop_lat":"-21.1434038","from_stop_lon":"-48.0070321","to_stop_id":"8800","to_stop_name":"origin","to_stop_lat":"42.8650869","placename":"Sert\u00e3ozinho - S\u00e3o Paulo, Brazil","to_stop_lon":"-71.3739532","to_stop":{"id":"8800","name":"origin","lat":"42.8650869","placename":"Londonderry, NH, USA","lon":"-71.3739532"},"from_stop":{"name":"origin","id":"8807","lat":"-21.1434038","lon":"-48.0070321","placename":"Sert\u00e3ozinho - S\u00e3o Paulo, Brazil"}},{"transport_id":null,"id":"6148","transport_name":null,"transport_description":null,"transport_unit":null,"transport_co2_eq":null,"from_stop_id":"8808","from_stop_lat":"36.910231","from_stop_lon":"-121.7568946","to_stop_id":"8800","to_stop_name":"origin","to_stop_lat":"42.8650869","placename":"Watsonville, CA, USA","to_stop_lon":"-71.3739532","to_stop":{"id":"8800","name":"origin","lat":"42.8650869","placename":"Londonderry, NH, USA","lon":"-71.3739532"},"from_stop":{"name":"origin","id":"8808","lat":"36.910231","lon":"-121.7568946","placename":"Watsonville, CA, USA"}},{"transport_id":"17","id":"6149","transport_name":"None Selected","transport_description":null,"transport_unit":"kg km","transport_co2_eq":"0.000000","from_stop_id":"8809","from_stop_lat":"34.1975048","from_stop_lon":"-119.1770516","to_stop_id":"8800","to_stop_name":"origin","to_stop_lat":"42.8650869","placename":"Oxnard, CA, USA","to_stop_lon":"-71.3739532","to_stop":{"id":"8800","name":"origin","lat":"42.8650869","placename":"Londonderry, NH, USA","lon":"-71.3739532"},"from_stop":{"name":"origin","id":"8809","lat":"34.1975048","lon":"-119.1770516","placename":"Oxnard, CA, USA"}},{"transport_id":"17","id":"6150","transport_name":"None Selected","transport_description":null,"transport_unit":"kg km","transport_co2_eq":"0.000000","from_stop_id":"8810","from_stop_lat":"-25.4166667","from_stop_lon":"-56.45","to_stop_id":"8800","to_stop_name":"origin","to_stop_lat":"42.8650869","placename":"Coronel Oviedo, Paraguay","to_stop_lon":"-71.3739532","to_stop":{"id":"8800","name":"origin","lat":"42.8650869","placename":"Londonderry, NH, USA","lon":"-71.3739532"},"from_stop":{"name":"origin","id":"8810","lat":"-25.4166667","lon":"-56.45","placename":"Coronel Oviedo, Paraguay"}},{"transport_id":"17","id":"6151","transport_name":"None Selected","transport_description":null,"transport_unit":"kg km","transport_co2_eq":"0.000000","from_stop_id":"8811","from_stop_lat":"46.5788657","from_stop_lon":"-120.5290358","to_stop_id":"8800","to_stop_name":"origin","to_stop_lat":"42.8650869","placename":"Yakima, Washington, USA","to_stop_lon":"-71.3739532","to_stop":{"id":"8800","name":"origin","lat":"42.8650869","placename":"Londonderry, NH, USA","lon":"-71.3739532"},"from_stop":{"name":"origin","id":"8811","lat":"46.5788657","lon":"-120.5290358","placename":"Yakima, Washington, USA"}},{"transport_id":"17","id":"6152","transport_name":"None Selected","transport_description":null,"transport_unit":"kg km","transport_co2_eq":"0.000000","from_stop_id":"8812","from_stop_lat":"36.7477272","from_stop_lon":"-119.7723661","to_stop_id":"8800","to_stop_name":"origin","to_stop_lat":"42.8650869","placename":"Fresno, CA, USA","to_stop_lon":"-71.3739532","to_stop":{"id":"8800","name":"origin","lat":"42.8650869","placename":"Londonderry, NH, USA","lon":"-71.3739532"},"from_stop":{"name":"origin","id":"8812","lat":"36.7477272","lon":"-119.7723661","placename":"Fresno, CA, USA"}},{"transport_id":"17","id":"6153","transport_name":"None Selected","transport_description":null,"transport_unit":"kg km","transport_co2_eq":"0.000000","from_stop_id":"8813","from_stop_lat":"47.4234599","from_stop_lon":"-120.3103494","to_stop_id":"8800","to_stop_name":"origin","to_stop_lat":"42.8650869","placename":"Wenatchee, WA, USA","to_stop_lon":"-71.3739532","to_stop":{"id":"8800","name":"origin","lat":"42.8650869","placename":"Londonderry, NH, USA","lon":"-71.3739532"},"from_stop":{"name":"origin","id":"8813","lat":"47.4234599","lon":"-120.3103494","placename":"Wenatchee, WA, USA"}},{"transport_id":"17","id":"6154","transport_name":"None Selected","transport_description":null,"transport_unit":"kg km","transport_co2_eq":"0.000000","from_stop_id":"8814","from_stop_lat":"-5.4983977","from_stop_lon":"-39.3206241","to_stop_id":"8800","to_stop_name":"origin","to_stop_lat":"42.8650869","placename":"Ceara, Brazil","to_stop_lon":"-71.3739532","to_stop":{"id":"8800","name":"origin","lat":"42.8650869","placename":"Londonderry, NH, USA","lon":"-71.3739532"},"from_stop":{"name":"origin","id":"8814","lat":"-5.4983977","lon":"-39.3206241","placename":"Ceara, Brazil"}},{"transport_id":"17","id":"6155","transport_name":"None Selected","transport_description":null,"transport_unit":"kg km","transport_co2_eq":"0.000000","from_stop_id":"8815","from_stop_lat":"52.9399159","from_stop_lon":"-73.5491361","to_stop_id":"8800","to_stop_name":"origin","to_stop_lat":"42.8650869","placename":"Quebec, Canada","to_stop_lon":"-71.3739532","to_stop":{"id":"8800","name":"origin","lat":"42.8650869","placename":"Londonderry, NH, USA","lon":"-71.3739532"},"from_stop":{"name":"origin","id":"8815","lat":"52.9399159","lon":"-73.5491361","placename":"Quebec, Canada"}},{"transport_id":"17","id":"6156","transport_name":"None Selected","transport_description":null,"transport_unit":"kg km","transport_co2_eq":"0.000000","from_stop_id":"8816","from_stop_lat":"-26.9257507","from_stop_lon":"-65.3380356","to_stop_id":"8800","to_stop_name":"origin","to_stop_lat":"42.8650869","placename":"Lules, Tucum\u00e1n, Argentina","to_stop_lon":"-71.3739532","to_stop":{"id":"8800","name":"origin","lat":"42.8650869","placename":"Londonderry, NH, USA","lon":"-71.3739532"},"from_stop":{"name":"origin","id":"8816","lat":"-26.9257507","lon":"-65.3380356","placename":"Lules, Tucum\u00e1n, Argentina"}},{"transport_id":"17","id":"6157","transport_name":"None Selected","transport_description":null,"transport_unit":"kg km","transport_co2_eq":"0.000000","from_stop_id":"8817","from_stop_lat":"19.5665192","from_stop_lon":"-101.7068294","to_stop_id":"8800","to_stop_name":"origin","to_stop_lat":"42.8650869","placename":"Michoac\u00e1n, Mexico","to_stop_lon":"-71.3739532","to_stop":{"id":"8800","name":"origin","lat":"42.8650869","placename":"Londonderry, NH, USA","lon":"-71.3739532"},"from_stop":{"name":"origin","id":"8817","lat":"19.5665192","lon":"-101.7068294","placename":"Michoac\u00e1n, Mexico"}},{"transport_id":"17","id":"6158","transport_name":"None Selected","transport_description":null,"transport_unit":"kg km","transport_co2_eq":"0.000000","from_stop_id":"8818","from_stop_lat":"9.625209","from_stop_lon":"-82.830437","to_stop_id":"8800","to_stop_name":"origin","to_stop_lat":"42.8650869","placename":"Bribri, Costa Rica","to_stop_lon":"-71.3739532","to_stop":{"id":"8800","name":"origin","lat":"42.8650869","placename":"Londonderry, NH, USA","lon":"-71.3739532"},"from_stop":{"name":"origin","id":"8818","lat":"9.625209","lon":"-82.830437","placename":"Bribri, Costa Rica"}},{"transport_id":"17","id":"6159","transport_name":"None Selected","transport_description":null,"transport_unit":"kg km","transport_co2_eq":"0.000000","from_stop_id":"8819","from_stop_lat":"36.5432837","from_stop_lon":"-119.3870656","to_stop_id":"8800","to_stop_name":"origin","to_stop_lat":"42.8650869","placename":"Dinuba, CA, USA","to_stop_lon":"-71.3739532","to_stop":{"id":"8800","name":"origin","lat":"42.8650869","placename":"Londonderry, NH, USA","lon":"-71.3739532"},"from_stop":{"name":"origin","id":"8819","lat":"36.5432837","lon":"-119.3870656","placename":"Dinuba, CA, USA"}},{"transport_id":"17","id":"6160","transport_name":"None Selected","transport_description":null,"transport_unit":"kg km","transport_co2_eq":"0.000000","from_stop_id":"8820","from_stop_lat":"47.4234599","from_stop_lon":"-120.3103494","to_stop_id":"8800","to_stop_name":"origin","to_stop_lat":"42.8650869","placename":"Wenatchee, WA, USA","to_stop_lon":"-71.3739532","to_stop":{"id":"8800","name":"origin","lat":"42.8650869","placename":"Londonderry, NH, USA","lon":"-71.3739532"},"from_stop":{"name":"origin","id":"8820","lat":"47.4234599","lon":"-120.3103494","placename":"Wenatchee, WA, USA"}}],"outgoing":[]}}},"parts":[{"oid":"3855","imid":"3751","linkid":"","weight":"0","rawemissions":"0","emissions":"0","shipping":"5653.81","processemissions":"0","endoflifeemissions":"0","disposaltype":null,"disposalenergy":null,"disposalimpact":null,"disposalemissions":null,"description":"<iframe align=center src=http:\/\/www.flickr.com\/slideShow\/index.gne?user_id=43300999@N06&tags=blueberries frameBorder=0 width=300 scrolling=no height=240><\/iframe>","name":"Blueberries","id":"3751","stops":{"origin":{"related_to":"3751","part_or_object":"p","notes":null,"placename":"Helenaveen, The Netherlands","id":8801,"name":"origin","lat":"51.3896076","lon":"5.9192873","hops":{"incoming":[],"outgoing":[{"transport_id":"17","id":"6141","transport_name":"None Selected","transport_description":null,"transport_unit":"kg km","transport_co2_eq":"0.000000","from_stop_id":"8801","from_stop_lat":"51.3896076","from_stop_lon":"5.9192873","from_stop_placename":"Helenaveen, The Netherlands","to_stop_id":"8800","to_stop_name":"origin","to_stop_lat":"42.8650869","to_stop_lon":"-71.3739532","to_stop_placename":"Londonderry, NH, USA","to_stop":{"id":"8800","name":"origin","lat":"42.8650869","lon":"-71.3739532","placename":"Londonderry, NH, USA"},"from_stop":{"name":"origin","id":"8801","lat":"51.3896076","lon":"5.9192873","placename":"Helenaveen, The Netherlands"}}]}}},"processes":[],"eols":[]},{"oid":"3855","imid":"4984","linkid":"0","weight":"0","rawemissions":"0","emissions":"0","shipping":"4022.62","processemissions":"0","endoflifeemissions":"0","disposaltype":null,"disposalenergy":null,"disposalimpact":null,"disposalemissions":null,"description":"http:\/\/www.stahlbush.com\/","name":"Green Beans","id":"4984","stops":{"origin":{"related_to":"4984","part_or_object":"p","notes":null,"placename":"Willamette Valley, Portland, OR 97236, USA","id":8803,"name":"origin","lat":"45.50012","lon":"-122.5014799","hops":{"incoming":[],"outgoing":[{"transport_id":null,"id":"6143","transport_name":null,"transport_description":null,"transport_unit":null,"transport_co2_eq":null,"from_stop_id":"8803","from_stop_lat":"45.50012","from_stop_lon":"-122.5014799","from_stop_placename":"Willamette Valley, Portland, OR 97236, USA","to_stop_id":"8800","to_stop_name":"origin","to_stop_lat":"42.8650869","to_stop_lon":"-71.3739532","to_stop_placename":"Londonderry, NH, USA","to_stop":{"id":"8800","name":"origin","lat":"42.8650869","lon":"-71.3739532","placename":"Londonderry, NH, USA"},"from_stop":{"name":"origin","id":"8803","lat":"45.50012","lon":"-122.5014799","placename":"Willamette Valley, Portland, OR 97236, USA"}}]}}},"processes":[],"eols":[]},{"oid":"3855","imid":"4985","linkid":"0","weight":"0","rawemissions":"0","emissions":"0","shipping":"4022.62","processemissions":"0","endoflifeemissions":"0","disposaltype":null,"disposalenergy":null,"disposalimpact":null,"disposalemissions":null,"description":"http:\/\/www.stahlbush.com\/","name":"Butternut Squash","id":"4985","stops":{"origin":{"related_to":"4985","part_or_object":"p","notes":null,"placename":"Willamette Valley, Portland, OR 97236, USA","id":8804,"name":"origin","lat":"45.50012","lon":"-122.5014799","hops":{"incoming":[],"outgoing":[{"transport_id":null,"id":"6144","transport_name":null,"transport_description":null,"transport_unit":null,"transport_co2_eq":null,"from_stop_id":"8804","from_stop_lat":"45.50012","from_stop_lon":"-122.5014799","from_stop_placename":"Willamette Valley, Portland, OR 97236, USA","to_stop_id":"8800","to_stop_name":"origin","to_stop_lat":"42.8650869","to_stop_lon":"-71.3739532","to_stop_placename":"Londonderry, NH, USA","to_stop":{"id":"8800","name":"origin","lat":"42.8650869","lon":"-71.3739532","placename":"Londonderry, NH, USA"},"from_stop":{"name":"origin","id":"8804","lat":"45.50012","lon":"-122.5014799","placename":"Willamette Valley, Portland, OR 97236, USA"}}]}}},"processes":[],"eols":[]},{"oid":"3855","imid":"4986","linkid":"0","weight":"0","rawemissions":"0","emissions":"0","shipping":"4022.62","processemissions":"0","endoflifeemissions":"0","disposaltype":null,"disposalenergy":null,"disposalimpact":null,"disposalemissions":null,"description":"http:\/\/www.stahlbush.com\/","name":"Sweet Potato","id":"4986","stops":{"origin":{"related_to":"4986","part_or_object":"p","notes":null,"placename":"Willamette Valley, Portland, OR 97236, USA","id":8805,"name":"origin","lat":"45.50012","lon":"-122.5014799","hops":{"incoming":[],"outgoing":[{"transport_id":null,"id":"6145","transport_name":null,"transport_description":null,"transport_unit":null,"transport_co2_eq":null,"from_stop_id":"8805","from_stop_lat":"45.50012","from_stop_lon":"-122.5014799","from_stop_placename":"Willamette Valley, Portland, OR 97236, USA","to_stop_id":"8800","to_stop_name":"origin","to_stop_lat":"42.8650869","to_stop_lon":"-71.3739532","to_stop_placename":"Londonderry, NH, USA","to_stop":{"id":"8800","name":"origin","lat":"42.8650869","lon":"-71.3739532","placename":"Londonderry, NH, USA"},"from_stop":{"name":"origin","id":"8805","lat":"45.50012","lon":"-122.5014799","placename":"Willamette Valley, Portland, OR 97236, USA"}}]}}},"processes":[],"eols":[]},{"oid":"3855","imid":"4987","linkid":"0","weight":"0","rawemissions":"0","emissions":"0","shipping":"3836.47","processemissions":"0","endoflifeemissions":"0","disposaltype":null,"disposalenergy":null,"disposalimpact":null,"disposalemissions":null,"description":"http:\/\/www.stemilt.com\/StemiltHome\/","name":"Peaches","id":"4987","stops":{"origin":{"related_to":"4987","part_or_object":"p","notes":null,"placename":"Washington, USA","id":8806,"name":"origin","lat":"47.7510741","lon":"-120.7401386","hops":{"incoming":[],"outgoing":[{"transport_id":null,"id":"6146","transport_name":null,"transport_description":null,"transport_unit":null,"transport_co2_eq":null,"from_stop_id":"8806","from_stop_lat":"47.7510741","from_stop_lon":"-120.7401386","from_stop_placename":"Washington, USA","to_stop_id":"8800","to_stop_name":"origin","to_stop_lat":"42.8650869","to_stop_lon":"-71.3739532","to_stop_placename":"Londonderry, NH, USA","to_stop":{"id":"8800","name":"origin","lat":"42.8650869","lon":"-71.3739532","placename":"Londonderry, NH, USA"},"from_stop":{"name":"origin","id":"8806","lat":"47.7510741","lon":"-120.7401386","placename":"Washington, USA"}}]}}},"processes":[],"eols":[]},{"oid":"3855","imid":"4988","linkid":"0","weight":"0","rawemissions":"0","emissions":"0","shipping":"4289.48","processemissions":"0","endoflifeemissions":"0","disposaltype":null,"disposalenergy":null,"disposalimpact":null,"disposalemissions":null,"description":"J: We purchase 60% of our strawberries from California, and the rest from Mexico and Argentina.  This ensures us a steady supply of strawberries throughout the year. ","name":"Strawberries","id":"4988","stops":{"origin":{"related_to":"4988","part_or_object":"p","notes":null,"placename":"Watsonville, CA, USA","id":8808,"name":"origin","lat":"36.910231","lon":"-121.7568946","hops":{"incoming":[],"outgoing":[{"transport_id":null,"id":"6148","transport_name":null,"transport_description":null,"transport_unit":null,"transport_co2_eq":null,"from_stop_id":"8808","from_stop_lat":"36.910231","from_stop_lon":"-121.7568946","from_stop_placename":"Watsonville, CA, USA","to_stop_id":"8800","to_stop_name":"origin","to_stop_lat":"42.8650869","to_stop_lon":"-71.3739532","to_stop_placename":"Londonderry, NH, USA","to_stop":{"id":"8800","name":"origin","lat":"42.8650869","lon":"-71.3739532","placename":"Londonderry, NH, USA"},"from_stop":{"name":"origin","id":"8808","lat":"36.910231","lon":"-121.7568946","placename":"Watsonville, CA, USA"}}]}}},"processes":[],"eols":[]},{"oid":"3855","imid":"4983","linkid":"0","weight":"0","rawemissions":"0","emissions":"0","shipping":"5181.15","processemissions":"0","endoflifeemissions":"0","disposaltype":null,"disposalenergy":null,"disposalimpact":null,"disposalemissions":null,"description":"J: Acai originates from the Amazon rainforest in Brazil.\tPHOTO SLIDESHOW\n<object width=\"480\" height=\"385\"><param name=\"movie\" value=\"http:\/\/www.youtube.com\/v\/aExZiyG8mLI?fs=1&hl=en_US\"><param name=\"allowFullScreen\" value=\"true\"><param name=\"allowscriptaccess\" value=\"always\"><embed src=\"http:\/\/www.youtube.com\/v\/aExZiyG8mLI?fs=1&hl=en_US\" type=\"application\/x-shockwave-flash\" allowscriptaccess=\"always\" allowfullscreen=\"true\" width=\"480\" height=\"385\"><\/object>\n\nFF:\nSambazon is the only source of Organic and Fair Trade A\u00e7a\u00ed, which means we know exactly where our acai comes from and we can ensure it\u2019s harvested sustainably and our farmers are treated fairly.\n\nSambazon works directly with a network of over 10,000 family farmers responsible for over 1.9 million acres of agro - forestry farms that protect the natural biodiversity of their rainforest land.\n","name":"Acai","id":"4983","stops":{"origin":{"related_to":"4983","part_or_object":"p","notes":null,"placename":"Macap\u00e1 - Amap\u00e1, Brazil","id":8802,"name":"origin","lat":"0.0344566","lon":"-51.0665639","hops":{"incoming":[],"outgoing":[{"transport_id":null,"id":"6142","transport_name":null,"transport_description":null,"transport_unit":null,"transport_co2_eq":null,"from_stop_id":"8802","from_stop_lat":"0.0344566","from_stop_lon":"-51.0665639","from_stop_placename":"Macap\u00e1 - Amap\u00e1, Brazil","to_stop_id":"8800","to_stop_name":"origin","to_stop_lat":"42.8650869","to_stop_lon":"-71.3739532","to_stop_placename":"Londonderry, NH, USA","to_stop":{"id":"8800","name":"origin","lat":"42.8650869","lon":"-71.3739532","placename":"Londonderry, NH, USA"},"from_stop":{"name":"origin","id":"8802","lat":"0.0344566","lon":"-51.0665639","placename":"Macap\u00e1 - Amap\u00e1, Brazil"}}]}}},"processes":[],"eols":[]},{"oid":"3855","imid":"3753","linkid":"","weight":"0","rawemissions":"0","emissions":"0","shipping":"7517.61","processemissions":"0","endoflifeemissions":"0","disposaltype":null,"disposalenergy":null,"disposalimpact":null,"disposalemissions":null,"description":"J: Brazil is the world\u2019s largest organic and conventional  sugar producer and exporter.  Stonyfield purchased more organic sugar last year than the whole US organic sugar market produced, making it essential that we look abroad for an organic sugar supply.\n\n<object width=\"240\" height=\"200\"><param name=\"movie\" value=\"http:\/\/www.youtube.com\/v\/dcBOk0l1x_s&hl=en_US&fs=1\"><param name=\"allowFullScreen\" value=\"true\"><param name=\"allowscriptaccess\" value=\"always\"><embed src=\"http:\/\/www.youtube.com\/v\/dcBOk0l1x_s&hl=en_US&fs=1\" type=\"application\/x-shockwave-flash\" allowscriptaccess=\"always\" allowfullscreen=\"true\" width=\"240\" height=\"200\"><\/object>","name":"Sugar","id":"3753","stops":{"origin":{"related_to":"3753","part_or_object":"p","notes":null,"placename":"Sert\u00e3ozinho - S\u00e3o Paulo, Brazil","id":8807,"name":"origin","lat":"-21.1434038","lon":"-48.0070321","hops":{"incoming":[],"outgoing":[{"transport_id":"17","id":"6147","transport_name":"None Selected","transport_description":null,"transport_unit":"kg km","transport_co2_eq":"0.000000","from_stop_id":"8807","from_stop_lat":"-21.1434038","from_stop_lon":"-48.0070321","from_stop_placename":"Sert\u00e3ozinho - S\u00e3o Paulo, Brazil","to_stop_id":"8800","to_stop_name":"origin","to_stop_lat":"42.8650869","to_stop_lon":"-71.3739532","to_stop_placename":"Londonderry, NH, USA","to_stop":{"id":"8800","name":"origin","lat":"42.8650869","lon":"-71.3739532","placename":"Londonderry, NH, USA"},"from_stop":{"name":"origin","id":"8807","lat":"-21.1434038","lon":"-48.0070321","placename":"Sert\u00e3ozinho - S\u00e3o Paulo, Brazil"}}]}}},"processes":[],"eols":[]},{"oid":"3855","imid":"3691","linkid":"","weight":"0","rawemissions":"0","emissions":"0","shipping":"3846.54","processemissions":"0","endoflifeemissions":"0","disposaltype":null,"disposalenergy":null,"disposalimpact":null,"disposalemissions":null,"description":"<object width=\"300\" height=\"230\"><param name=\"allowfullscreen\" value=\"true\"><param name=\"allowscriptaccess\" value=\"always\"><param name=\"movie\" value=\"http:\/\/vimeo.com\/moogaloop.swf?clip_id=5603082&server=vimeo.com&show_title=1&show_byline=1&show_portrait=0&color=&fullscreen=1\"><embed src=\"http:\/\/vimeo.com\/moogaloop.swf?clip_id=5603082&server=vimeo.com&show_title=1&show_byline=1&show_portrait=0&color=&fullscreen=1\" type=\"application\/x-shockwave-flash\" allowfullscreen=\"true\" allowscriptaccess=\"always\" width=\"300\" height=\"230\" style=\"visibility: visible; \"><\/object><p><a href=\"http:\/\/vimeo.com\/5603082\">Gambling on organic<\/a> from <a href=\"http:\/\/vimeo.com\/user1561780\">Stonyfield<\/a> on <a href=\"http:\/\/vimeo.com\">Vimeo<\/a>.<\/p>","name":"Raspberries","id":"3691","stops":{"origin":{"related_to":"3691","part_or_object":"p","notes":null,"placename":"Yakima, Washington, USA","id":8811,"name":"origin","lat":"46.5788657","lon":"-120.5290358","hops":{"incoming":[],"outgoing":[{"transport_id":"17","id":"6151","transport_name":"None Selected","transport_description":null,"transport_unit":"kg km","transport_co2_eq":"0.000000","from_stop_id":"8811","from_stop_lat":"46.5788657","from_stop_lon":"-120.5290358","from_stop_placename":"Yakima, Washington, USA","to_stop_id":"8800","to_stop_name":"origin","to_stop_lat":"42.8650869","to_stop_lon":"-71.3739532","to_stop_placename":"Londonderry, NH, USA","to_stop":{"id":"8800","name":"origin","lat":"42.8650869","lon":"-71.3739532","placename":"Londonderry, NH, USA"},"from_stop":{"name":"origin","id":"8811","lat":"46.5788657","lon":"-120.5290358","placename":"Yakima, Washington, USA"}}]}}},"processes":[],"eols":[]},{"oid":"3855","imid":"3692","linkid":"","weight":"0","rawemissions":"0","emissions":"0","shipping":"4214.26","processemissions":"0","endoflifeemissions":"0","disposaltype":null,"disposalenergy":null,"disposalimpact":null,"disposalemissions":null,"description":"J: We purchase 60% of our strawberries from California, and the rest from Mexico and Argentina.  To ensures a steady supply of strawberries throughout the year\n\n\tFF: 98% of the energy needed to cultivate conventional strawberries comes from non-renewable resources, in large part due to the highly toxic chemical fertilizers required to grow the plants.  In contrast, less than over half of the energy used to cultivate organic strawberries, such as those Stonyfield uses in it yogurt, comes from renewable energy sources.  Organic strawberry growers not only reduce their reliance on oil, but they also reduce the costs of their inputs from costly chemical fertilizers.  (Source: http:\/\/www.agroecology.org\/Case%20Studies\/strawberries.html)  \n\n\n","name":"Strawberries ","id":"3692","stops":{"origin":{"related_to":"3692","part_or_object":"p","notes":null,"placename":"Oxnard, CA, USA","id":8809,"name":"origin","lat":"34.1975048","lon":"-119.1770516","hops":{"incoming":[],"outgoing":[{"transport_id":"17","id":"6149","transport_name":"None Selected","transport_description":null,"transport_unit":"kg km","transport_co2_eq":"0.000000","from_stop_id":"8809","from_stop_lat":"34.1975048","from_stop_lon":"-119.1770516","from_stop_placename":"Oxnard, CA, USA","to_stop_id":"8800","to_stop_name":"origin","to_stop_lat":"42.8650869","to_stop_lon":"-71.3739532","to_stop_placename":"Londonderry, NH, USA","to_stop":{"id":"8800","name":"origin","lat":"42.8650869","lon":"-71.3739532","placename":"Londonderry, NH, USA"},"from_stop":{"name":"origin","id":"8809","lat":"34.1975048","lon":"-119.1770516","placename":"Oxnard, CA, USA"}}]}}},"processes":[],"eols":[]},{"oid":"3855","imid":"3959","linkid":"","weight":"0","rawemissions":"0","emissions":"0","shipping":"7753.69","processemissions":"0","endoflifeemissions":"0","disposaltype":null,"disposalenergy":null,"disposalimpact":null,"disposalemissions":null,"description":"<a href=\"http:\/\/www.azpa.com.py\/\">Paraguayan Sugar Inc<\/a>\n\nJ: Paraguay is second to Brazil in global organic sugar production.  Tthe majority of its organic sugar producers are small family farmers. \n\tFF: Since our supplier began sourcing organic sugar in Paraguay, there has been a ten-fold increase in land that is dedicated to organic production.  There are now well over 2000 individual small farmers who participate in the production of our organic sugarcane.\n\n\nPHOTO SLIDESHOW\n<iframe align=\"center\" src=\"http:\/\/www.flickr.com\/slideShow\/index.gne?group_id=&user_id=52750283@N04&set_id=72157625176123175&text=Sugar+from+Paraguay\" frameBorder=\"0\" width=\"320\" height=\"240\" scrolling=\"no\"><\/iframe><br\/><small>Created with <a href=\"http:\/\/www.admarket.se\" title=\"Admarket.se\">Admarket's<\/a> <a href=\"http:\/\/flickrslidr.com\" title=\"flickrSLiDR\">flickrSLiDR<\/a>.<\/small>\n\n","name":"Sugar","id":"3959","stops":{"origin":{"related_to":"3959","part_or_object":"p","notes":null,"placename":"Coronel Oviedo, Paraguay","id":8810,"name":"origin","lat":"-25.4166667","lon":"-56.45","hops":{"incoming":[],"outgoing":[{"transport_id":"17","id":"6150","transport_name":"None Selected","transport_description":null,"transport_unit":"kg km","transport_co2_eq":"0.000000","from_stop_id":"8810","from_stop_lat":"-25.4166667","from_stop_lon":"-56.45","from_stop_placename":"Coronel Oviedo, Paraguay","to_stop_id":"8800","to_stop_name":"origin","to_stop_lat":"42.8650869","to_stop_lon":"-71.3739532","to_stop_placename":"Londonderry, NH, USA","to_stop":{"id":"8800","name":"origin","lat":"42.8650869","lon":"-71.3739532","placename":"Londonderry, NH, USA"},"from_stop":{"name":"origin","id":"8810","lat":"-25.4166667","lon":"-56.45","placename":"Coronel Oviedo, Paraguay"}}]}}},"processes":[],"eols":[]},{"oid":"3855","imid":"3936","linkid":"","weight":"0","rawemissions":"0","emissions":"0","shipping":"4136.75","processemissions":"0","endoflifeemissions":"0","disposaltype":null,"disposalenergy":null,"disposalimpact":null,"disposalemissions":null,"description":"","name":"Peaches","id":"3936","stops":{"origin":{"related_to":"3936","part_or_object":"p","notes":null,"placename":"Fresno, CA, USA","id":8812,"name":"origin","lat":"36.7477272","lon":"-119.7723661","hops":{"incoming":[],"outgoing":[{"transport_id":"17","id":"6152","transport_name":"None Selected","transport_description":null,"transport_unit":"kg km","transport_co2_eq":"0.000000","from_stop_id":"8812","from_stop_lat":"36.7477272","from_stop_lon":"-119.7723661","from_stop_placename":"Fresno, CA, USA","to_stop_id":"8800","to_stop_name":"origin","to_stop_lat":"42.8650869","to_stop_lon":"-71.3739532","to_stop_placename":"Londonderry, NH, USA","to_stop":{"id":"8800","name":"origin","lat":"42.8650869","lon":"-71.3739532","placename":"Londonderry, NH, USA"},"from_stop":{"name":"origin","id":"8812","lat":"36.7477272","lon":"-119.7723661","placename":"Fresno, CA, USA"}}]}}},"processes":[],"eols":[]},{"oid":"3855","imid":"3938","linkid":"","weight":"0","rawemissions":"0","emissions":"0","shipping":"3811.54","processemissions":"0","endoflifeemissions":"0","disposaltype":null,"disposalenergy":null,"disposalimpact":null,"disposalemissions":null,"description":"<object width=\"400\" height=\"225\"><param name=\"allowfullscreen\" value=\"true\" \/><param name=\"allowscriptaccess\" value=\"always\" \/><param name=\"movie\" value=\"http:\/\/vimeo.com\/moogaloop.swf?clip_id=12497447&amp;server=vimeo.com&amp;show_title=1&amp;show_byline=1&amp;show_portrait=1&amp;color=&amp;fullscreen=1&amp;autoplay=0&amp;loop=0\" \/><embed src=\"http:\/\/vimeo.com\/moogaloop.swf?clip_id=12497447&amp;server=vimeo.com&amp;show_title=1&amp;show_byline=1&amp;show_portrait=1&amp;color=&amp;fullscreen=1&amp;autoplay=0&amp;loop=0\" type=\"application\/x-shockwave-flash\" allowfullscreen=\"true\" allowscriptaccess=\"always\" width=\"400\" height=\"225\"><\/embed><\/object><p><a href=\"http:\/\/vimeo.com\/12497447\">Farming as a Family Affair<\/a> from <a href=\"http:\/\/vimeo.com\/user1561780\">Stonyfield<\/a> on <a href=\"http:\/\/vimeo.com\">Vimeo<\/a>.<\/p>","name":"Pears","id":"3938","stops":{"origin":{"related_to":"3938","part_or_object":"p","notes":null,"placename":"Wenatchee, WA, USA","id":8813,"name":"origin","lat":"47.4234599","lon":"-120.3103494","hops":{"incoming":[],"outgoing":[{"transport_id":"17","id":"6153","transport_name":"None Selected","transport_description":null,"transport_unit":"kg km","transport_co2_eq":"0.000000","from_stop_id":"8813","from_stop_lat":"47.4234599","from_stop_lon":"-120.3103494","from_stop_placename":"Wenatchee, WA, USA","to_stop_id":"8800","to_stop_name":"origin","to_stop_lat":"42.8650869","to_stop_lon":"-71.3739532","to_stop_placename":"Londonderry, NH, USA","to_stop":{"id":"8800","name":"origin","lat":"42.8650869","lon":"-71.3739532","placename":"Londonderry, NH, USA"},"from_stop":{"name":"origin","id":"8813","lat":"47.4234599","lon":"-120.3103494","placename":"Wenatchee, WA, USA"}}]}}},"processes":[],"eols":[]},{"oid":"3855","imid":"3759","linkid":"","weight":"0","rawemissions":"0","emissions":"0","shipping":"6280.03","processemissions":"0","endoflifeemissions":"0","disposaltype":null,"disposalenergy":null,"disposalimpact":null,"disposalemissions":null,"description":"<a href=\"http:\/\/www.cearapi.com.br\/\">Click here to learn more about our honey from Brazil<\/a>\n\nJ: It is extremely difficult to source organic honey, as organic regulations stipulate that five miles of the land around beehives must be organic certified, and that\u2019s just hard to find these days anywhere but Brazil!  \tFF:\n\nOur honey comes from small-scale beekeepers in Brazil whose primary activities are on their farm.  The honey provides an additional source of income for the region\u2019s farmers.  Some of our beekeepers work next to the Araripe National Forest in Brazil, providing fertile ground for bee pollination while also protecting important forest systems. (Source: Cearapi)\n\nPHOTO SLIDESHOW\n<iframe align=\"center\" src=\"http:\/\/www.flickr.com\/slideShow\/index.gne?group_id=&user_id=52750283@N04&set_id=72157625300950602&text=Honey\" frameBorder=\"0\" width=\"320\" height=\"240\" scrolling=\"no\"><\/iframe><br\/><small>Created with <a href=\"http:\/\/www.admarket.se\" title=\"Admarket.se\">Admarket's<\/a> <a href=\"http:\/\/flickrslidr.com\" title=\"flickrSLiDR\">flickrSLiDR<\/a>.<\/small>\n\n","name":"Honey","id":"3759","stops":{"origin":{"related_to":"3759","part_or_object":"p","notes":null,"placename":"Ceara, Brazil","id":8814,"name":"origin","lat":"-5.4983977","lon":"-39.3206241","hops":{"incoming":[],"outgoing":[{"transport_id":"17","id":"6154","transport_name":"None Selected","transport_description":null,"transport_unit":"kg km","transport_co2_eq":"0.000000","from_stop_id":"8814","from_stop_lat":"-5.4983977","from_stop_lon":"-39.3206241","from_stop_placename":"Ceara, Brazil","to_stop_id":"8800","to_stop_name":"origin","to_stop_lat":"42.8650869","to_stop_lon":"-71.3739532","to_stop_placename":"Londonderry, NH, USA","to_stop":{"id":"8800","name":"origin","lat":"42.8650869","lon":"-71.3739532","placename":"Londonderry, NH, USA"},"from_stop":{"name":"origin","id":"8814","lat":"-5.4983977","lon":"-39.3206241","placename":"Ceara, Brazil"}}]}}},"processes":[],"eols":[]},{"oid":"3855","imid":"3750","linkid":"","weight":"0","rawemissions":"0","emissions":"0","shipping":"3842.92","processemissions":"0","endoflifeemissions":"0","disposaltype":null,"disposalenergy":null,"disposalimpact":null,"disposalemissions":null,"description":"J: We purchase 60% of our strawberries from California, and the rest from Mexico and Argentina.  This ensures us a steady supply of strawberries throughout the year. ","name":"Strawberries","id":"3750","stops":{"origin":{"related_to":"3750","part_or_object":"p","notes":null,"placename":"Michoac\u00e1n, Mexico","id":8817,"name":"origin","lat":"19.5665192","lon":"-101.7068294","hops":{"incoming":[],"outgoing":[{"transport_id":"17","id":"6157","transport_name":"None Selected","transport_description":null,"transport_unit":"kg km","transport_co2_eq":"0.000000","from_stop_id":"8817","from_stop_lat":"19.5665192","from_stop_lon":"-101.7068294","from_stop_placename":"Michoac\u00e1n, Mexico","to_stop_id":"8800","to_stop_name":"origin","to_stop_lat":"42.8650869","to_stop_lon":"-71.3739532","to_stop_placename":"Londonderry, NH, USA","to_stop":{"id":"8800","name":"origin","lat":"42.8650869","lon":"-71.3739532","placename":"Londonderry, NH, USA"},"from_stop":{"name":"origin","id":"8817","lat":"19.5665192","lon":"-101.7068294","placename":"Michoac\u00e1n, Mexico"}}]}}},"processes":[],"eols":[]},{"oid":"3855","imid":"3694","linkid":"","weight":"0","rawemissions":"0","emissions":"0","shipping":"3864.57","processemissions":"0","endoflifeemissions":"0","disposaltype":null,"disposalenergy":null,"disposalimpact":null,"disposalemissions":null,"description":"Click here to learn more about  the COOP of farmers producing our <a href=\"http:\/\/www.appta.org\/j15\/\">Bananas from Costa Rica<\/a> \n\nJ: The world banana trade is dominated by a few countries - Ecuador and Costa Rica are on top. \n\n\tFF: The family farmers who supply Stonyfield\u2019s bananas come from indigenous communities in Costa Rica.  They take an agroecological approach to farming, which means growing crops in a symbiotic was with nature, and intercropping to allow for nutrient-rich soil, integrated pest management, and income diversification. \n\nINSERT VIDEO","name":"Bananas ","id":"3694","stops":{"origin":{"related_to":"3694","part_or_object":"p","notes":null,"placename":"Bribri, Costa Rica","id":8818,"name":"origin","lat":"9.625209","lon":"-82.830437","hops":{"incoming":[],"outgoing":[{"transport_id":"17","id":"6158","transport_name":"None Selected","transport_description":null,"transport_unit":"kg km","transport_co2_eq":"0.000000","from_stop_id":"8818","from_stop_lat":"9.625209","from_stop_lon":"-82.830437","from_stop_placename":"Bribri, Costa Rica","to_stop_id":"8800","to_stop_name":"origin","to_stop_lat":"42.8650869","to_stop_lon":"-71.3739532","to_stop_placename":"Londonderry, NH, USA","to_stop":{"id":"8800","name":"origin","lat":"42.8650869","lon":"-71.3739532","placename":"Londonderry, NH, USA"},"from_stop":{"name":"origin","id":"8818","lat":"9.625209","lon":"-82.830437","placename":"Bribri, Costa Rica"}}]}}},"processes":[],"eols":[]},{"oid":"3855","imid":"3689","linkid":"","weight":"0","rawemissions":"0","emissions":"0","shipping":"4115.15","processemissions":"0","endoflifeemissions":"0","disposaltype":null,"disposalenergy":null,"disposalimpact":null,"disposalemissions":null,"description":"<object width=\"300\" height=\"225\"><param name=\"allowfullscreen\" value=\"true\"><param name=\"allowscriptaccess\" value=\"always\"><param name=\"movie\" value=\"http:\/\/vimeo.com\/moogaloop.swf?clip_id=12380233&server=vimeo.com&show_title=1&show_byline=1&show_portrait=0&color=&fullscreen=1\"><embed src=\"http:\/\/vimeo.com\/moogaloop.swf?clip_id=12380233&server=vimeo.com&show_title=1&show_byline=1&show_portrait=0&color=&fullscreen=1\" type=\"application\/x-shockwave-flash\" allowfullscreen=\"true\" allowscriptaccess=\"always\" width=\"300\" height=\"225\"><\/object><p><a href=\"http:\/\/vimeo.com\/12380233\">Growing the Organic Market<\/a> from <a href=\"http:\/\/vimeo.com\/user1561780\">Stonyfield<\/a> on <a href=\"http:\/\/vimeo.com\">Vimeo<\/a>.<\/p>","name":"Peaches ","id":"3689","stops":{"origin":{"related_to":"3689","part_or_object":"p","notes":null,"placename":"Dinuba, CA, USA","id":8819,"name":"origin","lat":"36.5432837","lon":"-119.3870656","hops":{"incoming":[],"outgoing":[{"transport_id":"17","id":"6159","transport_name":"None Selected","transport_description":null,"transport_unit":"kg km","transport_co2_eq":"0.000000","from_stop_id":"8819","from_stop_lat":"36.5432837","from_stop_lon":"-119.3870656","from_stop_placename":"Dinuba, CA, USA","to_stop_id":"8800","to_stop_name":"origin","to_stop_lat":"42.8650869","to_stop_lon":"-71.3739532","to_stop_placename":"Londonderry, NH, USA","to_stop":{"id":"8800","name":"origin","lat":"42.8650869","lon":"-71.3739532","placename":"Londonderry, NH, USA"},"from_stop":{"name":"origin","id":"8819","lat":"36.5432837","lon":"-119.3870656","placename":"Dinuba, CA, USA"}}]}}},"processes":[],"eols":[]},{"oid":"3855","imid":"3954","linkid":"","weight":"0","rawemissions":"0","emissions":"0","shipping":"3811.54","processemissions":"0","endoflifeemissions":"0","disposaltype":null,"disposalenergy":null,"disposalimpact":null,"disposalemissions":null,"description":"","name":"Apples","id":"3954","stops":{"origin":{"related_to":"3954","part_or_object":"p","notes":null,"placename":"Wenatchee, WA, USA","id":8820,"name":"origin","lat":"47.4234599","lon":"-120.3103494","hops":{"incoming":[],"outgoing":[{"transport_id":"17","id":"6160","transport_name":"None Selected","transport_description":null,"transport_unit":"kg km","transport_co2_eq":"0.000000","from_stop_id":"8820","from_stop_lat":"47.4234599","from_stop_lon":"-120.3103494","from_stop_placename":"Wenatchee, WA, USA","to_stop_id":"8800","to_stop_name":"origin","to_stop_lat":"42.8650869","to_stop_lon":"-71.3739532","to_stop_placename":"Londonderry, NH, USA","to_stop":{"id":"8800","name":"origin","lat":"42.8650869","lon":"-71.3739532","placename":"Londonderry, NH, USA"},"from_stop":{"name":"origin","id":"8820","lat":"47.4234599","lon":"-120.3103494","placename":"Wenatchee, WA, USA"}}]}}},"processes":[],"eols":[]},{"oid":"3855","imid":"3695","linkid":"","weight":"0","rawemissions":"0","emissions":"0","shipping":"1133.07","processemissions":"0","endoflifeemissions":"0","disposaltype":null,"disposalenergy":null,"disposalimpact":null,"disposalemissions":null,"description":"J: 80% of the world\u2019s wild blueberries grow in Canada. \n\nSFF: Wild blueberries are harvested deep within the forest by local Quebecoise, generating both income and promoting environmental conservation.\n\n<object width=\"400\" height=\"230\"><param name=\"allowfullscreen\" value=\"true\"><param name=\"allowscriptaccess\" value=\"always\"><param name=\"movie\" value=\"http:\/\/vimeo.com\/moogaloop.swf?clip_id=5569980&server=vimeo.com&show_title=1&show_byline=1&show_portrait=0&color=&fullscreen=1\"><embed src=\"http:\/\/vimeo.com\/moogaloop.swf?clip_id=5569980&server=vimeo.com&show_title=1&show_byline=1&show_portrait=0&color=&fullscreen=1\" type=\"application\/x-shockwave-flash\" allowfullscreen=\"true\" allowscriptaccess=\"always\" style=\"visibility: visible;\" width=\"400\" height=\"230\"><\/object><p><a href=\"http:\/\/vimeo.com\/5569980\">Blueberries from the forest<\/a> from <a href=\"http:\/\/vimeo.com\/user1561780\">Stonyfield<\/a> on <a href=\"http:\/\/vimeo.com\">Vimeo<\/a>.<\/p>\n\n<iframe src=\"http:\/\/www.flickr.com\/slideShow\/index.gne?group_id=&user_id=&set_id=72157625075723441&text=\" align=\"center\" width=\"320\" frameborder=\"0\" height=\"240\" scrolling=\"no\"><\/iframe><br><small>Created with <a href=\"http:\/\/www.admarket.se\" title=\"Admarket.se\">Admarkets<\/a> <a href=\"http:\/\/flickrslidr.com\" title=\"flickrSLiDR\">flickrSLiDR<\/a>.<\/small>","name":"Wild Blueberries","id":"3695","stops":{"origin":{"related_to":"3695","part_or_object":"p","notes":null,"placename":"Quebec, Canada","id":8815,"name":"origin","lat":"52.9399159","lon":"-73.5491361","hops":{"incoming":[],"outgoing":[{"transport_id":"17","id":"6155","transport_name":"None Selected","transport_description":null,"transport_unit":"kg km","transport_co2_eq":"0.000000","from_stop_id":"8815","from_stop_lat":"52.9399159","from_stop_lon":"-73.5491361","from_stop_placename":"Quebec, Canada","to_stop_id":"8800","to_stop_name":"origin","to_stop_lat":"42.8650869","to_stop_lon":"-71.3739532","to_stop_placename":"Londonderry, NH, USA","to_stop":{"id":"8800","name":"origin","lat":"42.8650869","lon":"-71.3739532","placename":"Londonderry, NH, USA"},"from_stop":{"name":"origin","id":"8815","lat":"52.9399159","lon":"-73.5491361","placename":"Quebec, Canada"}}]}}},"processes":[],"eols":[]},{"oid":"3855","imid":"3693","linkid":"","weight":"0","rawemissions":"0","emissions":"0","shipping":"7793.69","processemissions":"0","endoflifeemissions":"0","disposaltype":null,"disposalenergy":null,"disposalimpact":null,"disposalemissions":null,"description":"Click here to learn more about our <a href=\"http:\/\/www.hombresdecampo.com\/nota.php?id=160\">Strawberries from Argentina<\/a>\n\nJ: We purchase 60% of our strawberries from California, and the rest from Mexico and Argentina.  This ensures us a steady supply of strawberries throughout the year.","name":"Strawberries ","id":"3693","stops":{"origin":{"related_to":"3693","part_or_object":"p","notes":null,"placename":"Lules, Tucum\u00e1n, Argentina","id":8816,"name":"origin","lat":"-26.9257507","lon":"-65.3380356","hops":{"incoming":[],"outgoing":[{"transport_id":"17","id":"6156","transport_name":"None Selected","transport_description":null,"transport_unit":"kg km","transport_co2_eq":"0.000000","from_stop_id":"8816","from_stop_lat":"-26.9257507","from_stop_lon":"-65.3380356","from_stop_placename":"Lules, Tucum\u00e1n, Argentina","to_stop_id":"8800","to_stop_name":"origin","to_stop_lat":"42.8650869","to_stop_lon":"-71.3739532","to_stop_placename":"Londonderry, NH, USA","to_stop":{"id":"8800","name":"origin","lat":"42.8650869","lon":"-71.3739532","placename":"Londonderry, NH, USA"},"from_stop":{"name":"origin","id":"8816","lat":"-26.9257507","lon":"-65.3380356","placename":"Lules, Tucum\u00e1n, Argentina"}}]}}},"processes":[],"eols":[]}],"user":{"name":"ShaynaHarris","id":"9807"}}}