{"3899":{"oid":"3899","type":"object","flag":"","creator":"10086","name":"Sustainable Material Remodel","upc":"","imagelink":"","description":"Materials for remodel","slug":"sustainable-materials-redwood","category":"featured","weight":"106067.35","emissions":"12226.1339503","embodied":"11283.136","transport":"942.997950326","process":"0","endoflife":"0","shipping":"39855.91","lifetime":null,"usagetype":"","usageenergy":null,"usageemissions":null,"timecreated":"2010-07-10 13:44:03.406683","timemodified":"2010-07-15 15:38:15","visibility":"public","showfootprint":"on","showembodied":"on","showtransport":"on","showprocess":"on","showendoflife":"on","showlastleg":"on","showuse":"on","showstats":"on","stops":{"origin":{"related_to":"3899","part_or_object":"o","notes":"","placename":"Redwood City, CA, USA","id":"1648","category":"1","lat":"37.4852152","lon":"-122.2363548","name":"origin","hops":{"incoming":[{"transport_id":"3","id":"3382","transport_name":"truck, 40 tons","transport_description":"truck, half full","transport_unit":"kg km","transport_co2_eq":"0.030900","from_stop_id":"5642","from_stop_lat":"37.8043722","from_stop_lon":"-122.2708026","to_stop_id":"1648","to_stop_name":"origin","to_stop_lat":"37.4852152","placename":"Oakland, CA, USA","to_stop_lon":"-122.2363548","to_stop":{"id":"1648","name":"origin","lat":"37.4852152","placename":"Redwood City, CA, USA","lon":"-122.2363548"},"from_stop":{"name":"origin","id":"5642","lat":"37.8043722","lon":"-122.2708026","placename":"Oakland, CA, USA"}},{"transport_id":"2","id":"3385","transport_name":"truck, 16 tons","transport_description":"truck, half full","transport_unit":"kg km","transport_co2_eq":"0.020300","from_stop_id":"5645","from_stop_lat":"31.3112936","from_stop_lon":"-92.4451371","to_stop_id":"1648","to_stop_name":"origin","to_stop_lat":"37.4852152","placename":"Alexandria, LA, USA","to_stop_lon":"-122.2363548","to_stop":{"id":"1648","name":"origin","lat":"37.4852152","placename":"Redwood City, CA, USA","lon":"-122.2363548"},"from_stop":{"name":"origin","id":"5645","lat":"31.3112936","lon":"-92.4451371","placename":"Alexandria, LA, USA"}},{"transport_id":"2","id":"3435","transport_name":"truck, 16 tons","transport_description":"truck, half full","transport_unit":"kg km","transport_co2_eq":"0.020300","from_stop_id":"5695","from_stop_lat":"40.1784422","from_stop_lon":"-75.1285061","to_stop_id":"1648","to_stop_name":"origin","to_stop_lat":"37.4852152","placename":"Horsham, PA, USA","to_stop_lon":"-122.2363548","to_stop":{"id":"1648","name":"origin","lat":"37.4852152","placename":"Redwood City, CA, USA","lon":"-122.2363548"},"from_stop":{"name":"origin","id":"5695","lat":"40.1784422","lon":"-75.1285061","placename":"Horsham, PA, USA"}},{"transport_id":"2","id":"3436","transport_name":"truck, 16 tons","transport_description":"truck, half full","transport_unit":"kg km","transport_co2_eq":"0.020300","from_stop_id":"5696","from_stop_lat":"37.0952778","from_stop_lon":"-113.5780556","to_stop_id":"1648","to_stop_name":"origin","to_stop_lat":"37.4852152","placename":"St George, UT, USA","to_stop_lon":"-122.2363548","to_stop":{"id":"1648","name":"origin","lat":"37.4852152","placename":"Redwood City, CA, USA","lon":"-122.2363548"},"from_stop":{"name":"origin","id":"5696","lat":"37.0952778","lon":"-113.5780556","placename":"St George, UT, USA"}},{"transport_id":"2","id":"3437","transport_name":"truck, 16 tons","transport_description":"truck, half full","transport_unit":"kg km","transport_co2_eq":"0.020300","from_stop_id":"5697","from_stop_lat":"32.7153292","from_stop_lon":"-117.1572551","to_stop_id":"1648","to_stop_name":"origin","to_stop_lat":"37.4852152","placename":"San Diego, CA, USA","to_stop_lon":"-122.2363548","to_stop":{"id":"1648","name":"origin","lat":"37.4852152","placename":"Redwood City, CA, USA","lon":"-122.2363548"},"from_stop":{"name":"origin","id":"5697","lat":"32.7153292","lon":"-117.1572551","placename":"San Diego, CA, USA"}},{"transport_id":"2","id":"3438","transport_name":"truck, 16 tons","transport_description":"truck, half full","transport_unit":"kg km","transport_co2_eq":"0.020300","from_stop_id":"5698","from_stop_lat":"33.7489954","from_stop_lon":"-84.3879824","to_stop_id":"1648","to_stop_name":"origin","to_stop_lat":"37.4852152","placename":"Atlanta, GA, USA","to_stop_lon":"-122.2363548","to_stop":{"id":"1648","name":"origin","lat":"37.4852152","placename":"Redwood City, CA, USA","lon":"-122.2363548"},"from_stop":{"name":"origin","id":"5698","lat":"33.7489954","lon":"-84.3879824","placename":"Atlanta, GA, USA"}},{"transport_id":"1","id":"3483","transport_name":"van, 3.5 tons","transport_description":"delivery van, half full","transport_unit":"kg km","transport_co2_eq":"0.053400","from_stop_id":"5743","from_stop_lat":"42.224867","from_stop_lon":"-121.7816704","to_stop_id":"1648","to_stop_name":"origin","to_stop_lat":"37.4852152","placename":"Klamath Falls, OR, USA","to_stop_lon":"-122.2363548","to_stop":{"id":"1648","name":"origin","lat":"37.4852152","placename":"Redwood City, CA, USA","lon":"-122.2363548"},"from_stop":{"name":"origin","id":"5743","lat":"42.224867","lon":"-121.7816704","placename":"Klamath Falls, OR, USA"}},{"transport_id":"1","id":"3484","transport_name":"van, 3.5 tons","transport_description":"delivery van, half full","transport_unit":"kg km","transport_co2_eq":"0.053400","from_stop_id":"5744","from_stop_lat":"43.5196288","from_stop_lon":"-114.3153245","to_stop_id":"1648","to_stop_name":"origin","to_stop_lat":"37.4852152","placename":"Hailey, ID, USA","to_stop_lon":"-122.2363548","to_stop":{"id":"1648","name":"origin","lat":"37.4852152","placename":"Redwood City, CA, USA","lon":"-122.2363548"},"from_stop":{"name":"origin","id":"5744","lat":"43.5196288","lon":"-114.3153245","placename":"Hailey, ID, USA"}},{"transport_id":"1","id":"3485","transport_name":"van, 3.5 tons","transport_description":"delivery van, half full","transport_unit":"kg km","transport_co2_eq":"0.053400","from_stop_id":"5745","from_stop_lat":"0","from_stop_lon":"0","to_stop_id":"1648","to_stop_name":"origin","to_stop_lat":"37.4852152","placename":"Part Location","to_stop_lon":"-122.2363548","to_stop":{"id":"1648","name":"origin","lat":"37.4852152","placename":"Redwood City, CA, USA","lon":"-122.2363548"},"from_stop":{"name":"origin","id":"5745","lat":"0","lon":"0","placename":"Part Location"}},{"transport_id":"1","id":"3486","transport_name":"van, 3.5 tons","transport_description":"delivery van, half full","transport_unit":"kg km","transport_co2_eq":"0.053400","from_stop_id":"5746","from_stop_lat":"32.7153292","from_stop_lon":"-117.1572551","to_stop_id":"1648","to_stop_name":"origin","to_stop_lat":"37.4852152","placename":"San Diego, CA, USA","to_stop_lon":"-122.2363548","to_stop":{"id":"1648","name":"origin","lat":"37.4852152","placename":"Redwood City, CA, USA","lon":"-122.2363548"},"from_stop":{"name":"origin","id":"5746","lat":"32.7153292","lon":"-117.1572551","placename":"San Diego, CA, USA"}},{"transport_id":"2","id":"3489","transport_name":"truck, 16 tons","transport_description":"truck, half full","transport_unit":"kg km","transport_co2_eq":"0.020300","from_stop_id":"5749","from_stop_lat":"34.5361067","from_stop_lon":"-117.2911565","to_stop_id":"1648","to_stop_name":"origin","to_stop_lat":"37.4852152","placename":"Victorville, CA, USA","to_stop_lon":"-122.2363548","to_stop":{"id":"1648","name":"origin","lat":"37.4852152","placename":"Redwood City, CA, USA","lon":"-122.2363548"},"from_stop":{"name":"origin","id":"5749","lat":"34.5361067","lon":"-117.2911565","placename":"Victorville, CA, USA"}},{"transport_id":"2","id":"3490","transport_name":"truck, 16 tons","transport_description":"truck, half full","transport_unit":"kg km","transport_co2_eq":"0.020300","from_stop_id":"5750","from_stop_lat":"37.4852152","from_stop_lon":"-122.2363548","to_stop_id":"1648","to_stop_name":"origin","to_stop_lat":"37.4852152","placename":"Redwood City, CA, USA","to_stop_lon":"-122.2363548","to_stop":{"id":"1648","name":"origin","lat":"37.4852152","placename":"Redwood City, CA, USA","lon":"-122.2363548"},"from_stop":{"name":"origin","id":"5750","lat":"37.4852152","lon":"-122.2363548","placename":"Redwood City, CA, USA"}},{"transport_id":"1","id":"3496","transport_name":"van, 3.5 tons","transport_description":"delivery van, half full","transport_unit":"kg km","transport_co2_eq":"0.053400","from_stop_id":"5756","from_stop_lat":"40.5621704","from_stop_lon":"-111.929658","to_stop_id":"1648","to_stop_name":"origin","to_stop_lat":"37.4852152","placename":"South Jordan, UT, USA","to_stop_lon":"-122.2363548","to_stop":{"id":"1648","name":"origin","lat":"37.4852152","placename":"Redwood City, CA, USA","lon":"-122.2363548"},"from_stop":{"name":"origin","id":"5756","lat":"40.5621704","lon":"-111.929658","placename":"South Jordan, UT, USA"}},{"transport_id":"1","id":"3511","transport_name":"van, 3.5 tons","transport_description":"delivery van, half full","transport_unit":"kg km","transport_co2_eq":"0.053400","from_stop_id":"5771","from_stop_lat":"32.7153292","from_stop_lon":"-117.1572551","to_stop_id":"1648","to_stop_name":"origin","to_stop_lat":"37.4852152","placename":"San Diego, CA, USA","to_stop_lon":"-122.2363548","to_stop":{"id":"1648","name":"origin","lat":"37.4852152","placename":"Redwood City, CA, USA","lon":"-122.2363548"},"from_stop":{"name":"origin","id":"5771","lat":"32.7153292","lon":"-117.1572551","placename":"San Diego, CA, USA"}},{"transport_id":"2","id":"3512","transport_name":"truck, 16 tons","transport_description":"truck, half full","transport_unit":"kg km","transport_co2_eq":"0.020300","from_stop_id":"5772","from_stop_lat":"37.2297222","from_stop_lon":"-119.5094444","to_stop_id":"1648","to_stop_name":"origin","to_stop_lat":"37.4852152","placename":"North Fork, CA, USA","to_stop_lon":"-122.2363548","to_stop":{"id":"1648","name":"origin","lat":"37.4852152","placename":"Redwood City, CA, USA","lon":"-122.2363548"},"from_stop":{"name":"origin","id":"5772","lat":"37.2297222","lon":"-119.5094444","placename":"North Fork, CA, USA"}},{"transport_id":"2","id":"3513","transport_name":"truck, 16 tons","transport_description":"truck, half full","transport_unit":"kg km","transport_co2_eq":"0.020300","from_stop_id":"5773","from_stop_lat":"42.02964","from_stop_lon":"-97.41687","to_stop_id":"1648","to_stop_name":"origin","to_stop_lat":"37.4852152","placename":"Norfolk, NE, USA","to_stop_lon":"-122.2363548","to_stop":{"id":"1648","name":"origin","lat":"37.4852152","placename":"Redwood City, CA, USA","lon":"-122.2363548"},"from_stop":{"name":"origin","id":"5773","lat":"42.02964","lon":"-97.41687","placename":"Norfolk, NE, USA"}},{"transport_id":"1","id":"3514","transport_name":"van, 3.5 tons","transport_description":"delivery van, half full","transport_unit":"kg km","transport_co2_eq":"0.053400","from_stop_id":"5774","from_stop_lat":"41.3144966","from_stop_lon":"-81.83569","to_stop_id":"1648","to_stop_name":"origin","to_stop_lat":"37.4852152","placename":"Strongsville, OH, USA","to_stop_lon":"-122.2363548","to_stop":{"id":"1648","name":"origin","lat":"37.4852152","placename":"Redwood City, CA, USA","lon":"-122.2363548"},"from_stop":{"name":"origin","id":"5774","lat":"41.3144966","lon":"-81.83569","placename":"Strongsville, OH, USA"}},{"transport_id":"1","id":"3515","transport_name":"van, 3.5 tons","transport_description":"delivery van, half full","transport_unit":"kg km","transport_co2_eq":"0.053400","from_stop_id":"5775","from_stop_lat":"40.0969444","from_stop_lon":"-75.47","to_stop_id":"1648","to_stop_name":"origin","to_stop_lat":"37.4852152","placename":"Valley Forge, PA 19460, USA","to_stop_lon":"-122.2363548","to_stop":{"id":"1648","name":"origin","lat":"37.4852152","placename":"Redwood City, CA, USA","lon":"-122.2363548"},"from_stop":{"name":"origin","id":"5775","lat":"40.0969444","lon":"-75.47","placename":"Valley Forge, PA 19460, USA"}},{"transport_id":"2","id":"3516","transport_name":"truck, 16 tons","transport_description":"truck, half full","transport_unit":"kg km","transport_co2_eq":"0.020300","from_stop_id":"5776","from_stop_lat":"32.802955","from_stop_lon":"-96.769923","to_stop_id":"1648","to_stop_name":"origin","to_stop_lat":"37.4852152","placename":"Dallas, TX, USA","to_stop_lon":"-122.2363548","to_stop":{"id":"1648","name":"origin","lat":"37.4852152","placename":"Redwood City, CA, USA","lon":"-122.2363548"},"from_stop":{"name":"origin","id":"5776","lat":"32.802955","lon":"-96.769923","placename":"Dallas, TX, USA"}},{"transport_id":"2","id":"3517","transport_name":"truck, 16 tons","transport_description":"truck, half full","transport_unit":"kg km","transport_co2_eq":"0.020300","from_stop_id":"5777","from_stop_lat":"34.1066756","from_stop_lon":"-117.8067257","to_stop_id":"1648","to_stop_name":"origin","to_stop_lat":"37.4852152","placename":"San Dimas, CA, USA","to_stop_lon":"-122.2363548","to_stop":{"id":"1648","name":"origin","lat":"37.4852152","placename":"Redwood City, CA, USA","lon":"-122.2363548"},"from_stop":{"name":"origin","id":"5777","lat":"34.1066756","lon":"-117.8067257","placename":"San Dimas, CA, USA"}},{"transport_id":"3","id":"3518","transport_name":"truck, 40 tons","transport_description":"truck, half full","transport_unit":"kg km","transport_co2_eq":"0.030900","from_stop_id":"5778","from_stop_lat":"33.8752935","from_stop_lon":"-117.5664384","to_stop_id":"1648","to_stop_name":"origin","to_stop_lat":"37.4852152","placename":"Corona, CA, USA","to_stop_lon":"-122.2363548","to_stop":{"id":"1648","name":"origin","lat":"37.4852152","placename":"Redwood City, CA, USA","lon":"-122.2363548"},"from_stop":{"name":"origin","id":"5778","lat":"33.8752935","lon":"-117.5664384","placename":"Corona, CA, USA"}},{"transport_id":"2","id":"3519","transport_name":"truck, 16 tons","transport_description":"truck, half full","transport_unit":"kg km","transport_co2_eq":"0.020300","from_stop_id":"5779","from_stop_lat":"41.3144966","from_stop_lon":"-81.83569","to_stop_id":"1648","to_stop_name":"origin","to_stop_lat":"37.4852152","placename":"Strongsville, OH, USA","to_stop_lon":"-122.2363548","to_stop":{"id":"1648","name":"origin","lat":"37.4852152","placename":"Redwood City, CA, USA","lon":"-122.2363548"},"from_stop":{"name":"origin","id":"5779","lat":"41.3144966","lon":"-81.83569","placename":"Strongsville, OH, USA"}},{"transport_id":"1","id":"3520","transport_name":"van, 3.5 tons","transport_description":"delivery van, half full","transport_unit":"kg km","transport_co2_eq":"0.053400","from_stop_id":"5780","from_stop_lat":"41.3144966","from_stop_lon":"-81.83569","to_stop_id":"1648","to_stop_name":"origin","to_stop_lat":"37.4852152","placename":"Strongsville, OH, USA","to_stop_lon":"-122.2363548","to_stop":{"id":"1648","name":"origin","lat":"37.4852152","placename":"Redwood City, CA, USA","lon":"-122.2363548"},"from_stop":{"name":"origin","id":"5780","lat":"41.3144966","lon":"-81.83569","placename":"Strongsville, OH, USA"}},{"transport_id":"2","id":"3521","transport_name":"truck, 16 tons","transport_description":"truck, half full","transport_unit":"kg km","transport_co2_eq":"0.020300","from_stop_id":"5781","from_stop_lat":"42.1945758","from_stop_lon":"-122.7094767","to_stop_id":"1648","to_stop_name":"origin","to_stop_lat":"37.4852152","placename":"Ashland, OR, USA","to_stop_lon":"-122.2363548","to_stop":{"id":"1648","name":"origin","lat":"37.4852152","placename":"Redwood City, CA, USA","lon":"-122.2363548"},"from_stop":{"name":"origin","id":"5781","lat":"42.1945758","lon":"-122.7094767","placename":"Ashland, OR, USA"}},{"transport_id":"2","id":"3522","transport_name":"truck, 16 tons","transport_description":"truck, half full","transport_unit":"kg km","transport_co2_eq":"0.020300","from_stop_id":"5782","from_stop_lat":"42.224867","from_stop_lon":"-121.7816704","to_stop_id":"1648","to_stop_name":"origin","to_stop_lat":"37.4852152","placename":"Klamath Falls, OR, USA","to_stop_lon":"-122.2363548","to_stop":{"id":"1648","name":"origin","lat":"37.4852152","placename":"Redwood City, CA, USA","lon":"-122.2363548"},"from_stop":{"name":"origin","id":"5782","lat":"42.224867","lon":"-121.7816704","placename":"Klamath Falls, OR, USA"}},{"transport_id":"2","id":"3523","transport_name":"truck, 16 tons","transport_description":"truck, half full","transport_unit":"kg km","transport_co2_eq":"0.020300","from_stop_id":"5783","from_stop_lat":"33.3061605","from_stop_lon":"-111.8412502","to_stop_id":"1648","to_stop_name":"origin","to_stop_lat":"37.4852152","placename":"Chandler, AZ, USA","to_stop_lon":"-122.2363548","to_stop":{"id":"1648","name":"origin","lat":"37.4852152","placename":"Redwood City, CA, USA","lon":"-122.2363548"},"from_stop":{"name":"origin","id":"5783","lat":"33.3061605","lon":"-111.8412502","placename":"Chandler, AZ, USA"}},{"transport_id":"1","id":"3526","transport_name":"van, 3.5 tons","transport_description":"delivery van, half full","transport_unit":"kg km","transport_co2_eq":"0.053400","from_stop_id":"5786","from_stop_lat":"33.1580933","from_stop_lon":"-117.3505939","to_stop_id":"1648","to_stop_name":"origin","to_stop_lat":"37.4852152","placename":"Carlsbad, CA, USA","to_stop_lon":"-122.2363548","to_stop":{"id":"1648","name":"origin","lat":"37.4852152","placename":"Redwood City, CA, USA","lon":"-122.2363548"},"from_stop":{"name":"origin","id":"5786","lat":"33.1580933","lon":"-117.3505939","placename":"Carlsbad, CA, USA"}},{"transport_id":"1","id":"3527","transport_name":"van, 3.5 tons","transport_description":"delivery van, half full","transport_unit":"kg km","transport_co2_eq":"0.053400","from_stop_id":"5787","from_stop_lat":"37.3393857","from_stop_lon":"-121.8949555","to_stop_id":"1648","to_stop_name":"origin","to_stop_lat":"37.4852152","placename":"San Jose, CA, USA","to_stop_lon":"-122.2363548","to_stop":{"id":"1648","name":"origin","lat":"37.4852152","placename":"Redwood City, CA, USA","lon":"-122.2363548"},"from_stop":{"name":"origin","id":"5787","lat":"37.3393857","lon":"-121.8949555","placename":"San Jose, CA, USA"}},{"transport_id":"1","id":"3528","transport_name":"van, 3.5 tons","transport_description":"delivery van, half full","transport_unit":"kg km","transport_co2_eq":"0.053400","from_stop_id":"5788","from_stop_lat":"42.224867","from_stop_lon":"-121.7816704","to_stop_id":"1648","to_stop_name":"origin","to_stop_lat":"37.4852152","placename":"Klamath Falls, OR, USA","to_stop_lon":"-122.2363548","to_stop":{"id":"1648","name":"origin","lat":"37.4852152","placename":"Redwood City, CA, USA","lon":"-122.2363548"},"from_stop":{"name":"origin","id":"5788","lat":"42.224867","lon":"-121.7816704","placename":"Klamath Falls, OR, USA"}}],"outgoing":[]}}},"parts":[{"oid":"3899","imid":"3733","linkid":"parts\/brick-clay","weight":"31363.6","rawemissions":"0.16","emissions":"5018.176","shipping":"35.66","processemissions":"0","endoflifeemissions":"0","disposaltype":null,"disposalenergy":null,"disposalimpact":null,"disposalemissions":null,"description":"","name":"Reclaimed Brick, Clay","id":"3733","stops":{"origin":{"related_to":"3733","part_or_object":"p","notes":"","placename":"Oakland, CA, USA","id":5642,"name":"origin","lat":"37.8043722","lon":"-122.2708026","hops":{"incoming":[],"outgoing":[{"transport_id":"3","id":"3382","transport_name":"truck, 40 tons","transport_description":"truck, half full","transport_unit":"kg km","transport_co2_eq":"0.030900","from_stop_id":"5642","from_stop_lat":"37.8043722","from_stop_lon":"-122.2708026","from_stop_placename":"Oakland, CA, USA","to_stop_id":"1648","to_stop_name":"origin","to_stop_lat":"37.4852152","to_stop_lon":"-122.2363548","to_stop_placename":"Redwood City, CA, USA","to_stop":{"id":"1648","name":"origin","lat":"37.4852152","lon":"-122.2363548","placename":"Redwood City, CA, USA"},"from_stop":{"name":"origin","id":"5642","lat":"37.8043722","lon":"-122.2708026","placename":"Oakland, CA, USA"}}]}}},"processes":[],"eols":[]},{"oid":"3899","imid":"3732","linkid":"","weight":"5242.93","rawemissions":"0","emissions":"0","shipping":"2808.58","processemissions":"0","endoflifeemissions":"0","disposaltype":null,"disposalenergy":null,"disposalimpact":null,"disposalemissions":null,"description":"For walls and roof","name":"Tuffstrand OSB sheathing","id":"3732","stops":{"origin":{"related_to":"3732","part_or_object":"p","notes":"","placename":"Alexandria, LA, USA","id":5645,"name":"origin","lat":"31.3112936","lon":"-92.4451371","hops":{"incoming":[],"outgoing":[{"transport_id":"2","id":"3385","transport_name":"truck, 16 tons","transport_description":"truck, half full","transport_unit":"kg km","transport_co2_eq":"0.020300","from_stop_id":"5645","from_stop_lat":"31.3112936","from_stop_lon":"-92.4451371","from_stop_placename":"Alexandria, LA, USA","to_stop_id":"1648","to_stop_name":"origin","to_stop_lat":"37.4852152","to_stop_lon":"-122.2363548","to_stop_placename":"Redwood City, CA, USA","to_stop":{"id":"1648","name":"origin","lat":"37.4852152","lon":"-122.2363548","placename":"Redwood City, CA, USA"},"from_stop":{"name":"origin","id":"5645","lat":"31.3112936","lon":"-92.4451371","placename":"Alexandria, LA, USA"}}]}}},"processes":[],"eols":[]},{"oid":"3899","imid":"3734","linkid":"","weight":"47","rawemissions":"0","emissions":"0","shipping":"4048.04","processemissions":"0","endoflifeemissions":"0","disposaltype":null,"disposalenergy":null,"disposalimpact":null,"disposalemissions":null,"description":"","name":"Drainable Hydro Filament House wrap","id":"3734","stops":{"origin":{"related_to":"3734","part_or_object":"p","notes":"","placename":"Horsham, PA, USA","id":5695,"name":"origin","lat":"40.1784422","lon":"-75.1285061","hops":{"incoming":[],"outgoing":[{"transport_id":"2","id":"3435","transport_name":"truck, 16 tons","transport_description":"truck, half full","transport_unit":"kg km","transport_co2_eq":"0.020300","from_stop_id":"5695","from_stop_lat":"40.1784422","from_stop_lon":"-75.1285061","from_stop_placename":"Horsham, PA, USA","to_stop_id":"1648","to_stop_name":"origin","to_stop_lat":"37.4852152","to_stop_lon":"-122.2363548","to_stop_placename":"Redwood City, CA, USA","to_stop":{"id":"1648","name":"origin","lat":"37.4852152","lon":"-122.2363548","placename":"Redwood City, CA, USA"},"from_stop":{"name":"origin","id":"5695","lat":"40.1784422","lon":"-75.1285061","placename":"Horsham, PA, USA"}}]}}},"processes":[],"eols":[]},{"oid":"3899","imid":"3735","linkid":"","weight":"4500","rawemissions":"0","emissions":"0","shipping":"767.76","processemissions":"0","endoflifeemissions":"0","disposaltype":null,"disposalenergy":null,"disposalimpact":null,"disposalemissions":null,"description":"","name":"Engineered Finger Joint Frame studs","id":"3735","stops":{"origin":{"related_to":"3735","part_or_object":"p","notes":"","placename":"St George, UT, USA","id":5696,"name":"origin","lat":"37.0952778","lon":"-113.5780556","hops":{"incoming":[],"outgoing":[{"transport_id":"2","id":"3436","transport_name":"truck, 16 tons","transport_description":"truck, half full","transport_unit":"kg km","transport_co2_eq":"0.020300","from_stop_id":"5696","from_stop_lat":"37.0952778","from_stop_lon":"-113.5780556","from_stop_placename":"St George, UT, USA","to_stop_id":"1648","to_stop_name":"origin","to_stop_lat":"37.4852152","to_stop_lon":"-122.2363548","to_stop_placename":"Redwood City, CA, USA","to_stop":{"id":"1648","name":"origin","lat":"37.4852152","lon":"-122.2363548","placename":"Redwood City, CA, USA"},"from_stop":{"name":"origin","id":"5696","lat":"37.0952778","lon":"-113.5780556","placename":"St George, UT, USA"}}]}}},"processes":[],"eols":[]},{"oid":"3899","imid":"3736","linkid":"","weight":"67","rawemissions":"0","emissions":"0","shipping":"703.97","processemissions":"0","endoflifeemissions":"0","disposaltype":null,"disposalenergy":null,"disposalimpact":null,"disposalemissions":null,"description":"","name":"Safecoat Penetrating WaterStop","id":"3736","stops":{"origin":{"related_to":"3736","part_or_object":"p","notes":"","placename":"San Diego, CA, USA","id":5697,"name":"origin","lat":"32.7153292","lon":"-117.1572551","hops":{"incoming":[],"outgoing":[{"transport_id":"2","id":"3437","transport_name":"truck, 16 tons","transport_description":"truck, half full","transport_unit":"kg km","transport_co2_eq":"0.020300","from_stop_id":"5697","from_stop_lat":"32.7153292","from_stop_lon":"-117.1572551","from_stop_placename":"San Diego, CA, USA","to_stop_id":"1648","to_stop_name":"origin","to_stop_lat":"37.4852152","to_stop_lon":"-122.2363548","to_stop_placename":"Redwood City, CA, USA","to_stop":{"id":"1648","name":"origin","lat":"37.4852152","lon":"-122.2363548","placename":"Redwood City, CA, USA"},"from_stop":{"name":"origin","id":"5697","lat":"32.7153292","lon":"-117.1572551","placename":"San Diego, CA, USA"}}]}}},"processes":[],"eols":[]},{"oid":"3899","imid":"3737","linkid":"","weight":"314","rawemissions":"0","emissions":"0","shipping":"3427.14","processemissions":"0","endoflifeemissions":"0","disposaltype":null,"disposalenergy":null,"disposalimpact":null,"disposalemissions":null,"description":"","name":"Energy Shield Exterior Wall Insulation","id":"3737","stops":{"origin":{"related_to":"3737","part_or_object":"p","notes":"","placename":"Atlanta, GA, USA","id":5698,"name":"origin","lat":"33.7489954","lon":"-84.3879824","hops":{"incoming":[],"outgoing":[{"transport_id":"2","id":"3438","transport_name":"truck, 16 tons","transport_description":"truck, half full","transport_unit":"kg km","transport_co2_eq":"0.020300","from_stop_id":"5698","from_stop_lat":"33.7489954","from_stop_lon":"-84.3879824","from_stop_placename":"Atlanta, GA, USA","to_stop_id":"1648","to_stop_name":"origin","to_stop_lat":"37.4852152","to_stop_lon":"-122.2363548","to_stop_placename":"Redwood City, CA, USA","to_stop":{"id":"1648","name":"origin","lat":"37.4852152","lon":"-122.2363548","placename":"Redwood City, CA, USA"},"from_stop":{"name":"origin","id":"5698","lat":"33.7489954","lon":"-84.3879824","placename":"Atlanta, GA, USA"}}]}}},"processes":[],"eols":[]},{"oid":"3899","imid":"3741","linkid":"","weight":"225","rawemissions":"0","emissions":"0","shipping":"529.04","processemissions":"0","endoflifeemissions":"0","disposaltype":null,"disposalenergy":null,"disposalimpact":null,"disposalemissions":null,"description":"Jeld-Wen, Inc. \u8d301 Harbor Isles Blvd.\u842eO. Box 1329\u82ecamath Falls, OR\u08397601\u8428one: 541-882-3451\u852fll-free: 800-535-3936\u81a1x: 541-884-2231\n\n15 kgs per window * 15 windows","name":"CCD3336 Custom Clad Double Hung window","id":"3741","stops":{"origin":{"related_to":"3741","part_or_object":"p","notes":"","placename":"Klamath Falls, OR, USA","id":5743,"name":"origin","lat":"42.224867","lon":"-121.7816704","hops":{"incoming":[],"outgoing":[{"transport_id":"1","id":"3483","transport_name":"van, 3.5 tons","transport_description":"delivery van, half full","transport_unit":"kg km","transport_co2_eq":"0.053400","from_stop_id":"5743","from_stop_lat":"42.224867","from_stop_lon":"-121.7816704","from_stop_placename":"Klamath Falls, OR, USA","to_stop_id":"1648","to_stop_name":"origin","to_stop_lat":"37.4852152","to_stop_lon":"-122.2363548","to_stop_placename":"Redwood City, CA, USA","to_stop":{"id":"1648","name":"origin","lat":"37.4852152","lon":"-122.2363548","placename":"Redwood City, CA, USA"},"from_stop":{"name":"origin","id":"5743","lat":"42.224867","lon":"-121.7816704","placename":"Klamath Falls, OR, USA"}}]}}},"processes":[],"eols":[]},{"oid":"3899","imid":"3742","linkid":"","weight":"1","rawemissions":"0","emissions":"0","shipping":"948.24","processemissions":"0","endoflifeemissions":"0","disposaltype":null,"disposalenergy":null,"disposalimpact":null,"disposalemissions":null,"description":"Rocky Mountain Hardware\u20281020 Airport Way\u2028Hailey, ID\u00a0\u00a083333\u2028Phone: 208-788-2013\u2028Toll-free: 888-788-2013\u2028Fax: 208-788-2577","name":"Entrance door lock","id":"3742","stops":{"origin":{"related_to":"3742","part_or_object":"p","notes":"","placename":"Hailey, ID, USA","id":5744,"name":"origin","lat":"43.5196288","lon":"-114.3153245","hops":{"incoming":[],"outgoing":[{"transport_id":"1","id":"3484","transport_name":"van, 3.5 tons","transport_description":"delivery van, half full","transport_unit":"kg km","transport_co2_eq":"0.053400","from_stop_id":"5744","from_stop_lat":"43.5196288","from_stop_lon":"-114.3153245","from_stop_placename":"Hailey, ID, USA","to_stop_id":"1648","to_stop_name":"origin","to_stop_lat":"37.4852152","to_stop_lon":"-122.2363548","to_stop_placename":"Redwood City, CA, USA","to_stop":{"id":"1648","name":"origin","lat":"37.4852152","lon":"-122.2363548","placename":"Redwood City, CA, USA"},"from_stop":{"name":"origin","id":"5744","lat":"43.5196288","lon":"-114.3153245","placename":"Hailey, ID, USA"}}]}}},"processes":[],"eols":[]},{"oid":"3899","imid":"3743","linkid":"","weight":"3.75","rawemissions":"0","emissions":"0","shipping":"0","processemissions":"0","endoflifeemissions":"0","disposaltype":null,"disposalenergy":null,"disposalimpact":null,"disposalemissions":null,"description":"Rocky Mountain Sash lift and lock SFP100 Sash Lift SL100 Sash Lock white Bronze with medium patina, specification attached\n\nRocky Mountain Hardware\u20281020 Airport Way\u2028Hailey, ID\u00a0\u00a083333\u2028Phone: 208-788-2013\u2028Toll-free: 888-788-2013\u2028Fax: 208-788-2577\u2028www.rockymountainhardware.com\n\n15*0.250 kgs","name":"Sash lift and lock window lock","id":"3743","stops":{"origin":{"related_to":"3743","part_or_object":"p","notes":"","placename":"Part Location","id":5745,"name":"origin","lat":"0","lon":"0","hops":{"incoming":[],"outgoing":[{"transport_id":"1","id":"3485","transport_name":"van, 3.5 tons","transport_description":"delivery van, half full","transport_unit":"kg km","transport_co2_eq":"0.053400","from_stop_id":"5745","from_stop_lat":"0","from_stop_lon":"0","from_stop_placename":"Part Location","to_stop_id":"1648","to_stop_name":"origin","to_stop_lat":"37.4852152","to_stop_lon":"-122.2363548","to_stop_placename":"Redwood City, CA, USA","to_stop":{"id":"1648","name":"origin","lat":"37.4852152","lon":"-122.2363548","placename":"Redwood City, CA, USA"},"from_stop":{"name":"origin","id":"5745","lat":"0","lon":"0","placename":"Part Location"}}]}}},"processes":[],"eols":[]},{"oid":"3899","imid":"3744","linkid":"","weight":"5.5","rawemissions":"0","emissions":"0","shipping":"703.97","processemissions":"0","endoflifeemissions":"0","disposaltype":null,"disposalenergy":null,"disposalimpact":null,"disposalemissions":null,"description":"American Formulating & Manufacturing (AFM) 51 Third Ave.n Diego, CA\u9cb103one: 619-239-0321ll-free: 800-239-0321x: 619-239-0565\u7deeafmsafecoat.com\n\n12 lbs per gallon\n5.5 kgs galon","name":"Door Finish Safecoat All Purpose Exterior Satin","id":"3744","stops":{"origin":{"related_to":"3744","part_or_object":"p","notes":"","placename":"San Diego, CA, USA","id":5746,"name":"origin","lat":"32.7153292","lon":"-117.1572551","hops":{"incoming":[],"outgoing":[{"transport_id":"1","id":"3486","transport_name":"van, 3.5 tons","transport_description":"delivery van, half full","transport_unit":"kg km","transport_co2_eq":"0.053400","from_stop_id":"5746","from_stop_lat":"32.7153292","from_stop_lon":"-117.1572551","from_stop_placename":"San Diego, CA, USA","to_stop_id":"1648","to_stop_name":"origin","to_stop_lat":"37.4852152","to_stop_lon":"-122.2363548","to_stop_placename":"Redwood City, CA, USA","to_stop":{"id":"1648","name":"origin","lat":"37.4852152","lon":"-122.2363548","placename":"Redwood City, CA, USA"},"from_stop":{"name":"origin","id":"5746","lat":"32.7153292","lon":"-117.1572551","placename":"San Diego, CA, USA"}}]}}},"processes":[],"eols":[]},{"oid":"3899","imid":"3730","linkid":"parts\/cement-portland","weight":"10309.6","rawemissions":"0.6","emissions":"6185.76","shipping":"553.09","processemissions":"0","endoflifeemissions":"0","disposaltype":null,"disposalenergy":null,"disposalimpact":null,"disposalemissions":null,"description":"Cement= 10309.6 kg\nsand= 39215 kg\naggregate= 56931 kg\nflyash= 4418.4 kg","name":"Cement, Portland","id":"3730","stops":{"origin":{"related_to":"3730","part_or_object":"p","notes":"","placename":"Victorville, CA, USA","id":5749,"name":"origin","lat":"34.5361067","lon":"-117.2911565","hops":{"incoming":[],"outgoing":[{"transport_id":"2","id":"3489","transport_name":"truck, 16 tons","transport_description":"truck, half full","transport_unit":"kg km","transport_co2_eq":"0.020300","from_stop_id":"5749","from_stop_lat":"34.5361067","from_stop_lon":"-117.2911565","from_stop_placename":"Victorville, CA, USA","to_stop_id":"1648","to_stop_name":"origin","to_stop_lat":"37.4852152","to_stop_lon":"-122.2363548","to_stop_placename":"Redwood City, CA, USA","to_stop":{"id":"1648","name":"origin","lat":"37.4852152","lon":"-122.2363548","placename":"Redwood City, CA, USA"},"from_stop":{"name":"origin","id":"5749","lat":"34.5361067","lon":"-117.2911565","placename":"Victorville, CA, USA"}}]}}},"processes":[],"eols":[]},{"oid":"3899","imid":"3746","linkid":"parts\/sand","weight":"39215","rawemissions":"0","emissions":"0","shipping":"0","processemissions":"0","endoflifeemissions":"0","disposaltype":null,"disposalenergy":null,"disposalimpact":null,"disposalemissions":null,"description":"","name":"Sand","id":"3746","stops":{"origin":{"related_to":"3746","part_or_object":"p","notes":"","placename":"Redwood City, CA, USA","id":5750,"name":"origin","lat":"37.4852152","lon":"-122.2363548","hops":{"incoming":[],"outgoing":[{"transport_id":"2","id":"3490","transport_name":"truck, 16 tons","transport_description":"truck, half full","transport_unit":"kg km","transport_co2_eq":"0.020300","from_stop_id":"5750","from_stop_lat":"37.4852152","from_stop_lon":"-122.2363548","from_stop_placename":"Redwood City, CA, USA","to_stop_id":"1648","to_stop_name":"origin","to_stop_lat":"37.4852152","to_stop_lon":"-122.2363548","to_stop_placename":"Redwood City, CA, USA","to_stop":{"id":"1648","name":"origin","lat":"37.4852152","lon":"-122.2363548","placename":"Redwood City, CA, USA"},"from_stop":{"name":"origin","id":"5750","lat":"37.4852152","lon":"-122.2363548","placename":"Redwood City, CA, USA"}}]}}},"processes":[],"eols":[]},{"oid":"3899","imid":"3731","linkid":"","weight":"4418.4","rawemissions":"0","emissions":"0","shipping":"954.15","processemissions":"0","endoflifeemissions":"0","disposaltype":null,"disposalenergy":null,"disposalimpact":null,"disposalemissions":null,"description":"embodied energy is 0 as it is a by-product of steel production","name":"Fly Ash","id":"3731","stops":{"origin":{"related_to":"3731","part_or_object":"p","notes":"","placename":"South Jordan, UT, USA","id":5756,"name":"origin","lat":"40.5621704","lon":"-111.929658","hops":{"incoming":[],"outgoing":[{"transport_id":"1","id":"3496","transport_name":"van, 3.5 tons","transport_description":"delivery van, half full","transport_unit":"kg km","transport_co2_eq":"0.053400","from_stop_id":"5756","from_stop_lat":"40.5621704","from_stop_lon":"-111.929658","from_stop_placename":"South Jordan, UT, USA","to_stop_id":"1648","to_stop_name":"origin","to_stop_lat":"37.4852152","to_stop_lon":"-122.2363548","to_stop_placename":"Redwood City, CA, USA","to_stop":{"id":"1648","name":"origin","lat":"37.4852152","lon":"-122.2363548","placename":"Redwood City, CA, USA"},"from_stop":{"name":"origin","id":"5756","lat":"40.5621704","lon":"-111.929658","placename":"South Jordan, UT, USA"}}]}}},"processes":[],"eols":[]},{"oid":"3899","imid":"3761","linkid":"parts\/paint-water-based","weight":"72","rawemissions":"1.1","emissions":"79.2","shipping":"703.97","processemissions":"0","endoflifeemissions":"0","disposaltype":null,"disposalenergy":null,"disposalimpact":null,"disposalemissions":null,"description":"NO VOCs non toxic\n\n10.5 lbs\/gallon* 15gals","name":"Paint, Water-based Safecoat Naturals Pearl Lustre Paint","id":"3761","stops":{"origin":{"related_to":"3761","part_or_object":"p","notes":"","placename":"San Diego, CA, USA","id":5771,"name":"origin","lat":"32.7153292","lon":"-117.1572551","hops":{"incoming":[],"outgoing":[{"transport_id":"1","id":"3511","transport_name":"van, 3.5 tons","transport_description":"delivery van, half full","transport_unit":"kg km","transport_co2_eq":"0.053400","from_stop_id":"5771","from_stop_lat":"32.7153292","from_stop_lon":"-117.1572551","from_stop_placename":"San Diego, CA, USA","to_stop_id":"1648","to_stop_name":"origin","to_stop_lat":"37.4852152","to_stop_lon":"-122.2363548","to_stop_placename":"Redwood City, CA, USA","to_stop":{"id":"1648","name":"origin","lat":"37.4852152","lon":"-122.2363548","placename":"Redwood City, CA, USA"},"from_stop":{"name":"origin","id":"5771","lat":"32.7153292","lon":"-117.1572551","placename":"San Diego, CA, USA"}}]}}},"processes":[],"eols":[]},{"oid":"3899","imid":"3762","linkid":"","weight":"1012.4","rawemissions":"0","emissions":"0","shipping":"242.95","processemissions":"0","endoflifeemissions":"0","disposaltype":null,"disposalenergy":null,"disposalimpact":null,"disposalemissions":null,"description":"","name":"Reclaimed Wood Flooring","id":"3762","stops":{"origin":{"related_to":"3762","part_or_object":"p","notes":"","placename":"North Fork, CA, USA","id":5772,"name":"origin","lat":"37.2297222","lon":"-119.5094444","hops":{"incoming":[],"outgoing":[{"transport_id":"2","id":"3512","transport_name":"truck, 16 tons","transport_description":"truck, half full","transport_unit":"kg km","transport_co2_eq":"0.020300","from_stop_id":"5772","from_stop_lat":"37.2297222","from_stop_lon":"-119.5094444","from_stop_placename":"North Fork, CA, USA","to_stop_id":"1648","to_stop_name":"origin","to_stop_lat":"37.4852152","to_stop_lon":"-122.2363548","to_stop_placename":"Redwood City, CA, USA","to_stop":{"id":"1648","name":"origin","lat":"37.4852152","lon":"-122.2363548","placename":"Redwood City, CA, USA"},"from_stop":{"name":"origin","id":"5772","lat":"37.2297222","lon":"-119.5094444","placename":"North Fork, CA, USA"}}]}}},"processes":[],"eols":[]},{"oid":"3899","imid":"3763","linkid":"","weight":"90","rawemissions":"0","emissions":"0","shipping":"2175.06","processemissions":"0","endoflifeemissions":"0","disposaltype":null,"disposalenergy":null,"disposalimpact":null,"disposalemissions":null,"description":"","name":"Flooring underlayment, QuietWalk\u00ae","id":"3763","stops":{"origin":{"related_to":"3763","part_or_object":"p","notes":"","placename":"Norfolk, NE, USA","id":5773,"name":"origin","lat":"42.02964","lon":"-97.41687","hops":{"incoming":[],"outgoing":[{"transport_id":"2","id":"3513","transport_name":"truck, 16 tons","transport_description":"truck, half full","transport_unit":"kg km","transport_co2_eq":"0.020300","from_stop_id":"5773","from_stop_lat":"42.02964","from_stop_lon":"-97.41687","from_stop_placename":"Norfolk, NE, USA","to_stop_id":"1648","to_stop_name":"origin","to_stop_lat":"37.4852152","to_stop_lon":"-122.2363548","to_stop_placename":"Redwood City, CA, USA","to_stop":{"id":"1648","name":"origin","lat":"37.4852152","lon":"-122.2363548","placename":"Redwood City, CA, USA"},"from_stop":{"name":"origin","id":"5773","lat":"42.02964","lon":"-97.41687","placename":"Norfolk, NE, USA"}}]}}},"processes":[],"eols":[]},{"oid":"3899","imid":"3764","linkid":"","weight":"15","rawemissions":"0","emissions":"0","shipping":"3469.78","processemissions":"0","endoflifeemissions":"0","disposaltype":null,"disposalenergy":null,"disposalimpact":null,"disposalemissions":null,"description":"14 tubes","name":"Wood Adhesive Liquid Nails LN 740","id":"3764","stops":{"origin":{"related_to":"3764","part_or_object":"p","notes":"","placename":"Strongsville, OH, USA","id":5774,"name":"origin","lat":"41.3144966","lon":"-81.83569","hops":{"incoming":[],"outgoing":[{"transport_id":"1","id":"3514","transport_name":"van, 3.5 tons","transport_description":"delivery van, half full","transport_unit":"kg km","transport_co2_eq":"0.053400","from_stop_id":"5774","from_stop_lat":"41.3144966","from_stop_lon":"-81.83569","from_stop_placename":"Strongsville, OH, USA","to_stop_id":"1648","to_stop_name":"origin","to_stop_lat":"37.4852152","to_stop_lon":"-122.2363548","to_stop_placename":"Redwood City, CA, USA","to_stop":{"id":"1648","name":"origin","lat":"37.4852152","lon":"-122.2363548","placename":"Redwood City, CA, USA"},"from_stop":{"name":"origin","id":"5774","lat":"41.3144966","lon":"-81.83569","placename":"Strongsville, OH, USA"}}]}}},"processes":[],"eols":[]},{"oid":"3899","imid":"3766","linkid":"","weight":"21","rawemissions":"0","emissions":"0","shipping":"4021.33","processemissions":"0","endoflifeemissions":"0","disposaltype":null,"disposalenergy":null,"disposalimpact":null,"disposalemissions":null,"description":"","name":"Roofing Water Barrier, CertainTeed Mem Brain ","id":"3766","stops":{"origin":{"related_to":"3766","part_or_object":"p","notes":"","placename":"Valley Forge, PA 19460, USA","id":5775,"name":"origin","lat":"40.0969444","lon":"-75.47","hops":{"incoming":[],"outgoing":[{"transport_id":"1","id":"3515","transport_name":"van, 3.5 tons","transport_description":"delivery van, half full","transport_unit":"kg km","transport_co2_eq":"0.053400","from_stop_id":"5775","from_stop_lat":"40.0969444","from_stop_lon":"-75.47","from_stop_placename":"Valley Forge, PA 19460, USA","to_stop_id":"1648","to_stop_name":"origin","to_stop_lat":"37.4852152","to_stop_lon":"-122.2363548","to_stop_placename":"Redwood City, CA, USA","to_stop":{"id":"1648","name":"origin","lat":"37.4852152","lon":"-122.2363548","placename":"Redwood City, CA, USA"},"from_stop":{"name":"origin","id":"5775","lat":"40.0969444","lon":"-75.47","placename":"Valley Forge, PA 19460, USA"}}]}}},"processes":[],"eols":[]},{"oid":"3899","imid":"3767","linkid":"","weight":"2","rawemissions":"0","emissions":"0","shipping":"2368.18","processemissions":"0","endoflifeemissions":"0","disposaltype":null,"disposalenergy":null,"disposalimpact":null,"disposalemissions":null,"description":"","name":"Soffit Venting","id":"3767","stops":{"origin":{"related_to":"3767","part_or_object":"p","notes":"","placename":"Dallas, TX, USA","id":5776,"name":"origin","lat":"32.802955","lon":"-96.769923","hops":{"incoming":[],"outgoing":[{"transport_id":"2","id":"3516","transport_name":"truck, 16 tons","transport_description":"truck, half full","transport_unit":"kg km","transport_co2_eq":"0.020300","from_stop_id":"5776","from_stop_lat":"32.802955","from_stop_lon":"-96.769923","from_stop_placename":"Dallas, TX, USA","to_stop_id":"1648","to_stop_name":"origin","to_stop_lat":"37.4852152","to_stop_lon":"-122.2363548","to_stop_placename":"Redwood City, CA, USA","to_stop":{"id":"1648","name":"origin","lat":"37.4852152","lon":"-122.2363548","placename":"Redwood City, CA, USA"},"from_stop":{"name":"origin","id":"5776","lat":"32.802955","lon":"-96.769923","placename":"Dallas, TX, USA"}}]}}},"processes":[],"eols":[]},{"oid":"3899","imid":"3768","linkid":"","weight":"2400","rawemissions":"0","emissions":"0","shipping":"548.88","processemissions":"0","endoflifeemissions":"0","disposaltype":null,"disposalenergy":null,"disposalimpact":null,"disposalemissions":null,"description":"","name":"Polar Ply Radiant Barrier sheathing","id":"3768","stops":{"origin":{"related_to":"3768","part_or_object":"p","notes":"","placename":"San Dimas, CA, USA","id":5777,"name":"origin","lat":"34.1066756","lon":"-117.8067257","hops":{"incoming":[],"outgoing":[{"transport_id":"2","id":"3517","transport_name":"truck, 16 tons","transport_description":"truck, half full","transport_unit":"kg km","transport_co2_eq":"0.020300","from_stop_id":"5777","from_stop_lat":"34.1066756","from_stop_lon":"-117.8067257","from_stop_placename":"San Dimas, CA, USA","to_stop_id":"1648","to_stop_name":"origin","to_stop_lat":"37.4852152","to_stop_lon":"-122.2363548","to_stop_placename":"Redwood City, CA, USA","to_stop":{"id":"1648","name":"origin","lat":"37.4852152","lon":"-122.2363548","placename":"Redwood City, CA, USA"},"from_stop":{"name":"origin","id":"5777","lat":"34.1066756","lon":"-117.8067257","placename":"San Dimas, CA, USA"}}]}}},"processes":[],"eols":[]},{"oid":"3899","imid":"3769","linkid":"","weight":"4240","rawemissions":"0","emissions":"0","shipping":"582.76","processemissions":"0","endoflifeemissions":"0","disposaltype":null,"disposalenergy":null,"disposalimpact":null,"disposalemissions":null,"description":"","name":"Roofing Clay Tiles","id":"3769","stops":{"origin":{"related_to":"3769","part_or_object":"p","notes":"","placename":"Corona, CA, USA","id":5778,"name":"origin","lat":"33.8752935","lon":"-117.5664384","hops":{"incoming":[],"outgoing":[{"transport_id":"3","id":"3518","transport_name":"truck, 40 tons","transport_description":"truck, half full","transport_unit":"kg km","transport_co2_eq":"0.030900","from_stop_id":"5778","from_stop_lat":"33.8752935","from_stop_lon":"-117.5664384","from_stop_placename":"Corona, CA, USA","to_stop_id":"1648","to_stop_name":"origin","to_stop_lat":"37.4852152","to_stop_lon":"-122.2363548","to_stop_placename":"Redwood City, CA, USA","to_stop":{"id":"1648","name":"origin","lat":"37.4852152","lon":"-122.2363548","placename":"Redwood City, CA, USA"},"from_stop":{"name":"origin","id":"5778","lat":"33.8752935","lon":"-117.5664384","placename":"Corona, CA, USA"}}]}}},"processes":[],"eols":[]},{"oid":"3899","imid":"3770","linkid":"","weight":"30","rawemissions":"0","emissions":"0","shipping":"3469.78","processemissions":"0","endoflifeemissions":"0","disposaltype":null,"disposalenergy":null,"disposalimpact":null,"disposalemissions":null,"description":"","name":"Clay Tile Adhesive, Liquid Nails LN-903 Liquid Nails","id":"3770","stops":{"origin":{"related_to":"3770","part_or_object":"p","notes":"","placename":"Strongsville, OH, USA","id":5779,"name":"origin","lat":"41.3144966","lon":"-81.83569","hops":{"incoming":[],"outgoing":[{"transport_id":"2","id":"3519","transport_name":"truck, 16 tons","transport_description":"truck, half full","transport_unit":"kg km","transport_co2_eq":"0.020300","from_stop_id":"5779","from_stop_lat":"41.3144966","from_stop_lon":"-81.83569","from_stop_placename":"Strongsville, OH, USA","to_stop_id":"1648","to_stop_name":"origin","to_stop_lat":"37.4852152","to_stop_lon":"-122.2363548","to_stop_placename":"Redwood City, CA, USA","to_stop":{"id":"1648","name":"origin","lat":"37.4852152","lon":"-122.2363548","placename":"Redwood City, CA, USA"},"from_stop":{"name":"origin","id":"5779","lat":"41.3144966","lon":"-81.83569","placename":"Strongsville, OH, USA"}}]}}},"processes":[],"eols":[]},{"oid":"3899","imid":"3771","linkid":"","weight":"2.17","rawemissions":"0","emissions":"0","shipping":"3469.78","processemissions":"0","endoflifeemissions":"0","disposaltype":null,"disposalenergy":null,"disposalimpact":null,"disposalemissions":null,"description":"15 windows * 9 sq ft\/window","name":"Window Caulk, Liquid Nails LC-130","id":"3771","stops":{"origin":{"related_to":"3771","part_or_object":"p","notes":"","placename":"Strongsville, OH, USA","id":5780,"name":"origin","lat":"41.3144966","lon":"-81.83569","hops":{"incoming":[],"outgoing":[{"transport_id":"1","id":"3520","transport_name":"van, 3.5 tons","transport_description":"delivery van, half full","transport_unit":"kg km","transport_co2_eq":"0.053400","from_stop_id":"5780","from_stop_lat":"41.3144966","from_stop_lon":"-81.83569","from_stop_placename":"Strongsville, OH, USA","to_stop_id":"1648","to_stop_name":"origin","to_stop_lat":"37.4852152","to_stop_lon":"-122.2363548","to_stop_placename":"Redwood City, CA, USA","to_stop":{"id":"1648","name":"origin","lat":"37.4852152","lon":"-122.2363548","placename":"Redwood City, CA, USA"},"from_stop":{"name":"origin","id":"5780","lat":"41.3144966","lon":"-81.83569","placename":"Strongsville, OH, USA"}}]}}},"processes":[],"eols":[]},{"oid":"3899","imid":"3772","linkid":"","weight":"4","rawemissions":"0","emissions":"0","shipping":"525.8","processemissions":"0","endoflifeemissions":"0","disposaltype":null,"disposalenergy":null,"disposalimpact":null,"disposalemissions":null,"description":"Wheat Straw and Polymeric Diphenylmethane\nWheat makes up to 85% of the content by volume","name":"Interior door, Humabuilt single panel door","id":"3772","stops":{"origin":{"related_to":"3772","part_or_object":"p","notes":"","placename":"Ashland, OR, USA","id":5781,"name":"origin","lat":"42.1945758","lon":"-122.7094767","hops":{"incoming":[],"outgoing":[{"transport_id":"2","id":"3521","transport_name":"truck, 16 tons","transport_description":"truck, half full","transport_unit":"kg km","transport_co2_eq":"0.020300","from_stop_id":"5781","from_stop_lat":"42.1945758","from_stop_lon":"-122.7094767","from_stop_placename":"Ashland, OR, USA","to_stop_id":"1648","to_stop_name":"origin","to_stop_lat":"37.4852152","to_stop_lon":"-122.2363548","to_stop_placename":"Redwood City, CA, USA","to_stop":{"id":"1648","name":"origin","lat":"37.4852152","lon":"-122.2363548","placename":"Redwood City, CA, USA"},"from_stop":{"name":"origin","id":"5781","lat":"42.1945758","lon":"-122.7094767","placename":"Ashland, OR, USA"}}]}}},"processes":[],"eols":[]},{"oid":"3899","imid":"3773","linkid":"","weight":"125","rawemissions":"0","emissions":"0","shipping":"529.04","processemissions":"0","endoflifeemissions":"0","disposaltype":null,"disposalenergy":null,"disposalimpact":null,"disposalemissions":null,"description":"5 sliding doors","name":"Sliding Doors, JeldWen Builder Clad-Wood ","id":"3773","stops":{"origin":{"related_to":"3773","part_or_object":"p","notes":"","placename":"Klamath Falls, OR, USA","id":5782,"name":"origin","lat":"42.224867","lon":"-121.7816704","hops":{"incoming":[],"outgoing":[{"transport_id":"2","id":"3522","transport_name":"truck, 16 tons","transport_description":"truck, half full","transport_unit":"kg km","transport_co2_eq":"0.020300","from_stop_id":"5782","from_stop_lat":"42.224867","from_stop_lon":"-121.7816704","from_stop_placename":"Klamath Falls, OR, USA","to_stop_id":"1648","to_stop_name":"origin","to_stop_lat":"37.4852152","to_stop_lon":"-122.2363548","to_stop_placename":"Redwood City, CA, USA","to_stop":{"id":"1648","name":"origin","lat":"37.4852152","lon":"-122.2363548","placename":"Redwood City, CA, USA"},"from_stop":{"name":"origin","id":"5782","lat":"42.224867","lon":"-121.7816704","placename":"Klamath Falls, OR, USA"}}]}}},"processes":[],"eols":[]},{"oid":"3899","imid":"3774","linkid":"","weight":"1682","rawemissions":"0","emissions":"0","shipping":"1050.91","processemissions":"0","endoflifeemissions":"0","disposaltype":null,"disposalenergy":null,"disposalimpact":null,"disposalemissions":null,"description":"","name":"UltraTouch Natural Cotton Batt insulation","id":"3774","stops":{"origin":{"related_to":"3774","part_or_object":"p","notes":"","placename":"Chandler, AZ, USA","id":5783,"name":"origin","lat":"33.3061605","lon":"-111.8412502","hops":{"incoming":[],"outgoing":[{"transport_id":"2","id":"3523","transport_name":"truck, 16 tons","transport_description":"truck, half full","transport_unit":"kg km","transport_co2_eq":"0.020300","from_stop_id":"5783","from_stop_lat":"33.3061605","from_stop_lon":"-111.8412502","from_stop_placename":"Chandler, AZ, USA","to_stop_id":"1648","to_stop_name":"origin","to_stop_lat":"37.4852152","to_stop_lon":"-122.2363548","to_stop_placename":"Redwood City, CA, USA","to_stop":{"id":"1648","name":"origin","lat":"37.4852152","lon":"-122.2363548","placename":"Redwood City, CA, USA"},"from_stop":{"name":"origin","id":"5783","lat":"33.3061605","lon":"-111.8412502","placename":"Chandler, AZ, USA"}}]}}},"processes":[],"eols":[]},{"oid":"3899","imid":"3738","linkid":"","weight":"47","rawemissions":"0","emissions":"0","shipping":"654.74","processemissions":"0","endoflifeemissions":"0","disposaltype":null,"disposalenergy":null,"disposalimpact":null,"disposalemissions":null,"description":"","name":"Shower Wall Tiles","id":"3738","stops":{"origin":{"related_to":"3738","part_or_object":"p","notes":"","placename":"Carlsbad, CA, USA","id":5786,"name":"origin","lat":"33.1580933","lon":"-117.3505939","hops":{"incoming":[],"outgoing":[{"transport_id":"1","id":"3526","transport_name":"van, 3.5 tons","transport_description":"delivery van, half full","transport_unit":"kg km","transport_co2_eq":"0.053400","from_stop_id":"5786","from_stop_lat":"33.1580933","from_stop_lon":"-117.3505939","from_stop_placename":"Carlsbad, CA, USA","to_stop_id":"1648","to_stop_name":"origin","to_stop_lat":"37.4852152","to_stop_lon":"-122.2363548","to_stop_placename":"Redwood City, CA, USA","to_stop":{"id":"1648","name":"origin","lat":"37.4852152","lon":"-122.2363548","placename":"Redwood City, CA, USA"},"from_stop":{"name":"origin","id":"5786","lat":"33.1580933","lon":"-117.3505939","placename":"Carlsbad, CA, USA"}}]}}},"processes":[],"eols":[]},{"oid":"3899","imid":"3739","linkid":"","weight":"592","rawemissions":"0","emissions":"0","shipping":"34.27","processemissions":"0","endoflifeemissions":"0","disposaltype":null,"disposalenergy":null,"disposalimpact":null,"disposalemissions":null,"description":"","name":"Floor Tiles","id":"3739","stops":{"origin":{"related_to":"3739","part_or_object":"p","notes":"","placename":"San Jose, CA, USA","id":5787,"name":"origin","lat":"37.3393857","lon":"-121.8949555","hops":{"incoming":[],"outgoing":[{"transport_id":"1","id":"3527","transport_name":"van, 3.5 tons","transport_description":"delivery van, half full","transport_unit":"kg km","transport_co2_eq":"0.053400","from_stop_id":"5787","from_stop_lat":"37.3393857","from_stop_lon":"-121.8949555","from_stop_placename":"San Jose, CA, USA","to_stop_id":"1648","to_stop_name":"origin","to_stop_lat":"37.4852152","to_stop_lon":"-122.2363548","to_stop_placename":"Redwood City, CA, USA","to_stop":{"id":"1648","name":"origin","lat":"37.4852152","lon":"-122.2363548","placename":"Redwood City, CA, USA"},"from_stop":{"name":"origin","id":"5787","lat":"37.3393857","lon":"-121.8949555","placename":"San Jose, CA, USA"}}]}}},"processes":[],"eols":[]},{"oid":"3899","imid":"3740","linkid":"","weight":"20","rawemissions":"0","emissions":"0","shipping":"529.04","processemissions":"0","endoflifeemissions":"0","disposaltype":null,"disposalenergy":null,"disposalimpact":null,"disposalemissions":null,"description":"","name":"ES-40 Energy Saver Steel exterior door - 4 panel door ES with AuraLast\u00ae Exterior Door frame, left swing pre-hung","id":"3740","stops":{"origin":{"related_to":"3740","part_or_object":"p","notes":"","placename":"Klamath Falls, OR, USA","id":5788,"name":"origin","lat":"42.224867","lon":"-121.7816704","hops":{"incoming":[],"outgoing":[{"transport_id":"1","id":"3528","transport_name":"van, 3.5 tons","transport_description":"delivery van, half full","transport_unit":"kg km","transport_co2_eq":"0.053400","from_stop_id":"5788","from_stop_lat":"42.224867","from_stop_lon":"-121.7816704","from_stop_placename":"Klamath Falls, OR, USA","to_stop_id":"1648","to_stop_name":"origin","to_stop_lat":"37.4852152","to_stop_lon":"-122.2363548","to_stop_placename":"Redwood City, CA, USA","to_stop":{"id":"1648","name":"origin","lat":"37.4852152","lon":"-122.2363548","placename":"Redwood City, CA, USA"},"from_stop":{"name":"origin","id":"5788","lat":"42.224867","lon":"-121.7816704","placename":"Klamath Falls, OR, USA"}}]}}},"processes":[],"eols":[]}],"user":{"name":"PatChristianson","id":"10086"}}}