{"3924":{"oid":"3924","type":"food","flag":"","creator":"10189","name":"Lunch Salad","upc":"","imagelink":"","description":"Lovely lunch salad, with variety of toppings.","slug":"lunch-salad","category":"","weight":"0","emissions":"0","embodied":"0","transport":"0","process":"0","endoflife":"0","shipping":"17245.22","lifetime":null,"usagetype":"","usageenergy":null,"usageemissions":null,"timecreated":"2010-07-19 12:27:11.335089","timemodified":"2010-07-19 17:39:09","visibility":"public","showfootprint":"on","showembodied":"on","showtransport":"on","showprocess":"on","showendoflife":"on","showlastleg":"on","showuse":"on","showstats":"on","stops":{"origin":{"related_to":"3924","part_or_object":"o","notes":"","placename":"Cambridge, MA, USA","id":"1689","category":"1","lat":"42.3726399","lon":"-71.1096528","name":"origin","hops":{"incoming":[{"transport_id":"1","id":"3629","transport_name":"van, 3.5 tons","transport_description":"delivery van, half full","transport_unit":"kg km","transport_co2_eq":"0.053400","from_stop_id":"5889","from_stop_lat":"42.4072107","from_stop_lon":"-71.3824374","to_stop_id":"1689","to_stop_name":"origin","to_stop_lat":"42.3726399","placename":"Massachusetts, USA","to_stop_lon":"-71.1096528","to_stop":{"id":"1689","name":"origin","lat":"42.3726399","placename":"Cambridge, MA, USA","lon":"-71.1096528"},"from_stop":{"name":"origin","id":"5889","lat":"42.4072107","lon":"-71.3824374","placename":"Massachusetts, USA"}},{"transport_id":"9","id":"3635","transport_name":"container ship","transport_description":"moving boxcar size containers","transport_unit":"kg km","transport_co2_eq":"0.047800","from_stop_id":"5895","from_stop_lat":"31.046051","from_stop_lon":"34.851612","to_stop_id":"1689","to_stop_name":"origin","to_stop_lat":"42.3726399","placename":"Israel","to_stop_lon":"-71.1096528","to_stop":{"id":"1689","name":"origin","lat":"42.3726399","placename":"Cambridge, MA, USA","lon":"-71.1096528"},"from_stop":{"name":"origin","id":"5895","lat":"31.046051","lon":"34.851612","placename":"Israel"}},{"transport_id":"2","id":"3636","transport_name":"truck, 16 tons","transport_description":"truck, half full","transport_unit":"kg km","transport_co2_eq":"0.020300","from_stop_id":"5896","from_stop_lat":"36.778261","from_stop_lon":"-119.4179324","to_stop_id":"1689","to_stop_name":"origin","to_stop_lat":"42.3726399","placename":"California, USA","to_stop_lon":"-71.1096528","to_stop":{"id":"1689","name":"origin","lat":"42.3726399","placename":"Cambridge, MA, USA","lon":"-71.1096528"},"from_stop":{"name":"origin","id":"5896","lat":"36.778261","lon":"-119.4179324","placename":"California, USA"}},{"transport_id":"17","id":"3630","transport_name":"None Selected","transport_description":null,"transport_unit":"kg km","transport_co2_eq":"0.000000","from_stop_id":"5890","from_stop_lat":"36.778261","from_stop_lon":"-119.4179324","to_stop_id":"1689","to_stop_name":"origin","to_stop_lat":"42.3726399","placename":"California, USA","to_stop_lon":"-71.1096528","to_stop":{"id":"1689","name":"origin","lat":"42.3726399","placename":"Cambridge, MA, USA","lon":"-71.1096528"},"from_stop":{"name":"origin","id":"5890","lat":"36.778261","lon":"-119.4179324","placename":"California, USA"}},{"transport_id":"17","id":"3634","transport_name":"None Selected","transport_description":null,"transport_unit":"kg km","transport_co2_eq":"0.000000","from_stop_id":"5894","from_stop_lat":"42.4072107","from_stop_lon":"-71.3824374","to_stop_id":"1689","to_stop_name":"origin","to_stop_lat":"42.3726399","placename":"Massachusetts, USA","to_stop_lon":"-71.1096528","to_stop":{"id":"1689","name":"origin","lat":"42.3726399","placename":"Cambridge, MA, USA","lon":"-71.1096528"},"from_stop":{"name":"origin","id":"5894","lat":"42.4072107","lon":"-71.3824374","placename":"Massachusetts, USA"}},{"transport_id":"17","id":"3637","transport_name":"None Selected","transport_description":null,"transport_unit":"kg km","transport_co2_eq":"0.000000","from_stop_id":"5897","from_stop_lat":"42.4072107","from_stop_lon":"-71.3824374","to_stop_id":"1689","to_stop_name":"origin","to_stop_lat":"42.3726399","placename":"Massachusetts, USA","to_stop_lon":"-71.1096528","to_stop":{"id":"1689","name":"origin","lat":"42.3726399","placename":"Cambridge, MA, USA","lon":"-71.1096528"},"from_stop":{"name":"origin","id":"5897","lat":"42.4072107","lon":"-71.3824374","placename":"Massachusetts, USA"}}],"outgoing":[]}}},"parts":[{"oid":"3924","imid":"3826","linkid":"","weight":"0","rawemissions":"0","emissions":"0","shipping":"22.76","processemissions":"0","endoflifeemissions":"0","disposaltype":null,"disposalenergy":null,"disposalimpact":null,"disposalemissions":null,"description":"Lettuce from Red Fire Farm CSA in Granby, MA, delivered to Harvest Coop Parking Lot.","name":"Lettuce","id":"3826","stops":{"origin":{"related_to":"3826","part_or_object":"p","notes":"","placename":"Massachusetts, USA","id":5889,"name":"origin","lat":"42.4072107","lon":"-71.3824374","hops":{"incoming":[],"outgoing":[{"transport_id":"1","id":"3629","transport_name":"van, 3.5 tons","transport_description":"delivery van, half full","transport_unit":"kg km","transport_co2_eq":"0.053400","from_stop_id":"5889","from_stop_lat":"42.4072107","from_stop_lon":"-71.3824374","from_stop_placename":"Massachusetts, USA","to_stop_id":"1689","to_stop_name":"origin","to_stop_lat":"42.3726399","to_stop_lon":"-71.1096528","to_stop_placename":"Cambridge, MA, USA","to_stop":{"id":"1689","name":"origin","lat":"42.3726399","lon":"-71.1096528","placename":"Cambridge, MA, USA"},"from_stop":{"name":"origin","id":"5889","lat":"42.4072107","lon":"-71.3824374","placename":"Massachusetts, USA"}}]}}},"processes":[],"eols":[]},{"oid":"3924","imid":"3827","linkid":"","weight":"0","rawemissions":"0","emissions":"0","shipping":"4135.28","processemissions":"0","endoflifeemissions":"0","disposaltype":null,"disposalenergy":null,"disposalimpact":null,"disposalemissions":null,"description":"","name":"Golden Raisin","id":"3827","stops":{"origin":{"related_to":"3827","part_or_object":"p","notes":"","placename":"California, USA","id":5890,"name":"origin","lat":"36.778261","lon":"-119.4179324","hops":{"incoming":[],"outgoing":[{"transport_id":"17","id":"3630","transport_name":"None Selected","transport_description":null,"transport_unit":"kg km","transport_co2_eq":"0.000000","from_stop_id":"5890","from_stop_lat":"36.778261","from_stop_lon":"-119.4179324","from_stop_placename":"California, USA","to_stop_id":"1689","to_stop_name":"origin","to_stop_lat":"42.3726399","to_stop_lon":"-71.1096528","to_stop_placename":"Cambridge, MA, USA","to_stop":{"id":"1689","name":"origin","lat":"42.3726399","lon":"-71.1096528","placename":"Cambridge, MA, USA"},"from_stop":{"name":"origin","id":"5890","lat":"36.778261","lon":"-119.4179324","placename":"California, USA"}}]}}},"processes":[],"eols":[]},{"oid":"3924","imid":"3830","linkid":"","weight":"0","rawemissions":"0","emissions":"0","shipping":"22.76","processemissions":"0","endoflifeemissions":"0","disposaltype":null,"disposalenergy":null,"disposalimpact":null,"disposalemissions":null,"description":"The hummus is  from MA, Ward Hill, but I dont know about the ingredients (meta-ingredients?) in the hummus (olive oil, chickpeas, tahini, etc).","name":"Hummus","id":"3830","stops":{"origin":{"related_to":"3830","part_or_object":"p","notes":"","placename":"Massachusetts, USA","id":5894,"name":"origin","lat":"42.4072107","lon":"-71.3824374","hops":{"incoming":[],"outgoing":[{"transport_id":"17","id":"3634","transport_name":"None Selected","transport_description":null,"transport_unit":"kg km","transport_co2_eq":"0.000000","from_stop_id":"5894","from_stop_lat":"42.4072107","from_stop_lon":"-71.3824374","from_stop_placename":"Massachusetts, USA","to_stop_id":"1689","to_stop_name":"origin","to_stop_lat":"42.3726399","to_stop_lon":"-71.1096528","to_stop_placename":"Cambridge, MA, USA","to_stop":{"id":"1689","name":"origin","lat":"42.3726399","lon":"-71.1096528","placename":"Cambridge, MA, USA"},"from_stop":{"name":"origin","id":"5894","lat":"42.4072107","lon":"-71.3824374","placename":"Massachusetts, USA"}}]}}},"processes":[],"eols":[]},{"oid":"3924","imid":"3831","linkid":"","weight":"0","rawemissions":"0","emissions":"0","shipping":"8906.38","processemissions":"0","endoflifeemissions":"0","disposaltype":null,"disposalenergy":null,"disposalimpact":null,"disposalemissions":null,"description":"Sheeps milk Feta, from Trader Joes","name":"Feta Cheese","id":"3831","stops":{"origin":{"related_to":"3831","part_or_object":"p","notes":"","placename":"Israel","id":5895,"name":"origin","lat":"31.046051","lon":"34.851612","hops":{"incoming":[],"outgoing":[{"transport_id":"9","id":"3635","transport_name":"container ship","transport_description":"moving boxcar size containers","transport_unit":"kg km","transport_co2_eq":"0.047800","from_stop_id":"5895","from_stop_lat":"31.046051","from_stop_lon":"34.851612","from_stop_placename":"Israel","to_stop_id":"1689","to_stop_name":"origin","to_stop_lat":"42.3726399","to_stop_lon":"-71.1096528","to_stop_placename":"Cambridge, MA, USA","to_stop":{"id":"1689","name":"origin","lat":"42.3726399","lon":"-71.1096528","placename":"Cambridge, MA, USA"},"from_stop":{"name":"origin","id":"5895","lat":"31.046051","lon":"34.851612","placename":"Israel"}}]}}},"processes":[],"eols":[]},{"oid":"3924","imid":"3832","linkid":"","weight":"0","rawemissions":"0","emissions":"0","shipping":"4135.28","processemissions":"0","endoflifeemissions":"0","disposaltype":null,"disposalenergy":null,"disposalimpact":null,"disposalemissions":null,"description":"","name":"Walnuts","id":"3832","stops":{"origin":{"related_to":"3832","part_or_object":"p","notes":"","placename":"California, USA","id":5896,"name":"origin","lat":"36.778261","lon":"-119.4179324","hops":{"incoming":[],"outgoing":[{"transport_id":"2","id":"3636","transport_name":"truck, 16 tons","transport_description":"truck, half full","transport_unit":"kg km","transport_co2_eq":"0.020300","from_stop_id":"5896","from_stop_lat":"36.778261","from_stop_lon":"-119.4179324","from_stop_placename":"California, USA","to_stop_id":"1689","to_stop_name":"origin","to_stop_lat":"42.3726399","to_stop_lon":"-71.1096528","to_stop_placename":"Cambridge, MA, USA","to_stop":{"id":"1689","name":"origin","lat":"42.3726399","lon":"-71.1096528","placename":"Cambridge, MA, USA"},"from_stop":{"name":"origin","id":"5896","lat":"36.778261","lon":"-119.4179324","placename":"California, USA"}}]}}},"processes":[],"eols":[]},{"oid":"3924","imid":"3833","linkid":"","weight":"0","rawemissions":"0","emissions":"0","shipping":"22.76","processemissions":"0","endoflifeemissions":"0","disposaltype":null,"disposalenergy":null,"disposalimpact":null,"disposalemissions":null,"description":"CSA tomato, fresh!","name":"Tomato","id":"3833","stops":{"origin":{"related_to":"3833","part_or_object":"p","notes":"","placename":"Massachusetts, USA","id":5897,"name":"origin","lat":"42.4072107","lon":"-71.3824374","hops":{"incoming":[],"outgoing":[{"transport_id":"17","id":"3637","transport_name":"None Selected","transport_description":null,"transport_unit":"kg km","transport_co2_eq":"0.000000","from_stop_id":"5897","from_stop_lat":"42.4072107","from_stop_lon":"-71.3824374","from_stop_placename":"Massachusetts, USA","to_stop_id":"1689","to_stop_name":"origin","to_stop_lat":"42.3726399","to_stop_lon":"-71.1096528","to_stop_placename":"Cambridge, MA, USA","to_stop":{"id":"1689","name":"origin","lat":"42.3726399","lon":"-71.1096528","placename":"Cambridge, MA, USA"},"from_stop":{"name":"origin","id":"5897","lat":"42.4072107","lon":"-71.3824374","placename":"Massachusetts, USA"}}]}}},"processes":[],"eols":[]}],"user":{"name":"skipsto10","id":"10189"}}}