{"3926":{"oid":"3926","type":"object","flag":"","creator":"9624","name":"Franzoesische Pfanne","upc":"","imagelink":"","description":"franzoesische Pfanne","slug":"franzoesische-pfanne","category":"","weight":"0.7","emissions":"1.35675527523","embodied":"1.35348","transport":"0.00327527523","process":"0","endoflife":"0","shipping":"9970.58","lifetime":null,"usagetype":"","usageenergy":null,"usageemissions":null,"timecreated":"2010-07-20 11:35:08.082604","timemodified":"2010-07-21 18:52:08","visibility":"public","showfootprint":"on","showembodied":"on","showtransport":"on","showprocess":"on","showendoflife":"on","showlastleg":"on","showuse":"on","showstats":"on","stops":{"origin":{"related_to":"3926","part_or_object":"o","notes":"","placename":"Vienna, Austria","id":"1669","category":"1","lat":"48.2092062","lon":"16.3727778","name":"origin","hops":{"incoming":[{"transport_id":"1","id":"3656","transport_name":"van, 3.5 tons","transport_description":"delivery van, half full","transport_unit":"kg km","transport_co2_eq":"0.053400","from_stop_id":"5916","from_stop_lat":"48.2333333","from_stop_lon":"16.5508333","to_stop_id":"1669","to_stop_name":"origin","to_stop_lat":"48.2092062","placename":"Marchfeld, 2301 Gro\u00c3\u009f-Enzersdorf, Austria","to_stop_lon":"16.3727778","to_stop":{"id":"1669","name":"origin","lat":"48.2092062","placename":"Vienna, Austria","lon":"16.3727778"},"from_stop":{"name":"origin","id":"5916","lat":"48.2333333","lon":"16.5508333","placename":"Marchfeld, 2301 Gro\u00c3\u009f-Enzersdorf, Austria"}},{"transport_id":"1","id":"3657","transport_name":"van, 3.5 tons","transport_description":"delivery van, half full","transport_unit":"kg km","transport_co2_eq":"0.053400","from_stop_id":"5917","from_stop_lat":"48.2333333","from_stop_lon":"16.5508333","to_stop_id":"1669","to_stop_name":"origin","to_stop_lat":"48.2092062","placename":"Marchfeld, 2301 Gro\u00c3\u009f-Enzersdorf, Austria","to_stop_lon":"16.3727778","to_stop":{"id":"1669","name":"origin","lat":"48.2092062","placename":"Vienna, Austria","lon":"16.3727778"},"from_stop":{"name":"origin","id":"5917","lat":"48.2333333","lon":"16.5508333","placename":"Marchfeld, 2301 Gro\u00c3\u009f-Enzersdorf, Austria"}},{"transport_id":"1","id":"3658","transport_name":"van, 3.5 tons","transport_description":"delivery van, half full","transport_unit":"kg km","transport_co2_eq":"0.053400","from_stop_id":"5918","from_stop_lat":"48.2333333","from_stop_lon":"16.5508333","to_stop_id":"1669","to_stop_name":"origin","to_stop_lat":"48.2092062","placename":"Marchfeld, 2301 Gro\u00c3\u009f-Enzersdorf, Austria","to_stop_lon":"16.3727778","to_stop":{"id":"1669","name":"origin","lat":"48.2092062","placename":"Vienna, Austria","lon":"16.3727778"},"from_stop":{"name":"origin","id":"5918","lat":"48.2333333","lon":"16.5508333","placename":"Marchfeld, 2301 Gro\u00c3\u009f-Enzersdorf, Austria"}},{"transport_id":"1","id":"3659","transport_name":"van, 3.5 tons","transport_description":"delivery van, half full","transport_unit":"kg km","transport_co2_eq":"0.053400","from_stop_id":"5919","from_stop_lat":"48.2333333","from_stop_lon":"16.5508333","to_stop_id":"1669","to_stop_name":"origin","to_stop_lat":"48.2092062","placename":"Marchfeld, 2301 Gro\u00c3\u009f-Enzersdorf, Austria","to_stop_lon":"16.3727778","to_stop":{"id":"1669","name":"origin","lat":"48.2092062","placename":"Vienna, Austria","lon":"16.3727778"},"from_stop":{"name":"origin","id":"5919","lat":"48.2333333","lon":"16.5508333","placename":"Marchfeld, 2301 Gro\u00c3\u009f-Enzersdorf, Austria"}},{"transport_id":"1","id":"3660","transport_name":"van, 3.5 tons","transport_description":"delivery van, half full","transport_unit":"kg km","transport_co2_eq":"0.053400","from_stop_id":"5920","from_stop_lat":"48.2333333","from_stop_lon":"16.5508333","to_stop_id":"1669","to_stop_name":"origin","to_stop_lat":"48.2092062","placename":"Marchfeld, 2301 Gro\u00c3\u009f-Enzersdorf, Austria","to_stop_lon":"16.3727778","to_stop":{"id":"1669","name":"origin","lat":"48.2092062","placename":"Vienna, Austria","lon":"16.3727778"},"from_stop":{"name":"origin","id":"5920","lat":"48.2333333","lon":"16.5508333","placename":"Marchfeld, 2301 Gro\u00c3\u009f-Enzersdorf, Austria"}},{"transport_id":"2","id":"3661","transport_name":"truck, 16 tons","transport_description":"truck, half full","transport_unit":"kg km","transport_co2_eq":"0.020300","from_stop_id":"5921","from_stop_lat":"44.8078657","from_stop_lon":"10.3295478","to_stop_id":"1669","to_stop_name":"origin","to_stop_lat":"48.2092062","placename":"Parma, Italy","to_stop_lon":"16.3727778","to_stop":{"id":"1669","name":"origin","lat":"48.2092062","placename":"Vienna, Austria","lon":"16.3727778"},"from_stop":{"name":"origin","id":"5921","lat":"44.8078657","lon":"10.3295478","placename":"Parma, Italy"}},{"transport_id":"2","id":"3662","transport_name":"truck, 16 tons","transport_description":"truck, half full","transport_unit":"kg km","transport_co2_eq":"0.020300","from_stop_id":"5922","from_stop_lat":"47.9654144","from_stop_lon":"16.2139054","to_stop_id":"1669","to_stop_name":"origin","to_stop_lat":"48.2092062","placename":"Bad V\u00c3\u00b6slau, Austria","to_stop_lon":"16.3727778","to_stop":{"id":"1669","name":"origin","lat":"48.2092062","placename":"Vienna, Austria","lon":"16.3727778"},"from_stop":{"name":"origin","id":"5922","lat":"47.9654144","lon":"16.2139054","placename":"Bad V\u00c3\u00b6slau, Austria"}},{"transport_id":"1","id":"3663","transport_name":"van, 3.5 tons","transport_description":"delivery van, half full","transport_unit":"kg km","transport_co2_eq":"0.053400","from_stop_id":"5923","from_stop_lat":"46.9527434","from_stop_lon":"15.8887654","to_stop_id":"1669","to_stop_name":"origin","to_stop_lat":"48.2092062","placename":"8330 Feldbach, Austria","to_stop_lon":"16.3727778","to_stop":{"id":"1669","name":"origin","lat":"48.2092062","placename":"Vienna, Austria","lon":"16.3727778"},"from_stop":{"name":"origin","id":"5923","lat":"46.9527434","lon":"15.8887654","placename":"8330 Feldbach, Austria"}},{"transport_id":"1","id":"3664","transport_name":"van, 3.5 tons","transport_description":"delivery van, half full","transport_unit":"kg km","transport_co2_eq":"0.053400","from_stop_id":"5924","from_stop_lat":"48.006131","from_stop_lon":"16.232377","to_stop_id":"1669","to_stop_name":"origin","to_stop_lat":"48.2092062","placename":"2500 Baden, Austria","to_stop_lon":"16.3727778","to_stop":{"id":"1669","name":"origin","lat":"48.2092062","placename":"Vienna, Austria","lon":"16.3727778"},"from_stop":{"name":"origin","id":"5924","lat":"48.006131","lon":"16.232377","placename":"2500 Baden, Austria"}},{"transport_id":"2","id":"3665","transport_name":"truck, 16 tons","transport_description":"truck, half full","transport_unit":"kg km","transport_co2_eq":"0.020300","from_stop_id":"5925","from_stop_lat":"48.851615","from_stop_lon":"15.4911608","to_stop_id":"1669","to_stop_name":"origin","to_stop_lat":"48.2092062","placename":"Waldviertelweg, 3820 Raabs an der Thaya, Austria","to_stop_lon":"16.3727778","to_stop":{"id":"1669","name":"origin","lat":"48.2092062","placename":"Vienna, Austria","lon":"16.3727778"},"from_stop":{"name":"origin","id":"5925","lat":"48.851615","lon":"15.4911608","placename":"Waldviertelweg, 3820 Raabs an der Thaya, Austria"}},{"transport_id":"8","id":"3666","transport_name":"freighter, oceanic","transport_description":"","transport_unit":"kg km","transport_co2_eq":"0.004200","from_stop_id":"5926","from_stop_lat":"14.058324","from_stop_lon":"108.277199","to_stop_id":"1669","to_stop_name":"origin","to_stop_lat":"48.2092062","placename":"Vietnam","to_stop_lon":"16.3727778","to_stop":{"id":"1669","name":"origin","lat":"48.2092062","placename":"Vienna, Austria","lon":"16.3727778"},"from_stop":{"name":"origin","id":"5926","lat":"14.058324","lon":"108.277199","placename":"Vietnam"}},{"transport_id":"1","id":"3667","transport_name":"van, 3.5 tons","transport_description":"delivery van, half full","transport_unit":"kg km","transport_co2_eq":"0.053400","from_stop_id":"5927","from_stop_lat":"48.2333333","from_stop_lon":"16.5508333","to_stop_id":"1669","to_stop_name":"origin","to_stop_lat":"48.2092062","placename":"Marchfeld, 2301 Gro\u00c3\u009f-Enzersdorf, Austria","to_stop_lon":"16.3727778","to_stop":{"id":"1669","name":"origin","lat":"48.2092062","placename":"Vienna, Austria","lon":"16.3727778"},"from_stop":{"name":"origin","id":"5927","lat":"48.2333333","lon":"16.5508333","placename":"Marchfeld, 2301 Gro\u00c3\u009f-Enzersdorf, Austria"}}],"outgoing":[]}}},"parts":[{"oid":"3926","imid":"3841","linkid":"parts\/carrots","weight":"0.04","rawemissions":"0.41","emissions":"0.0164","shipping":"13.48","processemissions":"0","endoflifeemissions":"0","disposaltype":null,"disposalenergy":null,"disposalimpact":null,"disposalemissions":null,"description":"","name":"Carrots","id":"3841","stops":{"origin":{"related_to":"3841","part_or_object":"p","notes":"","placename":"Marchfeld, 2301 Gro\u00c3\u009f-Enzersdorf, Austria","id":5916,"name":"origin","lat":"48.2333333","lon":"16.5508333","hops":{"incoming":[],"outgoing":[{"transport_id":"1","id":"3656","transport_name":"van, 3.5 tons","transport_description":"delivery van, half full","transport_unit":"kg km","transport_co2_eq":"0.053400","from_stop_id":"5916","from_stop_lat":"48.2333333","from_stop_lon":"16.5508333","from_stop_placename":"Marchfeld, 2301 Gro\u00c3\u009f-Enzersdorf, Austria","to_stop_id":"1669","to_stop_name":"origin","to_stop_lat":"48.2092062","to_stop_lon":"16.3727778","to_stop_placename":"Vienna, Austria","to_stop":{"id":"1669","name":"origin","lat":"48.2092062","lon":"16.3727778","placename":"Vienna, Austria"},"from_stop":{"name":"origin","id":"5916","lat":"48.2333333","lon":"16.5508333","placename":"Marchfeld, 2301 Gro\u00c3\u009f-Enzersdorf, Austria"}}]}}},"processes":[],"eols":[]},{"oid":"3926","imid":"3842","linkid":"parts\/broccoli","weight":"0.04","rawemissions":"0.91","emissions":"0.0364","shipping":"13.48","processemissions":"0","endoflifeemissions":"0","disposaltype":null,"disposalenergy":null,"disposalimpact":null,"disposalemissions":null,"description":"","name":"Broccoli","id":"3842","stops":{"origin":{"related_to":"3842","part_or_object":"p","notes":"","placename":"Marchfeld, 2301 Gro\u00c3\u009f-Enzersdorf, Austria","id":5917,"name":"origin","lat":"48.2333333","lon":"16.5508333","hops":{"incoming":[],"outgoing":[{"transport_id":"1","id":"3657","transport_name":"van, 3.5 tons","transport_description":"delivery van, half full","transport_unit":"kg km","transport_co2_eq":"0.053400","from_stop_id":"5917","from_stop_lat":"48.2333333","from_stop_lon":"16.5508333","from_stop_placename":"Marchfeld, 2301 Gro\u00c3\u009f-Enzersdorf, Austria","to_stop_id":"1669","to_stop_name":"origin","to_stop_lat":"48.2092062","to_stop_lon":"16.3727778","to_stop_placename":"Vienna, Austria","to_stop":{"id":"1669","name":"origin","lat":"48.2092062","lon":"16.3727778","placename":"Vienna, Austria"},"from_stop":{"name":"origin","id":"5917","lat":"48.2333333","lon":"16.5508333","placename":"Marchfeld, 2301 Gro\u00c3\u009f-Enzersdorf, Austria"}}]}}},"processes":[],"eols":[]},{"oid":"3926","imid":"3843","linkid":"parts\/snap-peas","weight":"0.04","rawemissions":"1.29","emissions":"0.0516","shipping":"13.48","processemissions":"0","endoflifeemissions":"0","disposaltype":null,"disposalenergy":null,"disposalimpact":null,"disposalemissions":null,"description":"","name":"Snap Peas","id":"3843","stops":{"origin":{"related_to":"3843","part_or_object":"p","notes":"","placename":"Marchfeld, 2301 Gro\u00c3\u009f-Enzersdorf, Austria","id":5918,"name":"origin","lat":"48.2333333","lon":"16.5508333","hops":{"incoming":[],"outgoing":[{"transport_id":"1","id":"3658","transport_name":"van, 3.5 tons","transport_description":"delivery van, half full","transport_unit":"kg km","transport_co2_eq":"0.053400","from_stop_id":"5918","from_stop_lat":"48.2333333","from_stop_lon":"16.5508333","from_stop_placename":"Marchfeld, 2301 Gro\u00c3\u009f-Enzersdorf, Austria","to_stop_id":"1669","to_stop_name":"origin","to_stop_lat":"48.2092062","to_stop_lon":"16.3727778","to_stop_placename":"Vienna, Austria","to_stop":{"id":"1669","name":"origin","lat":"48.2092062","lon":"16.3727778","placename":"Vienna, Austria"},"from_stop":{"name":"origin","id":"5918","lat":"48.2333333","lon":"16.5508333","placename":"Marchfeld, 2301 Gro\u00c3\u009f-Enzersdorf, Austria"}}]}}},"processes":[],"eols":[]},{"oid":"3926","imid":"3844","linkid":"parts\/sweet-corn","weight":"0.04","rawemissions":"0.55","emissions":"0.022","shipping":"13.48","processemissions":"0","endoflifeemissions":"0","disposaltype":null,"disposalenergy":null,"disposalimpact":null,"disposalemissions":null,"description":"","name":"Sweet Corn","id":"3844","stops":{"origin":{"related_to":"3844","part_or_object":"p","notes":"","placename":"Marchfeld, 2301 Gro\u00c3\u009f-Enzersdorf, Austria","id":5919,"name":"origin","lat":"48.2333333","lon":"16.5508333","hops":{"incoming":[],"outgoing":[{"transport_id":"1","id":"3659","transport_name":"van, 3.5 tons","transport_description":"delivery van, half full","transport_unit":"kg km","transport_co2_eq":"0.053400","from_stop_id":"5919","from_stop_lat":"48.2333333","from_stop_lon":"16.5508333","from_stop_placename":"Marchfeld, 2301 Gro\u00c3\u009f-Enzersdorf, Austria","to_stop_id":"1669","to_stop_name":"origin","to_stop_lat":"48.2092062","to_stop_lon":"16.3727778","to_stop_placename":"Vienna, Austria","to_stop":{"id":"1669","name":"origin","lat":"48.2092062","lon":"16.3727778","placename":"Vienna, Austria"},"from_stop":{"name":"origin","id":"5919","lat":"48.2333333","lon":"16.5508333","placename":"Marchfeld, 2301 Gro\u00c3\u009f-Enzersdorf, Austria"}}]}}},"processes":[],"eols":[]},{"oid":"3926","imid":"3845","linkid":"parts\/bell-peppers","weight":"0.04","rawemissions":"0.94","emissions":"0.0376","shipping":"13.48","processemissions":"0","endoflifeemissions":"0","disposaltype":null,"disposalenergy":null,"disposalimpact":null,"disposalemissions":null,"description":"","name":"Bell Peppers","id":"3845","stops":{"origin":{"related_to":"3845","part_or_object":"p","notes":"","placename":"Marchfeld, 2301 Gro\u00c3\u009f-Enzersdorf, Austria","id":5920,"name":"origin","lat":"48.2333333","lon":"16.5508333","hops":{"incoming":[],"outgoing":[{"transport_id":"1","id":"3660","transport_name":"van, 3.5 tons","transport_description":"delivery van, half full","transport_unit":"kg km","transport_co2_eq":"0.053400","from_stop_id":"5920","from_stop_lat":"48.2333333","from_stop_lon":"16.5508333","from_stop_placename":"Marchfeld, 2301 Gro\u00c3\u009f-Enzersdorf, Austria","to_stop_id":"1669","to_stop_name":"origin","to_stop_lat":"48.2092062","to_stop_lon":"16.3727778","to_stop_placename":"Vienna, Austria","to_stop":{"id":"1669","name":"origin","lat":"48.2092062","lon":"16.3727778","placename":"Vienna, Austria"},"from_stop":{"name":"origin","id":"5920","lat":"48.2333333","lon":"16.5508333","placename":"Marchfeld, 2301 Gro\u00c3\u009f-Enzersdorf, Austria"}}]}}},"processes":[],"eols":[]},{"oid":"3926","imid":"3846","linkid":"parts\/pasta-5","weight":"0.182","rawemissions":"4.28","emissions":"0.77896","shipping":"597.8","processemissions":"0","endoflifeemissions":"0","disposaltype":null,"disposalenergy":null,"disposalimpact":null,"disposalemissions":null,"description":"","name":"Pasta","id":"3846","stops":{"origin":{"related_to":"3846","part_or_object":"p","notes":"","placename":"Parma, Italy","id":5921,"name":"origin","lat":"44.8078657","lon":"10.3295478","hops":{"incoming":[],"outgoing":[{"transport_id":"2","id":"3661","transport_name":"truck, 16 tons","transport_description":"truck, half full","transport_unit":"kg km","transport_co2_eq":"0.020300","from_stop_id":"5921","from_stop_lat":"44.8078657","from_stop_lon":"10.3295478","from_stop_placename":"Parma, Italy","to_stop_id":"1669","to_stop_name":"origin","to_stop_lat":"48.2092062","to_stop_lon":"16.3727778","to_stop_placename":"Vienna, Austria","to_stop":{"id":"1669","name":"origin","lat":"48.2092062","lon":"16.3727778","placename":"Vienna, Austria"},"from_stop":{"name":"origin","id":"5921","lat":"44.8078657","lon":"10.3295478","placename":"Parma, Italy"}}]}}},"processes":[],"eols":[]},{"oid":"3926","imid":"3847","linkid":"parts\/water","weight":"0.1","rawemissions":"0.11","emissions":"0.011","shipping":"29.6","processemissions":"0","endoflifeemissions":"0","disposaltype":null,"disposalenergy":null,"disposalimpact":null,"disposalemissions":null,"description":"","name":"Water","id":"3847","stops":{"origin":{"related_to":"3847","part_or_object":"p","notes":"","placename":"Bad V\u00c3\u00b6slau, Austria","id":5922,"name":"origin","lat":"47.9654144","lon":"16.2139054","hops":{"incoming":[],"outgoing":[{"transport_id":"2","id":"3662","transport_name":"truck, 16 tons","transport_description":"truck, half full","transport_unit":"kg km","transport_co2_eq":"0.020300","from_stop_id":"5922","from_stop_lat":"47.9654144","from_stop_lon":"16.2139054","from_stop_placename":"Bad V\u00c3\u00b6slau, Austria","to_stop_id":"1669","to_stop_name":"origin","to_stop_lat":"48.2092062","to_stop_lon":"16.3727778","to_stop_placename":"Vienna, Austria","to_stop":{"id":"1669","name":"origin","lat":"48.2092062","lon":"16.3727778","placename":"Vienna, Austria"},"from_stop":{"name":"origin","id":"5922","lat":"47.9654144","lon":"16.2139054","placename":"Bad V\u00c3\u00b6slau, Austria"}}]}}},"processes":[],"eols":[]},{"oid":"3926","imid":"3848","linkid":"parts\/chicken-frozen-conventional","weight":"0.077","rawemissions":"3.65","emissions":"0.28105","shipping":"144.51","processemissions":"0","endoflifeemissions":"0","disposaltype":null,"disposalenergy":null,"disposalimpact":null,"disposalemissions":null,"description":"","name":"Chicken, Frozen, Conventional","id":"3848","stops":{"origin":{"related_to":"3848","part_or_object":"p","notes":"","placename":"8330 Feldbach, Austria","id":5923,"name":"origin","lat":"46.9527434","lon":"15.8887654","hops":{"incoming":[],"outgoing":[{"transport_id":"1","id":"3663","transport_name":"van, 3.5 tons","transport_description":"delivery van, half full","transport_unit":"kg km","transport_co2_eq":"0.053400","from_stop_id":"5923","from_stop_lat":"46.9527434","from_stop_lon":"15.8887654","from_stop_placename":"8330 Feldbach, Austria","to_stop_id":"1669","to_stop_name":"origin","to_stop_lat":"48.2092062","to_stop_lon":"16.3727778","to_stop_placename":"Vienna, Austria","to_stop":{"id":"1669","name":"origin","lat":"48.2092062","lon":"16.3727778","placename":"Vienna, Austria"},"from_stop":{"name":"origin","id":"5923","lat":"46.9527434","lon":"15.8887654","placename":"8330 Feldbach, Austria"}}]}}},"processes":[],"eols":[]},{"oid":"3926","imid":"3849","linkid":"parts\/whole-milk-conventional","weight":"0.05","rawemissions":"1.1","emissions":"0.055","shipping":"24.9","processemissions":"0","endoflifeemissions":"0","disposaltype":null,"disposalenergy":null,"disposalimpact":null,"disposalemissions":null,"description":"","name":"Whole Milk, Conventional","id":"3849","stops":{"origin":{"related_to":"3849","part_or_object":"p","notes":"","placename":"2500 Baden, Austria","id":5924,"name":"origin","lat":"48.006131","lon":"16.232377","hops":{"incoming":[],"outgoing":[{"transport_id":"1","id":"3664","transport_name":"van, 3.5 tons","transport_description":"delivery van, half full","transport_unit":"kg km","transport_co2_eq":"0.053400","from_stop_id":"5924","from_stop_lat":"48.006131","from_stop_lon":"16.232377","from_stop_placename":"2500 Baden, Austria","to_stop_id":"1669","to_stop_name":"origin","to_stop_lat":"48.2092062","to_stop_lon":"16.3727778","to_stop_placename":"Vienna, Austria","to_stop":{"id":"1669","name":"origin","lat":"48.2092062","lon":"16.3727778","placename":"Vienna, Austria"},"from_stop":{"name":"origin","id":"5924","lat":"48.006131","lon":"16.232377","placename":"2500 Baden, Austria"}}]}}},"processes":[],"eols":[]},{"oid":"3926","imid":"3850","linkid":"parts\/wheat-flour","weight":"0.08","rawemissions":"0.7","emissions":"0.056","shipping":"96.63","processemissions":"0","endoflifeemissions":"0","disposaltype":null,"disposalenergy":null,"disposalimpact":null,"disposalemissions":null,"description":"","name":"Flour, Wheat","id":"3850","stops":{"origin":{"related_to":"3850","part_or_object":"p","notes":"","placename":"Waldviertelweg, 3820 Raabs an der Thaya, Austria","id":5925,"name":"origin","lat":"48.851615","lon":"15.4911608","hops":{"incoming":[],"outgoing":[{"transport_id":"2","id":"3665","transport_name":"truck, 16 tons","transport_description":"truck, half full","transport_unit":"kg km","transport_co2_eq":"0.020300","from_stop_id":"5925","from_stop_lat":"48.851615","from_stop_lon":"15.4911608","from_stop_placename":"Waldviertelweg, 3820 Raabs an der Thaya, Austria","to_stop_id":"1669","to_stop_name":"origin","to_stop_lat":"48.2092062","to_stop_lon":"16.3727778","to_stop_placename":"Vienna, Austria","to_stop":{"id":"1669","name":"origin","lat":"48.2092062","lon":"16.3727778","placename":"Vienna, Austria"},"from_stop":{"name":"origin","id":"5925","lat":"48.851615","lon":"15.4911608","placename":"Waldviertelweg, 3820 Raabs an der Thaya, Austria"}}]}}},"processes":[],"eols":[]},{"oid":"3926","imid":"3851","linkid":"parts\/black-and-white-pepper","weight":"0.001","rawemissions":"3.57","emissions":"0.00357","shipping":"8996.26","processemissions":"0","endoflifeemissions":"0","disposaltype":null,"disposalenergy":null,"disposalimpact":null,"disposalemissions":null,"description":"","name":"Black and White Pepper","id":"3851","stops":{"origin":{"related_to":"3851","part_or_object":"p","notes":"","placename":"Vietnam","id":5926,"name":"origin","lat":"14.058324","lon":"108.277199","hops":{"incoming":[],"outgoing":[{"transport_id":"8","id":"3666","transport_name":"freighter, oceanic","transport_description":"","transport_unit":"kg km","transport_co2_eq":"0.004200","from_stop_id":"5926","from_stop_lat":"14.058324","from_stop_lon":"108.277199","from_stop_placename":"Vietnam","to_stop_id":"1669","to_stop_name":"origin","to_stop_lat":"48.2092062","to_stop_lon":"16.3727778","to_stop_placename":"Vienna, Austria","to_stop":{"id":"1669","name":"origin","lat":"48.2092062","lon":"16.3727778","placename":"Vienna, Austria"},"from_stop":{"name":"origin","id":"5926","lat":"14.058324","lon":"108.277199","placename":"Vietnam"}}]}}},"processes":[],"eols":[]},{"oid":"3926","imid":"3852","linkid":"parts\/onions","weight":"0.01","rawemissions":"0.39","emissions":"0.0039","shipping":"13.48","processemissions":"0","endoflifeemissions":"0","disposaltype":null,"disposalenergy":null,"disposalimpact":null,"disposalemissions":null,"description":"","name":"Onions","id":"3852","stops":{"origin":{"related_to":"3852","part_or_object":"p","notes":"","placename":"Marchfeld, 2301 Gro\u00c3\u009f-Enzersdorf, Austria","id":5927,"name":"origin","lat":"48.2333333","lon":"16.5508333","hops":{"incoming":[],"outgoing":[{"transport_id":"1","id":"3667","transport_name":"van, 3.5 tons","transport_description":"delivery van, half full","transport_unit":"kg km","transport_co2_eq":"0.053400","from_stop_id":"5927","from_stop_lat":"48.2333333","from_stop_lon":"16.5508333","from_stop_placename":"Marchfeld, 2301 Gro\u00c3\u009f-Enzersdorf, Austria","to_stop_id":"1669","to_stop_name":"origin","to_stop_lat":"48.2092062","to_stop_lon":"16.3727778","to_stop_placename":"Vienna, Austria","to_stop":{"id":"1669","name":"origin","lat":"48.2092062","lon":"16.3727778","placename":"Vienna, Austria"},"from_stop":{"name":"origin","id":"5927","lat":"48.2333333","lon":"16.5508333","placename":"Marchfeld, 2301 Gro\u00c3\u009f-Enzersdorf, Austria"}}]}}},"processes":[],"eols":[]}],"user":{"name":"marwolka","id":"9624"}}}