{"3931":{"oid":"3931","type":"object","flag":"","creator":"9624","name":"Huehner Pfanne 1000","upc":"","imagelink":"","description":"","slug":"risibisi1000","category":"","weight":"337.2","emissions":"672.475112495","embodied":"666.89","transport":"5.5851124948","process":"0","endoflife":"0","shipping":"16173.23","lifetime":null,"usagetype":"","usageenergy":null,"usageemissions":null,"timecreated":"2010-07-21 05:09:32.689579","timemodified":"2010-07-23 19:07:56","visibility":"public","showfootprint":"on","showembodied":"on","showtransport":"on","showprocess":"on","showendoflife":"on","showlastleg":"on","showuse":"on","showstats":"on","stops":{"origin":{"related_to":"3931","part_or_object":"o","notes":"","placename":"Vienna, Austria","id":"1695","category":"1","lat":"48.2092062","lon":"16.3727778","name":"origin","hops":{"incoming":[{"transport_id":"1","id":"3599","transport_name":"van, 3.5 tons","transport_description":"delivery van, half full","transport_unit":"kg km","transport_co2_eq":"0.053400","from_stop_id":"5859","from_stop_lat":"46.9527434","from_stop_lon":"15.8887654","to_stop_id":"1695","to_stop_name":"origin","to_stop_lat":"48.2092062","placename":"8330 Feldbach, Austria","to_stop_lon":"16.3727778","to_stop":{"id":"1695","name":"origin","lat":"48.2092062","placename":"Vienna, Austria","lon":"16.3727778"},"from_stop":{"name":"origin","id":"5859","lat":"46.9527434","lon":"15.8887654","placename":"8330 Feldbach, Austria"}},{"transport_id":"8","id":"3668","transport_name":"freighter, oceanic","transport_description":"","transport_unit":"kg km","transport_co2_eq":"0.004200","from_stop_id":"5928","from_stop_lat":"35.86166","from_stop_lon":"104.195397","to_stop_id":"1695","to_stop_name":"origin","to_stop_lat":"48.2092062","placename":"China","to_stop_lon":"16.3727778","to_stop":{"id":"1695","name":"origin","lat":"48.2092062","placename":"Vienna, Austria","lon":"16.3727778"},"from_stop":{"name":"origin","id":"5928","lat":"35.86166","lon":"104.195397","placename":"China"}},{"transport_id":"1","id":"3669","transport_name":"van, 3.5 tons","transport_description":"delivery van, half full","transport_unit":"kg km","transport_co2_eq":"0.053400","from_stop_id":"5929","from_stop_lat":"48.2333333","from_stop_lon":"16.5508333","to_stop_id":"1695","to_stop_name":"origin","to_stop_lat":"48.2092062","placename":"Marchfeld, 2301 Gro\u00c3\u009f-Enzersdorf, Austria","to_stop_lon":"16.3727778","to_stop":{"id":"1695","name":"origin","lat":"48.2092062","placename":"Vienna, Austria","lon":"16.3727778"},"from_stop":{"name":"origin","id":"5929","lat":"48.2333333","lon":"16.5508333","placename":"Marchfeld, 2301 Gro\u00c3\u009f-Enzersdorf, Austria"}},{"transport_id":"2","id":"3670","transport_name":"truck, 16 tons","transport_description":"truck, half full","transport_unit":"kg km","transport_co2_eq":"0.020300","from_stop_id":"5930","from_stop_lat":"47.9654144","from_stop_lon":"16.2139054","to_stop_id":"1695","to_stop_name":"origin","to_stop_lat":"48.2092062","placename":"Bad V\u00c3\u00b6slau, Austria","to_stop_lon":"16.3727778","to_stop":{"id":"1695","name":"origin","lat":"48.2092062","placename":"Vienna, Austria","lon":"16.3727778"},"from_stop":{"name":"origin","id":"5930","lat":"47.9654144","lon":"16.2139054","placename":"Bad V\u00c3\u00b6slau, Austria"}},{"transport_id":"8","id":"3671","transport_name":"freighter, oceanic","transport_description":"","transport_unit":"kg km","transport_co2_eq":"0.004200","from_stop_id":"5931","from_stop_lat":"14.058324","from_stop_lon":"108.277199","to_stop_id":"1695","to_stop_name":"origin","to_stop_lat":"48.2092062","placename":"Vietnam","to_stop_lon":"16.3727778","to_stop":{"id":"1695","name":"origin","lat":"48.2092062","placename":"Vienna, Austria","lon":"16.3727778"},"from_stop":{"name":"origin","id":"5931","lat":"14.058324","lon":"108.277199","placename":"Vietnam"}}],"outgoing":[]}}},"parts":[{"oid":"3931","imid":"3854","linkid":"parts\/chicken-frozen-conventional","weight":"46.2","rawemissions":"3.65","emissions":"168.63","shipping":"144.51","processemissions":"0","endoflifeemissions":"0","disposaltype":null,"disposalenergy":null,"disposalimpact":null,"disposalemissions":null,"description":"","name":"Chicken, Frozen, Conventional","id":"3854","stops":{"origin":{"related_to":"3854","part_or_object":"p","notes":"","placename":"8330 Feldbach, Austria","id":5859,"name":"origin","lat":"46.9527434","lon":"15.8887654","hops":{"incoming":[],"outgoing":[{"transport_id":"1","id":"3599","transport_name":"van, 3.5 tons","transport_description":"delivery van, half full","transport_unit":"kg km","transport_co2_eq":"0.053400","from_stop_id":"5859","from_stop_lat":"46.9527434","from_stop_lon":"15.8887654","from_stop_placename":"8330 Feldbach, Austria","to_stop_id":"1695","to_stop_name":"origin","to_stop_lat":"48.2092062","to_stop_lon":"16.3727778","to_stop_placename":"Vienna, Austria","to_stop":{"id":"1695","name":"origin","lat":"48.2092062","lon":"16.3727778","placename":"Vienna, Austria"},"from_stop":{"name":"origin","id":"5859","lat":"46.9527434","lon":"15.8887654","placename":"8330 Feldbach, Austria"}}]}}},"processes":[],"eols":[]},{"oid":"3931","imid":"3853","linkid":"parts\/rice","weight":"165","rawemissions":"2.06","emissions":"339.9","shipping":"6989.38","processemissions":"0","endoflifeemissions":"0","disposaltype":null,"disposalenergy":null,"disposalimpact":null,"disposalemissions":null,"description":"","name":"Rice, no2 grain, Louisiana","id":"3853","stops":{"origin":{"related_to":"3853","part_or_object":"p","notes":"","placename":"China","id":5928,"name":"origin","lat":"35.86166","lon":"104.195397","hops":{"incoming":[],"outgoing":[{"transport_id":"8","id":"3668","transport_name":"freighter, oceanic","transport_description":"","transport_unit":"kg km","transport_co2_eq":"0.004200","from_stop_id":"5928","from_stop_lat":"35.86166","from_stop_lon":"104.195397","from_stop_placename":"China","to_stop_id":"1695","to_stop_name":"origin","to_stop_lat":"48.2092062","to_stop_lon":"16.3727778","to_stop_placename":"Vienna, Austria","to_stop":{"id":"1695","name":"origin","lat":"48.2092062","lon":"16.3727778","placename":"Vienna, Austria"},"from_stop":{"name":"origin","id":"5928","lat":"35.86166","lon":"104.195397","placename":"China"}}]}}},"processes":[],"eols":[]},{"oid":"3931","imid":"3855","linkid":"parts\/snap-peas","weight":"99","rawemissions":"1.29","emissions":"127.71","shipping":"13.48","processemissions":"0","endoflifeemissions":"0","disposaltype":null,"disposalenergy":null,"disposalimpact":null,"disposalemissions":null,"description":"","name":"Snap Peas","id":"3855","stops":{"origin":{"related_to":"3855","part_or_object":"p","notes":"","placename":"Marchfeld, 2301 Gro\u00c3\u009f-Enzersdorf, Austria","id":5929,"name":"origin","lat":"48.2333333","lon":"16.5508333","hops":{"incoming":[],"outgoing":[{"transport_id":"1","id":"3669","transport_name":"van, 3.5 tons","transport_description":"delivery van, half full","transport_unit":"kg km","transport_co2_eq":"0.053400","from_stop_id":"5929","from_stop_lat":"48.2333333","from_stop_lon":"16.5508333","from_stop_placename":"Marchfeld, 2301 Gro\u00c3\u009f-Enzersdorf, Austria","to_stop_id":"1695","to_stop_name":"origin","to_stop_lat":"48.2092062","to_stop_lon":"16.3727778","to_stop_placename":"Vienna, Austria","to_stop":{"id":"1695","name":"origin","lat":"48.2092062","lon":"16.3727778","placename":"Vienna, Austria"},"from_stop":{"name":"origin","id":"5929","lat":"48.2333333","lon":"16.5508333","placename":"Marchfeld, 2301 Gro\u00c3\u009f-Enzersdorf, Austria"}}]}}},"processes":[],"eols":[]},{"oid":"3931","imid":"3856","linkid":"parts\/water","weight":"19","rawemissions":"0.11","emissions":"2.09","shipping":"29.6","processemissions":"0","endoflifeemissions":"0","disposaltype":null,"disposalenergy":null,"disposalimpact":null,"disposalemissions":null,"description":"","name":"Water","id":"3856","stops":{"origin":{"related_to":"3856","part_or_object":"p","notes":"","placename":"Bad V\u00c3\u00b6slau, Austria","id":5930,"name":"origin","lat":"47.9654144","lon":"16.2139054","hops":{"incoming":[],"outgoing":[{"transport_id":"2","id":"3670","transport_name":"truck, 16 tons","transport_description":"truck, half full","transport_unit":"kg km","transport_co2_eq":"0.020300","from_stop_id":"5930","from_stop_lat":"47.9654144","from_stop_lon":"16.2139054","from_stop_placename":"Bad V\u00c3\u00b6slau, Austria","to_stop_id":"1695","to_stop_name":"origin","to_stop_lat":"48.2092062","to_stop_lon":"16.3727778","to_stop_placename":"Vienna, Austria","to_stop":{"id":"1695","name":"origin","lat":"48.2092062","lon":"16.3727778","placename":"Vienna, Austria"},"from_stop":{"name":"origin","id":"5930","lat":"47.9654144","lon":"16.2139054","placename":"Bad V\u00c3\u00b6slau, Austria"}}]}}},"processes":[],"eols":[]},{"oid":"3931","imid":"3857","linkid":"parts\/black-and-white-pepper","weight":"8","rawemissions":"3.57","emissions":"28.56","shipping":"8996.26","processemissions":"0","endoflifeemissions":"0","disposaltype":null,"disposalenergy":null,"disposalimpact":null,"disposalemissions":null,"description":"","name":"Black and White Pepper","id":"3857","stops":{"origin":{"related_to":"3857","part_or_object":"p","notes":"","placename":"Vietnam","id":5931,"name":"origin","lat":"14.058324","lon":"108.277199","hops":{"incoming":[],"outgoing":[{"transport_id":"8","id":"3671","transport_name":"freighter, oceanic","transport_description":"","transport_unit":"kg km","transport_co2_eq":"0.004200","from_stop_id":"5931","from_stop_lat":"14.058324","from_stop_lon":"108.277199","from_stop_placename":"Vietnam","to_stop_id":"1695","to_stop_name":"origin","to_stop_lat":"48.2092062","to_stop_lon":"16.3727778","to_stop_placename":"Vienna, Austria","to_stop":{"id":"1695","name":"origin","lat":"48.2092062","lon":"16.3727778","placename":"Vienna, Austria"},"from_stop":{"name":"origin","id":"5931","lat":"14.058324","lon":"108.277199","placename":"Vietnam"}}]}}},"processes":[],"eols":[]}],"user":{"name":"marwolka","id":"9624"}}}