{"3932":{"oid":"3932","type":"object","flag":"","creator":"9624","name":"Franzoesische Pfanne 1000","upc":"","imagelink":"","description":"","slug":"frpfanne1000","category":"featured","weight":"700","emissions":"1356.76621262","embodied":"1353.48","transport":"3.286212618","process":"0","endoflife":"0","shipping":"9973.24","lifetime":null,"usagetype":"","usageenergy":null,"usageemissions":null,"timecreated":"2010-07-21 05:13:42.652822","timemodified":"2010-07-21 13:43:35","visibility":"public","showfootprint":"on","showembodied":"on","showtransport":"on","showprocess":"on","showendoflife":"on","showlastleg":"on","showuse":"on","showstats":"on","stops":{"origin":{"related_to":"3932","part_or_object":"o","notes":"","placename":"Vienna, Austria","id":"1697","category":"1","lat":"48.2092062","lon":"16.3727778","name":"origin","hops":{"incoming":[{"transport_id":"8","id":"3595","transport_name":"freighter, oceanic","transport_description":"","transport_unit":"kg km","transport_co2_eq":"0.004200","from_stop_id":"5855","from_stop_lat":"14.058324","from_stop_lon":"108.277199","to_stop_id":"1697","to_stop_name":"origin","to_stop_lat":"48.2092062","placename":"Vietnam","to_stop_lon":"16.3727778","to_stop":{"id":"1697","name":"origin","lat":"48.2092062","placename":"Vienna, Austria","lon":"16.3727778"},"from_stop":{"name":"origin","id":"5855","lat":"14.058324","lon":"108.277199","placename":"Vietnam"}},{"transport_id":"1","id":"3596","transport_name":"van, 3.5 tons","transport_description":"delivery van, half full","transport_unit":"kg km","transport_co2_eq":"0.053400","from_stop_id":"5856","from_stop_lat":"48.2333333","from_stop_lon":"16.5508333","to_stop_id":"1697","to_stop_name":"origin","to_stop_lat":"48.2092062","placename":"Marchfeld, 2301 Gro\u00c3\u009f-Enzersdorf, Austria","to_stop_lon":"16.3727778","to_stop":{"id":"1697","name":"origin","lat":"48.2092062","placename":"Vienna, Austria","lon":"16.3727778"},"from_stop":{"name":"origin","id":"5856","lat":"48.2333333","lon":"16.5508333","placename":"Marchfeld, 2301 Gro\u00c3\u009f-Enzersdorf, Austria"}},{"transport_id":"1","id":"3672","transport_name":"van, 3.5 tons","transport_description":"delivery van, half full","transport_unit":"kg km","transport_co2_eq":"0.053400","from_stop_id":"5932","from_stop_lat":"48.2333333","from_stop_lon":"16.5508333","to_stop_id":"1697","to_stop_name":"origin","to_stop_lat":"48.2092062","placename":"Marchfeld, 2301 Gro\u00c3\u009f-Enzersdorf, Austria","to_stop_lon":"16.3727778","to_stop":{"id":"1697","name":"origin","lat":"48.2092062","placename":"Vienna, Austria","lon":"16.3727778"},"from_stop":{"name":"origin","id":"5932","lat":"48.2333333","lon":"16.5508333","placename":"Marchfeld, 2301 Gro\u00c3\u009f-Enzersdorf, Austria"}},{"transport_id":"1","id":"3673","transport_name":"van, 3.5 tons","transport_description":"delivery van, half full","transport_unit":"kg km","transport_co2_eq":"0.053400","from_stop_id":"5933","from_stop_lat":"48.2333333","from_stop_lon":"16.5508333","to_stop_id":"1697","to_stop_name":"origin","to_stop_lat":"48.2092062","placename":"Marchfeld, 2301 Gro\u00c3\u009f-Enzersdorf, Austria","to_stop_lon":"16.3727778","to_stop":{"id":"1697","name":"origin","lat":"48.2092062","placename":"Vienna, Austria","lon":"16.3727778"},"from_stop":{"name":"origin","id":"5933","lat":"48.2333333","lon":"16.5508333","placename":"Marchfeld, 2301 Gro\u00c3\u009f-Enzersdorf, Austria"}},{"transport_id":"1","id":"3674","transport_name":"van, 3.5 tons","transport_description":"delivery van, half full","transport_unit":"kg km","transport_co2_eq":"0.053400","from_stop_id":"5934","from_stop_lat":"48.2333333","from_stop_lon":"16.5508333","to_stop_id":"1697","to_stop_name":"origin","to_stop_lat":"48.2092062","placename":"Marchfeld, 2301 Gro\u00c3\u009f-Enzersdorf, Austria","to_stop_lon":"16.3727778","to_stop":{"id":"1697","name":"origin","lat":"48.2092062","placename":"Vienna, Austria","lon":"16.3727778"},"from_stop":{"name":"origin","id":"5934","lat":"48.2333333","lon":"16.5508333","placename":"Marchfeld, 2301 Gro\u00c3\u009f-Enzersdorf, Austria"}},{"transport_id":"1","id":"3675","transport_name":"van, 3.5 tons","transport_description":"delivery van, half full","transport_unit":"kg km","transport_co2_eq":"0.053400","from_stop_id":"5935","from_stop_lat":"48.2333333","from_stop_lon":"16.5508333","to_stop_id":"1697","to_stop_name":"origin","to_stop_lat":"48.2092062","placename":"Marchfeld, 2301 Gro\u00c3\u009f-Enzersdorf, Austria","to_stop_lon":"16.3727778","to_stop":{"id":"1697","name":"origin","lat":"48.2092062","placename":"Vienna, Austria","lon":"16.3727778"},"from_stop":{"name":"origin","id":"5935","lat":"48.2333333","lon":"16.5508333","placename":"Marchfeld, 2301 Gro\u00c3\u009f-Enzersdorf, Austria"}},{"transport_id":"1","id":"3676","transport_name":"van, 3.5 tons","transport_description":"delivery van, half full","transport_unit":"kg km","transport_co2_eq":"0.053400","from_stop_id":"5936","from_stop_lat":"48.2333333","from_stop_lon":"16.5508333","to_stop_id":"1697","to_stop_name":"origin","to_stop_lat":"48.2092062","placename":"Marchfeld, 2301 Gro\u00c3\u009f-Enzersdorf, Austria","to_stop_lon":"16.3727778","to_stop":{"id":"1697","name":"origin","lat":"48.2092062","placename":"Vienna, Austria","lon":"16.3727778"},"from_stop":{"name":"origin","id":"5936","lat":"48.2333333","lon":"16.5508333","placename":"Marchfeld, 2301 Gro\u00c3\u009f-Enzersdorf, Austria"}},{"transport_id":"2","id":"3677","transport_name":"truck, 16 tons","transport_description":"truck, half full","transport_unit":"kg km","transport_co2_eq":"0.020300","from_stop_id":"5937","from_stop_lat":"44.8078657","from_stop_lon":"10.3295478","to_stop_id":"1697","to_stop_name":"origin","to_stop_lat":"48.2092062","placename":"Parma, Italy","to_stop_lon":"16.3727778","to_stop":{"id":"1697","name":"origin","lat":"48.2092062","placename":"Vienna, Austria","lon":"16.3727778"},"from_stop":{"name":"origin","id":"5937","lat":"44.8078657","lon":"10.3295478","placename":"Parma, Italy"}},{"transport_id":"2","id":"3678","transport_name":"truck, 16 tons","transport_description":"truck, half full","transport_unit":"kg km","transport_co2_eq":"0.020300","from_stop_id":"5938","from_stop_lat":"47.9654144","from_stop_lon":"16.2139054","to_stop_id":"1697","to_stop_name":"origin","to_stop_lat":"48.2092062","placename":"Bad V\u00c3\u00b6slau, Austria","to_stop_lon":"16.3727778","to_stop":{"id":"1697","name":"origin","lat":"48.2092062","placename":"Vienna, Austria","lon":"16.3727778"},"from_stop":{"name":"origin","id":"5938","lat":"47.9654144","lon":"16.2139054","placename":"Bad V\u00c3\u00b6slau, Austria"}},{"transport_id":"1","id":"3679","transport_name":"van, 3.5 tons","transport_description":"delivery van, half full","transport_unit":"kg km","transport_co2_eq":"0.053400","from_stop_id":"5939","from_stop_lat":"46.9325625","from_stop_lon":"15.8636125","to_stop_id":"1697","to_stop_name":"origin","to_stop_lat":"48.2092062","placename":"Feldbach, Austria","to_stop_lon":"16.3727778","to_stop":{"id":"1697","name":"origin","lat":"48.2092062","placename":"Vienna, Austria","lon":"16.3727778"},"from_stop":{"name":"origin","id":"5939","lat":"46.9325625","lon":"15.8636125","placename":"Feldbach, Austria"}},{"transport_id":"1","id":"3680","transport_name":"van, 3.5 tons","transport_description":"delivery van, half full","transport_unit":"kg km","transport_co2_eq":"0.053400","from_stop_id":"5940","from_stop_lat":"48.006131","from_stop_lon":"16.232377","to_stop_id":"1697","to_stop_name":"origin","to_stop_lat":"48.2092062","placename":"2500 Baden, Austria","to_stop_lon":"16.3727778","to_stop":{"id":"1697","name":"origin","lat":"48.2092062","placename":"Vienna, Austria","lon":"16.3727778"},"from_stop":{"name":"origin","id":"5940","lat":"48.006131","lon":"16.232377","placename":"2500 Baden, Austria"}},{"transport_id":"2","id":"3681","transport_name":"truck, 16 tons","transport_description":"truck, half full","transport_unit":"kg km","transport_co2_eq":"0.020300","from_stop_id":"5941","from_stop_lat":"48.851615","from_stop_lon":"15.4911608","to_stop_id":"1697","to_stop_name":"origin","to_stop_lat":"48.2092062","placename":"Waldviertelweg, 3820 Raabs an der Thaya, Austria","to_stop_lon":"16.3727778","to_stop":{"id":"1697","name":"origin","lat":"48.2092062","placename":"Vienna, Austria","lon":"16.3727778"},"from_stop":{"name":"origin","id":"5941","lat":"48.851615","lon":"15.4911608","placename":"Waldviertelweg, 3820 Raabs an der Thaya, Austria"}}],"outgoing":[]}}},"parts":[{"oid":"3932","imid":"3868","linkid":"parts\/black-and-white-pepper","weight":"1","rawemissions":"3.57","emissions":"3.57","shipping":"8996.26","processemissions":"0","endoflifeemissions":"0","disposaltype":null,"disposalenergy":null,"disposalimpact":null,"disposalemissions":null,"description":"","name":"Black and White Pepper","id":"3868","stops":{"origin":{"related_to":"3868","part_or_object":"p","notes":"","placename":"Vietnam","id":5855,"name":"origin","lat":"14.058324","lon":"108.277199","hops":{"incoming":[],"outgoing":[{"transport_id":"8","id":"3595","transport_name":"freighter, oceanic","transport_description":"","transport_unit":"kg km","transport_co2_eq":"0.004200","from_stop_id":"5855","from_stop_lat":"14.058324","from_stop_lon":"108.277199","from_stop_placename":"Vietnam","to_stop_id":"1697","to_stop_name":"origin","to_stop_lat":"48.2092062","to_stop_lon":"16.3727778","to_stop_placename":"Vienna, Austria","to_stop":{"id":"1697","name":"origin","lat":"48.2092062","lon":"16.3727778","placename":"Vienna, Austria"},"from_stop":{"name":"origin","id":"5855","lat":"14.058324","lon":"108.277199","placename":"Vietnam"}}]}}},"processes":[],"eols":[]},{"oid":"3932","imid":"3869","linkid":"parts\/onions","weight":"10","rawemissions":"0.39","emissions":"3.9","shipping":"13.48","processemissions":"0","endoflifeemissions":"0","disposaltype":null,"disposalenergy":null,"disposalimpact":null,"disposalemissions":null,"description":"","name":"Onions","id":"3869","stops":{"origin":{"related_to":"3869","part_or_object":"p","notes":"","placename":"Marchfeld, 2301 Gro\u00c3\u009f-Enzersdorf, Austria","id":5856,"name":"origin","lat":"48.2333333","lon":"16.5508333","hops":{"incoming":[],"outgoing":[{"transport_id":"1","id":"3596","transport_name":"van, 3.5 tons","transport_description":"delivery van, half full","transport_unit":"kg km","transport_co2_eq":"0.053400","from_stop_id":"5856","from_stop_lat":"48.2333333","from_stop_lon":"16.5508333","from_stop_placename":"Marchfeld, 2301 Gro\u00c3\u009f-Enzersdorf, Austria","to_stop_id":"1697","to_stop_name":"origin","to_stop_lat":"48.2092062","to_stop_lon":"16.3727778","to_stop_placename":"Vienna, Austria","to_stop":{"id":"1697","name":"origin","lat":"48.2092062","lon":"16.3727778","placename":"Vienna, Austria"},"from_stop":{"name":"origin","id":"5856","lat":"48.2333333","lon":"16.5508333","placename":"Marchfeld, 2301 Gro\u00c3\u009f-Enzersdorf, Austria"}}]}}},"processes":[],"eols":[]},{"oid":"3932","imid":"3858","linkid":"parts\/carrots","weight":"40","rawemissions":"0.41","emissions":"16.4","shipping":"13.48","processemissions":"0","endoflifeemissions":"0","disposaltype":null,"disposalenergy":null,"disposalimpact":null,"disposalemissions":null,"description":"","name":"Carrots","id":"3858","stops":{"origin":{"related_to":"3858","part_or_object":"p","notes":"","placename":"Marchfeld, 2301 Gro\u00c3\u009f-Enzersdorf, Austria","id":5932,"name":"origin","lat":"48.2333333","lon":"16.5508333","hops":{"incoming":[],"outgoing":[{"transport_id":"1","id":"3672","transport_name":"van, 3.5 tons","transport_description":"delivery van, half full","transport_unit":"kg km","transport_co2_eq":"0.053400","from_stop_id":"5932","from_stop_lat":"48.2333333","from_stop_lon":"16.5508333","from_stop_placename":"Marchfeld, 2301 Gro\u00c3\u009f-Enzersdorf, Austria","to_stop_id":"1697","to_stop_name":"origin","to_stop_lat":"48.2092062","to_stop_lon":"16.3727778","to_stop_placename":"Vienna, Austria","to_stop":{"id":"1697","name":"origin","lat":"48.2092062","lon":"16.3727778","placename":"Vienna, Austria"},"from_stop":{"name":"origin","id":"5932","lat":"48.2333333","lon":"16.5508333","placename":"Marchfeld, 2301 Gro\u00c3\u009f-Enzersdorf, Austria"}}]}}},"processes":[],"eols":[]},{"oid":"3932","imid":"3859","linkid":"parts\/broccoli","weight":"40","rawemissions":"0.91","emissions":"36.4","shipping":"13.48","processemissions":"0","endoflifeemissions":"0","disposaltype":null,"disposalenergy":null,"disposalimpact":null,"disposalemissions":null,"description":"","name":"Broccoli","id":"3859","stops":{"origin":{"related_to":"3859","part_or_object":"p","notes":"","placename":"Marchfeld, 2301 Gro\u00c3\u009f-Enzersdorf, Austria","id":5933,"name":"origin","lat":"48.2333333","lon":"16.5508333","hops":{"incoming":[],"outgoing":[{"transport_id":"1","id":"3673","transport_name":"van, 3.5 tons","transport_description":"delivery van, half full","transport_unit":"kg km","transport_co2_eq":"0.053400","from_stop_id":"5933","from_stop_lat":"48.2333333","from_stop_lon":"16.5508333","from_stop_placename":"Marchfeld, 2301 Gro\u00c3\u009f-Enzersdorf, Austria","to_stop_id":"1697","to_stop_name":"origin","to_stop_lat":"48.2092062","to_stop_lon":"16.3727778","to_stop_placename":"Vienna, Austria","to_stop":{"id":"1697","name":"origin","lat":"48.2092062","lon":"16.3727778","placename":"Vienna, Austria"},"from_stop":{"name":"origin","id":"5933","lat":"48.2333333","lon":"16.5508333","placename":"Marchfeld, 2301 Gro\u00c3\u009f-Enzersdorf, Austria"}}]}}},"processes":[],"eols":[]},{"oid":"3932","imid":"3860","linkid":"parts\/snap-peas","weight":"40","rawemissions":"1.29","emissions":"51.6","shipping":"13.48","processemissions":"0","endoflifeemissions":"0","disposaltype":null,"disposalenergy":null,"disposalimpact":null,"disposalemissions":null,"description":"","name":"Snap Peas","id":"3860","stops":{"origin":{"related_to":"3860","part_or_object":"p","notes":"","placename":"Marchfeld, 2301 Gro\u00c3\u009f-Enzersdorf, Austria","id":5934,"name":"origin","lat":"48.2333333","lon":"16.5508333","hops":{"incoming":[],"outgoing":[{"transport_id":"1","id":"3674","transport_name":"van, 3.5 tons","transport_description":"delivery van, half full","transport_unit":"kg km","transport_co2_eq":"0.053400","from_stop_id":"5934","from_stop_lat":"48.2333333","from_stop_lon":"16.5508333","from_stop_placename":"Marchfeld, 2301 Gro\u00c3\u009f-Enzersdorf, Austria","to_stop_id":"1697","to_stop_name":"origin","to_stop_lat":"48.2092062","to_stop_lon":"16.3727778","to_stop_placename":"Vienna, Austria","to_stop":{"id":"1697","name":"origin","lat":"48.2092062","lon":"16.3727778","placename":"Vienna, Austria"},"from_stop":{"name":"origin","id":"5934","lat":"48.2333333","lon":"16.5508333","placename":"Marchfeld, 2301 Gro\u00c3\u009f-Enzersdorf, Austria"}}]}}},"processes":[],"eols":[]},{"oid":"3932","imid":"3861","linkid":"parts\/sweet-corn","weight":"40","rawemissions":"0.55","emissions":"22","shipping":"13.48","processemissions":"0","endoflifeemissions":"0","disposaltype":null,"disposalenergy":null,"disposalimpact":null,"disposalemissions":null,"description":"","name":"Sweet Corn","id":"3861","stops":{"origin":{"related_to":"3861","part_or_object":"p","notes":"","placename":"Marchfeld, 2301 Gro\u00c3\u009f-Enzersdorf, Austria","id":5935,"name":"origin","lat":"48.2333333","lon":"16.5508333","hops":{"incoming":[],"outgoing":[{"transport_id":"1","id":"3675","transport_name":"van, 3.5 tons","transport_description":"delivery van, half full","transport_unit":"kg km","transport_co2_eq":"0.053400","from_stop_id":"5935","from_stop_lat":"48.2333333","from_stop_lon":"16.5508333","from_stop_placename":"Marchfeld, 2301 Gro\u00c3\u009f-Enzersdorf, Austria","to_stop_id":"1697","to_stop_name":"origin","to_stop_lat":"48.2092062","to_stop_lon":"16.3727778","to_stop_placename":"Vienna, Austria","to_stop":{"id":"1697","name":"origin","lat":"48.2092062","lon":"16.3727778","placename":"Vienna, Austria"},"from_stop":{"name":"origin","id":"5935","lat":"48.2333333","lon":"16.5508333","placename":"Marchfeld, 2301 Gro\u00c3\u009f-Enzersdorf, Austria"}}]}}},"processes":[],"eols":[]},{"oid":"3932","imid":"3862","linkid":"parts\/bell-peppers","weight":"40","rawemissions":"0.94","emissions":"37.6","shipping":"13.48","processemissions":"0","endoflifeemissions":"0","disposaltype":null,"disposalenergy":null,"disposalimpact":null,"disposalemissions":null,"description":"","name":"Bell Peppers","id":"3862","stops":{"origin":{"related_to":"3862","part_or_object":"p","notes":"","placename":"Marchfeld, 2301 Gro\u00c3\u009f-Enzersdorf, Austria","id":5936,"name":"origin","lat":"48.2333333","lon":"16.5508333","hops":{"incoming":[],"outgoing":[{"transport_id":"1","id":"3676","transport_name":"van, 3.5 tons","transport_description":"delivery van, half full","transport_unit":"kg km","transport_co2_eq":"0.053400","from_stop_id":"5936","from_stop_lat":"48.2333333","from_stop_lon":"16.5508333","from_stop_placename":"Marchfeld, 2301 Gro\u00c3\u009f-Enzersdorf, Austria","to_stop_id":"1697","to_stop_name":"origin","to_stop_lat":"48.2092062","to_stop_lon":"16.3727778","to_stop_placename":"Vienna, Austria","to_stop":{"id":"1697","name":"origin","lat":"48.2092062","lon":"16.3727778","placename":"Vienna, Austria"},"from_stop":{"name":"origin","id":"5936","lat":"48.2333333","lon":"16.5508333","placename":"Marchfeld, 2301 Gro\u00c3\u009f-Enzersdorf, Austria"}}]}}},"processes":[],"eols":[]},{"oid":"3932","imid":"3863","linkid":"parts\/pasta-5","weight":"182","rawemissions":"4.28","emissions":"778.96","shipping":"597.8","processemissions":"0","endoflifeemissions":"0","disposaltype":null,"disposalenergy":null,"disposalimpact":null,"disposalemissions":null,"description":"","name":"Pasta","id":"3863","stops":{"origin":{"related_to":"3863","part_or_object":"p","notes":"","placename":"Parma, Italy","id":5937,"name":"origin","lat":"44.8078657","lon":"10.3295478","hops":{"incoming":[],"outgoing":[{"transport_id":"2","id":"3677","transport_name":"truck, 16 tons","transport_description":"truck, half full","transport_unit":"kg km","transport_co2_eq":"0.020300","from_stop_id":"5937","from_stop_lat":"44.8078657","from_stop_lon":"10.3295478","from_stop_placename":"Parma, Italy","to_stop_id":"1697","to_stop_name":"origin","to_stop_lat":"48.2092062","to_stop_lon":"16.3727778","to_stop_placename":"Vienna, Austria","to_stop":{"id":"1697","name":"origin","lat":"48.2092062","lon":"16.3727778","placename":"Vienna, Austria"},"from_stop":{"name":"origin","id":"5937","lat":"44.8078657","lon":"10.3295478","placename":"Parma, Italy"}}]}}},"processes":[],"eols":[]},{"oid":"3932","imid":"3864","linkid":"parts\/water","weight":"100","rawemissions":"0.11","emissions":"11","shipping":"29.6","processemissions":"0","endoflifeemissions":"0","disposaltype":null,"disposalenergy":null,"disposalimpact":null,"disposalemissions":null,"description":"","name":"Water","id":"3864","stops":{"origin":{"related_to":"3864","part_or_object":"p","notes":"","placename":"Bad V\u00c3\u00b6slau, Austria","id":5938,"name":"origin","lat":"47.9654144","lon":"16.2139054","hops":{"incoming":[],"outgoing":[{"transport_id":"2","id":"3678","transport_name":"truck, 16 tons","transport_description":"truck, half full","transport_unit":"kg km","transport_co2_eq":"0.020300","from_stop_id":"5938","from_stop_lat":"47.9654144","from_stop_lon":"16.2139054","from_stop_placename":"Bad V\u00c3\u00b6slau, Austria","to_stop_id":"1697","to_stop_name":"origin","to_stop_lat":"48.2092062","to_stop_lon":"16.3727778","to_stop_placename":"Vienna, Austria","to_stop":{"id":"1697","name":"origin","lat":"48.2092062","lon":"16.3727778","placename":"Vienna, Austria"},"from_stop":{"name":"origin","id":"5938","lat":"47.9654144","lon":"16.2139054","placename":"Bad V\u00c3\u00b6slau, Austria"}}]}}},"processes":[],"eols":[]},{"oid":"3932","imid":"3865","linkid":"parts\/chicken-frozen-conventional","weight":"77","rawemissions":"3.65","emissions":"281.05","shipping":"147.17","processemissions":"0","endoflifeemissions":"0","disposaltype":null,"disposalenergy":null,"disposalimpact":null,"disposalemissions":null,"description":"","name":"Chicken, Frozen, Conventional","id":"3865","stops":{"origin":{"related_to":"3865","part_or_object":"p","notes":"","placename":"Feldbach, Austria","id":5939,"name":"origin","lat":"46.9325625","lon":"15.8636125","hops":{"incoming":[],"outgoing":[{"transport_id":"1","id":"3679","transport_name":"van, 3.5 tons","transport_description":"delivery van, half full","transport_unit":"kg km","transport_co2_eq":"0.053400","from_stop_id":"5939","from_stop_lat":"46.9325625","from_stop_lon":"15.8636125","from_stop_placename":"Feldbach, Austria","to_stop_id":"1697","to_stop_name":"origin","to_stop_lat":"48.2092062","to_stop_lon":"16.3727778","to_stop_placename":"Vienna, Austria","to_stop":{"id":"1697","name":"origin","lat":"48.2092062","lon":"16.3727778","placename":"Vienna, Austria"},"from_stop":{"name":"origin","id":"5939","lat":"46.9325625","lon":"15.8636125","placename":"Feldbach, Austria"}}]}}},"processes":[],"eols":[]},{"oid":"3932","imid":"3866","linkid":"parts\/whole-milk-conventional","weight":"50","rawemissions":"1.1","emissions":"55","shipping":"24.9","processemissions":"0","endoflifeemissions":"0","disposaltype":null,"disposalenergy":null,"disposalimpact":null,"disposalemissions":null,"description":"","name":"Whole Milk, Conventional","id":"3866","stops":{"origin":{"related_to":"3866","part_or_object":"p","notes":"","placename":"2500 Baden, Austria","id":5940,"name":"origin","lat":"48.006131","lon":"16.232377","hops":{"incoming":[],"outgoing":[{"transport_id":"1","id":"3680","transport_name":"van, 3.5 tons","transport_description":"delivery van, half full","transport_unit":"kg km","transport_co2_eq":"0.053400","from_stop_id":"5940","from_stop_lat":"48.006131","from_stop_lon":"16.232377","from_stop_placename":"2500 Baden, Austria","to_stop_id":"1697","to_stop_name":"origin","to_stop_lat":"48.2092062","to_stop_lon":"16.3727778","to_stop_placename":"Vienna, Austria","to_stop":{"id":"1697","name":"origin","lat":"48.2092062","lon":"16.3727778","placename":"Vienna, Austria"},"from_stop":{"name":"origin","id":"5940","lat":"48.006131","lon":"16.232377","placename":"2500 Baden, Austria"}}]}}},"processes":[],"eols":[]},{"oid":"3932","imid":"3867","linkid":"parts\/wheat-flour","weight":"80","rawemissions":"0.7","emissions":"56","shipping":"96.63","processemissions":"0","endoflifeemissions":"0","disposaltype":null,"disposalenergy":null,"disposalimpact":null,"disposalemissions":null,"description":"","name":"Flour, Wheat","id":"3867","stops":{"origin":{"related_to":"3867","part_or_object":"p","notes":"","placename":"Waldviertelweg, 3820 Raabs an der Thaya, Austria","id":5941,"name":"origin","lat":"48.851615","lon":"15.4911608","hops":{"incoming":[],"outgoing":[{"transport_id":"2","id":"3681","transport_name":"truck, 16 tons","transport_description":"truck, half full","transport_unit":"kg km","transport_co2_eq":"0.020300","from_stop_id":"5941","from_stop_lat":"48.851615","from_stop_lon":"15.4911608","from_stop_placename":"Waldviertelweg, 3820 Raabs an der Thaya, Austria","to_stop_id":"1697","to_stop_name":"origin","to_stop_lat":"48.2092062","to_stop_lon":"16.3727778","to_stop_placename":"Vienna, Austria","to_stop":{"id":"1697","name":"origin","lat":"48.2092062","lon":"16.3727778","placename":"Vienna, Austria"},"from_stop":{"name":"origin","id":"5941","lat":"48.851615","lon":"15.4911608","placename":"Waldviertelweg, 3820 Raabs an der Thaya, Austria"}}]}}},"processes":[],"eols":[]}],"user":{"name":"marwolka","id":"9624"}}}