{"3956":{"oid":"3956","type":"food","flag":"","creator":"10314","name":"Kettle Cuisine Soups","upc":"","imagelink":"","description":"http:\/\/www.kettlecuisine.com\/Our-Soup.aspx","slug":"kettle-cuisines-chicken-soup-with-rice-noodles","category":"","weight":"0","emissions":"0","embodied":"0","transport":"0","process":"0","endoflife":"0","shipping":"21980.68","lifetime":null,"usagetype":"","usageenergy":null,"usageemissions":null,"timecreated":"2010-08-04 08:45:30.711032","timemodified":"2010-08-04 13:08:42","visibility":"private","showfootprint":"on","showembodied":"","showtransport":"on","showprocess":"on","showendoflife":"on","showlastleg":"on","showuse":"on","showstats":"on","stops":{"origin":{"related_to":"3956","part_or_object":"o","notes":"","placename":"Chelsea, MA, USA","id":"1729","category":"1","lat":"42.3917638","lon":"-71.0328284","name":"origin","hops":{"incoming":[{"transport_id":"17","id":"3605","transport_name":"None Selected","transport_description":null,"transport_unit":"kg km","transport_co2_eq":"0.000000","from_stop_id":"5865","from_stop_lat":"40.4437018","from_stop_lon":"-76.4282933","to_stop_id":"1729","to_stop_name":"origin","to_stop_lat":"42.3917638","placename":"Fredericksburg, PA, USA","to_stop_lon":"-71.0328284","to_stop":{"id":"1729","name":"origin","lat":"42.3917638","placename":"Chelsea, MA, USA","lon":"-71.0328284"},"from_stop":{"name":"origin","id":"5865","lat":"40.4437018","lon":"-76.4282933","placename":"Fredericksburg, PA, USA"}},{"transport_id":"17","id":"3620","transport_name":"None Selected","transport_description":null,"transport_unit":"kg km","transport_co2_eq":"0.000000","from_stop_id":"5880","from_stop_lat":"42.4500845","from_stop_lon":"-73.2453824","to_stop_id":"1729","to_stop_name":"origin","to_stop_lat":"42.3917638","placename":"Pittsfield, MA, USA","to_stop_lon":"-71.0328284","to_stop":{"id":"1729","name":"origin","lat":"42.3917638","placename":"Chelsea, MA, USA","lon":"-71.0328284"},"from_stop":{"name":"origin","id":"5880","lat":"42.4500845","lon":"-73.2453824","placename":"Pittsfield, MA, USA"}},{"transport_id":"17","id":"3621","transport_name":"None Selected","transport_description":null,"transport_unit":"kg km","transport_co2_eq":"0.000000","from_stop_id":"5881","from_stop_lat":"40.3042778","from_stop_lon":"-73.9923596","to_stop_id":"1729","to_stop_name":"origin","to_stop_lat":"42.3917638","placename":"Long Branch, NJ, USA","to_stop_lon":"-71.0328284","to_stop":{"id":"1729","name":"origin","lat":"42.3917638","placename":"Chelsea, MA, USA","lon":"-71.0328284"},"from_stop":{"name":"origin","id":"5881","lat":"40.3042778","lon":"-73.9923596","placename":"Long Branch, NJ, USA"}},{"transport_id":"17","id":"3622","transport_name":"None Selected","transport_description":null,"transport_unit":"kg km","transport_co2_eq":"0.000000","from_stop_id":"5882","from_stop_lat":"15.870032","from_stop_lon":"100.992541","to_stop_id":"1729","to_stop_name":"origin","to_stop_lat":"42.3917638","placename":"Thailand","to_stop_lon":"-71.0328284","to_stop":{"id":"1729","name":"origin","lat":"42.3917638","placename":"Chelsea, MA, USA","lon":"-71.0328284"},"from_stop":{"name":"origin","id":"5882","lat":"15.870032","lon":"100.992541","placename":"Thailand"}},{"transport_id":"17","id":"3623","transport_name":"None Selected","transport_description":null,"transport_unit":"kg km","transport_co2_eq":"0.000000","from_stop_id":"5883","from_stop_lat":"39.5500507","from_stop_lon":"-105.7820674","to_stop_id":"1729","to_stop_name":"origin","to_stop_lat":"42.3917638","placename":"Colorado, USA","to_stop_lon":"-71.0328284","to_stop":{"id":"1729","name":"origin","lat":"42.3917638","placename":"Chelsea, MA, USA","lon":"-71.0328284"},"from_stop":{"name":"origin","id":"5883","lat":"39.5500507","lon":"-105.7820674","placename":"Colorado, USA"}},{"transport_id":"17","id":"3684","transport_name":"None Selected","transport_description":null,"transport_unit":"kg km","transport_co2_eq":"0.000000","from_stop_id":"5944","from_stop_lat":"37.6390972","from_stop_lon":"-120.9968782","to_stop_id":"1729","to_stop_name":"origin","to_stop_lat":"42.3917638","placename":"Modesto, CA, USA","to_stop_lon":"-71.0328284","to_stop":{"id":"1729","name":"origin","lat":"42.3917638","placename":"Chelsea, MA, USA","lon":"-71.0328284"},"from_stop":{"name":"origin","id":"5944","lat":"37.6390972","lon":"-120.9968782","placename":"Modesto, CA, USA"}},{"transport_id":"17","id":"3685","transport_name":"None Selected","transport_description":null,"transport_unit":"kg km","transport_co2_eq":"0.000000","from_stop_id":"5945","from_stop_lat":"44.5588028","from_stop_lon":"-72.5778415","to_stop_id":"1729","to_stop_name":"origin","to_stop_lat":"42.3917638","placename":"Vermont, USA","to_stop_lon":"-71.0328284","to_stop":{"id":"1729","name":"origin","lat":"42.3917638","placename":"Chelsea, MA, USA","lon":"-71.0328284"},"from_stop":{"name":"origin","id":"5945","lat":"44.5588028","lon":"-72.5778415","placename":"Vermont, USA"}},{"transport_id":"17","id":"3591","transport_name":"None Selected","transport_description":null,"transport_unit":"kg km","transport_co2_eq":"0.000000","from_stop_id":"5851","from_stop_lat":"42.6159285","from_stop_lon":"-70.6619888","to_stop_id":"1729","to_stop_name":"origin","to_stop_lat":"42.3917638","placename":"Gloucester, MA, USA","to_stop_lon":"-71.0328284","to_stop":{"id":"1729","name":"origin","lat":"42.3917638","placename":"Chelsea, MA, USA","lon":"-71.0328284"},"from_stop":{"name":"origin","id":"5851","lat":"42.6159285","lon":"-70.6619888","placename":"Gloucester, MA, USA"}}],"outgoing":[]}}},"parts":[{"oid":"3956","imid":"3902","linkid":"","weight":"0","rawemissions":"0","emissions":"0","shipping":"39.36","processemissions":"0","endoflifeemissions":"0","disposaltype":null,"disposalenergy":null,"disposalimpact":null,"disposalemissions":null,"description":"","name":"Clam Broth","id":"3902","stops":{"origin":{"related_to":"3902","part_or_object":"p","notes":"","placename":"Gloucester, MA, USA","id":5851,"name":"origin","lat":"42.6159285","lon":"-70.6619888","hops":{"incoming":[],"outgoing":[{"transport_id":"17","id":"3591","transport_name":"None Selected","transport_description":null,"transport_unit":"kg km","transport_co2_eq":"0.000000","from_stop_id":"5851","from_stop_lat":"42.6159285","from_stop_lon":"-70.6619888","from_stop_placename":"Gloucester, MA, USA","to_stop_id":"1729","to_stop_name":"origin","to_stop_lat":"42.3917638","to_stop_lon":"-71.0328284","to_stop_placename":"Chelsea, MA, USA","to_stop":{"id":"1729","name":"origin","lat":"42.3917638","lon":"-71.0328284","placename":"Chelsea, MA, USA"},"from_stop":{"name":"origin","id":"5851","lat":"42.6159285","lon":"-70.6619888","placename":"Gloucester, MA, USA"}}]}}},"processes":[],"eols":[]},{"oid":"3956","imid":"3903","linkid":"","weight":"0","rawemissions":"0","emissions":"0","shipping":"499.76","processemissions":"0","endoflifeemissions":"0","disposaltype":null,"disposalenergy":null,"disposalimpact":null,"disposalemissions":null,"description":"","name":"Bell & Evans Naturally Raised Chicken","id":"3903","stops":{"origin":{"related_to":"3903","part_or_object":"p","notes":"","placename":"Fredericksburg, PA, USA","id":5865,"name":"origin","lat":"40.4437018","lon":"-76.4282933","hops":{"incoming":[],"outgoing":[{"transport_id":"17","id":"3605","transport_name":"None Selected","transport_description":null,"transport_unit":"kg km","transport_co2_eq":"0.000000","from_stop_id":"5865","from_stop_lat":"40.4437018","from_stop_lon":"-76.4282933","from_stop_placename":"Fredericksburg, PA, USA","to_stop_id":"1729","to_stop_name":"origin","to_stop_lat":"42.3917638","to_stop_lon":"-71.0328284","to_stop_placename":"Chelsea, MA, USA","to_stop":{"id":"1729","name":"origin","lat":"42.3917638","lon":"-71.0328284","placename":"Chelsea, MA, USA"},"from_stop":{"name":"origin","id":"5865","lat":"40.4437018","lon":"-76.4282933","placename":"Fredericksburg, PA, USA"}}]}}},"processes":[],"eols":[]},{"oid":"3956","imid":"3904","linkid":"","weight":"0","rawemissions":"0","emissions":"0","shipping":"181.93","processemissions":"0","endoflifeemissions":"0","disposaltype":null,"disposalenergy":null,"disposalimpact":null,"disposalemissions":null,"description":"","name":"Butternut Squash","id":"3904","stops":{"origin":{"related_to":"3904","part_or_object":"p","notes":"","placename":"Pittsfield, MA, USA","id":5880,"name":"origin","lat":"42.4500845","lon":"-73.2453824","hops":{"incoming":[],"outgoing":[{"transport_id":"17","id":"3620","transport_name":"None Selected","transport_description":null,"transport_unit":"kg km","transport_co2_eq":"0.000000","from_stop_id":"5880","from_stop_lat":"42.4500845","from_stop_lon":"-73.2453824","from_stop_placename":"Pittsfield, MA, USA","to_stop_id":"1729","to_stop_name":"origin","to_stop_lat":"42.3917638","to_stop_lon":"-71.0328284","to_stop_placename":"Chelsea, MA, USA","to_stop":{"id":"1729","name":"origin","lat":"42.3917638","lon":"-71.0328284","placename":"Chelsea, MA, USA"},"from_stop":{"name":"origin","id":"5880","lat":"42.4500845","lon":"-73.2453824","placename":"Pittsfield, MA, USA"}}]}}},"processes":[],"eols":[]},{"oid":"3956","imid":"3905","linkid":"","weight":"0","rawemissions":"0","emissions":"0","shipping":"339.32","processemissions":"0","endoflifeemissions":"0","disposaltype":null,"disposalenergy":null,"disposalimpact":null,"disposalemissions":null,"description":"","name":"Clams","id":"3905","stops":{"origin":{"related_to":"3905","part_or_object":"p","notes":"","placename":"Long Branch, NJ, USA","id":5881,"name":"origin","lat":"40.3042778","lon":"-73.9923596","hops":{"incoming":[],"outgoing":[{"transport_id":"17","id":"3621","transport_name":"None Selected","transport_description":null,"transport_unit":"kg km","transport_co2_eq":"0.000000","from_stop_id":"5881","from_stop_lat":"40.3042778","from_stop_lon":"-73.9923596","from_stop_placename":"Long Branch, NJ, USA","to_stop_id":"1729","to_stop_name":"origin","to_stop_lat":"42.3917638","to_stop_lon":"-71.0328284","to_stop_placename":"Chelsea, MA, USA","to_stop":{"id":"1729","name":"origin","lat":"42.3917638","lon":"-71.0328284","placename":"Chelsea, MA, USA"},"from_stop":{"name":"origin","id":"5881","lat":"40.3042778","lon":"-73.9923596","placename":"Long Branch, NJ, USA"}}]}}},"processes":[],"eols":[]},{"oid":"3956","imid":"3906","linkid":"","weight":"0","rawemissions":"0","emissions":"0","shipping":"13500.44","processemissions":"0","endoflifeemissions":"0","disposaltype":null,"disposalenergy":null,"disposalimpact":null,"disposalemissions":null,"description":"","name":"Fish Sauce","id":"3906","stops":{"origin":{"related_to":"3906","part_or_object":"p","notes":"","placename":"Thailand","id":5882,"name":"origin","lat":"15.870032","lon":"100.992541","hops":{"incoming":[],"outgoing":[{"transport_id":"17","id":"3622","transport_name":"None Selected","transport_description":null,"transport_unit":"kg km","transport_co2_eq":"0.000000","from_stop_id":"5882","from_stop_lat":"15.870032","from_stop_lon":"100.992541","from_stop_placename":"Thailand","to_stop_id":"1729","to_stop_name":"origin","to_stop_lat":"42.3917638","to_stop_lon":"-71.0328284","to_stop_placename":"Chelsea, MA, USA","to_stop":{"id":"1729","name":"origin","lat":"42.3917638","lon":"-71.0328284","placename":"Chelsea, MA, USA"},"from_stop":{"name":"origin","id":"5882","lat":"15.870032","lon":"100.992541","placename":"Thailand"}}]}}},"processes":[],"eols":[]},{"oid":"3956","imid":"3907","linkid":"parts\/beef-grain-fed","weight":"0","rawemissions":"13.3","emissions":"0","shipping":"2917.31","processemissions":"0","endoflifeemissions":"0","disposaltype":null,"disposalenergy":null,"disposalimpact":null,"disposalemissions":null,"description":"","name":"Beef, Grain-fed","id":"3907","stops":{"origin":{"related_to":"3907","part_or_object":"p","notes":"","placename":"Colorado, USA","id":5883,"name":"origin","lat":"39.5500507","lon":"-105.7820674","hops":{"incoming":[],"outgoing":[{"transport_id":"17","id":"3623","transport_name":"None Selected","transport_description":null,"transport_unit":"kg km","transport_co2_eq":"0.000000","from_stop_id":"5883","from_stop_lat":"39.5500507","from_stop_lon":"-105.7820674","from_stop_placename":"Colorado, USA","to_stop_id":"1729","to_stop_name":"origin","to_stop_lat":"42.3917638","to_stop_lon":"-71.0328284","to_stop_placename":"Chelsea, MA, USA","to_stop":{"id":"1729","name":"origin","lat":"42.3917638","lon":"-71.0328284","placename":"Chelsea, MA, USA"},"from_stop":{"name":"origin","id":"5883","lat":"39.5500507","lon":"-105.7820674","placename":"Colorado, USA"}}]}}},"processes":[],"eols":[]},{"oid":"3956","imid":"3908","linkid":"parts\/tomatoes","weight":"0","rawemissions":"1.03","emissions":"0","shipping":"4230.97","processemissions":"0","endoflifeemissions":"0","disposaltype":null,"disposalenergy":null,"disposalimpact":null,"disposalemissions":null,"description":"","name":"Tomatoes","id":"3908","stops":{"origin":{"related_to":"3908","part_or_object":"p","notes":"","placename":"Modesto, CA, USA","id":5944,"name":"origin","lat":"37.6390972","lon":"-120.9968782","hops":{"incoming":[],"outgoing":[{"transport_id":"17","id":"3684","transport_name":"None Selected","transport_description":null,"transport_unit":"kg km","transport_co2_eq":"0.000000","from_stop_id":"5944","from_stop_lat":"37.6390972","from_stop_lon":"-120.9968782","from_stop_placename":"Modesto, CA, USA","to_stop_id":"1729","to_stop_name":"origin","to_stop_lat":"42.3917638","to_stop_lon":"-71.0328284","to_stop_placename":"Chelsea, MA, USA","to_stop":{"id":"1729","name":"origin","lat":"42.3917638","lon":"-71.0328284","placename":"Chelsea, MA, USA"},"from_stop":{"name":"origin","id":"5944","lat":"37.6390972","lon":"-120.9968782","placename":"Modesto, CA, USA"}}]}}},"processes":[],"eols":[]},{"oid":"3956","imid":"3909","linkid":"","weight":"0","rawemissions":"0","emissions":"0","shipping":"271.59","processemissions":"0","endoflifeemissions":"0","disposaltype":null,"disposalenergy":null,"disposalimpact":null,"disposalemissions":null,"description":"","name":"Cream & Milk","id":"3909","stops":{"origin":{"related_to":"3909","part_or_object":"p","notes":"","placename":"Vermont, USA","id":5945,"name":"origin","lat":"44.5588028","lon":"-72.5778415","hops":{"incoming":[],"outgoing":[{"transport_id":"17","id":"3685","transport_name":"None Selected","transport_description":null,"transport_unit":"kg km","transport_co2_eq":"0.000000","from_stop_id":"5945","from_stop_lat":"44.5588028","from_stop_lon":"-72.5778415","from_stop_placename":"Vermont, USA","to_stop_id":"1729","to_stop_name":"origin","to_stop_lat":"42.3917638","to_stop_lon":"-71.0328284","to_stop_placename":"Chelsea, MA, USA","to_stop":{"id":"1729","name":"origin","lat":"42.3917638","lon":"-71.0328284","placename":"Chelsea, MA, USA"},"from_stop":{"name":"origin","id":"5945","lat":"44.5588028","lon":"-72.5778415","placename":"Vermont, USA"}}]}}},"processes":[],"eols":[]}],"user":{"name":"lenhart","id":"10314"}}}