{"3957":{"oid":"3957","type":"object","flag":"","creator":"1","name":"Mobile Phone (circa 2006)","upc":"","imagelink":"","description":"This is taken from the <a href=\"http:\/\/www.gesi.org\/files\/20080620_ghgm_ser_metalstoelectronics.pdf\">'Material composition of a mobile phone circa 2006<\/a>","slug":"mobile-phone-circa-2006","category":"","weight":"0.10049","emissions":"3.14002618451","embodied":"3.068514","transport":"0.0321773845063","process":"0.038647","endoflife":"0.0006878","shipping":"121499.11","lifetime":null,"usagetype":"","usageenergy":null,"usageemissions":null,"timecreated":"2010-08-04 15:09:11.570569","timemodified":"2010-08-04 19:28:58","visibility":"public","showfootprint":"on","showembodied":"on","showtransport":"on","showprocess":"on","showendoflife":"on","showlastleg":"on","showuse":"on","showstats":"on","stops":{"origin":{"related_to":"3957","part_or_object":"o","notes":"","placename":"Seoul, South Korea","id":"1730","category":"1","lat":"37.566535","lon":"126.9779692","name":"origin","hops":{"incoming":[{"transport_id":"3","id":"3488","transport_name":"truck, 40 tons","transport_description":"truck, half full","transport_unit":"kg km","transport_co2_eq":"0.030900","from_stop_id":"5748","from_stop_lat":"35.86166","from_stop_lon":"104.195397","to_stop_id":"1730","to_stop_name":"origin","to_stop_lat":"37.566535","placename":"China","to_stop_lon":"126.9779692","to_stop":{"id":"1730","name":"origin","lat":"37.566535","placename":"Seoul, South Korea","lon":"126.9779692"},"from_stop":{"name":"origin","id":"5748","lat":"35.86166","lon":"104.195397","placename":"China"}},{"transport_id":"3","id":"3633","transport_name":"truck, 40 tons","transport_description":"truck, half full","transport_unit":"kg km","transport_co2_eq":"0.030900","from_stop_id":"5893","from_stop_lat":"35.86166","from_stop_lon":"104.195397","to_stop_id":"1730","to_stop_name":"origin","to_stop_lat":"37.566535","placename":"China","to_stop_lon":"126.9779692","to_stop":{"id":"1730","name":"origin","lat":"37.566535","placename":"Seoul, South Korea","lon":"126.9779692"},"from_stop":{"name":"origin","id":"5893","lat":"35.86166","lon":"104.195397","placename":"China"}},{"transport_id":"9","id":"3649","transport_name":"container ship","transport_description":"moving boxcar size containers","transport_unit":"kg km","transport_co2_eq":"0.047800","from_stop_id":"5909","from_stop_lat":"-14.235004","from_stop_lon":"-51.92528","to_stop_id":"1730","to_stop_name":"origin","to_stop_lat":"37.566535","placename":"Brazil","to_stop_lon":"126.9779692","to_stop":{"id":"1730","name":"origin","lat":"37.566535","placename":"Seoul, South Korea","lon":"126.9779692"},"from_stop":{"name":"origin","id":"5909","lat":"-14.235004","lon":"-51.92528","placename":"Brazil"}},{"transport_id":"7","id":"3650","transport_name":"freighter, inland","transport_description":"for rivers and lakes","transport_unit":"kg km","transport_co2_eq":"0.025300","from_stop_id":"5910","from_stop_lat":"35.86166","from_stop_lon":"104.195397","to_stop_id":"1730","to_stop_name":"origin","to_stop_lat":"37.566535","placename":"China","to_stop_lon":"126.9779692","to_stop":{"id":"1730","name":"origin","lat":"37.566535","placename":"Seoul, South Korea","lon":"126.9779692"},"from_stop":{"name":"origin","id":"5910","lat":"35.86166","lon":"104.195397","placename":"China"}},{"transport_id":"3","id":"3651","transport_name":"truck, 40 tons","transport_description":"truck, half full","transport_unit":"kg km","transport_co2_eq":"0.030900","from_stop_id":"5911","from_stop_lat":"35.86166","from_stop_lon":"104.195397","to_stop_id":"1730","to_stop_name":"origin","to_stop_lat":"37.566535","placename":"China","to_stop_lon":"126.9779692","to_stop":{"id":"1730","name":"origin","lat":"37.566535","placename":"Seoul, South Korea","lon":"126.9779692"},"from_stop":{"name":"origin","id":"5911","lat":"35.86166","lon":"104.195397","placename":"China"}},{"transport_id":"3","id":"3652","transport_name":"truck, 40 tons","transport_description":"truck, half full","transport_unit":"kg km","transport_co2_eq":"0.030900","from_stop_id":"5912","from_stop_lat":"35.86166","from_stop_lon":"104.195397","to_stop_id":"1730","to_stop_name":"origin","to_stop_lat":"37.566535","placename":"China","to_stop_lon":"126.9779692","to_stop":{"id":"1730","name":"origin","lat":"37.566535","placename":"Seoul, South Korea","lon":"126.9779692"},"from_stop":{"name":"origin","id":"5912","lat":"35.86166","lon":"104.195397","placename":"China"}},{"transport_id":"9","id":"3653","transport_name":"container ship","transport_description":"moving boxcar size containers","transport_unit":"kg km","transport_co2_eq":"0.047800","from_stop_id":"5913","from_stop_lat":"-30.559482","from_stop_lon":"22.937506","to_stop_id":"1730","to_stop_name":"origin","to_stop_lat":"37.566535","placename":"South Africa","to_stop_lon":"126.9779692","to_stop":{"id":"1730","name":"origin","lat":"37.566535","placename":"Seoul, South Korea","lon":"126.9779692"},"from_stop":{"name":"origin","id":"5913","lat":"-30.559482","lon":"22.937506","placename":"South Africa"}},{"transport_id":"9","id":"3654","transport_name":"container ship","transport_description":"moving boxcar size containers","transport_unit":"kg km","transport_co2_eq":"0.047800","from_stop_id":"5914","from_stop_lat":"-2.2884782","from_stop_lon":"106.0640179","to_stop_id":"1730","to_stop_name":"origin","to_stop_lat":"37.566535","placename":"Bangka Island, Indonesia","to_stop_lon":"126.9779692","to_stop":{"id":"1730","name":"origin","lat":"37.566535","placename":"Seoul, South Korea","lon":"126.9779692"},"from_stop":{"name":"origin","id":"5914","lat":"-2.2884782","lon":"106.0640179","placename":"Bangka Island, Indonesia"}},{"transport_id":"9","id":"3686","transport_name":"container ship","transport_description":"moving boxcar size containers","transport_unit":"kg km","transport_co2_eq":"0.047800","from_stop_id":"5946","from_stop_lat":"-35.675147","from_stop_lon":"-71.542969","to_stop_id":"1730","to_stop_name":"origin","to_stop_lat":"37.566535","placename":"Chile","to_stop_lon":"126.9779692","to_stop":{"id":"1730","name":"origin","lat":"37.566535","placename":"Seoul, South Korea","lon":"126.9779692"},"from_stop":{"name":"origin","id":"5946","lat":"-35.675147","lon":"-71.542969","placename":"Chile"}},{"transport_id":"9","id":"3687","transport_name":"container ship","transport_description":"moving boxcar size containers","transport_unit":"kg km","transport_co2_eq":"0.047800","from_stop_id":"5947","from_stop_lat":"31.230708","from_stop_lon":"121.472916","to_stop_id":"1730","to_stop_name":"origin","to_stop_lat":"37.566535","placename":"Shanghai, China","to_stop_lon":"126.9779692","to_stop":{"id":"1730","name":"origin","lat":"37.566535","placename":"Seoul, South Korea","lon":"126.9779692"},"from_stop":{"name":"origin","id":"5947","lat":"31.230708","lon":"121.472916","placename":"Shanghai, China"}},{"transport_id":"3","id":"3688","transport_name":"truck, 40 tons","transport_description":"truck, half full","transport_unit":"kg km","transport_co2_eq":"0.030900","from_stop_id":"5948","from_stop_lat":"35.907757","from_stop_lon":"127.766922","to_stop_id":"1730","to_stop_name":"origin","to_stop_lat":"37.566535","placename":"South Korea","to_stop_lon":"126.9779692","to_stop":{"id":"1730","name":"origin","lat":"37.566535","placename":"Seoul, South Korea","lon":"126.9779692"},"from_stop":{"name":"origin","id":"5948","lat":"35.907757","lon":"127.766922","placename":"South Korea"}},{"transport_id":"9","id":"3689","transport_name":"container ship","transport_description":"moving boxcar size containers","transport_unit":"kg km","transport_co2_eq":"0.047800","from_stop_id":"5949","from_stop_lat":"61.52401","from_stop_lon":"105.318756","to_stop_id":"1730","to_stop_name":"origin","to_stop_lat":"37.566535","placename":"Russia","to_stop_lon":"126.9779692","to_stop":{"id":"1730","name":"origin","lat":"37.566535","placename":"Seoul, South Korea","lon":"126.9779692"},"from_stop":{"name":"origin","id":"5949","lat":"61.52401","lon":"105.318756","placename":"Russia"}},{"transport_id":"9","id":"3690","transport_name":"container ship","transport_description":"moving boxcar size containers","transport_unit":"kg km","transport_co2_eq":"0.047800","from_stop_id":"5950","from_stop_lat":"36.204824","from_stop_lon":"138.252924","to_stop_id":"1730","to_stop_name":"origin","to_stop_lat":"37.566535","placename":"Japan","to_stop_lon":"126.9779692","to_stop":{"id":"1730","name":"origin","lat":"37.566535","placename":"Seoul, South Korea","lon":"126.9779692"},"from_stop":{"name":"origin","id":"5950","lat":"36.204824","lon":"138.252924","placename":"Japan"}},{"transport_id":"6","id":"3691","transport_name":"tanker ship","transport_description":"tanker for mobing liquids","transport_unit":"kg km","transport_co2_eq":"0.171600","from_stop_id":"5951","from_stop_lat":"22.308889","from_stop_lon":"113.914722","to_stop_id":"1730","to_stop_name":"origin","to_stop_lat":"37.566535","placename":"Hong Kong International, Chek Lap Kok Airport, Hong Kong","to_stop_lon":"126.9779692","to_stop":{"id":"1730","name":"origin","lat":"37.566535","placename":"Seoul, South Korea","lon":"126.9779692"},"from_stop":{"name":"origin","id":"5951","lat":"22.308889","lon":"113.914722","placename":"Hong Kong International, Chek Lap Kok Airport, Hong Kong"}},{"transport_id":"9","id":"3692","transport_name":"container ship","transport_description":"moving boxcar size containers","transport_unit":"kg km","transport_co2_eq":"0.047800","from_stop_id":"5952","from_stop_lat":"-14.235004","from_stop_lon":"-51.92528","to_stop_id":"1730","to_stop_name":"origin","to_stop_lat":"37.566535","placename":"Brazil","to_stop_lon":"126.9779692","to_stop":{"id":"1730","name":"origin","lat":"37.566535","placename":"Seoul, South Korea","lon":"126.9779692"},"from_stop":{"name":"origin","id":"5952","lat":"-14.235004","lon":"-51.92528","placename":"Brazil"}},{"transport_id":"15","id":"3693","transport_name":"air, freight, regional","transport_description":"freight within one continent","transport_unit":"kg km","transport_co2_eq":"0.787500","from_stop_id":"5953","from_stop_lat":"36.204824","from_stop_lon":"138.252924","to_stop_id":"1730","to_stop_name":"origin","to_stop_lat":"37.566535","placename":"Japan","to_stop_lon":"126.9779692","to_stop":{"id":"1730","name":"origin","lat":"37.566535","placename":"Seoul, South Korea","lon":"126.9779692"},"from_stop":{"name":"origin","id":"5953","lat":"36.204824","lon":"138.252924","placename":"Japan"}},{"transport_id":"8","id":"3694","transport_name":"freighter, oceanic","transport_description":"","transport_unit":"kg km","transport_co2_eq":"0.004200","from_stop_id":"5954","from_stop_lat":"-25.274398","from_stop_lon":"133.775136","to_stop_id":"1730","to_stop_name":"origin","to_stop_lat":"37.566535","placename":"Australia","to_stop_lon":"126.9779692","to_stop":{"id":"1730","name":"origin","lat":"37.566535","placename":"Seoul, South Korea","lon":"126.9779692"},"from_stop":{"name":"origin","id":"5954","lat":"-25.274398","lon":"133.775136","placename":"Australia"}},{"transport_id":"9","id":"3695","transport_name":"container ship","transport_description":"moving boxcar size containers","transport_unit":"kg km","transport_co2_eq":"0.047800","from_stop_id":"5955","from_stop_lat":"23.634501","from_stop_lon":"-102.552784","to_stop_id":"1730","to_stop_name":"origin","to_stop_lat":"37.566535","placename":"Mexico","to_stop_lon":"126.9779692","to_stop":{"id":"1730","name":"origin","lat":"37.566535","placename":"Seoul, South Korea","lon":"126.9779692"},"from_stop":{"name":"origin","id":"5955","lat":"23.634501","lon":"-102.552784","placename":"Mexico"}},{"transport_id":"14","id":"3696","transport_name":"air, passenger, intercontinental","transport_description":"intercontinental, kg km from person-km","transport_unit":"kg km","transport_co2_eq":"1.189000","from_stop_id":"5956","from_stop_lat":"-30.559482","from_stop_lon":"22.937506","to_stop_id":"1730","to_stop_name":"origin","to_stop_lat":"37.566535","placename":"South Africa","to_stop_lon":"126.9779692","to_stop":{"id":"1730","name":"origin","lat":"37.566535","placename":"Seoul, South Korea","lon":"126.9779692"},"from_stop":{"name":"origin","id":"5956","lat":"-30.559482","lon":"22.937506","placename":"South Africa"}},{"transport_id":"14","id":"3697","transport_name":"air, passenger, intercontinental","transport_description":"intercontinental, kg km from person-km","transport_unit":"kg km","transport_co2_eq":"1.189000","from_stop_id":"5957","from_stop_lat":"0","from_stop_lon":"0","to_stop_id":"1730","to_stop_name":"origin","to_stop_lat":"37.566535","placename":"Part Location","to_stop_lon":"126.9779692","to_stop":{"id":"1730","name":"origin","lat":"37.566535","placename":"Seoul, South Korea","lon":"126.9779692"},"from_stop":{"name":"origin","id":"5957","lat":"0","lon":"0","placename":"Part Location"}}],"outgoing":[]}}},"parts":[{"oid":"3957","imid":"3917","linkid":"parts\/epoxy-resin","weight":"0.005","rawemissions":"3.21","emissions":"0.01605","shipping":"2036.87","processemissions":"0.00275","endoflifeemissions":"0","disposaltype":null,"disposalenergy":null,"disposalimpact":null,"disposalemissions":null,"description":"","name":"Epoxy resin","id":"3917","stops":{"origin":{"related_to":"3917","part_or_object":"p","notes":"","placename":"China","id":5748,"name":"origin","lat":"35.86166","lon":"104.195397","hops":{"incoming":[],"outgoing":[{"transport_id":"3","id":"3488","transport_name":"truck, 40 tons","transport_description":"truck, half full","transport_unit":"kg km","transport_co2_eq":"0.030900","from_stop_id":"5748","from_stop_lat":"35.86166","from_stop_lon":"104.195397","from_stop_placename":"China","to_stop_id":"1730","to_stop_name":"origin","to_stop_lat":"37.566535","to_stop_lon":"126.9779692","to_stop_placename":"Seoul, South Korea","to_stop":{"id":"1730","name":"origin","lat":"37.566535","lon":"126.9779692","placename":"Seoul, South Korea"},"from_stop":{"name":"origin","id":"5748","lat":"35.86166","lon":"104.195397","placename":"China"}}]}}},"processes":[{"id":"15","name":"injection molding","description":"","type":"polymer","emissions":"0.55","parts_inst_id":"3917","unit":"kg","factor":"0"}],"eols":[]},{"oid":"3957","imid":"3918","linkid":"parts\/pc","weight":"0.004","rawemissions":"4.2","emissions":"0.0168","shipping":"2036.87","processemissions":"0.0022","endoflifeemissions":"0","disposaltype":null,"disposalenergy":null,"disposalimpact":null,"disposalemissions":null,"description":"","name":"PC","id":"3918","stops":{"origin":{"related_to":"3918","part_or_object":"p","notes":"","placename":"China","id":5893,"name":"origin","lat":"35.86166","lon":"104.195397","hops":{"incoming":[],"outgoing":[{"transport_id":"3","id":"3633","transport_name":"truck, 40 tons","transport_description":"truck, half full","transport_unit":"kg km","transport_co2_eq":"0.030900","from_stop_id":"5893","from_stop_lat":"35.86166","from_stop_lon":"104.195397","from_stop_placename":"China","to_stop_id":"1730","to_stop_name":"origin","to_stop_lat":"37.566535","to_stop_lon":"126.9779692","to_stop_placename":"Seoul, South Korea","to_stop":{"id":"1730","name":"origin","lat":"37.566535","lon":"126.9779692","placename":"Seoul, South Korea"},"from_stop":{"name":"origin","id":"5893","lat":"35.86166","lon":"104.195397","placename":"China"}}]}}},"processes":[{"id":"16","name":"injection molding","description":"","type":"polymer","emissions":"0.55","parts_inst_id":"3918","unit":"kg","factor":"0"}],"eols":[]},{"oid":"3957","imid":"3910","linkid":"parts\/copper-virgin","weight":"0.019","rawemissions":"2.15","emissions":"0.04085","shipping":"18372.17","processemissions":"0.01653","endoflifeemissions":"0.000627","disposaltype":null,"disposalenergy":null,"disposalimpact":null,"disposalemissions":null,"description":"","name":"Copper, Virgin","id":"3910","stops":{"origin":{"related_to":"3910","part_or_object":"p","notes":"","placename":"Chile","id":5946,"name":"origin","lat":"-35.675147","lon":"-71.542969","hops":{"incoming":[],"outgoing":[{"transport_id":"9","id":"3686","transport_name":"container ship","transport_description":"moving boxcar size containers","transport_unit":"kg km","transport_co2_eq":"0.047800","from_stop_id":"5946","from_stop_lat":"-35.675147","from_stop_lon":"-71.542969","from_stop_placename":"Chile","to_stop_id":"1730","to_stop_name":"origin","to_stop_lat":"37.566535","to_stop_lon":"126.9779692","to_stop_placename":"Seoul, South Korea","to_stop":{"id":"1730","name":"origin","lat":"37.566535","lon":"126.9779692","placename":"Seoul, South Korea"},"from_stop":{"name":"origin","id":"5946","lat":"-35.675147","lon":"-71.542969","placename":"Chile"}}]}}},"processes":[{"id":"10","name":"copper drawing","description":"copper wire drawing","type":"metal","emissions":"0.87","parts_inst_id":"3910","unit":"kg","factor":"0"}],"eols":[{"id":"11","name":"Copper, Virgin","description":null,"type":"incineration","emissions":"0.033","parts_inst_id":"3910","unit":"kg","factor":null}]},{"oid":"3957","imid":"3911","linkid":"parts\/abs","weight":"0.02","rawemissions":"3.2","emissions":"0.064","shipping":"867.44","processemissions":"0.011","endoflifeemissions":"0","disposaltype":null,"disposalenergy":null,"disposalimpact":null,"disposalemissions":null,"description":"","name":"ABS","id":"3911","stops":{"origin":{"related_to":"3911","part_or_object":"p","notes":"","placename":"Shanghai, China","id":5947,"name":"origin","lat":"31.230708","lon":"121.472916","hops":{"incoming":[],"outgoing":[{"transport_id":"9","id":"3687","transport_name":"container ship","transport_description":"moving boxcar size containers","transport_unit":"kg km","transport_co2_eq":"0.047800","from_stop_id":"5947","from_stop_lat":"31.230708","from_stop_lon":"121.472916","from_stop_placename":"Shanghai, China","to_stop_id":"1730","to_stop_name":"origin","to_stop_lat":"37.566535","to_stop_lon":"126.9779692","to_stop_placename":"Seoul, South Korea","to_stop":{"id":"1730","name":"origin","lat":"37.566535","lon":"126.9779692","placename":"Seoul, South Korea"},"from_stop":{"name":"origin","id":"5947","lat":"31.230708","lon":"121.472916","placename":"Shanghai, China"}}]}}},"processes":[{"id":"11","name":"injection molding","description":"","type":"polymer","emissions":"0.55","parts_inst_id":"3911","unit":"kg","factor":"0"}],"eols":[]},{"oid":"3957","imid":"3919","linkid":"parts\/photovoltaics-polycrystalline","weight":"0.004","rawemissions":"208","emissions":"0.832","shipping":"17437.99","processemissions":"0","endoflifeemissions":"0","disposaltype":null,"disposalenergy":null,"disposalimpact":null,"disposalemissions":null,"description":"","name":"Si","id":"3919","stops":{"origin":{"related_to":"3919","part_or_object":"p","notes":"","placename":"Brazil","id":5909,"name":"origin","lat":"-14.235004","lon":"-51.92528","hops":{"incoming":[],"outgoing":[{"transport_id":"9","id":"3649","transport_name":"container ship","transport_description":"moving boxcar size containers","transport_unit":"kg km","transport_co2_eq":"0.047800","from_stop_id":"5909","from_stop_lat":"-14.235004","from_stop_lon":"-51.92528","from_stop_placename":"Brazil","to_stop_id":"1730","to_stop_name":"origin","to_stop_lat":"37.566535","to_stop_lon":"126.9779692","to_stop_placename":"Seoul, South Korea","to_stop":{"id":"1730","name":"origin","lat":"37.566535","lon":"126.9779692","placename":"Seoul, South Korea"},"from_stop":{"name":"origin","id":"5909","lat":"-14.235004","lon":"-51.92528","placename":"Brazil"}}]}}},"processes":[],"eols":[]},{"oid":"3957","imid":"3920","linkid":"parts\/gps-virgin","weight":"0.002","rawemissions":"2","emissions":"0.004","shipping":"2036.87","processemissions":"0.0011","endoflifeemissions":"0","disposaltype":null,"disposalenergy":null,"disposalimpact":null,"disposalemissions":null,"description":"","name":"GPS, virgin","id":"3920","stops":{"origin":{"related_to":"3920","part_or_object":"p","notes":"","placename":"China","id":5910,"name":"origin","lat":"35.86166","lon":"104.195397","hops":{"incoming":[],"outgoing":[{"transport_id":"7","id":"3650","transport_name":"freighter, inland","transport_description":"for rivers and lakes","transport_unit":"kg km","transport_co2_eq":"0.025300","from_stop_id":"5910","from_stop_lat":"35.86166","from_stop_lon":"104.195397","from_stop_placename":"China","to_stop_id":"1730","to_stop_name":"origin","to_stop_lat":"37.566535","to_stop_lon":"126.9779692","to_stop_placename":"Seoul, South Korea","to_stop":{"id":"1730","name":"origin","lat":"37.566535","lon":"126.9779692","placename":"Seoul, South Korea"},"from_stop":{"name":"origin","id":"5910","lat":"35.86166","lon":"104.195397","placename":"China"}}]}}},"processes":[{"id":"17","name":"injection molding","description":"","type":"polymer","emissions":"0.55","parts_inst_id":"3920","unit":"kg","factor":"0"}],"eols":[]},{"oid":"3957","imid":"3921","linkid":"","weight":"0.002","rawemissions":"2","emissions":"0.004","shipping":"2036.87","processemissions":"0","endoflifeemissions":"0","disposaltype":null,"disposalenergy":null,"disposalimpact":null,"disposalemissions":null,"description":"","name":"POM","id":"3921","stops":{"origin":{"related_to":"3921","part_or_object":"p","notes":"","placename":"China","id":5911,"name":"origin","lat":"35.86166","lon":"104.195397","hops":{"incoming":[],"outgoing":[{"transport_id":"3","id":"3651","transport_name":"truck, 40 tons","transport_description":"truck, half full","transport_unit":"kg km","transport_co2_eq":"0.030900","from_stop_id":"5911","from_stop_lat":"35.86166","from_stop_lon":"104.195397","from_stop_placename":"China","to_stop_id":"1730","to_stop_name":"origin","to_stop_lat":"37.566535","to_stop_lon":"126.9779692","to_stop_placename":"Seoul, South Korea","to_stop":{"id":"1730","name":"origin","lat":"37.566535","lon":"126.9779692","placename":"Seoul, South Korea"},"from_stop":{"name":"origin","id":"5911","lat":"35.86166","lon":"104.195397","placename":"China"}}]}}},"processes":[],"eols":[]},{"oid":"3957","imid":"3922","linkid":"parts\/epoxy-resin","weight":"0.002","rawemissions":"3.21","emissions":"0.00642","shipping":"2036.87","processemissions":"0","endoflifeemissions":"0","disposaltype":null,"disposalenergy":null,"disposalimpact":null,"disposalemissions":null,"description":"","name":"TBBA","id":"3922","stops":{"origin":{"related_to":"3922","part_or_object":"p","notes":"","placename":"China","id":5912,"name":"origin","lat":"35.86166","lon":"104.195397","hops":{"incoming":[],"outgoing":[{"transport_id":"3","id":"3652","transport_name":"truck, 40 tons","transport_description":"truck, half full","transport_unit":"kg km","transport_co2_eq":"0.030900","from_stop_id":"5912","from_stop_lat":"35.86166","from_stop_lon":"104.195397","from_stop_placename":"China","to_stop_id":"1730","to_stop_name":"origin","to_stop_lat":"37.566535","to_stop_lon":"126.9779692","to_stop_placename":"Seoul, South Korea","to_stop":{"id":"1730","name":"origin","lat":"37.566535","lon":"126.9779692","placename":"Seoul, South Korea"},"from_stop":{"name":"origin","id":"5912","lat":"35.86166","lon":"104.195397","placename":"China"}}]}}},"processes":[],"eols":[]},{"oid":"3957","imid":"3923","linkid":"parts\/nickel","weight":"0.001","rawemissions":"11.7","emissions":"0.0117","shipping":"13179.86","processemissions":"0","endoflifeemissions":"0","disposaltype":null,"disposalenergy":null,"disposalimpact":null,"disposalemissions":null,"description":"","name":"Nickel","id":"3923","stops":{"origin":{"related_to":"3923","part_or_object":"p","notes":"","placename":"South Africa","id":5913,"name":"origin","lat":"-30.559482","lon":"22.937506","hops":{"incoming":[],"outgoing":[{"transport_id":"9","id":"3653","transport_name":"container ship","transport_description":"moving boxcar size containers","transport_unit":"kg km","transport_co2_eq":"0.047800","from_stop_id":"5913","from_stop_lat":"-30.559482","from_stop_lon":"22.937506","from_stop_placename":"South Africa","to_stop_id":"1730","to_stop_name":"origin","to_stop_lat":"37.566535","to_stop_lon":"126.9779692","to_stop_placename":"Seoul, South Korea","to_stop":{"id":"1730","name":"origin","lat":"37.566535","lon":"126.9779692","placename":"Seoul, South Korea"},"from_stop":{"name":"origin","id":"5913","lat":"-30.559482","lon":"22.937506","placename":"South Africa"}}]}}},"processes":[],"eols":[]},{"oid":"3957","imid":"3924","linkid":"parts\/tin","weight":"0.001","rawemissions":"10.4","emissions":"0.0104","shipping":"4933.32","processemissions":"0","endoflifeemissions":"0","disposaltype":null,"disposalenergy":null,"disposalimpact":null,"disposalemissions":null,"description":"","name":"Tin","id":"3924","stops":{"origin":{"related_to":"3924","part_or_object":"p","notes":"","placename":"Bangka Island, Indonesia","id":5914,"name":"origin","lat":"-2.2884782","lon":"106.0640179","hops":{"incoming":[],"outgoing":[{"transport_id":"9","id":"3654","transport_name":"container ship","transport_description":"moving boxcar size containers","transport_unit":"kg km","transport_co2_eq":"0.047800","from_stop_id":"5914","from_stop_lat":"-2.2884782","from_stop_lon":"106.0640179","from_stop_placename":"Bangka Island, Indonesia","to_stop_id":"1730","to_stop_name":"origin","to_stop_lat":"37.566535","to_stop_lon":"126.9779692","to_stop_placename":"Seoul, South Korea","to_stop":{"id":"1730","name":"origin","lat":"37.566535","lon":"126.9779692","placename":"Seoul, South Korea"},"from_stop":{"name":"origin","id":"5914","lat":"-2.2884782","lon":"106.0640179","placename":"Bangka Island, Indonesia"}}]}}},"processes":[],"eols":[]},{"oid":"3957","imid":"3912","linkid":"parts\/glass-window-type-e","weight":"0.011","rawemissions":"0.29","emissions":"0.00319","shipping":"197.61","processemissions":"0","endoflifeemissions":"3.52e-05","disposaltype":null,"disposalenergy":null,"disposalimpact":null,"disposalemissions":null,"description":"","name":"Glass, Window Type E","id":"3912","stops":{"origin":{"related_to":"3912","part_or_object":"p","notes":"","placename":"South Korea","id":5948,"name":"origin","lat":"35.907757","lon":"127.766922","hops":{"incoming":[],"outgoing":[{"transport_id":"3","id":"3688","transport_name":"truck, 40 tons","transport_description":"truck, half full","transport_unit":"kg km","transport_co2_eq":"0.030900","from_stop_id":"5948","from_stop_lat":"35.907757","from_stop_lon":"127.766922","from_stop_placename":"South Korea","to_stop_id":"1730","to_stop_name":"origin","to_stop_lat":"37.566535","to_stop_lon":"126.9779692","to_stop_placename":"Seoul, South Korea","to_stop":{"id":"1730","name":"origin","lat":"37.566535","lon":"126.9779692","placename":"Seoul, South Korea"},"from_stop":{"name":"origin","id":"5948","lat":"35.907757","lon":"127.766922","placename":"South Korea"}}]}}},"processes":[],"eols":[{"id":"12","name":"Glass, Window Type E","description":null,"type":"landfill","emissions":"0.0032","parts_inst_id":"3912","unit":"kg","factor":null}]},{"oid":"3957","imid":"3913","linkid":"parts\/aluminum-virgin","weight":"0.009","rawemissions":"8.33","emissions":"0.07497","shipping":"3059.17","processemissions":"0.000567","endoflifeemissions":"0","disposaltype":null,"disposalenergy":null,"disposalimpact":null,"disposalemissions":null,"description":"","name":"Aluminum, Virgin","id":"3913","stops":{"origin":{"related_to":"3913","part_or_object":"p","notes":"","placename":"Russia","id":5949,"name":"origin","lat":"61.52401","lon":"105.318756","hops":{"incoming":[],"outgoing":[{"transport_id":"9","id":"3689","transport_name":"container ship","transport_description":"moving boxcar size containers","transport_unit":"kg km","transport_co2_eq":"0.047800","from_stop_id":"5949","from_stop_lat":"61.52401","from_stop_lon":"105.318756","from_stop_placename":"Russia","to_stop_id":"1730","to_stop_name":"origin","to_stop_lat":"37.566535","to_stop_lon":"126.9779692","to_stop_placename":"Seoul, South Korea","to_stop":{"id":"1730","name":"origin","lat":"37.566535","lon":"126.9779692","placename":"Seoul, South Korea"},"from_stop":{"name":"origin","id":"5949","lat":"61.52401","lon":"105.318756","placename":"Russia"}}]}}},"processes":[{"id":"12","name":"al.machining","description":"from electrical consumption","type":"metal","emissions":"0.063","parts_inst_id":"3913","unit":"kg","factor":"0"}],"eols":[]},{"oid":"3957","imid":"3914","linkid":"parts\/steel-virgin","weight":"0.008","rawemissions":"2.08","emissions":"0.01664","shipping":"1014.63","processemissions":"0.0012","endoflifeemissions":"2.56e-05","disposaltype":null,"disposalenergy":null,"disposalimpact":null,"disposalemissions":null,"description":"","name":"Steel, Virgin","id":"3914","stops":{"origin":{"related_to":"3914","part_or_object":"p","notes":"","placename":"Japan","id":5950,"name":"origin","lat":"36.204824","lon":"138.252924","hops":{"incoming":[],"outgoing":[{"transport_id":"9","id":"3690","transport_name":"container ship","transport_description":"moving boxcar size containers","transport_unit":"kg km","transport_co2_eq":"0.047800","from_stop_id":"5950","from_stop_lat":"36.204824","from_stop_lon":"138.252924","from_stop_placename":"Japan","to_stop_id":"1730","to_stop_name":"origin","to_stop_lat":"37.566535","to_stop_lon":"126.9779692","to_stop_placename":"Seoul, South Korea","to_stop":{"id":"1730","name":"origin","lat":"37.566535","lon":"126.9779692","placename":"Seoul, South Korea"},"from_stop":{"name":"origin","id":"5950","lat":"36.204824","lon":"138.252924","placename":"Japan"}}]}}},"processes":[{"id":"13","name":"steel profile drawing","description":"drawing of pipes","type":"metal","emissions":"0.15","parts_inst_id":"3914","unit":"kg","factor":"0"}],"eols":[{"id":"13","name":"Steel, Virgin","description":null,"type":"landfill","emissions":"0.0032","parts_inst_id":"3914","unit":"kg","factor":null}]},{"oid":"3957","imid":"3915","linkid":"parts\/pmma","weight":"0.006","rawemissions":"2.5","emissions":"0.015","shipping":"2110.04","processemissions":"0.0033","endoflifeemissions":"0","disposaltype":null,"disposalenergy":null,"disposalimpact":null,"disposalemissions":null,"description":"","name":"PMMA","id":"3915","stops":{"origin":{"related_to":"3915","part_or_object":"p","notes":"","placename":"Hong Kong International, Chek Lap Kok Airport, Hong Kong","id":5951,"name":"origin","lat":"22.308889","lon":"113.914722","hops":{"incoming":[],"outgoing":[{"transport_id":"6","id":"3691","transport_name":"tanker ship","transport_description":"tanker for mobing liquids","transport_unit":"kg km","transport_co2_eq":"0.171600","from_stop_id":"5951","from_stop_lat":"22.308889","from_stop_lon":"113.914722","from_stop_placename":"Hong Kong International, Chek Lap Kok Airport, Hong Kong","to_stop_id":"1730","to_stop_name":"origin","to_stop_lat":"37.566535","to_stop_lon":"126.9779692","to_stop_placename":"Seoul, South Korea","to_stop":{"id":"1730","name":"origin","lat":"37.566535","lon":"126.9779692","placename":"Seoul, South Korea"},"from_stop":{"name":"origin","id":"5951","lat":"22.308889","lon":"113.914722","placename":"Hong Kong International, Chek Lap Kok Airport, Hong Kong"}}]}}},"processes":[{"id":"14","name":"injection molding","description":"","type":"polymer","emissions":"0.55","parts_inst_id":"3915","unit":"kg","factor":"0"}],"eols":[]},{"oid":"3957","imid":"3916","linkid":"parts\/photovoltaics-monocrystaline","weight":"0.005","rawemissions":"242","emissions":"1.21","shipping":"17437.99","processemissions":"0","endoflifeemissions":"0","disposaltype":null,"disposalenergy":null,"disposalimpact":null,"disposalemissions":null,"description":"","name":"SiO2","id":"3916","stops":{"origin":{"related_to":"3916","part_or_object":"p","notes":"","placename":"Brazil","id":5952,"name":"origin","lat":"-14.235004","lon":"-51.92528","hops":{"incoming":[],"outgoing":[{"transport_id":"9","id":"3692","transport_name":"container ship","transport_description":"moving boxcar size containers","transport_unit":"kg km","transport_co2_eq":"0.047800","from_stop_id":"5952","from_stop_lat":"-14.235004","from_stop_lon":"-51.92528","from_stop_placename":"Brazil","to_stop_id":"1730","to_stop_name":"origin","to_stop_lat":"37.566535","to_stop_lon":"126.9779692","to_stop_placename":"Seoul, South Korea","to_stop":{"id":"1730","name":"origin","lat":"37.566535","lon":"126.9779692","placename":"Seoul, South Korea"},"from_stop":{"name":"origin","id":"5952","lat":"-14.235004","lon":"-51.92528","placename":"Brazil"}}]}}},"processes":[],"eols":[]},{"oid":"3957","imid":"3925","linkid":"parts\/photovoltaic-panels-polycrystalline","weight":"0.001","rawemissions":"105","emissions":"0.105","shipping":"1014.63","processemissions":"0","endoflifeemissions":"0","disposaltype":null,"disposalenergy":null,"disposalimpact":null,"disposalemissions":null,"description":"","name":"LCP","id":"3925","stops":{"origin":{"related_to":"3925","part_or_object":"p","notes":"","placename":"Japan","id":5953,"name":"origin","lat":"36.204824","lon":"138.252924","hops":{"incoming":[],"outgoing":[{"transport_id":"15","id":"3693","transport_name":"air, freight, regional","transport_description":"freight within one continent","transport_unit":"kg km","transport_co2_eq":"0.787500","from_stop_id":"5953","from_stop_lat":"36.204824","from_stop_lon":"138.252924","from_stop_placename":"Japan","to_stop_id":"1730","to_stop_name":"origin","to_stop_lat":"37.566535","to_stop_lon":"126.9779692","to_stop_placename":"Seoul, South Korea","to_stop":{"id":"1730","name":"origin","lat":"37.566535","lon":"126.9779692","placename":"Seoul, South Korea"},"from_stop":{"name":"origin","id":"5953","lat":"36.204824","lon":"138.252924","placename":"Japan"}}]}}},"processes":[],"eols":[]},{"oid":"3957","imid":"3926","linkid":"parts\/lead-virgin","weight":"0.0003","rawemissions":"1.64","emissions":"0.000492","shipping":"7031.48","processemissions":"0","endoflifeemissions":"0","disposaltype":null,"disposalenergy":null,"disposalimpact":null,"disposalemissions":null,"description":"","name":"Lead, Virgin","id":"3926","stops":{"origin":{"related_to":"3926","part_or_object":"p","notes":"","placename":"Australia","id":5954,"name":"origin","lat":"-25.274398","lon":"133.775136","hops":{"incoming":[],"outgoing":[{"transport_id":"8","id":"3694","transport_name":"freighter, oceanic","transport_description":"","transport_unit":"kg km","transport_co2_eq":"0.004200","from_stop_id":"5954","from_stop_lat":"-25.274398","from_stop_lon":"133.775136","from_stop_placename":"Australia","to_stop_id":"1730","to_stop_name":"origin","to_stop_lat":"37.566535","to_stop_lon":"126.9779692","to_stop_placename":"Seoul, South Korea","to_stop":{"id":"1730","name":"origin","lat":"37.566535","lon":"126.9779692","placename":"Seoul, South Korea"},"from_stop":{"name":"origin","id":"5954","lat":"-25.274398","lon":"133.775136","placename":"Australia"}}]}}},"processes":[],"eols":[]},{"oid":"3957","imid":"3927","linkid":"parts\/silver-virgin","weight":"0.000134","rawemissions":"2053","emissions":"0.275102","shipping":"11478.57","processemissions":"0","endoflifeemissions":"0","disposaltype":null,"disposalenergy":null,"disposalimpact":null,"disposalemissions":null,"description":"","name":"Silver, Virgin","id":"3927","stops":{"origin":{"related_to":"3927","part_or_object":"p","notes":"","placename":"Mexico","id":5955,"name":"origin","lat":"23.634501","lon":"-102.552784","hops":{"incoming":[],"outgoing":[{"transport_id":"9","id":"3695","transport_name":"container ship","transport_description":"moving boxcar size containers","transport_unit":"kg km","transport_co2_eq":"0.047800","from_stop_id":"5955","from_stop_lat":"23.634501","from_stop_lon":"-102.552784","from_stop_placename":"Mexico","to_stop_id":"1730","to_stop_name":"origin","to_stop_lat":"37.566535","to_stop_lon":"126.9779692","to_stop_placename":"Seoul, South Korea","to_stop":{"id":"1730","name":"origin","lat":"37.566535","lon":"126.9779692","placename":"Seoul, South Korea"},"from_stop":{"name":"origin","id":"5955","lat":"23.634501","lon":"-102.552784","placename":"Mexico"}}]}}},"processes":[],"eols":[]},{"oid":"3957","imid":"3928","linkid":"parts\/gold-virgin","weight":"3.5e-05","rawemissions":"6800","emissions":"0.238","shipping":"13179.86","processemissions":"0","endoflifeemissions":"0","disposaltype":null,"disposalenergy":null,"disposalimpact":null,"disposalemissions":null,"description":"","name":"Gold, Virgin","id":"3928","stops":{"origin":{"related_to":"3928","part_or_object":"p","notes":"","placename":"South Africa","id":5956,"name":"origin","lat":"-30.559482","lon":"22.937506","hops":{"incoming":[],"outgoing":[{"transport_id":"14","id":"3696","transport_name":"air, passenger, intercontinental","transport_description":"intercontinental, kg km from person-km","transport_unit":"kg km","transport_co2_eq":"1.189000","from_stop_id":"5956","from_stop_lat":"-30.559482","from_stop_lon":"22.937506","from_stop_placename":"South Africa","to_stop_id":"1730","to_stop_name":"origin","to_stop_lat":"37.566535","to_stop_lon":"126.9779692","to_stop_placename":"Seoul, South Korea","to_stop":{"id":"1730","name":"origin","lat":"37.566535","lon":"126.9779692","placename":"Seoul, South Korea"},"from_stop":{"name":"origin","id":"5956","lat":"-30.559482","lon":"22.937506","placename":"South Africa"}}]}}},"processes":[],"eols":[]},{"oid":"3957","imid":"3929","linkid":"parts\/palladium-virgin","weight":"2.1e-05","rawemissions":"5900","emissions":"0.1239","shipping":"0","processemissions":"0","endoflifeemissions":"0","disposaltype":null,"disposalenergy":null,"disposalimpact":null,"disposalemissions":null,"description":"","name":"Palladium, Virgin","id":"3929","stops":{"origin":{"related_to":"3929","part_or_object":"p","notes":"","placename":"Part Location","id":5957,"name":"origin","lat":"0","lon":"0","hops":{"incoming":[],"outgoing":[{"transport_id":"14","id":"3697","transport_name":"air, passenger, intercontinental","transport_description":"intercontinental, kg km from person-km","transport_unit":"kg km","transport_co2_eq":"1.189000","from_stop_id":"5957","from_stop_lat":"0","from_stop_lon":"0","from_stop_placename":"Part Location","to_stop_id":"1730","to_stop_name":"origin","to_stop_lat":"37.566535","to_stop_lon":"126.9779692","to_stop_placename":"Seoul, South Korea","to_stop":{"id":"1730","name":"origin","lat":"37.566535","lon":"126.9779692","placename":"Seoul, South Korea"},"from_stop":{"name":"origin","id":"5957","lat":"0","lon":"0","placename":"Part Location"}}]}}},"processes":[],"eols":[]}],"user":{"name":"leo","id":"1"}}}