{"3966":{"oid":"3966","type":"trace","flag":"","creator":"10359","name":"Season To Taste Catering","upc":"","imagelink":"","description":"","slug":"season-to-taste","category":"featured","weight":"0","emissions":"0","embodied":"0","transport":"0","process":"0","endoflife":"0","shipping":"1108.25","lifetime":null,"usagetype":"","usageenergy":null,"usageemissions":null,"timecreated":"2010-08-13 16:21:18.631048","timemodified":"2010-08-17 13:22:00","visibility":"public","showfootprint":"on","showembodied":"on","showtransport":"on","showprocess":"on","showendoflife":"on","showlastleg":"on","showuse":"on","showstats":"on","stops":{"origin":{"related_to":"3966","part_or_object":"o","notes":"","placename":"Massachusetts Ave, Cambridge, MA, USA","id":"1739","category":"1","lat":"42.375933","lon":"-71.1185746","name":"origin","hops":{"incoming":[{"transport_id":"17","id":"3745","transport_name":"None Selected","transport_description":null,"transport_unit":"kg km","transport_co2_eq":"0.000000","from_stop_id":"6005","from_stop_lat":"42.3726399","from_stop_lon":"-71.1096528","to_stop_id":"1739","to_stop_name":"origin","to_stop_lat":"42.375933","placename":"Cambridge, MA, USA","to_stop_lon":"-71.1185746","to_stop":{"id":"1739","name":"origin","lat":"42.375933","placename":"Massachusetts Ave, Cambridge, MA, USA","lon":"-71.1185746"},"from_stop":{"name":"origin","id":"6005","lat":"42.3726399","lon":"-71.1096528","placename":"Cambridge, MA, USA"}},{"transport_id":"17","id":"3746","transport_name":"None Selected","transport_description":null,"transport_unit":"kg km","transport_co2_eq":"0.000000","from_stop_id":"6006","from_stop_lat":"42.2417669","from_stop_lon":"-70.8897676","to_stop_id":"1739","to_stop_name":"origin","to_stop_lat":"42.375933","placename":"Hingham, MA, USA","to_stop_lon":"-71.1185746","to_stop":{"id":"1739","name":"origin","lat":"42.375933","placename":"Massachusetts Ave, Cambridge, MA, USA","lon":"-71.1185746"},"from_stop":{"name":"origin","id":"6006","lat":"42.2417669","lon":"-70.8897676","placename":"Hingham, MA, USA"}},{"transport_id":"17","id":"3747","transport_name":"None Selected","transport_description":null,"transport_unit":"kg km","transport_co2_eq":"0.000000","from_stop_id":"6007","from_stop_lat":"42.3726399","from_stop_lon":"-71.1096528","to_stop_id":"1739","to_stop_name":"origin","to_stop_lat":"42.375933","placename":"Cambridge, MA, USA","to_stop_lon":"-71.1185746","to_stop":{"id":"1739","name":"origin","lat":"42.375933","placename":"Massachusetts Ave, Cambridge, MA, USA","lon":"-71.1185746"},"from_stop":{"name":"origin","id":"6007","lat":"42.3726399","lon":"-71.1096528","placename":"Cambridge, MA, USA"}},{"transport_id":"17","id":"3748","transport_name":"None Selected","transport_description":null,"transport_unit":"kg km","transport_co2_eq":"0.000000","from_stop_id":"6008","from_stop_lat":"42.3875968","from_stop_lon":"-71.0994968","to_stop_id":"1739","to_stop_name":"origin","to_stop_lat":"42.375933","placename":"Somerville, MA, USA","to_stop_lon":"-71.1185746","to_stop":{"id":"1739","name":"origin","lat":"42.375933","placename":"Massachusetts Ave, Cambridge, MA, USA","lon":"-71.1185746"},"from_stop":{"name":"origin","id":"6008","lat":"42.3875968","lon":"-71.0994968","placename":"Somerville, MA, USA"}},{"transport_id":"17","id":"3754","transport_name":"None Selected","transport_description":null,"transport_unit":"kg km","transport_co2_eq":"0.000000","from_stop_id":"6014","from_stop_lat":"42.6967887","from_stop_lon":"-71.586106","to_stop_id":"1739","to_stop_name":"origin","to_stop_lat":"42.375933","placename":"184 Hollis St, Pepperell, MA 01463, USA","to_stop_lon":"-71.1185746","to_stop":{"id":"1739","name":"origin","lat":"42.375933","placename":"Massachusetts Ave, Cambridge, MA, USA","lon":"-71.1185746"},"from_stop":{"name":"origin","id":"6014","lat":"42.6967887","lon":"-71.586106","placename":"184 Hollis St, Pepperell, MA 01463, USA"}},{"transport_id":"17","id":"3755","transport_name":"None Selected","transport_description":null,"transport_unit":"kg km","transport_co2_eq":"0.000000","from_stop_id":"6015","from_stop_lat":"42.369","from_stop_lon":"-71.1137","to_stop_id":"1739","to_stop_name":"origin","to_stop_lat":"42.375933","placename":"31 Putnam Ave, Cambridge, MA 02139, USA","to_stop_lon":"-71.1185746","to_stop":{"id":"1739","name":"origin","lat":"42.375933","placename":"Massachusetts Ave, Cambridge, MA, USA","lon":"-71.1185746"},"from_stop":{"name":"origin","id":"6015","lat":"42.369","lon":"-71.1137","placename":"31 Putnam Ave, Cambridge, MA 02139, USA"}},{"transport_id":"17","id":"3756","transport_name":"None Selected","transport_description":null,"transport_unit":"kg km","transport_co2_eq":"0.000000","from_stop_id":"6016","from_stop_lat":"42.3635443","from_stop_lon":"-71.0995001","to_stop_id":"1739","to_stop_name":"origin","to_stop_lat":"42.375933","placename":"899 Main St, Cambridge, MA 02139, USA","to_stop_lon":"-71.1185746","to_stop":{"id":"1739","name":"origin","lat":"42.375933","placename":"Massachusetts Ave, Cambridge, MA, USA","lon":"-71.1185746"},"from_stop":{"name":"origin","id":"6016","lat":"42.3635443","lon":"-71.0995001","placename":"899 Main St, Cambridge, MA 02139, USA"}},{"transport_id":"17","id":"3757","transport_name":"None Selected","transport_description":null,"transport_unit":"kg km","transport_co2_eq":"0.000000","from_stop_id":"6017","from_stop_lat":"42.3378","from_stop_lon":"-71.0496","to_stop_id":"1739","to_stop_name":"origin","to_stop_lat":"42.375933","placename":"363-371 E Broadway, Boston, MA 02127, USA","to_stop_lon":"-71.1185746","to_stop":{"id":"1739","name":"origin","lat":"42.375933","placename":"Massachusetts Ave, Cambridge, MA, USA","lon":"-71.1185746"},"from_stop":{"name":"origin","id":"6017","lat":"42.3378","lon":"-71.0496","placename":"363-371 E Broadway, Boston, MA 02127, USA"}},{"transport_id":"17","id":"3712","transport_name":"None Selected","transport_description":null,"transport_unit":"kg km","transport_co2_eq":"0.000000","from_stop_id":"5972","from_stop_lat":"42.3661668","from_stop_lon":"-71.2105934","to_stop_id":"1739","to_stop_name":"origin","to_stop_lat":"42.375933","placename":"560 Pleasant St, Watertown, MA 02472, USA","to_stop_lon":"-71.1185746","to_stop":{"id":"1739","name":"origin","lat":"42.375933","placename":"Massachusetts Ave, Cambridge, MA, USA","lon":"-71.1185746"},"from_stop":{"name":"origin","id":"5972","lat":"42.3661668","lon":"-71.2105934","placename":"560 Pleasant St, Watertown, MA 02472, USA"}},{"transport_id":"17","id":"3713","transport_name":"None Selected","transport_description":null,"transport_unit":"kg km","transport_co2_eq":"0.000000","from_stop_id":"5973","from_stop_lat":"42.6083","from_stop_lon":"-71.7417","to_stop_id":"1739","to_stop_name":"origin","to_stop_lat":"42.375933","placename":"647 Northfield Rd, Lunenburg, MA 01462, USA","to_stop_lon":"-71.1185746","to_stop":{"id":"1739","name":"origin","lat":"42.375933","placename":"Massachusetts Ave, Cambridge, MA, USA","lon":"-71.1185746"},"from_stop":{"name":"origin","id":"5973","lat":"42.6083","lon":"-71.7417","placename":"647 Northfield Rd, Lunenburg, MA 01462, USA"}},{"transport_id":"17","id":"3714","transport_name":"None Selected","transport_description":null,"transport_unit":"kg km","transport_co2_eq":"0.000000","from_stop_id":"5974","from_stop_lat":"41.7716537","from_stop_lon":"-70.5915284","to_stop_id":"1739","to_stop_name":"origin","to_stop_lat":"42.375933","placename":"200 Bournedale Rd, Buzzards Bay, MA 02532, USA","to_stop_lon":"-71.1185746","to_stop":{"id":"1739","name":"origin","lat":"42.375933","placename":"Massachusetts Ave, Cambridge, MA, USA","lon":"-71.1185746"},"from_stop":{"name":"origin","id":"5974","lat":"41.7716537","lon":"-70.5915284","placename":"200 Bournedale Rd, Buzzards Bay, MA 02532, USA"}},{"transport_id":"17","id":"3715","transport_name":"None Selected","transport_description":null,"transport_unit":"kg km","transport_co2_eq":"0.000000","from_stop_id":"5975","from_stop_lat":"42.4950336","from_stop_lon":"-71.3255567","to_stop_id":"1739","to_stop_name":"origin","to_stop_lat":"42.375933","placename":"754 Monument St, Concord, MA 01742, USA","to_stop_lon":"-71.1185746","to_stop":{"id":"1739","name":"origin","lat":"42.375933","placename":"Massachusetts Ave, Cambridge, MA, USA","lon":"-71.1185746"},"from_stop":{"name":"origin","id":"5975","lat":"42.4950336","lon":"-71.3255567","placename":"754 Monument St, Concord, MA 01742, USA"}},{"transport_id":"17","id":"3716","transport_name":"None Selected","transport_description":null,"transport_unit":"kg km","transport_co2_eq":"0.000000","from_stop_id":"5976","from_stop_lat":"41.5961","from_stop_lon":"-71.0048","to_stop_id":"1739","to_stop_name":"origin","to_stop_lat":"42.375933","placename":"592 Chase Rd, Dartmouth, MA 02747, USA","to_stop_lon":"-71.1185746","to_stop":{"id":"1739","name":"origin","lat":"42.375933","placename":"Massachusetts Ave, Cambridge, MA, USA","lon":"-71.1185746"},"from_stop":{"name":"origin","id":"5976","lat":"41.5961","lon":"-71.0048","placename":"592 Chase Rd, Dartmouth, MA 02747, USA"}},{"transport_id":"17","id":"3717","transport_name":"None Selected","transport_description":null,"transport_unit":"kg km","transport_co2_eq":"0.000000","from_stop_id":"5977","from_stop_lat":"42.4124827","from_stop_lon":"-71.4113286","to_stop_id":"1739","to_stop_name":"origin","to_stop_lat":"42.375933","placename":"113 Haynes Rd, Sudbury, MA 01776, USA","to_stop_lon":"-71.1185746","to_stop":{"id":"1739","name":"origin","lat":"42.375933","placename":"Massachusetts Ave, Cambridge, MA, USA","lon":"-71.1185746"},"from_stop":{"name":"origin","id":"5977","lat":"42.4124827","lon":"-71.4113286","placename":"113 Haynes Rd, Sudbury, MA 01776, USA"}},{"transport_id":"17","id":"3719","transport_name":"None Selected","transport_description":null,"transport_unit":"kg km","transport_co2_eq":"0.000000","from_stop_id":"5979","from_stop_lat":"42.4251373","from_stop_lon":"-71.3741336","to_stop_id":"1739","to_stop_name":"origin","to_stop_lat":"42.375933","placename":"11 Wheeler Rd, Concord, MA 01742, USA","to_stop_lon":"-71.1185746","to_stop":{"id":"1739","name":"origin","lat":"42.375933","placename":"Massachusetts Ave, Cambridge, MA, USA","lon":"-71.1185746"},"from_stop":{"name":"origin","id":"5979","lat":"42.4251373","lon":"-71.3741336","placename":"11 Wheeler Rd, Concord, MA 01742, USA"}},{"transport_id":"17","id":"3720","transport_name":"None Selected","transport_description":null,"transport_unit":"kg km","transport_co2_eq":"0.000000","from_stop_id":"5980","from_stop_lat":"42.237089","from_stop_lon":"-72.1380818","to_stop_id":"1739","to_stop_name":"origin","to_stop_lat":"42.375933","placename":"38 N Main St, West Brookfield, MA 01585, USA","to_stop_lon":"-71.1185746","to_stop":{"id":"1739","name":"origin","lat":"42.375933","placename":"Massachusetts Ave, Cambridge, MA, USA","lon":"-71.1185746"},"from_stop":{"name":"origin","id":"5980","lat":"42.237089","lon":"-72.1380818","placename":"38 N Main St, West Brookfield, MA 01585, USA"}},{"transport_id":"17","id":"3721","transport_name":"None Selected","transport_description":null,"transport_unit":"kg km","transport_co2_eq":"0.000000","from_stop_id":"5981","from_stop_lat":"44.1249237","from_stop_lon":"-73.1462485","to_stop_id":"1739","to_stop_name":"origin","to_stop_lat":"42.375933","placename":"1658 Main St, New Haven, VT 05472, USA","to_stop_lon":"-71.1185746","to_stop":{"id":"1739","name":"origin","lat":"42.375933","placename":"Massachusetts Ave, Cambridge, MA, USA","lon":"-71.1185746"},"from_stop":{"name":"origin","id":"5981","lat":"44.1249237","lon":"-73.1462485","placename":"1658 Main St, New Haven, VT 05472, USA"}},{"transport_id":"17","id":"3722","transport_name":"None Selected","transport_description":null,"transport_unit":"kg km","transport_co2_eq":"0.000000","from_stop_id":"5982","from_stop_lat":"42.1035789","from_stop_lon":"-72.1560522","to_stop_id":"1739","to_stop_name":"origin","to_stop_lat":"42.375933","placename":"81 5 Bridge Rd, Brimfield, MA 01010, USA","to_stop_lon":"-71.1185746","to_stop":{"id":"1739","name":"origin","lat":"42.375933","placename":"Massachusetts Ave, Cambridge, MA, USA","lon":"-71.1185746"},"from_stop":{"name":"origin","id":"5982","lat":"42.1035789","lon":"-72.1560522","placename":"81 5 Bridge Rd, Brimfield, MA 01010, USA"}},{"transport_id":"17","id":"3723","transport_name":"None Selected","transport_description":null,"transport_unit":"kg km","transport_co2_eq":"0.000000","from_stop_id":"5983","from_stop_lat":"43.596359","from_stop_lon":"-72.967491","to_stop_id":"1739","to_stop_name":"origin","to_stop_lat":"42.375933","placename":"28 Allen St, Rutland, VT 05701, USA","to_stop_lon":"-71.1185746","to_stop":{"id":"1739","name":"origin","lat":"42.375933","placename":"Massachusetts Ave, Cambridge, MA, USA","lon":"-71.1185746"},"from_stop":{"name":"origin","id":"5983","lat":"43.596359","lon":"-72.967491","placename":"28 Allen St, Rutland, VT 05701, USA"}},{"transport_id":"17","id":"3724","transport_name":"None Selected","transport_description":null,"transport_unit":"kg km","transport_co2_eq":"0.000000","from_stop_id":"5984","from_stop_lat":"42.3726399","from_stop_lon":"-71.1096528","to_stop_id":"1739","to_stop_name":"origin","to_stop_lat":"42.375933","placename":"Cambridge, MA, USA","to_stop_lon":"-71.1185746","to_stop":{"id":"1739","name":"origin","lat":"42.375933","placename":"Massachusetts Ave, Cambridge, MA, USA","lon":"-71.1185746"},"from_stop":{"name":"origin","id":"5984","lat":"42.3726399","lon":"-71.1096528","placename":"Cambridge, MA, USA"}},{"transport_id":"17","id":"3725","transport_name":"None Selected","transport_description":null,"transport_unit":"kg km","transport_co2_eq":"0.000000","from_stop_id":"5985","from_stop_lat":"42.3272088","from_stop_lon":"-72.1031987","to_stop_id":"1739","to_stop_name":"origin","to_stop_lat":"42.375933","placename":"1205 Barre Rd, New Braintree, MA 01531, USA","to_stop_lon":"-71.1185746","to_stop":{"id":"1739","name":"origin","lat":"42.375933","placename":"Massachusetts Ave, Cambridge, MA, USA","lon":"-71.1185746"},"from_stop":{"name":"origin","id":"5985","lat":"42.3272088","lon":"-72.1031987","placename":"1205 Barre Rd, New Braintree, MA 01531, USA"}}],"outgoing":[]}}},"parts":[{"oid":"3966","imid":"3939","linkid":"","weight":"0","rawemissions":"0","emissions":"0","shipping":"7.65","processemissions":"0","endoflifeemissions":"0","disposaltype":null,"disposalenergy":null,"disposalimpact":null,"disposalemissions":null,"description":"Russos of Watertown (www.russos.com)","name":"Produce","id":"3939","stops":{"origin":{"related_to":"3939","part_or_object":"p","notes":"","placename":"560 Pleasant St, Watertown, MA 02472, USA","id":5972,"name":"origin","lat":"42.3661668","lon":"-71.2105934","hops":{"incoming":[],"outgoing":[{"transport_id":"17","id":"3712","transport_name":"None Selected","transport_description":null,"transport_unit":"kg km","transport_co2_eq":"0.000000","from_stop_id":"5972","from_stop_lat":"42.3661668","from_stop_lon":"-71.2105934","from_stop_placename":"560 Pleasant St, Watertown, MA 02472, USA","to_stop_id":"1739","to_stop_name":"origin","to_stop_lat":"42.375933","to_stop_lon":"-71.1185746","to_stop_placename":"Massachusetts Ave, Cambridge, MA, USA","to_stop":{"id":"1739","name":"origin","lat":"42.375933","lon":"-71.1185746","placename":"Massachusetts Ave, Cambridge, MA, USA"},"from_stop":{"name":"origin","id":"5972","lat":"42.3661668","lon":"-71.2105934","placename":"560 Pleasant St, Watertown, MA 02472, USA"}}]}}},"processes":[],"eols":[]},{"oid":"3966","imid":"3940","linkid":"","weight":"0","rawemissions":"0","emissions":"0","shipping":"57.32","processemissions":"0","endoflifeemissions":"0","disposaltype":null,"disposalenergy":null,"disposalimpact":null,"disposalemissions":null,"description":"Dicks Market Garden (www.farmfresh.org\/food\/farm.php?farm=1225)","name":"Produce","id":"3940","stops":{"origin":{"related_to":"3940","part_or_object":"p","notes":"","placename":"647 Northfield Rd, Lunenburg, MA 01462, USA","id":5973,"name":"origin","lat":"42.6083","lon":"-71.7417","hops":{"incoming":[],"outgoing":[{"transport_id":"17","id":"3713","transport_name":"None Selected","transport_description":null,"transport_unit":"kg km","transport_co2_eq":"0.000000","from_stop_id":"5973","from_stop_lat":"42.6083","from_stop_lon":"-71.7417","from_stop_placename":"647 Northfield Rd, Lunenburg, MA 01462, USA","to_stop_id":"1739","to_stop_name":"origin","to_stop_lat":"42.375933","to_stop_lon":"-71.1185746","to_stop_placename":"Massachusetts Ave, Cambridge, MA, USA","to_stop":{"id":"1739","name":"origin","lat":"42.375933","lon":"-71.1185746","placename":"Massachusetts Ave, Cambridge, MA, USA"},"from_stop":{"name":"origin","id":"5973","lat":"42.6083","lon":"-71.7417","placename":"647 Northfield Rd, Lunenburg, MA 01462, USA"}}]}}},"processes":[],"eols":[]},{"oid":"3966","imid":"3941","linkid":"","weight":"0","rawemissions":"0","emissions":"0","shipping":"80.13","processemissions":"0","endoflifeemissions":"0","disposaltype":null,"disposalenergy":null,"disposalimpact":null,"disposalemissions":null,"description":"Bay End Farm (www.bayendfarm.com)","name":"Produce","id":"3941","stops":{"origin":{"related_to":"3941","part_or_object":"p","notes":"","placename":"200 Bournedale Rd, Buzzards Bay, MA 02532, USA","id":5974,"name":"origin","lat":"41.7716537","lon":"-70.5915284","hops":{"incoming":[],"outgoing":[{"transport_id":"17","id":"3714","transport_name":"None Selected","transport_description":null,"transport_unit":"kg km","transport_co2_eq":"0.000000","from_stop_id":"5974","from_stop_lat":"41.7716537","from_stop_lon":"-70.5915284","from_stop_placename":"200 Bournedale Rd, Buzzards Bay, MA 02532, USA","to_stop_id":"1739","to_stop_name":"origin","to_stop_lat":"42.375933","to_stop_lon":"-71.1185746","to_stop_placename":"Massachusetts Ave, Cambridge, MA, USA","to_stop":{"id":"1739","name":"origin","lat":"42.375933","lon":"-71.1185746","placename":"Massachusetts Ave, Cambridge, MA, USA"},"from_stop":{"name":"origin","id":"5974","lat":"41.7716537","lon":"-70.5915284","placename":"200 Bournedale Rd, Buzzards Bay, MA 02532, USA"}}]}}},"processes":[],"eols":[]},{"oid":"3966","imid":"3942","linkid":"","weight":"0","rawemissions":"0","emissions":"0","shipping":"21.56","processemissions":"0","endoflifeemissions":"0","disposaltype":null,"disposalenergy":null,"disposalimpact":null,"disposalemissions":null,"description":"Hutchins Farm (www.hutchinsfruitfarm.com)","name":"Produce","id":"3942","stops":{"origin":{"related_to":"3942","part_or_object":"p","notes":"","placename":"754 Monument St, Concord, MA 01742, USA","id":5975,"name":"origin","lat":"42.4950336","lon":"-71.3255567","hops":{"incoming":[],"outgoing":[{"transport_id":"17","id":"3715","transport_name":"None Selected","transport_description":null,"transport_unit":"kg km","transport_co2_eq":"0.000000","from_stop_id":"5975","from_stop_lat":"42.4950336","from_stop_lon":"-71.3255567","from_stop_placename":"754 Monument St, Concord, MA 01742, USA","to_stop_id":"1739","to_stop_name":"origin","to_stop_lat":"42.375933","to_stop_lon":"-71.1185746","to_stop_placename":"Massachusetts Ave, Cambridge, MA, USA","to_stop":{"id":"1739","name":"origin","lat":"42.375933","lon":"-71.1185746","placename":"Massachusetts Ave, Cambridge, MA, USA"},"from_stop":{"name":"origin","id":"5975","lat":"42.4950336","lon":"-71.3255567","placename":"754 Monument St, Concord, MA 01742, USA"}}]}}},"processes":[],"eols":[]},{"oid":"3966","imid":"3943","linkid":"","weight":"0","rawemissions":"0","emissions":"0","shipping":"87.32","processemissions":"0","endoflifeemissions":"0","disposaltype":null,"disposalenergy":null,"disposalimpact":null,"disposalemissions":null,"description":"Silverbrook Farm (www.silverbrookdartmouth.com)","name":"Produce","id":"3943","stops":{"origin":{"related_to":"3943","part_or_object":"p","notes":"","placename":"592 Chase Rd, Dartmouth, MA 02747, USA","id":5976,"name":"origin","lat":"41.5961","lon":"-71.0048","hops":{"incoming":[],"outgoing":[{"transport_id":"17","id":"3716","transport_name":"None Selected","transport_description":null,"transport_unit":"kg km","transport_co2_eq":"0.000000","from_stop_id":"5976","from_stop_lat":"41.5961","from_stop_lon":"-71.0048","from_stop_placename":"592 Chase Rd, Dartmouth, MA 02747, USA","to_stop_id":"1739","to_stop_name":"origin","to_stop_lat":"42.375933","to_stop_lon":"-71.1185746","to_stop_placename":"Massachusetts Ave, Cambridge, MA, USA","to_stop":{"id":"1739","name":"origin","lat":"42.375933","lon":"-71.1185746","placename":"Massachusetts Ave, Cambridge, MA, USA"},"from_stop":{"name":"origin","id":"5976","lat":"41.5961","lon":"-71.0048","placename":"592 Chase Rd, Dartmouth, MA 02747, USA"}}]}}},"processes":[],"eols":[]},{"oid":"3966","imid":"3944","linkid":"","weight":"0","rawemissions":"0","emissions":"0","shipping":"24.41","processemissions":"0","endoflifeemissions":"0","disposaltype":null,"disposalenergy":null,"disposalimpact":null,"disposalemissions":null,"description":"Siena Farms (www.sienafarms.com)","name":"Produce","id":"3944","stops":{"origin":{"related_to":"3944","part_or_object":"p","notes":"","placename":"113 Haynes Rd, Sudbury, MA 01776, USA","id":5977,"name":"origin","lat":"42.4124827","lon":"-71.4113286","hops":{"incoming":[],"outgoing":[{"transport_id":"17","id":"3717","transport_name":"None Selected","transport_description":null,"transport_unit":"kg km","transport_co2_eq":"0.000000","from_stop_id":"5977","from_stop_lat":"42.4124827","from_stop_lon":"-71.4113286","from_stop_placename":"113 Haynes Rd, Sudbury, MA 01776, USA","to_stop_id":"1739","to_stop_name":"origin","to_stop_lat":"42.375933","to_stop_lon":"-71.1185746","to_stop_placename":"Massachusetts Ave, Cambridge, MA, USA","to_stop":{"id":"1739","name":"origin","lat":"42.375933","lon":"-71.1185746","placename":"Massachusetts Ave, Cambridge, MA, USA"},"from_stop":{"name":"origin","id":"5977","lat":"42.4124827","lon":"-71.4113286","placename":"113 Haynes Rd, Sudbury, MA 01776, USA"}}]}}},"processes":[],"eols":[]},{"oid":"3966","imid":"3945","linkid":"","weight":"0","rawemissions":"0","emissions":"0","shipping":"21.71","processemissions":"0","endoflifeemissions":"0","disposaltype":null,"disposalenergy":null,"disposalimpact":null,"disposalemissions":null,"description":"Verrill Farm (www.verrillfarm.com)","name":"Produce","id":"3945","stops":{"origin":{"related_to":"3945","part_or_object":"p","notes":"","placename":"11 Wheeler Rd, Concord, MA 01742, USA","id":5979,"name":"origin","lat":"42.4251373","lon":"-71.3741336","hops":{"incoming":[],"outgoing":[{"transport_id":"17","id":"3719","transport_name":"None Selected","transport_description":null,"transport_unit":"kg km","transport_co2_eq":"0.000000","from_stop_id":"5979","from_stop_lat":"42.4251373","from_stop_lon":"-71.3741336","from_stop_placename":"11 Wheeler Rd, Concord, MA 01742, USA","to_stop_id":"1739","to_stop_name":"origin","to_stop_lat":"42.375933","to_stop_lon":"-71.1185746","to_stop_placename":"Massachusetts Ave, Cambridge, MA, USA","to_stop":{"id":"1739","name":"origin","lat":"42.375933","lon":"-71.1185746","placename":"Massachusetts Ave, Cambridge, MA, USA"},"from_stop":{"name":"origin","id":"5979","lat":"42.4251373","lon":"-71.3741336","placename":"11 Wheeler Rd, Concord, MA 01742, USA"}}]}}},"processes":[],"eols":[]},{"oid":"3966","imid":"3946","linkid":"","weight":"0","rawemissions":"0","emissions":"0","shipping":"85.34","processemissions":"0","endoflifeemissions":"0","disposaltype":null,"disposalenergy":null,"disposalimpact":null,"disposalemissions":null,"description":"Double J Farms (www.doublejfarmma.com)","name":"Grass-Fed Beef","id":"3946","stops":{"origin":{"related_to":"3946","part_or_object":"p","notes":"","placename":"38 N Main St, West Brookfield, MA 01585, USA","id":5980,"name":"origin","lat":"42.237089","lon":"-72.1380818","hops":{"incoming":[],"outgoing":[{"transport_id":"17","id":"3720","transport_name":"None Selected","transport_description":null,"transport_unit":"kg km","transport_co2_eq":"0.000000","from_stop_id":"5980","from_stop_lat":"42.237089","from_stop_lon":"-72.1380818","from_stop_placename":"38 N Main St, West Brookfield, MA 01585, USA","to_stop_id":"1739","to_stop_name":"origin","to_stop_lat":"42.375933","to_stop_lon":"-71.1185746","to_stop_placename":"Massachusetts Ave, Cambridge, MA, USA","to_stop":{"id":"1739","name":"origin","lat":"42.375933","lon":"-71.1185746","placename":"Massachusetts Ave, Cambridge, MA, USA"},"from_stop":{"name":"origin","id":"5980","lat":"42.237089","lon":"-72.1380818","placename":"38 N Main St, West Brookfield, MA 01585, USA"}}]}}},"processes":[],"eols":[]},{"oid":"3966","imid":"3947","linkid":"","weight":"0","rawemissions":"0","emissions":"0","shipping":"254.81","processemissions":"0","endoflifeemissions":"0","disposaltype":null,"disposalenergy":null,"disposalimpact":null,"disposalemissions":null,"description":"Misty Knoll Farms (www.mistyknollfarms.com)\n","name":"Chicken","id":"3947","stops":{"origin":{"related_to":"3947","part_or_object":"p","notes":"","placename":"1658 Main St, New Haven, VT 05472, USA","id":5981,"name":"origin","lat":"44.1249237","lon":"-73.1462485","hops":{"incoming":[],"outgoing":[{"transport_id":"17","id":"3721","transport_name":"None Selected","transport_description":null,"transport_unit":"kg km","transport_co2_eq":"0.000000","from_stop_id":"5981","from_stop_lat":"44.1249237","from_stop_lon":"-73.1462485","from_stop_placename":"1658 Main St, New Haven, VT 05472, USA","to_stop_id":"1739","to_stop_name":"origin","to_stop_lat":"42.375933","to_stop_lon":"-71.1185746","to_stop_placename":"Massachusetts Ave, Cambridge, MA, USA","to_stop":{"id":"1739","name":"origin","lat":"42.375933","lon":"-71.1185746","placename":"Massachusetts Ave, Cambridge, MA, USA"},"from_stop":{"name":"origin","id":"5981","lat":"44.1249237","lon":"-73.1462485","placename":"1658 Main St, New Haven, VT 05472, USA"}}]}}},"processes":[],"eols":[]},{"oid":"3966","imid":"3948","linkid":"","weight":"0","rawemissions":"0","emissions":"0","shipping":"90.72","processemissions":"0","endoflifeemissions":"0","disposaltype":null,"disposalenergy":null,"disposalimpact":null,"disposalemissions":null,"description":"RIver Rock Farm (www.riverrockfarm.com)","name":"Grass-Fed Beef","id":"3948","stops":{"origin":{"related_to":"3948","part_or_object":"p","notes":"","placename":"81 5 Bridge Rd, Brimfield, MA 01010, USA","id":5982,"name":"origin","lat":"42.1035789","lon":"-72.1560522","hops":{"incoming":[],"outgoing":[{"transport_id":"17","id":"3722","transport_name":"None Selected","transport_description":null,"transport_unit":"kg km","transport_co2_eq":"0.000000","from_stop_id":"5982","from_stop_lat":"42.1035789","from_stop_lon":"-72.1560522","from_stop_placename":"81 5 Bridge Rd, Brimfield, MA 01010, USA","to_stop_id":"1739","to_stop_name":"origin","to_stop_lat":"42.375933","to_stop_lon":"-71.1185746","to_stop_placename":"Massachusetts Ave, Cambridge, MA, USA","to_stop":{"id":"1739","name":"origin","lat":"42.375933","lon":"-71.1185746","placename":"Massachusetts Ave, Cambridge, MA, USA"},"from_stop":{"name":"origin","id":"5982","lat":"42.1035789","lon":"-72.1560522","placename":"81 5 Bridge Rd, Brimfield, MA 01010, USA"}}]}}},"processes":[],"eols":[]},{"oid":"3966","imid":"3949","linkid":"","weight":"0","rawemissions":"0","emissions":"0","shipping":"202.79","processemissions":"0","endoflifeemissions":"0","disposaltype":null,"disposalenergy":null,"disposalimpact":null,"disposalemissions":null,"description":"Vermont Quality Meats (www.vtqualitymeats.com)","name":"Meat","id":"3949","stops":{"origin":{"related_to":"3949","part_or_object":"p","notes":"","placename":"28 Allen St, Rutland, VT 05701, USA","id":5983,"name":"origin","lat":"43.596359","lon":"-72.967491","hops":{"incoming":[],"outgoing":[{"transport_id":"17","id":"3723","transport_name":"None Selected","transport_description":null,"transport_unit":"kg km","transport_co2_eq":"0.000000","from_stop_id":"5983","from_stop_lat":"43.596359","from_stop_lon":"-72.967491","from_stop_placename":"28 Allen St, Rutland, VT 05701, USA","to_stop_id":"1739","to_stop_name":"origin","to_stop_lat":"42.375933","to_stop_lon":"-71.1185746","to_stop_placename":"Massachusetts Ave, Cambridge, MA, USA","to_stop":{"id":"1739","name":"origin","lat":"42.375933","lon":"-71.1185746","placename":"Massachusetts Ave, Cambridge, MA, USA"},"from_stop":{"name":"origin","id":"5983","lat":"43.596359","lon":"-72.967491","placename":"28 Allen St, Rutland, VT 05701, USA"}}]}}},"processes":[],"eols":[]},{"oid":"3966","imid":"3950","linkid":"","weight":"0","rawemissions":"0","emissions":"0","shipping":"0.82","processemissions":"0","endoflifeemissions":"0","disposaltype":null,"disposalenergy":null,"disposalimpact":null,"disposalemissions":null,"description":"Court House Seafood","name":"Seafood","id":"3950","stops":{"origin":{"related_to":"3950","part_or_object":"p","notes":"","placename":"Cambridge, MA, USA","id":5984,"name":"origin","lat":"42.3726399","lon":"-71.1096528","hops":{"incoming":[],"outgoing":[{"transport_id":"17","id":"3724","transport_name":"None Selected","transport_description":null,"transport_unit":"kg km","transport_co2_eq":"0.000000","from_stop_id":"5984","from_stop_lat":"42.3726399","from_stop_lon":"-71.1096528","from_stop_placename":"Cambridge, MA, USA","to_stop_id":"1739","to_stop_name":"origin","to_stop_lat":"42.375933","to_stop_lon":"-71.1185746","to_stop_placename":"Massachusetts Ave, Cambridge, MA, USA","to_stop":{"id":"1739","name":"origin","lat":"42.375933","lon":"-71.1185746","placename":"Massachusetts Ave, Cambridge, MA, USA"},"from_stop":{"name":"origin","id":"5984","lat":"42.3726399","lon":"-71.1096528","placename":"Cambridge, MA, USA"}}]}}},"processes":[],"eols":[]},{"oid":"3966","imid":"3951","linkid":"","weight":"0","rawemissions":"0","emissions":"0","shipping":"81.18","processemissions":"0","endoflifeemissions":"0","disposaltype":null,"disposalenergy":null,"disposalimpact":null,"disposalemissions":null,"description":"Stillmans Farm (www,stillmansfarm.com)","name":"Produce","id":"3951","stops":{"origin":{"related_to":"3951","part_or_object":"p","notes":"","placename":"1205 Barre Rd, New Braintree, MA 01531, USA","id":5985,"name":"origin","lat":"42.3272088","lon":"-72.1031987","hops":{"incoming":[],"outgoing":[{"transport_id":"17","id":"3725","transport_name":"None Selected","transport_description":null,"transport_unit":"kg km","transport_co2_eq":"0.000000","from_stop_id":"5985","from_stop_lat":"42.3272088","from_stop_lon":"-72.1031987","from_stop_placename":"1205 Barre Rd, New Braintree, MA 01531, USA","to_stop_id":"1739","to_stop_name":"origin","to_stop_lat":"42.375933","to_stop_lon":"-71.1185746","to_stop_placename":"Massachusetts Ave, Cambridge, MA, USA","to_stop":{"id":"1739","name":"origin","lat":"42.375933","lon":"-71.1185746","placename":"Massachusetts Ave, Cambridge, MA, USA"},"from_stop":{"name":"origin","id":"5985","lat":"42.3272088","lon":"-72.1031987","placename":"1205 Barre Rd, New Braintree, MA 01531, USA"}}]}}},"processes":[],"eols":[]},{"oid":"3966","imid":"3963","linkid":"","weight":"0","rawemissions":"0","emissions":"0","shipping":"0","processemissions":"0","endoflifeemissions":"0","disposaltype":null,"disposalenergy":null,"disposalimpact":null,"disposalemissions":null,"description":"Iggys Breads of the World","name":"Bread","id":"3963","stops":{"origin":{"related_to":"3963","part_or_object":"p","notes":"","placename":"Cambridge, MA, USA","id":6005,"name":"origin","lat":"42.3726399","lon":"-71.1096528","hops":{"incoming":[],"outgoing":[{"transport_id":"17","id":"3745","transport_name":"None Selected","transport_description":null,"transport_unit":"kg km","transport_co2_eq":"0.000000","from_stop_id":"6005","from_stop_lat":"42.3726399","from_stop_lon":"-71.1096528","from_stop_placename":"Cambridge, MA, USA","to_stop_id":"1739","to_stop_name":"origin","to_stop_lat":"42.375933","to_stop_lon":"-71.1185746","to_stop_placename":"Massachusetts Ave, Cambridge, MA, USA","to_stop":{"id":"1739","name":"origin","lat":"42.375933","lon":"-71.1185746","placename":"Massachusetts Ave, Cambridge, MA, USA"},"from_stop":{"name":"origin","id":"6005","lat":"42.3726399","lon":"-71.1096528","placename":"Cambridge, MA, USA"}}]}}},"processes":[],"eols":[]},{"oid":"3966","imid":"3964","linkid":"","weight":"0","rawemissions":"0","emissions":"0","shipping":"23.24","processemissions":"0","endoflifeemissions":"0","disposaltype":null,"disposalenergy":null,"disposalimpact":null,"disposalemissions":null,"description":"Red Eye Roasters","name":"Coffee","id":"3964","stops":{"origin":{"related_to":"3964","part_or_object":"p","notes":"","placename":"Hingham, MA, USA","id":6006,"name":"origin","lat":"42.2417669","lon":"-70.8897676","hops":{"incoming":[],"outgoing":[{"transport_id":"17","id":"3746","transport_name":"None Selected","transport_description":null,"transport_unit":"kg km","transport_co2_eq":"0.000000","from_stop_id":"6006","from_stop_lat":"42.2417669","from_stop_lon":"-70.8897676","from_stop_placename":"Hingham, MA, USA","to_stop_id":"1739","to_stop_name":"origin","to_stop_lat":"42.375933","to_stop_lon":"-71.1185746","to_stop_placename":"Massachusetts Ave, Cambridge, MA, USA","to_stop":{"id":"1739","name":"origin","lat":"42.375933","lon":"-71.1185746","placename":"Massachusetts Ave, Cambridge, MA, USA"},"from_stop":{"name":"origin","id":"6006","lat":"42.2417669","lon":"-70.8897676","placename":"Hingham, MA, USA"}}]}}},"processes":[],"eols":[]},{"oid":"3966","imid":"3965","linkid":"","weight":"0","rawemissions":"0","emissions":"0","shipping":"0","processemissions":"0","endoflifeemissions":"0","disposaltype":null,"disposalenergy":null,"disposalimpact":null,"disposalemissions":null,"description":"Chrsitinas Ice Cream\n1255 Cambridge Street, Cambridge, MA\nwww.christinasicecream.com","name":"Desserts","id":"3965","stops":{"origin":{"related_to":"3965","part_or_object":"p","notes":"","placename":"Cambridge, MA, USA","id":6007,"name":"origin","lat":"42.3726399","lon":"-71.1096528","hops":{"incoming":[],"outgoing":[{"transport_id":"17","id":"3747","transport_name":"None Selected","transport_description":null,"transport_unit":"kg km","transport_co2_eq":"0.000000","from_stop_id":"6007","from_stop_lat":"42.3726399","from_stop_lon":"-71.1096528","from_stop_placename":"Cambridge, MA, USA","to_stop_id":"1739","to_stop_name":"origin","to_stop_lat":"42.375933","to_stop_lon":"-71.1185746","to_stop_placename":"Massachusetts Ave, Cambridge, MA, USA","to_stop":{"id":"1739","name":"origin","lat":"42.375933","lon":"-71.1185746","placename":"Massachusetts Ave, Cambridge, MA, USA"},"from_stop":{"name":"origin","id":"6007","lat":"42.3726399","lon":"-71.1096528","placename":"Cambridge, MA, USA"}}]}}},"processes":[],"eols":[]},{"oid":"3966","imid":"3966","linkid":"","weight":"0","rawemissions":"0","emissions":"0","shipping":"1.86","processemissions":"0","endoflifeemissions":"0","disposaltype":null,"disposalenergy":null,"disposalimpact":null,"disposalemissions":null,"description":"Kick-Ass Cup Cakes\n378 Highland Ave, Somerville, MA\nwww.kickasscupcakes.com","name":"Desserts","id":"3966","stops":{"origin":{"related_to":"3966","part_or_object":"p","notes":"","placename":"Somerville, MA, USA","id":6008,"name":"origin","lat":"42.3875968","lon":"-71.0994968","hops":{"incoming":[],"outgoing":[{"transport_id":"17","id":"3748","transport_name":"None Selected","transport_description":null,"transport_unit":"kg km","transport_co2_eq":"0.000000","from_stop_id":"6008","from_stop_lat":"42.3875968","from_stop_lon":"-71.0994968","from_stop_placename":"Somerville, MA, USA","to_stop_id":"1739","to_stop_name":"origin","to_stop_lat":"42.375933","to_stop_lon":"-71.1185746","to_stop_placename":"Massachusetts Ave, Cambridge, MA, USA","to_stop":{"id":"1739","name":"origin","lat":"42.375933","lon":"-71.1185746","placename":"Massachusetts Ave, Cambridge, MA, USA"},"from_stop":{"name":"origin","id":"6008","lat":"42.3875968","lon":"-71.0994968","placename":"Somerville, MA, USA"}}]}}},"processes":[],"eols":[]},{"oid":"3966","imid":"3967","linkid":"","weight":"0","rawemissions":"0","emissions":"0","shipping":"53.19","processemissions":"0","endoflifeemissions":"0","disposaltype":null,"disposalenergy":null,"disposalimpact":null,"disposalemissions":null,"description":"Kimball Fruit Farm (www.kimballfruitfarm.com)\n","name":"Produce","id":"3967","stops":{"origin":{"related_to":"3967","part_or_object":"p","notes":"","placename":"184 Hollis St, Pepperell, MA 01463, USA","id":6014,"name":"origin","lat":"42.6967887","lon":"-71.586106","hops":{"incoming":[],"outgoing":[{"transport_id":"17","id":"3754","transport_name":"None Selected","transport_description":null,"transport_unit":"kg km","transport_co2_eq":"0.000000","from_stop_id":"6014","from_stop_lat":"42.6967887","from_stop_lon":"-71.586106","from_stop_placename":"184 Hollis St, Pepperell, MA 01463, USA","to_stop_id":"1739","to_stop_name":"origin","to_stop_lat":"42.375933","to_stop_lon":"-71.1185746","to_stop_placename":"Massachusetts Ave, Cambridge, MA, USA","to_stop":{"id":"1739","name":"origin","lat":"42.375933","lon":"-71.1185746","placename":"Massachusetts Ave, Cambridge, MA, USA"},"from_stop":{"name":"origin","id":"6014","lat":"42.6967887","lon":"-71.586106","placename":"184 Hollis St, Pepperell, MA 01463, USA"}}]}}},"processes":[],"eols":[]},{"oid":"3966","imid":"3968","linkid":"","weight":"0","rawemissions":"0","emissions":"0","shipping":"0.52","processemissions":"0","endoflifeemissions":"0","disposaltype":null,"disposalenergy":null,"disposalimpact":null,"disposalemissions":null,"description":"Petsi Pies (www.petsipies.com)","name":"Desserts","id":"3968","stops":{"origin":{"related_to":"3968","part_or_object":"p","notes":"","placename":"31 Putnam Ave, Cambridge, MA 02139, USA","id":6015,"name":"origin","lat":"42.369","lon":"-71.1137","hops":{"incoming":[],"outgoing":[{"transport_id":"17","id":"3755","transport_name":"None Selected","transport_description":null,"transport_unit":"kg km","transport_co2_eq":"0.000000","from_stop_id":"6015","from_stop_lat":"42.369","from_stop_lon":"-71.1137","from_stop_placename":"31 Putnam Ave, Cambridge, MA 02139, USA","to_stop_id":"1739","to_stop_name":"origin","to_stop_lat":"42.375933","to_stop_lon":"-71.1185746","to_stop_placename":"Massachusetts Ave, Cambridge, MA, USA","to_stop":{"id":"1739","name":"origin","lat":"42.375933","lon":"-71.1185746","placename":"Massachusetts Ave, Cambridge, MA, USA"},"from_stop":{"name":"origin","id":"6015","lat":"42.369","lon":"-71.1137","placename":"31 Putnam Ave, Cambridge, MA 02139, USA"}}]}}},"processes":[],"eols":[]},{"oid":"3966","imid":"3969","linkid":"","weight":"0","rawemissions":"0","emissions":"0","shipping":"1.31","processemissions":"0","endoflifeemissions":"0","disposaltype":null,"disposalenergy":null,"disposalimpact":null,"disposalemissions":null,"description":"Toscaninis Ice Cream (www.tosci.com\/about\/)","name":"Desserts","id":"3969","stops":{"origin":{"related_to":"3969","part_or_object":"p","notes":"","placename":"899 Main St, Cambridge, MA 02139, USA","id":6016,"name":"origin","lat":"42.3635443","lon":"-71.0995001","hops":{"incoming":[],"outgoing":[{"transport_id":"17","id":"3756","transport_name":"None Selected","transport_description":null,"transport_unit":"kg km","transport_co2_eq":"0.000000","from_stop_id":"6016","from_stop_lat":"42.3635443","from_stop_lon":"-71.0995001","from_stop_placename":"899 Main St, Cambridge, MA 02139, USA","to_stop_id":"1739","to_stop_name":"origin","to_stop_lat":"42.375933","to_stop_lon":"-71.1185746","to_stop_placename":"Massachusetts Ave, Cambridge, MA, USA","to_stop":{"id":"1739","name":"origin","lat":"42.375933","lon":"-71.1185746","placename":"Massachusetts Ave, Cambridge, MA, USA"},"from_stop":{"name":"origin","id":"6016","lat":"42.3635443","lon":"-71.0995001","placename":"899 Main St, Cambridge, MA 02139, USA"}}]}}},"processes":[],"eols":[]},{"oid":"3966","imid":"3970","linkid":"","weight":"0","rawemissions":"0","emissions":"0","shipping":"6.28","processemissions":"0","endoflifeemissions":"0","disposaltype":null,"disposalenergy":null,"disposalimpact":null,"disposalemissions":null,"description":"Sweet Tooth Bakery (www.sweettoothboston.com)","name":"Desserts","id":"3970","stops":{"origin":{"related_to":"3970","part_or_object":"p","notes":"","placename":"363-371 E Broadway, Boston, MA 02127, USA","id":6017,"name":"origin","lat":"42.3378","lon":"-71.0496","hops":{"incoming":[],"outgoing":[{"transport_id":"17","id":"3757","transport_name":"None Selected","transport_description":null,"transport_unit":"kg km","transport_co2_eq":"0.000000","from_stop_id":"6017","from_stop_lat":"42.3378","from_stop_lon":"-71.0496","from_stop_placename":"363-371 E Broadway, Boston, MA 02127, USA","to_stop_id":"1739","to_stop_name":"origin","to_stop_lat":"42.375933","to_stop_lon":"-71.1185746","to_stop_placename":"Massachusetts Ave, Cambridge, MA, USA","to_stop":{"id":"1739","name":"origin","lat":"42.375933","lon":"-71.1185746","placename":"Massachusetts Ave, Cambridge, MA, USA"},"from_stop":{"name":"origin","id":"6017","lat":"42.3378","lon":"-71.0496","placename":"363-371 E Broadway, Boston, MA 02127, USA"}}]}}},"processes":[],"eols":[]}],"user":{"name":"commonspeech","id":"10359"}}}