{"3978":{"oid":"3978","type":"trace","flag":"","creator":"10390","name":"MTB Merida","upc":"","imagelink":"","description":"","slug":"povod","category":"","weight":"0","emissions":"0","embodied":"0","transport":"0","process":"0","endoflife":"0","shipping":"65636.02","lifetime":null,"usagetype":"","usageenergy":null,"usageemissions":null,"timecreated":"2010-08-17 09:03:32.442844","timemodified":"2010-08-27 09:17:26","visibility":"public","showfootprint":"on","showembodied":"on","showtransport":"on","showprocess":"on","showendoflife":"on","showlastleg":"on","showuse":"on","showstats":"on","stops":{"origin":{"related_to":"3978","part_or_object":"o","notes":"","placename":"Tchajwan","id":"1740","category":"1","lat":"23.69781","lon":"120.960515","name":"origin","hops":{"incoming":[{"transport_id":"17","id":"3758","transport_name":"None Selected","transport_description":null,"transport_unit":"kg km","transport_co2_eq":"0.000000","from_stop_id":"6018","from_stop_lat":"61.52401","from_stop_lon":"105.318756","to_stop_id":"1740","to_stop_name":"origin","to_stop_lat":"23.69781","placename":"Rusko","to_stop_lon":"120.960515","to_stop":{"id":"1740","name":"origin","lat":"23.69781","placename":"Tchajwan","lon":"120.960515"},"from_stop":{"name":"origin","id":"6018","lat":"61.52401","lon":"105.318756","placename":"Rusko"}},{"transport_id":"17","id":"3759","transport_name":"None Selected","transport_description":null,"transport_unit":"kg km","transport_co2_eq":"0.000000","from_stop_id":"6019","from_stop_lat":"26.7505337","from_stop_lon":"51.6834275","to_stop_id":"1740","to_stop_name":"origin","to_stop_lat":"23.69781","placename":"Perzsk\u00fd z\u00e1liv","to_stop_lon":"120.960515","to_stop":{"id":"1740","name":"origin","lat":"23.69781","placename":"Tchajwan","lon":"120.960515"},"from_stop":{"name":"origin","id":"6019","lat":"26.7505337","lon":"51.6834275","placename":"Perzsk\u00fd z\u00e1liv"}},{"transport_id":"17","id":"3760","transport_name":"None Selected","transport_description":null,"transport_unit":"kg km","transport_co2_eq":"0.000000","from_stop_id":"6020","from_stop_lat":"35.86166","from_stop_lon":"104.195397","to_stop_id":"1740","to_stop_name":"origin","to_stop_lat":"23.69781","placename":"\u010c\u00edna","to_stop_lon":"120.960515","to_stop":{"id":"1740","name":"origin","lat":"23.69781","placename":"Tchajwan","lon":"120.960515"},"from_stop":{"name":"origin","id":"6020","lat":"35.86166","lon":"104.195397","placename":"\u010c\u00edna"}},{"transport_id":"17","id":"3761","transport_name":"None Selected","transport_description":null,"transport_unit":"kg km","transport_co2_eq":"0.000000","from_stop_id":"6021","from_stop_lat":"4.210484","from_stop_lon":"101.975766","to_stop_id":"1740","to_stop_name":"origin","to_stop_lat":"23.69781","placename":"Malajzia","to_stop_lon":"120.960515","to_stop":{"id":"1740","name":"origin","lat":"23.69781","placename":"Tchajwan","lon":"120.960515"},"from_stop":{"name":"origin","id":"6021","lat":"4.210484","lon":"101.975766","placename":"Malajzia"}},{"transport_id":"17","id":"3762","transport_name":"None Selected","transport_description":null,"transport_unit":"kg km","transport_co2_eq":"0.000000","from_stop_id":"6022","from_stop_lat":"51.165691","from_stop_lon":"10.451526","to_stop_id":"1740","to_stop_name":"origin","to_stop_lat":"23.69781","placename":"Nemecko","to_stop_lon":"120.960515","to_stop":{"id":"1740","name":"origin","lat":"23.69781","placename":"Tchajwan","lon":"120.960515"},"from_stop":{"name":"origin","id":"6022","lat":"51.165691","lon":"10.451526","placename":"Nemecko"}},{"transport_id":"17","id":"3763","transport_name":"None Selected","transport_description":null,"transport_unit":"kg km","transport_co2_eq":"0.000000","from_stop_id":"6023","from_stop_lat":"51.919438","from_stop_lon":"19.145136","to_stop_id":"1740","to_stop_name":"origin","to_stop_lat":"23.69781","placename":"Po\u013esko","to_stop_lon":"120.960515","to_stop":{"id":"1740","name":"origin","lat":"23.69781","placename":"Tchajwan","lon":"120.960515"},"from_stop":{"name":"origin","id":"6023","lat":"51.919438","lon":"19.145136","placename":"Po\u013esko"}},{"transport_id":"17","id":"3784","transport_name":"None Selected","transport_description":null,"transport_unit":"kg km","transport_co2_eq":"0.000000","from_stop_id":"6044","from_stop_lat":"36.204824","from_stop_lon":"138.252924","to_stop_id":"1740","to_stop_name":"origin","to_stop_lat":"23.69781","placename":"Japonsko","to_stop_lon":"120.960515","to_stop":{"id":"1740","name":"origin","lat":"23.69781","placename":"Tchajwan","lon":"120.960515"},"from_stop":{"name":"origin","id":"6044","lat":"36.204824","lon":"138.252924","placename":"Japonsko"}},{"transport_id":"17","id":"3785","transport_name":"None Selected","transport_description":null,"transport_unit":"kg km","transport_co2_eq":"0.000000","from_stop_id":"6045","from_stop_lat":"37.09024","from_stop_lon":"-95.712891","to_stop_id":"1740","to_stop_name":"origin","to_stop_lat":"23.69781","placename":"Spojen\u00e9 \u0161t\u00e1ty americk\u00e9","to_stop_lon":"120.960515","to_stop":{"id":"1740","name":"origin","lat":"23.69781","placename":"Tchajwan","lon":"120.960515"},"from_stop":{"name":"origin","id":"6045","lat":"37.09024","lon":"-95.712891","placename":"Spojen\u00e9 \u0161t\u00e1ty americk\u00e9"}},{"transport_id":"17","id":"3786","transport_name":"None Selected","transport_description":null,"transport_unit":"kg km","transport_co2_eq":"0.000000","from_stop_id":"6046","from_stop_lat":"0","from_stop_lon":"0","to_stop_id":"1740","to_stop_name":"origin","to_stop_lat":"23.69781","placename":"Part Location","to_stop_lon":"120.960515","to_stop":{"id":"1740","name":"origin","lat":"23.69781","placename":"Tchajwan","lon":"120.960515"},"from_stop":{"name":"origin","id":"6046","lat":"0","lon":"0","placename":"Part Location"}},{"transport_id":"17","id":"3609","transport_name":"None Selected","transport_description":null,"transport_unit":"kg km","transport_co2_eq":"0.000000","from_stop_id":"5869","from_stop_lat":"48.1483765","from_stop_lon":"17.1073105","to_stop_id":"1740","to_stop_name":"origin","to_stop_lat":"23.69781","placename":"Bratislava, Slovensk\u00e1 republika","to_stop_lon":"120.960515","to_stop":{"id":"1740","name":"origin","lat":"23.69781","placename":"Tchajwan","lon":"120.960515"},"from_stop":{"name":"origin","id":"5869","lat":"48.1483765","lon":"17.1073105","placename":"Bratislava, Slovensk\u00e1 republika"}},{"transport_id":"17","id":"3616","transport_name":"None Selected","transport_description":null,"transport_unit":"kg km","transport_co2_eq":"0.000000","from_stop_id":"5876","from_stop_lat":"-18.1416","from_stop_lon":"178.4419","to_stop_id":"1740","to_stop_name":"origin","to_stop_lat":"23.69781","placename":"Suva, Fid\u017ei","to_stop_lon":"120.960515","to_stop":{"id":"1740","name":"origin","lat":"23.69781","placename":"Tchajwan","lon":"120.960515"},"from_stop":{"name":"origin","id":"5876","lat":"-18.1416","lon":"178.4419","placename":"Suva, Fid\u017ei"}}],"outgoing":[]}}},"parts":[{"oid":"3978","imid":"4112","linkid":"","weight":"0","rawemissions":"0","emissions":"0","shipping":"9038.45","processemissions":"0","endoflifeemissions":"0","disposaltype":null,"disposalenergy":null,"disposalimpact":null,"disposalemissions":null,"description":"","name":"salala","id":"4112","stops":{"origin":{"related_to":"4112","part_or_object":"p","notes":"","placename":"Bratislava, Slovensk\u00e1 republika","id":5869,"name":"origin","lat":"48.1483765","lon":"17.1073105","hops":{"incoming":[],"outgoing":[{"transport_id":"17","id":"3609","transport_name":"None Selected","transport_description":null,"transport_unit":"kg km","transport_co2_eq":"0.000000","from_stop_id":"5869","from_stop_lat":"48.1483765","from_stop_lon":"17.1073105","from_stop_placename":"Bratislava, Slovensk\u00e1 republika","to_stop_id":"1740","to_stop_name":"origin","to_stop_lat":"23.69781","to_stop_lon":"120.960515","to_stop_placename":"Tchajwan","to_stop":{"id":"1740","name":"origin","lat":"23.69781","lon":"120.960515","placename":"Tchajwan"},"from_stop":{"name":"origin","id":"5869","lat":"48.1483765","lon":"17.1073105","placename":"Bratislava, Slovensk\u00e1 republika"}}]}}},"processes":[],"eols":[]},{"oid":"3978","imid":"4114","linkid":"","weight":"0","rawemissions":"0","emissions":"0","shipping":"7788.21","processemissions":"0","endoflifeemissions":"0","disposaltype":null,"disposalenergy":null,"disposalimpact":null,"disposalemissions":null,"description":"","name":"denden","id":"4114","stops":{"origin":{"related_to":"4114","part_or_object":"p","notes":"","placename":"Suva, Fid\u017ei","id":5876,"name":"origin","lat":"-18.1416","lon":"178.4419","hops":{"incoming":[],"outgoing":[{"transport_id":"17","id":"3616","transport_name":"None Selected","transport_description":null,"transport_unit":"kg km","transport_co2_eq":"0.000000","from_stop_id":"5876","from_stop_lat":"-18.1416","from_stop_lon":"178.4419","from_stop_placename":"Suva, Fid\u017ei","to_stop_id":"1740","to_stop_name":"origin","to_stop_lat":"23.69781","to_stop_lon":"120.960515","to_stop_placename":"Tchajwan","to_stop":{"id":"1740","name":"origin","lat":"23.69781","lon":"120.960515","placename":"Tchajwan"},"from_stop":{"name":"origin","id":"5876","lat":"-18.1416","lon":"178.4419","placename":"Suva, Fid\u017ei"}}]}}},"processes":[],"eols":[]},{"oid":"3978","imid":"3971","linkid":"","weight":"0","rawemissions":"0","emissions":"0","shipping":"4376.2","processemissions":"0","endoflifeemissions":"0","disposaltype":null,"disposalenergy":null,"disposalimpact":null,"disposalemissions":null,"description":"for bike frame, and some components","name":"Aluminium, Copper & Magnesiusm","id":"3971","stops":{"origin":{"related_to":"3971","part_or_object":"p","notes":"","placename":"Rusko","id":6018,"name":"origin","lat":"61.52401","lon":"105.318756","hops":{"incoming":[],"outgoing":[{"transport_id":"17","id":"3758","transport_name":"None Selected","transport_description":null,"transport_unit":"kg km","transport_co2_eq":"0.000000","from_stop_id":"6018","from_stop_lat":"61.52401","from_stop_lon":"105.318756","from_stop_placename":"Rusko","to_stop_id":"1740","to_stop_name":"origin","to_stop_lat":"23.69781","to_stop_lon":"120.960515","to_stop_placename":"Tchajwan","to_stop":{"id":"1740","name":"origin","lat":"23.69781","lon":"120.960515","placename":"Tchajwan"},"from_stop":{"name":"origin","id":"6018","lat":"61.52401","lon":"105.318756","placename":"Rusko"}}]}}},"processes":[],"eols":[]},{"oid":"3978","imid":"3972","linkid":"","weight":"0","rawemissions":"0","emissions":"0","shipping":"6896.27","processemissions":"0","endoflifeemissions":"0","disposaltype":null,"disposalenergy":null,"disposalimpact":null,"disposalemissions":null,"description":"for suspension units","name":"Oil & vaseline","id":"3972","stops":{"origin":{"related_to":"3972","part_or_object":"p","notes":"","placename":"Perzsk\u00fd z\u00e1liv","id":6019,"name":"origin","lat":"26.7505337","lon":"51.6834275","hops":{"incoming":[],"outgoing":[{"transport_id":"17","id":"3759","transport_name":"None Selected","transport_description":null,"transport_unit":"kg km","transport_co2_eq":"0.000000","from_stop_id":"6019","from_stop_lat":"26.7505337","from_stop_lon":"51.6834275","from_stop_placename":"Perzsk\u00fd z\u00e1liv","to_stop_id":"1740","to_stop_name":"origin","to_stop_lat":"23.69781","to_stop_lon":"120.960515","to_stop_placename":"Tchajwan","to_stop":{"id":"1740","name":"origin","lat":"23.69781","lon":"120.960515","placename":"Tchajwan"},"from_stop":{"name":"origin","id":"6019","lat":"26.7505337","lon":"51.6834275","placename":"Perzsk\u00fd z\u00e1liv"}}]}}},"processes":[],"eols":[]},{"oid":"3978","imid":"3973","linkid":"","weight":"0","rawemissions":"0","emissions":"0","shipping":"2105.49","processemissions":"0","endoflifeemissions":"0","disposaltype":null,"disposalenergy":null,"disposalimpact":null,"disposalemissions":null,"description":"plastic parts of whole bike","name":"Plastic material","id":"3973","stops":{"origin":{"related_to":"3973","part_or_object":"p","notes":"","placename":"\u010c\u00edna","id":6020,"name":"origin","lat":"35.86166","lon":"104.195397","hops":{"incoming":[],"outgoing":[{"transport_id":"17","id":"3760","transport_name":"None Selected","transport_description":null,"transport_unit":"kg km","transport_co2_eq":"0.000000","from_stop_id":"6020","from_stop_lat":"35.86166","from_stop_lon":"104.195397","from_stop_placename":"\u010c\u00edna","to_stop_id":"1740","to_stop_name":"origin","to_stop_lat":"23.69781","to_stop_lon":"120.960515","to_stop_placename":"Tchajwan","to_stop":{"id":"1740","name":"origin","lat":"23.69781","lon":"120.960515","placename":"Tchajwan"},"from_stop":{"name":"origin","id":"6020","lat":"35.86166","lon":"104.195397","placename":"\u010c\u00edna"}}]}}},"processes":[],"eols":[]},{"oid":"3978","imid":"3974","linkid":"","weight":"0","rawemissions":"0","emissions":"0","shipping":"2976.91","processemissions":"0","endoflifeemissions":"0","disposaltype":null,"disposalenergy":null,"disposalimpact":null,"disposalemissions":null,"description":"","name":"Polymeric natural rubber","id":"3974","stops":{"origin":{"related_to":"3974","part_or_object":"p","notes":"","placename":"Malajzia","id":6021,"name":"origin","lat":"4.210484","lon":"101.975766","hops":{"incoming":[],"outgoing":[{"transport_id":"17","id":"3761","transport_name":"None Selected","transport_description":null,"transport_unit":"kg km","transport_co2_eq":"0.000000","from_stop_id":"6021","from_stop_lat":"4.210484","from_stop_lon":"101.975766","from_stop_placename":"Malajzia","to_stop_id":"1740","to_stop_name":"origin","to_stop_lat":"23.69781","to_stop_lon":"120.960515","to_stop_placename":"Tchajwan","to_stop":{"id":"1740","name":"origin","lat":"23.69781","lon":"120.960515","placename":"Tchajwan"},"from_stop":{"name":"origin","id":"6021","lat":"4.210484","lon":"101.975766","placename":"Malajzia"}}]}}},"processes":[],"eols":[]},{"oid":"3978","imid":"3975","linkid":"","weight":"0","rawemissions":"0","emissions":"0","shipping":"9303.52","processemissions":"0","endoflifeemissions":"0","disposaltype":null,"disposalenergy":null,"disposalimpact":null,"disposalemissions":null,"description":"","name":"Know-how","id":"3975","stops":{"origin":{"related_to":"3975","part_or_object":"p","notes":"","placename":"Nemecko","id":6022,"name":"origin","lat":"51.165691","lon":"10.451526","hops":{"incoming":[],"outgoing":[{"transport_id":"17","id":"3762","transport_name":"None Selected","transport_description":null,"transport_unit":"kg km","transport_co2_eq":"0.000000","from_stop_id":"6022","from_stop_lat":"51.165691","from_stop_lon":"10.451526","from_stop_placename":"Nemecko","to_stop_id":"1740","to_stop_name":"origin","to_stop_lat":"23.69781","to_stop_lon":"120.960515","to_stop_placename":"Tchajwan","to_stop":{"id":"1740","name":"origin","lat":"23.69781","lon":"120.960515","placename":"Tchajwan"},"from_stop":{"name":"origin","id":"6022","lat":"51.165691","lon":"10.451526","placename":"Nemecko"}}]}}},"processes":[],"eols":[]},{"oid":"3978","imid":"3976","linkid":"","weight":"0","rawemissions":"0","emissions":"0","shipping":"8729.76","processemissions":"0","endoflifeemissions":"0","disposaltype":null,"disposalenergy":null,"disposalimpact":null,"disposalemissions":null,"description":"","name":"Paint and lacquer","id":"3976","stops":{"origin":{"related_to":"3976","part_or_object":"p","notes":"","placename":"Po\u013esko","id":6023,"name":"origin","lat":"51.919438","lon":"19.145136","hops":{"incoming":[],"outgoing":[{"transport_id":"17","id":"3763","transport_name":"None Selected","transport_description":null,"transport_unit":"kg km","transport_co2_eq":"0.000000","from_stop_id":"6023","from_stop_lat":"51.919438","from_stop_lon":"19.145136","from_stop_placename":"Po\u013esko","to_stop_id":"1740","to_stop_name":"origin","to_stop_lat":"23.69781","to_stop_lon":"120.960515","to_stop_placename":"Tchajwan","to_stop":{"id":"1740","name":"origin","lat":"23.69781","lon":"120.960515","placename":"Tchajwan"},"from_stop":{"name":"origin","id":"6023","lat":"51.919438","lon":"19.145136","placename":"Po\u013esko"}}]}}},"processes":[],"eols":[]},{"oid":"3978","imid":"4002","linkid":"","weight":"0","rawemissions":"0","emissions":"0","shipping":"2166.31","processemissions":"0","endoflifeemissions":"0","disposaltype":null,"disposalenergy":null,"disposalimpact":null,"disposalemissions":null,"description":"","name":"Managment of production","id":"4002","stops":{"origin":{"related_to":"4002","part_or_object":"p","notes":"","placename":"Japonsko","id":6044,"name":"origin","lat":"36.204824","lon":"138.252924","hops":{"incoming":[],"outgoing":[{"transport_id":"17","id":"3784","transport_name":"None Selected","transport_description":null,"transport_unit":"kg km","transport_co2_eq":"0.000000","from_stop_id":"6044","from_stop_lat":"36.204824","from_stop_lon":"138.252924","from_stop_placename":"Japonsko","to_stop_id":"1740","to_stop_name":"origin","to_stop_lat":"23.69781","to_stop_lon":"120.960515","to_stop_placename":"Tchajwan","to_stop":{"id":"1740","name":"origin","lat":"23.69781","lon":"120.960515","placename":"Tchajwan"},"from_stop":{"name":"origin","id":"6044","lat":"36.204824","lon":"138.252924","placename":"Japonsko"}}]}}},"processes":[],"eols":[]},{"oid":"3978","imid":"4003","linkid":"","weight":"0","rawemissions":"0","emissions":"0","shipping":"12254.9","processemissions":"0","endoflifeemissions":"0","disposaltype":null,"disposalenergy":null,"disposalimpact":null,"disposalemissions":null,"description":"","name":"Shift Control","id":"4003","stops":{"origin":{"related_to":"4003","part_or_object":"p","notes":"","placename":"Spojen\u00e9 \u0161t\u00e1ty americk\u00e9","id":6045,"name":"origin","lat":"37.09024","lon":"-95.712891","hops":{"incoming":[],"outgoing":[{"transport_id":"17","id":"3785","transport_name":"None Selected","transport_description":null,"transport_unit":"kg km","transport_co2_eq":"0.000000","from_stop_id":"6045","from_stop_lat":"37.09024","from_stop_lon":"-95.712891","from_stop_placename":"Spojen\u00e9 \u0161t\u00e1ty americk\u00e9","to_stop_id":"1740","to_stop_name":"origin","to_stop_lat":"23.69781","to_stop_lon":"120.960515","to_stop_placename":"Tchajwan","to_stop":{"id":"1740","name":"origin","lat":"23.69781","lon":"120.960515","placename":"Tchajwan"},"from_stop":{"name":"origin","id":"6045","lat":"37.09024","lon":"-95.712891","placename":"Spojen\u00e9 \u0161t\u00e1ty americk\u00e9"}}]}}},"processes":[],"eols":[]},{"oid":"3978","imid":"4004","linkid":"","weight":"0","rawemissions":"0","emissions":"0","shipping":"0","processemissions":"0","endoflifeemissions":"0","disposaltype":null,"disposalenergy":null,"disposalimpact":null,"disposalemissions":null,"description":"","name":"Part","id":"4004","stops":{"origin":{"related_to":"4004","part_or_object":"p","notes":"","placename":"Part Location","id":6046,"name":"origin","lat":"0","lon":"0","hops":{"incoming":[],"outgoing":[{"transport_id":"17","id":"3786","transport_name":"None Selected","transport_description":null,"transport_unit":"kg km","transport_co2_eq":"0.000000","from_stop_id":"6046","from_stop_lat":"0","from_stop_lon":"0","from_stop_placename":"Part Location","to_stop_id":"1740","to_stop_name":"origin","to_stop_lat":"23.69781","to_stop_lon":"120.960515","to_stop_placename":"Tchajwan","to_stop":{"id":"1740","name":"origin","lat":"23.69781","lon":"120.960515","placename":"Tchajwan"},"from_stop":{"name":"origin","id":"6046","lat":"0","lon":"0","placename":"Part Location"}}]}}},"processes":[],"eols":[]}],"user":{"name":"filip777","id":"10390"}}}