{"3979":{"oid":"3979","type":"trace","flag":"","creator":"1","name":"Stonyfield Volumes","upc":"","imagelink":"","description":"","slug":"stonyfield-volumes","category":"","weight":"0","emissions":"0","embodied":"0","transport":"0","process":"0","endoflife":"0","shipping":"140341.3","lifetime":null,"usagetype":"","usageenergy":null,"usageemissions":null,"timecreated":"2010-08-17 11:59:13.380484","timemodified":"2010-08-17 16:11:35","visibility":"private","showfootprint":"on","showembodied":"on","showtransport":"on","showprocess":"on","showendoflife":"on","showlastleg":"on","showuse":"on","showstats":"on","stops":{"origin":{"related_to":"3979","part_or_object":"o","notes":"","placename":"10 Burton Dr, Londonderry, NH 03053, USA","id":"1755","category":"1","lat":"42.9066747","lon":"-71.4195536","name":"origin","hops":{"incoming":[{"transport_id":"17","id":"3765","transport_name":"None Selected","transport_description":null,"transport_unit":"kg km","transport_co2_eq":"0.000000","from_stop_id":"6025","from_stop_lat":"34.1975048","from_stop_lon":"-119.1770516","to_stop_id":"1755","to_stop_name":"origin","to_stop_lat":"42.9066747","placename":"Oxnard, CA, USA","to_stop_lon":"-71.4195536","to_stop":{"id":"1755","name":"origin","lat":"42.9066747","placename":"10 Burton Dr, Londonderry, NH 03053, USA","lon":"-71.4195536"},"from_stop":{"name":"origin","id":"6025","lat":"34.1975048","lon":"-119.1770516","placename":"Oxnard, CA, USA"}},{"transport_id":"17","id":"3766","transport_name":"None Selected","transport_description":null,"transport_unit":"kg km","transport_co2_eq":"0.000000","from_stop_id":"6026","from_stop_lat":"36.910231","from_stop_lon":"-121.7568946","to_stop_id":"1755","to_stop_name":"origin","to_stop_lat":"42.9066747","placename":"Watsonville, CA, USA","to_stop_lon":"-71.4195536","to_stop":{"id":"1755","name":"origin","lat":"42.9066747","placename":"10 Burton Dr, Londonderry, NH 03053, USA","lon":"-71.4195536"},"from_stop":{"name":"origin","id":"6026","lat":"36.910231","lon":"-121.7568946","placename":"Watsonville, CA, USA"}},{"transport_id":"17","id":"3767","transport_name":"None Selected","transport_description":null,"transport_unit":"kg km","transport_co2_eq":"0.000000","from_stop_id":"6027","from_stop_lat":"-26.9257507","from_stop_lon":"-65.3380356","to_stop_id":"1755","to_stop_name":"origin","to_stop_lat":"42.9066747","placename":"Lules, Tucum\u00e1n, Argentina","to_stop_lon":"-71.4195536","to_stop":{"id":"1755","name":"origin","lat":"42.9066747","placename":"10 Burton Dr, Londonderry, NH 03053, USA","lon":"-71.4195536"},"from_stop":{"name":"origin","id":"6027","lat":"-26.9257507","lon":"-65.3380356","placename":"Lules, Tucum\u00e1n, Argentina"}},{"transport_id":"17","id":"3768","transport_name":"None Selected","transport_description":null,"transport_unit":"kg km","transport_co2_eq":"0.000000","from_stop_id":"6028","from_stop_lat":"19.5665192","from_stop_lon":"-101.7068294","to_stop_id":"1755","to_stop_name":"origin","to_stop_lat":"42.9066747","placename":"Michoac\u00e1n, Mexico","to_stop_lon":"-71.4195536","to_stop":{"id":"1755","name":"origin","lat":"42.9066747","placename":"10 Burton Dr, Londonderry, NH 03053, USA","lon":"-71.4195536"},"from_stop":{"name":"origin","id":"6028","lat":"19.5665192","lon":"-101.7068294","placename":"Michoac\u00e1n, Mexico"}},{"transport_id":"17","id":"3769","transport_name":"None Selected","transport_description":null,"transport_unit":"kg km","transport_co2_eq":"0.000000","from_stop_id":"6029","from_stop_lat":"36.9858984","from_stop_lon":"-119.2320784","to_stop_id":"1755","to_stop_name":"origin","to_stop_lat":"42.9066747","placename":"Fresno, California, USA","to_stop_lon":"-71.4195536","to_stop":{"id":"1755","name":"origin","lat":"42.9066747","placename":"10 Burton Dr, Londonderry, NH 03053, USA","lon":"-71.4195536"},"from_stop":{"name":"origin","id":"6029","lat":"36.9858984","lon":"-119.2320784","placename":"Fresno, California, USA"}},{"transport_id":"17","id":"3770","transport_name":"None Selected","transport_description":null,"transport_unit":"kg km","transport_co2_eq":"0.000000","from_stop_id":"6030","from_stop_lat":"46.6020711","from_stop_lon":"-120.5058987","to_stop_id":"1755","to_stop_name":"origin","to_stop_lat":"42.9066747","placename":"Yakima, WA, USA","to_stop_lon":"-71.4195536","to_stop":{"id":"1755","name":"origin","lat":"42.9066747","placename":"10 Burton Dr, Londonderry, NH 03053, USA","lon":"-71.4195536"},"from_stop":{"name":"origin","id":"6030","lat":"46.6020711","lon":"-120.5058987","placename":"Yakima, WA, USA"}},{"transport_id":"17","id":"3771","transport_name":"None Selected","transport_description":null,"transport_unit":"kg km","transport_co2_eq":"0.000000","from_stop_id":"6031","from_stop_lat":"51.3896076","from_stop_lon":"5.9192873","to_stop_id":"1755","to_stop_name":"origin","to_stop_lat":"42.9066747","placename":"Helenaveen, The Netherlands","to_stop_lon":"-71.4195536","to_stop":{"id":"1755","name":"origin","lat":"42.9066747","placename":"10 Burton Dr, Londonderry, NH 03053, USA","lon":"-71.4195536"},"from_stop":{"name":"origin","id":"6031","lat":"51.3896076","lon":"5.9192873","placename":"Helenaveen, The Netherlands"}},{"transport_id":"17","id":"3772","transport_name":"None Selected","transport_description":null,"transport_unit":"kg km","transport_co2_eq":"0.000000","from_stop_id":"6032","from_stop_lat":"45.950135","from_stop_lon":"-75.94656","to_stop_id":"1755","to_stop_name":"origin","to_stop_lat":"42.9066747","placename":"Lac-Sainte-Marie, QC J0X, Canada","to_stop_lon":"-71.4195536","to_stop":{"id":"1755","name":"origin","lat":"42.9066747","placename":"10 Burton Dr, Londonderry, NH 03053, USA","lon":"-71.4195536"},"from_stop":{"name":"origin","id":"6032","lat":"45.950135","lon":"-75.94656","placename":"Lac-Sainte-Marie, QC J0X, Canada"}},{"transport_id":"17","id":"3773","transport_name":"None Selected","transport_description":null,"transport_unit":"kg km","transport_co2_eq":"0.000000","from_stop_id":"6033","from_stop_lat":"47.4234599","from_stop_lon":"-120.3103494","to_stop_id":"1755","to_stop_name":"origin","to_stop_lat":"42.9066747","placename":"Wenatchee, WA, USA","to_stop_lon":"-71.4195536","to_stop":{"id":"1755","name":"origin","lat":"42.9066747","placename":"10 Burton Dr, Londonderry, NH 03053, USA","lon":"-71.4195536"},"from_stop":{"name":"origin","id":"6033","lat":"47.4234599","lon":"-120.3103494","placename":"Wenatchee, WA, USA"}},{"transport_id":"17","id":"3774","transport_name":"None Selected","transport_description":null,"transport_unit":"kg km","transport_co2_eq":"0.000000","from_stop_id":"6034","from_stop_lat":"9.625209","from_stop_lon":"-82.830437","to_stop_id":"1755","to_stop_name":"origin","to_stop_lat":"42.9066747","placename":"Bribri, Costa Rica","to_stop_lon":"-71.4195536","to_stop":{"id":"1755","name":"origin","lat":"42.9066747","placename":"10 Burton Dr, Londonderry, NH 03053, USA","lon":"-71.4195536"},"from_stop":{"name":"origin","id":"6034","lat":"9.625209","lon":"-82.830437","placename":"Bribri, Costa Rica"}},{"transport_id":"17","id":"3775","transport_name":"None Selected","transport_description":null,"transport_unit":"kg km","transport_co2_eq":"0.000000","from_stop_id":"6035","from_stop_lat":"52.3320938","from_stop_lon":"5.5407172","to_stop_id":"1755","to_stop_name":"origin","to_stop_lat":"42.9066747","placename":"Zeewolde, The Netherlands","to_stop_lon":"-71.4195536","to_stop":{"id":"1755","name":"origin","lat":"42.9066747","placename":"10 Burton Dr, Londonderry, NH 03053, USA","lon":"-71.4195536"},"from_stop":{"name":"origin","id":"6035","lat":"52.3320938","lon":"5.5407172","placename":"Zeewolde, The Netherlands"}},{"transport_id":"17","id":"3776","transport_name":"None Selected","transport_description":null,"transport_unit":"kg km","transport_co2_eq":"0.000000","from_stop_id":"6036","from_stop_lat":"40.18257","from_stop_lon":"29.06687","to_stop_id":"1755","to_stop_name":"origin","to_stop_lat":"42.9066747","placename":"Bursa, Turkey","to_stop_lon":"-71.4195536","to_stop":{"id":"1755","name":"origin","lat":"42.9066747","placename":"10 Burton Dr, Londonderry, NH 03053, USA","lon":"-71.4195536"},"from_stop":{"name":"origin","id":"6036","lat":"40.18257","lon":"29.06687","placename":"Bursa, Turkey"}},{"transport_id":"17","id":"3777","transport_name":"None Selected","transport_description":null,"transport_unit":"kg km","transport_co2_eq":"0.000000","from_stop_id":"6037","from_stop_lat":"-18.766947","from_stop_lon":"46.869107","to_stop_id":"1755","to_stop_name":"origin","to_stop_lat":"42.9066747","placename":"Madagascar","to_stop_lon":"-71.4195536","to_stop":{"id":"1755","name":"origin","lat":"42.9066747","placename":"10 Burton Dr, Londonderry, NH 03053, USA","lon":"-71.4195536"},"from_stop":{"name":"origin","id":"6037","lat":"-18.766947","lon":"46.869107","placename":"Madagascar"}},{"transport_id":"17","id":"3778","transport_name":"None Selected","transport_description":null,"transport_unit":"kg km","transport_co2_eq":"0.000000","from_stop_id":"6038","from_stop_lat":"-5.4983977","from_stop_lon":"-39.3206241","to_stop_id":"1755","to_stop_name":"origin","to_stop_lat":"42.9066747","placename":"Ceara, Brazil","to_stop_lon":"-71.4195536","to_stop":{"id":"1755","name":"origin","lat":"42.9066747","placename":"10 Burton Dr, Londonderry, NH 03053, USA","lon":"-71.4195536"},"from_stop":{"name":"origin","id":"6038","lat":"-5.4983977","lon":"-39.3206241","placename":"Ceara, Brazil"}},{"transport_id":"17","id":"3779","transport_name":"None Selected","transport_description":null,"transport_unit":"kg km","transport_co2_eq":"0.000000","from_stop_id":"6039","from_stop_lat":"0.0344566","from_stop_lon":"-51.0665639","to_stop_id":"1755","to_stop_name":"origin","to_stop_lat":"42.9066747","placename":"Macap\u00e1 - Amap\u00e1, Brazil","to_stop_lon":"-71.4195536","to_stop":{"id":"1755","name":"origin","lat":"42.9066747","placename":"10 Burton Dr, Londonderry, NH 03053, USA","lon":"-71.4195536"},"from_stop":{"name":"origin","id":"6039","lat":"0.0344566","lon":"-51.0665639","placename":"Macap\u00e1 - Amap\u00e1, Brazil"}},{"transport_id":"17","id":"3780","transport_name":"None Selected","transport_description":null,"transport_unit":"kg km","transport_co2_eq":"0.000000","from_stop_id":"6040","from_stop_lat":"-9.189967","from_stop_lon":"-75.015152","to_stop_id":"1755","to_stop_name":"origin","to_stop_lat":"42.9066747","placename":"Peru","to_stop_lon":"-71.4195536","to_stop":{"id":"1755","name":"origin","lat":"42.9066747","placename":"10 Burton Dr, Londonderry, NH 03053, USA","lon":"-71.4195536"},"from_stop":{"name":"origin","id":"6040","lat":"-9.189967","lon":"-75.015152","placename":"Peru"}},{"transport_id":"17","id":"3781","transport_name":"None Selected","transport_description":null,"transport_unit":"kg km","transport_co2_eq":"0.000000","from_stop_id":"6041","from_stop_lat":"18.735693","from_stop_lon":"-70.162651","to_stop_id":"1755","to_stop_name":"origin","to_stop_lat":"42.9066747","placename":"Dominican Republic","to_stop_lon":"-71.4195536","to_stop":{"id":"1755","name":"origin","lat":"42.9066747","placename":"10 Burton Dr, Londonderry, NH 03053, USA","lon":"-71.4195536"},"from_stop":{"name":"origin","id":"6041","lat":"18.735693","lon":"-70.162651","placename":"Dominican Republic"}},{"transport_id":"17","id":"3782","transport_name":"None Selected","transport_description":null,"transport_unit":"kg km","transport_co2_eq":"0.000000","from_stop_id":"6042","from_stop_lat":"46.729553","from_stop_lon":"-94.6858998","to_stop_id":"1755","to_stop_name":"origin","to_stop_lat":"42.9066747","placename":"Minnesota, USA","to_stop_lon":"-71.4195536","to_stop":{"id":"1755","name":"origin","lat":"42.9066747","placename":"10 Burton Dr, Londonderry, NH 03053, USA","lon":"-71.4195536"},"from_stop":{"name":"origin","id":"6042","lat":"46.729553","lon":"-94.6858998","placename":"Minnesota, USA"}},{"transport_id":"17","id":"3783","transport_name":"None Selected","transport_description":null,"transport_unit":"kg km","transport_co2_eq":"0.000000","from_stop_id":"6043","from_stop_lat":"37.09024","from_stop_lon":"-95.712891","to_stop_id":"1755","to_stop_name":"origin","to_stop_lat":"42.9066747","placename":"United States","to_stop_lon":"-71.4195536","to_stop":{"id":"1755","name":"origin","lat":"42.9066747","placename":"10 Burton Dr, Londonderry, NH 03053, USA","lon":"-71.4195536"},"from_stop":{"name":"origin","id":"6043","lat":"37.09024","lon":"-95.712891","placename":"United States"}},{"transport_id":"17","id":"3731","transport_name":"None Selected","transport_description":null,"transport_unit":"kg km","transport_co2_eq":"0.000000","from_stop_id":"5991","from_stop_lat":"45.50012","from_stop_lon":"-122.5014799","to_stop_id":"1755","to_stop_name":"origin","to_stop_lat":"42.9066747","placename":"Willamette Valley, Portland, OR 97236, USA","to_stop_lon":"-71.4195536","to_stop":{"id":"1755","name":"origin","lat":"42.9066747","placename":"10 Burton Dr, Londonderry, NH 03053, USA","lon":"-71.4195536"},"from_stop":{"name":"origin","id":"5991","lat":"45.50012","lon":"-122.5014799","placename":"Willamette Valley, Portland, OR 97236, USA"}},{"transport_id":"17","id":"3732","transport_name":"None Selected","transport_description":null,"transport_unit":"kg km","transport_co2_eq":"0.000000","from_stop_id":"5992","from_stop_lat":"-21.1434038","from_stop_lon":"-48.0070321","to_stop_id":"1755","to_stop_name":"origin","to_stop_lat":"42.9066747","placename":"Sert\u00e3ozinho - S\u00e3o Paulo, Brazil","to_stop_lon":"-71.4195536","to_stop":{"id":"1755","name":"origin","lat":"42.9066747","placename":"10 Burton Dr, Londonderry, NH 03053, USA","lon":"-71.4195536"},"from_stop":{"name":"origin","id":"5992","lat":"-21.1434038","lon":"-48.0070321","placename":"Sert\u00e3ozinho - S\u00e3o Paulo, Brazil"}},{"transport_id":"17","id":"3733","transport_name":"None Selected","transport_description":null,"transport_unit":"kg km","transport_co2_eq":"0.000000","from_stop_id":"5993","from_stop_lat":"-25.2989041","from_stop_lon":"-57.665027","to_stop_id":"1755","to_stop_name":"origin","to_stop_lat":"42.9066747","placename":"Oviedo, Asuncion, Paraguay","to_stop_lon":"-71.4195536","to_stop":{"id":"1755","name":"origin","lat":"42.9066747","placename":"10 Burton Dr, Londonderry, NH 03053, USA","lon":"-71.4195536"},"from_stop":{"name":"origin","id":"5993","lat":"-25.2989041","lon":"-57.665027","placename":"Oviedo, Asuncion, Paraguay"}},{"transport_id":"17","id":"3734","transport_name":"None Selected","transport_description":null,"transport_unit":"kg km","transport_co2_eq":"0.000000","from_stop_id":"5994","from_stop_lat":"15.3172775","from_stop_lon":"75.7138884","to_stop_id":"1755","to_stop_name":"origin","to_stop_lat":"42.9066747","placename":"Karnataka, India","to_stop_lon":"-71.4195536","to_stop":{"id":"1755","name":"origin","lat":"42.9066747","placename":"10 Burton Dr, Londonderry, NH 03053, USA","lon":"-71.4195536"},"from_stop":{"name":"origin","id":"5994","lat":"15.3172775","lon":"75.7138884","placename":"Karnataka, India"}},{"transport_id":"17","id":"3327","transport_name":"None Selected","transport_description":null,"transport_unit":"kg km","transport_co2_eq":"0.000000","from_stop_id":"5587","from_stop_lat":"-0.789275","from_stop_lon":"113.921327","to_stop_id":"1755","to_stop_name":"origin","to_stop_lat":"42.9066747","placename":"Indonesia","to_stop_lon":"-71.4195536","to_stop":{"id":"1755","name":"origin","lat":"42.9066747","placename":"10 Burton Dr, Londonderry, NH 03053, USA","lon":"-71.4195536"},"from_stop":{"name":"origin","id":"5587","lat":"-0.789275","lon":"113.921327","placename":"Indonesia"}}],"outgoing":[]}}},"parts":[{"oid":"3979","imid":"3994","linkid":"","weight":"0","rawemissions":"0","emissions":"0","shipping":"15318.86","processemissions":"0","endoflifeemissions":"0","disposaltype":null,"disposalenergy":null,"disposalimpact":null,"disposalemissions":null,"description":"","name":"Part","id":"3994","stops":{"origin":{"related_to":"3994","part_or_object":"p","notes":"","placename":"Indonesia","id":5587,"name":"origin","lat":"-0.789275","lon":"113.921327","hops":{"incoming":[],"outgoing":[{"transport_id":"17","id":"3327","transport_name":"None Selected","transport_description":null,"transport_unit":"kg km","transport_co2_eq":"0.000000","from_stop_id":"5587","from_stop_lat":"-0.789275","from_stop_lon":"113.921327","from_stop_placename":"Indonesia","to_stop_id":"1755","to_stop_name":"origin","to_stop_lat":"42.9066747","to_stop_lon":"-71.4195536","to_stop_placename":"10 Burton Dr, Londonderry, NH 03053, USA","to_stop":{"id":"1755","name":"origin","lat":"42.9066747","lon":"-71.4195536","placename":"10 Burton Dr, Londonderry, NH 03053, USA"},"from_stop":{"name":"origin","id":"5587","lat":"-0.789275","lon":"113.921327","placename":"Indonesia"}}]}}},"processes":[],"eols":[]},{"oid":"3979","imid":"3990","linkid":"","weight":"0","rawemissions":"0","emissions":"0","shipping":"4017.42","processemissions":"0","endoflifeemissions":"0","disposaltype":null,"disposalenergy":null,"disposalimpact":null,"disposalemissions":null,"description":"","name":"Part","id":"3990","stops":{"origin":{"related_to":"3990","part_or_object":"p","notes":"","placename":"Willamette Valley, Portland, OR 97236, USA","id":5991,"name":"origin","lat":"45.50012","lon":"-122.5014799","hops":{"incoming":[],"outgoing":[{"transport_id":"17","id":"3731","transport_name":"None Selected","transport_description":null,"transport_unit":"kg km","transport_co2_eq":"0.000000","from_stop_id":"5991","from_stop_lat":"45.50012","from_stop_lon":"-122.5014799","from_stop_placename":"Willamette Valley, Portland, OR 97236, USA","to_stop_id":"1755","to_stop_name":"origin","to_stop_lat":"42.9066747","to_stop_lon":"-71.4195536","to_stop_placename":"10 Burton Dr, Londonderry, NH 03053, USA","to_stop":{"id":"1755","name":"origin","lat":"42.9066747","lon":"-71.4195536","placename":"10 Burton Dr, Londonderry, NH 03053, USA"},"from_stop":{"name":"origin","id":"5991","lat":"45.50012","lon":"-122.5014799","placename":"Willamette Valley, Portland, OR 97236, USA"}}]}}},"processes":[],"eols":[]},{"oid":"3979","imid":"3991","linkid":"","weight":"0","rawemissions":"0","emissions":"0","shipping":"7523.34","processemissions":"0","endoflifeemissions":"0","disposaltype":null,"disposalenergy":null,"disposalimpact":null,"disposalemissions":null,"description":"","name":"Part","id":"3991","stops":{"origin":{"related_to":"3991","part_or_object":"p","notes":"","placename":"Sert\u00e3ozinho - S\u00e3o Paulo, Brazil","id":5992,"name":"origin","lat":"-21.1434038","lon":"-48.0070321","hops":{"incoming":[],"outgoing":[{"transport_id":"17","id":"3732","transport_name":"None Selected","transport_description":null,"transport_unit":"kg km","transport_co2_eq":"0.000000","from_stop_id":"5992","from_stop_lat":"-21.1434038","from_stop_lon":"-48.0070321","from_stop_placename":"Sert\u00e3ozinho - S\u00e3o Paulo, Brazil","to_stop_id":"1755","to_stop_name":"origin","to_stop_lat":"42.9066747","to_stop_lon":"-71.4195536","to_stop_placename":"10 Burton Dr, Londonderry, NH 03053, USA","to_stop":{"id":"1755","name":"origin","lat":"42.9066747","lon":"-71.4195536","placename":"10 Burton Dr, Londonderry, NH 03053, USA"},"from_stop":{"name":"origin","id":"5992","lat":"-21.1434038","lon":"-48.0070321","placename":"Sert\u00e3ozinho - S\u00e3o Paulo, Brazil"}}]}}},"processes":[],"eols":[]},{"oid":"3979","imid":"3992","linkid":"","weight":"0","rawemissions":"0","emissions":"0","shipping":"7722.54","processemissions":"0","endoflifeemissions":"0","disposaltype":null,"disposalenergy":null,"disposalimpact":null,"disposalemissions":null,"description":"","name":"Part","id":"3992","stops":{"origin":{"related_to":"3992","part_or_object":"p","notes":"","placename":"Oviedo, Asuncion, Paraguay","id":5993,"name":"origin","lat":"-25.2989041","lon":"-57.665027","hops":{"incoming":[],"outgoing":[{"transport_id":"17","id":"3733","transport_name":"None Selected","transport_description":null,"transport_unit":"kg km","transport_co2_eq":"0.000000","from_stop_id":"5993","from_stop_lat":"-25.2989041","from_stop_lon":"-57.665027","from_stop_placename":"Oviedo, Asuncion, Paraguay","to_stop_id":"1755","to_stop_name":"origin","to_stop_lat":"42.9066747","to_stop_lon":"-71.4195536","to_stop_placename":"10 Burton Dr, Londonderry, NH 03053, USA","to_stop":{"id":"1755","name":"origin","lat":"42.9066747","lon":"-71.4195536","placename":"10 Burton Dr, Londonderry, NH 03053, USA"},"from_stop":{"name":"origin","id":"5993","lat":"-25.2989041","lon":"-57.665027","placename":"Oviedo, Asuncion, Paraguay"}}]}}},"processes":[],"eols":[]},{"oid":"3979","imid":"3993","linkid":"","weight":"0","rawemissions":"0","emissions":"0","shipping":"12737.89","processemissions":"0","endoflifeemissions":"0","disposaltype":null,"disposalenergy":null,"disposalimpact":null,"disposalemissions":null,"description":"","name":"Part","id":"3993","stops":{"origin":{"related_to":"3993","part_or_object":"p","notes":"","placename":"Karnataka, India","id":5994,"name":"origin","lat":"15.3172775","lon":"75.7138884","hops":{"incoming":[],"outgoing":[{"transport_id":"17","id":"3734","transport_name":"None Selected","transport_description":null,"transport_unit":"kg km","transport_co2_eq":"0.000000","from_stop_id":"5994","from_stop_lat":"15.3172775","from_stop_lon":"75.7138884","from_stop_placename":"Karnataka, India","to_stop_id":"1755","to_stop_name":"origin","to_stop_lat":"42.9066747","to_stop_lon":"-71.4195536","to_stop_placename":"10 Burton Dr, Londonderry, NH 03053, USA","to_stop":{"id":"1755","name":"origin","lat":"42.9066747","lon":"-71.4195536","placename":"10 Burton Dr, Londonderry, NH 03053, USA"},"from_stop":{"name":"origin","id":"5994","lat":"15.3172775","lon":"75.7138884","placename":"Karnataka, India"}}]}}},"processes":[],"eols":[]},{"oid":"3979","imid":"3978","linkid":"","weight":"0","rawemissions":"0","emissions":"0","shipping":"4210.29","processemissions":"0","endoflifeemissions":"0","disposaltype":null,"disposalenergy":null,"disposalimpact":null,"disposalemissions":null,"description":"","name":"Strawberries","id":"3978","stops":{"origin":{"related_to":"3978","part_or_object":"p","notes":"","placename":"Oxnard, CA, USA","id":6025,"name":"origin","lat":"34.1975048","lon":"-119.1770516","hops":{"incoming":[],"outgoing":[{"transport_id":"17","id":"3765","transport_name":"None Selected","transport_description":null,"transport_unit":"kg km","transport_co2_eq":"0.000000","from_stop_id":"6025","from_stop_lat":"34.1975048","from_stop_lon":"-119.1770516","from_stop_placename":"Oxnard, CA, USA","to_stop_id":"1755","to_stop_name":"origin","to_stop_lat":"42.9066747","to_stop_lon":"-71.4195536","to_stop_placename":"10 Burton Dr, Londonderry, NH 03053, USA","to_stop":{"id":"1755","name":"origin","lat":"42.9066747","lon":"-71.4195536","placename":"10 Burton Dr, Londonderry, NH 03053, USA"},"from_stop":{"name":"origin","id":"6025","lat":"34.1975048","lon":"-119.1770516","placename":"Oxnard, CA, USA"}}]}}},"processes":[],"eols":[]},{"oid":"3979","imid":"3979","linkid":"","weight":"0","rawemissions":"0","emissions":"0","shipping":"4285.12","processemissions":"0","endoflifeemissions":"0","disposaltype":null,"disposalenergy":null,"disposalimpact":null,"disposalemissions":null,"description":"","name":"Strawberries","id":"3979","stops":{"origin":{"related_to":"3979","part_or_object":"p","notes":"","placename":"Watsonville, CA, USA","id":6026,"name":"origin","lat":"36.910231","lon":"-121.7568946","hops":{"incoming":[],"outgoing":[{"transport_id":"17","id":"3766","transport_name":"None Selected","transport_description":null,"transport_unit":"kg km","transport_co2_eq":"0.000000","from_stop_id":"6026","from_stop_lat":"36.910231","from_stop_lon":"-121.7568946","from_stop_placename":"Watsonville, CA, USA","to_stop_id":"1755","to_stop_name":"origin","to_stop_lat":"42.9066747","to_stop_lon":"-71.4195536","to_stop_placename":"10 Burton Dr, Londonderry, NH 03053, USA","to_stop":{"id":"1755","name":"origin","lat":"42.9066747","lon":"-71.4195536","placename":"10 Burton Dr, Londonderry, NH 03053, USA"},"from_stop":{"name":"origin","id":"6026","lat":"36.910231","lon":"-121.7568946","placename":"Watsonville, CA, USA"}}]}}},"processes":[],"eols":[]},{"oid":"3979","imid":"3980","linkid":"","weight":"0","rawemissions":"0","emissions":"0","shipping":"7798.66","processemissions":"0","endoflifeemissions":"0","disposaltype":null,"disposalenergy":null,"disposalimpact":null,"disposalemissions":null,"description":"","name":"Strawberries","id":"3980","stops":{"origin":{"related_to":"3980","part_or_object":"p","notes":"","placename":"Lules, Tucum\u00e1n, Argentina","id":6027,"name":"origin","lat":"-26.9257507","lon":"-65.3380356","hops":{"incoming":[],"outgoing":[{"transport_id":"17","id":"3767","transport_name":"None Selected","transport_description":null,"transport_unit":"kg km","transport_co2_eq":"0.000000","from_stop_id":"6027","from_stop_lat":"-26.9257507","from_stop_lon":"-65.3380356","from_stop_placename":"Lules, Tucum\u00e1n, Argentina","to_stop_id":"1755","to_stop_name":"origin","to_stop_lat":"42.9066747","to_stop_lon":"-71.4195536","to_stop_placename":"10 Burton Dr, Londonderry, NH 03053, USA","to_stop":{"id":"1755","name":"origin","lat":"42.9066747","lon":"-71.4195536","placename":"10 Burton Dr, Londonderry, NH 03053, USA"},"from_stop":{"name":"origin","id":"6027","lat":"-26.9257507","lon":"-65.3380356","placename":"Lules, Tucum\u00e1n, Argentina"}}]}}},"processes":[],"eols":[]},{"oid":"3979","imid":"3981","linkid":"","weight":"0","rawemissions":"0","emissions":"0","shipping":"3842.32","processemissions":"0","endoflifeemissions":"0","disposaltype":null,"disposalenergy":null,"disposalimpact":null,"disposalemissions":null,"description":"","name":"Part","id":"3981","stops":{"origin":{"related_to":"3981","part_or_object":"p","notes":"","placename":"Michoac\u00e1n, Mexico","id":6028,"name":"origin","lat":"19.5665192","lon":"-101.7068294","hops":{"incoming":[],"outgoing":[{"transport_id":"17","id":"3768","transport_name":"None Selected","transport_description":null,"transport_unit":"kg km","transport_co2_eq":"0.000000","from_stop_id":"6028","from_stop_lat":"19.5665192","from_stop_lon":"-101.7068294","from_stop_placename":"Michoac\u00e1n, Mexico","to_stop_id":"1755","to_stop_name":"origin","to_stop_lat":"42.9066747","to_stop_lon":"-71.4195536","to_stop_placename":"10 Burton Dr, Londonderry, NH 03053, USA","to_stop":{"id":"1755","name":"origin","lat":"42.9066747","lon":"-71.4195536","placename":"10 Burton Dr, Londonderry, NH 03053, USA"},"from_stop":{"name":"origin","id":"6028","lat":"19.5665192","lon":"-101.7068294","placename":"Michoac\u00e1n, Mexico"}}]}}},"processes":[],"eols":[]},{"oid":"3979","imid":"3982","linkid":"","weight":"0","rawemissions":"0","emissions":"0","shipping":"4077.68","processemissions":"0","endoflifeemissions":"0","disposaltype":null,"disposalenergy":null,"disposalimpact":null,"disposalemissions":null,"description":"","name":"Part","id":"3982","stops":{"origin":{"related_to":"3982","part_or_object":"p","notes":"","placename":"Fresno, California, USA","id":6029,"name":"origin","lat":"36.9858984","lon":"-119.2320784","hops":{"incoming":[],"outgoing":[{"transport_id":"17","id":"3769","transport_name":"None Selected","transport_description":null,"transport_unit":"kg km","transport_co2_eq":"0.000000","from_stop_id":"6029","from_stop_lat":"36.9858984","from_stop_lon":"-119.2320784","from_stop_placename":"Fresno, California, USA","to_stop_id":"1755","to_stop_name":"origin","to_stop_lat":"42.9066747","to_stop_lon":"-71.4195536","to_stop_placename":"10 Burton Dr, Londonderry, NH 03053, USA","to_stop":{"id":"1755","name":"origin","lat":"42.9066747","lon":"-71.4195536","placename":"10 Burton Dr, Londonderry, NH 03053, USA"},"from_stop":{"name":"origin","id":"6029","lat":"36.9858984","lon":"-119.2320784","placename":"Fresno, California, USA"}}]}}},"processes":[],"eols":[]},{"oid":"3979","imid":"3983","linkid":"","weight":"0","rawemissions":"0","emissions":"0","shipping":"3839.01","processemissions":"0","endoflifeemissions":"0","disposaltype":null,"disposalenergy":null,"disposalimpact":null,"disposalemissions":null,"description":"","name":"Part","id":"3983","stops":{"origin":{"related_to":"3983","part_or_object":"p","notes":"","placename":"Yakima, WA, USA","id":6030,"name":"origin","lat":"46.6020711","lon":"-120.5058987","hops":{"incoming":[],"outgoing":[{"transport_id":"17","id":"3770","transport_name":"None Selected","transport_description":null,"transport_unit":"kg km","transport_co2_eq":"0.000000","from_stop_id":"6030","from_stop_lat":"46.6020711","from_stop_lon":"-120.5058987","from_stop_placename":"Yakima, WA, USA","to_stop_id":"1755","to_stop_name":"origin","to_stop_lat":"42.9066747","to_stop_lon":"-71.4195536","to_stop_placename":"10 Burton Dr, Londonderry, NH 03053, USA","to_stop":{"id":"1755","name":"origin","lat":"42.9066747","lon":"-71.4195536","placename":"10 Burton Dr, Londonderry, NH 03053, USA"},"from_stop":{"name":"origin","id":"6030","lat":"46.6020711","lon":"-120.5058987","placename":"Yakima, WA, USA"}}]}}},"processes":[],"eols":[]},{"oid":"3979","imid":"3984","linkid":"","weight":"0","rawemissions":"0","emissions":"0","shipping":"5653.87","processemissions":"0","endoflifeemissions":"0","disposaltype":null,"disposalenergy":null,"disposalimpact":null,"disposalemissions":null,"description":"","name":"Part","id":"3984","stops":{"origin":{"related_to":"3984","part_or_object":"p","notes":"","placename":"Helenaveen, The Netherlands","id":6031,"name":"origin","lat":"51.3896076","lon":"5.9192873","hops":{"incoming":[],"outgoing":[{"transport_id":"17","id":"3771","transport_name":"None Selected","transport_description":null,"transport_unit":"kg km","transport_co2_eq":"0.000000","from_stop_id":"6031","from_stop_lat":"51.3896076","from_stop_lon":"5.9192873","from_stop_placename":"Helenaveen, The Netherlands","to_stop_id":"1755","to_stop_name":"origin","to_stop_lat":"42.9066747","to_stop_lon":"-71.4195536","to_stop_placename":"10 Burton Dr, Londonderry, NH 03053, USA","to_stop":{"id":"1755","name":"origin","lat":"42.9066747","lon":"-71.4195536","placename":"10 Burton Dr, Londonderry, NH 03053, USA"},"from_stop":{"name":"origin","id":"6031","lat":"51.3896076","lon":"5.9192873","placename":"Helenaveen, The Netherlands"}}]}}},"processes":[],"eols":[]},{"oid":"3979","imid":"3985","linkid":"","weight":"0","rawemissions":"0","emissions":"0","shipping":"494.11","processemissions":"0","endoflifeemissions":"0","disposaltype":null,"disposalenergy":null,"disposalimpact":null,"disposalemissions":null,"description":"","name":"Part","id":"3985","stops":{"origin":{"related_to":"3985","part_or_object":"p","notes":"","placename":"Lac-Sainte-Marie, QC J0X, Canada","id":6032,"name":"origin","lat":"45.950135","lon":"-75.94656","hops":{"incoming":[],"outgoing":[{"transport_id":"17","id":"3772","transport_name":"None Selected","transport_description":null,"transport_unit":"kg km","transport_co2_eq":"0.000000","from_stop_id":"6032","from_stop_lat":"45.950135","from_stop_lon":"-75.94656","from_stop_placename":"Lac-Sainte-Marie, QC J0X, Canada","to_stop_id":"1755","to_stop_name":"origin","to_stop_lat":"42.9066747","to_stop_lon":"-71.4195536","to_stop_placename":"10 Burton Dr, Londonderry, NH 03053, USA","to_stop":{"id":"1755","name":"origin","lat":"42.9066747","lon":"-71.4195536","placename":"10 Burton Dr, Londonderry, NH 03053, USA"},"from_stop":{"name":"origin","id":"6032","lat":"45.950135","lon":"-75.94656","placename":"Lac-Sainte-Marie, QC J0X, Canada"}}]}}},"processes":[],"eols":[]},{"oid":"3979","imid":"3986","linkid":"","weight":"0","rawemissions":"0","emissions":"0","shipping":"3806.21","processemissions":"0","endoflifeemissions":"0","disposaltype":null,"disposalenergy":null,"disposalimpact":null,"disposalemissions":null,"description":"","name":"Part","id":"3986","stops":{"origin":{"related_to":"3986","part_or_object":"p","notes":"","placename":"Wenatchee, WA, USA","id":6033,"name":"origin","lat":"47.4234599","lon":"-120.3103494","hops":{"incoming":[],"outgoing":[{"transport_id":"17","id":"3773","transport_name":"None Selected","transport_description":null,"transport_unit":"kg km","transport_co2_eq":"0.000000","from_stop_id":"6033","from_stop_lat":"47.4234599","from_stop_lon":"-120.3103494","from_stop_placename":"Wenatchee, WA, USA","to_stop_id":"1755","to_stop_name":"origin","to_stop_lat":"42.9066747","to_stop_lon":"-71.4195536","to_stop_placename":"10 Burton Dr, Londonderry, NH 03053, USA","to_stop":{"id":"1755","name":"origin","lat":"42.9066747","lon":"-71.4195536","placename":"10 Burton Dr, Londonderry, NH 03053, USA"},"from_stop":{"name":"origin","id":"6033","lat":"47.4234599","lon":"-120.3103494","placename":"Wenatchee, WA, USA"}}]}}},"processes":[],"eols":[]},{"oid":"3979","imid":"3987","linkid":"","weight":"0","rawemissions":"0","emissions":"0","shipping":"3867.64","processemissions":"0","endoflifeemissions":"0","disposaltype":null,"disposalenergy":null,"disposalimpact":null,"disposalemissions":null,"description":"","name":"Part","id":"3987","stops":{"origin":{"related_to":"3987","part_or_object":"p","notes":"","placename":"Bribri, Costa Rica","id":6034,"name":"origin","lat":"9.625209","lon":"-82.830437","hops":{"incoming":[],"outgoing":[{"transport_id":"17","id":"3774","transport_name":"None Selected","transport_description":null,"transport_unit":"kg km","transport_co2_eq":"0.000000","from_stop_id":"6034","from_stop_lat":"9.625209","from_stop_lon":"-82.830437","from_stop_placename":"Bribri, Costa Rica","to_stop_id":"1755","to_stop_name":"origin","to_stop_lat":"42.9066747","to_stop_lon":"-71.4195536","to_stop_placename":"10 Burton Dr, Londonderry, NH 03053, USA","to_stop":{"id":"1755","name":"origin","lat":"42.9066747","lon":"-71.4195536","placename":"10 Burton Dr, Londonderry, NH 03053, USA"},"from_stop":{"name":"origin","id":"6034","lat":"9.625209","lon":"-82.830437","placename":"Bribri, Costa Rica"}}]}}},"processes":[],"eols":[]},{"oid":"3979","imid":"3988","linkid":"","weight":"0","rawemissions":"0","emissions":"0","shipping":"5590.04","processemissions":"0","endoflifeemissions":"0","disposaltype":null,"disposalenergy":null,"disposalimpact":null,"disposalemissions":null,"description":"","name":"Part","id":"3988","stops":{"origin":{"related_to":"3988","part_or_object":"p","notes":"","placename":"Zeewolde, The Netherlands","id":6035,"name":"origin","lat":"52.3320938","lon":"5.5407172","hops":{"incoming":[],"outgoing":[{"transport_id":"17","id":"3775","transport_name":"None Selected","transport_description":null,"transport_unit":"kg km","transport_co2_eq":"0.000000","from_stop_id":"6035","from_stop_lat":"52.3320938","from_stop_lon":"5.5407172","from_stop_placename":"Zeewolde, The Netherlands","to_stop_id":"1755","to_stop_name":"origin","to_stop_lat":"42.9066747","to_stop_lon":"-71.4195536","to_stop_placename":"10 Burton Dr, Londonderry, NH 03053, USA","to_stop":{"id":"1755","name":"origin","lat":"42.9066747","lon":"-71.4195536","placename":"10 Burton Dr, Londonderry, NH 03053, USA"},"from_stop":{"name":"origin","id":"6035","lat":"52.3320938","lon":"5.5407172","placename":"Zeewolde, The Netherlands"}}]}}},"processes":[],"eols":[]},{"oid":"3979","imid":"3989","linkid":"","weight":"0","rawemissions":"0","emissions":"0","shipping":"7823.52","processemissions":"0","endoflifeemissions":"0","disposaltype":null,"disposalenergy":null,"disposalimpact":null,"disposalemissions":null,"description":"","name":"Part","id":"3989","stops":{"origin":{"related_to":"3989","part_or_object":"p","notes":"","placename":"Bursa, Turkey","id":6036,"name":"origin","lat":"40.18257","lon":"29.06687","hops":{"incoming":[],"outgoing":[{"transport_id":"17","id":"3776","transport_name":"None Selected","transport_description":null,"transport_unit":"kg km","transport_co2_eq":"0.000000","from_stop_id":"6036","from_stop_lat":"40.18257","from_stop_lon":"29.06687","from_stop_placename":"Bursa, Turkey","to_stop_id":"1755","to_stop_name":"origin","to_stop_lat":"42.9066747","to_stop_lon":"-71.4195536","to_stop_placename":"10 Burton Dr, Londonderry, NH 03053, USA","to_stop":{"id":"1755","name":"origin","lat":"42.9066747","lon":"-71.4195536","placename":"10 Burton Dr, Londonderry, NH 03053, USA"},"from_stop":{"name":"origin","id":"6036","lat":"40.18257","lon":"29.06687","placename":"Bursa, Turkey"}}]}}},"processes":[],"eols":[]},{"oid":"3979","imid":"3995","linkid":"","weight":"0","rawemissions":"0","emissions":"0","shipping":"13715.59","processemissions":"0","endoflifeemissions":"0","disposaltype":null,"disposalenergy":null,"disposalimpact":null,"disposalemissions":null,"description":"","name":"Part","id":"3995","stops":{"origin":{"related_to":"3995","part_or_object":"p","notes":"","placename":"Madagascar","id":6037,"name":"origin","lat":"-18.766947","lon":"46.869107","hops":{"incoming":[],"outgoing":[{"transport_id":"17","id":"3777","transport_name":"None Selected","transport_description":null,"transport_unit":"kg km","transport_co2_eq":"0.000000","from_stop_id":"6037","from_stop_lat":"-18.766947","from_stop_lon":"46.869107","from_stop_placename":"Madagascar","to_stop_id":"1755","to_stop_name":"origin","to_stop_lat":"42.9066747","to_stop_lon":"-71.4195536","to_stop_placename":"10 Burton Dr, Londonderry, NH 03053, USA","to_stop":{"id":"1755","name":"origin","lat":"42.9066747","lon":"-71.4195536","placename":"10 Burton Dr, Londonderry, NH 03053, USA"},"from_stop":{"name":"origin","id":"6037","lat":"-18.766947","lon":"46.869107","placename":"Madagascar"}}]}}},"processes":[],"eols":[]},{"oid":"3979","imid":"3996","linkid":"","weight":"0","rawemissions":"0","emissions":"0","shipping":"6285.97","processemissions":"0","endoflifeemissions":"0","disposaltype":null,"disposalenergy":null,"disposalimpact":null,"disposalemissions":null,"description":"","name":"Part","id":"3996","stops":{"origin":{"related_to":"3996","part_or_object":"p","notes":"","placename":"Ceara, Brazil","id":6038,"name":"origin","lat":"-5.4983977","lon":"-39.3206241","hops":{"incoming":[],"outgoing":[{"transport_id":"17","id":"3778","transport_name":"None Selected","transport_description":null,"transport_unit":"kg km","transport_co2_eq":"0.000000","from_stop_id":"6038","from_stop_lat":"-5.4983977","from_stop_lon":"-39.3206241","from_stop_placename":"Ceara, Brazil","to_stop_id":"1755","to_stop_name":"origin","to_stop_lat":"42.9066747","to_stop_lon":"-71.4195536","to_stop_placename":"10 Burton Dr, Londonderry, NH 03053, USA","to_stop":{"id":"1755","name":"origin","lat":"42.9066747","lon":"-71.4195536","placename":"10 Burton Dr, Londonderry, NH 03053, USA"},"from_stop":{"name":"origin","id":"6038","lat":"-5.4983977","lon":"-39.3206241","placename":"Ceara, Brazil"}}]}}},"processes":[],"eols":[]},{"oid":"3979","imid":"3997","linkid":"","weight":"0","rawemissions":"0","emissions":"0","shipping":"5187","processemissions":"0","endoflifeemissions":"0","disposaltype":null,"disposalenergy":null,"disposalimpact":null,"disposalemissions":null,"description":"","name":"Part","id":"3997","stops":{"origin":{"related_to":"3997","part_or_object":"p","notes":"","placename":"Macap\u00e1 - Amap\u00e1, Brazil","id":6039,"name":"origin","lat":"0.0344566","lon":"-51.0665639","hops":{"incoming":[],"outgoing":[{"transport_id":"17","id":"3779","transport_name":"None Selected","transport_description":null,"transport_unit":"kg km","transport_co2_eq":"0.000000","from_stop_id":"6039","from_stop_lat":"0.0344566","from_stop_lon":"-51.0665639","from_stop_placename":"Macap\u00e1 - Amap\u00e1, Brazil","to_stop_id":"1755","to_stop_name":"origin","to_stop_lat":"42.9066747","to_stop_lon":"-71.4195536","to_stop_placename":"10 Burton Dr, Londonderry, NH 03053, USA","to_stop":{"id":"1755","name":"origin","lat":"42.9066747","lon":"-71.4195536","placename":"10 Burton Dr, Londonderry, NH 03053, USA"},"from_stop":{"name":"origin","id":"6039","lat":"0.0344566","lon":"-51.0665639","placename":"Macap\u00e1 - Amap\u00e1, Brazil"}}]}}},"processes":[],"eols":[]},{"oid":"3979","imid":"3998","linkid":"","weight":"0","rawemissions":"0","emissions":"0","shipping":"5810.87","processemissions":"0","endoflifeemissions":"0","disposaltype":null,"disposalenergy":null,"disposalimpact":null,"disposalemissions":null,"description":"","name":"Part","id":"3998","stops":{"origin":{"related_to":"3998","part_or_object":"p","notes":"","placename":"Peru","id":6040,"name":"origin","lat":"-9.189967","lon":"-75.015152","hops":{"incoming":[],"outgoing":[{"transport_id":"17","id":"3780","transport_name":"None Selected","transport_description":null,"transport_unit":"kg km","transport_co2_eq":"0.000000","from_stop_id":"6040","from_stop_lat":"-9.189967","from_stop_lon":"-75.015152","from_stop_placename":"Peru","to_stop_id":"1755","to_stop_name":"origin","to_stop_lat":"42.9066747","to_stop_lon":"-71.4195536","to_stop_placename":"10 Burton Dr, Londonderry, NH 03053, USA","to_stop":{"id":"1755","name":"origin","lat":"42.9066747","lon":"-71.4195536","placename":"10 Burton Dr, Londonderry, NH 03053, USA"},"from_stop":{"name":"origin","id":"6040","lat":"-9.189967","lon":"-75.015152","placename":"Peru"}}]}}},"processes":[],"eols":[]},{"oid":"3979","imid":"3999","linkid":"","weight":"0","rawemissions":"0","emissions":"0","shipping":"2693.3","processemissions":"0","endoflifeemissions":"0","disposaltype":null,"disposalenergy":null,"disposalimpact":null,"disposalemissions":null,"description":"","name":"Part","id":"3999","stops":{"origin":{"related_to":"3999","part_or_object":"p","notes":"","placename":"Dominican Republic","id":6041,"name":"origin","lat":"18.735693","lon":"-70.162651","hops":{"incoming":[],"outgoing":[{"transport_id":"17","id":"3781","transport_name":"None Selected","transport_description":null,"transport_unit":"kg km","transport_co2_eq":"0.000000","from_stop_id":"6041","from_stop_lat":"18.735693","from_stop_lon":"-70.162651","from_stop_placename":"Dominican Republic","to_stop_id":"1755","to_stop_name":"origin","to_stop_lat":"42.9066747","to_stop_lon":"-71.4195536","to_stop_placename":"10 Burton Dr, Londonderry, NH 03053, USA","to_stop":{"id":"1755","name":"origin","lat":"42.9066747","lon":"-71.4195536","placename":"10 Burton Dr, Londonderry, NH 03053, USA"},"from_stop":{"name":"origin","id":"6041","lat":"18.735693","lon":"-70.162651","placename":"Dominican Republic"}}]}}},"processes":[],"eols":[]},{"oid":"3979","imid":"4000","linkid":"","weight":"0","rawemissions":"0","emissions":"0","shipping":"1878.38","processemissions":"0","endoflifeemissions":"0","disposaltype":null,"disposalenergy":null,"disposalimpact":null,"disposalemissions":null,"description":"","name":"Part","id":"4000","stops":{"origin":{"related_to":"4000","part_or_object":"p","notes":"","placename":"Minnesota, USA","id":6042,"name":"origin","lat":"46.729553","lon":"-94.6858998","hops":{"incoming":[],"outgoing":[{"transport_id":"17","id":"3782","transport_name":"None Selected","transport_description":null,"transport_unit":"kg km","transport_co2_eq":"0.000000","from_stop_id":"6042","from_stop_lat":"46.729553","from_stop_lon":"-94.6858998","from_stop_placename":"Minnesota, USA","to_stop_id":"1755","to_stop_name":"origin","to_stop_lat":"42.9066747","to_stop_lon":"-71.4195536","to_stop_placename":"10 Burton Dr, Londonderry, NH 03053, USA","to_stop":{"id":"1755","name":"origin","lat":"42.9066747","lon":"-71.4195536","placename":"10 Burton Dr, Londonderry, NH 03053, USA"},"from_stop":{"name":"origin","id":"6042","lat":"46.729553","lon":"-94.6858998","placename":"Minnesota, USA"}}]}}},"processes":[],"eols":[]},{"oid":"3979","imid":"4001","linkid":"","weight":"0","rawemissions":"0","emissions":"0","shipping":"2161.67","processemissions":"0","endoflifeemissions":"0","disposaltype":null,"disposalenergy":null,"disposalimpact":null,"disposalemissions":null,"description":"","name":"Part","id":"4001","stops":{"origin":{"related_to":"4001","part_or_object":"p","notes":"","placename":"United States","id":6043,"name":"origin","lat":"37.09024","lon":"-95.712891","hops":{"incoming":[],"outgoing":[{"transport_id":"17","id":"3783","transport_name":"None Selected","transport_description":null,"transport_unit":"kg km","transport_co2_eq":"0.000000","from_stop_id":"6043","from_stop_lat":"37.09024","from_stop_lon":"-95.712891","from_stop_placename":"United States","to_stop_id":"1755","to_stop_name":"origin","to_stop_lat":"42.9066747","to_stop_lon":"-71.4195536","to_stop_placename":"10 Burton Dr, Londonderry, NH 03053, USA","to_stop":{"id":"1755","name":"origin","lat":"42.9066747","lon":"-71.4195536","placename":"10 Burton Dr, Londonderry, NH 03053, USA"},"from_stop":{"name":"origin","id":"6043","lat":"37.09024","lon":"-95.712891","placename":"United States"}}]}}},"processes":[],"eols":[]}],"user":{"name":"leo","id":"1"}}}