{"3981":{"oid":"3981","type":"trace","flag":"","creator":"10390","name":"CUBE AMS 100 Race PRO MTB","upc":"","imagelink":"","description":"www.cube.eu","slug":"cube-ams-100-race-pro-mtb-1","category":"featured","weight":"0","emissions":"0","embodied":"0","transport":"0","process":"0","endoflife":"0","shipping":"152089.49","lifetime":null,"usagetype":"","usageenergy":null,"usageemissions":null,"timecreated":"2010-08-17 16:38:22.819941","timemodified":"2010-08-28 21:58:05","visibility":"public","showfootprint":"on","showembodied":"on","showtransport":"on","showprocess":"on","showendoflife":"on","showlastleg":"on","showuse":"on","showstats":"on","stops":{"origin":{"related_to":"3981","part_or_object":"o","notes":"","placename":"Waldershof, Nemecko","id":"1769","category":"1","lat":"49.977509","lon":"12.0612871","name":"origin","hops":{"incoming":[{"transport_id":"17","id":"3742","transport_name":"None Selected","transport_description":null,"transport_unit":"kg km","transport_co2_eq":"0.000000","from_stop_id":"6002","from_stop_lat":"35.86166","from_stop_lon":"104.195397","to_stop_id":"1769","to_stop_name":"origin","to_stop_lat":"49.977509","placename":"\u010c\u00edna","to_stop_lon":"12.0612871","to_stop":{"id":"1769","name":"origin","lat":"49.977509","placename":"Waldershof, Nemecko","lon":"12.0612871"},"from_stop":{"name":"origin","id":"6002","lat":"35.86166","lon":"104.195397","placename":"\u010c\u00edna"}},{"transport_id":"17","id":"3743","transport_name":"None Selected","transport_description":null,"transport_unit":"kg km","transport_co2_eq":"0.000000","from_stop_id":"6003","from_stop_lat":"51.165691","from_stop_lon":"10.451526","to_stop_id":"1769","to_stop_name":"origin","to_stop_lat":"49.977509","placename":"Nemecko","to_stop_lon":"12.0612871","to_stop":{"id":"1769","name":"origin","lat":"49.977509","placename":"Waldershof, Nemecko","lon":"12.0612871"},"from_stop":{"name":"origin","id":"6003","lat":"51.165691","lon":"10.451526","placename":"Nemecko"}},{"transport_id":"17","id":"3749","transport_name":"None Selected","transport_description":null,"transport_unit":"kg km","transport_co2_eq":"0.000000","from_stop_id":"6009","from_stop_lat":"48.669026","from_stop_lon":"19.699024","to_stop_id":"1769","to_stop_name":"origin","to_stop_lat":"49.977509","placename":"Slovensk\u00e1 republika","to_stop_lon":"12.0612871","to_stop":{"id":"1769","name":"origin","lat":"49.977509","placename":"Waldershof, Nemecko","lon":"12.0612871"},"from_stop":{"name":"origin","id":"6009","lat":"48.669026","lon":"19.699024","placename":"Slovensk\u00e1 republika"}},{"transport_id":"17","id":"3750","transport_name":"None Selected","transport_description":null,"transport_unit":"kg km","transport_co2_eq":"0.000000","from_stop_id":"6010","from_stop_lat":"61.52401","from_stop_lon":"105.318756","to_stop_id":"1769","to_stop_name":"origin","to_stop_lat":"49.977509","placename":"Rusko","to_stop_lon":"12.0612871","to_stop":{"id":"1769","name":"origin","lat":"49.977509","placename":"Waldershof, Nemecko","lon":"12.0612871"},"from_stop":{"name":"origin","id":"6010","lat":"61.52401","lon":"105.318756","placename":"Rusko"}},{"transport_id":"17","id":"3751","transport_name":"None Selected","transport_description":null,"transport_unit":"kg km","transport_co2_eq":"0.000000","from_stop_id":"6011","from_stop_lat":"35.86166","from_stop_lon":"104.195397","to_stop_id":"1769","to_stop_name":"origin","to_stop_lat":"49.977509","placename":"\u010c\u00edna","to_stop_lon":"12.0612871","to_stop":{"id":"1769","name":"origin","lat":"49.977509","placename":"Waldershof, Nemecko","lon":"12.0612871"},"from_stop":{"name":"origin","id":"6011","lat":"35.86166","lon":"104.195397","placename":"\u010c\u00edna"}},{"transport_id":"17","id":"3787","transport_name":"None Selected","transport_description":null,"transport_unit":"kg km","transport_co2_eq":"0.000000","from_stop_id":"6047","from_stop_lat":"23.69781","from_stop_lon":"120.960515","to_stop_id":"1769","to_stop_name":"origin","to_stop_lat":"49.977509","placename":"Tchajwan","to_stop_lon":"12.0612871","to_stop":{"id":"1769","name":"origin","lat":"49.977509","placename":"Waldershof, Nemecko","lon":"12.0612871"},"from_stop":{"name":"origin","id":"6047","lat":"23.69781","lon":"120.960515","placename":"Tchajwan"}},{"transport_id":"17","id":"3788","transport_name":"None Selected","transport_description":null,"transport_unit":"kg km","transport_co2_eq":"0.000000","from_stop_id":"6048","from_stop_lat":"36.924684","from_stop_lon":"-121.79102","to_stop_id":"1769","to_stop_name":"origin","to_stop_lat":"49.977509","placename":"130 Hangar Way, Watsonville, Kalifornia 95076, Spojen\u00e9 \u0161t\u00e1ty americk\u00e9","to_stop_lon":"12.0612871","to_stop":{"id":"1769","name":"origin","lat":"49.977509","placename":"Waldershof, Nemecko","lon":"12.0612871"},"from_stop":{"name":"origin","id":"6048","lat":"36.924684","lon":"-121.79102","placename":"130 Hangar Way, Watsonville, Kalifornia 95076, Spojen\u00e9 \u0161t\u00e1ty americk\u00e9"}},{"transport_id":"17","id":"3790","transport_name":"None Selected","transport_description":null,"transport_unit":"kg km","transport_co2_eq":"0.000000","from_stop_id":"6050","from_stop_lat":"43.8897859","from_stop_lon":"11.0856411","to_stop_id":"1769","to_stop_name":"origin","to_stop_lat":"49.977509","placename":"Via Erbosa, 63, 59100 Prato, Taliansko","to_stop_lon":"12.0612871","to_stop":{"id":"1769","name":"origin","lat":"49.977509","placename":"Waldershof, Nemecko","lon":"12.0612871"},"from_stop":{"name":"origin","id":"6050","lat":"43.8897859","lon":"11.0856411","placename":"Via Erbosa, 63, 59100 Prato, Taliansko"}},{"transport_id":"17","id":"3791","transport_name":"None Selected","transport_description":null,"transport_unit":"kg km","transport_co2_eq":"0.000000","from_stop_id":"6051","from_stop_lat":"48.08769","from_stop_lon":"12.56863","to_stop_id":"1769","to_stop_name":"origin","to_stop_lat":"49.977509","placename":"Dammweg 1, 83342 Tacherting, Nemecko","to_stop_lon":"12.0612871","to_stop":{"id":"1769","name":"origin","lat":"49.977509","placename":"Waldershof, Nemecko","lon":"12.0612871"},"from_stop":{"name":"origin","id":"6051","lat":"48.08769","lon":"12.56863","placename":"Dammweg 1, 83342 Tacherting, Nemecko"}},{"transport_id":"17","id":"3792","transport_name":"None Selected","transport_description":null,"transport_unit":"kg km","transport_co2_eq":"0.000000","from_stop_id":"6052","from_stop_lat":"34.6937378","from_stop_lon":"135.5021651","to_stop_id":"1769","to_stop_name":"origin","to_stop_lat":"49.977509","placename":"Osaka, Japonsko","to_stop_lon":"12.0612871","to_stop":{"id":"1769","name":"origin","lat":"49.977509","placename":"Waldershof, Nemecko","lon":"12.0612871"},"from_stop":{"name":"origin","id":"6052","lat":"34.6937378","lon":"135.5021651","placename":"Osaka, Japonsko"}},{"transport_id":"17","id":"3793","transport_name":"None Selected","transport_description":null,"transport_unit":"kg km","transport_co2_eq":"0.000000","from_stop_id":"6053","from_stop_lat":"50.9666667","from_stop_lon":"7.7","to_stop_id":"1769","to_stop_name":"origin","to_stop_lat":"49.977509","placename":"Reichshof, Nemecko","to_stop_lon":"12.0612871","to_stop":{"id":"1769","name":"origin","lat":"49.977509","placename":"Waldershof, Nemecko","lon":"12.0612871"},"from_stop":{"name":"origin","id":"6053","lat":"50.9666667","lon":"7.7","placename":"Reichshof, Nemecko"}},{"transport_id":"17","id":"3615","transport_name":"None Selected","transport_description":null,"transport_unit":"kg km","transport_co2_eq":"0.000000","from_stop_id":"5875","from_stop_lat":"43.7844397","from_stop_lon":"-88.7878678","to_stop_id":"1769","to_stop_name":"origin","to_stop_lat":"49.977509","placename":"Wisconsin, Spojen\u00e9 \u0161t\u00e1ty americk\u00e9","to_stop_lon":"12.0612871","to_stop":{"id":"1769","name":"origin","lat":"49.977509","placename":"Waldershof, Nemecko","lon":"12.0612871"},"from_stop":{"name":"origin","id":"5875","lat":"43.7844397","lon":"-88.7878678","placename":"Wisconsin, Spojen\u00e9 \u0161t\u00e1ty americk\u00e9"}},{"transport_id":"17","id":"3624","transport_name":"None Selected","transport_description":null,"transport_unit":"kg km","transport_co2_eq":"0.000000","from_stop_id":"5884","from_stop_lat":"37.09024","from_stop_lon":"-95.712891","to_stop_id":"1769","to_stop_name":"origin","to_stop_lat":"49.977509","placename":"Spojen\u00e9 \u0161t\u00e1ty americk\u00e9","to_stop_lon":"12.0612871","to_stop":{"id":"1769","name":"origin","lat":"49.977509","placename":"Waldershof, Nemecko","lon":"12.0612871"},"from_stop":{"name":"origin","id":"5884","lat":"37.09024","lon":"-95.712891","placename":"Spojen\u00e9 \u0161t\u00e1ty americk\u00e9"}},{"transport_id":"17","id":"3625","transport_name":"None Selected","transport_description":null,"transport_unit":"kg km","transport_co2_eq":"0.000000","from_stop_id":"5885","from_stop_lat":"51.165691","from_stop_lon":"10.451526","to_stop_id":"1769","to_stop_name":"origin","to_stop_lat":"49.977509","placename":"Nemecko","to_stop_lon":"12.0612871","to_stop":{"id":"1769","name":"origin","lat":"49.977509","placename":"Waldershof, Nemecko","lon":"12.0612871"},"from_stop":{"name":"origin","id":"5885","lat":"51.165691","lon":"10.451526","placename":"Nemecko"}},{"transport_id":"17","id":"3627","transport_name":"None Selected","transport_description":null,"transport_unit":"kg km","transport_co2_eq":"0.000000","from_stop_id":"5887","from_stop_lat":"34.6937378","from_stop_lon":"135.5021651","to_stop_id":"1769","to_stop_name":"origin","to_stop_lat":"49.977509","placename":"Osaka, Japonsko","to_stop_lon":"12.0612871","to_stop":{"id":"1769","name":"origin","lat":"49.977509","placename":"Waldershof, Nemecko","lon":"12.0612871"},"from_stop":{"name":"origin","id":"5887","lat":"34.6937378","lon":"135.5021651","placename":"Osaka, Japonsko"}},{"transport_id":"17","id":"3628","transport_name":"None Selected","transport_description":null,"transport_unit":"kg km","transport_co2_eq":"0.000000","from_stop_id":"5888","from_stop_lat":"35.86166","from_stop_lon":"104.195397","to_stop_id":"1769","to_stop_name":"origin","to_stop_lat":"49.977509","placename":"\u010c\u00edna","to_stop_lon":"12.0612871","to_stop":{"id":"1769","name":"origin","lat":"49.977509","placename":"Waldershof, Nemecko","lon":"12.0612871"},"from_stop":{"name":"origin","id":"5888","lat":"35.86166","lon":"104.195397","placename":"\u010c\u00edna"}},{"transport_id":"17","id":"3631","transport_name":"None Selected","transport_description":null,"transport_unit":"kg km","transport_co2_eq":"0.000000","from_stop_id":"5891","from_stop_lat":"26.7505337","from_stop_lon":"51.6834275","to_stop_id":"1769","to_stop_name":"origin","to_stop_lat":"49.977509","placename":"Persian Gulf","to_stop_lon":"12.0612871","to_stop":{"id":"1769","name":"origin","lat":"49.977509","placename":"Waldershof, Nemecko","lon":"12.0612871"},"from_stop":{"name":"origin","id":"5891","lat":"26.7505337","lon":"51.6834275","placename":"Persian Gulf"}},{"transport_id":"17","id":"3632","transport_name":"None Selected","transport_description":null,"transport_unit":"kg km","transport_co2_eq":"0.000000","from_stop_id":"5892","from_stop_lat":"51.165691","from_stop_lon":"10.451526","to_stop_id":"1769","to_stop_name":"origin","to_stop_lat":"49.977509","placename":"Nemecko","to_stop_lon":"12.0612871","to_stop":{"id":"1769","name":"origin","lat":"49.977509","placename":"Waldershof, Nemecko","lon":"12.0612871"},"from_stop":{"name":"origin","id":"5892","lat":"51.165691","lon":"10.451526","placename":"Nemecko"}},{"transport_id":"17","id":"3638","transport_name":"None Selected","transport_description":null,"transport_unit":"kg km","transport_co2_eq":"0.000000","from_stop_id":"5898","from_stop_lat":"61.52401","from_stop_lon":"105.318756","to_stop_id":"1769","to_stop_name":"origin","to_stop_lat":"49.977509","placename":"Rusko","to_stop_lon":"12.0612871","to_stop":{"id":"1769","name":"origin","lat":"49.977509","placename":"Waldershof, Nemecko","lon":"12.0612871"},"from_stop":{"name":"origin","id":"5898","lat":"61.52401","lon":"105.318756","placename":"Rusko"}},{"transport_id":"17","id":"3700","transport_name":"None Selected","transport_description":null,"transport_unit":"kg km","transport_co2_eq":"0.000000","from_stop_id":"5960","from_stop_lat":"15.870032","from_stop_lon":"100.992541","to_stop_id":"1769","to_stop_name":"origin","to_stop_lat":"49.977509","placename":"Thajsko","to_stop_lon":"12.0612871","to_stop":{"id":"1769","name":"origin","lat":"49.977509","placename":"Waldershof, Nemecko","lon":"12.0612871"},"from_stop":{"name":"origin","id":"5960","lat":"15.870032","lon":"100.992541","placename":"Thajsko"}},{"transport_id":"17","id":"3701","transport_name":"None Selected","transport_description":null,"transport_unit":"kg km","transport_co2_eq":"0.000000","from_stop_id":"5961","from_stop_lat":"35.86166","from_stop_lon":"104.195397","to_stop_id":"1769","to_stop_name":"origin","to_stop_lat":"49.977509","placename":"\u010c\u00edna","to_stop_lon":"12.0612871","to_stop":{"id":"1769","name":"origin","lat":"49.977509","placename":"Waldershof, Nemecko","lon":"12.0612871"},"from_stop":{"name":"origin","id":"5961","lat":"35.86166","lon":"104.195397","placename":"\u010c\u00edna"}},{"transport_id":"17","id":"3709","transport_name":"None Selected","transport_description":null,"transport_unit":"kg km","transport_co2_eq":"0.000000","from_stop_id":"5969","from_stop_lat":"35.86166","from_stop_lon":"104.195397","to_stop_id":"1769","to_stop_name":"origin","to_stop_lat":"49.977509","placename":"\u010c\u00edna","to_stop_lon":"12.0612871","to_stop":{"id":"1769","name":"origin","lat":"49.977509","placename":"Waldershof, Nemecko","lon":"12.0612871"},"from_stop":{"name":"origin","id":"5969","lat":"35.86166","lon":"104.195397","placename":"\u010c\u00edna"}},{"transport_id":"17","id":"3710","transport_name":"None Selected","transport_description":null,"transport_unit":"kg km","transport_co2_eq":"0.000000","from_stop_id":"5970","from_stop_lat":"55.169438","from_stop_lon":"23.881275","to_stop_id":"1769","to_stop_name":"origin","to_stop_lat":"49.977509","placename":"Litva","to_stop_lon":"12.0612871","to_stop":{"id":"1769","name":"origin","lat":"49.977509","placename":"Waldershof, Nemecko","lon":"12.0612871"},"from_stop":{"name":"origin","id":"5970","lat":"55.169438","lon":"23.881275","placename":"Litva"}},{"transport_id":"17","id":"3711","transport_name":"None Selected","transport_description":null,"transport_unit":"kg km","transport_co2_eq":"0.000000","from_stop_id":"5971","from_stop_lat":"53.709807","from_stop_lon":"27.953389","to_stop_id":"1769","to_stop_name":"origin","to_stop_lat":"49.977509","placename":"Bielorusko","to_stop_lon":"12.0612871","to_stop":{"id":"1769","name":"origin","lat":"49.977509","placename":"Waldershof, Nemecko","lon":"12.0612871"},"from_stop":{"name":"origin","id":"5971","lat":"53.709807","lon":"27.953389","placename":"Bielorusko"}},{"transport_id":"17","id":"3718","transport_name":"None Selected","transport_description":null,"transport_unit":"kg km","transport_co2_eq":"0.000000","from_stop_id":"5978","from_stop_lat":"-30.559482","from_stop_lon":"22.937506","to_stop_id":"1769","to_stop_name":"origin","to_stop_lat":"49.977509","placename":"Ju\u017en\u00e1 Afrika","to_stop_lon":"12.0612871","to_stop":{"id":"1769","name":"origin","lat":"49.977509","placename":"Waldershof, Nemecko","lon":"12.0612871"},"from_stop":{"name":"origin","id":"5978","lat":"-30.559482","lon":"22.937506","placename":"Ju\u017en\u00e1 Afrika"}},{"transport_id":"17","id":"3532","transport_name":"None Selected","transport_description":null,"transport_unit":"kg km","transport_co2_eq":"0.000000","from_stop_id":"5792","from_stop_lat":"35.86166","from_stop_lon":"104.195397","to_stop_id":"1769","to_stop_name":"origin","to_stop_lat":"49.977509","placename":"\u010c\u00edna","to_stop_lon":"12.0612871","to_stop":{"id":"1769","name":"origin","lat":"49.977509","placename":"Waldershof, Nemecko","lon":"12.0612871"},"from_stop":{"name":"origin","id":"5792","lat":"35.86166","lon":"104.195397","placename":"\u010c\u00edna"}},{"transport_id":"17","id":"3533","transport_name":"None Selected","transport_description":null,"transport_unit":"kg km","transport_co2_eq":"0.000000","from_stop_id":"5793","from_stop_lat":"-35.675147","from_stop_lon":"-71.542969","to_stop_id":"1769","to_stop_name":"origin","to_stop_lat":"49.977509","placename":"\u010cile","to_stop_lon":"12.0612871","to_stop":{"id":"1769","name":"origin","lat":"49.977509","placename":"Waldershof, Nemecko","lon":"12.0612871"},"from_stop":{"name":"origin","id":"5793","lat":"-35.675147","lon":"-71.542969","placename":"\u010cile"}},{"transport_id":"17","id":"3567","transport_name":"None Selected","transport_description":null,"transport_unit":"kg km","transport_co2_eq":"0.000000","from_stop_id":"5827","from_stop_lat":"35.86166","from_stop_lon":"104.195397","to_stop_id":"1769","to_stop_name":"origin","to_stop_lat":"49.977509","placename":"\u010c\u00edna","to_stop_lon":"12.0612871","to_stop":{"id":"1769","name":"origin","lat":"49.977509","placename":"Waldershof, Nemecko","lon":"12.0612871"},"from_stop":{"name":"origin","id":"5827","lat":"35.86166","lon":"104.195397","placename":"\u010c\u00edna"}}],"outgoing":[]}}},"parts":[{"oid":"3981","imid":"4121","linkid":"","weight":"0","rawemissions":"0","emissions":"0","shipping":"7189.26","processemissions":"0","endoflifeemissions":"0","disposaltype":null,"disposalenergy":null,"disposalimpact":null,"disposalemissions":null,"description":"","name":"black carbon","id":"4121","stops":{"origin":{"related_to":"4121","part_or_object":"p","notes":"","placename":"\u010c\u00edna","id":5792,"name":"origin","lat":"35.86166","lon":"104.195397","hops":{"incoming":[],"outgoing":[{"transport_id":"17","id":"3532","transport_name":"None Selected","transport_description":null,"transport_unit":"kg km","transport_co2_eq":"0.000000","from_stop_id":"5792","from_stop_lat":"35.86166","from_stop_lon":"104.195397","from_stop_placename":"\u010c\u00edna","to_stop_id":"1769","to_stop_name":"origin","to_stop_lat":"49.977509","to_stop_lon":"12.0612871","to_stop_placename":"Waldershof, Nemecko","to_stop":{"id":"1769","name":"origin","lat":"49.977509","lon":"12.0612871","placename":"Waldershof, Nemecko"},"from_stop":{"name":"origin","id":"5792","lat":"35.86166","lon":"104.195397","placename":"\u010c\u00edna"}}]}}},"processes":[],"eols":[]},{"oid":"3981","imid":"4194","linkid":"","weight":"0","rawemissions":"0","emissions":"0","shipping":"12563.02","processemissions":"0","endoflifeemissions":"0","disposaltype":null,"disposalenergy":null,"disposalimpact":null,"disposalemissions":null,"description":"","name":"Copper","id":"4194","stops":{"origin":{"related_to":"4194","part_or_object":"p","notes":"","placename":"\u010cile","id":5793,"name":"origin","lat":"-35.675147","lon":"-71.542969","hops":{"incoming":[],"outgoing":[{"transport_id":"17","id":"3533","transport_name":"None Selected","transport_description":null,"transport_unit":"kg km","transport_co2_eq":"0.000000","from_stop_id":"5793","from_stop_lat":"-35.675147","from_stop_lon":"-71.542969","from_stop_placename":"\u010cile","to_stop_id":"1769","to_stop_name":"origin","to_stop_lat":"49.977509","to_stop_lon":"12.0612871","to_stop_placename":"Waldershof, Nemecko","to_stop":{"id":"1769","name":"origin","lat":"49.977509","lon":"12.0612871","placename":"Waldershof, Nemecko"},"from_stop":{"name":"origin","id":"5793","lat":"-35.675147","lon":"-71.542969","placename":"\u010cile"}}]}}},"processes":[],"eols":[]},{"oid":"3981","imid":"4195","linkid":"","weight":"0","rawemissions":"0","emissions":"0","shipping":"7189.26","processemissions":"0","endoflifeemissions":"0","disposaltype":null,"disposalenergy":null,"disposalimpact":null,"disposalemissions":null,"description":"","name":"foam rubber","id":"4195","stops":{"origin":{"related_to":"4195","part_or_object":"p","notes":"","placename":"\u010c\u00edna","id":5827,"name":"origin","lat":"35.86166","lon":"104.195397","hops":{"incoming":[],"outgoing":[{"transport_id":"17","id":"3567","transport_name":"None Selected","transport_description":null,"transport_unit":"kg km","transport_co2_eq":"0.000000","from_stop_id":"5827","from_stop_lat":"35.86166","from_stop_lon":"104.195397","from_stop_placename":"\u010c\u00edna","to_stop_id":"1769","to_stop_name":"origin","to_stop_lat":"49.977509","to_stop_lon":"12.0612871","to_stop_placename":"Waldershof, Nemecko","to_stop":{"id":"1769","name":"origin","lat":"49.977509","lon":"12.0612871","placename":"Waldershof, Nemecko"},"from_stop":{"name":"origin","id":"5827","lat":"35.86166","lon":"104.195397","placename":"\u010c\u00edna"}}]}}},"processes":[],"eols":[]},{"oid":"3981","imid":"4113","linkid":"","weight":"0","rawemissions":"0","emissions":"0","shipping":"7095.12","processemissions":"0","endoflifeemissions":"0","disposaltype":null,"disposalenergy":null,"disposalimpact":null,"disposalemissions":null,"description":"","name":"wheels","id":"4113","stops":{"origin":{"related_to":"4113","part_or_object":"p","notes":"","placename":"Wisconsin, Spojen\u00e9 \u0161t\u00e1ty americk\u00e9","id":5875,"name":"origin","lat":"43.7844397","lon":"-88.7878678","hops":{"incoming":[],"outgoing":[{"transport_id":"17","id":"3615","transport_name":"None Selected","transport_description":null,"transport_unit":"kg km","transport_co2_eq":"0.000000","from_stop_id":"5875","from_stop_lat":"43.7844397","from_stop_lon":"-88.7878678","from_stop_placename":"Wisconsin, Spojen\u00e9 \u0161t\u00e1ty americk\u00e9","to_stop_id":"1769","to_stop_name":"origin","to_stop_lat":"49.977509","to_stop_lon":"12.0612871","to_stop_placename":"Waldershof, Nemecko","to_stop":{"id":"1769","name":"origin","lat":"49.977509","lon":"12.0612871","placename":"Waldershof, Nemecko"},"from_stop":{"name":"origin","id":"5875","lat":"43.7844397","lon":"-88.7878678","placename":"Wisconsin, Spojen\u00e9 \u0161t\u00e1ty americk\u00e9"}}]}}},"processes":[],"eols":[]},{"oid":"3981","imid":"4115","linkid":"","weight":"0","rawemissions":"0","emissions":"0","shipping":"8040.37","processemissions":"0","endoflifeemissions":"0","disposaltype":null,"disposalenergy":null,"disposalimpact":null,"disposalemissions":null,"description":"","name":"headset","id":"4115","stops":{"origin":{"related_to":"4115","part_or_object":"p","notes":"","placename":"Spojen\u00e9 \u0161t\u00e1ty americk\u00e9","id":5884,"name":"origin","lat":"37.09024","lon":"-95.712891","hops":{"incoming":[],"outgoing":[{"transport_id":"17","id":"3624","transport_name":"None Selected","transport_description":null,"transport_unit":"kg km","transport_co2_eq":"0.000000","from_stop_id":"5884","from_stop_lat":"37.09024","from_stop_lon":"-95.712891","from_stop_placename":"Spojen\u00e9 \u0161t\u00e1ty americk\u00e9","to_stop_id":"1769","to_stop_name":"origin","to_stop_lat":"49.977509","to_stop_lon":"12.0612871","to_stop_placename":"Waldershof, Nemecko","to_stop":{"id":"1769","name":"origin","lat":"49.977509","lon":"12.0612871","placename":"Waldershof, Nemecko"},"from_stop":{"name":"origin","id":"5884","lat":"37.09024","lon":"-95.712891","placename":"Spojen\u00e9 \u0161t\u00e1ty americk\u00e9"}}]}}},"processes":[],"eols":[]},{"oid":"3981","imid":"4116","linkid":"","weight":"0","rawemissions":"0","emissions":"0","shipping":"174.48","processemissions":"0","endoflifeemissions":"0","disposaltype":null,"disposalenergy":null,"disposalimpact":null,"disposalemissions":null,"description":"","name":"saddle & saddlebar","id":"4116","stops":{"origin":{"related_to":"4116","part_or_object":"p","notes":"","placename":"Nemecko","id":5885,"name":"origin","lat":"51.165691","lon":"10.451526","hops":{"incoming":[],"outgoing":[{"transport_id":"17","id":"3625","transport_name":"None Selected","transport_description":null,"transport_unit":"kg km","transport_co2_eq":"0.000000","from_stop_id":"5885","from_stop_lat":"51.165691","from_stop_lon":"10.451526","from_stop_placename":"Nemecko","to_stop_id":"1769","to_stop_name":"origin","to_stop_lat":"49.977509","to_stop_lon":"12.0612871","to_stop_placename":"Waldershof, Nemecko","to_stop":{"id":"1769","name":"origin","lat":"49.977509","lon":"12.0612871","placename":"Waldershof, Nemecko"},"from_stop":{"name":"origin","id":"5885","lat":"51.165691","lon":"10.451526","placename":"Nemecko"}}]}}},"processes":[],"eols":[]},{"oid":"3981","imid":"4007","linkid":"","weight":"0","rawemissions":"0","emissions":"0","shipping":"9093.88","processemissions":"0","endoflifeemissions":"0","disposaltype":null,"disposalenergy":null,"disposalimpact":null,"disposalemissions":null,"description":"shifters, front and rear derailleur, chain, and casette, cables, shifter cables - Shimano","name":"shift control mechanisms & cables","id":"4007","stops":{"origin":{"related_to":"4007","part_or_object":"p","notes":"","placename":"Osaka, Japonsko","id":5887,"name":"origin","lat":"34.6937378","lon":"135.5021651","hops":{"incoming":[],"outgoing":[{"transport_id":"17","id":"3627","transport_name":"None Selected","transport_description":null,"transport_unit":"kg km","transport_co2_eq":"0.000000","from_stop_id":"5887","from_stop_lat":"34.6937378","from_stop_lon":"135.5021651","from_stop_placename":"Osaka, Japonsko","to_stop_id":"1769","to_stop_name":"origin","to_stop_lat":"49.977509","to_stop_lon":"12.0612871","to_stop_placename":"Waldershof, Nemecko","to_stop":{"id":"1769","name":"origin","lat":"49.977509","lon":"12.0612871","placename":"Waldershof, Nemecko"},"from_stop":{"name":"origin","id":"5887","lat":"34.6937378","lon":"135.5021651","placename":"Osaka, Japonsko"}}]}}},"processes":[],"eols":[]},{"oid":"3981","imid":"4117","linkid":"","weight":"0","rawemissions":"0","emissions":"0","shipping":"7189.26","processemissions":"0","endoflifeemissions":"0","disposaltype":null,"disposalenergy":null,"disposalimpact":null,"disposalemissions":null,"description":"","name":"nylon","id":"4117","stops":{"origin":{"related_to":"4117","part_or_object":"p","notes":"","placename":"\u010c\u00edna","id":5888,"name":"origin","lat":"35.86166","lon":"104.195397","hops":{"incoming":[],"outgoing":[{"transport_id":"17","id":"3628","transport_name":"None Selected","transport_description":null,"transport_unit":"kg km","transport_co2_eq":"0.000000","from_stop_id":"5888","from_stop_lat":"35.86166","from_stop_lon":"104.195397","from_stop_placename":"\u010c\u00edna","to_stop_id":"1769","to_stop_name":"origin","to_stop_lat":"49.977509","to_stop_lon":"12.0612871","to_stop_placename":"Waldershof, Nemecko","to_stop":{"id":"1769","name":"origin","lat":"49.977509","lon":"12.0612871","placename":"Waldershof, Nemecko"},"from_stop":{"name":"origin","id":"5888","lat":"35.86166","lon":"104.195397","placename":"\u010c\u00edna"}}]}}},"processes":[],"eols":[]},{"oid":"3981","imid":"4118","linkid":"","weight":"0","rawemissions":"0","emissions":"0","shipping":"4240.36","processemissions":"0","endoflifeemissions":"0","disposaltype":null,"disposalenergy":null,"disposalimpact":null,"disposalemissions":null,"description":"","name":"oils & greases","id":"4118","stops":{"origin":{"related_to":"4118","part_or_object":"p","notes":"","placename":"Persian Gulf","id":5891,"name":"origin","lat":"26.7505337","lon":"51.6834275","hops":{"incoming":[],"outgoing":[{"transport_id":"17","id":"3631","transport_name":"None Selected","transport_description":null,"transport_unit":"kg km","transport_co2_eq":"0.000000","from_stop_id":"5891","from_stop_lat":"26.7505337","from_stop_lon":"51.6834275","from_stop_placename":"Persian Gulf","to_stop_id":"1769","to_stop_name":"origin","to_stop_lat":"49.977509","to_stop_lon":"12.0612871","to_stop_placename":"Waldershof, Nemecko","to_stop":{"id":"1769","name":"origin","lat":"49.977509","lon":"12.0612871","placename":"Waldershof, Nemecko"},"from_stop":{"name":"origin","id":"5891","lat":"26.7505337","lon":"51.6834275","placename":"Persian Gulf"}}]}}},"processes":[],"eols":[]},{"oid":"3981","imid":"4119","linkid":"","weight":"0","rawemissions":"0","emissions":"0","shipping":"174.48","processemissions":"0","endoflifeemissions":"0","disposaltype":null,"disposalenergy":null,"disposalimpact":null,"disposalemissions":null,"description":"","name":"alloy","id":"4119","stops":{"origin":{"related_to":"4119","part_or_object":"p","notes":"","placename":"Nemecko","id":5892,"name":"origin","lat":"51.165691","lon":"10.451526","hops":{"incoming":[],"outgoing":[{"transport_id":"17","id":"3632","transport_name":"None Selected","transport_description":null,"transport_unit":"kg km","transport_co2_eq":"0.000000","from_stop_id":"5892","from_stop_lat":"51.165691","from_stop_lon":"10.451526","from_stop_placename":"Nemecko","to_stop_id":"1769","to_stop_name":"origin","to_stop_lat":"49.977509","to_stop_lon":"12.0612871","to_stop_placename":"Waldershof, Nemecko","to_stop":{"id":"1769","name":"origin","lat":"49.977509","lon":"12.0612871","placename":"Waldershof, Nemecko"},"from_stop":{"name":"origin","id":"5892","lat":"51.165691","lon":"10.451526","placename":"Nemecko"}}]}}},"processes":[],"eols":[]},{"oid":"3981","imid":"4120","linkid":"","weight":"0","rawemissions":"0","emissions":"0","shipping":"5457.51","processemissions":"0","endoflifeemissions":"0","disposaltype":null,"disposalenergy":null,"disposalimpact":null,"disposalemissions":null,"description":"","name":"steel","id":"4120","stops":{"origin":{"related_to":"4120","part_or_object":"p","notes":"","placename":"Rusko","id":5898,"name":"origin","lat":"61.52401","lon":"105.318756","hops":{"incoming":[],"outgoing":[{"transport_id":"17","id":"3638","transport_name":"None Selected","transport_description":null,"transport_unit":"kg km","transport_co2_eq":"0.000000","from_stop_id":"5898","from_stop_lat":"61.52401","from_stop_lon":"105.318756","from_stop_placename":"Rusko","to_stop_id":"1769","to_stop_name":"origin","to_stop_lat":"49.977509","to_stop_lon":"12.0612871","to_stop_placename":"Waldershof, Nemecko","to_stop":{"id":"1769","name":"origin","lat":"49.977509","lon":"12.0612871","placename":"Waldershof, Nemecko"},"from_stop":{"name":"origin","id":"5898","lat":"61.52401","lon":"105.318756","placename":"Rusko"}}]}}},"processes":[],"eols":[]},{"oid":"3981","imid":"4122","linkid":"","weight":"0","rawemissions":"0","emissions":"0","shipping":"8597.79","processemissions":"0","endoflifeemissions":"0","disposaltype":null,"disposalenergy":null,"disposalimpact":null,"disposalemissions":null,"description":"","name":"national & synthetic rubber","id":"4122","stops":{"origin":{"related_to":"4122","part_or_object":"p","notes":"","placename":"Thajsko","id":5960,"name":"origin","lat":"15.870032","lon":"100.992541","hops":{"incoming":[],"outgoing":[{"transport_id":"17","id":"3700","transport_name":"None Selected","transport_description":null,"transport_unit":"kg km","transport_co2_eq":"0.000000","from_stop_id":"5960","from_stop_lat":"15.870032","from_stop_lon":"100.992541","from_stop_placename":"Thajsko","to_stop_id":"1769","to_stop_name":"origin","to_stop_lat":"49.977509","to_stop_lon":"12.0612871","to_stop_placename":"Waldershof, Nemecko","to_stop":{"id":"1769","name":"origin","lat":"49.977509","lon":"12.0612871","placename":"Waldershof, Nemecko"},"from_stop":{"name":"origin","id":"5960","lat":"15.870032","lon":"100.992541","placename":"Thajsko"}}]}}},"processes":[],"eols":[]},{"oid":"3981","imid":"4123","linkid":"","weight":"0","rawemissions":"0","emissions":"0","shipping":"7189.26","processemissions":"0","endoflifeemissions":"0","disposaltype":null,"disposalenergy":null,"disposalimpact":null,"disposalemissions":null,"description":"","name":"Aluminium","id":"4123","stops":{"origin":{"related_to":"4123","part_or_object":"p","notes":"","placename":"\u010c\u00edna","id":5961,"name":"origin","lat":"35.86166","lon":"104.195397","hops":{"incoming":[],"outgoing":[{"transport_id":"17","id":"3701","transport_name":"None Selected","transport_description":null,"transport_unit":"kg km","transport_co2_eq":"0.000000","from_stop_id":"5961","from_stop_lat":"35.86166","from_stop_lon":"104.195397","from_stop_placename":"\u010c\u00edna","to_stop_id":"1769","to_stop_name":"origin","to_stop_lat":"49.977509","to_stop_lon":"12.0612871","to_stop_placename":"Waldershof, Nemecko","to_stop":{"id":"1769","name":"origin","lat":"49.977509","lon":"12.0612871","placename":"Waldershof, Nemecko"},"from_stop":{"name":"origin","id":"5961","lat":"35.86166","lon":"104.195397","placename":"\u010c\u00edna"}}]}}},"processes":[],"eols":[]},{"oid":"3981","imid":"4124","linkid":"","weight":"0","rawemissions":"0","emissions":"0","shipping":"7189.26","processemissions":"0","endoflifeemissions":"0","disposaltype":null,"disposalenergy":null,"disposalimpact":null,"disposalemissions":null,"description":"","name":"PUT","id":"4124","stops":{"origin":{"related_to":"4124","part_or_object":"p","notes":"","placename":"\u010c\u00edna","id":5969,"name":"origin","lat":"35.86166","lon":"104.195397","hops":{"incoming":[],"outgoing":[{"transport_id":"17","id":"3709","transport_name":"None Selected","transport_description":null,"transport_unit":"kg km","transport_co2_eq":"0.000000","from_stop_id":"5969","from_stop_lat":"35.86166","from_stop_lon":"104.195397","from_stop_placename":"\u010c\u00edna","to_stop_id":"1769","to_stop_name":"origin","to_stop_lat":"49.977509","to_stop_lon":"12.0612871","to_stop_placename":"Waldershof, Nemecko","to_stop":{"id":"1769","name":"origin","lat":"49.977509","lon":"12.0612871","placename":"Waldershof, Nemecko"},"from_stop":{"name":"origin","id":"5969","lat":"35.86166","lon":"104.195397","placename":"\u010c\u00edna"}}]}}},"processes":[],"eols":[]},{"oid":"3981","imid":"4125","linkid":"","weight":"0","rawemissions":"0","emissions":"0","shipping":"984.58","processemissions":"0","endoflifeemissions":"0","disposaltype":null,"disposalenergy":null,"disposalimpact":null,"disposalemissions":null,"description":"","name":"silica","id":"4125","stops":{"origin":{"related_to":"4125","part_or_object":"p","notes":"","placename":"Litva","id":5970,"name":"origin","lat":"55.169438","lon":"23.881275","hops":{"incoming":[],"outgoing":[{"transport_id":"17","id":"3710","transport_name":"None Selected","transport_description":null,"transport_unit":"kg km","transport_co2_eq":"0.000000","from_stop_id":"5970","from_stop_lat":"55.169438","from_stop_lon":"23.881275","from_stop_placename":"Litva","to_stop_id":"1769","to_stop_name":"origin","to_stop_lat":"49.977509","to_stop_lon":"12.0612871","to_stop_placename":"Waldershof, Nemecko","to_stop":{"id":"1769","name":"origin","lat":"49.977509","lon":"12.0612871","placename":"Waldershof, Nemecko"},"from_stop":{"name":"origin","id":"5970","lat":"55.169438","lon":"23.881275","placename":"Litva"}}]}}},"processes":[],"eols":[]},{"oid":"3981","imid":"4126","linkid":"","weight":"0","rawemissions":"0","emissions":"0","shipping":"1166.18","processemissions":"0","endoflifeemissions":"0","disposaltype":null,"disposalenergy":null,"disposalimpact":null,"disposalemissions":null,"description":"","name":"chalk","id":"4126","stops":{"origin":{"related_to":"4126","part_or_object":"p","notes":"","placename":"Bielorusko","id":5971,"name":"origin","lat":"53.709807","lon":"27.953389","hops":{"incoming":[],"outgoing":[{"transport_id":"17","id":"3711","transport_name":"None Selected","transport_description":null,"transport_unit":"kg km","transport_co2_eq":"0.000000","from_stop_id":"5971","from_stop_lat":"53.709807","from_stop_lon":"27.953389","from_stop_placename":"Bielorusko","to_stop_id":"1769","to_stop_name":"origin","to_stop_lat":"49.977509","to_stop_lon":"12.0612871","to_stop_placename":"Waldershof, Nemecko","to_stop":{"id":"1769","name":"origin","lat":"49.977509","lon":"12.0612871","placename":"Waldershof, Nemecko"},"from_stop":{"name":"origin","id":"5971","lat":"53.709807","lon":"27.953389","placename":"Bielorusko"}}]}}},"processes":[],"eols":[]},{"oid":"3981","imid":"4127","linkid":"","weight":"0","rawemissions":"0","emissions":"0","shipping":"9029.6","processemissions":"0","endoflifeemissions":"0","disposaltype":null,"disposalenergy":null,"disposalimpact":null,"disposalemissions":null,"description":"","name":"Manganese","id":"4127","stops":{"origin":{"related_to":"4127","part_or_object":"p","notes":"","placename":"Ju\u017en\u00e1 Afrika","id":5978,"name":"origin","lat":"-30.559482","lon":"22.937506","hops":{"incoming":[],"outgoing":[{"transport_id":"17","id":"3718","transport_name":"None Selected","transport_description":null,"transport_unit":"kg km","transport_co2_eq":"0.000000","from_stop_id":"5978","from_stop_lat":"-30.559482","from_stop_lon":"22.937506","from_stop_placename":"Ju\u017en\u00e1 Afrika","to_stop_id":"1769","to_stop_name":"origin","to_stop_lat":"49.977509","to_stop_lon":"12.0612871","to_stop_placename":"Waldershof, Nemecko","to_stop":{"id":"1769","name":"origin","lat":"49.977509","lon":"12.0612871","placename":"Waldershof, Nemecko"},"from_stop":{"name":"origin","id":"5978","lat":"-30.559482","lon":"22.937506","placename":"Ju\u017en\u00e1 Afrika"}}]}}},"processes":[],"eols":[]},{"oid":"3981","imid":"4128","linkid":"","weight":"0","rawemissions":"0","emissions":"0","shipping":"7189.26","processemissions":"0","endoflifeemissions":"0","disposaltype":null,"disposalenergy":null,"disposalimpact":null,"disposalemissions":null,"description":"","name":"Magnesium","id":"4128","stops":{"origin":{"related_to":"4128","part_or_object":"p","notes":"","placename":"\u010c\u00edna","id":6002,"name":"origin","lat":"35.86166","lon":"104.195397","hops":{"incoming":[],"outgoing":[{"transport_id":"17","id":"3742","transport_name":"None Selected","transport_description":null,"transport_unit":"kg km","transport_co2_eq":"0.000000","from_stop_id":"6002","from_stop_lat":"35.86166","from_stop_lon":"104.195397","from_stop_placename":"\u010c\u00edna","to_stop_id":"1769","to_stop_name":"origin","to_stop_lat":"49.977509","to_stop_lon":"12.0612871","to_stop_placename":"Waldershof, Nemecko","to_stop":{"id":"1769","name":"origin","lat":"49.977509","lon":"12.0612871","placename":"Waldershof, Nemecko"},"from_stop":{"name":"origin","id":"6002","lat":"35.86166","lon":"104.195397","placename":"\u010c\u00edna"}}]}}},"processes":[],"eols":[]},{"oid":"3981","imid":"4129","linkid":"","weight":"0","rawemissions":"0","emissions":"0","shipping":"174.48","processemissions":"0","endoflifeemissions":"0","disposaltype":null,"disposalenergy":null,"disposalimpact":null,"disposalemissions":null,"description":"","name":"paint & lacquer","id":"4129","stops":{"origin":{"related_to":"4129","part_or_object":"p","notes":"","placename":"Nemecko","id":6003,"name":"origin","lat":"51.165691","lon":"10.451526","hops":{"incoming":[],"outgoing":[{"transport_id":"17","id":"3743","transport_name":"None Selected","transport_description":null,"transport_unit":"kg km","transport_co2_eq":"0.000000","from_stop_id":"6003","from_stop_lat":"51.165691","from_stop_lon":"10.451526","from_stop_placename":"Nemecko","to_stop_id":"1769","to_stop_name":"origin","to_stop_lat":"49.977509","to_stop_lon":"12.0612871","to_stop_placename":"Waldershof, Nemecko","to_stop":{"id":"1769","name":"origin","lat":"49.977509","lon":"12.0612871","placename":"Waldershof, Nemecko"},"from_stop":{"name":"origin","id":"6003","lat":"51.165691","lon":"10.451526","placename":"Nemecko"}}]}}},"processes":[],"eols":[]},{"oid":"3981","imid":"4130","linkid":"","weight":"0","rawemissions":"0","emissions":"0","shipping":"572.71","processemissions":"0","endoflifeemissions":"0","disposaltype":null,"disposalenergy":null,"disposalimpact":null,"disposalemissions":null,"description":"","name":"roller bearing","id":"4130","stops":{"origin":{"related_to":"4130","part_or_object":"p","notes":"","placename":"Slovensk\u00e1 republika","id":6009,"name":"origin","lat":"48.669026","lon":"19.699024","hops":{"incoming":[],"outgoing":[{"transport_id":"17","id":"3749","transport_name":"None Selected","transport_description":null,"transport_unit":"kg km","transport_co2_eq":"0.000000","from_stop_id":"6009","from_stop_lat":"48.669026","from_stop_lon":"19.699024","from_stop_placename":"Slovensk\u00e1 republika","to_stop_id":"1769","to_stop_name":"origin","to_stop_lat":"49.977509","to_stop_lon":"12.0612871","to_stop_placename":"Waldershof, Nemecko","to_stop":{"id":"1769","name":"origin","lat":"49.977509","lon":"12.0612871","placename":"Waldershof, Nemecko"},"from_stop":{"name":"origin","id":"6009","lat":"48.669026","lon":"19.699024","placename":"Slovensk\u00e1 republika"}}]}}},"processes":[],"eols":[]},{"oid":"3981","imid":"4131","linkid":"","weight":"0","rawemissions":"0","emissions":"0","shipping":"5457.51","processemissions":"0","endoflifeemissions":"0","disposaltype":null,"disposalenergy":null,"disposalimpact":null,"disposalemissions":null,"description":"","name":"sulphur","id":"4131","stops":{"origin":{"related_to":"4131","part_or_object":"p","notes":"","placename":"Rusko","id":6010,"name":"origin","lat":"61.52401","lon":"105.318756","hops":{"incoming":[],"outgoing":[{"transport_id":"17","id":"3750","transport_name":"None Selected","transport_description":null,"transport_unit":"kg km","transport_co2_eq":"0.000000","from_stop_id":"6010","from_stop_lat":"61.52401","from_stop_lon":"105.318756","from_stop_placename":"Rusko","to_stop_id":"1769","to_stop_name":"origin","to_stop_lat":"49.977509","to_stop_lon":"12.0612871","to_stop_placename":"Waldershof, Nemecko","to_stop":{"id":"1769","name":"origin","lat":"49.977509","lon":"12.0612871","placename":"Waldershof, Nemecko"},"from_stop":{"name":"origin","id":"6010","lat":"61.52401","lon":"105.318756","placename":"Rusko"}}]}}},"processes":[],"eols":[]},{"oid":"3981","imid":"4132","linkid":"","weight":"0","rawemissions":"0","emissions":"0","shipping":"7189.26","processemissions":"0","endoflifeemissions":"0","disposaltype":null,"disposalenergy":null,"disposalimpact":null,"disposalemissions":null,"description":"","name":"zinc oxide","id":"4132","stops":{"origin":{"related_to":"4132","part_or_object":"p","notes":"","placename":"\u010c\u00edna","id":6011,"name":"origin","lat":"35.86166","lon":"104.195397","hops":{"incoming":[],"outgoing":[{"transport_id":"17","id":"3751","transport_name":"None Selected","transport_description":null,"transport_unit":"kg km","transport_co2_eq":"0.000000","from_stop_id":"6011","from_stop_lat":"35.86166","from_stop_lon":"104.195397","from_stop_placename":"\u010c\u00edna","to_stop_id":"1769","to_stop_name":"origin","to_stop_lat":"49.977509","to_stop_lon":"12.0612871","to_stop_placename":"Waldershof, Nemecko","to_stop":{"id":"1769","name":"origin","lat":"49.977509","lon":"12.0612871","placename":"Waldershof, Nemecko"},"from_stop":{"name":"origin","id":"6011","lat":"35.86166","lon":"104.195397","placename":"\u010c\u00edna"}}]}}},"processes":[],"eols":[]},{"oid":"3981","imid":"4005","linkid":"","weight":"0","rawemissions":"0","emissions":"0","shipping":"9270.5","processemissions":"0","endoflifeemissions":"0","disposaltype":null,"disposalenergy":null,"disposalimpact":null,"disposalemissions":null,"description":"HPA 7005 Hydroform STK Triple Butted, FSP 4-Link-System","name":"bicycle frame from duralumin","id":"4005","stops":{"origin":{"related_to":"4005","part_or_object":"p","notes":"","placename":"Tchajwan","id":6047,"name":"origin","lat":"23.69781","lon":"120.960515","hops":{"incoming":[],"outgoing":[{"transport_id":"17","id":"3787","transport_name":"None Selected","transport_description":null,"transport_unit":"kg km","transport_co2_eq":"0.000000","from_stop_id":"6047","from_stop_lat":"23.69781","from_stop_lon":"120.960515","from_stop_placename":"Tchajwan","to_stop_id":"1769","to_stop_name":"origin","to_stop_lat":"49.977509","to_stop_lon":"12.0612871","to_stop_placename":"Waldershof, Nemecko","to_stop":{"id":"1769","name":"origin","lat":"49.977509","lon":"12.0612871","placename":"Waldershof, Nemecko"},"from_stop":{"name":"origin","id":"6047","lat":"23.69781","lon":"120.960515","placename":"Tchajwan"}}]}}},"processes":[],"eols":[]},{"oid":"3981","imid":"4006","linkid":"","weight":"0","rawemissions":"0","emissions":"0","shipping":"9354.93","processemissions":"0","endoflifeemissions":"0","disposaltype":null,"disposalenergy":null,"disposalimpact":null,"disposalemissions":null,"description":"Fox 32 Float & Fox RP 23","name":"front & rear suspension","id":"4006","stops":{"origin":{"related_to":"4006","part_or_object":"p","notes":"","placename":"130 Hangar Way, Watsonville, Kalifornia 95076, Spojen\u00e9 \u0161t\u00e1ty americk\u00e9","id":6048,"name":"origin","lat":"36.924684","lon":"-121.79102","hops":{"incoming":[],"outgoing":[{"transport_id":"17","id":"3788","transport_name":"None Selected","transport_description":null,"transport_unit":"kg km","transport_co2_eq":"0.000000","from_stop_id":"6048","from_stop_lat":"36.924684","from_stop_lon":"-121.79102","from_stop_placename":"130 Hangar Way, Watsonville, Kalifornia 95076, Spojen\u00e9 \u0161t\u00e1ty americk\u00e9","to_stop_id":"1769","to_stop_name":"origin","to_stop_lat":"49.977509","to_stop_lon":"12.0612871","to_stop_placename":"Waldershof, Nemecko","to_stop":{"id":"1769","name":"origin","lat":"49.977509","lon":"12.0612871","placename":"Waldershof, Nemecko"},"from_stop":{"name":"origin","id":"6048","lat":"36.924684","lon":"-121.79102","placename":"130 Hangar Way, Watsonville, Kalifornia 95076, Spojen\u00e9 \u0161t\u00e1ty americk\u00e9"}}]}}},"processes":[],"eols":[]},{"oid":"3981","imid":"4008","linkid":"","weight":"0","rawemissions":"0","emissions":"0","shipping":"681.71","processemissions":"0","endoflifeemissions":"0","disposaltype":null,"disposalenergy":null,"disposalimpact":null,"disposalemissions":null,"description":"Formula disc","name":"disc brakes & break levers","id":"4008","stops":{"origin":{"related_to":"4008","part_or_object":"p","notes":"","placename":"Via Erbosa, 63, 59100 Prato, Taliansko","id":6050,"name":"origin","lat":"43.8897859","lon":"11.0856411","hops":{"incoming":[],"outgoing":[{"transport_id":"17","id":"3790","transport_name":"None Selected","transport_description":null,"transport_unit":"kg km","transport_co2_eq":"0.000000","from_stop_id":"6050","from_stop_lat":"43.8897859","from_stop_lon":"11.0856411","from_stop_placename":"Via Erbosa, 63, 59100 Prato, Taliansko","to_stop_id":"1769","to_stop_name":"origin","to_stop_lat":"49.977509","to_stop_lon":"12.0612871","to_stop_placename":"Waldershof, Nemecko","to_stop":{"id":"1769","name":"origin","lat":"49.977509","lon":"12.0612871","placename":"Waldershof, Nemecko"},"from_stop":{"name":"origin","id":"6050","lat":"43.8897859","lon":"11.0856411","placename":"Via Erbosa, 63, 59100 Prato, Taliansko"}}]}}},"processes":[],"eols":[]},{"oid":"3981","imid":"4009","linkid":"","weight":"0","rawemissions":"0","emissions":"0","shipping":"213.61","processemissions":"0","endoflifeemissions":"0","disposaltype":null,"disposalenergy":null,"disposalimpact":null,"disposalemissions":null,"description":"Syntace","name":"handlebar & stem","id":"4009","stops":{"origin":{"related_to":"4009","part_or_object":"p","notes":"","placename":"Dammweg 1, 83342 Tacherting, Nemecko","id":6051,"name":"origin","lat":"48.08769","lon":"12.56863","hops":{"incoming":[],"outgoing":[{"transport_id":"17","id":"3791","transport_name":"None Selected","transport_description":null,"transport_unit":"kg km","transport_co2_eq":"0.000000","from_stop_id":"6051","from_stop_lat":"48.08769","from_stop_lon":"12.56863","from_stop_placename":"Dammweg 1, 83342 Tacherting, Nemecko","to_stop_id":"1769","to_stop_name":"origin","to_stop_lat":"49.977509","to_stop_lon":"12.0612871","to_stop_placename":"Waldershof, Nemecko","to_stop":{"id":"1769","name":"origin","lat":"49.977509","lon":"12.0612871","placename":"Waldershof, Nemecko"},"from_stop":{"name":"origin","id":"6051","lat":"48.08769","lon":"12.56863","placename":"Dammweg 1, 83342 Tacherting, Nemecko"}}]}}},"processes":[],"eols":[]},{"oid":"3981","imid":"4010","linkid":"","weight":"0","rawemissions":"0","emissions":"0","shipping":"9093.88","processemissions":"0","endoflifeemissions":"0","disposaltype":null,"disposalenergy":null,"disposalimpact":null,"disposalemissions":null,"description":"Shimano","name":"pedals","id":"4010","stops":{"origin":{"related_to":"4010","part_or_object":"p","notes":"","placename":"Osaka, Japonsko","id":6052,"name":"origin","lat":"34.6937378","lon":"135.5021651","hops":{"incoming":[],"outgoing":[{"transport_id":"17","id":"3792","transport_name":"None Selected","transport_description":null,"transport_unit":"kg km","transport_co2_eq":"0.000000","from_stop_id":"6052","from_stop_lat":"34.6937378","from_stop_lon":"135.5021651","from_stop_placename":"Osaka, Japonsko","to_stop_id":"1769","to_stop_name":"origin","to_stop_lat":"49.977509","to_stop_lon":"12.0612871","to_stop_placename":"Waldershof, Nemecko","to_stop":{"id":"1769","name":"origin","lat":"49.977509","lon":"12.0612871","placename":"Waldershof, Nemecko"},"from_stop":{"name":"origin","id":"6052","lat":"34.6937378","lon":"135.5021651","placename":"Osaka, Japonsko"}}]}}},"processes":[],"eols":[]},{"oid":"3981","imid":"4011","linkid":"","weight":"0","rawemissions":"0","emissions":"0","shipping":"327.97","processemissions":"0","endoflifeemissions":"0","disposaltype":null,"disposalenergy":null,"disposalimpact":null,"disposalemissions":null,"description":"Schwalbe","name":"tyres & inner tubes","id":"4011","stops":{"origin":{"related_to":"4011","part_or_object":"p","notes":"","placename":"Reichshof, Nemecko","id":6053,"name":"origin","lat":"50.9666667","lon":"7.7","hops":{"incoming":[],"outgoing":[{"transport_id":"17","id":"3793","transport_name":"None Selected","transport_description":null,"transport_unit":"kg km","transport_co2_eq":"0.000000","from_stop_id":"6053","from_stop_lat":"50.9666667","from_stop_lon":"7.7","from_stop_placename":"Reichshof, Nemecko","to_stop_id":"1769","to_stop_name":"origin","to_stop_lat":"49.977509","to_stop_lon":"12.0612871","to_stop_placename":"Waldershof, Nemecko","to_stop":{"id":"1769","name":"origin","lat":"49.977509","lon":"12.0612871","placename":"Waldershof, Nemecko"},"from_stop":{"name":"origin","id":"6053","lat":"50.9666667","lon":"7.7","placename":"Reichshof, Nemecko"}}]}}},"processes":[],"eols":[]}],"user":{"name":"filip777","id":"10390"}}}