{"4009":{"oid":"4009","type":"food","flag":"","creator":"10393","name":"My Sunday lunch","upc":"","imagelink":"","description":"For Sunday lunch me and my family had soup made of vegetables (carrots, peas, parsley, celery); then turkey meat (with spices: salt, pepper, rosemary, oregano) and pasta with tuna (with tomatoes and cucumbers). For dessert we had fruit salad of bananas, grapes and peaches. And whats the origin of this groceries?","slug":"my-sunday-lunch","category":"","weight":"5","emissions":"12.284655475","embodied":"12.27","transport":"0.014655475","process":"0","endoflife":"0","shipping":"26836.19","lifetime":null,"usagetype":"","usageenergy":null,"usageemissions":null,"timecreated":"2010-08-22 08:48:19.978208","timemodified":"2010-08-22 14:23:22","visibility":"public","showfootprint":"on","showembodied":"on","showtransport":"on","showprocess":"on","showendoflife":"on","showlastleg":"on","showuse":"on","showstats":"on","stops":{"origin":{"related_to":"4009","part_or_object":"o","notes":"","placename":"City of Zagreb, Croatia","id":"1784","category":"1","lat":"45.814912","lon":"15.9785145","name":"origin","hops":{"incoming":[{"transport_id":"2","id":"3813","transport_name":"truck, 16 tons","transport_description":"truck, half full","transport_unit":"kg km","transport_co2_eq":"0.020300","from_stop_id":"6073","from_stop_lat":"47.516231","from_stop_lon":"14.550072","to_stop_id":"1784","to_stop_name":"origin","to_stop_lat":"45.814912","placename":"Austria","to_stop_lon":"15.9785145","to_stop":{"id":"1784","name":"origin","lat":"45.814912","placename":"City of Zagreb, Croatia","lon":"15.9785145"},"from_stop":{"name":"origin","id":"6073","lat":"47.516231","lon":"14.550072","placename":"Austria"}},{"transport_id":"2","id":"3814","transport_name":"truck, 16 tons","transport_description":"truck, half full","transport_unit":"kg km","transport_co2_eq":"0.020300","from_stop_id":"6074","from_stop_lat":"50.503887","from_stop_lon":"4.469936","to_stop_id":"1784","to_stop_name":"origin","to_stop_lat":"45.814912","placename":"Belgium","to_stop_lon":"15.9785145","to_stop":{"id":"1784","name":"origin","lat":"45.814912","placename":"City of Zagreb, Croatia","lon":"15.9785145"},"from_stop":{"name":"origin","id":"6074","lat":"50.503887","lon":"4.469936","placename":"Belgium"}},{"transport_id":"4","id":"3815","transport_name":"automobile, 20 mpg","transport_description":"low efficiency automobile","transport_unit":"kg km","transport_co2_eq":"0.067500","from_stop_id":"6075","from_stop_lat":"46.3099057","from_stop_lon":"16.333921","to_stop_id":"1784","to_stop_name":"origin","to_stop_lat":"45.814912","placename":"Vara\u017edin, Croatia","to_stop_lon":"15.9785145","to_stop":{"id":"1784","name":"origin","lat":"45.814912","placename":"City of Zagreb, Croatia","lon":"15.9785145"},"from_stop":{"name":"origin","id":"6075","lat":"46.3099057","lon":"16.333921","placename":"Vara\u017edin, Croatia"}},{"transport_id":"2","id":"3816","transport_name":"truck, 16 tons","transport_description":"truck, half full","transport_unit":"kg km","transport_co2_eq":"0.020300","from_stop_id":"6076","from_stop_lat":"51.165691","from_stop_lon":"10.451526","to_stop_id":"1784","to_stop_name":"origin","to_stop_lat":"45.814912","placename":"Germany","to_stop_lon":"15.9785145","to_stop":{"id":"1784","name":"origin","lat":"45.814912","placename":"City of Zagreb, Croatia","lon":"15.9785145"},"from_stop":{"name":"origin","id":"6076","lat":"51.165691","lon":"10.451526","placename":"Germany"}},{"transport_id":"4","id":"3817","transport_name":"automobile, 20 mpg","transport_description":"low efficiency automobile","transport_unit":"kg km","transport_co2_eq":"0.067500","from_stop_id":"6077","from_stop_lat":"46.3099057","from_stop_lon":"16.333921","to_stop_id":"1784","to_stop_name":"origin","to_stop_lat":"45.814912","placename":"Vara\u017edin, Croatia","to_stop_lon":"15.9785145","to_stop":{"id":"1784","name":"origin","lat":"45.814912","placename":"City of Zagreb, Croatia","lon":"15.9785145"},"from_stop":{"name":"origin","id":"6077","lat":"46.3099057","lon":"16.333921","placename":"Vara\u017edin, Croatia"}},{"transport_id":"3","id":"3818","transport_name":"truck, 40 tons","transport_description":"truck, half full","transport_unit":"kg km","transport_co2_eq":"0.030900","from_stop_id":"6078","from_stop_lat":"44.532841","from_stop_lon":"18.6705","to_stop_id":"1784","to_stop_name":"origin","to_stop_lat":"45.814912","placename":"Tuzla, Bosnia and Herzegovina","to_stop_lon":"15.9785145","to_stop":{"id":"1784","name":"origin","lat":"45.814912","placename":"City of Zagreb, Croatia","lon":"15.9785145"},"from_stop":{"name":"origin","id":"6078","lat":"44.532841","lon":"18.6705","placename":"Tuzla, Bosnia and Herzegovina"}},{"transport_id":"9","id":"3819","transport_name":"container ship","transport_description":"moving boxcar size containers","transport_unit":"kg km","transport_co2_eq":"0.047800","from_stop_id":"6079","from_stop_lat":"39.074208","from_stop_lon":"21.824312","to_stop_id":"1784","to_stop_name":"origin","to_stop_lat":"45.814912","placename":"Greece","to_stop_lon":"15.9785145","to_stop":{"id":"1784","name":"origin","lat":"45.814912","placename":"City of Zagreb, Croatia","lon":"15.9785145"},"from_stop":{"name":"origin","id":"6079","lat":"39.074208","lon":"21.824312","placename":"Greece"}},{"transport_id":"9","id":"3820","transport_name":"container ship","transport_description":"moving boxcar size containers","transport_unit":"kg km","transport_co2_eq":"0.047800","from_stop_id":"6080","from_stop_lat":"33.886917","from_stop_lon":"9.537499","to_stop_id":"1784","to_stop_name":"origin","to_stop_lat":"45.814912","placename":"Tunisia","to_stop_lon":"15.9785145","to_stop":{"id":"1784","name":"origin","lat":"45.814912","placename":"City of Zagreb, Croatia","lon":"15.9785145"},"from_stop":{"name":"origin","id":"6080","lat":"33.886917","lon":"9.537499","placename":"Tunisia"}},{"transport_id":"9","id":"3821","transport_name":"container ship","transport_description":"moving boxcar size containers","transport_unit":"kg km","transport_co2_eq":"0.047800","from_stop_id":"6081","from_stop_lat":"38.963745","from_stop_lon":"35.243322","to_stop_id":"1784","to_stop_name":"origin","to_stop_lat":"45.814912","placename":"Turkey","to_stop_lon":"15.9785145","to_stop":{"id":"1784","name":"origin","lat":"45.814912","placename":"City of Zagreb, Croatia","lon":"15.9785145"},"from_stop":{"name":"origin","id":"6081","lat":"38.963745","lon":"35.243322","placename":"Turkey"}},{"transport_id":"2","id":"3822","transport_name":"truck, 16 tons","transport_description":"truck, half full","transport_unit":"kg km","transport_co2_eq":"0.020300","from_stop_id":"6082","from_stop_lat":"41.87194","from_stop_lon":"12.56738","to_stop_id":"1784","to_stop_name":"origin","to_stop_lat":"45.814912","placename":"Italy","to_stop_lon":"15.9785145","to_stop":{"id":"1784","name":"origin","lat":"45.814912","placename":"City of Zagreb, Croatia","lon":"15.9785145"},"from_stop":{"name":"origin","id":"6082","lat":"41.87194","lon":"12.56738","placename":"Italy"}},{"transport_id":"9","id":"3823","transport_name":"container ship","transport_description":"moving boxcar size containers","transport_unit":"kg km","transport_co2_eq":"0.047800","from_stop_id":"6083","from_stop_lat":"15.870032","from_stop_lon":"100.992541","to_stop_id":"1784","to_stop_name":"origin","to_stop_lat":"45.814912","placename":"Thailand","to_stop_lon":"15.9785145","to_stop":{"id":"1784","name":"origin","lat":"45.814912","placename":"City of Zagreb, Croatia","lon":"15.9785145"},"from_stop":{"name":"origin","id":"6083","lat":"15.870032","lon":"100.992541","placename":"Thailand"}},{"transport_id":"2","id":"3824","transport_name":"truck, 16 tons","transport_description":"truck, half full","transport_unit":"kg km","transport_co2_eq":"0.020300","from_stop_id":"6084","from_stop_lat":"41.87194","from_stop_lon":"12.56738","to_stop_id":"1784","to_stop_name":"origin","to_stop_lat":"45.814912","placename":"Italy","to_stop_lon":"15.9785145","to_stop":{"id":"1784","name":"origin","lat":"45.814912","placename":"City of Zagreb, Croatia","lon":"15.9785145"},"from_stop":{"name":"origin","id":"6084","lat":"41.87194","lon":"12.56738","placename":"Italy"}},{"transport_id":"17","id":"3825","transport_name":"None Selected","transport_description":null,"transport_unit":"kg km","transport_co2_eq":"0.000000","from_stop_id":"6085","from_stop_lat":"45.3310767","from_stop_lon":"17.6769784","to_stop_id":"1784","to_stop_name":"origin","to_stop_lat":"45.814912","placename":"Po\u017eega, Croatia","to_stop_lon":"15.9785145","to_stop":{"id":"1784","name":"origin","lat":"45.814912","placename":"City of Zagreb, Croatia","lon":"15.9785145"},"from_stop":{"name":"origin","id":"6085","lat":"45.3310767","lon":"17.6769784","placename":"Po\u017eega, Croatia"}},{"transport_id":"17","id":"3826","transport_name":"None Selected","transport_description":null,"transport_unit":"kg km","transport_co2_eq":"0.000000","from_stop_id":"6086","from_stop_lat":"-1.831239","from_stop_lon":"-78.183406","to_stop_id":"1784","to_stop_name":"origin","to_stop_lat":"45.814912","placename":"Ecuador","to_stop_lon":"15.9785145","to_stop":{"id":"1784","name":"origin","lat":"45.814912","placename":"City of Zagreb, Croatia","lon":"15.9785145"},"from_stop":{"name":"origin","id":"6086","lat":"-1.831239","lon":"-78.183406","placename":"Ecuador"}},{"transport_id":"17","id":"3827","transport_name":"None Selected","transport_description":null,"transport_unit":"kg km","transport_co2_eq":"0.000000","from_stop_id":"6087","from_stop_lat":"44.1148781","from_stop_lon":"15.2289514","to_stop_id":"1784","to_stop_name":"origin","to_stop_lat":"45.814912","placename":"Zadar, Croatia","to_stop_lon":"15.9785145","to_stop":{"id":"1784","name":"origin","lat":"45.814912","placename":"City of Zagreb, Croatia","lon":"15.9785145"},"from_stop":{"name":"origin","id":"6087","lat":"44.1148781","lon":"15.2289514","placename":"Zadar, Croatia"}},{"transport_id":"17","id":"3828","transport_name":"None Selected","transport_description":null,"transport_unit":"kg km","transport_co2_eq":"0.000000","from_stop_id":"6088","from_stop_lat":"44.1148781","from_stop_lon":"15.2289514","to_stop_id":"1784","to_stop_name":"origin","to_stop_lat":"45.814912","placename":"Zadar, Croatia","to_stop_lon":"15.9785145","to_stop":{"id":"1784","name":"origin","lat":"45.814912","placename":"City of Zagreb, Croatia","lon":"15.9785145"},"from_stop":{"name":"origin","id":"6088","lat":"44.1148781","lon":"15.2289514","placename":"Zadar, Croatia"}}],"outgoing":[]}}},"parts":[{"oid":"4009","imid":"4029","linkid":"parts\/carrots","weight":"0","rawemissions":"0.41","emissions":"0","shipping":"218.57","processemissions":"0","endoflifeemissions":"0","disposaltype":null,"disposalenergy":null,"disposalimpact":null,"disposalemissions":null,"description":"","name":"Carrots","id":"4029","stops":{"origin":{"related_to":"4029","part_or_object":"p","notes":"","placename":"Austria","id":6073,"name":"origin","lat":"47.516231","lon":"14.550072","hops":{"incoming":[],"outgoing":[{"transport_id":"2","id":"3813","transport_name":"truck, 16 tons","transport_description":"truck, half full","transport_unit":"kg km","transport_co2_eq":"0.020300","from_stop_id":"6073","from_stop_lat":"47.516231","from_stop_lon":"14.550072","from_stop_placename":"Austria","to_stop_id":"1784","to_stop_name":"origin","to_stop_lat":"45.814912","to_stop_lon":"15.9785145","to_stop_placename":"City of Zagreb, Croatia","to_stop":{"id":"1784","name":"origin","lat":"45.814912","lon":"15.9785145","placename":"City of Zagreb, Croatia"},"from_stop":{"name":"origin","id":"6073","lat":"47.516231","lon":"14.550072","placename":"Austria"}}]}}},"processes":[],"eols":[]},{"oid":"4009","imid":"4030","linkid":"parts\/snap-peas","weight":"0","rawemissions":"1.29","emissions":"0","shipping":"999.74","processemissions":"0","endoflifeemissions":"0","disposaltype":null,"disposalenergy":null,"disposalimpact":null,"disposalemissions":null,"description":"","name":"Peas","id":"4030","stops":{"origin":{"related_to":"4030","part_or_object":"p","notes":"","placename":"Belgium","id":6074,"name":"origin","lat":"50.503887","lon":"4.469936","hops":{"incoming":[],"outgoing":[{"transport_id":"2","id":"3814","transport_name":"truck, 16 tons","transport_description":"truck, half full","transport_unit":"kg km","transport_co2_eq":"0.020300","from_stop_id":"6074","from_stop_lat":"50.503887","from_stop_lon":"4.469936","from_stop_placename":"Belgium","to_stop_id":"1784","to_stop_name":"origin","to_stop_lat":"45.814912","to_stop_lon":"15.9785145","to_stop_placename":"City of Zagreb, Croatia","to_stop":{"id":"1784","name":"origin","lat":"45.814912","lon":"15.9785145","placename":"City of Zagreb, Croatia"},"from_stop":{"name":"origin","id":"6074","lat":"50.503887","lon":"4.469936","placename":"Belgium"}}]}}},"processes":[],"eols":[]},{"oid":"4009","imid":"4031","linkid":"parts\/celery","weight":"0","rawemissions":"0.47","emissions":"0","shipping":"61.56","processemissions":"0","endoflifeemissions":"0","disposaltype":null,"disposalenergy":null,"disposalimpact":null,"disposalemissions":null,"description":"","name":"Celery","id":"4031","stops":{"origin":{"related_to":"4031","part_or_object":"p","notes":"","placename":"Vara\u017edin, Croatia","id":6075,"name":"origin","lat":"46.3099057","lon":"16.333921","hops":{"incoming":[],"outgoing":[{"transport_id":"4","id":"3815","transport_name":"automobile, 20 mpg","transport_description":"low efficiency automobile","transport_unit":"kg km","transport_co2_eq":"0.067500","from_stop_id":"6075","from_stop_lat":"46.3099057","from_stop_lon":"16.333921","from_stop_placename":"Vara\u017edin, Croatia","to_stop_id":"1784","to_stop_name":"origin","to_stop_lat":"45.814912","to_stop_lon":"15.9785145","to_stop_placename":"City of Zagreb, Croatia","to_stop":{"id":"1784","name":"origin","lat":"45.814912","lon":"15.9785145","placename":"City of Zagreb, Croatia"},"from_stop":{"name":"origin","id":"6075","lat":"46.3099057","lon":"16.333921","placename":"Vara\u017edin, Croatia"}}]}}},"processes":[],"eols":[]},{"oid":"4009","imid":"4032","linkid":"","weight":"0","rawemissions":"0","emissions":"0","shipping":"721.39","processemissions":"0","endoflifeemissions":"0","disposaltype":null,"disposalenergy":null,"disposalimpact":null,"disposalemissions":null,"description":"","name":"Parsley","id":"4032","stops":{"origin":{"related_to":"4032","part_or_object":"p","notes":"","placename":"Germany","id":6076,"name":"origin","lat":"51.165691","lon":"10.451526","hops":{"incoming":[],"outgoing":[{"transport_id":"2","id":"3816","transport_name":"truck, 16 tons","transport_description":"truck, half full","transport_unit":"kg km","transport_co2_eq":"0.020300","from_stop_id":"6076","from_stop_lat":"51.165691","from_stop_lon":"10.451526","from_stop_placename":"Germany","to_stop_id":"1784","to_stop_name":"origin","to_stop_lat":"45.814912","to_stop_lon":"15.9785145","to_stop_placename":"City of Zagreb, Croatia","to_stop":{"id":"1784","name":"origin","lat":"45.814912","lon":"15.9785145","placename":"City of Zagreb, Croatia"},"from_stop":{"name":"origin","id":"6076","lat":"51.165691","lon":"10.451526","placename":"Germany"}}]}}},"processes":[],"eols":[]},{"oid":"4009","imid":"4033","linkid":"parts\/chicken","weight":"1","rawemissions":"3.5","emissions":"3.5","shipping":"61.56","processemissions":"0","endoflifeemissions":"0","disposaltype":null,"disposalenergy":null,"disposalimpact":null,"disposalemissions":null,"description":"","name":"Chicken","id":"4033","stops":{"origin":{"related_to":"4033","part_or_object":"p","notes":"","placename":"Vara\u017edin, Croatia","id":6077,"name":"origin","lat":"46.3099057","lon":"16.333921","hops":{"incoming":[],"outgoing":[{"transport_id":"4","id":"3817","transport_name":"automobile, 20 mpg","transport_description":"low efficiency automobile","transport_unit":"kg km","transport_co2_eq":"0.067500","from_stop_id":"6077","from_stop_lat":"46.3099057","from_stop_lon":"16.333921","from_stop_placename":"Vara\u017edin, Croatia","to_stop_id":"1784","to_stop_name":"origin","to_stop_lat":"45.814912","to_stop_lon":"15.9785145","to_stop_placename":"City of Zagreb, Croatia","to_stop":{"id":"1784","name":"origin","lat":"45.814912","lon":"15.9785145","placename":"City of Zagreb, Croatia"},"from_stop":{"name":"origin","id":"6077","lat":"46.3099057","lon":"16.333921","placename":"Vara\u017edin, Croatia"}}]}}},"processes":[],"eols":[]},{"oid":"4009","imid":"4034","linkid":"","weight":"0","rawemissions":"0","emissions":"0","shipping":"254.92","processemissions":"0","endoflifeemissions":"0","disposaltype":null,"disposalenergy":null,"disposalimpact":null,"disposalemissions":null,"description":"","name":"Salt","id":"4034","stops":{"origin":{"related_to":"4034","part_or_object":"p","notes":"","placename":"Tuzla, Bosnia and Herzegovina","id":6078,"name":"origin","lat":"44.532841","lon":"18.6705","hops":{"incoming":[],"outgoing":[{"transport_id":"3","id":"3818","transport_name":"truck, 40 tons","transport_description":"truck, half full","transport_unit":"kg km","transport_co2_eq":"0.030900","from_stop_id":"6078","from_stop_lat":"44.532841","from_stop_lon":"18.6705","from_stop_placename":"Tuzla, Bosnia and Herzegovina","to_stop_id":"1784","to_stop_name":"origin","to_stop_lat":"45.814912","to_stop_lon":"15.9785145","to_stop_placename":"City of Zagreb, Croatia","to_stop":{"id":"1784","name":"origin","lat":"45.814912","lon":"15.9785145","placename":"City of Zagreb, Croatia"},"from_stop":{"name":"origin","id":"6078","lat":"44.532841","lon":"18.6705","placename":"Tuzla, Bosnia and Herzegovina"}}]}}},"processes":[],"eols":[]},{"oid":"4009","imid":"4035","linkid":"parts\/black-and-white-pepper","weight":"0","rawemissions":"3.57","emissions":"0","shipping":"890.3","processemissions":"0","endoflifeemissions":"0","disposaltype":null,"disposalenergy":null,"disposalimpact":null,"disposalemissions":null,"description":"","name":"Black Pepper","id":"4035","stops":{"origin":{"related_to":"4035","part_or_object":"p","notes":"","placename":"Greece","id":6079,"name":"origin","lat":"39.074208","lon":"21.824312","hops":{"incoming":[],"outgoing":[{"transport_id":"9","id":"3819","transport_name":"container ship","transport_description":"moving boxcar size containers","transport_unit":"kg km","transport_co2_eq":"0.047800","from_stop_id":"6079","from_stop_lat":"39.074208","from_stop_lon":"21.824312","from_stop_placename":"Greece","to_stop_id":"1784","to_stop_name":"origin","to_stop_lat":"45.814912","to_stop_lon":"15.9785145","to_stop_placename":"City of Zagreb, Croatia","to_stop":{"id":"1784","name":"origin","lat":"45.814912","lon":"15.9785145","placename":"City of Zagreb, Croatia"},"from_stop":{"name":"origin","id":"6079","lat":"39.074208","lon":"21.824312","placename":"Greece"}}]}}},"processes":[],"eols":[]},{"oid":"4009","imid":"4036","linkid":"","weight":"0","rawemissions":"0","emissions":"0","shipping":"1436.17","processemissions":"0","endoflifeemissions":"0","disposaltype":null,"disposalenergy":null,"disposalimpact":null,"disposalemissions":null,"description":"","name":"Rosemary","id":"4036","stops":{"origin":{"related_to":"4036","part_or_object":"p","notes":"","placename":"Tunisia","id":6080,"name":"origin","lat":"33.886917","lon":"9.537499","hops":{"incoming":[],"outgoing":[{"transport_id":"9","id":"3820","transport_name":"container ship","transport_description":"moving boxcar size containers","transport_unit":"kg km","transport_co2_eq":"0.047800","from_stop_id":"6080","from_stop_lat":"33.886917","from_stop_lon":"9.537499","from_stop_placename":"Tunisia","to_stop_id":"1784","to_stop_name":"origin","to_stop_lat":"45.814912","to_stop_lon":"15.9785145","to_stop_placename":"City of Zagreb, Croatia","to_stop":{"id":"1784","name":"origin","lat":"45.814912","lon":"15.9785145","placename":"City of Zagreb, Croatia"},"from_stop":{"name":"origin","id":"6080","lat":"33.886917","lon":"9.537499","placename":"Tunisia"}}]}}},"processes":[],"eols":[]},{"oid":"4009","imid":"4037","linkid":"","weight":"0","rawemissions":"0","emissions":"0","shipping":"1751.92","processemissions":"0","endoflifeemissions":"0","disposaltype":null,"disposalenergy":null,"disposalimpact":null,"disposalemissions":null,"description":"","name":"Oregano","id":"4037","stops":{"origin":{"related_to":"4037","part_or_object":"p","notes":"","placename":"Turkey","id":6081,"name":"origin","lat":"38.963745","lon":"35.243322","hops":{"incoming":[],"outgoing":[{"transport_id":"9","id":"3821","transport_name":"container ship","transport_description":"moving boxcar size containers","transport_unit":"kg km","transport_co2_eq":"0.047800","from_stop_id":"6081","from_stop_lat":"38.963745","from_stop_lon":"35.243322","from_stop_placename":"Turkey","to_stop_id":"1784","to_stop_name":"origin","to_stop_lat":"45.814912","to_stop_lon":"15.9785145","to_stop_placename":"City of Zagreb, Croatia","to_stop":{"id":"1784","name":"origin","lat":"45.814912","lon":"15.9785145","placename":"City of Zagreb, Croatia"},"from_stop":{"name":"origin","id":"6081","lat":"38.963745","lon":"35.243322","placename":"Turkey"}}]}}},"processes":[],"eols":[]},{"oid":"4009","imid":"4038","linkid":"parts\/pasta-5","weight":"1","rawemissions":"4.28","emissions":"4.28","shipping":"517.25","processemissions":"0","endoflifeemissions":"0","disposaltype":null,"disposalenergy":null,"disposalimpact":null,"disposalemissions":null,"description":"","name":"Pasta","id":"4038","stops":{"origin":{"related_to":"4038","part_or_object":"p","notes":"","placename":"Italy","id":6082,"name":"origin","lat":"41.87194","lon":"12.56738","hops":{"incoming":[],"outgoing":[{"transport_id":"2","id":"3822","transport_name":"truck, 16 tons","transport_description":"truck, half full","transport_unit":"kg km","transport_co2_eq":"0.020300","from_stop_id":"6082","from_stop_lat":"41.87194","from_stop_lon":"12.56738","from_stop_placename":"Italy","to_stop_id":"1784","to_stop_name":"origin","to_stop_lat":"45.814912","to_stop_lon":"15.9785145","to_stop_placename":"City of Zagreb, Croatia","to_stop":{"id":"1784","name":"origin","lat":"45.814912","lon":"15.9785145","placename":"City of Zagreb, Croatia"},"from_stop":{"name":"origin","id":"6082","lat":"41.87194","lon":"12.56738","placename":"Italy"}}]}}},"processes":[],"eols":[]},{"oid":"4009","imid":"4039","linkid":"","weight":"0","rawemissions":"0","emissions":"0","shipping":"8378.39","processemissions":"0","endoflifeemissions":"0","disposaltype":null,"disposalenergy":null,"disposalimpact":null,"disposalemissions":null,"description":"","name":"Tuna","id":"4039","stops":{"origin":{"related_to":"4039","part_or_object":"p","notes":"","placename":"Thailand","id":6083,"name":"origin","lat":"15.870032","lon":"100.992541","hops":{"incoming":[],"outgoing":[{"transport_id":"9","id":"3823","transport_name":"container ship","transport_description":"moving boxcar size containers","transport_unit":"kg km","transport_co2_eq":"0.047800","from_stop_id":"6083","from_stop_lat":"15.870032","from_stop_lon":"100.992541","from_stop_placename":"Thailand","to_stop_id":"1784","to_stop_name":"origin","to_stop_lat":"45.814912","to_stop_lon":"15.9785145","to_stop_placename":"City of Zagreb, Croatia","to_stop":{"id":"1784","name":"origin","lat":"45.814912","lon":"15.9785145","placename":"City of Zagreb, Croatia"},"from_stop":{"name":"origin","id":"6083","lat":"15.870032","lon":"100.992541","placename":"Thailand"}}]}}},"processes":[],"eols":[]},{"oid":"4009","imid":"4040","linkid":"parts\/tomatoes","weight":"0","rawemissions":"1.03","emissions":"0","shipping":"517.25","processemissions":"0","endoflifeemissions":"0","disposaltype":null,"disposalenergy":null,"disposalimpact":null,"disposalemissions":null,"description":"","name":"Tomatoes","id":"4040","stops":{"origin":{"related_to":"4040","part_or_object":"p","notes":"","placename":"Italy","id":6084,"name":"origin","lat":"41.87194","lon":"12.56738","hops":{"incoming":[],"outgoing":[{"transport_id":"2","id":"3824","transport_name":"truck, 16 tons","transport_description":"truck, half full","transport_unit":"kg km","transport_co2_eq":"0.020300","from_stop_id":"6084","from_stop_lat":"41.87194","from_stop_lon":"12.56738","from_stop_placename":"Italy","to_stop_id":"1784","to_stop_name":"origin","to_stop_lat":"45.814912","to_stop_lon":"15.9785145","to_stop_placename":"City of Zagreb, Croatia","to_stop":{"id":"1784","name":"origin","lat":"45.814912","lon":"15.9785145","placename":"City of Zagreb, Croatia"},"from_stop":{"name":"origin","id":"6084","lat":"41.87194","lon":"12.56738","placename":"Italy"}}]}}},"processes":[],"eols":[]},{"oid":"4009","imid":"4041","linkid":"parts\/cucumbers","weight":"0","rawemissions":"0.53","emissions":"0","shipping":"142.89","processemissions":"0","endoflifeemissions":"0","disposaltype":null,"disposalenergy":null,"disposalimpact":null,"disposalemissions":null,"description":"","name":"Cucumbers","id":"4041","stops":{"origin":{"related_to":"4041","part_or_object":"p","notes":"","placename":"Po\u017eega, Croatia","id":6085,"name":"origin","lat":"45.3310767","lon":"17.6769784","hops":{"incoming":[],"outgoing":[{"transport_id":"17","id":"3825","transport_name":"None Selected","transport_description":null,"transport_unit":"kg km","transport_co2_eq":"0.000000","from_stop_id":"6085","from_stop_lat":"45.3310767","from_stop_lon":"17.6769784","from_stop_placename":"Po\u017eega, Croatia","to_stop_id":"1784","to_stop_name":"origin","to_stop_lat":"45.814912","to_stop_lon":"15.9785145","to_stop_placename":"City of Zagreb, Croatia","to_stop":{"id":"1784","name":"origin","lat":"45.814912","lon":"15.9785145","placename":"City of Zagreb, Croatia"},"from_stop":{"name":"origin","id":"6085","lat":"45.3310767","lon":"17.6769784","placename":"Po\u017eega, Croatia"}}]}}},"processes":[],"eols":[]},{"oid":"4009","imid":"4042","linkid":"parts\/bananas","weight":"1","rawemissions":"2.93","emissions":"2.93","shipping":"10487.8","processemissions":"0","endoflifeemissions":"0","disposaltype":null,"disposalenergy":null,"disposalimpact":null,"disposalemissions":null,"description":"","name":"Bananas","id":"4042","stops":{"origin":{"related_to":"4042","part_or_object":"p","notes":"","placename":"Ecuador","id":6086,"name":"origin","lat":"-1.831239","lon":"-78.183406","hops":{"incoming":[],"outgoing":[{"transport_id":"17","id":"3826","transport_name":"None Selected","transport_description":null,"transport_unit":"kg km","transport_co2_eq":"0.000000","from_stop_id":"6086","from_stop_lat":"-1.831239","from_stop_lon":"-78.183406","from_stop_placename":"Ecuador","to_stop_id":"1784","to_stop_name":"origin","to_stop_lat":"45.814912","to_stop_lon":"15.9785145","to_stop_placename":"City of Zagreb, Croatia","to_stop":{"id":"1784","name":"origin","lat":"45.814912","lon":"15.9785145","placename":"City of Zagreb, Croatia"},"from_stop":{"name":"origin","id":"6086","lat":"-1.831239","lon":"-78.183406","placename":"Ecuador"}}]}}},"processes":[],"eols":[]},{"oid":"4009","imid":"4043","linkid":"parts\/table-grapes","weight":"1","rawemissions":"0.74","emissions":"0.74","shipping":"198.24","processemissions":"0","endoflifeemissions":"0","disposaltype":null,"disposalenergy":null,"disposalimpact":null,"disposalemissions":null,"description":"","name":"Grapes, Table","id":"4043","stops":{"origin":{"related_to":"4043","part_or_object":"p","notes":"","placename":"Zadar, Croatia","id":6087,"name":"origin","lat":"44.1148781","lon":"15.2289514","hops":{"incoming":[],"outgoing":[{"transport_id":"17","id":"3827","transport_name":"None Selected","transport_description":null,"transport_unit":"kg km","transport_co2_eq":"0.000000","from_stop_id":"6087","from_stop_lat":"44.1148781","from_stop_lon":"15.2289514","from_stop_placename":"Zadar, Croatia","to_stop_id":"1784","to_stop_name":"origin","to_stop_lat":"45.814912","to_stop_lon":"15.9785145","to_stop_placename":"City of Zagreb, Croatia","to_stop":{"id":"1784","name":"origin","lat":"45.814912","lon":"15.9785145","placename":"City of Zagreb, Croatia"},"from_stop":{"name":"origin","id":"6087","lat":"44.1148781","lon":"15.2289514","placename":"Zadar, Croatia"}}]}}},"processes":[],"eols":[]},{"oid":"4009","imid":"4044","linkid":"parts\/peaches","weight":"1","rawemissions":"0.82","emissions":"0.82","shipping":"198.24","processemissions":"0","endoflifeemissions":"0","disposaltype":null,"disposalenergy":null,"disposalimpact":null,"disposalemissions":null,"description":"","name":"Peaches","id":"4044","stops":{"origin":{"related_to":"4044","part_or_object":"p","notes":"","placename":"Zadar, Croatia","id":6088,"name":"origin","lat":"44.1148781","lon":"15.2289514","hops":{"incoming":[],"outgoing":[{"transport_id":"17","id":"3828","transport_name":"None Selected","transport_description":null,"transport_unit":"kg km","transport_co2_eq":"0.000000","from_stop_id":"6088","from_stop_lat":"44.1148781","from_stop_lon":"15.2289514","from_stop_placename":"Zadar, Croatia","to_stop_id":"1784","to_stop_name":"origin","to_stop_lat":"45.814912","to_stop_lon":"15.9785145","to_stop_placename":"City of Zagreb, Croatia","to_stop":{"id":"1784","name":"origin","lat":"45.814912","lon":"15.9785145","placename":"City of Zagreb, Croatia"},"from_stop":{"name":"origin","id":"6088","lat":"44.1148781","lon":"15.2289514","placename":"Zadar, Croatia"}}]}}},"processes":[],"eols":[]}],"user":{"name":"RuzaHrvatska","id":"10393"}}}