{"4023":{"oid":"4023","type":"trace","flag":"","creator":"10432","name":"Adidas Jabulani","upc":"","imagelink":"","description":"Official match ball for the 2010 FIFA World Cup","slug":"adidas-jabulani","category":"","weight":"0","emissions":"0","embodied":"0","transport":"0","process":"0","endoflife":"0","shipping":"51127.82","lifetime":null,"usagetype":"","usageenergy":null,"usageemissions":null,"timecreated":"2010-08-24 03:59:19.316752","timemodified":"2010-08-24 08:15:38","visibility":"public","showfootprint":"on","showembodied":"on","showtransport":"on","showprocess":"on","showendoflife":"on","showlastleg":"on","showuse":"on","showstats":"on","stops":{"origin":{"related_to":"4023","part_or_object":"o","notes":"","placename":"Loughborough, Leicestershire LE11 3, Zdru\u00c5\u00beeno kraljestvo","id":"1793","category":"1","lat":"52.7552324","lon":"-1.2353825","name":"origin","hops":{"incoming":[{"transport_id":"17","id":"3841","transport_name":"None Selected","transport_description":null,"transport_unit":"kg km","transport_co2_eq":"0.000000","from_stop_id":"6101","from_stop_lat":"23.69781","from_stop_lon":"120.960515","to_stop_id":"1793","to_stop_name":"origin","to_stop_lat":"52.7552324","placename":"Tajvan","to_stop_lon":"-1.2353825","to_stop":{"id":"1793","name":"origin","lat":"52.7552324","placename":"Loughborough, Leicestershire LE11 3, Zdru\u00c5\u00beeno kraljestvo","lon":"-1.2353825"},"from_stop":{"name":"origin","id":"6101","lat":"23.69781","lon":"120.960515","placename":"Tajvan"}},{"transport_id":"17","id":"3843","transport_name":"None Selected","transport_description":null,"transport_unit":"kg km","transport_co2_eq":"0.000000","from_stop_id":"6103","from_stop_lat":"20.593684","from_stop_lon":"78.96288","to_stop_id":"1793","to_stop_name":"origin","to_stop_lat":"52.7552324","placename":"Indija","to_stop_lon":"-1.2353825","to_stop":{"id":"1793","name":"origin","lat":"52.7552324","placename":"Loughborough, Leicestershire LE11 3, Zdru\u00c5\u00beeno kraljestvo","lon":"-1.2353825"},"from_stop":{"name":"origin","id":"6103","lat":"20.593684","lon":"78.96288","placename":"Indija"}},{"transport_id":"17","id":"3844","transport_name":"None Selected","transport_description":null,"transport_unit":"kg km","transport_co2_eq":"0.000000","from_stop_id":"6104","from_stop_lat":"35.86166","from_stop_lon":"104.195397","to_stop_id":"1793","to_stop_name":"origin","to_stop_lat":"52.7552324","placename":"Kitajska","to_stop_lon":"-1.2353825","to_stop":{"id":"1793","name":"origin","lat":"52.7552324","placename":"Loughborough, Leicestershire LE11 3, Zdru\u00c5\u00beeno kraljestvo","lon":"-1.2353825"},"from_stop":{"name":"origin","id":"6104","lat":"35.86166","lon":"104.195397","placename":"Kitajska"}},{"transport_id":"17","id":"3845","transport_name":"None Selected","transport_description":null,"transport_unit":"kg km","transport_co2_eq":"0.000000","from_stop_id":"6105","from_stop_lat":"35.86166","from_stop_lon":"104.195397","to_stop_id":"1793","to_stop_name":"origin","to_stop_lat":"52.7552324","placename":"Kitajska","to_stop_lon":"-1.2353825","to_stop":{"id":"1793","name":"origin","lat":"52.7552324","placename":"Loughborough, Leicestershire LE11 3, Zdru\u00c5\u00beeno kraljestvo","lon":"-1.2353825"},"from_stop":{"name":"origin","id":"6105","lat":"35.86166","lon":"104.195397","placename":"Kitajska"}},{"transport_id":"17","id":"3846","transport_name":"None Selected","transport_description":null,"transport_unit":"kg km","transport_co2_eq":"0.000000","from_stop_id":"6106","from_stop_lat":"35.86166","from_stop_lon":"104.195397","to_stop_id":"1793","to_stop_name":"origin","to_stop_lat":"52.7552324","placename":"Kitajska","to_stop_lon":"-1.2353825","to_stop":{"id":"1793","name":"origin","lat":"52.7552324","placename":"Loughborough, Leicestershire LE11 3, Zdru\u00c5\u00beeno kraljestvo","lon":"-1.2353825"},"from_stop":{"name":"origin","id":"6106","lat":"35.86166","lon":"104.195397","placename":"Kitajska"}},{"transport_id":"17","id":"3847","transport_name":"None Selected","transport_description":null,"transport_unit":"kg km","transport_co2_eq":"0.000000","from_stop_id":"6107","from_stop_lat":"36.204824","from_stop_lon":"138.252924","to_stop_id":"1793","to_stop_name":"origin","to_stop_lat":"52.7552324","placename":"Japonska","to_stop_lon":"-1.2353825","to_stop":{"id":"1793","name":"origin","lat":"52.7552324","placename":"Loughborough, Leicestershire LE11 3, Zdru\u00c5\u00beeno kraljestvo","lon":"-1.2353825"},"from_stop":{"name":"origin","id":"6107","lat":"36.204824","lon":"138.252924","placename":"Japonska"}},{"transport_id":"17","id":"3848","transport_name":"None Selected","transport_description":null,"transport_unit":"kg km","transport_co2_eq":"0.000000","from_stop_id":"6108","from_stop_lat":"51.165691","from_stop_lon":"10.451526","to_stop_id":"1793","to_stop_name":"origin","to_stop_lat":"52.7552324","placename":"Nem\u00c4\u008dija","to_stop_lon":"-1.2353825","to_stop":{"id":"1793","name":"origin","lat":"52.7552324","placename":"Loughborough, Leicestershire LE11 3, Zdru\u00c5\u00beeno kraljestvo","lon":"-1.2353825"},"from_stop":{"name":"origin","id":"6108","lat":"51.165691","lon":"10.451526","placename":"Nem\u00c4\u008dija"}}],"outgoing":[]}}},"parts":[{"oid":"4023","imid":"4063","linkid":"","weight":"0","rawemissions":"0","emissions":"0","shipping":"9861.42","processemissions":"0","endoflifeemissions":"0","disposaltype":null,"disposalenergy":null,"disposalimpact":null,"disposalemissions":null,"description":"","name":"Thermoplastic polyurethane-elastomer,TPU 0.3 mm","id":"4063","stops":{"origin":{"related_to":"4063","part_or_object":"p","notes":"","placename":"Tajvan","id":6101,"name":"origin","lat":"23.69781","lon":"120.960515","hops":{"incoming":[],"outgoing":[{"transport_id":"17","id":"3841","transport_name":"None Selected","transport_description":null,"transport_unit":"kg km","transport_co2_eq":"0.000000","from_stop_id":"6101","from_stop_lat":"23.69781","from_stop_lon":"120.960515","from_stop_placename":"Tajvan","to_stop_id":"1793","to_stop_name":"origin","to_stop_lat":"52.7552324","to_stop_lon":"-1.2353825","to_stop_placename":"Loughborough, Leicestershire LE11 3, Zdru\u00c5\u00beeno kraljestvo","to_stop":{"id":"1793","name":"origin","lat":"52.7552324","lon":"-1.2353825","placename":"Loughborough, Leicestershire LE11 3, Zdru\u00c5\u00beeno kraljestvo"},"from_stop":{"name":"origin","id":"6101","lat":"23.69781","lon":"120.960515","placename":"Tajvan"}}]}}},"processes":[],"eols":[]},{"oid":"4023","imid":"4064","linkid":"","weight":"0","rawemissions":"0","emissions":"0","shipping":"7557.02","processemissions":"0","endoflifeemissions":"0","disposaltype":null,"disposalenergy":null,"disposalimpact":null,"disposalemissions":null,"description":"","name":"Latex bladder","id":"4064","stops":{"origin":{"related_to":"4064","part_or_object":"p","notes":"","placename":"Indija","id":6103,"name":"origin","lat":"20.593684","lon":"78.96288","hops":{"incoming":[],"outgoing":[{"transport_id":"17","id":"3843","transport_name":"None Selected","transport_description":null,"transport_unit":"kg km","transport_co2_eq":"0.000000","from_stop_id":"6103","from_stop_lat":"20.593684","from_stop_lon":"78.96288","from_stop_placename":"Indija","to_stop_id":"1793","to_stop_name":"origin","to_stop_lat":"52.7552324","to_stop_lon":"-1.2353825","to_stop_placename":"Loughborough, Leicestershire LE11 3, Zdru\u00c5\u00beeno kraljestvo","to_stop":{"id":"1793","name":"origin","lat":"52.7552324","lon":"-1.2353825","placename":"Loughborough, Leicestershire LE11 3, Zdru\u00c5\u00beeno kraljestvo"},"from_stop":{"name":"origin","id":"6103","lat":"20.593684","lon":"78.96288","placename":"Indija"}}]}}},"processes":[],"eols":[]},{"oid":"4023","imid":"4065","linkid":"","weight":"0","rawemissions":"0","emissions":"0","shipping":"7834.21","processemissions":"0","endoflifeemissions":"0","disposaltype":null,"disposalenergy":null,"disposalimpact":null,"disposalemissions":null,"description":"","name":"Ethylene vinyl acetate,EVA 3.5 mm","id":"4065","stops":{"origin":{"related_to":"4065","part_or_object":"p","notes":"","placename":"Kitajska","id":6104,"name":"origin","lat":"35.86166","lon":"104.195397","hops":{"incoming":[],"outgoing":[{"transport_id":"17","id":"3844","transport_name":"None Selected","transport_description":null,"transport_unit":"kg km","transport_co2_eq":"0.000000","from_stop_id":"6104","from_stop_lat":"35.86166","from_stop_lon":"104.195397","from_stop_placename":"Kitajska","to_stop_id":"1793","to_stop_name":"origin","to_stop_lat":"52.7552324","to_stop_lon":"-1.2353825","to_stop_placename":"Loughborough, Leicestershire LE11 3, Zdru\u00c5\u00beeno kraljestvo","to_stop":{"id":"1793","name":"origin","lat":"52.7552324","lon":"-1.2353825","placename":"Loughborough, Leicestershire LE11 3, Zdru\u00c5\u00beeno kraljestvo"},"from_stop":{"name":"origin","id":"6104","lat":"35.86166","lon":"104.195397","placename":"Kitajska"}}]}}},"processes":[],"eols":[]},{"oid":"4023","imid":"4066","linkid":"","weight":"0","rawemissions":"0","emissions":"0","shipping":"7834.21","processemissions":"0","endoflifeemissions":"0","disposaltype":null,"disposalenergy":null,"disposalimpact":null,"disposalemissions":null,"description":"","name":"Isotropic polyester\/cotton fabric","id":"4066","stops":{"origin":{"related_to":"4066","part_or_object":"p","notes":"","placename":"Kitajska","id":6105,"name":"origin","lat":"35.86166","lon":"104.195397","hops":{"incoming":[],"outgoing":[{"transport_id":"17","id":"3845","transport_name":"None Selected","transport_description":null,"transport_unit":"kg km","transport_co2_eq":"0.000000","from_stop_id":"6105","from_stop_lat":"35.86166","from_stop_lon":"104.195397","from_stop_placename":"Kitajska","to_stop_id":"1793","to_stop_name":"origin","to_stop_lat":"52.7552324","to_stop_lon":"-1.2353825","to_stop_placename":"Loughborough, Leicestershire LE11 3, Zdru\u00c5\u00beeno kraljestvo","to_stop":{"id":"1793","name":"origin","lat":"52.7552324","lon":"-1.2353825","placename":"Loughborough, Leicestershire LE11 3, Zdru\u00c5\u00beeno kraljestvo"},"from_stop":{"name":"origin","id":"6105","lat":"35.86166","lon":"104.195397","placename":"Kitajska"}}]}}},"processes":[],"eols":[]},{"oid":"4023","imid":"4067","linkid":"","weight":"0","rawemissions":"0","emissions":"0","shipping":"7834.21","processemissions":"0","endoflifeemissions":"0","disposaltype":null,"disposalenergy":null,"disposalimpact":null,"disposalemissions":null,"description":"","name":"Ink (11 colours)","id":"4067","stops":{"origin":{"related_to":"4067","part_or_object":"p","notes":"","placename":"Kitajska","id":6106,"name":"origin","lat":"35.86166","lon":"104.195397","hops":{"incoming":[],"outgoing":[{"transport_id":"17","id":"3846","transport_name":"None Selected","transport_description":null,"transport_unit":"kg km","transport_co2_eq":"0.000000","from_stop_id":"6106","from_stop_lat":"35.86166","from_stop_lon":"104.195397","from_stop_placename":"Kitajska","to_stop_id":"1793","to_stop_name":"origin","to_stop_lat":"52.7552324","to_stop_lon":"-1.2353825","to_stop_placename":"Loughborough, Leicestershire LE11 3, Zdru\u00c5\u00beeno kraljestvo","to_stop":{"id":"1793","name":"origin","lat":"52.7552324","lon":"-1.2353825","placename":"Loughborough, Leicestershire LE11 3, Zdru\u00c5\u00beeno kraljestvo"},"from_stop":{"name":"origin","id":"6106","lat":"35.86166","lon":"104.195397","placename":"Kitajska"}}]}}},"processes":[],"eols":[]},{"oid":"4023","imid":"4068","linkid":"","weight":"0","rawemissions":"0","emissions":"0","shipping":"9386.77","processemissions":"0","endoflifeemissions":"0","disposaltype":null,"disposalenergy":null,"disposalimpact":null,"disposalemissions":null,"description":"","name":"Glue","id":"4068","stops":{"origin":{"related_to":"4068","part_or_object":"p","notes":"","placename":"Japonska","id":6107,"name":"origin","lat":"36.204824","lon":"138.252924","hops":{"incoming":[],"outgoing":[{"transport_id":"17","id":"3847","transport_name":"None Selected","transport_description":null,"transport_unit":"kg km","transport_co2_eq":"0.000000","from_stop_id":"6107","from_stop_lat":"36.204824","from_stop_lon":"138.252924","from_stop_placename":"Japonska","to_stop_id":"1793","to_stop_name":"origin","to_stop_lat":"52.7552324","to_stop_lon":"-1.2353825","to_stop_placename":"Loughborough, Leicestershire LE11 3, Zdru\u00c5\u00beeno kraljestvo","to_stop":{"id":"1793","name":"origin","lat":"52.7552324","lon":"-1.2353825","placename":"Loughborough, Leicestershire LE11 3, Zdru\u00c5\u00beeno kraljestvo"},"from_stop":{"name":"origin","id":"6107","lat":"36.204824","lon":"138.252924","placename":"Japonska"}}]}}},"processes":[],"eols":[]},{"oid":"4023","imid":"4069","linkid":"","weight":"0","rawemissions":"0","emissions":"0","shipping":"819.98","processemissions":"0","endoflifeemissions":"0","disposaltype":null,"disposalenergy":null,"disposalimpact":null,"disposalemissions":null,"description":"Mesurments and analysis of the ball.","name":"Adidas offical laboratory","id":"4069","stops":{"origin":{"related_to":"4069","part_or_object":"p","notes":"","placename":"Nem\u00c4\u008dija","id":6108,"name":"origin","lat":"51.165691","lon":"10.451526","hops":{"incoming":[],"outgoing":[{"transport_id":"17","id":"3848","transport_name":"None Selected","transport_description":null,"transport_unit":"kg km","transport_co2_eq":"0.000000","from_stop_id":"6108","from_stop_lat":"51.165691","from_stop_lon":"10.451526","from_stop_placename":"Nem\u00c4\u008dija","to_stop_id":"1793","to_stop_name":"origin","to_stop_lat":"52.7552324","to_stop_lon":"-1.2353825","to_stop_placename":"Loughborough, Leicestershire LE11 3, Zdru\u00c5\u00beeno kraljestvo","to_stop":{"id":"1793","name":"origin","lat":"52.7552324","lon":"-1.2353825","placename":"Loughborough, Leicestershire LE11 3, Zdru\u00c5\u00beeno kraljestvo"},"from_stop":{"name":"origin","id":"6108","lat":"51.165691","lon":"10.451526","placename":"Nem\u00c4\u008dija"}}]}}},"processes":[],"eols":[]}],"user":{"name":"Zoran86","id":"10432"}}}