{"4037":{"oid":"4037","type":"food","flag":"","creator":"10443","name":"Ice Coffee","upc":"","imagelink":"","description":"If it's really hot outside and you want to cool down but still get your caffeine and coffee flavor, ice coffee is the way to go.","slug":"ice-coffee","category":"","weight":"1.185","emissions":"0","embodied":"0","transport":"0","process":"0","endoflife":"0","shipping":"2989.21","lifetime":null,"usagetype":"","usageenergy":null,"usageemissions":null,"timecreated":"2010-08-25 05:46:10.598025","timemodified":"2010-08-25 10:06:37","visibility":"public","showfootprint":"on","showembodied":"on","showtransport":"on","showprocess":"on","showendoflife":"on","showlastleg":"on","showuse":"on","showstats":"on","stops":{"origin":{"related_to":"4037","part_or_object":"o","notes":"","placename":"Roga\u0161ka Slatina, Republika Slovenija","id":"1814","category":"1","lat":"46.2256738","lon":"15.6393524","name":"origin","hops":{"incoming":[{"transport_id":"17","id":"3863","transport_name":"None Selected","transport_description":null,"transport_unit":"kg km","transport_co2_eq":"0.000000","from_stop_id":"6123","from_stop_lat":"46.151241","from_stop_lon":"14.995463","to_stop_id":"1814","to_stop_name":"origin","to_stop_lat":"46.2256738","placename":"Slovenija","to_stop_lon":"15.6393524","to_stop":{"id":"1814","name":"origin","lat":"46.2256738","placename":"Roga\u0161ka Slatina, Republika Slovenija","lon":"15.6393524"},"from_stop":{"name":"origin","id":"6123","lat":"46.151241","lon":"14.995463","placename":"Slovenija"}},{"transport_id":"17","id":"3864","transport_name":"None Selected","transport_description":null,"transport_unit":"kg km","transport_co2_eq":"0.000000","from_stop_id":"6124","from_stop_lat":"45.1","from_stop_lon":"15.2","to_stop_id":"1814","to_stop_name":"origin","to_stop_lat":"46.2256738","placename":"Hrva\u0161ka","to_stop_lon":"15.6393524","to_stop":{"id":"1814","name":"origin","lat":"46.2256738","placename":"Roga\u0161ka Slatina, Republika Slovenija","lon":"15.6393524"},"from_stop":{"name":"origin","id":"6124","lat":"45.1","lon":"15.2","placename":"Hrva\u0161ka"}},{"transport_id":"17","id":"3865","transport_name":"None Selected","transport_description":null,"transport_unit":"kg km","transport_co2_eq":"0.000000","from_stop_id":"6125","from_stop_lat":"46.151241","from_stop_lon":"14.995463","to_stop_id":"1814","to_stop_name":"origin","to_stop_lat":"46.2256738","placename":"Slovenija","to_stop_lon":"15.6393524","to_stop":{"id":"1814","name":"origin","lat":"46.2256738","placename":"Roga\u0161ka Slatina, Republika Slovenija","lon":"15.6393524"},"from_stop":{"name":"origin","id":"6125","lat":"46.151241","lon":"14.995463","placename":"Slovenija"}},{"transport_id":"17","id":"3866","transport_name":"None Selected","transport_description":null,"transport_unit":"kg km","transport_co2_eq":"0.000000","from_stop_id":"6126","from_stop_lat":"55.378051","from_stop_lon":"-3.435973","to_stop_id":"1814","to_stop_name":"origin","to_stop_lat":"46.2256738","placename":"Zdru\u017eeno kraljestvo","to_stop_lon":"15.6393524","to_stop":{"id":"1814","name":"origin","lat":"46.2256738","placename":"Roga\u0161ka Slatina, Republika Slovenija","lon":"15.6393524"},"from_stop":{"name":"origin","id":"6126","lat":"55.378051","lon":"-3.435973","placename":"Zdru\u017eeno kraljestvo"}},{"transport_id":"17","id":"3867","transport_name":"None Selected","transport_description":null,"transport_unit":"kg km","transport_co2_eq":"0.000000","from_stop_id":"6127","from_stop_lat":"46.227638","from_stop_lon":"2.213749","to_stop_id":"1814","to_stop_name":"origin","to_stop_lat":"46.2256738","placename":"Francija","to_stop_lon":"15.6393524","to_stop":{"id":"1814","name":"origin","lat":"46.2256738","placename":"Roga\u0161ka Slatina, Republika Slovenija","lon":"15.6393524"},"from_stop":{"name":"origin","id":"6127","lat":"46.227638","lon":"2.213749","placename":"Francija"}},{"transport_id":"17","id":"3868","transport_name":"None Selected","transport_description":null,"transport_unit":"kg km","transport_co2_eq":"0.000000","from_stop_id":"6128","from_stop_lat":"46.151241","from_stop_lon":"14.995463","to_stop_id":"1814","to_stop_name":"origin","to_stop_lat":"46.2256738","placename":"Slovenija","to_stop_lon":"15.6393524","to_stop":{"id":"1814","name":"origin","lat":"46.2256738","placename":"Roga\u0161ka Slatina, Republika Slovenija","lon":"15.6393524"},"from_stop":{"name":"origin","id":"6128","lat":"46.151241","lon":"14.995463","placename":"Slovenija"}}],"outgoing":[]}}},"parts":[{"oid":"4037","imid":"4083","linkid":"","weight":"1","rawemissions":"0","emissions":"0","shipping":"50.31","processemissions":"0","endoflifeemissions":"0","disposaltype":null,"disposalenergy":null,"disposalimpact":null,"disposalemissions":null,"description":"","name":"Water","id":"4083","stops":{"origin":{"related_to":"4083","part_or_object":"p","notes":"","placename":"Slovenija","id":6123,"name":"origin","lat":"46.151241","lon":"14.995463","hops":{"incoming":[],"outgoing":[{"transport_id":"17","id":"3863","transport_name":"None Selected","transport_description":null,"transport_unit":"kg km","transport_co2_eq":"0.000000","from_stop_id":"6123","from_stop_lat":"46.151241","from_stop_lon":"14.995463","from_stop_placename":"Slovenija","to_stop_id":"1814","to_stop_name":"origin","to_stop_lat":"46.2256738","to_stop_lon":"15.6393524","to_stop_placename":"Roga\u0161ka Slatina, Republika Slovenija","to_stop":{"id":"1814","name":"origin","lat":"46.2256738","lon":"15.6393524","placename":"Roga\u0161ka Slatina, Republika Slovenija"},"from_stop":{"name":"origin","id":"6123","lat":"46.151241","lon":"14.995463","placename":"Slovenija"}}]}}},"processes":[],"eols":[]},{"oid":"4037","imid":"4084","linkid":"","weight":"0.08","rawemissions":"0","emissions":"0","shipping":"129.89","processemissions":"0","endoflifeemissions":"0","disposaltype":null,"disposalenergy":null,"disposalimpact":null,"disposalemissions":null,"description":"","name":"Sugar","id":"4084","stops":{"origin":{"related_to":"4084","part_or_object":"p","notes":"","placename":"Hrva\u0161ka","id":6124,"name":"origin","lat":"45.1","lon":"15.2","hops":{"incoming":[],"outgoing":[{"transport_id":"17","id":"3864","transport_name":"None Selected","transport_description":null,"transport_unit":"kg km","transport_co2_eq":"0.000000","from_stop_id":"6124","from_stop_lat":"45.1","from_stop_lon":"15.2","from_stop_placename":"Hrva\u0161ka","to_stop_id":"1814","to_stop_name":"origin","to_stop_lat":"46.2256738","to_stop_lon":"15.6393524","to_stop_placename":"Roga\u0161ka Slatina, Republika Slovenija","to_stop":{"id":"1814","name":"origin","lat":"46.2256738","lon":"15.6393524","placename":"Roga\u0161ka Slatina, Republika Slovenija"},"from_stop":{"name":"origin","id":"6124","lat":"45.1","lon":"15.2","placename":"Hrva\u0161ka"}}]}}},"processes":[],"eols":[]},{"oid":"4037","imid":"4085","linkid":"","weight":"0.04","rawemissions":"0","emissions":"0","shipping":"50.31","processemissions":"0","endoflifeemissions":"0","disposaltype":null,"disposalenergy":null,"disposalimpact":null,"disposalemissions":null,"description":"","name":"Coffee","id":"4085","stops":{"origin":{"related_to":"4085","part_or_object":"p","notes":"","placename":"Slovenija","id":6125,"name":"origin","lat":"46.151241","lon":"14.995463","hops":{"incoming":[],"outgoing":[{"transport_id":"17","id":"3865","transport_name":"None Selected","transport_description":null,"transport_unit":"kg km","transport_co2_eq":"0.000000","from_stop_id":"6125","from_stop_lat":"46.151241","from_stop_lon":"14.995463","from_stop_placename":"Slovenija","to_stop_id":"1814","to_stop_name":"origin","to_stop_lat":"46.2256738","to_stop_lon":"15.6393524","to_stop_placename":"Roga\u0161ka Slatina, Republika Slovenija","to_stop":{"id":"1814","name":"origin","lat":"46.2256738","lon":"15.6393524","placename":"Roga\u0161ka Slatina, Republika Slovenija"},"from_stop":{"name":"origin","id":"6125","lat":"46.151241","lon":"14.995463","placename":"Slovenija"}}]}}},"processes":[],"eols":[]},{"oid":"4037","imid":"4086","linkid":"","weight":"0.05","rawemissions":"0","emissions":"0","shipping":"1675.7","processemissions":"0","endoflifeemissions":"0","disposaltype":null,"disposalenergy":null,"disposalimpact":null,"disposalemissions":null,"description":"","name":"Ice Cream","id":"4086","stops":{"origin":{"related_to":"4086","part_or_object":"p","notes":"","placename":"Zdru\u017eeno kraljestvo","id":6126,"name":"origin","lat":"55.378051","lon":"-3.435973","hops":{"incoming":[],"outgoing":[{"transport_id":"17","id":"3866","transport_name":"None Selected","transport_description":null,"transport_unit":"kg km","transport_co2_eq":"0.000000","from_stop_id":"6126","from_stop_lat":"55.378051","from_stop_lon":"-3.435973","from_stop_placename":"Zdru\u017eeno kraljestvo","to_stop_id":"1814","to_stop_name":"origin","to_stop_lat":"46.2256738","to_stop_lon":"15.6393524","to_stop_placename":"Roga\u0161ka Slatina, Republika Slovenija","to_stop":{"id":"1814","name":"origin","lat":"46.2256738","lon":"15.6393524","placename":"Roga\u0161ka Slatina, Republika Slovenija"},"from_stop":{"name":"origin","id":"6126","lat":"55.378051","lon":"-3.435973","placename":"Zdru\u017eeno kraljestvo"}}]}}},"processes":[],"eols":[]},{"oid":"4037","imid":"4087","linkid":"","weight":"0.005","rawemissions":"0","emissions":"0","shipping":"1032.69","processemissions":"0","endoflifeemissions":"0","disposaltype":null,"disposalenergy":null,"disposalimpact":null,"disposalemissions":null,"description":"","name":"Coffee liqueur","id":"4087","stops":{"origin":{"related_to":"4087","part_or_object":"p","notes":"","placename":"Francija","id":6127,"name":"origin","lat":"46.227638","lon":"2.213749","hops":{"incoming":[],"outgoing":[{"transport_id":"17","id":"3867","transport_name":"None Selected","transport_description":null,"transport_unit":"kg km","transport_co2_eq":"0.000000","from_stop_id":"6127","from_stop_lat":"46.227638","from_stop_lon":"2.213749","from_stop_placename":"Francija","to_stop_id":"1814","to_stop_name":"origin","to_stop_lat":"46.2256738","to_stop_lon":"15.6393524","to_stop_placename":"Roga\u0161ka Slatina, Republika Slovenija","to_stop":{"id":"1814","name":"origin","lat":"46.2256738","lon":"15.6393524","placename":"Roga\u0161ka Slatina, Republika Slovenija"},"from_stop":{"name":"origin","id":"6127","lat":"46.227638","lon":"2.213749","placename":"Francija"}}]}}},"processes":[],"eols":[]},{"oid":"4037","imid":"4088","linkid":"","weight":"0.01","rawemissions":"0","emissions":"0","shipping":"50.31","processemissions":"0","endoflifeemissions":"0","disposaltype":null,"disposalenergy":null,"disposalimpact":null,"disposalemissions":null,"description":"","name":"Sweet Cream","id":"4088","stops":{"origin":{"related_to":"4088","part_or_object":"p","notes":"","placename":"Slovenija","id":6128,"name":"origin","lat":"46.151241","lon":"14.995463","hops":{"incoming":[],"outgoing":[{"transport_id":"17","id":"3868","transport_name":"None Selected","transport_description":null,"transport_unit":"kg km","transport_co2_eq":"0.000000","from_stop_id":"6128","from_stop_lat":"46.151241","from_stop_lon":"14.995463","from_stop_placename":"Slovenija","to_stop_id":"1814","to_stop_name":"origin","to_stop_lat":"46.2256738","to_stop_lon":"15.6393524","to_stop_placename":"Roga\u0161ka Slatina, Republika Slovenija","to_stop":{"id":"1814","name":"origin","lat":"46.2256738","lon":"15.6393524","placename":"Roga\u0161ka Slatina, Republika Slovenija"},"from_stop":{"name":"origin","id":"6128","lat":"46.151241","lon":"14.995463","placename":"Slovenija"}}]}}},"processes":[],"eols":[]}],"user":{"name":"ursasipec","id":"10443"}}}