{"4048":{"oid":"4048","type":"food","flag":"","creator":"10454","name":"LORD","upc":"","imagelink":"","description":"One of the best fast food chains in western Serbia, with traditions, quality, and lots of satisfy costumers.","slug":"lord","category":"","weight":"0","emissions":"0","embodied":"0","transport":"0","process":"0","endoflife":"0","shipping":"35876.69","lifetime":null,"usagetype":"","usageenergy":null,"usageemissions":null,"timecreated":"2010-08-26 13:51:29.267374","timemodified":"2010-08-26 18:53:37","visibility":"public","showfootprint":"on","showembodied":"on","showtransport":"on","showprocess":"on","showendoflife":"on","showlastleg":"on","showuse":"on","showstats":"on","stops":{"origin":{"related_to":"4048","part_or_object":"o","notes":"","placename":"\u00c4\u008ca\u00c4\u008dak, Serbia","id":"1819","category":"1","lat":"43.888908","lon":"20.35038","name":"origin","hops":{"incoming":[{"transport_id":"17","id":"3883","transport_name":"None Selected","transport_description":null,"transport_unit":"kg km","transport_co2_eq":"0.000000","from_stop_id":"6143","from_stop_lat":"-14.235004","from_stop_lon":"-51.92528","to_stop_id":"1819","to_stop_name":"origin","to_stop_lat":"43.888908","placename":"Brazil","to_stop_lon":"20.35038","to_stop":{"id":"1819","name":"origin","lat":"43.888908","placename":"\u00c4\u008ca\u00c4\u008dak, Serbia","lon":"20.35038"},"from_stop":{"name":"origin","id":"6143","lat":"-14.235004","lon":"-51.92528","placename":"Brazil"}},{"transport_id":"17","id":"3884","transport_name":"None Selected","transport_description":null,"transport_unit":"kg km","transport_co2_eq":"0.000000","from_stop_id":"6144","from_stop_lat":"-38.416097","from_stop_lon":"-63.616672","to_stop_id":"1819","to_stop_name":"origin","to_stop_lat":"43.888908","placename":"Argentina","to_stop_lon":"20.35038","to_stop":{"id":"1819","name":"origin","lat":"43.888908","placename":"\u00c4\u008ca\u00c4\u008dak, Serbia","lon":"20.35038"},"from_stop":{"name":"origin","id":"6144","lat":"-38.416097","lon":"-63.616672","placename":"Argentina"}},{"transport_id":"17","id":"3885","transport_name":"None Selected","transport_description":null,"transport_unit":"kg km","transport_co2_eq":"0.000000","from_stop_id":"6145","from_stop_lat":"44.016521","from_stop_lon":"21.005859","to_stop_id":"1819","to_stop_name":"origin","to_stop_lat":"43.888908","placename":"Serbia","to_stop_lon":"20.35038","to_stop":{"id":"1819","name":"origin","lat":"43.888908","placename":"\u00c4\u008ca\u00c4\u008dak, Serbia","lon":"20.35038"},"from_stop":{"name":"origin","id":"6145","lat":"44.016521","lon":"21.005859","placename":"Serbia"}},{"transport_id":"17","id":"3886","transport_name":"None Selected","transport_description":null,"transport_unit":"kg km","transport_co2_eq":"0.000000","from_stop_id":"6146","from_stop_lat":"44.016521","from_stop_lon":"21.005859","to_stop_id":"1819","to_stop_name":"origin","to_stop_lat":"43.888908","placename":"Serbia","to_stop_lon":"20.35038","to_stop":{"id":"1819","name":"origin","lat":"43.888908","placename":"\u00c4\u008ca\u00c4\u008dak, Serbia","lon":"20.35038"},"from_stop":{"name":"origin","id":"6146","lat":"44.016521","lon":"21.005859","placename":"Serbia"}},{"transport_id":"17","id":"3800","transport_name":"None Selected","transport_description":null,"transport_unit":"kg km","transport_co2_eq":"0.000000","from_stop_id":"6060","from_stop_lat":"44.016521","from_stop_lon":"21.005859","to_stop_id":"1819","to_stop_name":"origin","to_stop_lat":"43.888908","placename":"Serbia","to_stop_lon":"20.35038","to_stop":{"id":"1819","name":"origin","lat":"43.888908","placename":"\u00c4\u008ca\u00c4\u008dak, Serbia","lon":"20.35038"},"from_stop":{"name":"origin","id":"6060","lat":"44.016521","lon":"21.005859","placename":"Serbia"}},{"transport_id":"17","id":"3801","transport_name":"None Selected","transport_description":null,"transport_unit":"kg km","transport_co2_eq":"0.000000","from_stop_id":"6061","from_stop_lat":"39.074208","from_stop_lon":"21.824312","to_stop_id":"1819","to_stop_name":"origin","to_stop_lat":"43.888908","placename":"Greece","to_stop_lon":"20.35038","to_stop":{"id":"1819","name":"origin","lat":"43.888908","placename":"\u00c4\u008ca\u00c4\u008dak, Serbia","lon":"20.35038"},"from_stop":{"name":"origin","id":"6061","lat":"39.074208","lon":"21.824312","placename":"Greece"}},{"transport_id":"17","id":"3597","transport_name":"None Selected","transport_description":null,"transport_unit":"kg km","transport_co2_eq":"0.000000","from_stop_id":"5857","from_stop_lat":"39.074208","from_stop_lon":"21.824312","to_stop_id":"1819","to_stop_name":"origin","to_stop_lat":"43.888908","placename":"Greece","to_stop_lon":"20.35038","to_stop":{"id":"1819","name":"origin","lat":"43.888908","placename":"\u00c4\u008ca\u00c4\u008dak, Serbia","lon":"20.35038"},"from_stop":{"name":"origin","id":"5857","lat":"39.074208","lon":"21.824312","placename":"Greece"}},{"transport_id":"17","id":"3600","transport_name":"None Selected","transport_description":null,"transport_unit":"kg km","transport_co2_eq":"0.000000","from_stop_id":"5860","from_stop_lat":"-8.783195","from_stop_lon":"34.508523","to_stop_id":"1819","to_stop_name":"origin","to_stop_lat":"43.888908","placename":"Africa","to_stop_lon":"20.35038","to_stop":{"id":"1819","name":"origin","lat":"43.888908","placename":"\u00c4\u008ca\u00c4\u008dak, Serbia","lon":"20.35038"},"from_stop":{"name":"origin","id":"5860","lat":"-8.783195","lon":"34.508523","placename":"Africa"}},{"transport_id":"17","id":"3604","transport_name":"None Selected","transport_description":null,"transport_unit":"kg km","transport_co2_eq":"0.000000","from_stop_id":"5864","from_stop_lat":"20.593684","from_stop_lon":"78.96288","to_stop_id":"1819","to_stop_name":"origin","to_stop_lat":"43.888908","placename":"India","to_stop_lon":"20.35038","to_stop":{"id":"1819","name":"origin","lat":"43.888908","placename":"\u00c4\u008ca\u00c4\u008dak, Serbia","lon":"20.35038"},"from_stop":{"name":"origin","id":"5864","lat":"20.593684","lon":"78.96288","placename":"India"}},{"transport_id":"17","id":"3403","transport_name":"None Selected","transport_description":null,"transport_unit":"kg km","transport_co2_eq":"0.000000","from_stop_id":"5663","from_stop_lat":"45.1","from_stop_lon":"15.2","to_stop_id":"1819","to_stop_name":"origin","to_stop_lat":"43.888908","placename":"Croatia","to_stop_lon":"20.35038","to_stop":{"id":"1819","name":"origin","lat":"43.888908","placename":"\u00c4\u008ca\u00c4\u008dak, Serbia","lon":"20.35038"},"from_stop":{"name":"origin","id":"5663","lat":"45.1","lon":"15.2","placename":"Croatia"}}],"outgoing":[]}}},"parts":[{"oid":"4048","imid":"4109","linkid":"","weight":"0","rawemissions":"0","emissions":"0","shipping":"430.53","processemissions":"0","endoflifeemissions":"0","disposaltype":null,"disposalenergy":null,"disposalimpact":null,"disposalemissions":null,"description":"","name":"Mushrooms","id":"4109","stops":{"origin":{"related_to":"4109","part_or_object":"p","notes":"","placename":"Croatia","id":5663,"name":"origin","lat":"45.1","lon":"15.2","hops":{"incoming":[],"outgoing":[{"transport_id":"17","id":"3403","transport_name":"None Selected","transport_description":null,"transport_unit":"kg km","transport_co2_eq":"0.000000","from_stop_id":"5663","from_stop_lat":"45.1","from_stop_lon":"15.2","from_stop_placename":"Croatia","to_stop_id":"1819","to_stop_name":"origin","to_stop_lat":"43.888908","to_stop_lon":"20.35038","to_stop_placename":"\u00c4\u008ca\u00c4\u008dak, Serbia","to_stop":{"id":"1819","name":"origin","lat":"43.888908","lon":"20.35038","placename":"\u00c4\u008ca\u00c4\u008dak, Serbia"},"from_stop":{"name":"origin","id":"5663","lat":"45.1","lon":"15.2","placename":"Croatia"}}]}}},"processes":[],"eols":[]},{"oid":"4048","imid":"4108","linkid":"","weight":"0","rawemissions":"0","emissions":"0","shipping":"549.86","processemissions":"0","endoflifeemissions":"0","disposaltype":null,"disposalenergy":null,"disposalimpact":null,"disposalemissions":null,"description":"","name":"Olives","id":"4108","stops":{"origin":{"related_to":"4108","part_or_object":"p","notes":"","placename":"Greece","id":5857,"name":"origin","lat":"39.074208","lon":"21.824312","hops":{"incoming":[],"outgoing":[{"transport_id":"17","id":"3597","transport_name":"None Selected","transport_description":null,"transport_unit":"kg km","transport_co2_eq":"0.000000","from_stop_id":"5857","from_stop_lat":"39.074208","from_stop_lon":"21.824312","from_stop_placename":"Greece","to_stop_id":"1819","to_stop_name":"origin","to_stop_lat":"43.888908","to_stop_lon":"20.35038","to_stop_placename":"\u00c4\u008ca\u00c4\u008dak, Serbia","to_stop":{"id":"1819","name":"origin","lat":"43.888908","lon":"20.35038","placename":"\u00c4\u008ca\u00c4\u008dak, Serbia"},"from_stop":{"name":"origin","id":"5857","lat":"39.074208","lon":"21.824312","placename":"Greece"}}]}}},"processes":[],"eols":[]},{"oid":"4048","imid":"4110","linkid":"","weight":"0","rawemissions":"0","emissions":"0","shipping":"6035.22","processemissions":"0","endoflifeemissions":"0","disposaltype":null,"disposalenergy":null,"disposalimpact":null,"disposalemissions":null,"description":"","name":"Juices","id":"4110","stops":{"origin":{"related_to":"4110","part_or_object":"p","notes":"","placename":"Africa","id":5860,"name":"origin","lat":"-8.783195","lon":"34.508523","hops":{"incoming":[],"outgoing":[{"transport_id":"17","id":"3600","transport_name":"None Selected","transport_description":null,"transport_unit":"kg km","transport_co2_eq":"0.000000","from_stop_id":"5860","from_stop_lat":"-8.783195","from_stop_lon":"34.508523","from_stop_placename":"Africa","to_stop_id":"1819","to_stop_name":"origin","to_stop_lat":"43.888908","to_stop_lon":"20.35038","to_stop_placename":"\u00c4\u008ca\u00c4\u008dak, Serbia","to_stop":{"id":"1819","name":"origin","lat":"43.888908","lon":"20.35038","placename":"\u00c4\u008ca\u00c4\u008dak, Serbia"},"from_stop":{"name":"origin","id":"5860","lat":"-8.783195","lon":"34.508523","placename":"Africa"}}]}}},"processes":[],"eols":[]},{"oid":"4048","imid":"4111","linkid":"","weight":"0","rawemissions":"0","emissions":"0","shipping":"5952.51","processemissions":"0","endoflifeemissions":"0","disposaltype":null,"disposalenergy":null,"disposalimpact":null,"disposalemissions":null,"description":"","name":"Spaces","id":"4111","stops":{"origin":{"related_to":"4111","part_or_object":"p","notes":"","placename":"India","id":5864,"name":"origin","lat":"20.593684","lon":"78.96288","hops":{"incoming":[],"outgoing":[{"transport_id":"17","id":"3604","transport_name":"None Selected","transport_description":null,"transport_unit":"kg km","transport_co2_eq":"0.000000","from_stop_id":"5864","from_stop_lat":"20.593684","from_stop_lon":"78.96288","from_stop_placename":"India","to_stop_id":"1819","to_stop_name":"origin","to_stop_lat":"43.888908","to_stop_lon":"20.35038","to_stop_placename":"\u00c4\u008ca\u00c4\u008dak, Serbia","to_stop":{"id":"1819","name":"origin","lat":"43.888908","lon":"20.35038","placename":"\u00c4\u008ca\u00c4\u008dak, Serbia"},"from_stop":{"name":"origin","id":"5864","lat":"20.593684","lon":"78.96288","placename":"India"}}]}}},"processes":[],"eols":[]},{"oid":"4048","imid":"4106","linkid":"","weight":"0","rawemissions":"0","emissions":"0","shipping":"54.42","processemissions":"0","endoflifeemissions":"0","disposaltype":null,"disposalenergy":null,"disposalimpact":null,"disposalemissions":null,"description":"","name":"Domestic vegetables","id":"4106","stops":{"origin":{"related_to":"4106","part_or_object":"p","notes":"","placename":"Serbia","id":6060,"name":"origin","lat":"44.016521","lon":"21.005859","hops":{"incoming":[],"outgoing":[{"transport_id":"17","id":"3800","transport_name":"None Selected","transport_description":null,"transport_unit":"kg km","transport_co2_eq":"0.000000","from_stop_id":"6060","from_stop_lat":"44.016521","from_stop_lon":"21.005859","from_stop_placename":"Serbia","to_stop_id":"1819","to_stop_name":"origin","to_stop_lat":"43.888908","to_stop_lon":"20.35038","to_stop_placename":"\u00c4\u008ca\u00c4\u008dak, Serbia","to_stop":{"id":"1819","name":"origin","lat":"43.888908","lon":"20.35038","placename":"\u00c4\u008ca\u00c4\u008dak, Serbia"},"from_stop":{"name":"origin","id":"6060","lat":"44.016521","lon":"21.005859","placename":"Serbia"}}]}}},"processes":[],"eols":[]},{"oid":"4048","imid":"4107","linkid":"","weight":"0","rawemissions":"0","emissions":"0","shipping":"549.86","processemissions":"0","endoflifeemissions":"0","disposaltype":null,"disposalenergy":null,"disposalimpact":null,"disposalemissions":null,"description":"","name":"Feta cheese ","id":"4107","stops":{"origin":{"related_to":"4107","part_or_object":"p","notes":"","placename":"Greece","id":6061,"name":"origin","lat":"39.074208","lon":"21.824312","hops":{"incoming":[],"outgoing":[{"transport_id":"17","id":"3801","transport_name":"None Selected","transport_description":null,"transport_unit":"kg km","transport_co2_eq":"0.000000","from_stop_id":"6061","from_stop_lat":"39.074208","from_stop_lon":"21.824312","from_stop_placename":"Greece","to_stop_id":"1819","to_stop_name":"origin","to_stop_lat":"43.888908","to_stop_lon":"20.35038","to_stop_placename":"\u00c4\u008ca\u00c4\u008dak, Serbia","to_stop":{"id":"1819","name":"origin","lat":"43.888908","lon":"20.35038","placename":"\u00c4\u008ca\u00c4\u008dak, Serbia"},"from_stop":{"name":"origin","id":"6061","lat":"39.074208","lon":"21.824312","placename":"Greece"}}]}}},"processes":[],"eols":[]},{"oid":"4048","imid":"4102","linkid":"parts\/chicken","weight":"0","rawemissions":"3.5","emissions":"0","shipping":"9749.55","processemissions":"0","endoflifeemissions":"0","disposaltype":null,"disposalenergy":null,"disposalimpact":null,"disposalemissions":null,"description":"","name":"Chicken","id":"4102","stops":{"origin":{"related_to":"4102","part_or_object":"p","notes":"","placename":"Brazil","id":6143,"name":"origin","lat":"-14.235004","lon":"-51.92528","hops":{"incoming":[],"outgoing":[{"transport_id":"17","id":"3883","transport_name":"None Selected","transport_description":null,"transport_unit":"kg km","transport_co2_eq":"0.000000","from_stop_id":"6143","from_stop_lat":"-14.235004","from_stop_lon":"-51.92528","from_stop_placename":"Brazil","to_stop_id":"1819","to_stop_name":"origin","to_stop_lat":"43.888908","to_stop_lon":"20.35038","to_stop_placename":"\u00c4\u008ca\u00c4\u008dak, Serbia","to_stop":{"id":"1819","name":"origin","lat":"43.888908","lon":"20.35038","placename":"\u00c4\u008ca\u00c4\u008dak, Serbia"},"from_stop":{"name":"origin","id":"6143","lat":"-14.235004","lon":"-51.92528","placename":"Brazil"}}]}}},"processes":[],"eols":[]},{"oid":"4048","imid":"4103","linkid":"","weight":"0","rawemissions":"0","emissions":"0","shipping":"12445.9","processemissions":"0","endoflifeemissions":"0","disposaltype":null,"disposalenergy":null,"disposalimpact":null,"disposalemissions":null,"description":"","name":"beef","id":"4103","stops":{"origin":{"related_to":"4103","part_or_object":"p","notes":"","placename":"Argentina","id":6144,"name":"origin","lat":"-38.416097","lon":"-63.616672","hops":{"incoming":[],"outgoing":[{"transport_id":"17","id":"3884","transport_name":"None Selected","transport_description":null,"transport_unit":"kg km","transport_co2_eq":"0.000000","from_stop_id":"6144","from_stop_lat":"-38.416097","from_stop_lon":"-63.616672","from_stop_placename":"Argentina","to_stop_id":"1819","to_stop_name":"origin","to_stop_lat":"43.888908","to_stop_lon":"20.35038","to_stop_placename":"\u00c4\u008ca\u00c4\u008dak, Serbia","to_stop":{"id":"1819","name":"origin","lat":"43.888908","lon":"20.35038","placename":"\u00c4\u008ca\u00c4\u008dak, Serbia"},"from_stop":{"name":"origin","id":"6144","lat":"-38.416097","lon":"-63.616672","placename":"Argentina"}}]}}},"processes":[],"eols":[]},{"oid":"4048","imid":"4104","linkid":"","weight":"0","rawemissions":"0","emissions":"0","shipping":"54.42","processemissions":"0","endoflifeemissions":"0","disposaltype":null,"disposalenergy":null,"disposalimpact":null,"disposalemissions":null,"description":"","name":"Pork","id":"4104","stops":{"origin":{"related_to":"4104","part_or_object":"p","notes":"","placename":"Serbia","id":6145,"name":"origin","lat":"44.016521","lon":"21.005859","hops":{"incoming":[],"outgoing":[{"transport_id":"17","id":"3885","transport_name":"None Selected","transport_description":null,"transport_unit":"kg km","transport_co2_eq":"0.000000","from_stop_id":"6145","from_stop_lat":"44.016521","from_stop_lon":"21.005859","from_stop_placename":"Serbia","to_stop_id":"1819","to_stop_name":"origin","to_stop_lat":"43.888908","to_stop_lon":"20.35038","to_stop_placename":"\u00c4\u008ca\u00c4\u008dak, Serbia","to_stop":{"id":"1819","name":"origin","lat":"43.888908","lon":"20.35038","placename":"\u00c4\u008ca\u00c4\u008dak, Serbia"},"from_stop":{"name":"origin","id":"6145","lat":"44.016521","lon":"21.005859","placename":"Serbia"}}]}}},"processes":[],"eols":[]},{"oid":"4048","imid":"4105","linkid":"","weight":"0","rawemissions":"0","emissions":"0","shipping":"54.42","processemissions":"0","endoflifeemissions":"0","disposaltype":null,"disposalenergy":null,"disposalimpact":null,"disposalemissions":null,"description":"","name":"Bread","id":"4105","stops":{"origin":{"related_to":"4105","part_or_object":"p","notes":"","placename":"Serbia","id":6146,"name":"origin","lat":"44.016521","lon":"21.005859","hops":{"incoming":[],"outgoing":[{"transport_id":"17","id":"3886","transport_name":"None Selected","transport_description":null,"transport_unit":"kg km","transport_co2_eq":"0.000000","from_stop_id":"6146","from_stop_lat":"44.016521","from_stop_lon":"21.005859","from_stop_placename":"Serbia","to_stop_id":"1819","to_stop_name":"origin","to_stop_lat":"43.888908","to_stop_lon":"20.35038","to_stop_placename":"\u00c4\u008ca\u00c4\u008dak, Serbia","to_stop":{"id":"1819","name":"origin","lat":"43.888908","lon":"20.35038","placename":"\u00c4\u008ca\u00c4\u008dak, Serbia"},"from_stop":{"name":"origin","id":"6146","lat":"44.016521","lon":"21.005859","placename":"Serbia"}}]}}},"processes":[],"eols":[]}],"user":{"name":"nevenam","id":"10454"}}}