{"4060":{"oid":"4060","type":"trace","flag":"","creator":"10389","name":"steel","upc":"","imagelink":"","description":"The Sourcemap shows where main raw materials for steel production in Krak\u00c3\u00b3w come from. Them map concerns iron ores, coking coal and fluxes.","slug":"steel-1","category":"","weight":"0","emissions":"0","embodied":"0","transport":"0","process":"0","endoflife":"0","shipping":"21278.3","lifetime":null,"usagetype":"","usageenergy":null,"usageemissions":null,"timecreated":"2010-08-28 05:50:09.930052","timemodified":"2010-08-29 02:56:10","visibility":"public","showfootprint":"on","showembodied":"on","showtransport":"on","showprocess":"on","showendoflife":"on","showlastleg":"on","showuse":"on","showstats":"on","stops":{"origin":{"related_to":"4060","part_or_object":"o","notes":"","placename":"Krak\u00c3\u00b3w, Polska","id":"1831","category":"1","lat":"50.0646501","lon":"19.9449799","name":"origin","hops":{"incoming":[{"transport_id":"17","id":"3568","transport_name":"None Selected","transport_description":null,"transport_unit":"kg km","transport_co2_eq":"0.000000","from_stop_id":"5828","from_stop_lat":"50.2558286","from_stop_lon":"18.8555704","to_stop_id":"1831","to_stop_name":"origin","to_stop_lat":"50.0646501","placename":"Ruda \u00c5\u009al\u00c4\u0085ska, Polska","to_stop_lon":"19.9449799","to_stop":{"id":"1831","name":"origin","lat":"50.0646501","placename":"Krak\u00c3\u00b3w, Polska","lon":"19.9449799"},"from_stop":{"name":"origin","id":"5828","lat":"50.2558286","lon":"18.8555704","placename":"Ruda \u00c5\u009al\u00c4\u0085ska, Polska"}},{"transport_id":"17","id":"3569","transport_name":"None Selected","transport_description":null,"transport_unit":"kg km","transport_co2_eq":"0.000000","from_stop_id":"5829","from_stop_lat":"50.057879","from_stop_lon":"18.4173822","to_stop_id":"1831","to_stop_name":"origin","to_stop_lat":"50.0646501","placename":"Rydu\u00c5\u0082towy, Polska","to_stop_lon":"19.9449799","to_stop":{"id":"1831","name":"origin","lat":"50.0646501","placename":"Krak\u00c3\u00b3w, Polska","lon":"19.9449799"},"from_stop":{"name":"origin","id":"5829","lat":"50.057879","lon":"18.4173822","placename":"Rydu\u00c5\u0082towy, Polska"}},{"transport_id":"17","id":"3571","transport_name":"None Selected","transport_description":null,"transport_unit":"kg km","transport_co2_eq":"0.000000","from_stop_id":"5831","from_stop_lat":"50.8121157","from_stop_lon":"20.2650979","to_stop_id":"1831","to_stop_name":"origin","to_stop_lat":"50.0646501","placename":"Ma\u00c5\u0082ogoszcz, Polska","to_stop_lon":"19.9449799","to_stop":{"id":"1831","name":"origin","lat":"50.0646501","placename":"Krak\u00c3\u00b3w, Polska","lon":"19.9449799"},"from_stop":{"name":"origin","id":"5831","lat":"50.8121157","lon":"20.2650979","placename":"Ma\u00c5\u0082ogoszcz, Polska"}},{"transport_id":"17","id":"3572","transport_name":"None Selected","transport_description":null,"transport_unit":"kg km","transport_co2_eq":"0.000000","from_stop_id":"5832","from_stop_lat":"51.249032","from_stop_lon":"21.082028","to_stop_id":"1831","to_stop_name":"origin","to_stop_lat":"50.0646501","placename":"26-680 Wierzbica, Polska","to_stop_lon":"19.9449799","to_stop":{"id":"1831","name":"origin","lat":"50.0646501","placename":"Krak\u00c3\u00b3w, Polska","lon":"19.9449799"},"from_stop":{"name":"origin","id":"5832","lat":"51.249032","lon":"21.082028","placename":"26-680 Wierzbica, Polska"}},{"transport_id":"17","id":"3594","transport_name":"None Selected","transport_description":null,"transport_unit":"kg km","transport_co2_eq":"0.000000","from_stop_id":"5854","from_stop_lat":"50.1141761","from_stop_lon":"19.3862474","to_stop_id":"1831","to_stop_name":"origin","to_stop_lat":"50.0646501","placename":"\u00c5\u00bbelatowa, 32-500 Chrzan\u00c3\u00b3w, Polska","to_stop_lon":"19.9449799","to_stop":{"id":"1831","name":"origin","lat":"50.0646501","placename":"Krak\u00c3\u00b3w, Polska","lon":"19.9449799"},"from_stop":{"name":"origin","id":"5854","lat":"50.1141761","lon":"19.3862474","placename":"\u00c5\u00bbelatowa, 32-500 Chrzan\u00c3\u00b3w, Polska"}},{"transport_id":"17","id":"3459","transport_name":"None Selected","transport_description":null,"transport_unit":"kg km","transport_co2_eq":"0.000000","from_stop_id":"5719","from_stop_lat":"48.020338","from_stop_lon":"33.453721","to_stop_id":"1831","to_stop_name":"origin","to_stop_lat":"50.0646501","placename":"Krzywy R\u00c3\u00b3g, Obw\u00c3\u00b3d dniepropietrowski, Ukraina","to_stop_lon":"19.9449799","to_stop":{"id":"1831","name":"origin","lat":"50.0646501","placename":"Krak\u00c3\u00b3w, Polska","lon":"19.9449799"},"from_stop":{"name":"origin","id":"5719","lat":"48.020338","lon":"33.453721","placename":"Krzywy R\u00c3\u00b3g, Obw\u00c3\u00b3d dniepropietrowski, Ukraina"}},{"transport_id":"17","id":"3460","transport_name":"None Selected","transport_description":null,"transport_unit":"kg km","transport_co2_eq":"0.000000","from_stop_id":"5720","from_stop_lat":"43.915886","from_stop_lon":"17.679076","to_stop_id":"1831","to_stop_name":"origin","to_stop_lat":"50.0646501","placename":"Bosnia i Hercegowina","to_stop_lon":"19.9449799","to_stop":{"id":"1831","name":"origin","lat":"50.0646501","placename":"Krak\u00c3\u00b3w, Polska","lon":"19.9449799"},"from_stop":{"name":"origin","id":"5720","lat":"43.915886","lon":"17.679076","placename":"Bosnia i Hercegowina"}},{"transport_id":"17","id":"3461","transport_name":"None Selected","transport_description":null,"transport_unit":"kg km","transport_co2_eq":"0.000000","from_stop_id":"5721","from_stop_lat":"-17.930178","from_stop_lon":"-43.7908453","to_stop_id":"1831","to_stop_name":"origin","to_stop_lat":"50.0646501","placename":"Minas Gerais, Brazylia","to_stop_lon":"19.9449799","to_stop":{"id":"1831","name":"origin","lat":"50.0646501","placename":"Krak\u00c3\u00b3w, Polska","lon":"19.9449799"},"from_stop":{"name":"origin","id":"5721","lat":"-17.930178","lon":"-43.7908453","placename":"Minas Gerais, Brazylia"}},{"transport_id":"17","id":"3462","transport_name":"None Selected","transport_description":null,"transport_unit":"kg km","transport_co2_eq":"0.000000","from_stop_id":"5722","from_stop_lat":"6.42375","from_stop_lon":"-66.58973","to_stop_id":"1831","to_stop_name":"origin","to_stop_lat":"50.0646501","placename":"Wenezuela","to_stop_lon":"19.9449799","to_stop":{"id":"1831","name":"origin","lat":"50.0646501","placename":"Krak\u00c3\u00b3w, Polska","lon":"19.9449799"},"from_stop":{"name":"origin","id":"5722","lat":"6.42375","lon":"-66.58973","placename":"Wenezuela"}},{"transport_id":"17","id":"2943","transport_name":"None Selected","transport_description":null,"transport_unit":"kg km","transport_co2_eq":"0.000000","from_stop_id":"5203","from_stop_lat":"50.4665752","from_stop_lon":"19.2302203","to_stop_id":"1831","to_stop_name":"origin","to_stop_lat":"50.0646501","placename":"Siewierz, Polska","to_stop_lon":"19.9449799","to_stop":{"id":"1831","name":"origin","lat":"50.0646501","placename":"Krak\u00c3\u00b3w, Polska","lon":"19.9449799"},"from_stop":{"name":"origin","id":"5203","lat":"50.4665752","lon":"19.2302203","placename":"Siewierz, Polska"}}],"outgoing":[]}}},"parts":[{"oid":"4060","imid":"4201","linkid":"","weight":"0","rawemissions":"0","emissions":"0","shipping":"67.74","processemissions":"0","endoflifeemissions":"0","disposaltype":null,"disposalenergy":null,"disposalimpact":null,"disposalemissions":null,"description":"","name":"dolomite (flux)","id":"4201","stops":{"origin":{"related_to":"4201","part_or_object":"p","notes":"","placename":"Siewierz, Polska","id":5203,"name":"origin","lat":"50.4665752","lon":"19.2302203","hops":{"incoming":[],"outgoing":[{"transport_id":"17","id":"2943","transport_name":"None Selected","transport_description":null,"transport_unit":"kg km","transport_co2_eq":"0.000000","from_stop_id":"5203","from_stop_lat":"50.4665752","from_stop_lon":"19.2302203","from_stop_placename":"Siewierz, Polska","to_stop_id":"1831","to_stop_name":"origin","to_stop_lat":"50.0646501","to_stop_lon":"19.9449799","to_stop_placename":"Krak\u00c3\u00b3w, Polska","to_stop":{"id":"1831","name":"origin","lat":"50.0646501","lon":"19.9449799","placename":"Krak\u00c3\u00b3w, Polska"},"from_stop":{"name":"origin","id":"5203","lat":"50.4665752","lon":"19.2302203","placename":"Siewierz, Polska"}}]}}},"processes":[],"eols":[]},{"oid":"4060","imid":"4160","linkid":"","weight":"0","rawemissions":"0","emissions":"0","shipping":"9223.62","processemissions":"0","endoflifeemissions":"0","disposaltype":null,"disposalenergy":null,"disposalimpact":null,"disposalemissions":null,"description":"","name":"iron ore","id":"4160","stops":{"origin":{"related_to":"4160","part_or_object":"p","notes":"","placename":"Wenezuela","id":5722,"name":"origin","lat":"6.42375","lon":"-66.58973","hops":{"incoming":[],"outgoing":[{"transport_id":"17","id":"3462","transport_name":"None Selected","transport_description":null,"transport_unit":"kg km","transport_co2_eq":"0.000000","from_stop_id":"5722","from_stop_lat":"6.42375","from_stop_lon":"-66.58973","from_stop_placename":"Wenezuela","to_stop_id":"1831","to_stop_name":"origin","to_stop_lat":"50.0646501","to_stop_lon":"19.9449799","to_stop_placename":"Krak\u00c3\u00b3w, Polska","to_stop":{"id":"1831","name":"origin","lat":"50.0646501","lon":"19.9449799","placename":"Krak\u00c3\u00b3w, Polska"},"from_stop":{"name":"origin","id":"5722","lat":"6.42375","lon":"-66.58973","placename":"Wenezuela"}}]}}},"processes":[],"eols":[]},{"oid":"4060","imid":"4157","linkid":"","weight":"0","rawemissions":"0","emissions":"0","shipping":"1010.13","processemissions":"0","endoflifeemissions":"0","disposaltype":null,"disposalenergy":null,"disposalimpact":null,"disposalemissions":null,"description":"","name":"iron ore","id":"4157","stops":{"origin":{"related_to":"4157","part_or_object":"p","notes":"","placename":"Krzywy R\u00c3\u00b3g, Obw\u00c3\u00b3d dniepropietrowski, Ukraina","id":5719,"name":"origin","lat":"48.020338","lon":"33.453721","hops":{"incoming":[],"outgoing":[{"transport_id":"17","id":"3459","transport_name":"None Selected","transport_description":null,"transport_unit":"kg km","transport_co2_eq":"0.000000","from_stop_id":"5719","from_stop_lat":"48.020338","from_stop_lon":"33.453721","from_stop_placename":"Krzywy R\u00c3\u00b3g, Obw\u00c3\u00b3d dniepropietrowski, Ukraina","to_stop_id":"1831","to_stop_name":"origin","to_stop_lat":"50.0646501","to_stop_lon":"19.9449799","to_stop_placename":"Krak\u00c3\u00b3w, Polska","to_stop":{"id":"1831","name":"origin","lat":"50.0646501","lon":"19.9449799","placename":"Krak\u00c3\u00b3w, Polska"},"from_stop":{"name":"origin","id":"5719","lat":"48.020338","lon":"33.453721","placename":"Krzywy R\u00c3\u00b3g, Obw\u00c3\u00b3d dniepropietrowski, Ukraina"}}]}}},"processes":[],"eols":[]},{"oid":"4060","imid":"4158","linkid":"","weight":"0","rawemissions":"0","emissions":"0","shipping":"705.68","processemissions":"0","endoflifeemissions":"0","disposaltype":null,"disposalenergy":null,"disposalimpact":null,"disposalemissions":null,"description":"","name":"iron ore","id":"4158","stops":{"origin":{"related_to":"4158","part_or_object":"p","notes":"","placename":"Bosnia i Hercegowina","id":5720,"name":"origin","lat":"43.915886","lon":"17.679076","hops":{"incoming":[],"outgoing":[{"transport_id":"17","id":"3460","transport_name":"None Selected","transport_description":null,"transport_unit":"kg km","transport_co2_eq":"0.000000","from_stop_id":"5720","from_stop_lat":"43.915886","from_stop_lon":"17.679076","from_stop_placename":"Bosnia i Hercegowina","to_stop_id":"1831","to_stop_name":"origin","to_stop_lat":"50.0646501","to_stop_lon":"19.9449799","to_stop_placename":"Krak\u00c3\u00b3w, Polska","to_stop":{"id":"1831","name":"origin","lat":"50.0646501","lon":"19.9449799","placename":"Krak\u00c3\u00b3w, Polska"},"from_stop":{"name":"origin","id":"5720","lat":"43.915886","lon":"17.679076","placename":"Bosnia i Hercegowina"}}]}}},"processes":[],"eols":[]},{"oid":"4060","imid":"4159","linkid":"","weight":"0","rawemissions":"0","emissions":"0","shipping":"9800.54","processemissions":"0","endoflifeemissions":"0","disposaltype":null,"disposalenergy":null,"disposalimpact":null,"disposalemissions":null,"description":"","name":"iron ore","id":"4159","stops":{"origin":{"related_to":"4159","part_or_object":"p","notes":"","placename":"Minas Gerais, Brazylia","id":5721,"name":"origin","lat":"-17.930178","lon":"-43.7908453","hops":{"incoming":[],"outgoing":[{"transport_id":"17","id":"3461","transport_name":"None Selected","transport_description":null,"transport_unit":"kg km","transport_co2_eq":"0.000000","from_stop_id":"5721","from_stop_lat":"-17.930178","from_stop_lon":"-43.7908453","from_stop_placename":"Minas Gerais, Brazylia","to_stop_id":"1831","to_stop_name":"origin","to_stop_lat":"50.0646501","to_stop_lon":"19.9449799","to_stop_placename":"Krak\u00c3\u00b3w, Polska","to_stop":{"id":"1831","name":"origin","lat":"50.0646501","lon":"19.9449799","placename":"Krak\u00c3\u00b3w, Polska"},"from_stop":{"name":"origin","id":"5721","lat":"-17.930178","lon":"-43.7908453","placename":"Minas Gerais, Brazylia"}}]}}},"processes":[],"eols":[]},{"oid":"4060","imid":"4196","linkid":"","weight":"0","rawemissions":"0","emissions":"0","shipping":"80.55","processemissions":"0","endoflifeemissions":"0","disposaltype":null,"disposalenergy":null,"disposalimpact":null,"disposalemissions":null,"description":"","name":"coking coal","id":"4196","stops":{"origin":{"related_to":"4196","part_or_object":"p","notes":"","placename":"Ruda \u00c5\u009al\u00c4\u0085ska, Polska","id":5828,"name":"origin","lat":"50.2558286","lon":"18.8555704","hops":{"incoming":[],"outgoing":[{"transport_id":"17","id":"3568","transport_name":"None Selected","transport_description":null,"transport_unit":"kg km","transport_co2_eq":"0.000000","from_stop_id":"5828","from_stop_lat":"50.2558286","from_stop_lon":"18.8555704","from_stop_placename":"Ruda \u00c5\u009al\u00c4\u0085ska, Polska","to_stop_id":"1831","to_stop_name":"origin","to_stop_lat":"50.0646501","to_stop_lon":"19.9449799","to_stop_placename":"Krak\u00c3\u00b3w, Polska","to_stop":{"id":"1831","name":"origin","lat":"50.0646501","lon":"19.9449799","placename":"Krak\u00c3\u00b3w, Polska"},"from_stop":{"name":"origin","id":"5828","lat":"50.2558286","lon":"18.8555704","placename":"Ruda \u00c5\u009al\u00c4\u0085ska, Polska"}}]}}},"processes":[],"eols":[]},{"oid":"4060","imid":"4197","linkid":"","weight":"0","rawemissions":"0","emissions":"0","shipping":"109.17","processemissions":"0","endoflifeemissions":"0","disposaltype":null,"disposalenergy":null,"disposalimpact":null,"disposalemissions":null,"description":"","name":"coking coal","id":"4197","stops":{"origin":{"related_to":"4197","part_or_object":"p","notes":"","placename":"Rydu\u00c5\u0082towy, Polska","id":5829,"name":"origin","lat":"50.057879","lon":"18.4173822","hops":{"incoming":[],"outgoing":[{"transport_id":"17","id":"3569","transport_name":"None Selected","transport_description":null,"transport_unit":"kg km","transport_co2_eq":"0.000000","from_stop_id":"5829","from_stop_lat":"50.057879","from_stop_lon":"18.4173822","from_stop_placename":"Rydu\u00c5\u0082towy, Polska","to_stop_id":"1831","to_stop_name":"origin","to_stop_lat":"50.0646501","to_stop_lon":"19.9449799","to_stop_placename":"Krak\u00c3\u00b3w, Polska","to_stop":{"id":"1831","name":"origin","lat":"50.0646501","lon":"19.9449799","placename":"Krak\u00c3\u00b3w, Polska"},"from_stop":{"name":"origin","id":"5829","lat":"50.057879","lon":"18.4173822","placename":"Rydu\u00c5\u0082towy, Polska"}}]}}},"processes":[],"eols":[]},{"oid":"4060","imid":"4198","linkid":"","weight":"0","rawemissions":"0","emissions":"0","shipping":"86.25","processemissions":"0","endoflifeemissions":"0","disposaltype":null,"disposalenergy":null,"disposalimpact":null,"disposalemissions":null,"description":"","name":"limestone (flux)","id":"4198","stops":{"origin":{"related_to":"4198","part_or_object":"p","notes":"","placename":"Ma\u00c5\u0082ogoszcz, Polska","id":5831,"name":"origin","lat":"50.8121157","lon":"20.2650979","hops":{"incoming":[],"outgoing":[{"transport_id":"17","id":"3571","transport_name":"None Selected","transport_description":null,"transport_unit":"kg km","transport_co2_eq":"0.000000","from_stop_id":"5831","from_stop_lat":"50.8121157","from_stop_lon":"20.2650979","from_stop_placename":"Ma\u00c5\u0082ogoszcz, Polska","to_stop_id":"1831","to_stop_name":"origin","to_stop_lat":"50.0646501","to_stop_lon":"19.9449799","to_stop_placename":"Krak\u00c3\u00b3w, Polska","to_stop":{"id":"1831","name":"origin","lat":"50.0646501","lon":"19.9449799","placename":"Krak\u00c3\u00b3w, Polska"},"from_stop":{"name":"origin","id":"5831","lat":"50.8121157","lon":"20.2650979","placename":"Ma\u00c5\u0082ogoszcz, Polska"}}]}}},"processes":[],"eols":[]},{"oid":"4060","imid":"4199","linkid":"","weight":"0","rawemissions":"0","emissions":"0","shipping":"154.34","processemissions":"0","endoflifeemissions":"0","disposaltype":null,"disposalenergy":null,"disposalimpact":null,"disposalemissions":null,"description":"","name":"limestone (flux)","id":"4199","stops":{"origin":{"related_to":"4199","part_or_object":"p","notes":"","placename":"26-680 Wierzbica, Polska","id":5832,"name":"origin","lat":"51.249032","lon":"21.082028","hops":{"incoming":[],"outgoing":[{"transport_id":"17","id":"3572","transport_name":"None Selected","transport_description":null,"transport_unit":"kg km","transport_co2_eq":"0.000000","from_stop_id":"5832","from_stop_lat":"51.249032","from_stop_lon":"21.082028","from_stop_placename":"26-680 Wierzbica, Polska","to_stop_id":"1831","to_stop_name":"origin","to_stop_lat":"50.0646501","to_stop_lon":"19.9449799","to_stop_placename":"Krak\u00c3\u00b3w, Polska","to_stop":{"id":"1831","name":"origin","lat":"50.0646501","lon":"19.9449799","placename":"Krak\u00c3\u00b3w, Polska"},"from_stop":{"name":"origin","id":"5832","lat":"51.249032","lon":"21.082028","placename":"26-680 Wierzbica, Polska"}}]}}},"processes":[],"eols":[]},{"oid":"4060","imid":"4200","linkid":"","weight":"0","rawemissions":"0","emissions":"0","shipping":"40.28","processemissions":"0","endoflifeemissions":"0","disposaltype":null,"disposalenergy":null,"disposalimpact":null,"disposalemissions":null,"description":"","name":"dolomite (flux)","id":"4200","stops":{"origin":{"related_to":"4200","part_or_object":"p","notes":"","placename":"\u00c5\u00bbelatowa, 32-500 Chrzan\u00c3\u00b3w, Polska","id":5854,"name":"origin","lat":"50.1141761","lon":"19.3862474","hops":{"incoming":[],"outgoing":[{"transport_id":"17","id":"3594","transport_name":"None Selected","transport_description":null,"transport_unit":"kg km","transport_co2_eq":"0.000000","from_stop_id":"5854","from_stop_lat":"50.1141761","from_stop_lon":"19.3862474","from_stop_placename":"\u00c5\u00bbelatowa, 32-500 Chrzan\u00c3\u00b3w, Polska","to_stop_id":"1831","to_stop_name":"origin","to_stop_lat":"50.0646501","to_stop_lon":"19.9449799","to_stop_placename":"Krak\u00c3\u00b3w, Polska","to_stop":{"id":"1831","name":"origin","lat":"50.0646501","lon":"19.9449799","placename":"Krak\u00c3\u00b3w, Polska"},"from_stop":{"name":"origin","id":"5854","lat":"50.1141761","lon":"19.3862474","placename":"\u00c5\u00bbelatowa, 32-500 Chrzan\u00c3\u00b3w, Polska"}}]}}},"processes":[],"eols":[]}],"user":{"name":"cestovatel","id":"10389"}}}