{"4065":{"oid":"4065","type":"travel","flag":"","creator":"10465","name":"Potential carbon footprint of players","upc":"","imagelink":"","description":"Potential carbon footprint of footballers who played in recent game of the Ekstraklasa from their birthplace to the stadium.","slug":"potential-carbon-footprint-of-players","category":"","weight":"2134","emissions":"910.071434586","embodied":"0","transport":"910.071434586","process":"0","endoflife":"0","shipping":"45614.2","lifetime":null,"usagetype":"","usageenergy":null,"usageemissions":null,"timecreated":"2010-08-28 14:25:40.479297","timemodified":"2010-09-06 16:21:48","visibility":"public","showfootprint":"on","showembodied":"on","showtransport":"on","showprocess":"on","showendoflife":"on","showlastleg":"on","showuse":"on","showstats":"on","stops":{"origin":{"related_to":"4065","part_or_object":"o","notes":"","placename":"Krak\u00c3\u00b3w, Polska","id":"1837","category":"1","lat":"50.0646501","lon":"19.9449799","name":"origin","hops":{"incoming":[{"transport_id":"1","id":"3491","transport_name":"van, 3.5 tons","transport_description":"delivery van, half full","transport_unit":"kg km","transport_co2_eq":"0.053400","from_stop_id":"5751","from_stop_lat":"51.1078852","from_stop_lon":"17.0385376","to_stop_id":"1837","to_stop_name":"origin","to_stop_lat":"50.0646501","placename":"Wroc\u00c5\u0082aw, Polska","to_stop_lon":"19.9449799","to_stop":{"id":"1837","name":"origin","lat":"50.0646501","placename":"Krak\u00c3\u00b3w, Polska","lon":"19.9449799"},"from_stop":{"name":"origin","id":"5751","lat":"51.1078852","lon":"17.0385376","placename":"Wroc\u00c5\u0082aw, Polska"}},{"transport_id":"1","id":"3494","transport_name":"van, 3.5 tons","transport_description":"delivery van, half full","transport_unit":"kg km","transport_co2_eq":"0.053400","from_stop_id":"5754","from_stop_lat":"53.4285438","from_stop_lon":"14.5528116","to_stop_id":"1837","to_stop_name":"origin","to_stop_lat":"50.0646501","placename":"Szczecin, Polska","to_stop_lon":"19.9449799","to_stop":{"id":"1837","name":"origin","lat":"50.0646501","placename":"Krak\u00c3\u00b3w, Polska","lon":"19.9449799"},"from_stop":{"name":"origin","id":"5754","lat":"53.4285438","lon":"14.5528116","placename":"Szczecin, Polska"}},{"transport_id":"1","id":"3497","transport_name":"van, 3.5 tons","transport_description":"delivery van, half full","transport_unit":"kg km","transport_co2_eq":"0.053400","from_stop_id":"5757","from_stop_lat":"49.4379367","from_stop_lon":"18.7897011","to_stop_id":"1837","to_stop_name":"origin","to_stop_lat":"50.0646501","placename":"Czadca, S\u00c5\u0082owacja","to_stop_lon":"19.9449799","to_stop":{"id":"1837","name":"origin","lat":"50.0646501","placename":"Krak\u00c3\u00b3w, Polska","lon":"19.9449799"},"from_stop":{"name":"origin","id":"5757","lat":"49.4379367","lon":"18.7897011","placename":"Czadca, S\u00c5\u0082owacja"}},{"transport_id":"1","id":"3498","transport_name":"van, 3.5 tons","transport_description":"delivery van, half full","transport_unit":"kg km","transport_co2_eq":"0.053400","from_stop_id":"5758","from_stop_lat":"52.65088","from_stop_lon":"16.07973","to_stop_id":"1837","to_stop_name":"origin","to_stop_lat":"50.0646501","placename":"Sierak\u00c3\u00b3w, Polska","to_stop_lon":"19.9449799","to_stop":{"id":"1837","name":"origin","lat":"50.0646501","placename":"Krak\u00c3\u00b3w, Polska","lon":"19.9449799"},"from_stop":{"name":"origin","id":"5758","lat":"52.65088","lon":"16.07973","placename":"Sierak\u00c3\u00b3w, Polska"}},{"transport_id":"1","id":"3499","transport_name":"van, 3.5 tons","transport_description":"delivery van, half full","transport_unit":"kg km","transport_co2_eq":"0.053400","from_stop_id":"5759","from_stop_lat":"53.1324886","from_stop_lon":"23.1688403","to_stop_id":"1837","to_stop_name":"origin","to_stop_lat":"50.0646501","placename":"Bia\u00c5\u0082ystok, Polska","to_stop_lon":"19.9449799","to_stop":{"id":"1837","name":"origin","lat":"50.0646501","placename":"Krak\u00c3\u00b3w, Polska","lon":"19.9449799"},"from_stop":{"name":"origin","id":"5759","lat":"53.1324886","lon":"23.1688403","placename":"Bia\u00c5\u0082ystok, Polska"}},{"transport_id":"14","id":"3502","transport_name":"air, passenger, intercontinental","transport_description":"intercontinental, kg km from person-km","transport_unit":"kg km","transport_co2_eq":"1.189000","from_stop_id":"5762","from_stop_lat":"-19.015438","from_stop_lon":"29.154857","to_stop_id":"1837","to_stop_name":"origin","to_stop_lat":"50.0646501","placename":"Zimbabwe","to_stop_lon":"19.9449799","to_stop":{"id":"1837","name":"origin","lat":"50.0646501","placename":"Krak\u00c3\u00b3w, Polska","lon":"19.9449799"},"from_stop":{"name":"origin","id":"5762","lat":"-19.015438","lon":"29.154857","placename":"Zimbabwe"}},{"transport_id":"1","id":"3524","transport_name":"van, 3.5 tons","transport_description":"delivery van, half full","transport_unit":"kg km","transport_co2_eq":"0.053400","from_stop_id":"5784","from_stop_lat":"49.9547281","from_stop_lon":"18.574813","to_stop_id":"1837","to_stop_name":"origin","to_stop_lat":"50.0646501","placename":"Jastrz\u00c4\u0099bie-Zdr\u00c3\u00b3j, Polska","to_stop_lon":"19.9449799","to_stop":{"id":"1837","name":"origin","lat":"50.0646501","placename":"Krak\u00c3\u00b3w, Polska","lon":"19.9449799"},"from_stop":{"name":"origin","id":"5784","lat":"49.9547281","lon":"18.574813","placename":"Jastrz\u00c4\u0099bie-Zdr\u00c3\u00b3j, Polska"}},{"transport_id":"1","id":"3525","transport_name":"van, 3.5 tons","transport_description":"delivery van, half full","transport_unit":"kg km","transport_co2_eq":"0.053400","from_stop_id":"5785","from_stop_lat":"50.4359468","from_stop_lon":"18.8460247","to_stop_id":"1837","to_stop_name":"origin","to_stop_lat":"50.0646501","placename":"Tarnowskie G\u00c3\u00b3ry, Polska","to_stop_lon":"19.9449799","to_stop":{"id":"1837","name":"origin","lat":"50.0646501","placename":"Krak\u00c3\u00b3w, Polska","lon":"19.9449799"},"from_stop":{"name":"origin","id":"5785","lat":"50.4359468","lon":"18.8460247","placename":"Tarnowskie G\u00c3\u00b3ry, Polska"}},{"transport_id":"17","id":"3472","transport_name":"None Selected","transport_description":null,"transport_unit":"kg km","transport_co2_eq":"0.000000","from_stop_id":"5732","from_stop_lat":"48.000536","from_stop_lon":"11.342857","to_stop_id":"1837","to_stop_name":"origin","to_stop_lat":"50.0646501","placename":"Starnberg, Niemcy","to_stop_lon":"19.9449799","to_stop":{"id":"1837","name":"origin","lat":"50.0646501","placename":"Krak\u00c3\u00b3w, Polska","lon":"19.9449799"},"from_stop":{"name":"origin","id":"5732","lat":"48.000536","lon":"11.342857","placename":"Starnberg, Niemcy"}},{"transport_id":"17","id":"3473","transport_name":"None Selected","transport_description":null,"transport_unit":"kg km","transport_co2_eq":"0.000000","from_stop_id":"5733","from_stop_lat":"-34.6084175","from_stop_lon":"-58.3731613","to_stop_id":"1837","to_stop_name":"origin","to_stop_lat":"50.0646501","placename":"Buenos Aires, Capital Federal, Argentyna","to_stop_lon":"19.9449799","to_stop":{"id":"1837","name":"origin","lat":"50.0646501","placename":"Krak\u00c3\u00b3w, Polska","lon":"19.9449799"},"from_stop":{"name":"origin","id":"5733","lat":"-34.6084175","lon":"-58.3731613","placename":"Buenos Aires, Capital Federal, Argentyna"}},{"transport_id":"17","id":"3474","transport_name":"None Selected","transport_description":null,"transport_unit":"kg km","transport_co2_eq":"0.000000","from_stop_id":"5734","from_stop_lat":"52.406374","from_stop_lon":"16.9251681","to_stop_id":"1837","to_stop_name":"origin","to_stop_lat":"50.0646501","placename":"Pozna\u00c5\u0084, Polska","to_stop_lon":"19.9449799","to_stop":{"id":"1837","name":"origin","lat":"50.0646501","placename":"Krak\u00c3\u00b3w, Polska","lon":"19.9449799"},"from_stop":{"name":"origin","id":"5734","lat":"52.406374","lon":"16.9251681","placename":"Pozna\u00c5\u0084, Polska"}},{"transport_id":"17","id":"3475","transport_name":"None Selected","transport_description":null,"transport_unit":"kg km","transport_co2_eq":"0.000000","from_stop_id":"5735","from_stop_lat":"50.0646501","from_stop_lon":"19.9449799","to_stop_id":"1837","to_stop_name":"origin","to_stop_lat":"50.0646501","placename":"Krak\u00c3\u00b3w, Polska","to_stop_lon":"19.9449799","to_stop":{"id":"1837","name":"origin","lat":"50.0646501","placename":"Krak\u00c3\u00b3w, Polska","lon":"19.9449799"},"from_stop":{"name":"origin","id":"5735","lat":"50.0646501","lon":"19.9449799","placename":"Krak\u00c3\u00b3w, Polska"}},{"transport_id":"17","id":"3476","transport_name":"None Selected","transport_description":null,"transport_unit":"kg km","transport_co2_eq":"0.000000","from_stop_id":"5736","from_stop_lat":"49.0016751","from_stop_lon":"21.2400295","to_stop_id":"1837","to_stop_name":"origin","to_stop_lat":"50.0646501","placename":"Persz\u00c3\u00b3w, S\u00c5\u0082owacja","to_stop_lon":"19.9449799","to_stop":{"id":"1837","name":"origin","lat":"50.0646501","placename":"Krak\u00c3\u00b3w, Polska","lon":"19.9449799"},"from_stop":{"name":"origin","id":"5736","lat":"49.0016751","lon":"21.2400295","placename":"Persz\u00c3\u00b3w, S\u00c5\u0082owacja"}},{"transport_id":"17","id":"3477","transport_name":"None Selected","transport_description":null,"transport_unit":"kg km","transport_co2_eq":"0.000000","from_stop_id":"5737","from_stop_lat":"48.8939462","from_stop_lon":"18.0378496","to_stop_id":"1837","to_stop_name":"origin","to_stop_lat":"50.0646501","placename":"Trenczyn, S\u00c5\u0082owacja","to_stop_lon":"19.9449799","to_stop":{"id":"1837","name":"origin","lat":"50.0646501","placename":"Krak\u00c3\u00b3w, Polska","lon":"19.9449799"},"from_stop":{"name":"origin","id":"5737","lat":"48.8939462","lon":"18.0378496","placename":"Trenczyn, S\u00c5\u0082owacja"}},{"transport_id":"17","id":"3464","transport_name":"None Selected","transport_description":null,"transport_unit":"kg km","transport_co2_eq":"0.000000","from_stop_id":"5724","from_stop_lat":"50.0388852","from_stop_lon":"18.3067321","to_stop_id":"1837","to_stop_name":"origin","to_stop_lat":"50.0646501","placename":"44-360 Lubomia, Polska","to_stop_lon":"19.9449799","to_stop":{"id":"1837","name":"origin","lat":"50.0646501","placename":"Krak\u00c3\u00b3w, Polska","lon":"19.9449799"},"from_stop":{"name":"origin","id":"5724","lat":"50.0388852","lon":"18.3067321","placename":"44-360 Lubomia, Polska"}},{"transport_id":"17","id":"3465","transport_name":"None Selected","transport_description":null,"transport_unit":"kg km","transport_co2_eq":"0.000000","from_stop_id":"5725","from_stop_lat":"48.1483765","from_stop_lon":"17.1073105","to_stop_id":"1837","to_stop_name":"origin","to_stop_lat":"50.0646501","placename":"Bratys\u00c5\u0082awa, S\u00c5\u0082owacja","to_stop_lon":"19.9449799","to_stop":{"id":"1837","name":"origin","lat":"50.0646501","placename":"Krak\u00c3\u00b3w, Polska","lon":"19.9449799"},"from_stop":{"name":"origin","id":"5725","lat":"48.1483765","lon":"17.1073105","placename":"Bratys\u00c5\u0082awa, S\u00c5\u0082owacja"}},{"transport_id":"17","id":"3466","transport_name":"None Selected","transport_description":null,"transport_unit":"kg km","transport_co2_eq":"0.000000","from_stop_id":"5726","from_stop_lat":"-14.235004","from_stop_lon":"-51.92528","to_stop_id":"1837","to_stop_name":"origin","to_stop_lat":"50.0646501","placename":"Brazylia","to_stop_lon":"19.9449799","to_stop":{"id":"1837","name":"origin","lat":"50.0646501","placename":"Krak\u00c3\u00b3w, Polska","lon":"19.9449799"},"from_stop":{"name":"origin","id":"5726","lat":"-14.235004","lon":"-51.92528","placename":"Brazylia"}},{"transport_id":"17","id":"3467","transport_name":"None Selected","transport_description":null,"transport_unit":"kg km","transport_co2_eq":"0.000000","from_stop_id":"5727","from_stop_lat":"43.192548","from_stop_lon":"17.549551","to_stop_id":"1837","to_stop_name":"origin","to_stop_lat":"50.0646501","placename":"Ljubu\u00c5\u00a1ki, Bosnia i Hercegowina","to_stop_lon":"19.9449799","to_stop":{"id":"1837","name":"origin","lat":"50.0646501","placename":"Krak\u00c3\u00b3w, Polska","lon":"19.9449799"},"from_stop":{"name":"origin","id":"5727","lat":"43.192548","lon":"17.549551","placename":"Ljubu\u00c5\u00a1ki, Bosnia i Hercegowina"}},{"transport_id":"17","id":"3468","transport_name":"None Selected","transport_description":null,"transport_unit":"kg km","transport_co2_eq":"0.000000","from_stop_id":"5728","from_stop_lat":"9.9333333","from_stop_lon":"-84.0833333","to_stop_id":"1837","to_stop_name":"origin","to_stop_lat":"50.0646501","placename":"San Jos\u00c3\u00a9, Kostaryka","to_stop_lon":"19.9449799","to_stop":{"id":"1837","name":"origin","lat":"50.0646501","placename":"Krak\u00c3\u00b3w, Polska","lon":"19.9449799"},"from_stop":{"name":"origin","id":"5728","lat":"9.9333333","lon":"-84.0833333","placename":"San Jos\u00c3\u00a9, Kostaryka"}},{"transport_id":"17","id":"3469","transport_name":"None Selected","transport_description":null,"transport_unit":"kg km","transport_co2_eq":"0.000000","from_stop_id":"5729","from_stop_lat":"54.1115218","from_stop_lon":"22.9307881","to_stop_id":"1837","to_stop_name":"origin","to_stop_lat":"50.0646501","placename":"Suwa\u00c5\u0082ki, Polska","to_stop_lon":"19.9449799","to_stop":{"id":"1837","name":"origin","lat":"50.0646501","placename":"Krak\u00c3\u00b3w, Polska","lon":"19.9449799"},"from_stop":{"name":"origin","id":"5729","lat":"54.1115218","lon":"22.9307881","placename":"Suwa\u00c5\u0082ki, Polska"}},{"transport_id":"17","id":"3470","transport_name":"None Selected","transport_description":null,"transport_unit":"kg km","transport_co2_eq":"0.000000","from_stop_id":"5730","from_stop_lat":"49.9536813","from_stop_lon":"16.1607159","to_stop_id":"1837","to_stop_name":"origin","to_stop_lat":"50.0646501","placename":"566 01 Vysok\u00c3\u00a9 M\u00c3\u00bdto, Czechy","to_stop_lon":"19.9449799","to_stop":{"id":"1837","name":"origin","lat":"50.0646501","placename":"Krak\u00c3\u00b3w, Polska","lon":"19.9449799"},"from_stop":{"name":"origin","id":"5730","lat":"49.9536813","lon":"16.1607159","placename":"566 01 Vysok\u00c3\u00a9 M\u00c3\u00bdto, Czechy"}},{"transport_id":"17","id":"3471","transport_name":"None Selected","transport_description":null,"transport_unit":"kg km","transport_co2_eq":"0.000000","from_stop_id":"5731","from_stop_lat":"53.1324886","from_stop_lon":"23.1688403","to_stop_id":"1837","to_stop_name":"origin","to_stop_lat":"50.0646501","placename":"Bia\u00c5\u0082ystok, Polska","to_stop_lon":"19.9449799","to_stop":{"id":"1837","name":"origin","lat":"50.0646501","placename":"Krak\u00c3\u00b3w, Polska","lon":"19.9449799"},"from_stop":{"name":"origin","id":"5731","lat":"53.1324886","lon":"23.1688403","placename":"Bia\u00c5\u0082ystok, Polska"}}],"outgoing":[]}}},"parts":[{"oid":"4065","imid":"4161","linkid":"","weight":"1","rawemissions":"0","emissions":"0","shipping":"117.13","processemissions":"0","endoflifeemissions":"0","disposaltype":null,"disposalenergy":null,"disposalimpact":null,"disposalemissions":null,"description":"","name":"Mariusz Pawelek","id":"4161","stops":{"origin":{"related_to":"4161","part_or_object":"p","notes":"","placename":"44-360 Lubomia, Polska","id":5724,"name":"origin","lat":"50.0388852","lon":"18.3067321","hops":{"incoming":[],"outgoing":[{"transport_id":"17","id":"3464","transport_name":"None Selected","transport_description":null,"transport_unit":"kg km","transport_co2_eq":"0.000000","from_stop_id":"5724","from_stop_lat":"50.0388852","from_stop_lon":"18.3067321","from_stop_placename":"44-360 Lubomia, Polska","to_stop_id":"1837","to_stop_name":"origin","to_stop_lat":"50.0646501","to_stop_lon":"19.9449799","to_stop_placename":"Krak\u00c3\u00b3w, Polska","to_stop":{"id":"1837","name":"origin","lat":"50.0646501","lon":"19.9449799","placename":"Krak\u00c3\u00b3w, Polska"},"from_stop":{"name":"origin","id":"5724","lat":"50.0388852","lon":"18.3067321","placename":"44-360 Lubomia, Polska"}}]}}},"processes":[],"eols":[]},{"oid":"4065","imid":"4162","linkid":"","weight":"1","rawemissions":"0","emissions":"0","shipping":"297.06","processemissions":"0","endoflifeemissions":"0","disposaltype":null,"disposalenergy":null,"disposalimpact":null,"disposalemissions":null,"description":"","name":"Erik Cikos","id":"4162","stops":{"origin":{"related_to":"4162","part_or_object":"p","notes":"","placename":"Bratys\u00c5\u0082awa, S\u00c5\u0082owacja","id":5725,"name":"origin","lat":"48.1483765","lon":"17.1073105","hops":{"incoming":[],"outgoing":[{"transport_id":"17","id":"3465","transport_name":"None Selected","transport_description":null,"transport_unit":"kg km","transport_co2_eq":"0.000000","from_stop_id":"5725","from_stop_lat":"48.1483765","from_stop_lon":"17.1073105","from_stop_placename":"Bratys\u00c5\u0082awa, S\u00c5\u0082owacja","to_stop_id":"1837","to_stop_name":"origin","to_stop_lat":"50.0646501","to_stop_lon":"19.9449799","to_stop_placename":"Krak\u00c3\u00b3w, Polska","to_stop":{"id":"1837","name":"origin","lat":"50.0646501","lon":"19.9449799","placename":"Krak\u00c3\u00b3w, Polska"},"from_stop":{"name":"origin","id":"5725","lat":"48.1483765","lon":"17.1073105","placename":"Bratys\u00c5\u0082awa, S\u00c5\u0082owacja"}}]}}},"processes":[],"eols":[]},{"oid":"4065","imid":"4163","linkid":"","weight":"1","rawemissions":"0","emissions":"0","shipping":"9986.45","processemissions":"0","endoflifeemissions":"0","disposaltype":null,"disposalenergy":null,"disposalimpact":null,"disposalemissions":null,"description":"","name":"Cleber","id":"4163","stops":{"origin":{"related_to":"4163","part_or_object":"p","notes":"","placename":"Brazylia","id":5726,"name":"origin","lat":"-14.235004","lon":"-51.92528","hops":{"incoming":[],"outgoing":[{"transport_id":"17","id":"3466","transport_name":"None Selected","transport_description":null,"transport_unit":"kg km","transport_co2_eq":"0.000000","from_stop_id":"5726","from_stop_lat":"-14.235004","from_stop_lon":"-51.92528","from_stop_placename":"Brazylia","to_stop_id":"1837","to_stop_name":"origin","to_stop_lat":"50.0646501","to_stop_lon":"19.9449799","to_stop_placename":"Krak\u00c3\u00b3w, Polska","to_stop":{"id":"1837","name":"origin","lat":"50.0646501","lon":"19.9449799","placename":"Krak\u00c3\u00b3w, Polska"},"from_stop":{"name":"origin","id":"5726","lat":"-14.235004","lon":"-51.92528","placename":"Brazylia"}}]}}},"processes":[],"eols":[]},{"oid":"4065","imid":"4164","linkid":"","weight":"1","rawemissions":"0","emissions":"0","shipping":"786.5","processemissions":"0","endoflifeemissions":"0","disposaltype":null,"disposalenergy":null,"disposalimpact":null,"disposalemissions":null,"description":"","name":"Gordan Bunoza","id":"4164","stops":{"origin":{"related_to":"4164","part_or_object":"p","notes":"","placename":"Ljubu\u00c5\u00a1ki, Bosnia i Hercegowina","id":5727,"name":"origin","lat":"43.192548","lon":"17.549551","hops":{"incoming":[],"outgoing":[{"transport_id":"17","id":"3467","transport_name":"None Selected","transport_description":null,"transport_unit":"kg km","transport_co2_eq":"0.000000","from_stop_id":"5727","from_stop_lat":"43.192548","from_stop_lon":"17.549551","from_stop_placename":"Ljubu\u00c5\u00a1ki, Bosnia i Hercegowina","to_stop_id":"1837","to_stop_name":"origin","to_stop_lat":"50.0646501","to_stop_lon":"19.9449799","to_stop_placename":"Krak\u00c3\u00b3w, Polska","to_stop":{"id":"1837","name":"origin","lat":"50.0646501","lon":"19.9449799","placename":"Krak\u00c3\u00b3w, Polska"},"from_stop":{"name":"origin","id":"5727","lat":"43.192548","lon":"17.549551","placename":"Ljubu\u00c5\u00a1ki, Bosnia i Hercegowina"}}]}}},"processes":[],"eols":[]},{"oid":"4065","imid":"4165","linkid":"","weight":"1","rawemissions":"0","emissions":"0","shipping":"10152.71","processemissions":"0","endoflifeemissions":"0","disposaltype":null,"disposalenergy":null,"disposalimpact":null,"disposalemissions":null,"description":"WISLA KRAKOW","name":"Junior Enrique Diaz Campbell","id":"4165","stops":{"origin":{"related_to":"4165","part_or_object":"p","notes":"","placename":"San Jos\u00c3\u00a9, Kostaryka","id":5728,"name":"origin","lat":"9.9333333","lon":"-84.0833333","hops":{"incoming":[],"outgoing":[{"transport_id":"17","id":"3468","transport_name":"None Selected","transport_description":null,"transport_unit":"kg km","transport_co2_eq":"0.000000","from_stop_id":"5728","from_stop_lat":"9.9333333","from_stop_lon":"-84.0833333","from_stop_placename":"San Jos\u00c3\u00a9, Kostaryka","to_stop_id":"1837","to_stop_name":"origin","to_stop_lat":"50.0646501","to_stop_lon":"19.9449799","to_stop_placename":"Krak\u00c3\u00b3w, Polska","to_stop":{"id":"1837","name":"origin","lat":"50.0646501","lon":"19.9449799","placename":"Krak\u00c3\u00b3w, Polska"},"from_stop":{"name":"origin","id":"5728","lat":"9.9333333","lon":"-84.0833333","placename":"San Jos\u00c3\u00a9, Kostaryka"}}]}}},"processes":[],"eols":[]},{"oid":"4065","imid":"4166","linkid":"","weight":"1","rawemissions":"0","emissions":"0","shipping":"494.52","processemissions":"0","endoflifeemissions":"0","disposaltype":null,"disposalenergy":null,"disposalimpact":null,"disposalemissions":null,"description":"WISLA KRAKOW","name":"Patryk Malecki","id":"4166","stops":{"origin":{"related_to":"4166","part_or_object":"p","notes":"","placename":"Suwa\u00c5\u0082ki, Polska","id":5729,"name":"origin","lat":"54.1115218","lon":"22.9307881","hops":{"incoming":[],"outgoing":[{"transport_id":"17","id":"3469","transport_name":"None Selected","transport_description":null,"transport_unit":"kg km","transport_co2_eq":"0.000000","from_stop_id":"5729","from_stop_lat":"54.1115218","from_stop_lon":"22.9307881","from_stop_placename":"Suwa\u00c5\u0082ki, Polska","to_stop_id":"1837","to_stop_name":"origin","to_stop_lat":"50.0646501","to_stop_lon":"19.9449799","to_stop_placename":"Krak\u00c3\u00b3w, Polska","to_stop":{"id":"1837","name":"origin","lat":"50.0646501","lon":"19.9449799","placename":"Krak\u00c3\u00b3w, Polska"},"from_stop":{"name":"origin","id":"5729","lat":"54.1115218","lon":"22.9307881","placename":"Suwa\u00c5\u0082ki, Polska"}}]}}},"processes":[],"eols":[]},{"oid":"4065","imid":"4167","linkid":"","weight":"1","rawemissions":"0","emissions":"0","shipping":"270.98","processemissions":"0","endoflifeemissions":"0","disposaltype":null,"disposalenergy":null,"disposalimpact":null,"disposalemissions":null,"description":"WISLA KRAKOW","name":"Tomas Jirsak","id":"4167","stops":{"origin":{"related_to":"4167","part_or_object":"p","notes":"","placename":"566 01 Vysok\u00c3\u00a9 M\u00c3\u00bdto, Czechy","id":5730,"name":"origin","lat":"49.9536813","lon":"16.1607159","hops":{"incoming":[],"outgoing":[{"transport_id":"17","id":"3470","transport_name":"None Selected","transport_description":null,"transport_unit":"kg km","transport_co2_eq":"0.000000","from_stop_id":"5730","from_stop_lat":"49.9536813","from_stop_lon":"16.1607159","from_stop_placename":"566 01 Vysok\u00c3\u00a9 M\u00c3\u00bdto, Czechy","to_stop_id":"1837","to_stop_name":"origin","to_stop_lat":"50.0646501","to_stop_lon":"19.9449799","to_stop_placename":"Krak\u00c3\u00b3w, Polska","to_stop":{"id":"1837","name":"origin","lat":"50.0646501","lon":"19.9449799","placename":"Krak\u00c3\u00b3w, Polska"},"from_stop":{"name":"origin","id":"5730","lat":"49.9536813","lon":"16.1607159","placename":"566 01 Vysok\u00c3\u00a9 M\u00c3\u00bdto, Czechy"}}]}}},"processes":[],"eols":[]},{"oid":"4065","imid":"4168","linkid":"","weight":"1","rawemissions":"0","emissions":"0","shipping":"407.73","processemissions":"0","endoflifeemissions":"0","disposaltype":null,"disposalenergy":null,"disposalimpact":null,"disposalemissions":null,"description":"WISLA KRAKOW","name":"Radoslaw Sobolewski","id":"4168","stops":{"origin":{"related_to":"4168","part_or_object":"p","notes":"","placename":"Bia\u00c5\u0082ystok, Polska","id":5731,"name":"origin","lat":"53.1324886","lon":"23.1688403","hops":{"incoming":[],"outgoing":[{"transport_id":"17","id":"3471","transport_name":"None Selected","transport_description":null,"transport_unit":"kg km","transport_co2_eq":"0.000000","from_stop_id":"5731","from_stop_lat":"53.1324886","from_stop_lon":"23.1688403","from_stop_placename":"Bia\u00c5\u0082ystok, Polska","to_stop_id":"1837","to_stop_name":"origin","to_stop_lat":"50.0646501","to_stop_lon":"19.9449799","to_stop_placename":"Krak\u00c3\u00b3w, Polska","to_stop":{"id":"1837","name":"origin","lat":"50.0646501","lon":"19.9449799","placename":"Krak\u00c3\u00b3w, Polska"},"from_stop":{"name":"origin","id":"5731","lat":"53.1324886","lon":"23.1688403","placename":"Bia\u00c5\u0082ystok, Polska"}}]}}},"processes":[],"eols":[]},{"oid":"4065","imid":"4169","linkid":"","weight":"1","rawemissions":"0","emissions":"0","shipping":"668.07","processemissions":"0","endoflifeemissions":"0","disposaltype":null,"disposalenergy":null,"disposalimpact":null,"disposalemissions":null,"description":"WISLA KRAKOW","name":"Dragan Pajlic","id":"4169","stops":{"origin":{"related_to":"4169","part_or_object":"p","notes":"","placename":"Starnberg, Niemcy","id":5732,"name":"origin","lat":"48.000536","lon":"11.342857","hops":{"incoming":[],"outgoing":[{"transport_id":"17","id":"3472","transport_name":"None Selected","transport_description":null,"transport_unit":"kg km","transport_co2_eq":"0.000000","from_stop_id":"5732","from_stop_lat":"48.000536","from_stop_lon":"11.342857","from_stop_placename":"Starnberg, Niemcy","to_stop_id":"1837","to_stop_name":"origin","to_stop_lat":"50.0646501","to_stop_lon":"19.9449799","to_stop_placename":"Krak\u00c3\u00b3w, Polska","to_stop":{"id":"1837","name":"origin","lat":"50.0646501","lon":"19.9449799","placename":"Krak\u00c3\u00b3w, Polska"},"from_stop":{"name":"origin","id":"5732","lat":"48.000536","lon":"11.342857","placename":"Starnberg, Niemcy"}}]}}},"processes":[],"eols":[]},{"oid":"4065","imid":"4170","linkid":"","weight":"1","rawemissions":"0","emissions":"0","shipping":"12153.76","processemissions":"0","endoflifeemissions":"0","disposaltype":null,"disposalenergy":null,"disposalimpact":null,"disposalemissions":null,"description":"WISLA KRAKOW","name":"Andres Lorenzo Rios","id":"4170","stops":{"origin":{"related_to":"4170","part_or_object":"p","notes":"","placename":"Buenos Aires, Capital Federal, Argentyna","id":5733,"name":"origin","lat":"-34.6084175","lon":"-58.3731613","hops":{"incoming":[],"outgoing":[{"transport_id":"17","id":"3473","transport_name":"None Selected","transport_description":null,"transport_unit":"kg km","transport_co2_eq":"0.000000","from_stop_id":"5733","from_stop_lat":"-34.6084175","from_stop_lon":"-58.3731613","from_stop_placename":"Buenos Aires, Capital Federal, Argentyna","to_stop_id":"1837","to_stop_name":"origin","to_stop_lat":"50.0646501","to_stop_lon":"19.9449799","to_stop_placename":"Krak\u00c3\u00b3w, Polska","to_stop":{"id":"1837","name":"origin","lat":"50.0646501","lon":"19.9449799","placename":"Krak\u00c3\u00b3w, Polska"},"from_stop":{"name":"origin","id":"5733","lat":"-34.6084175","lon":"-58.3731613","placename":"Buenos Aires, Capital Federal, Argentyna"}}]}}},"processes":[],"eols":[]},{"oid":"4065","imid":"4171","linkid":"","weight":"1","rawemissions":"0","emissions":"0","shipping":"334.98","processemissions":"0","endoflifeemissions":"0","disposaltype":null,"disposalenergy":null,"disposalimpact":null,"disposalemissions":null,"description":"WISLA KRAKOW","name":"Maciej Zurawski","id":"4171","stops":{"origin":{"related_to":"4171","part_or_object":"p","notes":"","placename":"Pozna\u00c5\u0084, Polska","id":5734,"name":"origin","lat":"52.406374","lon":"16.9251681","hops":{"incoming":[],"outgoing":[{"transport_id":"17","id":"3474","transport_name":"None Selected","transport_description":null,"transport_unit":"kg km","transport_co2_eq":"0.000000","from_stop_id":"5734","from_stop_lat":"52.406374","from_stop_lon":"16.9251681","from_stop_placename":"Pozna\u00c5\u0084, Polska","to_stop_id":"1837","to_stop_name":"origin","to_stop_lat":"50.0646501","to_stop_lon":"19.9449799","to_stop_placename":"Krak\u00c3\u00b3w, Polska","to_stop":{"id":"1837","name":"origin","lat":"50.0646501","lon":"19.9449799","placename":"Krak\u00c3\u00b3w, Polska"},"from_stop":{"name":"origin","id":"5734","lat":"52.406374","lon":"16.9251681","placename":"Pozna\u00c5\u0084, Polska"}}]}}},"processes":[],"eols":[]},{"oid":"4065","imid":"4172","linkid":"","weight":"1","rawemissions":"0","emissions":"0","shipping":"0","processemissions":"0","endoflifeemissions":"0","disposaltype":null,"disposalenergy":null,"disposalimpact":null,"disposalemissions":null,"description":"","name":"Marcin Juszczyk","id":"4172","stops":{"origin":{"related_to":"4172","part_or_object":"p","notes":"","placename":"Krak\u00c3\u00b3w, Polska","id":5735,"name":"origin","lat":"50.0646501","lon":"19.9449799","hops":{"incoming":[],"outgoing":[{"transport_id":"17","id":"3475","transport_name":"None Selected","transport_description":null,"transport_unit":"kg km","transport_co2_eq":"0.000000","from_stop_id":"5735","from_stop_lat":"50.0646501","from_stop_lon":"19.9449799","from_stop_placename":"Krak\u00c3\u00b3w, Polska","to_stop_id":"1837","to_stop_name":"origin","to_stop_lat":"50.0646501","to_stop_lon":"19.9449799","to_stop_placename":"Krak\u00c3\u00b3w, Polska","to_stop":{"id":"1837","name":"origin","lat":"50.0646501","lon":"19.9449799","placename":"Krak\u00c3\u00b3w, Polska"},"from_stop":{"name":"origin","id":"5735","lat":"50.0646501","lon":"19.9449799","placename":"Krak\u00c3\u00b3w, Polska"}}]}}},"processes":[],"eols":[]},{"oid":"4065","imid":"4173","linkid":"","weight":"1","rawemissions":"0","emissions":"0","shipping":"150.85","processemissions":"0","endoflifeemissions":"0","disposaltype":null,"disposalenergy":null,"disposalimpact":null,"disposalemissions":null,"description":"","name":"Peter Hricko","id":"4173","stops":{"origin":{"related_to":"4173","part_or_object":"p","notes":"","placename":"Persz\u00c3\u00b3w, S\u00c5\u0082owacja","id":5736,"name":"origin","lat":"49.0016751","lon":"21.2400295","hops":{"incoming":[],"outgoing":[{"transport_id":"17","id":"3476","transport_name":"None Selected","transport_description":null,"transport_unit":"kg km","transport_co2_eq":"0.000000","from_stop_id":"5736","from_stop_lat":"49.0016751","from_stop_lon":"21.2400295","from_stop_placename":"Persz\u00c3\u00b3w, S\u00c5\u0082owacja","to_stop_id":"1837","to_stop_name":"origin","to_stop_lat":"50.0646501","to_stop_lon":"19.9449799","to_stop_placename":"Krak\u00c3\u00b3w, Polska","to_stop":{"id":"1837","name":"origin","lat":"50.0646501","lon":"19.9449799","placename":"Krak\u00c3\u00b3w, Polska"},"from_stop":{"name":"origin","id":"5736","lat":"49.0016751","lon":"21.2400295","placename":"Persz\u00c3\u00b3w, S\u00c5\u0082owacja"}}]}}},"processes":[],"eols":[]},{"oid":"4065","imid":"4174","linkid":"","weight":"1","rawemissions":"0","emissions":"0","shipping":"189.75","processemissions":"0","endoflifeemissions":"0","disposaltype":null,"disposalenergy":null,"disposalimpact":null,"disposalemissions":null,"description":"","name":"Michal Hanek","id":"4174","stops":{"origin":{"related_to":"4174","part_or_object":"p","notes":"","placename":"Trenczyn, S\u00c5\u0082owacja","id":5737,"name":"origin","lat":"48.8939462","lon":"18.0378496","hops":{"incoming":[],"outgoing":[{"transport_id":"17","id":"3477","transport_name":"None Selected","transport_description":null,"transport_unit":"kg km","transport_co2_eq":"0.000000","from_stop_id":"5737","from_stop_lat":"48.8939462","from_stop_lon":"18.0378496","from_stop_placename":"Trenczyn, S\u00c5\u0082owacja","to_stop_id":"1837","to_stop_name":"origin","to_stop_lat":"50.0646501","to_stop_lon":"19.9449799","to_stop_placename":"Krak\u00c3\u00b3w, Polska","to_stop":{"id":"1837","name":"origin","lat":"50.0646501","lon":"19.9449799","placename":"Krak\u00c3\u00b3w, Polska"},"from_stop":{"name":"origin","id":"5737","lat":"48.8939462","lon":"18.0378496","placename":"Trenczyn, S\u00c5\u0082owacja"}}]}}},"processes":[],"eols":[]},{"oid":"4065","imid":"4186","linkid":"","weight":"1","rawemissions":"0","emissions":"0","shipping":"235.95","processemissions":"0","endoflifeemissions":"0","disposaltype":null,"disposalenergy":null,"disposalimpact":null,"disposalemissions":null,"description":"Polonia Bytom","name":"Mateusz Zytko","id":"4186","stops":{"origin":{"related_to":"4186","part_or_object":"p","notes":"","placename":"Wroc\u00c5\u0082aw, Polska","id":5751,"name":"origin","lat":"51.1078852","lon":"17.0385376","hops":{"incoming":[],"outgoing":[{"transport_id":"1","id":"3491","transport_name":"van, 3.5 tons","transport_description":"delivery van, half full","transport_unit":"kg km","transport_co2_eq":"0.053400","from_stop_id":"5751","from_stop_lat":"51.1078852","from_stop_lon":"17.0385376","from_stop_placename":"Wroc\u00c5\u0082aw, Polska","to_stop_id":"1837","to_stop_name":"origin","to_stop_lat":"50.0646501","to_stop_lon":"19.9449799","to_stop_placename":"Krak\u00c3\u00b3w, Polska","to_stop":{"id":"1837","name":"origin","lat":"50.0646501","lon":"19.9449799","placename":"Krak\u00c3\u00b3w, Polska"},"from_stop":{"name":"origin","id":"5751","lat":"51.1078852","lon":"17.0385376","placename":"Wroc\u00c5\u0082aw, Polska"}}]}}},"processes":[],"eols":[]},{"oid":"4065","imid":"4187","linkid":"","weight":"1","rawemissions":"0","emissions":"0","shipping":"527.3","processemissions":"0","endoflifeemissions":"0","disposaltype":null,"disposalenergy":null,"disposalimpact":null,"disposalemissions":null,"description":"Polonia Bytom","name":"Aradiusz Mysona","id":"4187","stops":{"origin":{"related_to":"4187","part_or_object":"p","notes":"","placename":"Szczecin, Polska","id":5754,"name":"origin","lat":"53.4285438","lon":"14.5528116","hops":{"incoming":[],"outgoing":[{"transport_id":"1","id":"3494","transport_name":"van, 3.5 tons","transport_description":"delivery van, half full","transport_unit":"kg km","transport_co2_eq":"0.053400","from_stop_id":"5754","from_stop_lat":"53.4285438","from_stop_lon":"14.5528116","from_stop_placename":"Szczecin, Polska","to_stop_id":"1837","to_stop_name":"origin","to_stop_lat":"50.0646501","to_stop_lon":"19.9449799","to_stop_placename":"Krak\u00c3\u00b3w, Polska","to_stop":{"id":"1837","name":"origin","lat":"50.0646501","lon":"19.9449799","placename":"Krak\u00c3\u00b3w, Polska"},"from_stop":{"name":"origin","id":"5754","lat":"53.4285438","lon":"14.5528116","placename":"Szczecin, Polska"}}]}}},"processes":[],"eols":[]},{"oid":"4065","imid":"4188","linkid":"","weight":"1","rawemissions":"0","emissions":"0","shipping":"108.49","processemissions":"0","endoflifeemissions":"0","disposaltype":null,"disposalenergy":null,"disposalimpact":null,"disposalemissions":null,"description":"Polonia Bytom","name":"Miroslav Barcik","id":"4188","stops":{"origin":{"related_to":"4188","part_or_object":"p","notes":"","placename":"Czadca, S\u00c5\u0082owacja","id":5757,"name":"origin","lat":"49.4379367","lon":"18.7897011","hops":{"incoming":[],"outgoing":[{"transport_id":"1","id":"3497","transport_name":"van, 3.5 tons","transport_description":"delivery van, half full","transport_unit":"kg km","transport_co2_eq":"0.053400","from_stop_id":"5757","from_stop_lat":"49.4379367","from_stop_lon":"18.7897011","from_stop_placename":"Czadca, S\u00c5\u0082owacja","to_stop_id":"1837","to_stop_name":"origin","to_stop_lat":"50.0646501","to_stop_lon":"19.9449799","to_stop_placename":"Krak\u00c3\u00b3w, Polska","to_stop":{"id":"1837","name":"origin","lat":"50.0646501","lon":"19.9449799","placename":"Krak\u00c3\u00b3w, Polska"},"from_stop":{"name":"origin","id":"5757","lat":"49.4379367","lon":"18.7897011","placename":"Czadca, S\u00c5\u0082owacja"}}]}}},"processes":[],"eols":[]},{"oid":"4065","imid":"4189","linkid":"","weight":"1","rawemissions":"0","emissions":"0","shipping":"393.69","processemissions":"0","endoflifeemissions":"0","disposaltype":null,"disposalenergy":null,"disposalimpact":null,"disposalemissions":null,"description":"Polonia Bytom","name":"Szymon Sawala","id":"4189","stops":{"origin":{"related_to":"4189","part_or_object":"p","notes":"","placename":"Sierak\u00c3\u00b3w, Polska","id":5758,"name":"origin","lat":"52.65088","lon":"16.07973","hops":{"incoming":[],"outgoing":[{"transport_id":"1","id":"3498","transport_name":"van, 3.5 tons","transport_description":"delivery van, half full","transport_unit":"kg km","transport_co2_eq":"0.053400","from_stop_id":"5758","from_stop_lat":"52.65088","from_stop_lon":"16.07973","from_stop_placename":"Sierak\u00c3\u00b3w, Polska","to_stop_id":"1837","to_stop_name":"origin","to_stop_lat":"50.0646501","to_stop_lon":"19.9449799","to_stop_placename":"Krak\u00c3\u00b3w, Polska","to_stop":{"id":"1837","name":"origin","lat":"50.0646501","lon":"19.9449799","placename":"Krak\u00c3\u00b3w, Polska"},"from_stop":{"name":"origin","id":"5758","lat":"52.65088","lon":"16.07973","placename":"Sierak\u00c3\u00b3w, Polska"}}]}}},"processes":[],"eols":[]},{"oid":"4065","imid":"4190","linkid":"","weight":"1","rawemissions":"0","emissions":"0","shipping":"407.73","processemissions":"0","endoflifeemissions":"0","disposaltype":null,"disposalenergy":null,"disposalimpact":null,"disposalemissions":null,"description":"Polonia Bytom","name":"Jacek Falkowski","id":"4190","stops":{"origin":{"related_to":"4190","part_or_object":"p","notes":"","placename":"Bia\u00c5\u0082ystok, Polska","id":5759,"name":"origin","lat":"53.1324886","lon":"23.1688403","hops":{"incoming":[],"outgoing":[{"transport_id":"1","id":"3499","transport_name":"van, 3.5 tons","transport_description":"delivery van, half full","transport_unit":"kg km","transport_co2_eq":"0.053400","from_stop_id":"5759","from_stop_lat":"53.1324886","from_stop_lon":"23.1688403","from_stop_placename":"Bia\u00c5\u0082ystok, Polska","to_stop_id":"1837","to_stop_name":"origin","to_stop_lat":"50.0646501","to_stop_lon":"19.9449799","to_stop_placename":"Krak\u00c3\u00b3w, Polska","to_stop":{"id":"1837","name":"origin","lat":"50.0646501","lon":"19.9449799","placename":"Krak\u00c3\u00b3w, Polska"},"from_stop":{"name":"origin","id":"5759","lat":"53.1324886","lon":"23.1688403","placename":"Bia\u00c5\u0082ystok, Polska"}}]}}},"processes":[],"eols":[]},{"oid":"4065","imid":"4191","linkid":"","weight":"1","rawemissions":"0","emissions":"0","shipping":"7743.3","processemissions":"0","endoflifeemissions":"0","disposaltype":null,"disposalenergy":null,"disposalimpact":null,"disposalemissions":null,"description":"Polonia Bytom","name":"Clemence Matawu","id":"4191","stops":{"origin":{"related_to":"4191","part_or_object":"p","notes":"","placename":"Zimbabwe","id":5762,"name":"origin","lat":"-19.015438","lon":"29.154857","hops":{"incoming":[],"outgoing":[{"transport_id":"14","id":"3502","transport_name":"air, passenger, intercontinental","transport_description":"intercontinental, kg km from person-km","transport_unit":"kg km","transport_co2_eq":"1.189000","from_stop_id":"5762","from_stop_lat":"-19.015438","from_stop_lon":"29.154857","from_stop_placename":"Zimbabwe","to_stop_id":"1837","to_stop_name":"origin","to_stop_lat":"50.0646501","to_stop_lon":"19.9449799","to_stop_placename":"Krak\u00c3\u00b3w, Polska","to_stop":{"id":"1837","name":"origin","lat":"50.0646501","lon":"19.9449799","placename":"Krak\u00c3\u00b3w, Polska"},"from_stop":{"name":"origin","id":"5762","lat":"-19.015438","lon":"29.154857","placename":"Zimbabwe"}}]}}},"processes":[],"eols":[]},{"oid":"4065","imid":"4192","linkid":"","weight":"1","rawemissions":"0","emissions":"0","shipping":"98.78","processemissions":"0","endoflifeemissions":"0","disposaltype":null,"disposalenergy":null,"disposalimpact":null,"disposalemissions":null,"description":"Polonia Bytom","name":"Marcin Radzewicz","id":"4192","stops":{"origin":{"related_to":"4192","part_or_object":"p","notes":"","placename":"Jastrz\u00c4\u0099bie-Zdr\u00c3\u00b3j, Polska","id":5784,"name":"origin","lat":"49.9547281","lon":"18.574813","hops":{"incoming":[],"outgoing":[{"transport_id":"1","id":"3524","transport_name":"van, 3.5 tons","transport_description":"delivery van, half full","transport_unit":"kg km","transport_co2_eq":"0.053400","from_stop_id":"5784","from_stop_lat":"49.9547281","from_stop_lon":"18.574813","from_stop_placename":"Jastrz\u00c4\u0099bie-Zdr\u00c3\u00b3j, Polska","to_stop_id":"1837","to_stop_name":"origin","to_stop_lat":"50.0646501","to_stop_lon":"19.9449799","to_stop_placename":"Krak\u00c3\u00b3w, Polska","to_stop":{"id":"1837","name":"origin","lat":"50.0646501","lon":"19.9449799","placename":"Krak\u00c3\u00b3w, Polska"},"from_stop":{"name":"origin","id":"5784","lat":"49.9547281","lon":"18.574813","placename":"Jastrz\u00c4\u0099bie-Zdr\u00c3\u00b3j, Polska"}}]}}},"processes":[],"eols":[]},{"oid":"4065","imid":"4193","linkid":"","weight":"1","rawemissions":"0","emissions":"0","shipping":"88.47","processemissions":"0","endoflifeemissions":"0","disposaltype":null,"disposalenergy":null,"disposalimpact":null,"disposalemissions":null,"description":"Polonia Bytom","name":"Robert Wojsyk","id":"4193","stops":{"origin":{"related_to":"4193","part_or_object":"p","notes":"","placename":"Tarnowskie G\u00c3\u00b3ry, Polska","id":5785,"name":"origin","lat":"50.4359468","lon":"18.8460247","hops":{"incoming":[],"outgoing":[{"transport_id":"1","id":"3525","transport_name":"van, 3.5 tons","transport_description":"delivery van, half full","transport_unit":"kg km","transport_co2_eq":"0.053400","from_stop_id":"5785","from_stop_lat":"50.4359468","from_stop_lon":"18.8460247","from_stop_placename":"Tarnowskie G\u00c3\u00b3ry, Polska","to_stop_id":"1837","to_stop_name":"origin","to_stop_lat":"50.0646501","to_stop_lon":"19.9449799","to_stop_placename":"Krak\u00c3\u00b3w, Polska","to_stop":{"id":"1837","name":"origin","lat":"50.0646501","lon":"19.9449799","placename":"Krak\u00c3\u00b3w, Polska"},"from_stop":{"name":"origin","id":"5785","lat":"50.4359468","lon":"18.8460247","placename":"Tarnowskie G\u00c3\u00b3ry, Polska"}}]}}},"processes":[],"eols":[]}],"user":{"name":"mplaza23","id":"10465"}}}