{"4085":{"oid":"4085","type":"object","flag":"","creator":"6893","name":"accesories","upc":"","imagelink":"","description":"25% leather 25% polyester 25% steel 25% acrylic","slug":"accesories","category":"","weight":"228","emissions":"693.12","embodied":"693.12","transport":"0","process":"0","endoflife":"-693.12","shipping":"36705.72","lifetime":null,"usagetype":"","usageenergy":null,"usageemissions":null,"timecreated":"2010-08-31 11:22:19.463273","timemodified":"2010-11-22 12:18:49","visibility":"private","showfootprint":"on","showembodied":"on","showtransport":"on","showprocess":"on","showendoflife":"on","showlastleg":"on","showuse":"on","showstats":"on","stops":{"origin":{"related_to":"4085","part_or_object":"o","notes":null,"placename":"Orlando, FL, USA","id":"7111","category":"1","lat":"28.5383355","lon":"-81.3792365","name":"origin","hops":{"incoming":[{"transport_id":"17","id":"4720","transport_name":"None Selected","transport_description":null,"transport_unit":"kg km","transport_co2_eq":"0.000000","from_stop_id":"7112","from_stop_lat":"0","from_stop_lon":"0","to_stop_id":"7111","to_stop_name":"origin","to_stop_lat":"28.5383355","placename":"Part Location","to_stop_lon":"-81.3792365","to_stop":{"id":"7111","name":"origin","lat":"28.5383355","placename":"Orlando, FL, USA","lon":"-81.3792365"},"from_stop":{"name":"origin","id":"7112","lat":"0","lon":"0","placename":"Part Location"}},{"transport_id":"17","id":"4721","transport_name":"None Selected","transport_description":null,"transport_unit":"kg km","transport_co2_eq":"0.000000","from_stop_id":"7113","from_stop_lat":"0","from_stop_lon":"0","to_stop_id":"7111","to_stop_name":"origin","to_stop_lat":"28.5383355","placename":"Part Location","to_stop_lon":"-81.3792365","to_stop":{"id":"7111","name":"origin","lat":"28.5383355","placename":"Orlando, FL, USA","lon":"-81.3792365"},"from_stop":{"name":"origin","id":"7113","lat":"0","lon":"0","placename":"Part Location"}},{"transport_id":"17","id":"4722","transport_name":"None Selected","transport_description":null,"transport_unit":"kg km","transport_co2_eq":"0.000000","from_stop_id":"7114","from_stop_lat":"0","from_stop_lon":"0","to_stop_id":"7111","to_stop_name":"origin","to_stop_lat":"28.5383355","placename":"Part Location","to_stop_lon":"-81.3792365","to_stop":{"id":"7111","name":"origin","lat":"28.5383355","placename":"Orlando, FL, USA","lon":"-81.3792365"},"from_stop":{"name":"origin","id":"7114","lat":"0","lon":"0","placename":"Part Location"}},{"transport_id":"17","id":"4723","transport_name":"None Selected","transport_description":null,"transport_unit":"kg km","transport_co2_eq":"0.000000","from_stop_id":"7115","from_stop_lat":"0","from_stop_lon":"0","to_stop_id":"7111","to_stop_name":"origin","to_stop_lat":"28.5383355","placename":"Part Location","to_stop_lon":"-81.3792365","to_stop":{"id":"7111","name":"origin","lat":"28.5383355","placename":"Orlando, FL, USA","lon":"-81.3792365"},"from_stop":{"name":"origin","id":"7115","lat":"0","lon":"0","placename":"Part Location"}}],"outgoing":[]}}},"parts":[{"oid":"4085","imid":"4234","linkid":"parts\/leather","weight":"57","rawemissions":"0.27","emissions":"15.39","shipping":"9176.43","processemissions":"0","endoflifeemissions":"-15.39","disposaltype":null,"disposalenergy":null,"disposalimpact":null,"disposalemissions":null,"description":"","name":"Leather","id":"4234","stops":{"origin":{"related_to":"4234","part_or_object":"p","notes":null,"placename":"Part Location","id":7112,"name":"origin","lat":"0","lon":"0","hops":{"incoming":[],"outgoing":[{"transport_id":"17","id":"4720","transport_name":"None Selected","transport_description":null,"transport_unit":"kg km","transport_co2_eq":"0.000000","from_stop_id":"7112","from_stop_lat":"0","from_stop_lon":"0","from_stop_placename":"Part Location","to_stop_id":"7111","to_stop_name":"origin","to_stop_lat":"28.5383355","to_stop_lon":"-81.3792365","to_stop_placename":"Orlando, FL, USA","to_stop":{"id":"7111","name":"origin","lat":"28.5383355","lon":"-81.3792365","placename":"Orlando, FL, USA"},"from_stop":{"name":"origin","id":"7112","lat":"0","lon":"0","placename":"Part Location"}}]}}},"processes":[],"eols":[{"id":"185","name":"Leather","description":null,"type":"reuse","emissions":"0","parts_inst_id":"4234","unit":"","factor":null}]},{"oid":"4085","imid":"4235","linkid":"parts\/polyester-fabric","weight":"57","rawemissions":"8.9","emissions":"507.3","shipping":"9176.43","processemissions":"0","endoflifeemissions":"-507.3","disposaltype":null,"disposalenergy":null,"disposalimpact":null,"disposalemissions":null,"description":"","name":"Polyester fabric","id":"4235","stops":{"origin":{"related_to":"4235","part_or_object":"p","notes":null,"placename":"Part Location","id":7113,"name":"origin","lat":"0","lon":"0","hops":{"incoming":[],"outgoing":[{"transport_id":"17","id":"4721","transport_name":"None Selected","transport_description":null,"transport_unit":"kg km","transport_co2_eq":"0.000000","from_stop_id":"7113","from_stop_lat":"0","from_stop_lon":"0","from_stop_placename":"Part Location","to_stop_id":"7111","to_stop_name":"origin","to_stop_lat":"28.5383355","to_stop_lon":"-81.3792365","to_stop_placename":"Orlando, FL, USA","to_stop":{"id":"7111","name":"origin","lat":"28.5383355","lon":"-81.3792365","placename":"Orlando, FL, USA"},"from_stop":{"name":"origin","id":"7113","lat":"0","lon":"0","placename":"Part Location"}}]}}},"processes":[],"eols":[{"id":"186","name":"Polyester fabric","description":null,"type":"reuse","emissions":"0","parts_inst_id":"4235","unit":"","factor":null}]},{"oid":"4085","imid":"4236","linkid":"parts\/steel-recycled","weight":"57","rawemissions":"0.49","emissions":"27.93","shipping":"9176.43","processemissions":"0","endoflifeemissions":"-27.93","disposaltype":null,"disposalenergy":null,"disposalimpact":null,"disposalemissions":null,"description":"","name":"Steel, Recycled","id":"4236","stops":{"origin":{"related_to":"4236","part_or_object":"p","notes":null,"placename":"Part Location","id":7114,"name":"origin","lat":"0","lon":"0","hops":{"incoming":[],"outgoing":[{"transport_id":"17","id":"4722","transport_name":"None Selected","transport_description":null,"transport_unit":"kg km","transport_co2_eq":"0.000000","from_stop_id":"7114","from_stop_lat":"0","from_stop_lon":"0","from_stop_placename":"Part Location","to_stop_id":"7111","to_stop_name":"origin","to_stop_lat":"28.5383355","to_stop_lon":"-81.3792365","to_stop_placename":"Orlando, FL, USA","to_stop":{"id":"7111","name":"origin","lat":"28.5383355","lon":"-81.3792365","placename":"Orlando, FL, USA"},"from_stop":{"name":"origin","id":"7114","lat":"0","lon":"0","placename":"Part Location"}}]}}},"processes":[],"eols":[{"id":"187","name":"Steel, Recycled","description":null,"type":"reuse","emissions":"0","parts_inst_id":"4236","unit":"","factor":null}]},{"oid":"4085","imid":"4237","linkid":"parts\/pmma","weight":"57","rawemissions":"2.5","emissions":"142.5","shipping":"9176.43","processemissions":"0","endoflifeemissions":"-142.5","disposaltype":null,"disposalenergy":null,"disposalimpact":null,"disposalemissions":null,"description":"","name":"PMMA","id":"4237","stops":{"origin":{"related_to":"4237","part_or_object":"p","notes":null,"placename":"Part Location","id":7115,"name":"origin","lat":"0","lon":"0","hops":{"incoming":[],"outgoing":[{"transport_id":"17","id":"4723","transport_name":"None Selected","transport_description":null,"transport_unit":"kg km","transport_co2_eq":"0.000000","from_stop_id":"7115","from_stop_lat":"0","from_stop_lon":"0","from_stop_placename":"Part Location","to_stop_id":"7111","to_stop_name":"origin","to_stop_lat":"28.5383355","to_stop_lon":"-81.3792365","to_stop_placename":"Orlando, FL, USA","to_stop":{"id":"7111","name":"origin","lat":"28.5383355","lon":"-81.3792365","placename":"Orlando, FL, USA"},"from_stop":{"name":"origin","id":"7115","lat":"0","lon":"0","placename":"Part Location"}}]}}},"processes":[],"eols":[{"id":"188","name":"PMMA","description":null,"type":"reuse","emissions":"0","parts_inst_id":"4237","unit":"","factor":null}]}],"user":{"name":"znzn","id":"6893"}}}