{"4097":{"oid":"4097","type":"travel","flag":"","creator":"10500","name":"Summer school Olomouc 2010","upc":"","imagelink":"","description":"Sourcemap about applicant of summer school of Geography","slug":"summer-school-olomouc-2010","category":"","weight":"0","emissions":"0","embodied":"0","transport":"0","process":"0","endoflife":"0","shipping":"829.01","lifetime":null,"usagetype":"","usageenergy":null,"usageemissions":null,"timecreated":"2010-09-02 11:14:41.398287","timemodified":"2010-09-02 17:13:41","visibility":"public","showfootprint":"on","showembodied":"on","showtransport":"on","showprocess":"on","showendoflife":"on","showlastleg":"on","showuse":"on","showstats":"on","stops":{"origin":{"related_to":"4097","part_or_object":"o","notes":"","placename":"Olomouc, \u00c4\u008cesk\u00c3\u00a1 republika","id":"1875","category":"1","lat":"49.5953879","lon":"17.2518721","name":"origin","hops":{"incoming":[{"transport_id":"10","id":"2602","transport_name":"train, freight","transport_description":"diesel freight locomotive","transport_unit":"kg km","transport_co2_eq":"0.005600","from_stop_id":"4862","from_stop_lat":"48.669026","from_stop_lon":"19.699024","to_stop_id":"1875","to_stop_name":"origin","to_stop_lat":"49.5953879","placename":"Slovensk\u00c3\u00a1 republika","to_stop_lon":"17.2518721","to_stop":{"id":"1875","name":"origin","lat":"49.5953879","placename":"Olomouc, \u00c4\u008cesk\u00c3\u00a1 republika","lon":"17.2518721"},"from_stop":{"name":"origin","id":"4862","lat":"48.669026","lon":"19.699024","placename":"Slovensk\u00c3\u00a1 republika"}},{"transport_id":"17","id":"2603","transport_name":"None Selected","transport_description":null,"transport_unit":"kg km","transport_co2_eq":"0.000000","from_stop_id":"4863","from_stop_lat":"47.162494","from_stop_lon":"19.503304","to_stop_id":"1875","to_stop_name":"origin","to_stop_lat":"49.5953879","placename":"Ma\u00c4\u008farsko","to_stop_lon":"17.2518721","to_stop":{"id":"1875","name":"origin","lat":"49.5953879","placename":"Olomouc, \u00c4\u008cesk\u00c3\u00a1 republika","lon":"17.2518721"},"from_stop":{"name":"origin","id":"4863","lat":"47.162494","lon":"19.503304","placename":"Ma\u00c4\u008farsko"}},{"transport_id":"17","id":"2604","transport_name":"None Selected","transport_description":null,"transport_unit":"kg km","transport_co2_eq":"0.000000","from_stop_id":"4864","from_stop_lat":"47.516231","from_stop_lon":"14.550072","to_stop_id":"1875","to_stop_name":"origin","to_stop_lat":"49.5953879","placename":"Rak\u00c3\u00basko","to_stop_lon":"17.2518721","to_stop":{"id":"1875","name":"origin","lat":"49.5953879","placename":"Olomouc, \u00c4\u008cesk\u00c3\u00a1 republika","lon":"17.2518721"},"from_stop":{"name":"origin","id":"4864","lat":"47.516231","lon":"14.550072","placename":"Rak\u00c3\u00basko"}},{"transport_id":"17","id":"2605","transport_name":"None Selected","transport_description":null,"transport_unit":"kg km","transport_co2_eq":"0.000000","from_stop_id":"4865","from_stop_lat":"0","from_stop_lon":"0","to_stop_id":"1875","to_stop_name":"origin","to_stop_lat":"49.5953879","placename":"Location","to_stop_lon":"17.2518721","to_stop":{"id":"1875","name":"origin","lat":"49.5953879","placename":"Olomouc, \u00c4\u008cesk\u00c3\u00a1 republika","lon":"17.2518721"},"from_stop":{"name":"origin","id":"4865","lat":"0","lon":"0","placename":"Location"}},{"transport_id":"17","id":"2606","transport_name":"None Selected","transport_description":null,"transport_unit":"kg km","transport_co2_eq":"0.000000","from_stop_id":"4866","from_stop_lat":"0","from_stop_lon":"0","to_stop_id":"1875","to_stop_name":"origin","to_stop_lat":"49.5953879","placename":"Location","to_stop_lon":"17.2518721","to_stop":{"id":"1875","name":"origin","lat":"49.5953879","placename":"Olomouc, \u00c4\u008cesk\u00c3\u00a1 republika","lon":"17.2518721"},"from_stop":{"name":"origin","id":"4866","lat":"0","lon":"0","placename":"Location"}},{"transport_id":"17","id":"2607","transport_name":"None Selected","transport_description":null,"transport_unit":"kg km","transport_co2_eq":"0.000000","from_stop_id":"4867","from_stop_lat":"0","from_stop_lon":"0","to_stop_id":"1875","to_stop_name":"origin","to_stop_lat":"49.5953879","placename":"Location","to_stop_lon":"17.2518721","to_stop":{"id":"1875","name":"origin","lat":"49.5953879","placename":"Olomouc, \u00c4\u008cesk\u00c3\u00a1 republika","lon":"17.2518721"},"from_stop":{"name":"origin","id":"4867","lat":"0","lon":"0","placename":"Location"}}],"outgoing":[]}}},"parts":[{"oid":"4097","imid":"4246","linkid":"","weight":"0","rawemissions":"0","emissions":"0","shipping":"205.91","processemissions":"0","endoflifeemissions":"0","disposaltype":null,"disposalenergy":null,"disposalimpact":null,"disposalemissions":null,"description":"","name":"2","id":"4246","stops":{"origin":{"related_to":"4246","part_or_object":"p","notes":"","placename":"Slovensk\u00c3\u00a1 republika","id":4862,"name":"origin","lat":"48.669026","lon":"19.699024","hops":{"incoming":[],"outgoing":[{"transport_id":"10","id":"2602","transport_name":"train, freight","transport_description":"diesel freight locomotive","transport_unit":"kg km","transport_co2_eq":"0.005600","from_stop_id":"4862","from_stop_lat":"48.669026","from_stop_lon":"19.699024","from_stop_placename":"Slovensk\u00c3\u00a1 republika","to_stop_id":"1875","to_stop_name":"origin","to_stop_lat":"49.5953879","to_stop_lon":"17.2518721","to_stop_placename":"Olomouc, \u00c4\u008cesk\u00c3\u00a1 republika","to_stop":{"id":"1875","name":"origin","lat":"49.5953879","lon":"17.2518721","placename":"Olomouc, \u00c4\u008cesk\u00c3\u00a1 republika"},"from_stop":{"name":"origin","id":"4862","lat":"48.669026","lon":"19.699024","placename":"Slovensk\u00c3\u00a1 republika"}}]}}},"processes":[],"eols":[]},{"oid":"4097","imid":"4247","linkid":"","weight":"0","rawemissions":"0","emissions":"0","shipping":"317.86","processemissions":"0","endoflifeemissions":"0","disposaltype":null,"disposalenergy":null,"disposalimpact":null,"disposalemissions":null,"description":"","name":"2","id":"4247","stops":{"origin":{"related_to":"4247","part_or_object":"p","notes":"","placename":"Ma\u00c4\u008farsko","id":4863,"name":"origin","lat":"47.162494","lon":"19.503304","hops":{"incoming":[],"outgoing":[{"transport_id":"17","id":"2603","transport_name":"None Selected","transport_description":null,"transport_unit":"kg km","transport_co2_eq":"0.000000","from_stop_id":"4863","from_stop_lat":"47.162494","from_stop_lon":"19.503304","from_stop_placename":"Ma\u00c4\u008farsko","to_stop_id":"1875","to_stop_name":"origin","to_stop_lat":"49.5953879","to_stop_lon":"17.2518721","to_stop_placename":"Olomouc, \u00c4\u008cesk\u00c3\u00a1 republika","to_stop":{"id":"1875","name":"origin","lat":"49.5953879","lon":"17.2518721","placename":"Olomouc, \u00c4\u008cesk\u00c3\u00a1 republika"},"from_stop":{"name":"origin","id":"4863","lat":"47.162494","lon":"19.503304","placename":"Ma\u00c4\u008farsko"}}]}}},"processes":[],"eols":[]},{"oid":"4097","imid":"4248","linkid":"","weight":"0","rawemissions":"0","emissions":"0","shipping":"305.24","processemissions":"0","endoflifeemissions":"0","disposaltype":null,"disposalenergy":null,"disposalimpact":null,"disposalemissions":null,"description":"","name":"2","id":"4248","stops":{"origin":{"related_to":"4248","part_or_object":"p","notes":"","placename":"Rak\u00c3\u00basko","id":4864,"name":"origin","lat":"47.516231","lon":"14.550072","hops":{"incoming":[],"outgoing":[{"transport_id":"17","id":"2604","transport_name":"None Selected","transport_description":null,"transport_unit":"kg km","transport_co2_eq":"0.000000","from_stop_id":"4864","from_stop_lat":"47.516231","from_stop_lon":"14.550072","from_stop_placename":"Rak\u00c3\u00basko","to_stop_id":"1875","to_stop_name":"origin","to_stop_lat":"49.5953879","to_stop_lon":"17.2518721","to_stop_placename":"Olomouc, \u00c4\u008cesk\u00c3\u00a1 republika","to_stop":{"id":"1875","name":"origin","lat":"49.5953879","lon":"17.2518721","placename":"Olomouc, \u00c4\u008cesk\u00c3\u00a1 republika"},"from_stop":{"name":"origin","id":"4864","lat":"47.516231","lon":"14.550072","placename":"Rak\u00c3\u00basko"}}]}}},"processes":[],"eols":[]},{"oid":"4097","imid":"4249","linkid":"","weight":"0","rawemissions":"0","emissions":"0","shipping":"0","processemissions":"0","endoflifeemissions":"0","disposaltype":null,"disposalenergy":null,"disposalimpact":null,"disposalemissions":null,"description":"","name":"2","id":"4249","stops":{"origin":{"related_to":"4249","part_or_object":"p","notes":"","placename":"Location","id":4865,"name":"origin","lat":"0","lon":"0","hops":{"incoming":[],"outgoing":[{"transport_id":"17","id":"2605","transport_name":"None Selected","transport_description":null,"transport_unit":"kg km","transport_co2_eq":"0.000000","from_stop_id":"4865","from_stop_lat":"0","from_stop_lon":"0","from_stop_placename":"Location","to_stop_id":"1875","to_stop_name":"origin","to_stop_lat":"49.5953879","to_stop_lon":"17.2518721","to_stop_placename":"Olomouc, \u00c4\u008cesk\u00c3\u00a1 republika","to_stop":{"id":"1875","name":"origin","lat":"49.5953879","lon":"17.2518721","placename":"Olomouc, \u00c4\u008cesk\u00c3\u00a1 republika"},"from_stop":{"name":"origin","id":"4865","lat":"0","lon":"0","placename":"Location"}}]}}},"processes":[],"eols":[]},{"oid":"4097","imid":"4250","linkid":"","weight":"0","rawemissions":"0","emissions":"0","shipping":"0","processemissions":"0","endoflifeemissions":"0","disposaltype":null,"disposalenergy":null,"disposalimpact":null,"disposalemissions":null,"description":"","name":"3","id":"4250","stops":{"origin":{"related_to":"4250","part_or_object":"p","notes":"","placename":"Location","id":4866,"name":"origin","lat":"0","lon":"0","hops":{"incoming":[],"outgoing":[{"transport_id":"17","id":"2606","transport_name":"None Selected","transport_description":null,"transport_unit":"kg km","transport_co2_eq":"0.000000","from_stop_id":"4866","from_stop_lat":"0","from_stop_lon":"0","from_stop_placename":"Location","to_stop_id":"1875","to_stop_name":"origin","to_stop_lat":"49.5953879","to_stop_lon":"17.2518721","to_stop_placename":"Olomouc, \u00c4\u008cesk\u00c3\u00a1 republika","to_stop":{"id":"1875","name":"origin","lat":"49.5953879","lon":"17.2518721","placename":"Olomouc, \u00c4\u008cesk\u00c3\u00a1 republika"},"from_stop":{"name":"origin","id":"4866","lat":"0","lon":"0","placename":"Location"}}]}}},"processes":[],"eols":[]},{"oid":"4097","imid":"4251","linkid":"","weight":"0","rawemissions":"0","emissions":"0","shipping":"0","processemissions":"0","endoflifeemissions":"0","disposaltype":null,"disposalenergy":null,"disposalimpact":null,"disposalemissions":null,"description":"","name":"4","id":"4251","stops":{"origin":{"related_to":"4251","part_or_object":"p","notes":"","placename":"Location","id":4867,"name":"origin","lat":"0","lon":"0","hops":{"incoming":[],"outgoing":[{"transport_id":"17","id":"2607","transport_name":"None Selected","transport_description":null,"transport_unit":"kg km","transport_co2_eq":"0.000000","from_stop_id":"4867","from_stop_lat":"0","from_stop_lon":"0","from_stop_placename":"Location","to_stop_id":"1875","to_stop_name":"origin","to_stop_lat":"49.5953879","to_stop_lon":"17.2518721","to_stop_placename":"Olomouc, \u00c4\u008cesk\u00c3\u00a1 republika","to_stop":{"id":"1875","name":"origin","lat":"49.5953879","lon":"17.2518721","placename":"Olomouc, \u00c4\u008cesk\u00c3\u00a1 republika"},"from_stop":{"name":"origin","id":"4867","lat":"0","lon":"0","placename":"Location"}}]}}},"processes":[],"eols":[]}],"user":{"name":"slavobucher","id":"10500"}}}