{"41":{"oid":"41","type":"trace","flag":"","creator":"11289","name":"Machinators","upc":"","imagelink":"","description":"","slug":"Machinators","category":"","weight":"0","emissions":"0","embodied":"0","transport":"0","process":null,"endoflife":null,"shipping":"496185.85","lifetime":null,"usagetype":"","usageenergy":null,"usageemissions":null,"timecreated":"2010-11-18 09:18:27","timemodified":"2010-11-18 10:41:21","visibility":"public","showfootprint":"on","showembodied":"on","showtransport":"on","showprocess":"on","showendoflife":"on","showlastleg":"on","showuse":"on","showstats":"on","stops":{"origin":{"related_to":"41","part_or_object":"o","notes":null,"placename":"Mishawaka, IN, USA","id":"6926","category":"1","lat":"41.6619927","lon":"-86.1586156","name":"origin","hops":{"incoming":[{"transport_id":null,"id":"4577","transport_name":null,"transport_description":null,"transport_unit":null,"transport_co2_eq":null,"from_stop_id":"6927","from_stop_lat":"-0.023559","from_stop_lon":"37.906193","to_stop_id":"6926","to_stop_name":"origin","to_stop_lat":"41.6619927","placename":"Kenya","to_stop_lon":"-86.1586156","to_stop":{"id":"6926","name":"origin","lat":"41.6619927","placename":"Mishawaka, IN, USA","lon":"-86.1586156"},"from_stop":{"name":"origin","id":"6927","lat":"-0.023559","lon":"37.906193","placename":"Kenya"}},{"transport_id":null,"id":"4578","transport_name":null,"transport_description":null,"transport_unit":null,"transport_co2_eq":null,"from_stop_id":"6928","from_stop_lat":"12.565679","from_stop_lon":"104.990963","to_stop_id":"6926","to_stop_name":"origin","to_stop_lat":"41.6619927","placename":"Cambodia","to_stop_lon":"-86.1586156","to_stop":{"id":"6926","name":"origin","lat":"41.6619927","placename":"Mishawaka, IN, USA","lon":"-86.1586156"},"from_stop":{"name":"origin","id":"6928","lat":"12.565679","lon":"104.990963","placename":"Cambodia"}},{"transport_id":null,"id":"4579","transport_name":null,"transport_description":null,"transport_unit":null,"transport_co2_eq":null,"from_stop_id":"6929","from_stop_lat":"37.09024","from_stop_lon":"-95.712891","to_stop_id":"6926","to_stop_name":"origin","to_stop_lat":"41.6619927","placename":"United States","to_stop_lon":"-86.1586156","to_stop":{"id":"6926","name":"origin","lat":"41.6619927","placename":"Mishawaka, IN, USA","lon":"-86.1586156"},"from_stop":{"name":"origin","id":"6929","lat":"37.09024","lon":"-95.712891","placename":"United States"}},{"transport_id":null,"id":"4580","transport_name":null,"transport_description":null,"transport_unit":null,"transport_co2_eq":null,"from_stop_id":"6930","from_stop_lat":"7.946527","from_stop_lon":"-1.023194","to_stop_id":"6926","to_stop_name":"origin","to_stop_lat":"41.6619927","placename":"Ghana","to_stop_lon":"-86.1586156","to_stop":{"id":"6926","name":"origin","lat":"41.6619927","placename":"Mishawaka, IN, USA","lon":"-86.1586156"},"from_stop":{"name":"origin","id":"6930","lat":"7.946527","lon":"-1.023194","placename":"Ghana"}},{"transport_id":null,"id":"4581","transport_name":null,"transport_description":null,"transport_unit":null,"transport_co2_eq":null,"from_stop_id":"6931","from_stop_lat":"9.945587","from_stop_lon":"-9.696645","to_stop_id":"6926","to_stop_name":"origin","to_stop_lat":"41.6619927","placename":"Guinea","to_stop_lon":"-86.1586156","to_stop":{"id":"6926","name":"origin","lat":"41.6619927","placename":"Mishawaka, IN, USA","lon":"-86.1586156"},"from_stop":{"name":"origin","id":"6931","lat":"9.945587","lon":"-9.696645","placename":"Guinea"}},{"transport_id":null,"id":"4582","transport_name":null,"transport_description":null,"transport_unit":null,"transport_co2_eq":null,"from_stop_id":"6932","from_stop_lat":"9.145","from_stop_lon":"40.489673","to_stop_id":"6926","to_stop_name":"origin","to_stop_lat":"41.6619927","placename":"Ethiopia","to_stop_lon":"-86.1586156","to_stop":{"id":"6926","name":"origin","lat":"41.6619927","placename":"Mishawaka, IN, USA","lon":"-86.1586156"},"from_stop":{"name":"origin","id":"6932","lat":"9.145","lon":"40.489673","placename":"Ethiopia"}},{"transport_id":null,"id":"4583","transport_name":null,"transport_description":null,"transport_unit":null,"transport_co2_eq":null,"from_stop_id":"6933","from_stop_lat":"-30.559482","from_stop_lon":"22.937506","to_stop_id":"6926","to_stop_name":"origin","to_stop_lat":"41.6619927","placename":"South Africa","to_stop_lon":"-86.1586156","to_stop":{"id":"6926","name":"origin","lat":"41.6619927","placename":"Mishawaka, IN, USA","lon":"-86.1586156"},"from_stop":{"name":"origin","id":"6933","lat":"-30.559482","lon":"22.937506","placename":"South Africa"}},{"transport_id":null,"id":"4584","transport_name":null,"transport_description":null,"transport_unit":null,"transport_co2_eq":null,"from_stop_id":"6934","from_stop_lat":"-13.133897","from_stop_lon":"27.849332","to_stop_id":"6926","to_stop_name":"origin","to_stop_lat":"41.6619927","placename":"Zambia","to_stop_lon":"-86.1586156","to_stop":{"id":"6926","name":"origin","lat":"41.6619927","placename":"Mishawaka, IN, USA","lon":"-86.1586156"},"from_stop":{"name":"origin","id":"6934","lat":"-13.133897","lon":"27.849332","placename":"Zambia"}},{"transport_id":null,"id":"4585","transport_name":null,"transport_description":null,"transport_unit":null,"transport_co2_eq":null,"from_stop_id":"6935","from_stop_lat":"19.85627","from_stop_lon":"102.495496","to_stop_id":"6926","to_stop_name":"origin","to_stop_lat":"41.6619927","placename":"Laos","to_stop_lon":"-86.1586156","to_stop":{"id":"6926","name":"origin","lat":"41.6619927","placename":"Mishawaka, IN, USA","lon":"-86.1586156"},"from_stop":{"name":"origin","id":"6935","lat":"19.85627","lon":"102.495496","placename":"Laos"}},{"transport_id":null,"id":"4586","transport_name":null,"transport_description":null,"transport_unit":null,"transport_co2_eq":null,"from_stop_id":"6936","from_stop_lat":"14.058324","from_stop_lon":"108.277199","to_stop_id":"6926","to_stop_name":"origin","to_stop_lat":"41.6619927","placename":"Vietnam","to_stop_lon":"-86.1586156","to_stop":{"id":"6926","name":"origin","lat":"41.6619927","placename":"Mishawaka, IN, USA","lon":"-86.1586156"},"from_stop":{"name":"origin","id":"6936","lat":"14.058324","lon":"108.277199","placename":"Vietnam"}},{"transport_id":null,"id":"4587","transport_name":null,"transport_description":null,"transport_unit":null,"transport_co2_eq":null,"from_stop_id":"6937","from_stop_lat":"20.593684","from_stop_lon":"78.96288","to_stop_id":"6926","to_stop_name":"origin","to_stop_lat":"41.6619927","placename":"India","to_stop_lon":"-86.1586156","to_stop":{"id":"6926","name":"origin","lat":"41.6619927","placename":"Mishawaka, IN, USA","lon":"-86.1586156"},"from_stop":{"name":"origin","id":"6937","lat":"20.593684","lon":"78.96288","placename":"India"}},{"transport_id":null,"id":"4588","transport_name":null,"transport_description":null,"transport_unit":null,"transport_co2_eq":null,"from_stop_id":"6938","from_stop_lat":"7.873054","from_stop_lon":"80.771797","to_stop_id":"6926","to_stop_name":"origin","to_stop_lat":"41.6619927","placename":"Sri Lanka","to_stop_lon":"-86.1586156","to_stop":{"id":"6926","name":"origin","lat":"41.6619927","placename":"Mishawaka, IN, USA","lon":"-86.1586156"},"from_stop":{"name":"origin","id":"6938","lat":"7.873054","lon":"80.771797","placename":"Sri Lanka"}},{"transport_id":null,"id":"4589","transport_name":null,"transport_description":null,"transport_unit":null,"transport_co2_eq":null,"from_stop_id":"6939","from_stop_lat":"28.394857","from_stop_lon":"84.124008","to_stop_id":"6926","to_stop_name":"origin","to_stop_lat":"41.6619927","placename":"Nepal","to_stop_lon":"-86.1586156","to_stop":{"id":"6926","name":"origin","lat":"41.6619927","placename":"Mishawaka, IN, USA","lon":"-86.1586156"},"from_stop":{"name":"origin","id":"6939","lat":"28.394857","lon":"84.124008","placename":"Nepal"}},{"transport_id":null,"id":"4590","transport_name":null,"transport_description":null,"transport_unit":null,"transport_co2_eq":null,"from_stop_id":"6940","from_stop_lat":"-14.235004","from_stop_lon":"-51.92528","to_stop_id":"6926","to_stop_name":"origin","to_stop_lat":"41.6619927","placename":"Brazil","to_stop_lon":"-86.1586156","to_stop":{"id":"6926","name":"origin","lat":"41.6619927","placename":"Mishawaka, IN, USA","lon":"-86.1586156"},"from_stop":{"name":"origin","id":"6940","lat":"-14.235004","lon":"-51.92528","placename":"Brazil"}},{"transport_id":null,"id":"4591","transport_name":null,"transport_description":null,"transport_unit":null,"transport_co2_eq":null,"from_stop_id":"6941","from_stop_lat":"18.971187","from_stop_lon":"-72.285215","to_stop_id":"6926","to_stop_name":"origin","to_stop_lat":"41.6619927","placename":"Haiti","to_stop_lon":"-86.1586156","to_stop":{"id":"6926","name":"origin","lat":"41.6619927","placename":"Mishawaka, IN, USA","lon":"-86.1586156"},"from_stop":{"name":"origin","id":"6941","lat":"18.971187","lon":"-72.285215","placename":"Haiti"}},{"transport_id":null,"id":"4592","transport_name":null,"transport_description":null,"transport_unit":null,"transport_co2_eq":null,"from_stop_id":"6942","from_stop_lat":"23.634501","from_stop_lon":"-102.552784","to_stop_id":"6926","to_stop_name":"origin","to_stop_lat":"41.6619927","placename":"Mexico","to_stop_lon":"-86.1586156","to_stop":{"id":"6926","name":"origin","lat":"41.6619927","placename":"Mishawaka, IN, USA","lon":"-86.1586156"},"from_stop":{"name":"origin","id":"6942","lat":"23.634501","lon":"-102.552784","placename":"Mexico"}},{"transport_id":null,"id":"4593","transport_name":null,"transport_description":null,"transport_unit":null,"transport_co2_eq":null,"from_stop_id":"6943","from_stop_lat":"-16.290154","from_stop_lon":"-63.588653","to_stop_id":"6926","to_stop_name":"origin","to_stop_lat":"41.6619927","placename":"Bolivia","to_stop_lon":"-86.1586156","to_stop":{"id":"6926","name":"origin","lat":"41.6619927","placename":"Mishawaka, IN, USA","lon":"-86.1586156"},"from_stop":{"name":"origin","id":"6943","lat":"-16.290154","lon":"-63.588653","placename":"Bolivia"}},{"transport_id":null,"id":"4594","transport_name":null,"transport_description":null,"transport_unit":null,"transport_co2_eq":null,"from_stop_id":"6944","from_stop_lat":"-38.416097","from_stop_lon":"-63.616672","to_stop_id":"6926","to_stop_name":"origin","to_stop_lat":"41.6619927","placename":"Argentina","to_stop_lon":"-86.1586156","to_stop":{"id":"6926","name":"origin","lat":"41.6619927","placename":"Mishawaka, IN, USA","lon":"-86.1586156"},"from_stop":{"name":"origin","id":"6944","lat":"-38.416097","lon":"-63.616672","placename":"Argentina"}},{"transport_id":null,"id":"4595","transport_name":null,"transport_description":null,"transport_unit":null,"transport_co2_eq":null,"from_stop_id":"6945","from_stop_lat":"-9.189967","from_stop_lon":"-75.015152","to_stop_id":"6926","to_stop_name":"origin","to_stop_lat":"41.6619927","placename":"Peru","to_stop_lon":"-86.1586156","to_stop":{"id":"6926","name":"origin","lat":"41.6619927","placename":"Mishawaka, IN, USA","lon":"-86.1586156"},"from_stop":{"name":"origin","id":"6945","lat":"-9.189967","lon":"-75.015152","placename":"Peru"}},{"transport_id":null,"id":"4596","transport_name":null,"transport_description":null,"transport_unit":null,"transport_co2_eq":null,"from_stop_id":"6946","from_stop_lat":"-1.831239","from_stop_lon":"-78.183406","to_stop_id":"6926","to_stop_name":"origin","to_stop_lat":"41.6619927","placename":"Ecuador","to_stop_lon":"-86.1586156","to_stop":{"id":"6926","name":"origin","lat":"41.6619927","placename":"Mishawaka, IN, USA","lon":"-86.1586156"},"from_stop":{"name":"origin","id":"6946","lat":"-1.831239","lon":"-78.183406","placename":"Ecuador"}},{"transport_id":null,"id":"4597","transport_name":null,"transport_description":null,"transport_unit":null,"transport_co2_eq":null,"from_stop_id":"6947","from_stop_lat":"-0.803689","from_stop_lon":"11.609444","to_stop_id":"6926","to_stop_name":"origin","to_stop_lat":"41.6619927","placename":"Gabon","to_stop_lon":"-86.1586156","to_stop":{"id":"6926","name":"origin","lat":"41.6619927","placename":"Mishawaka, IN, USA","lon":"-86.1586156"},"from_stop":{"name":"origin","id":"6947","lat":"-0.803689","lon":"11.609444","placename":"Gabon"}},{"transport_id":null,"id":"4598","transport_name":null,"transport_description":null,"transport_unit":null,"transport_co2_eq":null,"from_stop_id":"6948","from_stop_lat":"12.862807","from_stop_lon":"30.217636","to_stop_id":"6926","to_stop_name":"origin","to_stop_lat":"41.6619927","placename":"Sudan","to_stop_lon":"-86.1586156","to_stop":{"id":"6926","name":"origin","lat":"41.6619927","placename":"Mishawaka, IN, USA","lon":"-86.1586156"},"from_stop":{"name":"origin","id":"6948","lat":"12.862807","lon":"30.217636","placename":"Sudan"}},{"transport_id":null,"id":"4599","transport_name":null,"transport_description":null,"transport_unit":null,"transport_co2_eq":null,"from_stop_id":"6949","from_stop_lat":"28.033886","from_stop_lon":"1.659626","to_stop_id":"6926","to_stop_name":"origin","to_stop_lat":"41.6619927","placename":"Algeria","to_stop_lon":"-86.1586156","to_stop":{"id":"6926","name":"origin","lat":"41.6619927","placename":"Mishawaka, IN, USA","lon":"-86.1586156"},"from_stop":{"name":"origin","id":"6949","lat":"28.033886","lon":"1.659626","placename":"Algeria"}},{"transport_id":null,"id":"4600","transport_name":null,"transport_description":null,"transport_unit":null,"transport_co2_eq":null,"from_stop_id":"6950","from_stop_lat":"-6.369028","from_stop_lon":"34.888822","to_stop_id":"6926","to_stop_name":"origin","to_stop_lat":"41.6619927","placename":"Tanzania","to_stop_lon":"-86.1586156","to_stop":{"id":"6926","name":"origin","lat":"41.6619927","placename":"Mishawaka, IN, USA","lon":"-86.1586156"},"from_stop":{"name":"origin","id":"6950","lat":"-6.369028","lon":"34.888822","placename":"Tanzania"}},{"transport_id":null,"id":"4601","transport_name":null,"transport_description":null,"transport_unit":null,"transport_co2_eq":null,"from_stop_id":"6951","from_stop_lat":"17.570692","from_stop_lon":"-3.996166","to_stop_id":"6926","to_stop_name":"origin","to_stop_lat":"41.6619927","placename":"Mali","to_stop_lon":"-86.1586156","to_stop":{"id":"6926","name":"origin","lat":"41.6619927","placename":"Mishawaka, IN, USA","lon":"-86.1586156"},"from_stop":{"name":"origin","id":"6951","lat":"17.570692","lon":"-3.996166","placename":"Mali"}},{"transport_id":null,"id":"4602","transport_name":null,"transport_description":null,"transport_unit":null,"transport_co2_eq":null,"from_stop_id":"6952","from_stop_lat":"12.238333","from_stop_lon":"-1.561593","to_stop_id":"6926","to_stop_name":"origin","to_stop_lat":"41.6619927","placename":"Burkina Faso","to_stop_lon":"-86.1586156","to_stop":{"id":"6926","name":"origin","lat":"41.6619927","placename":"Mishawaka, IN, USA","lon":"-86.1586156"},"from_stop":{"name":"origin","id":"6952","lat":"12.238333","lon":"-1.561593","placename":"Burkina Faso"}},{"transport_id":null,"id":"4603","transport_name":null,"transport_description":null,"transport_unit":null,"transport_co2_eq":null,"from_stop_id":"6953","from_stop_lat":"26.820553","from_stop_lon":"30.802498","to_stop_id":"6926","to_stop_name":"origin","to_stop_lat":"41.6619927","placename":"Egypt","to_stop_lon":"-86.1586156","to_stop":{"id":"6926","name":"origin","lat":"41.6619927","placename":"Mishawaka, IN, USA","lon":"-86.1586156"},"from_stop":{"name":"origin","id":"6953","lat":"26.820553","lon":"30.802498","placename":"Egypt"}},{"transport_id":null,"id":"4604","transport_name":null,"transport_description":null,"transport_unit":null,"transport_co2_eq":null,"from_stop_id":"6954","from_stop_lat":"-22.328474","from_stop_lon":"24.684866","to_stop_id":"6926","to_stop_name":"origin","to_stop_lat":"41.6619927","placename":"Botswana","to_stop_lon":"-86.1586156","to_stop":{"id":"6926","name":"origin","lat":"41.6619927","placename":"Mishawaka, IN, USA","lon":"-86.1586156"},"from_stop":{"name":"origin","id":"6954","lat":"-22.328474","lon":"24.684866","placename":"Botswana"}},{"transport_id":null,"id":"4605","transport_name":null,"transport_description":null,"transport_unit":null,"transport_co2_eq":null,"from_stop_id":"6955","from_stop_lat":"-19.015438","from_stop_lon":"29.154857","to_stop_id":"6926","to_stop_name":"origin","to_stop_lat":"41.6619927","placename":"Zimbabwe","to_stop_lon":"-86.1586156","to_stop":{"id":"6926","name":"origin","lat":"41.6619927","placename":"Mishawaka, IN, USA","lon":"-86.1586156"},"from_stop":{"name":"origin","id":"6955","lat":"-19.015438","lon":"29.154857","placename":"Zimbabwe"}},{"transport_id":null,"id":"4606","transport_name":null,"transport_description":null,"transport_unit":null,"transport_co2_eq":null,"from_stop_id":"6956","from_stop_lat":"23.684994","from_stop_lon":"90.356331","to_stop_id":"6926","to_stop_name":"origin","to_stop_lat":"41.6619927","placename":"Bangladesh","to_stop_lon":"-86.1586156","to_stop":{"id":"6926","name":"origin","lat":"41.6619927","placename":"Mishawaka, IN, USA","lon":"-86.1586156"},"from_stop":{"name":"origin","id":"6956","lat":"23.684994","lon":"90.356331","placename":"Bangladesh"}},{"transport_id":null,"id":"4607","transport_name":null,"transport_description":null,"transport_unit":null,"transport_co2_eq":null,"from_stop_id":"6957","from_stop_lat":"9.081999","from_stop_lon":"8.675277","to_stop_id":"6926","to_stop_name":"origin","to_stop_lat":"41.6619927","placename":"Nigeria","to_stop_lon":"-86.1586156","to_stop":{"id":"6926","name":"origin","lat":"41.6619927","placename":"Mishawaka, IN, USA","lon":"-86.1586156"},"from_stop":{"name":"origin","id":"6957","lat":"9.081999","lon":"8.675277","placename":"Nigeria"}},{"transport_id":null,"id":"4608","transport_name":null,"transport_description":null,"transport_unit":null,"transport_co2_eq":null,"from_stop_id":"6958","from_stop_lat":"15.454166","from_stop_lon":"18.732207","to_stop_id":"6926","to_stop_name":"origin","to_stop_lat":"41.6619927","placename":"Chad","to_stop_lon":"-86.1586156","to_stop":{"id":"6926","name":"origin","lat":"41.6619927","placename":"Mishawaka, IN, USA","lon":"-86.1586156"},"from_stop":{"name":"origin","id":"6958","lat":"15.454166","lon":"18.732207","placename":"Chad"}},{"transport_id":null,"id":"4609","transport_name":null,"transport_description":null,"transport_unit":null,"transport_co2_eq":null,"from_stop_id":"6959","from_stop_lat":"17.607789","from_stop_lon":"8.081666","to_stop_id":"6926","to_stop_name":"origin","to_stop_lat":"41.6619927","placename":"Niger","to_stop_lon":"-86.1586156","to_stop":{"id":"6926","name":"origin","lat":"41.6619927","placename":"Mishawaka, IN, USA","lon":"-86.1586156"},"from_stop":{"name":"origin","id":"6959","lat":"17.607789","lon":"8.081666","placename":"Niger"}},{"transport_id":null,"id":"4610","transport_name":null,"transport_description":null,"transport_unit":null,"transport_co2_eq":null,"from_stop_id":"6960","from_stop_lat":"-14.235004","from_stop_lon":"-51.92528","to_stop_id":"6926","to_stop_name":"origin","to_stop_lat":"41.6619927","placename":"Brazil","to_stop_lon":"-86.1586156","to_stop":{"id":"6926","name":"origin","lat":"41.6619927","placename":"Mishawaka, IN, USA","lon":"-86.1586156"},"from_stop":{"name":"origin","id":"6960","lat":"-14.235004","lon":"-51.92528","placename":"Brazil"}},{"transport_id":null,"id":"4611","transport_name":null,"transport_description":null,"transport_unit":null,"transport_co2_eq":null,"from_stop_id":"6961","from_stop_lat":"-35.675147","from_stop_lon":"-71.542969","to_stop_id":"6926","to_stop_name":"origin","to_stop_lat":"41.6619927","placename":"Chile","to_stop_lon":"-86.1586156","to_stop":{"id":"6926","name":"origin","lat":"41.6619927","placename":"Mishawaka, IN, USA","lon":"-86.1586156"},"from_stop":{"name":"origin","id":"6961","lat":"-35.675147","lon":"-71.542969","placename":"Chile"}},{"transport_id":null,"id":"4612","transport_name":null,"transport_description":null,"transport_unit":null,"transport_co2_eq":null,"from_stop_id":"6962","from_stop_lat":"4.210484","from_stop_lon":"101.975766","to_stop_id":"6926","to_stop_name":"origin","to_stop_lat":"41.6619927","placename":"Malaysia","to_stop_lon":"-86.1586156","to_stop":{"id":"6926","name":"origin","lat":"41.6619927","placename":"Mishawaka, IN, USA","lon":"-86.1586156"},"from_stop":{"name":"origin","id":"6962","lat":"4.210484","lon":"101.975766","placename":"Malaysia"}},{"transport_id":null,"id":"4613","transport_name":null,"transport_description":null,"transport_unit":null,"transport_co2_eq":null,"from_stop_id":"6963","from_stop_lat":"-4.038333","from_stop_lon":"21.758664","to_stop_id":"6926","to_stop_name":"origin","to_stop_lat":"41.6619927","placename":"Democratic Republic of the Congo","to_stop_lon":"-86.1586156","to_stop":{"id":"6926","name":"origin","lat":"41.6619927","placename":"Mishawaka, IN, USA","lon":"-86.1586156"},"from_stop":{"name":"origin","id":"6963","lat":"-4.038333","lon":"21.758664","placename":"Democratic Republic of the Congo"}},{"transport_id":null,"id":"4614","transport_name":null,"transport_description":null,"transport_unit":null,"transport_co2_eq":null,"from_stop_id":"6964","from_stop_lat":"38.2526647","from_stop_lon":"-85.7584557","to_stop_id":"6926","to_stop_name":"origin","to_stop_lat":"41.6619927","placename":"Louisville, KY, USA","to_stop_lon":"-86.1586156","to_stop":{"id":"6926","name":"origin","lat":"41.6619927","placename":"Mishawaka, IN, USA","lon":"-86.1586156"},"from_stop":{"name":"origin","id":"6964","lat":"38.2526647","lon":"-85.7584557","placename":"Louisville, KY, USA"}},{"transport_id":null,"id":"4615","transport_name":null,"transport_description":null,"transport_unit":null,"transport_co2_eq":null,"from_stop_id":"6965","from_stop_lat":"33.7489954","from_stop_lon":"-84.3879824","to_stop_id":"6926","to_stop_name":"origin","to_stop_lat":"41.6619927","placename":"Atlanta, GA, USA","to_stop_lon":"-86.1586156","to_stop":{"id":"6926","name":"origin","lat":"41.6619927","placename":"Mishawaka, IN, USA","lon":"-86.1586156"},"from_stop":{"name":"origin","id":"6965","lat":"33.7489954","lon":"-84.3879824","placename":"Atlanta, GA, USA"}},{"transport_id":null,"id":"4616","transport_name":null,"transport_description":null,"transport_unit":null,"transport_co2_eq":null,"from_stop_id":"6966","from_stop_lat":"-0.789275","from_stop_lon":"113.921327","to_stop_id":"6926","to_stop_name":"origin","to_stop_lat":"41.6619927","placename":"Indonesia","to_stop_lon":"-86.1586156","to_stop":{"id":"6926","name":"origin","lat":"41.6619927","placename":"Mishawaka, IN, USA","lon":"-86.1586156"},"from_stop":{"name":"origin","id":"6966","lat":"-0.789275","lon":"113.921327","placename":"Indonesia"}},{"transport_id":null,"id":"4617","transport_name":null,"transport_description":null,"transport_unit":null,"transport_co2_eq":null,"from_stop_id":"6967","from_stop_lat":"28.394857","from_stop_lon":"84.124008","to_stop_id":"6926","to_stop_name":"origin","to_stop_lat":"41.6619927","placename":"Nepal","to_stop_lon":"-86.1586156","to_stop":{"id":"6926","name":"origin","lat":"41.6619927","placename":"Mishawaka, IN, USA","lon":"-86.1586156"},"from_stop":{"name":"origin","id":"6967","lat":"28.394857","lon":"84.124008","placename":"Nepal"}},{"transport_id":null,"id":"4618","transport_name":null,"transport_description":null,"transport_unit":null,"transport_co2_eq":null,"from_stop_id":"6968","from_stop_lat":"-22.9035393","from_stop_lon":"-43.2095869","to_stop_id":"6926","to_stop_name":"origin","to_stop_lat":"41.6619927","placename":"Rio de Janeiro, Brazil","to_stop_lon":"-86.1586156","to_stop":{"id":"6926","name":"origin","lat":"41.6619927","placename":"Mishawaka, IN, USA","lon":"-86.1586156"},"from_stop":{"name":"origin","id":"6968","lat":"-22.9035393","lon":"-43.2095869","placename":"Rio de Janeiro, Brazil"}},{"transport_id":null,"id":"4619","transport_name":null,"transport_description":null,"transport_unit":null,"transport_co2_eq":null,"from_stop_id":"6969","from_stop_lat":"-14.235004","from_stop_lon":"-51.92528","to_stop_id":"6926","to_stop_name":"origin","to_stop_lat":"41.6619927","placename":"Brazil","to_stop_lon":"-86.1586156","to_stop":{"id":"6926","name":"origin","lat":"41.6619927","placename":"Mishawaka, IN, USA","lon":"-86.1586156"},"from_stop":{"name":"origin","id":"6969","lat":"-14.235004","lon":"-51.92528","placename":"Brazil"}},{"transport_id":null,"id":"4620","transport_name":null,"transport_description":null,"transport_unit":null,"transport_co2_eq":null,"from_stop_id":"6970","from_stop_lat":"26.3351","from_stop_lon":"17.228331","to_stop_id":"6926","to_stop_name":"origin","to_stop_lat":"41.6619927","placename":"Libya","to_stop_lon":"-86.1586156","to_stop":{"id":"6926","name":"origin","lat":"41.6619927","placename":"Mishawaka, IN, USA","lon":"-86.1586156"},"from_stop":{"name":"origin","id":"6970","lat":"26.3351","lon":"17.228331","placename":"Libya"}},{"transport_id":null,"id":"4621","transport_name":null,"transport_description":null,"transport_unit":null,"transport_co2_eq":null,"from_stop_id":"6971","from_stop_lat":"-11.202692","from_stop_lon":"17.873887","to_stop_id":"6926","to_stop_name":"origin","to_stop_lat":"41.6619927","placename":"Angola","to_stop_lon":"-86.1586156","to_stop":{"id":"6926","name":"origin","lat":"41.6619927","placename":"Mishawaka, IN, USA","lon":"-86.1586156"},"from_stop":{"name":"origin","id":"6971","lat":"-11.202692","lon":"17.873887","placename":"Angola"}},{"transport_id":null,"id":"4622","transport_name":null,"transport_description":null,"transport_unit":null,"transport_co2_eq":null,"from_stop_id":"6972","from_stop_lat":"-18.766947","from_stop_lon":"46.869107","to_stop_id":"6926","to_stop_name":"origin","to_stop_lat":"41.6619927","placename":"Madagascar","to_stop_lon":"-86.1586156","to_stop":{"id":"6926","name":"origin","lat":"41.6619927","placename":"Mishawaka, IN, USA","lon":"-86.1586156"},"from_stop":{"name":"origin","id":"6972","lat":"-18.766947","lon":"46.869107","placename":"Madagascar"}},{"transport_id":null,"id":"4623","transport_name":null,"transport_description":null,"transport_unit":null,"transport_co2_eq":null,"from_stop_id":"6973","from_stop_lat":"31.7311292","from_stop_lon":"-106.4625624","to_stop_id":"6926","to_stop_name":"origin","to_stop_lat":"41.6619927","placename":"Ciudad Ju\u00e1rez, Chihuahua, Mexico","to_stop_lon":"-86.1586156","to_stop":{"id":"6926","name":"origin","lat":"41.6619927","placename":"Mishawaka, IN, USA","lon":"-86.1586156"},"from_stop":{"name":"origin","id":"6973","lat":"31.7311292","lon":"-106.4625624","placename":"Ciudad Ju\u00e1rez, Chihuahua, Mexico"}},{"transport_id":null,"id":"4624","transport_name":null,"transport_description":null,"transport_unit":null,"transport_co2_eq":null,"from_stop_id":"6974","from_stop_lat":"22.572646","from_stop_lon":"88.363895","to_stop_id":"6926","to_stop_name":"origin","to_stop_lat":"41.6619927","placename":"Kolkata, West Bengal, India","to_stop_lon":"-86.1586156","to_stop":{"id":"6926","name":"origin","lat":"41.6619927","placename":"Mishawaka, IN, USA","lon":"-86.1586156"},"from_stop":{"name":"origin","id":"6974","lat":"22.572646","lon":"88.363895","placename":"Kolkata, West Bengal, India"}},{"transport_id":null,"id":"4625","transport_name":null,"transport_description":null,"transport_unit":null,"transport_co2_eq":null,"from_stop_id":"6975","from_stop_lat":"19.0176147","from_stop_lon":"72.8561644","to_stop_id":"6926","to_stop_name":"origin","to_stop_lat":"41.6619927","placename":"Mumbai, Maharashtra, India","to_stop_lon":"-86.1586156","to_stop":{"id":"6926","name":"origin","lat":"41.6619927","placename":"Mishawaka, IN, USA","lon":"-86.1586156"},"from_stop":{"name":"origin","id":"6975","lat":"19.0176147","lon":"72.8561644","placename":"Mumbai, Maharashtra, India"}},{"transport_id":null,"id":"4626","transport_name":null,"transport_description":null,"transport_unit":null,"transport_co2_eq":null,"from_stop_id":"6976","from_stop_lat":"26.917","from_stop_lon":"75.817","to_stop_id":"6926","to_stop_name":"origin","to_stop_lat":"41.6619927","placename":"Jaipur, Rajasthan 302001, India","to_stop_lon":"-86.1586156","to_stop":{"id":"6926","name":"origin","lat":"41.6619927","placename":"Mishawaka, IN, USA","lon":"-86.1586156"},"from_stop":{"name":"origin","id":"6976","lat":"26.917","lon":"75.817","placename":"Jaipur, Rajasthan 302001, India"}},{"transport_id":null,"id":"4627","transport_name":null,"transport_description":null,"transport_unit":null,"transport_co2_eq":null,"from_stop_id":"6977","from_stop_lat":"-1.4550205","from_stop_lon":"-48.5023682","to_stop_id":"6926","to_stop_name":"origin","to_stop_lat":"41.6619927","placename":"Bel\u00e9m - Par\u00e1, Brazil","to_stop_lon":"-86.1586156","to_stop":{"id":"6926","name":"origin","lat":"41.6619927","placename":"Mishawaka, IN, USA","lon":"-86.1586156"},"from_stop":{"name":"origin","id":"6977","lat":"-1.4550205","lon":"-48.5023682","placename":"Bel\u00e9m - Par\u00e1, Brazil"}}],"outgoing":[]}}},"parts":[{"oid":"41","imid":"130","linkid":"0","weight":"0","rawemissions":"0","emissions":"0","shipping":"13043.55","processemissions":"0","endoflifeemissions":"0","disposaltype":null,"disposalenergy":null,"disposalimpact":null,"disposalemissions":null,"description":"","name":"part 24","id":"130","stops":{"origin":{"related_to":"130","part_or_object":"p","notes":null,"placename":"Tanzania","id":6950,"name":"origin","lat":"-6.369028","lon":"34.888822","hops":{"incoming":[],"outgoing":[{"transport_id":null,"id":"4600","transport_name":null,"transport_description":null,"transport_unit":null,"transport_co2_eq":null,"from_stop_id":"6950","from_stop_lat":"-6.369028","from_stop_lon":"34.888822","from_stop_placename":"Tanzania","to_stop_id":"6926","to_stop_name":"origin","to_stop_lat":"41.6619927","to_stop_lon":"-86.1586156","to_stop_placename":"Mishawaka, IN, USA","to_stop":{"id":"6926","name":"origin","lat":"41.6619927","lon":"-86.1586156","placename":"Mishawaka, IN, USA"},"from_stop":{"name":"origin","id":"6950","lat":"-6.369028","lon":"34.888822","placename":"Tanzania"}}]}}},"processes":[],"eols":[]},{"oid":"41","imid":"131","linkid":"0","weight":"0","rawemissions":"0","emissions":"0","shipping":"8090.13","processemissions":"0","endoflifeemissions":"0","disposaltype":null,"disposalenergy":null,"disposalimpact":null,"disposalemissions":null,"description":"","name":"part 25","id":"131","stops":{"origin":{"related_to":"131","part_or_object":"p","notes":null,"placename":"Mali","id":6951,"name":"origin","lat":"17.570692","lon":"-3.996166","hops":{"incoming":[],"outgoing":[{"transport_id":null,"id":"4601","transport_name":null,"transport_description":null,"transport_unit":null,"transport_co2_eq":null,"from_stop_id":"6951","from_stop_lat":"17.570692","from_stop_lon":"-3.996166","from_stop_placename":"Mali","to_stop_id":"6926","to_stop_name":"origin","to_stop_lat":"41.6619927","to_stop_lon":"-86.1586156","to_stop_placename":"Mishawaka, IN, USA","to_stop":{"id":"6926","name":"origin","lat":"41.6619927","lon":"-86.1586156","placename":"Mishawaka, IN, USA"},"from_stop":{"name":"origin","id":"6951","lat":"17.570692","lon":"-3.996166","placename":"Mali"}}]}}},"processes":[],"eols":[]},{"oid":"41","imid":"132","linkid":"0","weight":"0","rawemissions":"0","emissions":"0","shipping":"8671.54","processemissions":"0","endoflifeemissions":"0","disposaltype":null,"disposalenergy":null,"disposalimpact":null,"disposalemissions":null,"description":"","name":"part 26","id":"132","stops":{"origin":{"related_to":"132","part_or_object":"p","notes":null,"placename":"Burkina Faso","id":6952,"name":"origin","lat":"12.238333","lon":"-1.561593","hops":{"incoming":[],"outgoing":[{"transport_id":null,"id":"4602","transport_name":null,"transport_description":null,"transport_unit":null,"transport_co2_eq":null,"from_stop_id":"6952","from_stop_lat":"12.238333","from_stop_lon":"-1.561593","from_stop_placename":"Burkina Faso","to_stop_id":"6926","to_stop_name":"origin","to_stop_lat":"41.6619927","to_stop_lon":"-86.1586156","to_stop_placename":"Mishawaka, IN, USA","to_stop":{"id":"6926","name":"origin","lat":"41.6619927","lon":"-86.1586156","placename":"Mishawaka, IN, USA"},"from_stop":{"name":"origin","id":"6952","lat":"12.238333","lon":"-1.561593","placename":"Burkina Faso"}}]}}},"processes":[],"eols":[]},{"oid":"41","imid":"133","linkid":"0","weight":"0","rawemissions":"0","emissions":"0","shipping":"10033.75","processemissions":"0","endoflifeemissions":"0","disposaltype":null,"disposalenergy":null,"disposalimpact":null,"disposalemissions":null,"description":"","name":"part 27","id":"133","stops":{"origin":{"related_to":"133","part_or_object":"p","notes":null,"placename":"Egypt","id":6953,"name":"origin","lat":"26.820553","lon":"30.802498","hops":{"incoming":[],"outgoing":[{"transport_id":null,"id":"4603","transport_name":null,"transport_description":null,"transport_unit":null,"transport_co2_eq":null,"from_stop_id":"6953","from_stop_lat":"26.820553","from_stop_lon":"30.802498","from_stop_placename":"Egypt","to_stop_id":"6926","to_stop_name":"origin","to_stop_lat":"41.6619927","to_stop_lon":"-86.1586156","to_stop_placename":"Mishawaka, IN, USA","to_stop":{"id":"6926","name":"origin","lat":"41.6619927","lon":"-86.1586156","placename":"Mishawaka, IN, USA"},"from_stop":{"name":"origin","id":"6953","lat":"26.820553","lon":"30.802498","placename":"Egypt"}}]}}},"processes":[],"eols":[]},{"oid":"41","imid":"134","linkid":"0","weight":"0","rawemissions":"0","emissions":"0","shipping":"13346.82","processemissions":"0","endoflifeemissions":"0","disposaltype":null,"disposalenergy":null,"disposalimpact":null,"disposalemissions":null,"description":"","name":"part 28","id":"134","stops":{"origin":{"related_to":"134","part_or_object":"p","notes":null,"placename":"Botswana","id":6954,"name":"origin","lat":"-22.328474","lon":"24.684866","hops":{"incoming":[],"outgoing":[{"transport_id":null,"id":"4604","transport_name":null,"transport_description":null,"transport_unit":null,"transport_co2_eq":null,"from_stop_id":"6954","from_stop_lat":"-22.328474","from_stop_lon":"24.684866","from_stop_placename":"Botswana","to_stop_id":"6926","to_stop_name":"origin","to_stop_lat":"41.6619927","to_stop_lon":"-86.1586156","to_stop_placename":"Mishawaka, IN, USA","to_stop":{"id":"6926","name":"origin","lat":"41.6619927","lon":"-86.1586156","placename":"Mishawaka, IN, USA"},"from_stop":{"name":"origin","id":"6954","lat":"-22.328474","lon":"24.684866","placename":"Botswana"}}]}}},"processes":[],"eols":[]},{"oid":"41","imid":"135","linkid":"0","weight":"0","rawemissions":"0","emissions":"0","shipping":"13496.08","processemissions":"0","endoflifeemissions":"0","disposaltype":null,"disposalenergy":null,"disposalimpact":null,"disposalemissions":null,"description":"","name":"part 29","id":"135","stops":{"origin":{"related_to":"135","part_or_object":"p","notes":null,"placename":"Zimbabwe","id":6955,"name":"origin","lat":"-19.015438","lon":"29.154857","hops":{"incoming":[],"outgoing":[{"transport_id":null,"id":"4605","transport_name":null,"transport_description":null,"transport_unit":null,"transport_co2_eq":null,"from_stop_id":"6955","from_stop_lat":"-19.015438","from_stop_lon":"29.154857","from_stop_placename":"Zimbabwe","to_stop_id":"6926","to_stop_name":"origin","to_stop_lat":"41.6619927","to_stop_lon":"-86.1586156","to_stop_placename":"Mishawaka, IN, USA","to_stop":{"id":"6926","name":"origin","lat":"41.6619927","lon":"-86.1586156","placename":"Mishawaka, IN, USA"},"from_stop":{"name":"origin","id":"6955","lat":"-19.015438","lon":"29.154857","placename":"Zimbabwe"}}]}}},"processes":[],"eols":[]},{"oid":"41","imid":"136","linkid":"0","weight":"0","rawemissions":"0","emissions":"0","shipping":"12754.24","processemissions":"0","endoflifeemissions":"0","disposaltype":null,"disposalenergy":null,"disposalimpact":null,"disposalemissions":null,"description":"","name":"part 30","id":"136","stops":{"origin":{"related_to":"136","part_or_object":"p","notes":null,"placename":"Bangladesh","id":6956,"name":"origin","lat":"23.684994","lon":"90.356331","hops":{"incoming":[],"outgoing":[{"transport_id":null,"id":"4606","transport_name":null,"transport_description":null,"transport_unit":null,"transport_co2_eq":null,"from_stop_id":"6956","from_stop_lat":"23.684994","from_stop_lon":"90.356331","from_stop_placename":"Bangladesh","to_stop_id":"6926","to_stop_name":"origin","to_stop_lat":"41.6619927","to_stop_lon":"-86.1586156","to_stop_placename":"Mishawaka, IN, USA","to_stop":{"id":"6926","name":"origin","lat":"41.6619927","lon":"-86.1586156","placename":"Mishawaka, IN, USA"},"from_stop":{"name":"origin","id":"6956","lat":"23.684994","lon":"90.356331","placename":"Bangladesh"}}]}}},"processes":[],"eols":[]},{"oid":"41","imid":"137","linkid":"0","weight":"0","rawemissions":"0","emissions":"0","shipping":"9745.93","processemissions":"0","endoflifeemissions":"0","disposaltype":null,"disposalenergy":null,"disposalimpact":null,"disposalemissions":null,"description":"","name":"part 31","id":"137","stops":{"origin":{"related_to":"137","part_or_object":"p","notes":null,"placename":"Nigeria","id":6957,"name":"origin","lat":"9.081999","lon":"8.675277","hops":{"incoming":[],"outgoing":[{"transport_id":null,"id":"4607","transport_name":null,"transport_description":null,"transport_unit":null,"transport_co2_eq":null,"from_stop_id":"6957","from_stop_lat":"9.081999","from_stop_lon":"8.675277","from_stop_placename":"Nigeria","to_stop_id":"6926","to_stop_name":"origin","to_stop_lat":"41.6619927","to_stop_lon":"-86.1586156","to_stop_placename":"Mishawaka, IN, USA","to_stop":{"id":"6926","name":"origin","lat":"41.6619927","lon":"-86.1586156","placename":"Mishawaka, IN, USA"},"from_stop":{"name":"origin","id":"6957","lat":"9.081999","lon":"8.675277","placename":"Nigeria"}}]}}},"processes":[],"eols":[]},{"oid":"41","imid":"138","linkid":"0","weight":"0","rawemissions":"0","emissions":"0","shipping":"10069.21","processemissions":"0","endoflifeemissions":"0","disposaltype":null,"disposalenergy":null,"disposalimpact":null,"disposalemissions":null,"description":"","name":"part 33","id":"138","stops":{"origin":{"related_to":"138","part_or_object":"p","notes":null,"placename":"Chad","id":6958,"name":"origin","lat":"15.454166","lon":"18.732207","hops":{"incoming":[],"outgoing":[{"transport_id":null,"id":"4608","transport_name":null,"transport_description":null,"transport_unit":null,"transport_co2_eq":null,"from_stop_id":"6958","from_stop_lat":"15.454166","from_stop_lon":"18.732207","from_stop_placename":"Chad","to_stop_id":"6926","to_stop_name":"origin","to_stop_lat":"41.6619927","to_stop_lon":"-86.1586156","to_stop_placename":"Mishawaka, IN, USA","to_stop":{"id":"6926","name":"origin","lat":"41.6619927","lon":"-86.1586156","placename":"Mishawaka, IN, USA"},"from_stop":{"name":"origin","id":"6958","lat":"15.454166","lon":"18.732207","placename":"Chad"}}]}}},"processes":[],"eols":[]},{"oid":"41","imid":"139","linkid":"0","weight":"0","rawemissions":"0","emissions":"0","shipping":"9068.53","processemissions":"0","endoflifeemissions":"0","disposaltype":null,"disposalenergy":null,"disposalimpact":null,"disposalemissions":null,"description":"","name":"part 32","id":"139","stops":{"origin":{"related_to":"139","part_or_object":"p","notes":null,"placename":"Niger","id":6959,"name":"origin","lat":"17.607789","lon":"8.081666","hops":{"incoming":[],"outgoing":[{"transport_id":null,"id":"4609","transport_name":null,"transport_description":null,"transport_unit":null,"transport_co2_eq":null,"from_stop_id":"6959","from_stop_lat":"17.607789","from_stop_lon":"8.081666","from_stop_placename":"Niger","to_stop_id":"6926","to_stop_name":"origin","to_stop_lat":"41.6619927","to_stop_lon":"-86.1586156","to_stop_placename":"Mishawaka, IN, USA","to_stop":{"id":"6926","name":"origin","lat":"41.6619927","lon":"-86.1586156","placename":"Mishawaka, IN, USA"},"from_stop":{"name":"origin","id":"6959","lat":"17.607789","lon":"8.081666","placename":"Niger"}}]}}},"processes":[],"eols":[]},{"oid":"41","imid":"140","linkid":"0","weight":"0","rawemissions":"0","emissions":"0","shipping":"7146.74","processemissions":"0","endoflifeemissions":"0","disposaltype":null,"disposalenergy":null,"disposalimpact":null,"disposalemissions":null,"description":"","name":"part 33","id":"140","stops":{"origin":{"related_to":"140","part_or_object":"p","notes":null,"placename":"Brazil","id":6960,"name":"origin","lat":"-14.235004","lon":"-51.92528","hops":{"incoming":[],"outgoing":[{"transport_id":null,"id":"4610","transport_name":null,"transport_description":null,"transport_unit":null,"transport_co2_eq":null,"from_stop_id":"6960","from_stop_lat":"-14.235004","from_stop_lon":"-51.92528","from_stop_placename":"Brazil","to_stop_id":"6926","to_stop_name":"origin","to_stop_lat":"41.6619927","to_stop_lon":"-86.1586156","to_stop_placename":"Mishawaka, IN, USA","to_stop":{"id":"6926","name":"origin","lat":"41.6619927","lon":"-86.1586156","placename":"Mishawaka, IN, USA"},"from_stop":{"name":"origin","id":"6960","lat":"-14.235004","lon":"-51.92528","placename":"Brazil"}}]}}},"processes":[],"eols":[]},{"oid":"41","imid":"141","linkid":"0","weight":"0","rawemissions":"0","emissions":"0","shipping":"8737.23","processemissions":"0","endoflifeemissions":"0","disposaltype":null,"disposalenergy":null,"disposalimpact":null,"disposalemissions":null,"description":"","name":"part 34","id":"141","stops":{"origin":{"related_to":"141","part_or_object":"p","notes":null,"placename":"Chile","id":6961,"name":"origin","lat":"-35.675147","lon":"-71.542969","hops":{"incoming":[],"outgoing":[{"transport_id":null,"id":"4611","transport_name":null,"transport_description":null,"transport_unit":null,"transport_co2_eq":null,"from_stop_id":"6961","from_stop_lat":"-35.675147","from_stop_lon":"-71.542969","from_stop_placename":"Chile","to_stop_id":"6926","to_stop_name":"origin","to_stop_lat":"41.6619927","to_stop_lon":"-86.1586156","to_stop_placename":"Mishawaka, IN, USA","to_stop":{"id":"6926","name":"origin","lat":"41.6619927","lon":"-86.1586156","placename":"Mishawaka, IN, USA"},"from_stop":{"name":"origin","id":"6961","lat":"-35.675147","lon":"-71.542969","placename":"Chile"}}]}}},"processes":[],"eols":[]},{"oid":"41","imid":"142","linkid":"0","weight":"0","rawemissions":"0","emissions":"0","shipping":"14864.73","processemissions":"0","endoflifeemissions":"0","disposaltype":null,"disposalenergy":null,"disposalimpact":null,"disposalemissions":null,"description":"","name":"part 35","id":"142","stops":{"origin":{"related_to":"142","part_or_object":"p","notes":null,"placename":"Malaysia","id":6962,"name":"origin","lat":"4.210484","lon":"101.975766","hops":{"incoming":[],"outgoing":[{"transport_id":null,"id":"4612","transport_name":null,"transport_description":null,"transport_unit":null,"transport_co2_eq":null,"from_stop_id":"6962","from_stop_lat":"4.210484","from_stop_lon":"101.975766","from_stop_placename":"Malaysia","to_stop_id":"6926","to_stop_name":"origin","to_stop_lat":"41.6619927","to_stop_lon":"-86.1586156","to_stop_placename":"Mishawaka, IN, USA","to_stop":{"id":"6926","name":"origin","lat":"41.6619927","lon":"-86.1586156","placename":"Mishawaka, IN, USA"},"from_stop":{"name":"origin","id":"6962","lat":"4.210484","lon":"101.975766","placename":"Malaysia"}}]}}},"processes":[],"eols":[]},{"oid":"41","imid":"143","linkid":"0","weight":"0","rawemissions":"0","emissions":"0","shipping":"11802.78","processemissions":"0","endoflifeemissions":"0","disposaltype":null,"disposalenergy":null,"disposalimpact":null,"disposalemissions":null,"description":"","name":"part 36","id":"143","stops":{"origin":{"related_to":"143","part_or_object":"p","notes":null,"placename":"Democratic Republic of the Congo","id":6963,"name":"origin","lat":"-4.038333","lon":"21.758664","hops":{"incoming":[],"outgoing":[{"transport_id":null,"id":"4613","transport_name":null,"transport_description":null,"transport_unit":null,"transport_co2_eq":null,"from_stop_id":"6963","from_stop_lat":"-4.038333","from_stop_lon":"21.758664","from_stop_placename":"Democratic Republic of the Congo","to_stop_id":"6926","to_stop_name":"origin","to_stop_lat":"41.6619927","to_stop_lon":"-86.1586156","to_stop_placename":"Mishawaka, IN, USA","to_stop":{"id":"6926","name":"origin","lat":"41.6619927","lon":"-86.1586156","placename":"Mishawaka, IN, USA"},"from_stop":{"name":"origin","id":"6963","lat":"-4.038333","lon":"21.758664","placename":"Democratic Republic of the Congo"}}]}}},"processes":[],"eols":[]},{"oid":"41","imid":"144","linkid":"0","weight":"0","rawemissions":"0","emissions":"0","shipping":"381.06","processemissions":"0","endoflifeemissions":"0","disposaltype":null,"disposalenergy":null,"disposalimpact":null,"disposalemissions":null,"description":"","name":"part 37","id":"144","stops":{"origin":{"related_to":"144","part_or_object":"p","notes":null,"placename":"Louisville, KY, USA","id":6964,"name":"origin","lat":"38.2526647","lon":"-85.7584557","hops":{"incoming":[],"outgoing":[{"transport_id":null,"id":"4614","transport_name":null,"transport_description":null,"transport_unit":null,"transport_co2_eq":null,"from_stop_id":"6964","from_stop_lat":"38.2526647","from_stop_lon":"-85.7584557","from_stop_placename":"Louisville, KY, USA","to_stop_id":"6926","to_stop_name":"origin","to_stop_lat":"41.6619927","to_stop_lon":"-86.1586156","to_stop_placename":"Mishawaka, IN, USA","to_stop":{"id":"6926","name":"origin","lat":"41.6619927","lon":"-86.1586156","placename":"Mishawaka, IN, USA"},"from_stop":{"name":"origin","id":"6964","lat":"38.2526647","lon":"-85.7584557","placename":"Louisville, KY, USA"}}]}}},"processes":[],"eols":[]},{"oid":"41","imid":"145","linkid":"0","weight":"0","rawemissions":"0","emissions":"0","shipping":"894.51","processemissions":"0","endoflifeemissions":"0","disposaltype":null,"disposalenergy":null,"disposalimpact":null,"disposalemissions":null,"description":"","name":"part 38","id":"145","stops":{"origin":{"related_to":"145","part_or_object":"p","notes":null,"placename":"Atlanta, GA, USA","id":6965,"name":"origin","lat":"33.7489954","lon":"-84.3879824","hops":{"incoming":[],"outgoing":[{"transport_id":null,"id":"4615","transport_name":null,"transport_description":null,"transport_unit":null,"transport_co2_eq":null,"from_stop_id":"6965","from_stop_lat":"33.7489954","from_stop_lon":"-84.3879824","from_stop_placename":"Atlanta, GA, USA","to_stop_id":"6926","to_stop_name":"origin","to_stop_lat":"41.6619927","to_stop_lon":"-86.1586156","to_stop_placename":"Mishawaka, IN, USA","to_stop":{"id":"6926","name":"origin","lat":"41.6619927","lon":"-86.1586156","placename":"Mishawaka, IN, USA"},"from_stop":{"name":"origin","id":"6965","lat":"33.7489954","lon":"-84.3879824","placename":"Atlanta, GA, USA"}}]}}},"processes":[],"eols":[]},{"oid":"41","imid":"146","linkid":"0","weight":"0","rawemissions":"0","emissions":"0","shipping":"15061.15","processemissions":"0","endoflifeemissions":"0","disposaltype":null,"disposalenergy":null,"disposalimpact":null,"disposalemissions":null,"description":"","name":"part 39","id":"146","stops":{"origin":{"related_to":"146","part_or_object":"p","notes":null,"placename":"Indonesia","id":6966,"name":"origin","lat":"-0.789275","lon":"113.921327","hops":{"incoming":[],"outgoing":[{"transport_id":null,"id":"4616","transport_name":null,"transport_description":null,"transport_unit":null,"transport_co2_eq":null,"from_stop_id":"6966","from_stop_lat":"-0.789275","from_stop_lon":"113.921327","from_stop_placename":"Indonesia","to_stop_id":"6926","to_stop_name":"origin","to_stop_lat":"41.6619927","to_stop_lon":"-86.1586156","to_stop_placename":"Mishawaka, IN, USA","to_stop":{"id":"6926","name":"origin","lat":"41.6619927","lon":"-86.1586156","placename":"Mishawaka, IN, USA"},"from_stop":{"name":"origin","id":"6966","lat":"-0.789275","lon":"113.921327","placename":"Indonesia"}}]}}},"processes":[],"eols":[]},{"oid":"41","imid":"147","linkid":"0","weight":"0","rawemissions":"0","emissions":"0","shipping":"12174.95","processemissions":"0","endoflifeemissions":"0","disposaltype":null,"disposalenergy":null,"disposalimpact":null,"disposalemissions":null,"description":"","name":"part 40","id":"147","stops":{"origin":{"related_to":"147","part_or_object":"p","notes":null,"placename":"Nepal","id":6967,"name":"origin","lat":"28.394857","lon":"84.124008","hops":{"incoming":[],"outgoing":[{"transport_id":null,"id":"4617","transport_name":null,"transport_description":null,"transport_unit":null,"transport_co2_eq":null,"from_stop_id":"6967","from_stop_lat":"28.394857","from_stop_lon":"84.124008","from_stop_placename":"Nepal","to_stop_id":"6926","to_stop_name":"origin","to_stop_lat":"41.6619927","to_stop_lon":"-86.1586156","to_stop_placename":"Mishawaka, IN, USA","to_stop":{"id":"6926","name":"origin","lat":"41.6619927","lon":"-86.1586156","placename":"Mishawaka, IN, USA"},"from_stop":{"name":"origin","id":"6967","lat":"28.394857","lon":"84.124008","placename":"Nepal"}}]}}},"processes":[],"eols":[]},{"oid":"41","imid":"148","linkid":"0","weight":"0","rawemissions":"0","emissions":"0","shipping":"8439.92","processemissions":"0","endoflifeemissions":"0","disposaltype":null,"disposalenergy":null,"disposalimpact":null,"disposalemissions":null,"description":"","name":"part 41","id":"148","stops":{"origin":{"related_to":"148","part_or_object":"p","notes":null,"placename":"Rio de Janeiro, Brazil","id":6968,"name":"origin","lat":"-22.9035393","lon":"-43.2095869","hops":{"incoming":[],"outgoing":[{"transport_id":null,"id":"4618","transport_name":null,"transport_description":null,"transport_unit":null,"transport_co2_eq":null,"from_stop_id":"6968","from_stop_lat":"-22.9035393","from_stop_lon":"-43.2095869","from_stop_placename":"Rio de Janeiro, Brazil","to_stop_id":"6926","to_stop_name":"origin","to_stop_lat":"41.6619927","to_stop_lon":"-86.1586156","to_stop_placename":"Mishawaka, IN, USA","to_stop":{"id":"6926","name":"origin","lat":"41.6619927","lon":"-86.1586156","placename":"Mishawaka, IN, USA"},"from_stop":{"name":"origin","id":"6968","lat":"-22.9035393","lon":"-43.2095869","placename":"Rio de Janeiro, Brazil"}}]}}},"processes":[],"eols":[]},{"oid":"41","imid":"149","linkid":"0","weight":"0","rawemissions":"0","emissions":"0","shipping":"7146.74","processemissions":"0","endoflifeemissions":"0","disposaltype":null,"disposalenergy":null,"disposalimpact":null,"disposalemissions":null,"description":"","name":"part 42","id":"149","stops":{"origin":{"related_to":"149","part_or_object":"p","notes":null,"placename":"Brazil","id":6969,"name":"origin","lat":"-14.235004","lon":"-51.92528","hops":{"incoming":[],"outgoing":[{"transport_id":null,"id":"4619","transport_name":null,"transport_description":null,"transport_unit":null,"transport_co2_eq":null,"from_stop_id":"6969","from_stop_lat":"-14.235004","from_stop_lon":"-51.92528","from_stop_placename":"Brazil","to_stop_id":"6926","to_stop_name":"origin","to_stop_lat":"41.6619927","to_stop_lon":"-86.1586156","to_stop_placename":"Mishawaka, IN, USA","to_stop":{"id":"6926","name":"origin","lat":"41.6619927","lon":"-86.1586156","placename":"Mishawaka, IN, USA"},"from_stop":{"name":"origin","id":"6969","lat":"-14.235004","lon":"-51.92528","placename":"Brazil"}}]}}},"processes":[],"eols":[]},{"oid":"41","imid":"150","linkid":"0","weight":"0","rawemissions":"0","emissions":"0","shipping":"9123.69","processemissions":"0","endoflifeemissions":"0","disposaltype":null,"disposalenergy":null,"disposalimpact":null,"disposalemissions":null,"description":"","name":"part 43","id":"150","stops":{"origin":{"related_to":"150","part_or_object":"p","notes":null,"placename":"Libya","id":6970,"name":"origin","lat":"26.3351","lon":"17.228331","hops":{"incoming":[],"outgoing":[{"transport_id":null,"id":"4620","transport_name":null,"transport_description":null,"transport_unit":null,"transport_co2_eq":null,"from_stop_id":"6970","from_stop_lat":"26.3351","from_stop_lon":"17.228331","from_stop_placename":"Libya","to_stop_id":"6926","to_stop_name":"origin","to_stop_lat":"41.6619927","to_stop_lon":"-86.1586156","to_stop_placename":"Mishawaka, IN, USA","to_stop":{"id":"6926","name":"origin","lat":"41.6619927","lon":"-86.1586156","placename":"Mishawaka, IN, USA"},"from_stop":{"name":"origin","id":"6970","lat":"26.3351","lon":"17.228331","placename":"Libya"}}]}}},"processes":[],"eols":[]},{"oid":"41","imid":"151","linkid":"0","weight":"0","rawemissions":"0","emissions":"0","shipping":"12007.91","processemissions":"0","endoflifeemissions":"0","disposaltype":null,"disposalenergy":null,"disposalimpact":null,"disposalemissions":null,"description":"","name":"part 44","id":"151","stops":{"origin":{"related_to":"151","part_or_object":"p","notes":null,"placename":"Angola","id":6971,"name":"origin","lat":"-11.202692","lon":"17.873887","hops":{"incoming":[],"outgoing":[{"transport_id":null,"id":"4621","transport_name":null,"transport_description":null,"transport_unit":null,"transport_co2_eq":null,"from_stop_id":"6971","from_stop_lat":"-11.202692","from_stop_lon":"17.873887","from_stop_placename":"Angola","to_stop_id":"6926","to_stop_name":"origin","to_stop_lat":"41.6619927","to_stop_lon":"-86.1586156","to_stop_placename":"Mishawaka, IN, USA","to_stop":{"id":"6926","name":"origin","lat":"41.6619927","lon":"-86.1586156","placename":"Mishawaka, IN, USA"},"from_stop":{"name":"origin","id":"6971","lat":"-11.202692","lon":"17.873887","placename":"Angola"}}]}}},"processes":[],"eols":[]},{"oid":"41","imid":"152","linkid":"0","weight":"0","rawemissions":"0","emissions":"0","shipping":"14933.4","processemissions":"0","endoflifeemissions":"0","disposaltype":null,"disposalenergy":null,"disposalimpact":null,"disposalemissions":null,"description":"","name":"part 45","id":"152","stops":{"origin":{"related_to":"152","part_or_object":"p","notes":null,"placename":"Madagascar","id":6972,"name":"origin","lat":"-18.766947","lon":"46.869107","hops":{"incoming":[],"outgoing":[{"transport_id":null,"id":"4622","transport_name":null,"transport_description":null,"transport_unit":null,"transport_co2_eq":null,"from_stop_id":"6972","from_stop_lat":"-18.766947","from_stop_lon":"46.869107","from_stop_placename":"Madagascar","to_stop_id":"6926","to_stop_name":"origin","to_stop_lat":"41.6619927","to_stop_lon":"-86.1586156","to_stop_placename":"Mishawaka, IN, USA","to_stop":{"id":"6926","name":"origin","lat":"41.6619927","lon":"-86.1586156","placename":"Mishawaka, IN, USA"},"from_stop":{"name":"origin","id":"6972","lat":"-18.766947","lon":"46.869107","placename":"Madagascar"}}]}}},"processes":[],"eols":[]},{"oid":"41","imid":"153","linkid":"0","weight":"0","rawemissions":"0","emissions":"0","shipping":"2114.74","processemissions":"0","endoflifeemissions":"0","disposaltype":null,"disposalenergy":null,"disposalimpact":null,"disposalemissions":null,"description":"","name":"part 46","id":"153","stops":{"origin":{"related_to":"153","part_or_object":"p","notes":null,"placename":"Ciudad Ju\u00e1rez, Chihuahua, Mexico","id":6973,"name":"origin","lat":"31.7311292","lon":"-106.4625624","hops":{"incoming":[],"outgoing":[{"transport_id":null,"id":"4623","transport_name":null,"transport_description":null,"transport_unit":null,"transport_co2_eq":null,"from_stop_id":"6973","from_stop_lat":"31.7311292","from_stop_lon":"-106.4625624","from_stop_placename":"Ciudad Ju\u00e1rez, Chihuahua, Mexico","to_stop_id":"6926","to_stop_name":"origin","to_stop_lat":"41.6619927","to_stop_lon":"-86.1586156","to_stop_placename":"Mishawaka, IN, USA","to_stop":{"id":"6926","name":"origin","lat":"41.6619927","lon":"-86.1586156","placename":"Mishawaka, IN, USA"},"from_stop":{"name":"origin","id":"6973","lat":"31.7311292","lon":"-106.4625624","placename":"Ciudad Ju\u00e1rez, Chihuahua, Mexico"}}]}}},"processes":[],"eols":[]},{"oid":"41","imid":"154","linkid":"0","weight":"0","rawemissions":"0","emissions":"0","shipping":"12864.65","processemissions":"0","endoflifeemissions":"0","disposaltype":null,"disposalenergy":null,"disposalimpact":null,"disposalemissions":null,"description":"","name":"part 47","id":"154","stops":{"origin":{"related_to":"154","part_or_object":"p","notes":null,"placename":"Kolkata, West Bengal, India","id":6974,"name":"origin","lat":"22.572646","lon":"88.363895","hops":{"incoming":[],"outgoing":[{"transport_id":null,"id":"4624","transport_name":null,"transport_description":null,"transport_unit":null,"transport_co2_eq":null,"from_stop_id":"6974","from_stop_lat":"22.572646","from_stop_lon":"88.363895","from_stop_placename":"Kolkata, West Bengal, India","to_stop_id":"6926","to_stop_name":"origin","to_stop_lat":"41.6619927","to_stop_lon":"-86.1586156","to_stop_placename":"Mishawaka, IN, USA","to_stop":{"id":"6926","name":"origin","lat":"41.6619927","lon":"-86.1586156","placename":"Mishawaka, IN, USA"},"from_stop":{"name":"origin","id":"6974","lat":"22.572646","lon":"88.363895","placename":"Kolkata, West Bengal, India"}}]}}},"processes":[],"eols":[]},{"oid":"41","imid":"155","linkid":"0","weight":"0","rawemissions":"0","emissions":"0","shipping":"12944.85","processemissions":"0","endoflifeemissions":"0","disposaltype":null,"disposalenergy":null,"disposalimpact":null,"disposalemissions":null,"description":"","name":"part 48","id":"155","stops":{"origin":{"related_to":"155","part_or_object":"p","notes":null,"placename":"Mumbai, Maharashtra, India","id":6975,"name":"origin","lat":"19.0176147","lon":"72.8561644","hops":{"incoming":[],"outgoing":[{"transport_id":null,"id":"4625","transport_name":null,"transport_description":null,"transport_unit":null,"transport_co2_eq":null,"from_stop_id":"6975","from_stop_lat":"19.0176147","from_stop_lon":"72.8561644","from_stop_placename":"Mumbai, Maharashtra, India","to_stop_id":"6926","to_stop_name":"origin","to_stop_lat":"41.6619927","to_stop_lon":"-86.1586156","to_stop_placename":"Mishawaka, IN, USA","to_stop":{"id":"6926","name":"origin","lat":"41.6619927","lon":"-86.1586156","placename":"Mishawaka, IN, USA"},"from_stop":{"name":"origin","id":"6975","lat":"19.0176147","lon":"72.8561644","placename":"Mumbai, Maharashtra, India"}}]}}},"processes":[],"eols":[]},{"oid":"41","imid":"156","linkid":"0","weight":"0","rawemissions":"0","emissions":"0","shipping":"12180.83","processemissions":"0","endoflifeemissions":"0","disposaltype":null,"disposalenergy":null,"disposalimpact":null,"disposalemissions":null,"description":"","name":"part 49","id":"156","stops":{"origin":{"related_to":"156","part_or_object":"p","notes":null,"placename":"Jaipur, Rajasthan 302001, India","id":6976,"name":"origin","lat":"26.917","lon":"75.817","hops":{"incoming":[],"outgoing":[{"transport_id":null,"id":"4626","transport_name":null,"transport_description":null,"transport_unit":null,"transport_co2_eq":null,"from_stop_id":"6976","from_stop_lat":"26.917","from_stop_lon":"75.817","from_stop_placename":"Jaipur, Rajasthan 302001, India","to_stop_id":"6926","to_stop_name":"origin","to_stop_lat":"41.6619927","to_stop_lon":"-86.1586156","to_stop_placename":"Mishawaka, IN, USA","to_stop":{"id":"6926","name":"origin","lat":"41.6619927","lon":"-86.1586156","placename":"Mishawaka, IN, USA"},"from_stop":{"name":"origin","id":"6976","lat":"26.917","lon":"75.817","placename":"Jaipur, Rajasthan 302001, India"}}]}}},"processes":[],"eols":[]},{"oid":"41","imid":"157","linkid":"0","weight":"0","rawemissions":"0","emissions":"0","shipping":"6116.27","processemissions":"0","endoflifeemissions":"0","disposaltype":null,"disposalenergy":null,"disposalimpact":null,"disposalemissions":null,"description":"","name":"part 50","id":"157","stops":{"origin":{"related_to":"157","part_or_object":"p","notes":null,"placename":"Bel\u00e9m - Par\u00e1, Brazil","id":6977,"name":"origin","lat":"-1.4550205","lon":"-48.5023682","hops":{"incoming":[],"outgoing":[{"transport_id":null,"id":"4627","transport_name":null,"transport_description":null,"transport_unit":null,"transport_co2_eq":null,"from_stop_id":"6977","from_stop_lat":"-1.4550205","from_stop_lon":"-48.5023682","from_stop_placename":"Bel\u00e9m - Par\u00e1, Brazil","to_stop_id":"6926","to_stop_name":"origin","to_stop_lat":"41.6619927","to_stop_lon":"-86.1586156","to_stop_placename":"Mishawaka, IN, USA","to_stop":{"id":"6926","name":"origin","lat":"41.6619927","lon":"-86.1586156","placename":"Mishawaka, IN, USA"},"from_stop":{"name":"origin","id":"6977","lat":"-1.4550205","lon":"-48.5023682","placename":"Bel\u00e9m - Par\u00e1, Brazil"}}]}}},"processes":[],"eols":[]},{"oid":"41","imid":"107","linkid":"0","weight":"0","rawemissions":"0","emissions":"0","shipping":"12774.44","processemissions":"0","endoflifeemissions":"0","disposaltype":null,"disposalenergy":null,"disposalimpact":null,"disposalemissions":null,"description":"","name":"part 1","id":"107","stops":{"origin":{"related_to":"107","part_or_object":"p","notes":null,"placename":"Kenya","id":6927,"name":"origin","lat":"-0.023559","lon":"37.906193","hops":{"incoming":[],"outgoing":[{"transport_id":null,"id":"4577","transport_name":null,"transport_description":null,"transport_unit":null,"transport_co2_eq":null,"from_stop_id":"6927","from_stop_lat":"-0.023559","from_stop_lon":"37.906193","from_stop_placename":"Kenya","to_stop_id":"6926","to_stop_name":"origin","to_stop_lat":"41.6619927","to_stop_lon":"-86.1586156","to_stop_placename":"Mishawaka, IN, USA","to_stop":{"id":"6926","name":"origin","lat":"41.6619927","lon":"-86.1586156","placename":"Mishawaka, IN, USA"},"from_stop":{"name":"origin","id":"6927","lat":"-0.023559","lon":"37.906193","placename":"Kenya"}}]}}},"processes":[],"eols":[]},{"oid":"41","imid":"108","linkid":"0","weight":"0","rawemissions":"0","emissions":"0","shipping":"13893.37","processemissions":"0","endoflifeemissions":"0","disposaltype":null,"disposalenergy":null,"disposalimpact":null,"disposalemissions":null,"description":"","name":"part 2","id":"108","stops":{"origin":{"related_to":"108","part_or_object":"p","notes":null,"placename":"Cambodia","id":6928,"name":"origin","lat":"12.565679","lon":"104.990963","hops":{"incoming":[],"outgoing":[{"transport_id":null,"id":"4578","transport_name":null,"transport_description":null,"transport_unit":null,"transport_co2_eq":null,"from_stop_id":"6928","from_stop_lat":"12.565679","from_stop_lon":"104.990963","from_stop_placename":"Cambodia","to_stop_id":"6926","to_stop_name":"origin","to_stop_lat":"41.6619927","to_stop_lon":"-86.1586156","to_stop_placename":"Mishawaka, IN, USA","to_stop":{"id":"6926","name":"origin","lat":"41.6619927","lon":"-86.1586156","placename":"Mishawaka, IN, USA"},"from_stop":{"name":"origin","id":"6928","lat":"12.565679","lon":"104.990963","placename":"Cambodia"}}]}}},"processes":[],"eols":[]},{"oid":"41","imid":"109","linkid":"0","weight":"0","rawemissions":"0","emissions":"0","shipping":"966.03","processemissions":"0","endoflifeemissions":"0","disposaltype":null,"disposalenergy":null,"disposalimpact":null,"disposalemissions":null,"description":"","name":"part 3","id":"109","stops":{"origin":{"related_to":"109","part_or_object":"p","notes":null,"placename":"United States","id":6929,"name":"origin","lat":"37.09024","lon":"-95.712891","hops":{"incoming":[],"outgoing":[{"transport_id":null,"id":"4579","transport_name":null,"transport_description":null,"transport_unit":null,"transport_co2_eq":null,"from_stop_id":"6929","from_stop_lat":"37.09024","from_stop_lon":"-95.712891","from_stop_placename":"United States","to_stop_id":"6926","to_stop_name":"origin","to_stop_lat":"41.6619927","to_stop_lon":"-86.1586156","to_stop_placename":"Mishawaka, IN, USA","to_stop":{"id":"6926","name":"origin","lat":"41.6619927","lon":"-86.1586156","placename":"Mishawaka, IN, USA"},"from_stop":{"name":"origin","id":"6929","lat":"37.09024","lon":"-95.712891","placename":"United States"}}]}}},"processes":[],"eols":[]},{"oid":"41","imid":"110","linkid":"0","weight":"0","rawemissions":"0","emissions":"0","shipping":"9028.44","processemissions":"0","endoflifeemissions":"0","disposaltype":null,"disposalenergy":null,"disposalimpact":null,"disposalemissions":null,"description":"","name":"part 4","id":"110","stops":{"origin":{"related_to":"110","part_or_object":"p","notes":null,"placename":"Ghana","id":6930,"name":"origin","lat":"7.946527","lon":"-1.023194","hops":{"incoming":[],"outgoing":[{"transport_id":null,"id":"4580","transport_name":null,"transport_description":null,"transport_unit":null,"transport_co2_eq":null,"from_stop_id":"6930","from_stop_lat":"7.946527","from_stop_lon":"-1.023194","from_stop_placename":"Ghana","to_stop_id":"6926","to_stop_name":"origin","to_stop_lat":"41.6619927","to_stop_lon":"-86.1586156","to_stop_placename":"Mishawaka, IN, USA","to_stop":{"id":"6926","name":"origin","lat":"41.6619927","lon":"-86.1586156","placename":"Mishawaka, IN, USA"},"from_stop":{"name":"origin","id":"6930","lat":"7.946527","lon":"-1.023194","placename":"Ghana"}}]}}},"processes":[],"eols":[]},{"oid":"41","imid":"111","linkid":"0","weight":"0","rawemissions":"0","emissions":"0","shipping":"8161.69","processemissions":"0","endoflifeemissions":"0","disposaltype":null,"disposalenergy":null,"disposalimpact":null,"disposalemissions":null,"description":"","name":"part 5","id":"111","stops":{"origin":{"related_to":"111","part_or_object":"p","notes":null,"placename":"Guinea","id":6931,"name":"origin","lat":"9.945587","lon":"-9.696645","hops":{"incoming":[],"outgoing":[{"transport_id":null,"id":"4581","transport_name":null,"transport_description":null,"transport_unit":null,"transport_co2_eq":null,"from_stop_id":"6931","from_stop_lat":"9.945587","from_stop_lon":"-9.696645","from_stop_placename":"Guinea","to_stop_id":"6926","to_stop_name":"origin","to_stop_lat":"41.6619927","to_stop_lon":"-86.1586156","to_stop_placename":"Mishawaka, IN, USA","to_stop":{"id":"6926","name":"origin","lat":"41.6619927","lon":"-86.1586156","placename":"Mishawaka, IN, USA"},"from_stop":{"name":"origin","id":"6931","lat":"9.945587","lon":"-9.696645","placename":"Guinea"}}]}}},"processes":[],"eols":[]},{"oid":"41","imid":"112","linkid":"0","weight":"0","rawemissions":"0","emissions":"0","shipping":"12194.96","processemissions":"0","endoflifeemissions":"0","disposaltype":null,"disposalenergy":null,"disposalimpact":null,"disposalemissions":null,"description":"","name":"part 6","id":"112","stops":{"origin":{"related_to":"112","part_or_object":"p","notes":null,"placename":"Ethiopia","id":6932,"name":"origin","lat":"9.145","lon":"40.489673","hops":{"incoming":[],"outgoing":[{"transport_id":null,"id":"4582","transport_name":null,"transport_description":null,"transport_unit":null,"transport_co2_eq":null,"from_stop_id":"6932","from_stop_lat":"9.145","from_stop_lon":"40.489673","from_stop_placename":"Ethiopia","to_stop_id":"6926","to_stop_name":"origin","to_stop_lat":"41.6619927","to_stop_lon":"-86.1586156","to_stop_placename":"Mishawaka, IN, USA","to_stop":{"id":"6926","name":"origin","lat":"41.6619927","lon":"-86.1586156","placename":"Mishawaka, IN, USA"},"from_stop":{"name":"origin","id":"6932","lat":"9.145","lon":"40.489673","placename":"Ethiopia"}}]}}},"processes":[],"eols":[]},{"oid":"41","imid":"113","linkid":"0","weight":"0","rawemissions":"0","emissions":"0","shipping":"13721.21","processemissions":"0","endoflifeemissions":"0","disposaltype":null,"disposalenergy":null,"disposalimpact":null,"disposalemissions":null,"description":"","name":"part 7","id":"113","stops":{"origin":{"related_to":"113","part_or_object":"p","notes":null,"placename":"South Africa","id":6933,"name":"origin","lat":"-30.559482","lon":"22.937506","hops":{"incoming":[],"outgoing":[{"transport_id":null,"id":"4583","transport_name":null,"transport_description":null,"transport_unit":null,"transport_co2_eq":null,"from_stop_id":"6933","from_stop_lat":"-30.559482","from_stop_lon":"22.937506","from_stop_placename":"South Africa","to_stop_id":"6926","to_stop_name":"origin","to_stop_lat":"41.6619927","to_stop_lon":"-86.1586156","to_stop_placename":"Mishawaka, IN, USA","to_stop":{"id":"6926","name":"origin","lat":"41.6619927","lon":"-86.1586156","placename":"Mishawaka, IN, USA"},"from_stop":{"name":"origin","id":"6933","lat":"-30.559482","lon":"22.937506","placename":"South Africa"}}]}}},"processes":[],"eols":[]},{"oid":"41","imid":"114","linkid":"0","weight":"0","rawemissions":"0","emissions":"0","shipping":"12974.83","processemissions":"0","endoflifeemissions":"0","disposaltype":null,"disposalenergy":null,"disposalimpact":null,"disposalemissions":null,"description":"","name":"part 8","id":"114","stops":{"origin":{"related_to":"114","part_or_object":"p","notes":null,"placename":"Zambia","id":6934,"name":"origin","lat":"-13.133897","lon":"27.849332","hops":{"incoming":[],"outgoing":[{"transport_id":null,"id":"4584","transport_name":null,"transport_description":null,"transport_unit":null,"transport_co2_eq":null,"from_stop_id":"6934","from_stop_lat":"-13.133897","from_stop_lon":"27.849332","from_stop_placename":"Zambia","to_stop_id":"6926","to_stop_name":"origin","to_stop_lat":"41.6619927","to_stop_lon":"-86.1586156","to_stop_placename":"Mishawaka, IN, USA","to_stop":{"id":"6926","name":"origin","lat":"41.6619927","lon":"-86.1586156","placename":"Mishawaka, IN, USA"},"from_stop":{"name":"origin","id":"6934","lat":"-13.133897","lon":"27.849332","placename":"Zambia"}}]}}},"processes":[],"eols":[]},{"oid":"41","imid":"115","linkid":"0","weight":"0","rawemissions":"0","emissions":"0","shipping":"13131.42","processemissions":"0","endoflifeemissions":"0","disposaltype":null,"disposalenergy":null,"disposalimpact":null,"disposalemissions":null,"description":"","name":"part 9","id":"115","stops":{"origin":{"related_to":"115","part_or_object":"p","notes":null,"placename":"Laos","id":6935,"name":"origin","lat":"19.85627","lon":"102.495496","hops":{"incoming":[],"outgoing":[{"transport_id":null,"id":"4585","transport_name":null,"transport_description":null,"transport_unit":null,"transport_co2_eq":null,"from_stop_id":"6935","from_stop_lat":"19.85627","from_stop_lon":"102.495496","from_stop_placename":"Laos","to_stop_id":"6926","to_stop_name":"origin","to_stop_lat":"41.6619927","to_stop_lon":"-86.1586156","to_stop_placename":"Mishawaka, IN, USA","to_stop":{"id":"6926","name":"origin","lat":"41.6619927","lon":"-86.1586156","placename":"Mishawaka, IN, USA"},"from_stop":{"name":"origin","id":"6935","lat":"19.85627","lon":"102.495496","placename":"Laos"}}]}}},"processes":[],"eols":[]},{"oid":"41","imid":"116","linkid":"0","weight":"0","rawemissions":"0","emissions":"0","shipping":"13659.75","processemissions":"0","endoflifeemissions":"0","disposaltype":null,"disposalenergy":null,"disposalimpact":null,"disposalemissions":null,"description":"","name":"part 10","id":"116","stops":{"origin":{"related_to":"116","part_or_object":"p","notes":null,"placename":"Vietnam","id":6936,"name":"origin","lat":"14.058324","lon":"108.277199","hops":{"incoming":[],"outgoing":[{"transport_id":null,"id":"4586","transport_name":null,"transport_description":null,"transport_unit":null,"transport_co2_eq":null,"from_stop_id":"6936","from_stop_lat":"14.058324","from_stop_lon":"108.277199","from_stop_placename":"Vietnam","to_stop_id":"6926","to_stop_name":"origin","to_stop_lat":"41.6619927","to_stop_lon":"-86.1586156","to_stop_placename":"Mishawaka, IN, USA","to_stop":{"id":"6926","name":"origin","lat":"41.6619927","lon":"-86.1586156","placename":"Mishawaka, IN, USA"},"from_stop":{"name":"origin","id":"6936","lat":"14.058324","lon":"108.277199","placename":"Vietnam"}}]}}},"processes":[],"eols":[]},{"oid":"41","imid":"117","linkid":"0","weight":"0","rawemissions":"0","emissions":"0","shipping":"12939.4","processemissions":"0","endoflifeemissions":"0","disposaltype":null,"disposalenergy":null,"disposalimpact":null,"disposalemissions":null,"description":"","name":"part 11","id":"117","stops":{"origin":{"related_to":"117","part_or_object":"p","notes":null,"placename":"India","id":6937,"name":"origin","lat":"20.593684","lon":"78.96288","hops":{"incoming":[],"outgoing":[{"transport_id":null,"id":"4587","transport_name":null,"transport_description":null,"transport_unit":null,"transport_co2_eq":null,"from_stop_id":"6937","from_stop_lat":"20.593684","from_stop_lon":"78.96288","from_stop_placename":"India","to_stop_id":"6926","to_stop_name":"origin","to_stop_lat":"41.6619927","to_stop_lon":"-86.1586156","to_stop_placename":"Mishawaka, IN, USA","to_stop":{"id":"6926","name":"origin","lat":"41.6619927","lon":"-86.1586156","placename":"Mishawaka, IN, USA"},"from_stop":{"name":"origin","id":"6937","lat":"20.593684","lon":"78.96288","placename":"India"}}]}}},"processes":[],"eols":[]},{"oid":"41","imid":"118","linkid":"0","weight":"0","rawemissions":"0","emissions":"0","shipping":"14364.26","processemissions":"0","endoflifeemissions":"0","disposaltype":null,"disposalenergy":null,"disposalimpact":null,"disposalemissions":null,"description":"","name":"part 12","id":"118","stops":{"origin":{"related_to":"118","part_or_object":"p","notes":null,"placename":"Sri Lanka","id":6938,"name":"origin","lat":"7.873054","lon":"80.771797","hops":{"incoming":[],"outgoing":[{"transport_id":null,"id":"4588","transport_name":null,"transport_description":null,"transport_unit":null,"transport_co2_eq":null,"from_stop_id":"6938","from_stop_lat":"7.873054","from_stop_lon":"80.771797","from_stop_placename":"Sri Lanka","to_stop_id":"6926","to_stop_name":"origin","to_stop_lat":"41.6619927","to_stop_lon":"-86.1586156","to_stop_placename":"Mishawaka, IN, USA","to_stop":{"id":"6926","name":"origin","lat":"41.6619927","lon":"-86.1586156","placename":"Mishawaka, IN, USA"},"from_stop":{"name":"origin","id":"6938","lat":"7.873054","lon":"80.771797","placename":"Sri Lanka"}}]}}},"processes":[],"eols":[]},{"oid":"41","imid":"119","linkid":"0","weight":"0","rawemissions":"0","emissions":"0","shipping":"12174.95","processemissions":"0","endoflifeemissions":"0","disposaltype":null,"disposalenergy":null,"disposalimpact":null,"disposalemissions":null,"description":"","name":"part 13","id":"119","stops":{"origin":{"related_to":"119","part_or_object":"p","notes":null,"placename":"Nepal","id":6939,"name":"origin","lat":"28.394857","lon":"84.124008","hops":{"incoming":[],"outgoing":[{"transport_id":null,"id":"4589","transport_name":null,"transport_description":null,"transport_unit":null,"transport_co2_eq":null,"from_stop_id":"6939","from_stop_lat":"28.394857","from_stop_lon":"84.124008","from_stop_placename":"Nepal","to_stop_id":"6926","to_stop_name":"origin","to_stop_lat":"41.6619927","to_stop_lon":"-86.1586156","to_stop_placename":"Mishawaka, IN, USA","to_stop":{"id":"6926","name":"origin","lat":"41.6619927","lon":"-86.1586156","placename":"Mishawaka, IN, USA"},"from_stop":{"name":"origin","id":"6939","lat":"28.394857","lon":"84.124008","placename":"Nepal"}}]}}},"processes":[],"eols":[]},{"oid":"41","imid":"120","linkid":"0","weight":"0","rawemissions":"0","emissions":"0","shipping":"7146.74","processemissions":"0","endoflifeemissions":"0","disposaltype":null,"disposalenergy":null,"disposalimpact":null,"disposalemissions":null,"description":"","name":"part 14","id":"120","stops":{"origin":{"related_to":"120","part_or_object":"p","notes":null,"placename":"Brazil","id":6940,"name":"origin","lat":"-14.235004","lon":"-51.92528","hops":{"incoming":[],"outgoing":[{"transport_id":null,"id":"4590","transport_name":null,"transport_description":null,"transport_unit":null,"transport_co2_eq":null,"from_stop_id":"6940","from_stop_lat":"-14.235004","from_stop_lon":"-51.92528","from_stop_placename":"Brazil","to_stop_id":"6926","to_stop_name":"origin","to_stop_lat":"41.6619927","to_stop_lon":"-86.1586156","to_stop_placename":"Mishawaka, IN, USA","to_stop":{"id":"6926","name":"origin","lat":"41.6619927","lon":"-86.1586156","placename":"Mishawaka, IN, USA"},"from_stop":{"name":"origin","id":"6940","lat":"-14.235004","lon":"-51.92528","placename":"Brazil"}}]}}},"processes":[],"eols":[]},{"oid":"41","imid":"121","linkid":"0","weight":"0","rawemissions":"0","emissions":"0","shipping":"2847.45","processemissions":"0","endoflifeemissions":"0","disposaltype":null,"disposalenergy":null,"disposalimpact":null,"disposalemissions":null,"description":"","name":"part 15","id":"121","stops":{"origin":{"related_to":"121","part_or_object":"p","notes":null,"placename":"Haiti","id":6941,"name":"origin","lat":"18.971187","lon":"-72.285215","hops":{"incoming":[],"outgoing":[{"transport_id":null,"id":"4591","transport_name":null,"transport_description":null,"transport_unit":null,"transport_co2_eq":null,"from_stop_id":"6941","from_stop_lat":"18.971187","from_stop_lon":"-72.285215","from_stop_placename":"Haiti","to_stop_id":"6926","to_stop_name":"origin","to_stop_lat":"41.6619927","to_stop_lon":"-86.1586156","to_stop_placename":"Mishawaka, IN, USA","to_stop":{"id":"6926","name":"origin","lat":"41.6619927","lon":"-86.1586156","placename":"Mishawaka, IN, USA"},"from_stop":{"name":"origin","id":"6941","lat":"18.971187","lon":"-72.285215","placename":"Haiti"}}]}}},"processes":[],"eols":[]},{"oid":"41","imid":"122","linkid":"0","weight":"0","rawemissions":"0","emissions":"0","shipping":"2517.95","processemissions":"0","endoflifeemissions":"0","disposaltype":null,"disposalenergy":null,"disposalimpact":null,"disposalemissions":null,"description":"","name":"part 16","id":"122","stops":{"origin":{"related_to":"122","part_or_object":"p","notes":null,"placename":"Mexico","id":6942,"name":"origin","lat":"23.634501","lon":"-102.552784","hops":{"incoming":[],"outgoing":[{"transport_id":null,"id":"4592","transport_name":null,"transport_description":null,"transport_unit":null,"transport_co2_eq":null,"from_stop_id":"6942","from_stop_lat":"23.634501","from_stop_lon":"-102.552784","from_stop_placename":"Mexico","to_stop_id":"6926","to_stop_name":"origin","to_stop_lat":"41.6619927","to_stop_lon":"-86.1586156","to_stop_placename":"Mishawaka, IN, USA","to_stop":{"id":"6926","name":"origin","lat":"41.6619927","lon":"-86.1586156","placename":"Mishawaka, IN, USA"},"from_stop":{"name":"origin","id":"6942","lat":"23.634501","lon":"-102.552784","placename":"Mexico"}}]}}},"processes":[],"eols":[]},{"oid":"41","imid":"123","linkid":"0","weight":"0","rawemissions":"0","emissions":"0","shipping":"6856.68","processemissions":"0","endoflifeemissions":"0","disposaltype":null,"disposalenergy":null,"disposalimpact":null,"disposalemissions":null,"description":"","name":"part 17","id":"123","stops":{"origin":{"related_to":"123","part_or_object":"p","notes":null,"placename":"Bolivia","id":6943,"name":"origin","lat":"-16.290154","lon":"-63.588653","hops":{"incoming":[],"outgoing":[{"transport_id":null,"id":"4593","transport_name":null,"transport_description":null,"transport_unit":null,"transport_co2_eq":null,"from_stop_id":"6943","from_stop_lat":"-16.290154","from_stop_lon":"-63.588653","from_stop_placename":"Bolivia","to_stop_id":"6926","to_stop_name":"origin","to_stop_lat":"41.6619927","to_stop_lon":"-86.1586156","to_stop_placename":"Mishawaka, IN, USA","to_stop":{"id":"6926","name":"origin","lat":"41.6619927","lon":"-86.1586156","placename":"Mishawaka, IN, USA"},"from_stop":{"name":"origin","id":"6943","lat":"-16.290154","lon":"-63.588653","placename":"Bolivia"}}]}}},"processes":[],"eols":[]},{"oid":"41","imid":"124","linkid":"0","weight":"0","rawemissions":"0","emissions":"0","shipping":"9202.78","processemissions":"0","endoflifeemissions":"0","disposaltype":null,"disposalenergy":null,"disposalimpact":null,"disposalemissions":null,"description":"","name":"part 18","id":"124","stops":{"origin":{"related_to":"124","part_or_object":"p","notes":null,"placename":"Argentina","id":6944,"name":"origin","lat":"-38.416097","lon":"-63.616672","hops":{"incoming":[],"outgoing":[{"transport_id":null,"id":"4594","transport_name":null,"transport_description":null,"transport_unit":null,"transport_co2_eq":null,"from_stop_id":"6944","from_stop_lat":"-38.416097","from_stop_lon":"-63.616672","from_stop_placename":"Argentina","to_stop_id":"6926","to_stop_name":"origin","to_stop_lat":"41.6619927","to_stop_lon":"-86.1586156","to_stop_placename":"Mishawaka, IN, USA","to_stop":{"id":"6926","name":"origin","lat":"41.6619927","lon":"-86.1586156","placename":"Mishawaka, IN, USA"},"from_stop":{"name":"origin","id":"6944","lat":"-38.416097","lon":"-63.616672","placename":"Argentina"}}]}}},"processes":[],"eols":[]},{"oid":"41","imid":"125","linkid":"0","weight":"0","rawemissions":"0","emissions":"0","shipping":"5774.35","processemissions":"0","endoflifeemissions":"0","disposaltype":null,"disposalenergy":null,"disposalimpact":null,"disposalemissions":null,"description":"","name":"part 19","id":"125","stops":{"origin":{"related_to":"125","part_or_object":"p","notes":null,"placename":"Peru","id":6945,"name":"origin","lat":"-9.189967","lon":"-75.015152","hops":{"incoming":[],"outgoing":[{"transport_id":null,"id":"4595","transport_name":null,"transport_description":null,"transport_unit":null,"transport_co2_eq":null,"from_stop_id":"6945","from_stop_lat":"-9.189967","from_stop_lon":"-75.015152","from_stop_placename":"Peru","to_stop_id":"6926","to_stop_name":"origin","to_stop_lat":"41.6619927","to_stop_lon":"-86.1586156","to_stop_placename":"Mishawaka, IN, USA","to_stop":{"id":"6926","name":"origin","lat":"41.6619927","lon":"-86.1586156","placename":"Mishawaka, IN, USA"},"from_stop":{"name":"origin","id":"6945","lat":"-9.189967","lon":"-75.015152","placename":"Peru"}}]}}},"processes":[],"eols":[]},{"oid":"41","imid":"126","linkid":"0","weight":"0","rawemissions":"0","emissions":"0","shipping":"4908.2","processemissions":"0","endoflifeemissions":"0","disposaltype":null,"disposalenergy":null,"disposalimpact":null,"disposalemissions":null,"description":"","name":"part 20","id":"126","stops":{"origin":{"related_to":"126","part_or_object":"p","notes":null,"placename":"Ecuador","id":6946,"name":"origin","lat":"-1.831239","lon":"-78.183406","hops":{"incoming":[],"outgoing":[{"transport_id":null,"id":"4596","transport_name":null,"transport_description":null,"transport_unit":null,"transport_co2_eq":null,"from_stop_id":"6946","from_stop_lat":"-1.831239","from_stop_lon":"-78.183406","from_stop_placename":"Ecuador","to_stop_id":"6926","to_stop_name":"origin","to_stop_lat":"41.6619927","to_stop_lon":"-86.1586156","to_stop_placename":"Mishawaka, IN, USA","to_stop":{"id":"6926","name":"origin","lat":"41.6619927","lon":"-86.1586156","placename":"Mishawaka, IN, USA"},"from_stop":{"name":"origin","id":"6946","lat":"-1.831239","lon":"-78.183406","placename":"Ecuador"}}]}}},"processes":[],"eols":[]},{"oid":"41","imid":"127","linkid":"0","weight":"0","rawemissions":"0","emissions":"0","shipping":"10723.64","processemissions":"0","endoflifeemissions":"0","disposaltype":null,"disposalenergy":null,"disposalimpact":null,"disposalemissions":null,"description":"","name":"part 21","id":"127","stops":{"origin":{"related_to":"127","part_or_object":"p","notes":null,"placename":"Gabon","id":6947,"name":"origin","lat":"-0.803689","lon":"11.609444","hops":{"incoming":[],"outgoing":[{"transport_id":null,"id":"4597","transport_name":null,"transport_description":null,"transport_unit":null,"transport_co2_eq":null,"from_stop_id":"6947","from_stop_lat":"-0.803689","from_stop_lon":"11.609444","from_stop_placename":"Gabon","to_stop_id":"6926","to_stop_name":"origin","to_stop_lat":"41.6619927","to_stop_lon":"-86.1586156","to_stop_placename":"Mishawaka, IN, USA","to_stop":{"id":"6926","name":"origin","lat":"41.6619927","lon":"-86.1586156","placename":"Mishawaka, IN, USA"},"from_stop":{"name":"origin","id":"6947","lat":"-0.803689","lon":"11.609444","placename":"Gabon"}}]}}},"processes":[],"eols":[]},{"oid":"41","imid":"128","linkid":"0","weight":"0","rawemissions":"0","emissions":"0","shipping":"11144.53","processemissions":"0","endoflifeemissions":"0","disposaltype":null,"disposalenergy":null,"disposalimpact":null,"disposalemissions":null,"description":"","name":"part 22","id":"128","stops":{"origin":{"related_to":"128","part_or_object":"p","notes":null,"placename":"Sudan","id":6948,"name":"origin","lat":"12.862807","lon":"30.217636","hops":{"incoming":[],"outgoing":[{"transport_id":null,"id":"4598","transport_name":null,"transport_description":null,"transport_unit":null,"transport_co2_eq":null,"from_stop_id":"6948","from_stop_lat":"12.862807","from_stop_lon":"30.217636","from_stop_placename":"Sudan","to_stop_id":"6926","to_stop_name":"origin","to_stop_lat":"41.6619927","to_stop_lon":"-86.1586156","to_stop_placename":"Mishawaka, IN, USA","to_stop":{"id":"6926","name":"origin","lat":"41.6619927","lon":"-86.1586156","placename":"Mishawaka, IN, USA"},"from_stop":{"name":"origin","id":"6948","lat":"12.862807","lon":"30.217636","placename":"Sudan"}}]}}},"processes":[],"eols":[]},{"oid":"41","imid":"129","linkid":"0","weight":"0","rawemissions":"0","emissions":"0","shipping":"7822.85","processemissions":"0","endoflifeemissions":"0","disposaltype":null,"disposalenergy":null,"disposalimpact":null,"disposalemissions":null,"description":"","name":"part 23","id":"129","stops":{"origin":{"related_to":"129","part_or_object":"p","notes":null,"placename":"Algeria","id":6949,"name":"origin","lat":"28.033886","lon":"1.659626","hops":{"incoming":[],"outgoing":[{"transport_id":null,"id":"4599","transport_name":null,"transport_description":null,"transport_unit":null,"transport_co2_eq":null,"from_stop_id":"6949","from_stop_lat":"28.033886","from_stop_lon":"1.659626","from_stop_placename":"Algeria","to_stop_id":"6926","to_stop_name":"origin","to_stop_lat":"41.6619927","to_stop_lon":"-86.1586156","to_stop_placename":"Mishawaka, IN, USA","to_stop":{"id":"6926","name":"origin","lat":"41.6619927","lon":"-86.1586156","placename":"Mishawaka, IN, USA"},"from_stop":{"name":"origin","id":"6949","lat":"28.033886","lon":"1.659626","placename":"Algeria"}}]}}},"processes":[],"eols":[]}],"user":{"name":"troe101@yahoo.com","id":"11289"}}}