{"4122":{"oid":"4122","type":"trace","flag":"","creator":"10549","name":"Listerine","upc":"","imagelink":"","description":"From Infosys text book","slug":"listerine","category":"","weight":"0","emissions":"0","embodied":"0","transport":"0","process":"0","endoflife":"0","shipping":"46822.78","lifetime":null,"usagetype":"","usageenergy":null,"usageemissions":null,"timecreated":"2010-09-08 19:50:15.748321","timemodified":"2010-09-09 00:01:12","visibility":"public","showfootprint":"on","showembodied":"on","showtransport":"on","showprocess":"on","showendoflife":"on","showlastleg":"on","showuse":"on","showstats":"on","stops":{"origin":{"related_to":"4122","part_or_object":"o","notes":"","placename":"Pennsylvania, USA","id":"1903","category":"1","lat":"41.2033216","lon":"-77.1945247","name":"origin","hops":{"incoming":[{"transport_id":"17","id":"3448","transport_name":"None Selected","transport_description":null,"transport_unit":"kg km","transport_co2_eq":"0.000000","from_stop_id":"5708","from_stop_lat":"40.0583238","from_stop_lon":"-74.4056612","to_stop_id":"1903","to_stop_name":"origin","to_stop_lat":"41.2033216","placename":"New Jersey, USA","to_stop_lon":"-77.1945247","to_stop":{"id":"1903","name":"origin","lat":"41.2033216","placename":"Pennsylvania, USA","lon":"-77.1945247"},"from_stop":{"name":"origin","id":"5708","lat":"40.0583238","lon":"-74.4056612","placename":"New Jersey, USA"}},{"transport_id":"17","id":"3449","transport_name":"None Selected","transport_description":null,"transport_unit":"kg km","transport_co2_eq":"0.000000","from_stop_id":"5709","from_stop_lat":"41.2033216","from_stop_lon":"-77.1945247","to_stop_id":"1903","to_stop_name":"origin","to_stop_lat":"41.2033216","placename":"Pennsylvania, USA","to_stop_lon":"-77.1945247","to_stop":{"id":"1903","name":"origin","lat":"41.2033216","placename":"Pennsylvania, USA","lon":"-77.1945247"},"from_stop":{"name":"origin","id":"5709","lat":"41.2033216","lon":"-77.1945247","placename":"Pennsylvania, USA"}},{"transport_id":"17","id":"3450","transport_name":"None Selected","transport_description":null,"transport_unit":"kg km","transport_co2_eq":"0.000000","from_stop_id":"5710","from_stop_lat":"23.885942","from_stop_lon":"45.079162","to_stop_id":"1903","to_stop_name":"origin","to_stop_lat":"41.2033216","placename":"Saudi Arabia","to_stop_lon":"-77.1945247","to_stop":{"id":"1903","name":"origin","lat":"41.2033216","placename":"Pennsylvania, USA","lon":"-77.1945247"},"from_stop":{"name":"origin","id":"5710","lat":"23.885942","lon":"45.079162","placename":"Saudi Arabia"}},{"transport_id":"17","id":"3451","transport_name":"None Selected","transport_description":null,"transport_unit":"kg km","transport_co2_eq":"0.000000","from_stop_id":"5711","from_stop_lat":"31.9685988","from_stop_lon":"-99.9018131","to_stop_id":"1903","to_stop_name":"origin","to_stop_lat":"41.2033216","placename":"Texas, USA","to_stop_lon":"-77.1945247","to_stop":{"id":"1903","name":"origin","lat":"41.2033216","placename":"Pennsylvania, USA","lon":"-77.1945247"},"from_stop":{"name":"origin","id":"5711","lat":"31.9685988","lon":"-99.9018131","placename":"Texas, USA"}},{"transport_id":"17","id":"3452","transport_name":"None Selected","transport_description":null,"transport_unit":"kg km","transport_co2_eq":"0.000000","from_stop_id":"5712","from_stop_lat":"40.0583238","from_stop_lon":"-74.4056612","to_stop_id":"1903","to_stop_name":"origin","to_stop_lat":"41.2033216","placename":"New Jersey, USA","to_stop_lon":"-77.1945247","to_stop":{"id":"1903","name":"origin","lat":"41.2033216","placename":"Pennsylvania, USA","lon":"-77.1945247"},"from_stop":{"name":"origin","id":"5712","lat":"40.0583238","lon":"-74.4056612","placename":"New Jersey, USA"}},{"transport_id":"17","id":"3453","transport_name":"None Selected","transport_description":null,"transport_unit":"kg km","transport_co2_eq":"0.000000","from_stop_id":"5713","from_stop_lat":"0","from_stop_lon":"0","to_stop_id":"1903","to_stop_name":"origin","to_stop_lat":"41.2033216","placename":"Part Location","to_stop_lon":"-77.1945247","to_stop":{"id":"1903","name":"origin","lat":"41.2033216","placename":"Pennsylvania, USA","lon":"-77.1945247"},"from_stop":{"name":"origin","id":"5713","lat":"0","lon":"0","placename":"Part Location"}},{"transport_id":"17","id":"2939","transport_name":"None Selected","transport_description":null,"transport_unit":"kg km","transport_co2_eq":"0.000000","from_stop_id":"5199","from_stop_lat":"-25.274398","from_stop_lon":"133.775136","to_stop_id":"1903","to_stop_name":"origin","to_stop_lat":"41.2033216","placename":"Australia","to_stop_lon":"-77.1945247","to_stop":{"id":"1903","name":"origin","lat":"41.2033216","placename":"Pennsylvania, USA","lon":"-77.1945247"},"from_stop":{"name":"origin","id":"5199","lat":"-25.274398","lon":"133.775136","placename":"Australia"}},{"transport_id":"17","id":"2940","transport_name":"None Selected","transport_description":null,"transport_unit":"kg km","transport_co2_eq":"0.000000","from_stop_id":"5200","from_stop_lat":"-25.274398","from_stop_lon":"133.775136","to_stop_id":"1903","to_stop_name":"origin","to_stop_lat":"41.2033216","placename":"Australia","to_stop_lon":"-77.1945247","to_stop":{"id":"1903","name":"origin","lat":"41.2033216","placename":"Pennsylvania, USA","lon":"-77.1945247"},"from_stop":{"name":"origin","id":"5200","lat":"-25.274398","lon":"133.775136","placename":"Australia"}}],"outgoing":[]}}},"parts":[{"oid":"4122","imid":"4279","linkid":"","weight":"0","rawemissions":"0","emissions":"0","shipping":"16679.93","processemissions":"0","endoflifeemissions":"0","disposaltype":null,"disposalenergy":null,"disposalimpact":null,"disposalemissions":null,"description":"The farmer then sells the crop to an Australian processing company","name":"crop of eucalyptus","id":"4279","stops":{"origin":{"related_to":"4279","part_or_object":"p","notes":"","placename":"Australia","id":5199,"name":"origin","lat":"-25.274398","lon":"133.775136","hops":{"incoming":[],"outgoing":[{"transport_id":"17","id":"2939","transport_name":"None Selected","transport_description":null,"transport_unit":"kg km","transport_co2_eq":"0.000000","from_stop_id":"5199","from_stop_lat":"-25.274398","from_stop_lon":"133.775136","from_stop_placename":"Australia","to_stop_id":"1903","to_stop_name":"origin","to_stop_lat":"41.2033216","to_stop_lon":"-77.1945247","to_stop_placename":"Pennsylvania, USA","to_stop":{"id":"1903","name":"origin","lat":"41.2033216","lon":"-77.1945247","placename":"Pennsylvania, USA"},"from_stop":{"name":"origin","id":"5199","lat":"-25.274398","lon":"133.775136","placename":"Australia"}}]}}},"processes":[],"eols":[]},{"oid":"4122","imid":"4280","linkid":"","weight":"0","rawemissions":"0","emissions":"0","shipping":"16679.93","processemissions":"0","endoflifeemissions":"0","disposaltype":null,"disposalenergy":null,"disposalimpact":null,"disposalemissions":null,"description":"","name":"extraction of eucalyptol from eucalyptus","id":"4280","stops":{"origin":{"related_to":"4280","part_or_object":"p","notes":"","placename":"Australia","id":5200,"name":"origin","lat":"-25.274398","lon":"133.775136","hops":{"incoming":[],"outgoing":[{"transport_id":"17","id":"2940","transport_name":"None Selected","transport_description":null,"transport_unit":"kg km","transport_co2_eq":"0.000000","from_stop_id":"5200","from_stop_lat":"-25.274398","from_stop_lon":"133.775136","from_stop_placename":"Australia","to_stop_id":"1903","to_stop_name":"origin","to_stop_lat":"41.2033216","to_stop_lon":"-77.1945247","to_stop_placename":"Pennsylvania, USA","to_stop":{"id":"1903","name":"origin","lat":"41.2033216","lon":"-77.1945247","placename":"Pennsylvania, USA"},"from_stop":{"name":"origin","id":"5200","lat":"-25.274398","lon":"133.775136","placename":"Australia"}}]}}},"processes":[],"eols":[]},{"oid":"4122","imid":"4281","linkid":"","weight":"0","rawemissions":"0","emissions":"0","shipping":"267.86","processemissions":"0","endoflifeemissions":"0","disposaltype":null,"disposalenergy":null,"disposalimpact":null,"disposalemissions":null,"description":"","name":"buyer of the Australian oil","id":"4281","stops":{"origin":{"related_to":"4281","part_or_object":"p","notes":"","placename":"New Jersey, USA","id":5708,"name":"origin","lat":"40.0583238","lon":"-74.4056612","hops":{"incoming":[],"outgoing":[{"transport_id":"17","id":"3448","transport_name":"None Selected","transport_description":null,"transport_unit":"kg km","transport_co2_eq":"0.000000","from_stop_id":"5708","from_stop_lat":"40.0583238","from_stop_lon":"-74.4056612","from_stop_placename":"New Jersey, USA","to_stop_id":"1903","to_stop_name":"origin","to_stop_lat":"41.2033216","to_stop_lon":"-77.1945247","to_stop_placename":"Pennsylvania, USA","to_stop":{"id":"1903","name":"origin","lat":"41.2033216","lon":"-77.1945247","placename":"Pennsylvania, USA"},"from_stop":{"name":"origin","id":"5708","lat":"40.0583238","lon":"-74.4056612","placename":"New Jersey, USA"}}]}}},"processes":[],"eols":[]},{"oid":"4122","imid":"4282","linkid":"","weight":"0","rawemissions":"0","emissions":"0","shipping":"0","processemissions":"0","endoflifeemissions":"0","disposaltype":null,"disposalenergy":null,"disposalimpact":null,"disposalemissions":null,"description":"","name":"transports it to Manufacturer","id":"4282","stops":{"origin":{"related_to":"4282","part_or_object":"p","notes":"","placename":"Pennsylvania, USA","id":5709,"name":"origin","lat":"41.2033216","lon":"-77.1945247","hops":{"incoming":[],"outgoing":[{"transport_id":"17","id":"3449","transport_name":"None Selected","transport_description":null,"transport_unit":"kg km","transport_co2_eq":"0.000000","from_stop_id":"5709","from_stop_lat":"41.2033216","from_stop_lon":"-77.1945247","from_stop_placename":"Pennsylvania, USA","to_stop_id":"1903","to_stop_name":"origin","to_stop_lat":"41.2033216","to_stop_lon":"-77.1945247","to_stop_placename":"Pennsylvania, USA","to_stop":{"id":"1903","name":"origin","lat":"41.2033216","lon":"-77.1945247","placename":"Pennsylvania, USA"},"from_stop":{"name":"origin","id":"5709","lat":"41.2033216","lon":"-77.1945247","placename":"Pennsylvania, USA"}}]}}},"processes":[],"eols":[]},{"oid":"4122","imid":"4283","linkid":"","weight":"0","rawemissions":"0","emissions":"0","shipping":"10661.49","processemissions":"0","endoflifeemissions":"0","disposaltype":null,"disposalenergy":null,"disposalimpact":null,"disposalemissions":null,"description":"","name":"natural gas","id":"4283","stops":{"origin":{"related_to":"4283","part_or_object":"p","notes":"","placename":"Saudi Arabia","id":5710,"name":"origin","lat":"23.885942","lon":"45.079162","hops":{"incoming":[],"outgoing":[{"transport_id":"17","id":"3450","transport_name":"None Selected","transport_description":null,"transport_unit":"kg km","transport_co2_eq":"0.000000","from_stop_id":"5710","from_stop_lat":"23.885942","from_stop_lon":"45.079162","from_stop_placename":"Saudi Arabia","to_stop_id":"1903","to_stop_name":"origin","to_stop_lat":"41.2033216","to_stop_lon":"-77.1945247","to_stop_placename":"Pennsylvania, USA","to_stop":{"id":"1903","name":"origin","lat":"41.2033216","lon":"-77.1945247","placename":"Pennsylvania, USA"},"from_stop":{"name":"origin","id":"5710","lat":"23.885942","lon":"45.079162","placename":"Saudi Arabia"}}]}}},"processes":[],"eols":[]},{"oid":"4122","imid":"4284","linkid":"","weight":"0","rawemissions":"0","emissions":"0","shipping":"2265.71","processemissions":"0","endoflifeemissions":"0","disposaltype":null,"disposalenergy":null,"disposalimpact":null,"disposalemissions":null,"description":"","name":"oil taken to refinery ","id":"4284","stops":{"origin":{"related_to":"4284","part_or_object":"p","notes":"","placename":"Texas, USA","id":5711,"name":"origin","lat":"31.9685988","lon":"-99.9018131","hops":{"incoming":[],"outgoing":[{"transport_id":"17","id":"3451","transport_name":"None Selected","transport_description":null,"transport_unit":"kg km","transport_co2_eq":"0.000000","from_stop_id":"5711","from_stop_lat":"31.9685988","from_stop_lon":"-99.9018131","from_stop_placename":"Texas, USA","to_stop_id":"1903","to_stop_name":"origin","to_stop_lat":"41.2033216","to_stop_lon":"-77.1945247","to_stop_placename":"Pennsylvania, USA","to_stop":{"id":"1903","name":"origin","lat":"41.2033216","lon":"-77.1945247","placename":"Pennsylvania, USA"},"from_stop":{"name":"origin","id":"5711","lat":"31.9685988","lon":"-99.9018131","placename":"Texas, USA"}}]}}},"processes":[],"eols":[]},{"oid":"4122","imid":"4285","linkid":"","weight":"0","rawemissions":"0","emissions":"0","shipping":"267.86","processemissions":"0","endoflifeemissions":"0","disposaltype":null,"disposalenergy":null,"disposalimpact":null,"disposalemissions":null,"description":"","name":"taken for storage","id":"4285","stops":{"origin":{"related_to":"4285","part_or_object":"p","notes":"","placename":"New Jersey, USA","id":5712,"name":"origin","lat":"40.0583238","lon":"-74.4056612","hops":{"incoming":[],"outgoing":[{"transport_id":"17","id":"3452","transport_name":"None Selected","transport_description":null,"transport_unit":"kg km","transport_co2_eq":"0.000000","from_stop_id":"5712","from_stop_lat":"40.0583238","from_stop_lon":"-74.4056612","from_stop_placename":"New Jersey, USA","to_stop_id":"1903","to_stop_name":"origin","to_stop_lat":"41.2033216","to_stop_lon":"-77.1945247","to_stop_placename":"Pennsylvania, USA","to_stop":{"id":"1903","name":"origin","lat":"41.2033216","lon":"-77.1945247","placename":"Pennsylvania, USA"},"from_stop":{"name":"origin","id":"5712","lat":"40.0583238","lon":"-74.4056612","placename":"New Jersey, USA"}}]}}},"processes":[],"eols":[]},{"oid":"4122","imid":"4286","linkid":"","weight":"0","rawemissions":"0","emissions":"0","shipping":"0","processemissions":"0","endoflifeemissions":"0","disposaltype":null,"disposalenergy":null,"disposalimpact":null,"disposalemissions":null,"description":"","name":"Part","id":"4286","stops":{"origin":{"related_to":"4286","part_or_object":"p","notes":"","placename":"Part Location","id":5713,"name":"origin","lat":"0","lon":"0","hops":{"incoming":[],"outgoing":[{"transport_id":"17","id":"3453","transport_name":"None Selected","transport_description":null,"transport_unit":"kg km","transport_co2_eq":"0.000000","from_stop_id":"5713","from_stop_lat":"0","from_stop_lon":"0","from_stop_placename":"Part Location","to_stop_id":"1903","to_stop_name":"origin","to_stop_lat":"41.2033216","to_stop_lon":"-77.1945247","to_stop_placename":"Pennsylvania, USA","to_stop":{"id":"1903","name":"origin","lat":"41.2033216","lon":"-77.1945247","placename":"Pennsylvania, USA"},"from_stop":{"name":"origin","id":"5713","lat":"0","lon":"0","placename":"Part Location"}}]}}},"processes":[],"eols":[]}],"user":{"name":"15kandaaddara","id":"10549"}}}