{"4168":{"oid":"4168","type":"trace","flag":"","creator":"7641","name":"Lee Cooper Denim Jeans","upc":"","imagelink":"","description":"Map created based on article in The Guardian: Story of the Blues. http:\/\/www.guardian.co.uk\/g2\/story\/0,,497788,00.html","slug":"lee-cooper-denim-jeans","category":"","weight":"0","emissions":"0","embodied":"0","transport":"0","process":"0","endoflife":"0","shipping":"23423.92","lifetime":null,"usagetype":"","usageenergy":null,"usageemissions":null,"timecreated":"2010-09-23 16:31:14.725817","timemodified":"2010-09-23 21:03:21","visibility":"public","showfootprint":"on","showembodied":"on","showtransport":"on","showprocess":"on","showendoflife":"on","showlastleg":"on","showuse":"on","showstats":"on","stops":{"origin":{"related_to":"4168","part_or_object":"o","notes":"","placename":"Ras Jebel, Tunisia","id":"1948","category":"1","lat":"37.215","lon":"10.12","name":"origin","hops":{"incoming":[{"transport_id":"17","id":"2042","transport_name":"None Selected","transport_description":null,"transport_unit":"kg km","transport_co2_eq":"0.000000","from_stop_id":"4302","from_stop_lat":"9.30769","from_stop_lon":"2.315834","to_stop_id":"1948","to_stop_name":"origin","to_stop_lat":"37.215","placename":"Benin","to_stop_lon":"10.12","to_stop":{"id":"1948","name":"origin","lat":"37.215","placename":"Ras Jebel, Tunisia","lon":"10.12"},"from_stop":{"name":"origin","id":"4302","lat":"9.30769","lon":"2.315834","placename":"Benin"}},{"transport_id":"17","id":"2043","transport_name":"None Selected","transport_description":null,"transport_unit":"kg km","transport_co2_eq":"0.000000","from_stop_id":"4303","from_stop_lat":"30.375321","from_stop_lon":"69.345116","to_stop_id":"1948","to_stop_name":"origin","to_stop_lat":"37.215","placename":"Pakistan","to_stop_lon":"10.12","to_stop":{"id":"1948","name":"origin","lat":"37.215","placename":"Ras Jebel, Tunisia","lon":"10.12"},"from_stop":{"name":"origin","id":"4303","lat":"30.375321","lon":"69.345116","placename":"Pakistan"}},{"transport_id":"17","id":"2044","transport_name":"None Selected","transport_description":null,"transport_unit":"kg km","transport_co2_eq":"0.000000","from_stop_id":"4304","from_stop_lat":"54.7877149","from_stop_lon":"-6.4923145","to_stop_id":"1948","to_stop_name":"origin","to_stop_lat":"37.215","placename":"Northern Ireland, United Kingdom","to_stop_lon":"10.12","to_stop":{"id":"1948","name":"origin","lat":"37.215","placename":"Ras Jebel, Tunisia","lon":"10.12"},"from_stop":{"name":"origin","id":"4304","lat":"54.7877149","lon":"-6.4923145","placename":"Northern Ireland, United Kingdom"}},{"transport_id":"17","id":"2045","transport_name":"None Selected","transport_description":null,"transport_unit":"kg km","transport_co2_eq":"0.000000","from_stop_id":"4305","from_stop_lat":"46.227638","from_stop_lon":"2.213749","to_stop_id":"1948","to_stop_name":"origin","to_stop_lat":"37.215","placename":"France","to_stop_lon":"10.12","to_stop":{"id":"1948","name":"origin","lat":"37.215","placename":"Ras Jebel, Tunisia","lon":"10.12"},"from_stop":{"name":"origin","id":"4305","lat":"46.227638","lon":"2.213749","placename":"France"}},{"transport_id":"17","id":"2046","transport_name":"None Selected","transport_description":null,"transport_unit":"kg km","transport_co2_eq":"0.000000","from_stop_id":"4306","from_stop_lat":"51.165691","from_stop_lon":"10.451526","to_stop_id":"1948","to_stop_name":"origin","to_stop_lat":"37.215","placename":"Germany","to_stop_lon":"10.12","to_stop":{"id":"1948","name":"origin","lat":"37.215","placename":"Ras Jebel, Tunisia","lon":"10.12"},"from_stop":{"name":"origin","id":"4306","lat":"51.165691","lon":"10.451526","placename":"Germany"}},{"transport_id":"17","id":"2047","transport_name":"None Selected","transport_description":null,"transport_unit":"kg km","transport_co2_eq":"0.000000","from_stop_id":"4307","from_stop_lat":"45.4636889","from_stop_lon":"9.1881408","to_stop_id":"1948","to_stop_name":"origin","to_stop_lat":"37.215","placename":"Milan, Italy","to_stop_lon":"10.12","to_stop":{"id":"1948","name":"origin","lat":"37.215","placename":"Ras Jebel, Tunisia","lon":"10.12"},"from_stop":{"name":"origin","id":"4307","lat":"45.4636889","lon":"9.1881408","placename":"Milan, Italy"}},{"transport_id":"17","id":"2048","transport_name":"None Selected","transport_description":null,"transport_unit":"kg km","transport_co2_eq":"0.000000","from_stop_id":"4308","from_stop_lat":"50.1115118","from_stop_lon":"8.6805059","to_stop_id":"1948","to_stop_name":"origin","to_stop_lat":"37.215","placename":"Frankfurt, Germany","to_stop_lon":"10.12","to_stop":{"id":"1948","name":"origin","lat":"37.215","placename":"Ras Jebel, Tunisia","lon":"10.12"},"from_stop":{"name":"origin","id":"4308","lat":"50.1115118","lon":"8.6805059","placename":"Frankfurt, Germany"}},{"transport_id":"17","id":"2049","transport_name":"None Selected","transport_description":null,"transport_unit":"kg km","transport_co2_eq":"0.000000","from_stop_id":"4309","from_stop_lat":"38.963745","from_stop_lon":"35.243322","to_stop_id":"1948","to_stop_name":"origin","to_stop_lat":"37.215","placename":"Turkey","to_stop_lon":"10.12","to_stop":{"id":"1948","name":"origin","lat":"37.215","placename":"Ras Jebel, Tunisia","lon":"10.12"},"from_stop":{"name":"origin","id":"4309","lat":"38.963745","lon":"35.243322","placename":"Turkey"}},{"transport_id":"17","id":"2050","transport_name":"None Selected","transport_description":null,"transport_unit":"kg km","transport_co2_eq":"0.000000","from_stop_id":"4310","from_stop_lat":"49.8939183","from_stop_lon":"2.2942436","to_stop_id":"1948","to_stop_name":"origin","to_stop_lat":"37.215","placename":"Amiens, France","to_stop_lon":"10.12","to_stop":{"id":"1948","name":"origin","lat":"37.215","placename":"Ras Jebel, Tunisia","lon":"10.12"},"from_stop":{"name":"origin","id":"4310","lat":"49.8939183","lon":"2.2942436","placename":"Amiens, France"}},{"transport_id":"17","id":"2051","transport_name":"None Selected","transport_description":null,"transport_unit":"kg km","transport_co2_eq":"0.000000","from_stop_id":"4311","from_stop_lat":"51.57153","from_stop_lon":"-0.23258","to_stop_id":"1948","to_stop_name":"origin","to_stop_lat":"37.215","placename":"West Hendon, Staples Corner (Stop SA), Barnet, Greater London NW2, UK","to_stop_lon":"10.12","to_stop":{"id":"1948","name":"origin","lat":"37.215","placename":"Ras Jebel, Tunisia","lon":"10.12"},"from_stop":{"name":"origin","id":"4311","lat":"51.57153","lon":"-0.23258","placename":"West Hendon, Staples Corner (Stop SA), Barnet, Greater London NW2, UK"}},{"transport_id":"17","id":"2052","transport_name":"None Selected","transport_description":null,"transport_unit":"kg km","transport_co2_eq":"0.000000","from_stop_id":"4312","from_stop_lat":"52.0593085","from_stop_lon":"1.1556722","to_stop_id":"1948","to_stop_name":"origin","to_stop_lat":"37.215","placename":"Ipswich, Suffolk, UK","to_stop_lon":"10.12","to_stop":{"id":"1948","name":"origin","lat":"37.215","placename":"Ras Jebel, Tunisia","lon":"10.12"},"from_stop":{"name":"origin","id":"4312","lat":"52.0593085","lon":"1.1556722","placename":"Ipswich, Suffolk, UK"}}],"outgoing":[]}}},"parts":[{"oid":"4168","imid":"4342","linkid":"","weight":"0","rawemissions":"0","emissions":"0","shipping":"3204.41","processemissions":"0","endoflifeemissions":"0","disposaltype":null,"disposalenergy":null,"disposalimpact":null,"disposalemissions":null,"description":"\"Benin is one of several cotton-growing countries in west Africa, and there is a permanent carnival air.... But a closer look at Benins cotton industry, the mainstay of its economy, is not so cheering. Corruption and mismanagement keep most cotton-farmers here as poor as when France introduced the crop to the region 100 years ago. And where a little technology filters down, in insecticides and fertilisers, people are dying. During last years cotton season here, about 100 people died from poisoning thanks to the pesticide endosulfin, one of a number of dangerous chemicals being dumped on west Africas cotton-growers, despite being banned by some wealthier countries.\"\nhttp:\/\/www.guardian.co.uk\/g2\/story\/0,,497788,00.html","name":"Cotton","id":"4342","stops":{"origin":{"related_to":"4342","part_or_object":"p","notes":"","placename":"Benin","id":4302,"name":"origin","lat":"9.30769","lon":"2.315834","hops":{"incoming":[],"outgoing":[{"transport_id":"17","id":"2042","transport_name":"None Selected","transport_description":null,"transport_unit":"kg km","transport_co2_eq":"0.000000","from_stop_id":"4302","from_stop_lat":"9.30769","from_stop_lon":"2.315834","from_stop_placename":"Benin","to_stop_id":"1948","to_stop_name":"origin","to_stop_lat":"37.215","to_stop_lon":"10.12","to_stop_placename":"Ras Jebel, Tunisia","to_stop":{"id":"1948","name":"origin","lat":"37.215","lon":"10.12","placename":"Ras Jebel, Tunisia"},"from_stop":{"name":"origin","id":"4302","lat":"9.30769","lon":"2.315834","placename":"Benin"}}]}}},"processes":[],"eols":[]},{"oid":"4168","imid":"4343","linkid":"","weight":"0","rawemissions":"0","emissions":"0","shipping":"5443.56","processemissions":"0","endoflifeemissions":"0","disposaltype":null,"disposalenergy":null,"disposalimpact":null,"disposalemissions":null,"description":"Milled and heat treated, before heading to Tunisia for assembly. ","name":"Pocketing","id":"4343","stops":{"origin":{"related_to":"4343","part_or_object":"p","notes":"","placename":"Pakistan","id":4303,"name":"origin","lat":"30.375321","lon":"69.345116","hops":{"incoming":[],"outgoing":[{"transport_id":"17","id":"2043","transport_name":"None Selected","transport_description":null,"transport_unit":"kg km","transport_co2_eq":"0.000000","from_stop_id":"4303","from_stop_lat":"30.375321","from_stop_lon":"69.345116","from_stop_placename":"Pakistan","to_stop_id":"1948","to_stop_name":"origin","to_stop_lat":"37.215","to_stop_lon":"10.12","to_stop_placename":"Ras Jebel, Tunisia","to_stop":{"id":"1948","name":"origin","lat":"37.215","lon":"10.12","placename":"Ras Jebel, Tunisia"},"from_stop":{"name":"origin","id":"4303","lat":"30.375321","lon":"69.345116","placename":"Pakistan"}}]}}},"processes":[],"eols":[]},{"oid":"4168","imid":"4344","linkid":"","weight":"0","rawemissions":"0","emissions":"0","shipping":"2327.22","processemissions":"0","endoflifeemissions":"0","disposaltype":null,"disposalenergy":null,"disposalimpact":null,"disposalemissions":null,"description":"\"Coats Viyella makes these threads and they may all look the same to you or me, apart from their orange, white or blue colouring, but there are different thicknesses, different strengths, for different parts of the job... They get dyed in Spain and wound on to spools in Tunis before being delivered to Ras Jebel.\"\nhttp:\/\/www.guardian.co.uk\/g2\/story\/0,,497788,00.html","name":"Polyester Threads","id":"4344","stops":{"origin":{"related_to":"4344","part_or_object":"p","notes":"","placename":"Northern Ireland, United Kingdom","id":4304,"name":"origin","lat":"54.7877149","lon":"-6.4923145","hops":{"incoming":[],"outgoing":[{"transport_id":"17","id":"2044","transport_name":"None Selected","transport_description":null,"transport_unit":"kg km","transport_co2_eq":"0.000000","from_stop_id":"4304","from_stop_lat":"54.7877149","from_stop_lon":"-6.4923145","from_stop_placename":"Northern Ireland, United Kingdom","to_stop_id":"1948","to_stop_name":"origin","to_stop_lat":"37.215","to_stop_lon":"10.12","to_stop_placename":"Ras Jebel, Tunisia","to_stop":{"id":"1948","name":"origin","lat":"37.215","lon":"10.12","placename":"Ras Jebel, Tunisia"},"from_stop":{"name":"origin","id":"4304","lat":"54.7877149","lon":"-6.4923145","placename":"Northern Ireland, United Kingdom"}}]}}},"processes":[],"eols":[]},{"oid":"4168","imid":"4345","linkid":"","weight":"0","rawemissions":"0","emissions":"0","shipping":"1197.83","processemissions":"0","endoflifeemissions":"0","disposaltype":null,"disposalenergy":null,"disposalimpact":null,"disposalemissions":null,"description":"\"...the polyester tape for the zip, which coincidentally is made in France by a Japanese company, YKK. The brass wire that makes up the teeth of the zip comes from Japan...\"\nhttp:\/\/www.guardian.co.uk\/g2\/story\/0,,497788,00.html","name":"Zipper ","id":"4345","stops":{"origin":{"related_to":"4345","part_or_object":"p","notes":"","placename":"France","id":4305,"name":"origin","lat":"46.227638","lon":"2.213749","hops":{"incoming":[],"outgoing":[{"transport_id":"17","id":"2045","transport_name":"None Selected","transport_description":null,"transport_unit":"kg km","transport_co2_eq":"0.000000","from_stop_id":"4305","from_stop_lat":"46.227638","from_stop_lon":"2.213749","from_stop_placename":"France","to_stop_id":"1948","to_stop_name":"origin","to_stop_lat":"37.215","to_stop_lon":"10.12","to_stop_placename":"Ras Jebel, Tunisia","to_stop":{"id":"1948","name":"origin","lat":"37.215","lon":"10.12","placename":"Ras Jebel, Tunisia"},"from_stop":{"name":"origin","id":"4305","lat":"46.227638","lon":"2.213749","placename":"France"}}]}}},"processes":[],"eols":[]},{"oid":"4168","imid":"4346","linkid":"","weight":"0","rawemissions":"0","emissions":"0","shipping":"1553.2","processemissions":"0","endoflifeemissions":"0","disposaltype":null,"disposalenergy":null,"disposalimpact":null,"disposalemissions":null,"description":"\"Brass, of course, is an alloy made mainly of copper with a little zinc. And it is brass, again, that goes to make the rivets and part of the buttons. They come from Prym, a German-based firm that makes its own brass using zinc and copper from Australia and Namibia.\"\nhttp:\/\/www.guardian.co.uk\/g2\/story\/0,,497788,00.html","name":"Rivets & Buttons","id":"4346","stops":{"origin":{"related_to":"4346","part_or_object":"p","notes":"","placename":"Germany","id":4306,"name":"origin","lat":"51.165691","lon":"10.451526","hops":{"incoming":[],"outgoing":[{"transport_id":"17","id":"2046","transport_name":"None Selected","transport_description":null,"transport_unit":"kg km","transport_co2_eq":"0.000000","from_stop_id":"4306","from_stop_lat":"51.165691","from_stop_lon":"10.451526","from_stop_placename":"Germany","to_stop_id":"1948","to_stop_name":"origin","to_stop_lat":"37.215","to_stop_lon":"10.12","to_stop_placename":"Ras Jebel, Tunisia","to_stop":{"id":"1948","name":"origin","lat":"37.215","lon":"10.12","placename":"Ras Jebel, Tunisia"},"from_stop":{"name":"origin","id":"4306","lat":"51.165691","lon":"10.451526","placename":"Germany"}}]}}},"processes":[],"eols":[]},{"oid":"4168","imid":"4347","linkid":"","weight":"0","rawemissions":"0","emissions":"0","shipping":"921.52","processemissions":"0","endoflifeemissions":"0","disposaltype":null,"disposalenergy":null,"disposalimpact":null,"disposalemissions":null,"description":"Spun, milled, and dyed using synthetic indigo. ","name":"Denim Fabric","id":"4347","stops":{"origin":{"related_to":"4347","part_or_object":"p","notes":"","placename":"Milan, Italy","id":4307,"name":"origin","lat":"45.4636889","lon":"9.1881408","hops":{"incoming":[],"outgoing":[{"transport_id":"17","id":"2047","transport_name":"None Selected","transport_description":null,"transport_unit":"kg km","transport_co2_eq":"0.000000","from_stop_id":"4307","from_stop_lat":"45.4636889","from_stop_lon":"9.1881408","from_stop_placename":"Milan, Italy","to_stop_id":"1948","to_stop_name":"origin","to_stop_lat":"37.215","to_stop_lon":"10.12","to_stop_placename":"Ras Jebel, Tunisia","to_stop":{"id":"1948","name":"origin","lat":"37.215","lon":"10.12","placename":"Ras Jebel, Tunisia"},"from_stop":{"name":"origin","id":"4307","lat":"45.4636889","lon":"9.1881408","placename":"Milan, Italy"}}]}}},"processes":[],"eols":[]},{"oid":"4168","imid":"4348","linkid":"","weight":"0","rawemissions":"0","emissions":"0","shipping":"1440.23","processemissions":"0","endoflifeemissions":"0","disposaltype":null,"disposalenergy":null,"disposalimpact":null,"disposalemissions":null,"description":"","name":"Synthetic Indigo","id":"4348","stops":{"origin":{"related_to":"4348","part_or_object":"p","notes":"","placename":"Frankfurt, Germany","id":4308,"name":"origin","lat":"50.1115118","lon":"8.6805059","hops":{"incoming":[],"outgoing":[{"transport_id":"17","id":"2048","transport_name":"None Selected","transport_description":null,"transport_unit":"kg km","transport_co2_eq":"0.000000","from_stop_id":"4308","from_stop_lat":"50.1115118","from_stop_lon":"8.6805059","from_stop_placename":"Frankfurt, Germany","to_stop_id":"1948","to_stop_name":"origin","to_stop_lat":"37.215","to_stop_lon":"10.12","to_stop_placename":"Ras Jebel, Tunisia","to_stop":{"id":"1948","name":"origin","lat":"37.215","lon":"10.12","placename":"Ras Jebel, Tunisia"},"from_stop":{"name":"origin","id":"4308","lat":"50.1115118","lon":"8.6805059","placename":"Frankfurt, Germany"}}]}}},"processes":[],"eols":[]},{"oid":"4168","imid":"4349","linkid":"","weight":"0","rawemissions":"0","emissions":"0","shipping":"2202.74","processemissions":"0","endoflifeemissions":"0","disposaltype":null,"disposalenergy":null,"disposalimpact":null,"disposalemissions":null,"description":"\"This stonewashing, by the way, is one of the dirtier processes involved in jeans production. Although the Italdenim factory has all the best environmentally friendly equipment, much of the dye is washed out at Ras Jebel, which does not. The indigo itself is benign, but when it finds its way into local streams it cuts out the light in the water and kills plants and fish. The pumice, replaced now by an enzyme treatment in modern European factories, is reduced to a powder and then discarded. A factory like this can produce several tons of powdered pumice every year.\"\nhttp:\/\/www.guardian.co.uk\/g2\/story\/0,,497788,00.html","name":"Pumice ","id":"4349","stops":{"origin":{"related_to":"4349","part_or_object":"p","notes":"","placename":"Turkey","id":4309,"name":"origin","lat":"38.963745","lon":"35.243322","hops":{"incoming":[],"outgoing":[{"transport_id":"17","id":"2049","transport_name":"None Selected","transport_description":null,"transport_unit":"kg km","transport_co2_eq":"0.000000","from_stop_id":"4309","from_stop_lat":"38.963745","from_stop_lon":"35.243322","from_stop_placename":"Turkey","to_stop_id":"1948","to_stop_name":"origin","to_stop_lat":"37.215","to_stop_lon":"10.12","to_stop_placename":"Ras Jebel, Tunisia","to_stop":{"id":"1948","name":"origin","lat":"37.215","lon":"10.12","placename":"Ras Jebel, Tunisia"},"from_stop":{"name":"origin","id":"4309","lat":"38.963745","lon":"35.243322","placename":"Turkey"}}]}}},"processes":[],"eols":[]},{"oid":"4168","imid":"4350","linkid":"","weight":"0","rawemissions":"0","emissions":"0","shipping":"1544.13","processemissions":"0","endoflifeemissions":"0","disposaltype":null,"disposalenergy":null,"disposalimpact":null,"disposalemissions":null,"description":"Travels by train and boat from Africa to a distribution warehouse, before entering the market. ","name":"Warehouse - distribution","id":"4350","stops":{"origin":{"related_to":"4350","part_or_object":"p","notes":"","placename":"Amiens, France","id":4310,"name":"origin","lat":"49.8939183","lon":"2.2942436","hops":{"incoming":[],"outgoing":[{"transport_id":"17","id":"2050","transport_name":"None Selected","transport_description":null,"transport_unit":"kg km","transport_co2_eq":"0.000000","from_stop_id":"4310","from_stop_lat":"49.8939183","from_stop_lon":"2.2942436","from_stop_placename":"Amiens, France","to_stop_id":"1948","to_stop_name":"origin","to_stop_lat":"37.215","to_stop_lon":"10.12","to_stop_placename":"Ras Jebel, Tunisia","to_stop":{"id":"1948","name":"origin","lat":"37.215","lon":"10.12","placename":"Ras Jebel, Tunisia"},"from_stop":{"name":"origin","id":"4310","lat":"49.8939183","lon":"2.2942436","placename":"Amiens, France"}}]}}},"processes":[],"eols":[]},{"oid":"4168","imid":"4351","linkid":"","weight":"0","rawemissions":"0","emissions":"0","shipping":"1793.75","processemissions":"0","endoflifeemissions":"0","disposaltype":null,"disposalenergy":null,"disposalimpact":null,"disposalemissions":null,"description":"Lee Cooper Warehouse.","name":"Warehouse","id":"4351","stops":{"origin":{"related_to":"4351","part_or_object":"p","notes":"","placename":"West Hendon, Staples Corner (Stop SA), Barnet, Greater London NW2, UK","id":4311,"name":"origin","lat":"51.57153","lon":"-0.23258","hops":{"incoming":[],"outgoing":[{"transport_id":"17","id":"2051","transport_name":"None Selected","transport_description":null,"transport_unit":"kg km","transport_co2_eq":"0.000000","from_stop_id":"4311","from_stop_lat":"51.57153","from_stop_lon":"-0.23258","from_stop_placename":"West Hendon, Staples Corner (Stop SA), Barnet, Greater London NW2, UK","to_stop_id":"1948","to_stop_name":"origin","to_stop_lat":"37.215","to_stop_lon":"10.12","to_stop_placename":"Ras Jebel, Tunisia","to_stop":{"id":"1948","name":"origin","lat":"37.215","lon":"10.12","placename":"Ras Jebel, Tunisia"},"from_stop":{"name":"origin","id":"4311","lat":"51.57153","lon":"-0.23258","placename":"West Hendon, Staples Corner (Stop SA), Barnet, Greater London NW2, UK"}}]}}},"processes":[],"eols":[]},{"oid":"4168","imid":"4352","linkid":"","weight":"0","rawemissions":"0","emissions":"0","shipping":"1795.33","processemissions":"0","endoflifeemissions":"0","disposaltype":null,"disposalenergy":null,"disposalimpact":null,"disposalemissions":null,"description":"Lee Cooper jeans found at Cromwells Madhouse retail outlet. ","name":"Retail","id":"4352","stops":{"origin":{"related_to":"4352","part_or_object":"p","notes":"","placename":"Ipswich, Suffolk, UK","id":4312,"name":"origin","lat":"52.0593085","lon":"1.1556722","hops":{"incoming":[],"outgoing":[{"transport_id":"17","id":"2052","transport_name":"None Selected","transport_description":null,"transport_unit":"kg km","transport_co2_eq":"0.000000","from_stop_id":"4312","from_stop_lat":"52.0593085","from_stop_lon":"1.1556722","from_stop_placename":"Ipswich, Suffolk, UK","to_stop_id":"1948","to_stop_name":"origin","to_stop_lat":"37.215","to_stop_lon":"10.12","to_stop_placename":"Ras Jebel, Tunisia","to_stop":{"id":"1948","name":"origin","lat":"37.215","lon":"10.12","placename":"Ras Jebel, Tunisia"},"from_stop":{"name":"origin","id":"4312","lat":"52.0593085","lon":"1.1556722","placename":"Ipswich, Suffolk, UK"}}]}}},"processes":[],"eols":[]}],"user":{"name":"jenniferksharpe","id":"7641"}}}