{"4185":{"oid":"4185","type":"travel","flag":"","creator":"10742","name":"IASAS Volleyball Travel","upc":"","imagelink":"","description":"5-6 teams will come here to ISB this weekend to compete in an IASAS sports event.  The teams come from Jakarta, Taiwan, Manila, SIngapore, and KL.","slug":"iasas-travel","category":"featured","weight":"22795","emissions":"77325.1227076","embodied":"0","transport":"77325.1227076","process":"0","endoflife":"0","shipping":"9576.62","lifetime":null,"usagetype":"","usageenergy":null,"usageemissions":null,"timecreated":"2010-09-30 06:55:59.431808","timemodified":"2010-10-01 01:52:35","visibility":"public","showfootprint":"on","showembodied":"on","showtransport":"on","showprocess":"on","showendoflife":"on","showlastleg":"on","showuse":"on","showstats":"on","stops":{"origin":{"related_to":"4185","part_or_object":"o","notes":"","placename":"Bangkok, Thailand","id":"1967","category":"1","lat":"13.7234186","lon":"100.4762319","name":"origin","hops":{"incoming":[{"transport_id":"13","id":"2008","transport_name":"air, passenger, regional","transport_description":"within one continent, kg km from person-km","transport_unit":"kg km","transport_co2_eq":"2.262000","from_stop_id":"4268","from_stop_lat":"-6.211544","from_stop_lon":"106.845172","to_stop_id":"1967","to_stop_name":"origin","to_stop_lat":"13.7234186","placename":"Jakarta Capital Region, Indonesia","to_stop_lon":"100.4762319","to_stop":{"id":"1967","name":"origin","lat":"13.7234186","placename":"Bangkok, Thailand","lon":"100.4762319"},"from_stop":{"name":"origin","id":"4268","lat":"-6.211544","lon":"106.845172","placename":"Jakarta Capital Region, Indonesia"}},{"transport_id":"13","id":"2013","transport_name":"air, passenger, regional","transport_description":"within one continent, kg km from person-km","transport_unit":"kg km","transport_co2_eq":"2.262000","from_stop_id":"4273","from_stop_lat":"14.5833333","from_stop_lon":"120.9666667","to_stop_id":"1967","to_stop_name":"origin","to_stop_lat":"13.7234186","placename":"Manila, Philippines","to_stop_lon":"100.4762319","to_stop":{"id":"1967","name":"origin","lat":"13.7234186","placename":"Bangkok, Thailand","lon":"100.4762319"},"from_stop":{"name":"origin","id":"4273","lat":"14.5833333","lon":"120.9666667","placename":"Manila, Philippines"}},{"transport_id":"13","id":"2350","transport_name":"air, passenger, regional","transport_description":"within one continent, kg km from person-km","transport_unit":"kg km","transport_co2_eq":"2.262000","from_stop_id":"4610","from_stop_lat":"23.69781","from_stop_lon":"120.960515","to_stop_id":"1967","to_stop_name":"origin","to_stop_lat":"13.7234186","placename":"Taiwan","to_stop_lon":"100.4762319","to_stop":{"id":"1967","name":"origin","lat":"13.7234186","placename":"Bangkok, Thailand","lon":"100.4762319"},"from_stop":{"name":"origin","id":"4610","lat":"23.69781","lon":"120.960515","placename":"Taiwan"}},{"transport_id":"13","id":"2351","transport_name":"air, passenger, regional","transport_description":"within one continent, kg km from person-km","transport_unit":"kg km","transport_co2_eq":"2.262000","from_stop_id":"4611","from_stop_lat":"1.352083","from_stop_lon":"103.819836","to_stop_id":"1967","to_stop_name":"origin","to_stop_lat":"13.7234186","placename":"Singapore","to_stop_lon":"100.4762319","to_stop":{"id":"1967","name":"origin","lat":"13.7234186","placename":"Bangkok, Thailand","lon":"100.4762319"},"from_stop":{"name":"origin","id":"4611","lat":"1.352083","lon":"103.819836","placename":"Singapore"}},{"transport_id":"17","id":"2009","transport_name":"None Selected","transport_description":null,"transport_unit":"kg km","transport_co2_eq":"0.000000","from_stop_id":"4269","from_stop_lat":"13.7234186","from_stop_lon":"100.4762319","to_stop_id":"1967","to_stop_name":"origin","to_stop_lat":"13.7234186","placename":"Bangkok, Thailand","to_stop_lon":"100.4762319","to_stop":{"id":"1967","name":"origin","lat":"13.7234186","placename":"Bangkok, Thailand","lon":"100.4762319"},"from_stop":{"name":"origin","id":"4269","lat":"13.7234186","lon":"100.4762319","placename":"Bangkok, Thailand"}},{"transport_id":"17","id":"2014","transport_name":"None Selected","transport_description":null,"transport_unit":"kg km","transport_co2_eq":"0.000000","from_stop_id":"4274","from_stop_lat":"3.139003","from_stop_lon":"101.686855","to_stop_id":"1967","to_stop_name":"origin","to_stop_lat":"13.7234186","placename":"Kuala Lumpur, Federal Territory of Kuala Lumpur, Malaysia","to_stop_lon":"100.4762319","to_stop":{"id":"1967","name":"origin","lat":"13.7234186","placename":"Bangkok, Thailand","lon":"100.4762319"},"from_stop":{"name":"origin","id":"4274","lat":"3.139003","lon":"101.686855","placename":"Kuala Lumpur, Federal Territory of Kuala Lumpur, Malaysia"}}],"outgoing":[]}}},"parts":[{"oid":"4185","imid":"4375","linkid":"","weight":"42","rawemissions":"0","emissions":"0","shipping":"2328.09","processemissions":"0","endoflifeemissions":"0","disposaltype":null,"disposalenergy":null,"disposalimpact":null,"disposalemissions":null,"description":"","name":"JIS","id":"4375","stops":{"origin":{"related_to":"4375","part_or_object":"p","notes":"","placename":"Jakarta Capital Region, Indonesia","id":4268,"name":"origin","lat":"-6.211544","lon":"106.845172","hops":{"incoming":[],"outgoing":[{"transport_id":"13","id":"2008","transport_name":"air, passenger, regional","transport_description":"within one continent, kg km from person-km","transport_unit":"kg km","transport_co2_eq":"2.262000","from_stop_id":"4268","from_stop_lat":"-6.211544","from_stop_lon":"106.845172","from_stop_placename":"Jakarta Capital Region, Indonesia","to_stop_id":"1967","to_stop_name":"origin","to_stop_lat":"13.7234186","to_stop_lon":"100.4762319","to_stop_placename":"Bangkok, Thailand","to_stop":{"id":"1967","name":"origin","lat":"13.7234186","lon":"100.4762319","placename":"Bangkok, Thailand"},"from_stop":{"name":"origin","id":"4268","lat":"-6.211544","lon":"106.845172","placename":"Jakarta Capital Region, Indonesia"}}]}}},"processes":[],"eols":[]},{"oid":"4185","imid":"4376","linkid":"","weight":"25","rawemissions":"0","emissions":"0","shipping":"0","processemissions":"0","endoflifeemissions":"0","disposaltype":null,"disposalenergy":null,"disposalimpact":null,"disposalemissions":null,"description":"","name":"ISB","id":"4376","stops":{"origin":{"related_to":"4376","part_or_object":"p","notes":"","placename":"Bangkok, Thailand","id":4269,"name":"origin","lat":"13.7234186","lon":"100.4762319","hops":{"incoming":[],"outgoing":[{"transport_id":"17","id":"2009","transport_name":"None Selected","transport_description":null,"transport_unit":"kg km","transport_co2_eq":"0.000000","from_stop_id":"4269","from_stop_lat":"13.7234186","from_stop_lon":"100.4762319","from_stop_placename":"Bangkok, Thailand","to_stop_id":"1967","to_stop_name":"origin","to_stop_lat":"13.7234186","to_stop_lon":"100.4762319","to_stop_placename":"Bangkok, Thailand","to_stop":{"id":"1967","name":"origin","lat":"13.7234186","lon":"100.4762319","placename":"Bangkok, Thailand"},"from_stop":{"name":"origin","id":"4269","lat":"13.7234186","lon":"100.4762319","placename":"Bangkok, Thailand"}}]}}},"processes":[],"eols":[]},{"oid":"4185","imid":"4371","linkid":"","weight":"42","rawemissions":"0","emissions":"0","shipping":"2213.08","processemissions":"0","endoflifeemissions":"0","disposaltype":null,"disposalenergy":null,"disposalimpact":null,"disposalemissions":null,"description":"","name":"ISM","id":"4371","stops":{"origin":{"related_to":"4371","part_or_object":"p","notes":"","placename":"Manila, Philippines","id":4273,"name":"origin","lat":"14.5833333","lon":"120.9666667","hops":{"incoming":[],"outgoing":[{"transport_id":"13","id":"2013","transport_name":"air, passenger, regional","transport_description":"within one continent, kg km from person-km","transport_unit":"kg km","transport_co2_eq":"2.262000","from_stop_id":"4273","from_stop_lat":"14.5833333","from_stop_lon":"120.9666667","from_stop_placename":"Manila, Philippines","to_stop_id":"1967","to_stop_name":"origin","to_stop_lat":"13.7234186","to_stop_lon":"100.4762319","to_stop_placename":"Bangkok, Thailand","to_stop":{"id":"1967","name":"origin","lat":"13.7234186","lon":"100.4762319","placename":"Bangkok, Thailand"},"from_stop":{"name":"origin","id":"4273","lat":"14.5833333","lon":"120.9666667","placename":"Manila, Philippines"}}]}}},"processes":[],"eols":[]},{"oid":"4185","imid":"4374","linkid":"","weight":"42","rawemissions":"0","emissions":"0","shipping":"1185.75","processemissions":"0","endoflifeemissions":"0","disposaltype":null,"disposalenergy":null,"disposalimpact":null,"disposalemissions":null,"description":"","name":"ISKL","id":"4374","stops":{"origin":{"related_to":"4374","part_or_object":"p","notes":"","placename":"Kuala Lumpur, Federal Territory of Kuala Lumpur, Malaysia","id":4274,"name":"origin","lat":"3.139003","lon":"101.686855","hops":{"incoming":[],"outgoing":[{"transport_id":"17","id":"2014","transport_name":"None Selected","transport_description":null,"transport_unit":"kg km","transport_co2_eq":"0.000000","from_stop_id":"4274","from_stop_lat":"3.139003","from_stop_lon":"101.686855","from_stop_placename":"Kuala Lumpur, Federal Territory of Kuala Lumpur, Malaysia","to_stop_id":"1967","to_stop_name":"origin","to_stop_lat":"13.7234186","to_stop_lon":"100.4762319","to_stop_placename":"Bangkok, Thailand","to_stop":{"id":"1967","name":"origin","lat":"13.7234186","lon":"100.4762319","placename":"Bangkok, Thailand"},"from_stop":{"name":"origin","id":"4274","lat":"3.139003","lon":"101.686855","placename":"Kuala Lumpur, Federal Territory of Kuala Lumpur, Malaysia"}}]}}},"processes":[],"eols":[]},{"oid":"4185","imid":"4372","linkid":"","weight":"42","rawemissions":"0","emissions":"0","shipping":"2424.15","processemissions":"0","endoflifeemissions":"0","disposaltype":null,"disposalenergy":null,"disposalimpact":null,"disposalemissions":null,"description":"","name":"TAS","id":"4372","stops":{"origin":{"related_to":"4372","part_or_object":"p","notes":"","placename":"Taiwan","id":4610,"name":"origin","lat":"23.69781","lon":"120.960515","hops":{"incoming":[],"outgoing":[{"transport_id":"13","id":"2350","transport_name":"air, passenger, regional","transport_description":"within one continent, kg km from person-km","transport_unit":"kg km","transport_co2_eq":"2.262000","from_stop_id":"4610","from_stop_lat":"23.69781","from_stop_lon":"120.960515","from_stop_placename":"Taiwan","to_stop_id":"1967","to_stop_name":"origin","to_stop_lat":"13.7234186","to_stop_lon":"100.4762319","to_stop_placename":"Bangkok, Thailand","to_stop":{"id":"1967","name":"origin","lat":"13.7234186","lon":"100.4762319","placename":"Bangkok, Thailand"},"from_stop":{"name":"origin","id":"4610","lat":"23.69781","lon":"120.960515","placename":"Taiwan"}}]}}},"processes":[],"eols":[]},{"oid":"4185","imid":"4373","linkid":"","weight":"42","rawemissions":"0","emissions":"0","shipping":"1425.55","processemissions":"0","endoflifeemissions":"0","disposaltype":null,"disposalenergy":null,"disposalimpact":null,"disposalemissions":null,"description":"","name":"SAS","id":"4373","stops":{"origin":{"related_to":"4373","part_or_object":"p","notes":"","placename":"Singapore","id":4611,"name":"origin","lat":"1.352083","lon":"103.819836","hops":{"incoming":[],"outgoing":[{"transport_id":"13","id":"2351","transport_name":"air, passenger, regional","transport_description":"within one continent, kg km from person-km","transport_unit":"kg km","transport_co2_eq":"2.262000","from_stop_id":"4611","from_stop_lat":"1.352083","from_stop_lon":"103.819836","from_stop_placename":"Singapore","to_stop_id":"1967","to_stop_name":"origin","to_stop_lat":"13.7234186","to_stop_lon":"100.4762319","to_stop_placename":"Bangkok, Thailand","to_stop":{"id":"1967","name":"origin","lat":"13.7234186","lon":"100.4762319","placename":"Bangkok, Thailand"},"from_stop":{"name":"origin","id":"4611","lat":"1.352083","lon":"103.819836","placename":"Singapore"}}]}}},"processes":[],"eols":[]}],"user":{"name":"kerry_dyke","id":"10742"}}}