{"4186":{"oid":"4186","type":"food","flag":"","creator":"10743","name":"Breakfast in Doha","upc":"","imagelink":"","description":"Typical Western Meal eaten for breakfast in Doha.","slug":"breakfast-in-doha","category":"","weight":"0","emissions":"0","embodied":"0","transport":"0","process":"0","endoflife":"0","shipping":"18940.53","lifetime":null,"usagetype":"","usageenergy":null,"usageemissions":null,"timecreated":"2010-09-30 07:00:08.980337","timemodified":"2010-09-30 11:06:24","visibility":"public","showfootprint":"on","showembodied":"on","showtransport":"on","showprocess":"on","showendoflife":"on","showlastleg":"on","showuse":"on","showstats":"on","stops":{"origin":{"related_to":"4186","part_or_object":"o","notes":"","placename":"Doha, Qatar","id":"1968","category":"1","lat":"25.280282","lon":"51.522476","name":"origin","hops":{"incoming":[{"transport_id":"2","id":"2010","transport_name":"truck, 16 tons","transport_description":"truck, half full","transport_unit":"kg km","transport_co2_eq":"0.020300","from_stop_id":"4270","from_stop_lat":"23.885942","from_stop_lon":"45.079162","to_stop_id":"1968","to_stop_name":"origin","to_stop_lat":"25.280282","placename":"Saudi Arabia","to_stop_lon":"51.522476","to_stop":{"id":"1968","name":"origin","lat":"25.280282","placename":"Doha, Qatar","lon":"51.522476"},"from_stop":{"name":"origin","id":"4270","lat":"23.885942","lon":"45.079162","placename":"Saudi Arabia"}},{"transport_id":"14","id":"2011","transport_name":"air, passenger, intercontinental","transport_description":"intercontinental, kg km from person-km","transport_unit":"kg km","transport_co2_eq":"1.189000","from_stop_id":"4271","from_stop_lat":"54.5259614","from_stop_lon":"15.2551187","to_stop_id":"1968","to_stop_name":"origin","to_stop_lat":"25.280282","placename":"Europe","to_stop_lon":"51.522476","to_stop":{"id":"1968","name":"origin","lat":"25.280282","placename":"Doha, Qatar","lon":"51.522476"},"from_stop":{"name":"origin","id":"4271","lat":"54.5259614","lon":"15.2551187","placename":"Europe"}},{"transport_id":"16","id":"2012","transport_name":"air, freight, intercontinental","transport_description":"intercontinental freight","transport_unit":"kg km","transport_co2_eq":"0.450000","from_stop_id":"4272","from_stop_lat":"15.783471","from_stop_lon":"-90.230759","to_stop_id":"1968","to_stop_name":"origin","to_stop_lat":"25.280282","placename":"Guatemala","to_stop_lon":"51.522476","to_stop":{"id":"1968","name":"origin","lat":"25.280282","placename":"Doha, Qatar","lon":"51.522476"},"from_stop":{"name":"origin","id":"4272","lat":"15.783471","lon":"-90.230759","placename":"Guatemala"}}],"outgoing":[]}}},"parts":[{"oid":"4186","imid":"4377","linkid":"parts\/skim-milk-conventional","weight":"0","rawemissions":"1.8","emissions":"0","shipping":"670.38","processemissions":"0","endoflifeemissions":"0","disposaltype":null,"disposalenergy":null,"disposalimpact":null,"disposalemissions":null,"description":"","name":"Skim Milk, Conventional","id":"4377","stops":{"origin":{"related_to":"4377","part_or_object":"p","notes":"","placename":"Saudi Arabia","id":4270,"name":"origin","lat":"23.885942","lon":"45.079162","hops":{"incoming":[],"outgoing":[{"transport_id":"2","id":"2010","transport_name":"truck, 16 tons","transport_description":"truck, half full","transport_unit":"kg km","transport_co2_eq":"0.020300","from_stop_id":"4270","from_stop_lat":"23.885942","from_stop_lon":"45.079162","from_stop_placename":"Saudi Arabia","to_stop_id":"1968","to_stop_name":"origin","to_stop_lat":"25.280282","to_stop_lon":"51.522476","to_stop_placename":"Doha, Qatar","to_stop":{"id":"1968","name":"origin","lat":"25.280282","lon":"51.522476","placename":"Doha, Qatar"},"from_stop":{"name":"origin","id":"4270","lat":"23.885942","lon":"45.079162","placename":"Saudi Arabia"}}]}}},"processes":[],"eols":[]},{"oid":"4186","imid":"4378","linkid":"","weight":"0","rawemissions":"0","emissions":"0","shipping":"4404.68","processemissions":"0","endoflifeemissions":"0","disposaltype":null,"disposalenergy":null,"disposalimpact":null,"disposalemissions":null,"description":"Nestle version of General Mills product","name":"Cheerios","id":"4378","stops":{"origin":{"related_to":"4378","part_or_object":"p","notes":"","placename":"Europe","id":4271,"name":"origin","lat":"54.5259614","lon":"15.2551187","hops":{"incoming":[],"outgoing":[{"transport_id":"14","id":"2011","transport_name":"air, passenger, intercontinental","transport_description":"intercontinental, kg km from person-km","transport_unit":"kg km","transport_co2_eq":"1.189000","from_stop_id":"4271","from_stop_lat":"54.5259614","from_stop_lon":"15.2551187","from_stop_placename":"Europe","to_stop_id":"1968","to_stop_name":"origin","to_stop_lat":"25.280282","to_stop_lon":"51.522476","to_stop_placename":"Doha, Qatar","to_stop":{"id":"1968","name":"origin","lat":"25.280282","lon":"51.522476","placename":"Doha, Qatar"},"from_stop":{"name":"origin","id":"4271","lat":"54.5259614","lon":"15.2551187","placename":"Europe"}}]}}},"processes":[],"eols":[]},{"oid":"4186","imid":"4379","linkid":"","weight":"0","rawemissions":"0","emissions":"0","shipping":"13865.47","processemissions":"0","endoflifeemissions":"0","disposaltype":null,"disposalenergy":null,"disposalimpact":null,"disposalemissions":null,"description":"","name":"Coffee","id":"4379","stops":{"origin":{"related_to":"4379","part_or_object":"p","notes":"","placename":"Guatemala","id":4272,"name":"origin","lat":"15.783471","lon":"-90.230759","hops":{"incoming":[],"outgoing":[{"transport_id":"16","id":"2012","transport_name":"air, freight, intercontinental","transport_description":"intercontinental freight","transport_unit":"kg km","transport_co2_eq":"0.450000","from_stop_id":"4272","from_stop_lat":"15.783471","from_stop_lon":"-90.230759","from_stop_placename":"Guatemala","to_stop_id":"1968","to_stop_name":"origin","to_stop_lat":"25.280282","to_stop_lon":"51.522476","to_stop_placename":"Doha, Qatar","to_stop":{"id":"1968","name":"origin","lat":"25.280282","lon":"51.522476","placename":"Doha, Qatar"},"from_stop":{"name":"origin","id":"4272","lat":"15.783471","lon":"-90.230759","placename":"Guatemala"}}]}}},"processes":[],"eols":[]}],"user":{"name":"bossmann","id":"10743"}}}