{"419":{"oid":"419","type":"travel","flag":"","creator":"9443","name":"ATGS","upc":"","imagelink":"","description":"","slug":"ATGS","category":"","weight":"19.99946","emissions":"142.469613504","embodied":"0","transport":"142.469613504","process":null,"endoflife":null,"shipping":"98255.89","lifetime":null,"usagetype":"","usageenergy":null,"usageemissions":null,"timecreated":"2011-02-06 14:18:15","timemodified":"2011-02-11 21:35:09","visibility":"public","showfootprint":"on","showembodied":"on","showtransport":"on","showprocess":"on","showendoflife":"on","showlastleg":"on","showuse":"on","showstats":"on","stops":{"origin":{"related_to":"419","part_or_object":"o","notes":null,"placename":"New York, NY, USA","id":"10780","category":"1","lat":"40.7143528","lon":"-74.0059731","name":"origin","hops":{"incoming":[{"transport_id":"21","id":"7618","transport_name":"Air(>1500km)","transport_description":"from the Greenhouse Gas Protocol Initiative - GHG emission from transport or mobile sources calculator 2.0 (jun 2009)","transport_unit":"kg km","transport_co2_eq":"0.001439","from_stop_id":"10781","from_stop_lat":"34.0522342","from_stop_lon":"-118.2436849","to_stop_id":"10780","to_stop_name":"origin","to_stop_lat":"40.7143528","placename":"Los Angeles, CA, USA","to_stop_lon":"-74.0059731","to_stop":{"id":"10780","name":"origin","lat":"40.7143528","placename":"New York, NY, USA","lon":"-74.0059731"},"from_stop":{"name":"origin","id":"10781","lat":"34.0522342","lon":"-118.2436849","placename":"Los Angeles, CA, USA"}},{"transport_id":"19","id":"7619","transport_name":"Rail","transport_description":"from the Greenhouse Gas Protocol Initiative - GHG emission from transport or mobile sources calculator 2.0 (jun 2009)","transport_unit":"kg km","transport_co2_eq":"0.000017","from_stop_id":"10782","from_stop_lat":"40.8090333","from_stop_lon":"-73.9483722","to_stop_id":"10780","to_stop_name":"origin","to_stop_lat":"40.7143528","placename":"Harlem, New York, NY, USA","to_stop_lon":"-74.0059731","to_stop":{"id":"10780","name":"origin","lat":"40.7143528","placename":"New York, NY, USA","lon":"-74.0059731"},"from_stop":{"name":"origin","id":"10782","lat":"40.8090333","lon":"-73.9483722","placename":"Harlem, New York, NY, USA"}},{"transport_id":"21","id":"7620","transport_name":"Air(>1500km)","transport_description":"from the Greenhouse Gas Protocol Initiative - GHG emission from transport or mobile sources calculator 2.0 (jun 2009)","transport_unit":"kg km","transport_co2_eq":"0.001439","from_stop_id":"10783","from_stop_lat":"50.9406645","from_stop_lon":"6.9599115","to_stop_id":"10780","to_stop_name":"origin","to_stop_lat":"40.7143528","placename":"Cologne, Germany","to_stop_lon":"-74.0059731","to_stop":{"id":"10780","name":"origin","lat":"40.7143528","placename":"New York, NY, USA","lon":"-74.0059731"},"from_stop":{"name":"origin","id":"10783","lat":"50.9406645","lon":"6.9599115","placename":"Cologne, Germany"}},{"transport_id":"22","id":"7621","transport_name":"Air(<1500km)","transport_description":"from the Greenhouse Gas Protocol Initiative - GHG emission from transport or mobile sources calculator 2.0 (jun 2009)","transport_unit":"kg km","transport_co2_eq":"0.000665","from_stop_id":"10784","from_stop_lat":"42.3584308","from_stop_lon":"-71.0597732","to_stop_id":"10780","to_stop_name":"origin","to_stop_lat":"40.7143528","placename":"Boston, MA, USA","to_stop_lon":"-74.0059731","to_stop":{"id":"10780","name":"origin","lat":"40.7143528","placename":"New York, NY, USA","lon":"-74.0059731"},"from_stop":{"name":"origin","id":"10784","lat":"42.3584308","lon":"-71.0597732","placename":"Boston, MA, USA"}},{"transport_id":"19","id":"7622","transport_name":"Rail","transport_description":"from the Greenhouse Gas Protocol Initiative - GHG emission from transport or mobile sources calculator 2.0 (jun 2009)","transport_unit":"kg km","transport_co2_eq":"0.000017","from_stop_id":"10785","from_stop_lat":"40.7143528","from_stop_lon":"-74.0059731","to_stop_id":"10780","to_stop_name":"origin","to_stop_lat":"40.7143528","placename":"New York, NY, USA","to_stop_lon":"-74.0059731","to_stop":{"id":"10780","name":"origin","lat":"40.7143528","placename":"New York, NY, USA","lon":"-74.0059731"},"from_stop":{"name":"origin","id":"10785","lat":"40.7143528","lon":"-74.0059731","placename":"New York, NY, USA"}},{"transport_id":"21","id":"7623","transport_name":"Air(>1500km)","transport_description":"from the Greenhouse Gas Protocol Initiative - GHG emission from transport or mobile sources calculator 2.0 (jun 2009)","transport_unit":"kg km","transport_co2_eq":"0.001439","from_stop_id":"10786","from_stop_lat":"33.8886289","from_stop_lon":"35.4954794","to_stop_id":"10780","to_stop_name":"origin","to_stop_lat":"40.7143528","placename":"Beirut, Lebanon","to_stop_lon":"-74.0059731","to_stop":{"id":"10780","name":"origin","lat":"40.7143528","placename":"New York, NY, USA","lon":"-74.0059731"},"from_stop":{"name":"origin","id":"10786","lat":"33.8886289","lon":"35.4954794","placename":"Beirut, Lebanon"}},{"transport_id":"21","id":"7624","transport_name":"Air(>1500km)","transport_description":"from the Greenhouse Gas Protocol Initiative - GHG emission from transport or mobile sources calculator 2.0 (jun 2009)","transport_unit":"kg km","transport_co2_eq":"0.001439","from_stop_id":"10787","from_stop_lat":"52.5234051","from_stop_lon":"13.4113999","to_stop_id":"10780","to_stop_name":"origin","to_stop_lat":"40.7143528","placename":"Berlin, Germany","to_stop_lon":"-74.0059731","to_stop":{"id":"10780","name":"origin","lat":"40.7143528","placename":"New York, NY, USA","lon":"-74.0059731"},"from_stop":{"name":"origin","id":"10787","lat":"52.5234051","lon":"13.4113999","placename":"Berlin, Germany"}},{"transport_id":"21","id":"7625","transport_name":"Air(>1500km)","transport_description":"from the Greenhouse Gas Protocol Initiative - GHG emission from transport or mobile sources calculator 2.0 (jun 2009)","transport_unit":"kg km","transport_co2_eq":"0.001439","from_stop_id":"10788","from_stop_lat":"35.6894875","from_stop_lon":"139.6917064","to_stop_id":"10780","to_stop_name":"origin","to_stop_lat":"40.7143528","placename":"Tokyo, Japan","to_stop_lon":"-74.0059731","to_stop":{"id":"10780","name":"origin","lat":"40.7143528","placename":"New York, NY, USA","lon":"-74.0059731"},"from_stop":{"name":"origin","id":"10788","lat":"35.6894875","lon":"139.6917064","placename":"Tokyo, Japan"}},{"transport_id":"19","id":"7626","transport_name":"Rail","transport_description":"from the Greenhouse Gas Protocol Initiative - GHG emission from transport or mobile sources calculator 2.0 (jun 2009)","transport_unit":"kg km","transport_co2_eq":"0.000017","from_stop_id":"10789","from_stop_lat":"41.8239891","from_stop_lon":"-71.4128343","to_stop_id":"10780","to_stop_name":"origin","to_stop_lat":"40.7143528","placename":"Providence, RI, USA","to_stop_lon":"-74.0059731","to_stop":{"id":"10780","name":"origin","lat":"40.7143528","placename":"New York, NY, USA","lon":"-74.0059731"},"from_stop":{"name":"origin","id":"10789","lat":"41.8239891","lon":"-71.4128343","placename":"Providence, RI, USA"}},{"transport_id":"21","id":"7627","transport_name":"Air(>1500km)","transport_description":"from the Greenhouse Gas Protocol Initiative - GHG emission from transport or mobile sources calculator 2.0 (jun 2009)","transport_unit":"kg km","transport_co2_eq":"0.001439","from_stop_id":"10790","from_stop_lat":"51.5001524","from_stop_lon":"-0.1262362","to_stop_id":"10780","to_stop_name":"origin","to_stop_lat":"40.7143528","placename":"Westminster, London, UK","to_stop_lon":"-74.0059731","to_stop":{"id":"10780","name":"origin","lat":"40.7143528","placename":"New York, NY, USA","lon":"-74.0059731"},"from_stop":{"name":"origin","id":"10790","lat":"51.5001524","lon":"-0.1262362","placename":"Westminster, London, UK"}},{"transport_id":"19","id":"7628","transport_name":"Rail","transport_description":"from the Greenhouse Gas Protocol Initiative - GHG emission from transport or mobile sources calculator 2.0 (jun 2009)","transport_unit":"kg km","transport_co2_eq":"0.000017","from_stop_id":"10791","from_stop_lat":"40.65","from_stop_lon":"-73.95","to_stop_id":"10780","to_stop_name":"origin","to_stop_lat":"40.7143528","placename":"Brooklyn, NY, USA","to_stop_lon":"-74.0059731","to_stop":{"id":"10780","name":"origin","lat":"40.7143528","placename":"New York, NY, USA","lon":"-74.0059731"},"from_stop":{"name":"origin","id":"10791","lat":"40.65","lon":"-73.95","placename":"Brooklyn, NY, USA"}},{"transport_id":"19","id":"7629","transport_name":"Rail","transport_description":"from the Greenhouse Gas Protocol Initiative - GHG emission from transport or mobile sources calculator 2.0 (jun 2009)","transport_unit":"kg km","transport_co2_eq":"0.000017","from_stop_id":"10792","from_stop_lat":"40.65","from_stop_lon":"-73.95","to_stop_id":"10780","to_stop_name":"origin","to_stop_lat":"40.7143528","placename":"Brooklyn, NY, USA","to_stop_lon":"-74.0059731","to_stop":{"id":"10780","name":"origin","lat":"40.7143528","placename":"New York, NY, USA","lon":"-74.0059731"},"from_stop":{"name":"origin","id":"10792","lat":"40.65","lon":"-73.95","placename":"Brooklyn, NY, USA"}},{"transport_id":"21","id":"7630","transport_name":"Air(>1500km)","transport_description":"from the Greenhouse Gas Protocol Initiative - GHG emission from transport or mobile sources calculator 2.0 (jun 2009)","transport_unit":"kg km","transport_co2_eq":"0.001439","from_stop_id":"10793","from_stop_lat":"-33.924788","from_stop_lon":"18.429916","to_stop_id":"10780","to_stop_name":"origin","to_stop_lat":"40.7143528","placename":"Cape Town, South Africa","to_stop_lon":"-74.0059731","to_stop":{"id":"10780","name":"origin","lat":"40.7143528","placename":"New York, NY, USA","lon":"-74.0059731"},"from_stop":{"name":"origin","id":"10793","lat":"-33.924788","lon":"18.429916","placename":"Cape Town, South Africa"}},{"transport_id":"21","id":"7631","transport_name":"Air(>1500km)","transport_description":"from the Greenhouse Gas Protocol Initiative - GHG emission from transport or mobile sources calculator 2.0 (jun 2009)","transport_unit":"kg km","transport_co2_eq":"0.001439","from_stop_id":"10794","from_stop_lat":"-23.5489433","from_stop_lon":"-46.6388182","to_stop_id":"10780","to_stop_name":"origin","to_stop_lat":"40.7143528","placename":"Sao Paulo - S\u00e3o Paulo, Brazil","to_stop_lon":"-74.0059731","to_stop":{"id":"10780","name":"origin","lat":"40.7143528","placename":"New York, NY, USA","lon":"-74.0059731"},"from_stop":{"name":"origin","id":"10794","lat":"-23.5489433","lon":"-46.6388182","placename":"Sao Paulo - S\u00e3o Paulo, Brazil"}},{"transport_id":"21","id":"7632","transport_name":"Air(>1500km)","transport_description":"from the Greenhouse Gas Protocol Initiative - GHG emission from transport or mobile sources calculator 2.0 (jun 2009)","transport_unit":"kg km","transport_co2_eq":"0.001439","from_stop_id":"10795","from_stop_lat":"49.0080848","from_stop_lon":"8.4037563","to_stop_id":"10780","to_stop_name":"origin","to_stop_lat":"40.7143528","placename":"Karlsruhe, Germany","to_stop_lon":"-74.0059731","to_stop":{"id":"10780","name":"origin","lat":"40.7143528","placename":"New York, NY, USA","lon":"-74.0059731"},"from_stop":{"name":"origin","id":"10795","lat":"49.0080848","lon":"8.4037563","placename":"Karlsruhe, Germany"}},{"transport_id":"21","id":"7633","transport_name":"Air(>1500km)","transport_description":"from the Greenhouse Gas Protocol Initiative - GHG emission from transport or mobile sources calculator 2.0 (jun 2009)","transport_unit":"kg km","transport_co2_eq":"0.001439","from_stop_id":"10796","from_stop_lat":"50.8503396","from_stop_lon":"4.3517103","to_stop_id":"10780","to_stop_name":"origin","to_stop_lat":"40.7143528","placename":"Brussels, Belgium","to_stop_lon":"-74.0059731","to_stop":{"id":"10780","name":"origin","lat":"40.7143528","placename":"New York, NY, USA","lon":"-74.0059731"},"from_stop":{"name":"origin","id":"10796","lat":"50.8503396","lon":"4.3517103","placename":"Brussels, Belgium"}},{"transport_id":"21","id":"7634","transport_name":"Air(>1500km)","transport_description":"from the Greenhouse Gas Protocol Initiative - GHG emission from transport or mobile sources calculator 2.0 (jun 2009)","transport_unit":"kg km","transport_co2_eq":"0.001439","from_stop_id":"10797","from_stop_lat":"1.352083","from_stop_lon":"103.819836","to_stop_id":"10780","to_stop_name":"origin","to_stop_lat":"40.7143528","placename":"Singapore","to_stop_lon":"-74.0059731","to_stop":{"id":"10780","name":"origin","lat":"40.7143528","placename":"New York, NY, USA","lon":"-74.0059731"},"from_stop":{"name":"origin","id":"10797","lat":"1.352083","lon":"103.819836","placename":"Singapore"}},{"transport_id":"21","id":"7635","transport_name":"Air(>1500km)","transport_description":"from the Greenhouse Gas Protocol Initiative - GHG emission from transport or mobile sources calculator 2.0 (jun 2009)","transport_unit":"kg km","transport_co2_eq":"0.001439","from_stop_id":"10798","from_stop_lat":"32.7153292","from_stop_lon":"-117.1572551","to_stop_id":"10780","to_stop_name":"origin","to_stop_lat":"40.7143528","placename":"San Diego, CA, USA","to_stop_lon":"-74.0059731","to_stop":{"id":"10780","name":"origin","lat":"40.7143528","placename":"New York, NY, USA","lon":"-74.0059731"},"from_stop":{"name":"origin","id":"10798","lat":"32.7153292","lon":"-117.1572551","placename":"San Diego, CA, USA"}},{"transport_id":"21","id":"7636","transport_name":"Air(>1500km)","transport_description":"from the Greenhouse Gas Protocol Initiative - GHG emission from transport or mobile sources calculator 2.0 (jun 2009)","transport_unit":"kg km","transport_co2_eq":"0.001439","from_stop_id":"10799","from_stop_lat":"37.7749295","from_stop_lon":"-122.4194155","to_stop_id":"10780","to_stop_name":"origin","to_stop_lat":"40.7143528","placename":"San Francisco, CA, USA","to_stop_lon":"-74.0059731","to_stop":{"id":"10780","name":"origin","lat":"40.7143528","placename":"New York, NY, USA","lon":"-74.0059731"},"from_stop":{"name":"origin","id":"10799","lat":"37.7749295","lon":"-122.4194155","placename":"San Francisco, CA, USA"}}],"outgoing":[]}}},"parts":[{"oid":"419","imid":"5828","linkid":"0","weight":"1.00007","rawemissions":"0","emissions":"0","shipping":"6392.26","processemissions":"0","endoflifeemissions":"0","disposaltype":null,"disposalenergy":null,"disposalimpact":null,"disposalemissions":null,"description":"","name":"Cornelia Sollfrank","id":"5828","stops":{"origin":{"related_to":"5828","part_or_object":"p","notes":null,"placename":"Berlin, Germany","id":10787,"name":"origin","lat":"52.5234051","lon":"13.4113999","hops":{"incoming":[],"outgoing":[{"transport_id":"21","id":"7624","transport_name":"Air(>1500km)","transport_description":"from the Greenhouse Gas Protocol Initiative - GHG emission from transport or mobile sources calculator 2.0 (jun 2009)","transport_unit":"kg km","transport_co2_eq":"0.001439","from_stop_id":"10787","from_stop_lat":"52.5234051","from_stop_lon":"13.4113999","from_stop_placename":"Berlin, Germany","to_stop_id":"10780","to_stop_name":"origin","to_stop_lat":"40.7143528","to_stop_lon":"-74.0059731","to_stop_placename":"New York, NY, USA","to_stop":{"id":"10780","name":"origin","lat":"40.7143528","lon":"-74.0059731","placename":"New York, NY, USA"},"from_stop":{"name":"origin","id":"10787","lat":"52.5234051","lon":"13.4113999","placename":"Berlin, Germany"}}]}}},"processes":[],"eols":[]},{"oid":"419","imid":"5829","linkid":"0","weight":"1.9982","rawemissions":"0","emissions":"0","shipping":"3940.14","processemissions":"0","endoflifeemissions":"0","disposaltype":null,"disposalenergy":null,"disposalimpact":null,"disposalemissions":null,"description":"","name":"Eva and Franco Mattes","id":"5829","stops":{"origin":{"related_to":"5829","part_or_object":"p","notes":null,"placename":"Los Angeles, CA, USA","id":10781,"name":"origin","lat":"34.0522342","lon":"-118.2436849","hops":{"incoming":[],"outgoing":[{"transport_id":"21","id":"7618","transport_name":"Air(>1500km)","transport_description":"from the Greenhouse Gas Protocol Initiative - GHG emission from transport or mobile sources calculator 2.0 (jun 2009)","transport_unit":"kg km","transport_co2_eq":"0.001439","from_stop_id":"10781","from_stop_lat":"34.0522342","from_stop_lon":"-118.2436849","from_stop_placename":"Los Angeles, CA, USA","to_stop_id":"10780","to_stop_name":"origin","to_stop_lat":"40.7143528","to_stop_lon":"-74.0059731","to_stop_placename":"New York, NY, USA","to_stop":{"id":"10780","name":"origin","lat":"40.7143528","lon":"-74.0059731","placename":"New York, NY, USA"},"from_stop":{"name":"origin","id":"10781","lat":"34.0522342","lon":"-118.2436849","placename":"Los Angeles, CA, USA"}}]}}},"processes":[],"eols":[]},{"oid":"419","imid":"5830","linkid":"0","weight":"1.00007","rawemissions":"0","emissions":"0","shipping":"11.6","processemissions":"0","endoflifeemissions":"0","disposaltype":null,"disposalenergy":null,"disposalimpact":null,"disposalemissions":null,"description":"","name":"George Lewis","id":"5830","stops":{"origin":{"related_to":"5830","part_or_object":"p","notes":null,"placename":"Harlem, New York, NY, USA","id":10782,"name":"origin","lat":"40.8090333","lon":"-73.9483722","hops":{"incoming":[],"outgoing":[{"transport_id":"19","id":"7619","transport_name":"Rail","transport_description":"from the Greenhouse Gas Protocol Initiative - GHG emission from transport or mobile sources calculator 2.0 (jun 2009)","transport_unit":"kg km","transport_co2_eq":"0.000017","from_stop_id":"10782","from_stop_lat":"40.8090333","from_stop_lon":"-73.9483722","from_stop_placename":"Harlem, New York, NY, USA","to_stop_id":"10780","to_stop_name":"origin","to_stop_lat":"40.7143528","to_stop_lon":"-74.0059731","to_stop_placename":"New York, NY, USA","to_stop":{"id":"10780","name":"origin","lat":"40.7143528","lon":"-74.0059731","placename":"New York, NY, USA"},"from_stop":{"name":"origin","id":"10782","lat":"40.8090333","lon":"-73.9483722","placename":"Harlem, New York, NY, USA"}}]}}},"processes":[],"eols":[]},{"oid":"419","imid":"5831","linkid":"0","weight":"1.00007","rawemissions":"0","emissions":"0","shipping":"6060.71","processemissions":"0","endoflifeemissions":"0","disposaltype":null,"disposalenergy":null,"disposalimpact":null,"disposalemissions":null,"description":"","name":"Julia Scher","id":"5831","stops":{"origin":{"related_to":"5831","part_or_object":"p","notes":null,"placename":"Cologne, Germany","id":10783,"name":"origin","lat":"50.9406645","lon":"6.9599115","hops":{"incoming":[],"outgoing":[{"transport_id":"21","id":"7620","transport_name":"Air(>1500km)","transport_description":"from the Greenhouse Gas Protocol Initiative - GHG emission from transport or mobile sources calculator 2.0 (jun 2009)","transport_unit":"kg km","transport_co2_eq":"0.001439","from_stop_id":"10783","from_stop_lat":"50.9406645","from_stop_lon":"6.9599115","from_stop_placename":"Cologne, Germany","to_stop_id":"10780","to_stop_name":"origin","to_stop_lat":"40.7143528","to_stop_lon":"-74.0059731","to_stop_placename":"New York, NY, USA","to_stop":{"id":"10780","name":"origin","lat":"40.7143528","lon":"-74.0059731","placename":"New York, NY, USA"},"from_stop":{"name":"origin","id":"10783","lat":"50.9406645","lon":"6.9599115","placename":"Cologne, Germany"}}]}}},"processes":[],"eols":[]},{"oid":"419","imid":"5825","linkid":"0","weight":"1.00007","rawemissions":"0","emissions":"0","shipping":"306.18","processemissions":"0","endoflifeemissions":"0","disposaltype":null,"disposalenergy":null,"disposalimpact":null,"disposalemissions":null,"description":"","name":"Christopher Csikszentmihalyi","id":"5825","stops":{"origin":{"related_to":"5825","part_or_object":"p","notes":null,"placename":"Boston, MA, USA","id":10784,"name":"origin","lat":"42.3584308","lon":"-71.0597732","hops":{"incoming":[],"outgoing":[{"transport_id":"22","id":"7621","transport_name":"Air(<1500km)","transport_description":"from the Greenhouse Gas Protocol Initiative - GHG emission from transport or mobile sources calculator 2.0 (jun 2009)","transport_unit":"kg km","transport_co2_eq":"0.000665","from_stop_id":"10784","from_stop_lat":"42.3584308","from_stop_lon":"-71.0597732","from_stop_placename":"Boston, MA, USA","to_stop_id":"10780","to_stop_name":"origin","to_stop_lat":"40.7143528","to_stop_lon":"-74.0059731","to_stop_placename":"New York, NY, USA","to_stop":{"id":"10780","name":"origin","lat":"40.7143528","lon":"-74.0059731","placename":"New York, NY, USA"},"from_stop":{"name":"origin","id":"10784","lat":"42.3584308","lon":"-71.0597732","placename":"Boston, MA, USA"}}]}}},"processes":[],"eols":[]},{"oid":"419","imid":"5826","linkid":"0","weight":"1.00007","rawemissions":"0","emissions":"0","shipping":"0","processemissions":"0","endoflifeemissions":"0","disposaltype":null,"disposalenergy":null,"disposalimpact":null,"disposalemissions":null,"description":"","name":"Mark Tribe","id":"5826","stops":{"origin":{"related_to":"5826","part_or_object":"p","notes":null,"placename":"New York, NY, USA","id":10785,"name":"origin","lat":"40.7143528","lon":"-74.0059731","hops":{"incoming":[],"outgoing":[{"transport_id":"19","id":"7622","transport_name":"Rail","transport_description":"from the Greenhouse Gas Protocol Initiative - GHG emission from transport or mobile sources calculator 2.0 (jun 2009)","transport_unit":"kg km","transport_co2_eq":"0.000017","from_stop_id":"10785","from_stop_lat":"40.7143528","from_stop_lon":"-74.0059731","from_stop_placename":"New York, NY, USA","to_stop_id":"10780","to_stop_name":"origin","to_stop_lat":"40.7143528","to_stop_lon":"-74.0059731","to_stop_placename":"New York, NY, USA","to_stop":{"id":"10780","name":"origin","lat":"40.7143528","lon":"-74.0059731","placename":"New York, NY, USA"},"from_stop":{"name":"origin","id":"10785","lat":"40.7143528","lon":"-74.0059731","placename":"New York, NY, USA"}}]}}},"processes":[],"eols":[]},{"oid":"419","imid":"5827","linkid":"0","weight":"1.00007","rawemissions":"0","emissions":"0","shipping":"9034.83","processemissions":"0","endoflifeemissions":"0","disposaltype":null,"disposalenergy":null,"disposalimpact":null,"disposalemissions":null,"description":"","name":"Ayah Bdeir","id":"5827","stops":{"origin":{"related_to":"5827","part_or_object":"p","notes":null,"placename":"Beirut, Lebanon","id":10786,"name":"origin","lat":"33.8886289","lon":"35.4954794","hops":{"incoming":[],"outgoing":[{"transport_id":"21","id":"7623","transport_name":"Air(>1500km)","transport_description":"from the Greenhouse Gas Protocol Initiative - GHG emission from transport or mobile sources calculator 2.0 (jun 2009)","transport_unit":"kg km","transport_co2_eq":"0.001439","from_stop_id":"10786","from_stop_lat":"33.8886289","from_stop_lon":"35.4954794","from_stop_placename":"Beirut, Lebanon","to_stop_id":"10780","to_stop_name":"origin","to_stop_lat":"40.7143528","to_stop_lon":"-74.0059731","to_stop_placename":"New York, NY, USA","to_stop":{"id":"10780","name":"origin","lat":"40.7143528","lon":"-74.0059731","placename":"New York, NY, USA"},"from_stop":{"name":"origin","id":"10786","lat":"33.8886289","lon":"35.4954794","placename":"Beirut, Lebanon"}}]}}},"processes":[],"eols":[]},{"oid":"419","imid":"5910","linkid":"0","weight":"1.00007","rawemissions":"0","emissions":"0","shipping":"10860.81","processemissions":"0","endoflifeemissions":"0","disposaltype":null,"disposalenergy":null,"disposalimpact":null,"disposalemissions":null,"description":"","name":"Machiko Kusahara","id":"5910","stops":{"origin":{"related_to":"5910","part_or_object":"p","notes":null,"placename":"Tokyo, Japan","id":10788,"name":"origin","lat":"35.6894875","lon":"139.6917064","hops":{"incoming":[],"outgoing":[{"transport_id":"21","id":"7625","transport_name":"Air(>1500km)","transport_description":"from the Greenhouse Gas Protocol Initiative - GHG emission from transport or mobile sources calculator 2.0 (jun 2009)","transport_unit":"kg km","transport_co2_eq":"0.001439","from_stop_id":"10788","from_stop_lat":"35.6894875","from_stop_lon":"139.6917064","from_stop_placename":"Tokyo, Japan","to_stop_id":"10780","to_stop_name":"origin","to_stop_lat":"40.7143528","to_stop_lon":"-74.0059731","to_stop_placename":"New York, NY, USA","to_stop":{"id":"10780","name":"origin","lat":"40.7143528","lon":"-74.0059731","placename":"New York, NY, USA"},"from_stop":{"name":"origin","id":"10788","lat":"35.6894875","lon":"139.6917064","placename":"Tokyo, Japan"}}]}}},"processes":[],"eols":[]},{"oid":"419","imid":"5832","linkid":"0","weight":"1.00007","rawemissions":"0","emissions":"0","shipping":"249.65","processemissions":"0","endoflifeemissions":"0","disposaltype":null,"disposalenergy":null,"disposalimpact":null,"disposalemissions":null,"description":"","name":"Kelly Dobson","id":"5832","stops":{"origin":{"related_to":"5832","part_or_object":"p","notes":null,"placename":"Providence, RI, USA","id":10789,"name":"origin","lat":"41.8239891","lon":"-71.4128343","hops":{"incoming":[],"outgoing":[{"transport_id":"19","id":"7626","transport_name":"Rail","transport_description":"from the Greenhouse Gas Protocol Initiative - GHG emission from transport or mobile sources calculator 2.0 (jun 2009)","transport_unit":"kg km","transport_co2_eq":"0.000017","from_stop_id":"10789","from_stop_lat":"41.8239891","from_stop_lon":"-71.4128343","from_stop_placename":"Providence, RI, USA","to_stop_id":"10780","to_stop_name":"origin","to_stop_lat":"40.7143528","to_stop_lon":"-74.0059731","to_stop_placename":"New York, NY, USA","to_stop":{"id":"10780","name":"origin","lat":"40.7143528","lon":"-74.0059731","placename":"New York, NY, USA"},"from_stop":{"name":"origin","id":"10789","lat":"41.8239891","lon":"-71.4128343","placename":"Providence, RI, USA"}}]}}},"processes":[],"eols":[]},{"oid":"419","imid":"5833","linkid":"0","weight":"1.00007","rawemissions":"0","emissions":"0","shipping":"5576.71","processemissions":"0","endoflifeemissions":"0","disposaltype":null,"disposalenergy":null,"disposalimpact":null,"disposalemissions":null,"description":"","name":"Manu Luksh","id":"5833","stops":{"origin":{"related_to":"5833","part_or_object":"p","notes":null,"placename":"Westminster, London, UK","id":10790,"name":"origin","lat":"51.5001524","lon":"-0.1262362","hops":{"incoming":[],"outgoing":[{"transport_id":"21","id":"7627","transport_name":"Air(>1500km)","transport_description":"from the Greenhouse Gas Protocol Initiative - GHG emission from transport or mobile sources calculator 2.0 (jun 2009)","transport_unit":"kg km","transport_co2_eq":"0.001439","from_stop_id":"10790","from_stop_lat":"51.5001524","from_stop_lon":"-0.1262362","from_stop_placename":"Westminster, London, UK","to_stop_id":"10780","to_stop_name":"origin","to_stop_lat":"40.7143528","to_stop_lon":"-74.0059731","to_stop_placename":"New York, NY, USA","to_stop":{"id":"10780","name":"origin","lat":"40.7143528","lon":"-74.0059731","placename":"New York, NY, USA"},"from_stop":{"name":"origin","id":"10790","lat":"51.5001524","lon":"-0.1262362","placename":"Westminster, London, UK"}}]}}},"processes":[],"eols":[]},{"oid":"419","imid":"5834","linkid":"0","weight":"1.00007","rawemissions":"0","emissions":"0","shipping":"8.58","processemissions":"0","endoflifeemissions":"0","disposaltype":null,"disposalenergy":null,"disposalimpact":null,"disposalemissions":null,"description":"","name":"Mary Flanagan","id":"5834","stops":{"origin":{"related_to":"5834","part_or_object":"p","notes":null,"placename":"Brooklyn, NY, USA","id":10791,"name":"origin","lat":"40.65","lon":"-73.95","hops":{"incoming":[],"outgoing":[{"transport_id":"19","id":"7628","transport_name":"Rail","transport_description":"from the Greenhouse Gas Protocol Initiative - GHG emission from transport or mobile sources calculator 2.0 (jun 2009)","transport_unit":"kg km","transport_co2_eq":"0.000017","from_stop_id":"10791","from_stop_lat":"40.65","from_stop_lon":"-73.95","from_stop_placename":"Brooklyn, NY, USA","to_stop_id":"10780","to_stop_name":"origin","to_stop_lat":"40.7143528","to_stop_lon":"-74.0059731","to_stop_placename":"New York, NY, USA","to_stop":{"id":"10780","name":"origin","lat":"40.7143528","lon":"-74.0059731","placename":"New York, NY, USA"},"from_stop":{"name":"origin","id":"10791","lat":"40.65","lon":"-73.95","placename":"Brooklyn, NY, USA"}}]}}},"processes":[],"eols":[]},{"oid":"419","imid":"5835","linkid":"0","weight":"1.00007","rawemissions":"0","emissions":"0","shipping":"8.58","processemissions":"0","endoflifeemissions":"0","disposaltype":null,"disposalenergy":null,"disposalimpact":null,"disposalemissions":null,"description":"","name":"Natalie Jeremijenko","id":"5835","stops":{"origin":{"related_to":"5835","part_or_object":"p","notes":null,"placename":"Brooklyn, NY, USA","id":10792,"name":"origin","lat":"40.65","lon":"-73.95","hops":{"incoming":[],"outgoing":[{"transport_id":"19","id":"7629","transport_name":"Rail","transport_description":"from the Greenhouse Gas Protocol Initiative - GHG emission from transport or mobile sources calculator 2.0 (jun 2009)","transport_unit":"kg km","transport_co2_eq":"0.000017","from_stop_id":"10792","from_stop_lat":"40.65","from_stop_lon":"-73.95","from_stop_placename":"Brooklyn, NY, USA","to_stop_id":"10780","to_stop_name":"origin","to_stop_lat":"40.7143528","to_stop_lon":"-74.0059731","to_stop_placename":"New York, NY, USA","to_stop":{"id":"10780","name":"origin","lat":"40.7143528","lon":"-74.0059731","placename":"New York, NY, USA"},"from_stop":{"name":"origin","id":"10792","lat":"40.65","lon":"-73.95","placename":"Brooklyn, NY, USA"}}]}}},"processes":[],"eols":[]},{"oid":"419","imid":"5836","linkid":"0","weight":"1.00007","rawemissions":"0","emissions":"0","shipping":"12579.41","processemissions":"0","endoflifeemissions":"0","disposaltype":null,"disposalenergy":null,"disposalimpact":null,"disposalemissions":null,"description":"","name":"Ntone Edjabe","id":"5836","stops":{"origin":{"related_to":"5836","part_or_object":"p","notes":null,"placename":"Cape Town, South Africa","id":10793,"name":"origin","lat":"-33.924788","lon":"18.429916","hops":{"incoming":[],"outgoing":[{"transport_id":"21","id":"7630","transport_name":"Air(>1500km)","transport_description":"from the Greenhouse Gas Protocol Initiative - GHG emission from transport or mobile sources calculator 2.0 (jun 2009)","transport_unit":"kg km","transport_co2_eq":"0.001439","from_stop_id":"10793","from_stop_lat":"-33.924788","from_stop_lon":"18.429916","from_stop_placename":"Cape Town, South Africa","to_stop_id":"10780","to_stop_name":"origin","to_stop_lat":"40.7143528","to_stop_lon":"-74.0059731","to_stop_placename":"New York, NY, USA","to_stop":{"id":"10780","name":"origin","lat":"40.7143528","lon":"-74.0059731","placename":"New York, NY, USA"},"from_stop":{"name":"origin","id":"10793","lat":"-33.924788","lon":"18.429916","placename":"Cape Town, South Africa"}}]}}},"processes":[],"eols":[]},{"oid":"419","imid":"5837","linkid":"0","weight":"1.00007","rawemissions":"0","emissions":"0","shipping":"7694.02","processemissions":"0","endoflifeemissions":"0","disposaltype":null,"disposalenergy":null,"disposalimpact":null,"disposalemissions":null,"description":"","name":"Paula Perissinotto","id":"5837","stops":{"origin":{"related_to":"5837","part_or_object":"p","notes":null,"placename":"Sao Paulo - S\u00e3o Paulo, Brazil","id":10794,"name":"origin","lat":"-23.5489433","lon":"-46.6388182","hops":{"incoming":[],"outgoing":[{"transport_id":"21","id":"7631","transport_name":"Air(>1500km)","transport_description":"from the Greenhouse Gas Protocol Initiative - GHG emission from transport or mobile sources calculator 2.0 (jun 2009)","transport_unit":"kg km","transport_co2_eq":"0.001439","from_stop_id":"10794","from_stop_lat":"-23.5489433","from_stop_lon":"-46.6388182","from_stop_placename":"Sao Paulo - S\u00e3o Paulo, Brazil","to_stop_id":"10780","to_stop_name":"origin","to_stop_lat":"40.7143528","to_stop_lon":"-74.0059731","to_stop_placename":"New York, NY, USA","to_stop":{"id":"10780","name":"origin","lat":"40.7143528","lon":"-74.0059731","placename":"New York, NY, USA"},"from_stop":{"name":"origin","id":"10794","lat":"-23.5489433","lon":"-46.6388182","placename":"Sao Paulo - S\u00e3o Paulo, Brazil"}}]}}},"processes":[],"eols":[]},{"oid":"419","imid":"5838","linkid":"0","weight":"1.00007","rawemissions":"0","emissions":"0","shipping":"6242.9","processemissions":"0","endoflifeemissions":"0","disposaltype":null,"disposalenergy":null,"disposalimpact":null,"disposalemissions":null,"description":"","name":"Peter Weibel","id":"5838","stops":{"origin":{"related_to":"5838","part_or_object":"p","notes":null,"placename":"Karlsruhe, Germany","id":10795,"name":"origin","lat":"49.0080848","lon":"8.4037563","hops":{"incoming":[],"outgoing":[{"transport_id":"21","id":"7632","transport_name":"Air(>1500km)","transport_description":"from the Greenhouse Gas Protocol Initiative - GHG emission from transport or mobile sources calculator 2.0 (jun 2009)","transport_unit":"kg km","transport_co2_eq":"0.001439","from_stop_id":"10795","from_stop_lat":"49.0080848","from_stop_lon":"8.4037563","from_stop_placename":"Karlsruhe, Germany","to_stop_id":"10780","to_stop_name":"origin","to_stop_lat":"40.7143528","to_stop_lon":"-74.0059731","to_stop_placename":"New York, NY, USA","to_stop":{"id":"10780","name":"origin","lat":"40.7143528","lon":"-74.0059731","placename":"New York, NY, USA"},"from_stop":{"name":"origin","id":"10795","lat":"49.0080848","lon":"8.4037563","placename":"Karlsruhe, Germany"}}]}}},"processes":[],"eols":[]},{"oid":"419","imid":"5840","linkid":"0","weight":"1.00007","rawemissions":"0","emissions":"0","shipping":"5895.1","processemissions":"0","endoflifeemissions":"0","disposaltype":null,"disposalenergy":null,"disposalimpact":null,"disposalemissions":null,"description":"","name":"Regine Debatty","id":"5840","stops":{"origin":{"related_to":"5840","part_or_object":"p","notes":null,"placename":"Brussels, Belgium","id":10796,"name":"origin","lat":"50.8503396","lon":"4.3517103","hops":{"incoming":[],"outgoing":[{"transport_id":"21","id":"7633","transport_name":"Air(>1500km)","transport_description":"from the Greenhouse Gas Protocol Initiative - GHG emission from transport or mobile sources calculator 2.0 (jun 2009)","transport_unit":"kg km","transport_co2_eq":"0.001439","from_stop_id":"10796","from_stop_lat":"50.8503396","from_stop_lon":"4.3517103","from_stop_placename":"Brussels, Belgium","to_stop_id":"10780","to_stop_name":"origin","to_stop_lat":"40.7143528","to_stop_lon":"-74.0059731","to_stop_placename":"New York, NY, USA","to_stop":{"id":"10780","name":"origin","lat":"40.7143528","lon":"-74.0059731","placename":"New York, NY, USA"},"from_stop":{"name":"origin","id":"10796","lat":"50.8503396","lon":"4.3517103","placename":"Brussels, Belgium"}}]}}},"processes":[],"eols":[]},{"oid":"419","imid":"5841","linkid":"0","weight":"1.00007","rawemissions":"0","emissions":"0","shipping":"15349.5","processemissions":"0","endoflifeemissions":"0","disposaltype":null,"disposalenergy":null,"disposalimpact":null,"disposalemissions":null,"description":"","name":"Sara Diamond","id":"5841","stops":{"origin":{"related_to":"5841","part_or_object":"p","notes":null,"placename":"Singapore","id":10797,"name":"origin","lat":"1.352083","lon":"103.819836","hops":{"incoming":[],"outgoing":[{"transport_id":"21","id":"7634","transport_name":"Air(>1500km)","transport_description":"from the Greenhouse Gas Protocol Initiative - GHG emission from transport or mobile sources calculator 2.0 (jun 2009)","transport_unit":"kg km","transport_co2_eq":"0.001439","from_stop_id":"10797","from_stop_lat":"1.352083","from_stop_lon":"103.819836","from_stop_placename":"Singapore","to_stop_id":"10780","to_stop_name":"origin","to_stop_lat":"40.7143528","to_stop_lon":"-74.0059731","to_stop_placename":"New York, NY, USA","to_stop":{"id":"10780","name":"origin","lat":"40.7143528","lon":"-74.0059731","placename":"New York, NY, USA"},"from_stop":{"name":"origin","id":"10797","lat":"1.352083","lon":"103.819836","placename":"Singapore"}}]}}},"processes":[],"eols":[]},{"oid":"419","imid":"5842","linkid":"0","weight":"1.00007","rawemissions":"0","emissions":"0","shipping":"3911.23","processemissions":"0","endoflifeemissions":"0","disposaltype":null,"disposalenergy":null,"disposalimpact":null,"disposalemissions":null,"description":"","name":"the Ghost of Alan Kaprow","id":"5842","stops":{"origin":{"related_to":"5842","part_or_object":"p","notes":null,"placename":"San Diego, CA, USA","id":10798,"name":"origin","lat":"32.7153292","lon":"-117.1572551","hops":{"incoming":[],"outgoing":[{"transport_id":"21","id":"7635","transport_name":"Air(>1500km)","transport_description":"from the Greenhouse Gas Protocol Initiative - GHG emission from transport or mobile sources calculator 2.0 (jun 2009)","transport_unit":"kg km","transport_co2_eq":"0.001439","from_stop_id":"10798","from_stop_lat":"32.7153292","from_stop_lon":"-117.1572551","from_stop_placename":"San Diego, CA, USA","to_stop_id":"10780","to_stop_name":"origin","to_stop_lat":"40.7143528","to_stop_lon":"-74.0059731","to_stop_placename":"New York, NY, USA","to_stop":{"id":"10780","name":"origin","lat":"40.7143528","lon":"-74.0059731","placename":"New York, NY, USA"},"from_stop":{"name":"origin","id":"10798","lat":"32.7153292","lon":"-117.1572551","placename":"San Diego, CA, USA"}}]}}},"processes":[],"eols":[]},{"oid":"419","imid":"5843","linkid":"0","weight":"1.00007","rawemissions":"0","emissions":"0","shipping":"4133.68","processemissions":"0","endoflifeemissions":"0","disposaltype":null,"disposalenergy":null,"disposalimpact":null,"disposalemissions":null,"description":"","name":"Trevor Paglin","id":"5843","stops":{"origin":{"related_to":"5843","part_or_object":"p","notes":null,"placename":"San Francisco, CA, USA","id":10799,"name":"origin","lat":"37.7749295","lon":"-122.4194155","hops":{"incoming":[],"outgoing":[{"transport_id":"21","id":"7636","transport_name":"Air(>1500km)","transport_description":"from the Greenhouse Gas Protocol Initiative - GHG emission from transport or mobile sources calculator 2.0 (jun 2009)","transport_unit":"kg km","transport_co2_eq":"0.001439","from_stop_id":"10799","from_stop_lat":"37.7749295","from_stop_lon":"-122.4194155","from_stop_placename":"San Francisco, CA, USA","to_stop_id":"10780","to_stop_name":"origin","to_stop_lat":"40.7143528","to_stop_lon":"-74.0059731","to_stop_placename":"New York, NY, USA","to_stop":{"id":"10780","name":"origin","lat":"40.7143528","lon":"-74.0059731","placename":"New York, NY, USA"},"from_stop":{"name":"origin","id":"10799","lat":"37.7749295","lon":"-122.4194155","placename":"San Francisco, CA, USA"}}]}}},"processes":[],"eols":[]}],"user":{"name":"csik","id":"9443"}}}