{"4222":{"oid":"4222","type":"object","flag":"","creator":"10819","name":"Softball","upc":"","imagelink":"","description":"","slug":"softball","category":"","weight":"0","emissions":"0","embodied":"0","transport":"0","process":"0","endoflife":"0","shipping":"63349.36","lifetime":null,"usagetype":"","usageenergy":null,"usageemissions":null,"timecreated":"2010-10-09 14:39:41.04022","timemodified":"2011-01-05 12:19:45","visibility":"public","showfootprint":"","showembodied":"","showtransport":"","showprocess":"","showendoflife":"","showlastleg":"on","showuse":"","showstats":"on","stops":{"origin":{"related_to":"4222","part_or_object":"o","notes":null,"placename":"Praha, \u00c4\u008cesk\u00c3\u00a1 republika","id":"9352","category":"1","lat":"50.0878114","lon":"14.4204598","name":"origin","hops":{"incoming":[{"transport_id":"17","id":"6579","transport_name":"None Selected","transport_description":null,"transport_unit":"kg km","transport_co2_eq":"0.000000","from_stop_id":"9353","from_stop_lat":"14.058324","from_stop_lon":"108.277199","to_stop_id":"9352","to_stop_name":"origin","to_stop_lat":"50.0878114","placename":"Vietnam","to_stop_lon":"14.4204598","to_stop":{"id":"9352","name":"origin","lat":"50.0878114","placename":"Praha, \u00c4\u008cesk\u00c3\u00a1 republika","lon":"14.4204598"},"from_stop":{"name":"origin","id":"9353","lat":"14.058324","lon":"108.277199","placename":"Vietnam"}},{"transport_id":"17","id":"6580","transport_name":"None Selected","transport_description":null,"transport_unit":"kg km","transport_co2_eq":"0.000000","from_stop_id":"9354","from_stop_lat":"49.9873205771","from_stop_lon":"14.4841924688","to_stop_id":"9352","to_stop_name":"origin","to_stop_lat":"50.0878114","placename":"\u00c4\u008cesk\u00c3\u00a1 republika","to_stop_lon":"14.4204598","to_stop":{"id":"9352","name":"origin","lat":"50.0878114","placename":"Praha, \u00c4\u008cesk\u00c3\u00a1 republika","lon":"14.4204598"},"from_stop":{"name":"origin","id":"9354","lat":"49.9873205771","lon":"14.4841924688","placename":"\u00c4\u008cesk\u00c3\u00a1 republika"}},{"transport_id":"17","id":"6581","transport_name":"None Selected","transport_description":null,"transport_unit":"kg km","transport_co2_eq":"0.000000","from_stop_id":"9355","from_stop_lat":"15.783471","from_stop_lon":"-90.230759","to_stop_id":"9352","to_stop_name":"origin","to_stop_lat":"50.0878114","placename":"Guatemala","to_stop_lon":"14.4204598","to_stop":{"id":"9352","name":"origin","lat":"50.0878114","placename":"Praha, \u00c4\u008cesk\u00c3\u00a1 republika","lon":"14.4204598"},"from_stop":{"name":"origin","id":"9355","lat":"15.783471","lon":"-90.230759","placename":"Guatemala"}},{"transport_id":"17","id":"6582","transport_name":"None Selected","transport_description":null,"transport_unit":"kg km","transport_co2_eq":"0.000000","from_stop_id":"9356","from_stop_lat":"12.879721","from_stop_lon":"121.774017","to_stop_id":"9352","to_stop_name":"origin","to_stop_lat":"50.0878114","placename":"Filip\u00c3\u00adny","to_stop_lon":"14.4204598","to_stop":{"id":"9352","name":"origin","lat":"50.0878114","placename":"Praha, \u00c4\u008cesk\u00c3\u00a1 republika","lon":"14.4204598"},"from_stop":{"name":"origin","id":"9356","lat":"12.879721","lon":"121.774017","placename":"Filip\u00c3\u00adny"}},{"transport_id":"17","id":"6583","transport_name":"None Selected","transport_description":null,"transport_unit":"kg km","transport_co2_eq":"0.000000","from_stop_id":"9357","from_stop_lat":"30.375321","from_stop_lon":"69.345116","to_stop_id":"9352","to_stop_name":"origin","to_stop_lat":"50.0878114","placename":"P\u00c3\u00a1kist\u00c3\u00a1n","to_stop_lon":"14.4204598","to_stop":{"id":"9352","name":"origin","lat":"50.0878114","placename":"Praha, \u00c4\u008cesk\u00c3\u00a1 republika","lon":"14.4204598"},"from_stop":{"name":"origin","id":"9357","lat":"30.375321","lon":"69.345116","placename":"P\u00c3\u00a1kist\u00c3\u00a1n"}},{"transport_id":"17","id":"6584","transport_name":"None Selected","transport_description":null,"transport_unit":"kg km","transport_co2_eq":"0.000000","from_stop_id":"9358","from_stop_lat":"35.86166","from_stop_lon":"104.195397","to_stop_id":"9352","to_stop_name":"origin","to_stop_lat":"50.0878114","placename":"\u00c4\u008c\u00c3\u00adna","to_stop_lon":"14.4204598","to_stop":{"id":"9352","name":"origin","lat":"50.0878114","placename":"Praha, \u00c4\u008cesk\u00c3\u00a1 republika","lon":"14.4204598"},"from_stop":{"name":"origin","id":"9358","lat":"35.86166","lon":"104.195397","placename":"\u00c4\u008c\u00c3\u00adna"}},{"transport_id":"17","id":"6585","transport_name":"None Selected","transport_description":null,"transport_unit":"kg km","transport_co2_eq":"0.000000","from_stop_id":"9359","from_stop_lat":"37.4131302481","from_stop_lon":"110.8750845","to_stop_id":"9352","to_stop_name":"origin","to_stop_lat":"50.0878114","placename":"\u00c4\u008c\u00c3\u00adna","to_stop_lon":"14.4204598","to_stop":{"id":"9352","name":"origin","lat":"50.0878114","placename":"Praha, \u00c4\u008cesk\u00c3\u00a1 republika","lon":"14.4204598"},"from_stop":{"name":"origin","id":"9359","lat":"37.4131302481","lon":"110.8750845","placename":"\u00c4\u008c\u00c3\u00adna"}},{"transport_id":"17","id":"6586","transport_name":"None Selected","transport_description":null,"transport_unit":"kg km","transport_co2_eq":"0.000000","from_stop_id":"9360","from_stop_lat":"9.748917","from_stop_lon":"-83.753428","to_stop_id":"9352","to_stop_name":"origin","to_stop_lat":"50.0878114","placename":"Kostarika","to_stop_lon":"14.4204598","to_stop":{"id":"9352","name":"origin","lat":"50.0878114","placename":"Praha, \u00c4\u008cesk\u00c3\u00a1 republika","lon":"14.4204598"},"from_stop":{"name":"origin","id":"9360","lat":"9.748917","lon":"-83.753428","placename":"Kostarika"}},{"transport_id":null,"id":"6587","transport_name":null,"transport_description":null,"transport_unit":null,"transport_co2_eq":null,"from_stop_id":"9361","from_stop_lat":"30.1451271823","from_stop_lon":"108.984374996","to_stop_id":"9352","to_stop_name":"origin","to_stop_lat":"50.0878114","placename":"china","to_stop_lon":"14.4204598","to_stop":{"id":"9352","name":"origin","lat":"50.0878114","placename":"Praha, \u00c4\u008cesk\u00c3\u00a1 republika","lon":"14.4204598"},"from_stop":{"name":"origin","id":"9361","lat":"30.1451271823","lon":"108.984374996","placename":"china"}}],"outgoing":[]}}},"parts":[{"oid":"4222","imid":"4410","linkid":"","weight":"0","rawemissions":"0","emissions":"0","shipping":"9094.17","processemissions":"0","endoflifeemissions":"0","disposaltype":null,"disposalenergy":null,"disposalimpact":null,"disposalemissions":null,"description":"","name":"Spikes (boty) - NIKE","id":"4410","stops":{"origin":{"related_to":"4410","part_or_object":"p","notes":null,"placename":"Vietnam","id":9353,"name":"origin","lat":"14.058324","lon":"108.277199","hops":{"incoming":[],"outgoing":[{"transport_id":"17","id":"6579","transport_name":"None Selected","transport_description":null,"transport_unit":"kg km","transport_co2_eq":"0.000000","from_stop_id":"9353","from_stop_lat":"14.058324","from_stop_lon":"108.277199","from_stop_placename":"Vietnam","to_stop_id":"9352","to_stop_name":"origin","to_stop_lat":"50.0878114","to_stop_lon":"14.4204598","to_stop_placename":"Praha, \u00c4\u008cesk\u00c3\u00a1 republika","to_stop":{"id":"9352","name":"origin","lat":"50.0878114","lon":"14.4204598","placename":"Praha, \u00c4\u008cesk\u00c3\u00a1 republika"},"from_stop":{"name":"origin","id":"9353","lat":"14.058324","lon":"108.277199","placename":"Vietnam"}}]}}},"processes":[],"eols":[]},{"oid":"4222","imid":"4411","linkid":"","weight":"0","rawemissions":"0","emissions":"0","shipping":"12.08","processemissions":"0","endoflifeemissions":"0","disposaltype":null,"disposalenergy":null,"disposalimpact":null,"disposalemissions":null,"description":"","name":"Dres - REES","id":"4411","stops":{"origin":{"related_to":"4411","part_or_object":"p","notes":null,"placename":"\u00c4\u008cesk\u00c3\u00a1 republika","id":9354,"name":"origin","lat":"49.9873205771","lon":"14.4841924688","hops":{"incoming":[],"outgoing":[{"transport_id":"17","id":"6580","transport_name":"None Selected","transport_description":null,"transport_unit":"kg km","transport_co2_eq":"0.000000","from_stop_id":"9354","from_stop_lat":"49.9873205771","from_stop_lon":"14.4841924688","from_stop_placename":"\u00c4\u008cesk\u00c3\u00a1 republika","to_stop_id":"9352","to_stop_name":"origin","to_stop_lat":"50.0878114","to_stop_lon":"14.4204598","to_stop_placename":"Praha, \u00c4\u008cesk\u00c3\u00a1 republika","to_stop":{"id":"9352","name":"origin","lat":"50.0878114","lon":"14.4204598","placename":"Praha, \u00c4\u008cesk\u00c3\u00a1 republika"},"from_stop":{"name":"origin","id":"9354","lat":"49.9873205771","lon":"14.4841924688","placename":"\u00c4\u008cesk\u00c3\u00a1 republika"}}]}}},"processes":[],"eols":[]},{"oid":"4222","imid":"4412","linkid":"","weight":"0","rawemissions":"0","emissions":"0","shipping":"9683.96","processemissions":"0","endoflifeemissions":"0","disposaltype":null,"disposalenergy":null,"disposalimpact":null,"disposalemissions":null,"description":"","name":"Slajdovaci kalhoty - MAJESTIC","id":"4412","stops":{"origin":{"related_to":"4412","part_or_object":"p","notes":null,"placename":"Guatemala","id":9355,"name":"origin","lat":"15.783471","lon":"-90.230759","hops":{"incoming":[],"outgoing":[{"transport_id":"17","id":"6581","transport_name":"None Selected","transport_description":null,"transport_unit":"kg km","transport_co2_eq":"0.000000","from_stop_id":"9355","from_stop_lat":"15.783471","from_stop_lon":"-90.230759","from_stop_placename":"Guatemala","to_stop_id":"9352","to_stop_name":"origin","to_stop_lat":"50.0878114","to_stop_lon":"14.4204598","to_stop_placename":"Praha, \u00c4\u008cesk\u00c3\u00a1 republika","to_stop":{"id":"9352","name":"origin","lat":"50.0878114","lon":"14.4204598","placename":"Praha, \u00c4\u008cesk\u00c3\u00a1 republika"},"from_stop":{"name":"origin","id":"9355","lat":"15.783471","lon":"-90.230759","placename":"Guatemala"}}]}}},"processes":[],"eols":[]},{"oid":"4222","imid":"4413","linkid":"","weight":"0","rawemissions":"0","emissions":"0","shipping":"10118.15","processemissions":"0","endoflifeemissions":"0","disposaltype":null,"disposalenergy":null,"disposalimpact":null,"disposalemissions":null,"description":"","name":"Rukavice - LOUISVILLE SLUGGER ","id":"4413","stops":{"origin":{"related_to":"4413","part_or_object":"p","notes":null,"placename":"Filip\u00c3\u00adny","id":9356,"name":"origin","lat":"12.879721","lon":"121.774017","hops":{"incoming":[],"outgoing":[{"transport_id":"17","id":"6582","transport_name":"None Selected","transport_description":null,"transport_unit":"kg km","transport_co2_eq":"0.000000","from_stop_id":"9356","from_stop_lat":"12.879721","from_stop_lon":"121.774017","from_stop_placename":"Filip\u00c3\u00adny","to_stop_id":"9352","to_stop_name":"origin","to_stop_lat":"50.0878114","to_stop_lon":"14.4204598","to_stop_placename":"Praha, \u00c4\u008cesk\u00c3\u00a1 republika","to_stop":{"id":"9352","name":"origin","lat":"50.0878114","lon":"14.4204598","placename":"Praha, \u00c4\u008cesk\u00c3\u00a1 republika"},"from_stop":{"name":"origin","id":"9356","lat":"12.879721","lon":"121.774017","placename":"Filip\u00c3\u00adny"}}]}}},"processes":[],"eols":[]},{"oid":"4222","imid":"4414","linkid":"","weight":"0","rawemissions":"0","emissions":"0","shipping":"5019.8","processemissions":"0","endoflifeemissions":"0","disposaltype":null,"disposalenergy":null,"disposalimpact":null,"disposalemissions":null,"description":"","name":"Palkarske rukavice - RAWLINGS","id":"4414","stops":{"origin":{"related_to":"4414","part_or_object":"p","notes":null,"placename":"P\u00c3\u00a1kist\u00c3\u00a1n","id":9357,"name":"origin","lat":"30.375321","lon":"69.345116","hops":{"incoming":[],"outgoing":[{"transport_id":"17","id":"6583","transport_name":"None Selected","transport_description":null,"transport_unit":"kg km","transport_co2_eq":"0.000000","from_stop_id":"9357","from_stop_lat":"30.375321","from_stop_lon":"69.345116","from_stop_placename":"P\u00c3\u00a1kist\u00c3\u00a1n","to_stop_id":"9352","to_stop_name":"origin","to_stop_lat":"50.0878114","to_stop_lon":"14.4204598","to_stop_placename":"Praha, \u00c4\u008cesk\u00c3\u00a1 republika","to_stop":{"id":"9352","name":"origin","lat":"50.0878114","lon":"14.4204598","placename":"Praha, \u00c4\u008cesk\u00c3\u00a1 republika"},"from_stop":{"name":"origin","id":"9357","lat":"30.375321","lon":"69.345116","placename":"P\u00c3\u00a1kist\u00c3\u00a1n"}}]}}},"processes":[],"eols":[]},{"oid":"4222","imid":"4416","linkid":"","weight":"0","rawemissions":"0","emissions":"0","shipping":"7031.72","processemissions":"0","endoflifeemissions":"0","disposaltype":null,"disposalenergy":null,"disposalimpact":null,"disposalemissions":null,"description":"","name":"Nakoleniky - NIKE","id":"4416","stops":{"origin":{"related_to":"4416","part_or_object":"p","notes":null,"placename":"\u00c4\u008c\u00c3\u00adna","id":9358,"name":"origin","lat":"35.86166","lon":"104.195397","hops":{"incoming":[],"outgoing":[{"transport_id":"17","id":"6584","transport_name":"None Selected","transport_description":null,"transport_unit":"kg km","transport_co2_eq":"0.000000","from_stop_id":"9358","from_stop_lat":"35.86166","from_stop_lon":"104.195397","from_stop_placename":"\u00c4\u008c\u00c3\u00adna","to_stop_id":"9352","to_stop_name":"origin","to_stop_lat":"50.0878114","to_stop_lon":"14.4204598","to_stop_placename":"Praha, \u00c4\u008cesk\u00c3\u00a1 republika","to_stop":{"id":"9352","name":"origin","lat":"50.0878114","lon":"14.4204598","placename":"Praha, \u00c4\u008cesk\u00c3\u00a1 republika"},"from_stop":{"name":"origin","id":"9358","lat":"35.86166","lon":"104.195397","placename":"\u00c4\u008c\u00c3\u00adna"}}]}}},"processes":[],"eols":[]},{"oid":"4222","imid":"4417","linkid":"","weight":"0","rawemissions":"0","emissions":"0","shipping":"7333.2","processemissions":"0","endoflifeemissions":"0","disposaltype":null,"disposalenergy":null,"disposalimpact":null,"disposalemissions":null,"description":"","name":"Palka - LOUISVILLE SLUGGER ","id":"4417","stops":{"origin":{"related_to":"4417","part_or_object":"p","notes":null,"placename":"\u00c4\u008c\u00c3\u00adna","id":9359,"name":"origin","lat":"37.4131302481","lon":"110.8750845","hops":{"incoming":[],"outgoing":[{"transport_id":"17","id":"6585","transport_name":"None Selected","transport_description":null,"transport_unit":"kg km","transport_co2_eq":"0.000000","from_stop_id":"9359","from_stop_lat":"37.4131302481","from_stop_lon":"110.8750845","from_stop_placename":"\u00c4\u008c\u00c3\u00adna","to_stop_id":"9352","to_stop_name":"origin","to_stop_lat":"50.0878114","to_stop_lon":"14.4204598","to_stop_placename":"Praha, \u00c4\u008cesk\u00c3\u00a1 republika","to_stop":{"id":"9352","name":"origin","lat":"50.0878114","lon":"14.4204598","placename":"Praha, \u00c4\u008cesk\u00c3\u00a1 republika"},"from_stop":{"name":"origin","id":"9359","lat":"37.4131302481","lon":"110.8750845","placename":"\u00c4\u008c\u00c3\u00adna"}}]}}},"processes":[],"eols":[]},{"oid":"4222","imid":"4418","linkid":"","weight":"0","rawemissions":"0","emissions":"0","shipping":"9763.71","processemissions":"0","endoflifeemissions":"0","disposaltype":null,"disposalenergy":null,"disposalimpact":null,"disposalemissions":null,"description":"","name":"Mic - DIAMOND","id":"4418","stops":{"origin":{"related_to":"4418","part_or_object":"p","notes":null,"placename":"Kostarika","id":9360,"name":"origin","lat":"9.748917","lon":"-83.753428","hops":{"incoming":[],"outgoing":[{"transport_id":"17","id":"6586","transport_name":"None Selected","transport_description":null,"transport_unit":"kg km","transport_co2_eq":"0.000000","from_stop_id":"9360","from_stop_lat":"9.748917","from_stop_lon":"-83.753428","from_stop_placename":"Kostarika","to_stop_id":"9352","to_stop_name":"origin","to_stop_lat":"50.0878114","to_stop_lon":"14.4204598","to_stop_placename":"Praha, \u00c4\u008cesk\u00c3\u00a1 republika","to_stop":{"id":"9352","name":"origin","lat":"50.0878114","lon":"14.4204598","placename":"Praha, \u00c4\u008cesk\u00c3\u00a1 republika"},"from_stop":{"name":"origin","id":"9360","lat":"9.748917","lon":"-83.753428","placename":"Kostarika"}}]}}},"processes":[],"eols":[]},{"oid":"4222","imid":"5539","linkid":"0","weight":"0","rawemissions":"0","emissions":"0","shipping":"7798.97","processemissions":"0","endoflifeemissions":"0","disposaltype":null,"disposalenergy":null,"disposalimpact":null,"disposalemissions":null,"description":"","name":"Helma - RAWLINGS","id":"5539","stops":{"origin":{"related_to":"5539","part_or_object":"p","notes":null,"placename":"china","id":9361,"name":"origin","lat":"30.1451271823","lon":"108.984374996","hops":{"incoming":[],"outgoing":[{"transport_id":null,"id":"6587","transport_name":null,"transport_description":null,"transport_unit":null,"transport_co2_eq":null,"from_stop_id":"9361","from_stop_lat":"30.1451271823","from_stop_lon":"108.984374996","from_stop_placename":"china","to_stop_id":"9352","to_stop_name":"origin","to_stop_lat":"50.0878114","to_stop_lon":"14.4204598","to_stop_placename":"Praha, \u00c4\u008cesk\u00c3\u00a1 republika","to_stop":{"id":"9352","name":"origin","lat":"50.0878114","lon":"14.4204598","placename":"Praha, \u00c4\u008cesk\u00c3\u00a1 republika"},"from_stop":{"name":"origin","id":"9361","lat":"30.1451271823","lon":"108.984374996","placename":"china"}}]}}},"processes":[],"eols":[]}],"user":{"name":"koleso","id":"10819"}}}