{"423":{"oid":"423","type":"food","flag":"","creator":"12248","name":"sweetgreen","upc":"","imagelink":"","description":"","slug":"sweetgreen","category":"featured","weight":"0","emissions":"0","embodied":"0","transport":"0","process":null,"endoflife":null,"shipping":"2132.22","lifetime":null,"usagetype":"","usageenergy":null,"usageemissions":null,"timecreated":"2011-02-07 05:04:23","timemodified":"2011-02-07 07:37:53","visibility":"public","showfootprint":"on","showembodied":"on","showtransport":"on","showprocess":"on","showendoflife":"on","showlastleg":"on","showuse":"on","showstats":"on","stops":{"origin":{"related_to":"423","part_or_object":"o","notes":null,"placename":"Washington D.C., DC, USA","id":"10463","category":"1","lat":"38.8951118","lon":"-77.0363658","name":"origin","hops":{"incoming":[{"transport_id":"20","id":"7367","transport_name":"Road","transport_description":"from the Greenhouse Gas Protocol Initiative - GHG emission from transport or mobile sources calculator 2.0 (jun 2009)","transport_unit":"kg km","transport_co2_eq":"0.000204","from_stop_id":"10464","from_stop_lat":"38.1364401","from_stop_lon":"-77.0472114","to_stop_id":"10463","to_stop_name":"origin","to_stop_lat":"38.8951118","placename":"1235 Berry Farm Ln, Colonial Beach, VA 22443, USA","to_stop_lon":"-77.0363658","to_stop":{"id":"10463","name":"origin","lat":"38.8951118","placename":"Washington D.C., DC, USA","lon":"-77.0363658"},"from_stop":{"name":"origin","id":"10464","lat":"38.1364401","lon":"-77.0472114","placename":"1235 Berry Farm Ln, Colonial Beach, VA 22443, USA"}},{"transport_id":null,"id":"7368","transport_name":null,"transport_description":null,"transport_unit":null,"transport_co2_eq":null,"from_stop_id":"10465","from_stop_lat":"38.1364401","from_stop_lon":"-77.0472114","to_stop_id":"10463","to_stop_name":"origin","to_stop_lat":"38.8951118","placename":"1235 Berry Farm Ln, Colonial Beach, VA 22443, USA","to_stop_lon":"-77.0363658","to_stop":{"id":"10463","name":"origin","lat":"38.8951118","placename":"Washington D.C., DC, USA","lon":"-77.0363658"},"from_stop":{"name":"origin","id":"10465","lat":"38.1364401","lon":"-77.0472114","placename":"1235 Berry Farm Ln, Colonial Beach, VA 22443, USA"}},{"transport_id":null,"id":"7369","transport_name":null,"transport_description":null,"transport_unit":null,"transport_co2_eq":null,"from_stop_id":"10466","from_stop_lat":"39.6720536","from_stop_lon":"-76.0985613","to_stop_id":"10463","to_stop_name":"origin","to_stop_lat":"38.8951118","placename":"Colora, MD 21917, USA","to_stop_lon":"-77.0363658","to_stop":{"id":"10463","name":"origin","lat":"38.8951118","placename":"Washington D.C., DC, USA","lon":"-77.0363658"},"from_stop":{"name":"origin","id":"10466","lat":"39.6720536","lon":"-76.0985613","placename":"Colora, MD 21917, USA"}},{"transport_id":null,"id":"7370","transport_name":null,"transport_description":null,"transport_unit":null,"transport_co2_eq":null,"from_stop_id":"10467","from_stop_lat":"39.076767","from_stop_lon":"-77.6536125","to_stop_id":"10463","to_stop_name":"origin","to_stop_lat":"38.8951118","placename":"Loudoun, Virginia, USA","to_stop_lon":"-77.0363658","to_stop":{"id":"10463","name":"origin","lat":"38.8951118","placename":"Washington D.C., DC, USA","lon":"-77.0363658"},"from_stop":{"name":"origin","id":"10467","lat":"39.076767","lon":"-77.6536125","placename":"Loudoun, Virginia, USA"}},{"transport_id":null,"id":"7371","transport_name":null,"transport_description":null,"transport_unit":null,"transport_co2_eq":null,"from_stop_id":"10468","from_stop_lat":"39.5854862","from_stop_lon":"-79.2102535","to_stop_id":"10463","to_stop_name":"origin","to_stop_lat":"38.8951118","placename":"1099 Frank Brenneman Rd, Grantsville, MD 21536, USA","to_stop_lon":"-77.0363658","to_stop":{"id":"10463","name":"origin","lat":"38.8951118","placename":"Washington D.C., DC, USA","lon":"-77.0363658"},"from_stop":{"name":"origin","id":"10468","lat":"39.5854862","lon":"-79.2102535","placename":"1099 Frank Brenneman Rd, Grantsville, MD 21536, USA"}},{"transport_id":null,"id":"7372","transport_name":null,"transport_description":null,"transport_unit":null,"transport_co2_eq":null,"from_stop_id":"10469","from_stop_lat":"40.4443782","from_stop_lon":"-76.4331433","to_stop_id":"10463","to_stop_name":"origin","to_stop_lat":"38.8951118","placename":"54 W Main St, Fredericksburg, PA 17026, USA","to_stop_lon":"-77.0363658","to_stop":{"id":"10463","name":"origin","lat":"38.8951118","placename":"Washington D.C., DC, USA","lon":"-77.0363658"},"from_stop":{"name":"origin","id":"10469","lat":"40.4443782","lon":"-76.4331433","placename":"54 W Main St, Fredericksburg, PA 17026, USA"}},{"transport_id":null,"id":"7373","transport_name":null,"transport_description":null,"transport_unit":null,"transport_co2_eq":null,"from_stop_id":"10470","from_stop_lat":"39.4862267","from_stop_lon":"-75.0257313","to_stop_id":"10463","to_stop_name":"origin","to_stop_lat":"38.8951118","placename":"Vineland, NJ, USA","to_stop_lon":"-77.0363658","to_stop":{"id":"10463","name":"origin","lat":"38.8951118","placename":"Washington D.C., DC, USA","lon":"-77.0363658"},"from_stop":{"name":"origin","id":"10470","lat":"39.4862267","lon":"-75.0257313","placename":"Vineland, NJ, USA"}},{"transport_id":null,"id":"7374","transport_name":null,"transport_description":null,"transport_unit":null,"transport_co2_eq":null,"from_stop_id":"10471","from_stop_lat":"39.4862267","from_stop_lon":"-75.0257313","to_stop_id":"10463","to_stop_name":"origin","to_stop_lat":"38.8951118","placename":"Vineland, NJ, USA","to_stop_lon":"-77.0363658","to_stop":{"id":"10463","name":"origin","lat":"38.8951118","placename":"Washington D.C., DC, USA","lon":"-77.0363658"},"from_stop":{"name":"origin","id":"10471","lat":"39.4862267","lon":"-75.0257313","placename":"Vineland, NJ, USA"}},{"transport_id":null,"id":"7375","transport_name":null,"transport_description":null,"transport_unit":null,"transport_co2_eq":null,"from_stop_id":"10472","from_stop_lat":"39.8339248","from_stop_lon":"-75.6789905","to_stop_id":"10463","to_stop_name":"origin","to_stop_lat":"38.8951118","placename":"Kennett, PA, USA","to_stop_lon":"-77.0363658","to_stop":{"id":"10463","name":"origin","lat":"38.8951118","placename":"Washington D.C., DC, USA","lon":"-77.0363658"},"from_stop":{"name":"origin","id":"10472","lat":"39.8339248","lon":"-75.6789905","placename":"Kennett, PA, USA"}},{"transport_id":null,"id":"7376","transport_name":null,"transport_description":null,"transport_unit":null,"transport_co2_eq":null,"from_stop_id":"10473","from_stop_lat":"39.8339248","from_stop_lon":"-75.6789905","to_stop_id":"10463","to_stop_name":"origin","to_stop_lat":"38.8951118","placename":"Kennett, PA, USA","to_stop_lon":"-77.0363658","to_stop":{"id":"10463","name":"origin","lat":"38.8951118","placename":"Washington D.C., DC, USA","lon":"-77.0363658"},"from_stop":{"name":"origin","id":"10473","lat":"39.8339248","lon":"-75.6789905","placename":"Kennett, PA, USA"}},{"transport_id":null,"id":"7377","transport_name":null,"transport_description":null,"transport_unit":null,"transport_co2_eq":null,"from_stop_id":"10474","from_stop_lat":"39.9259463","from_stop_lon":"-75.1196199","to_stop_id":"10463","to_stop_name":"origin","to_stop_lat":"38.8951118","placename":"Camden, NJ, USA","to_stop_lon":"-77.0363658","to_stop":{"id":"10463","name":"origin","lat":"38.8951118","placename":"Washington D.C., DC, USA","lon":"-77.0363658"},"from_stop":{"name":"origin","id":"10474","lat":"39.9259463","lon":"-75.1196199","placename":"Camden, NJ, USA"}},{"transport_id":null,"id":"7378","transport_name":null,"transport_description":null,"transport_unit":null,"transport_co2_eq":null,"from_stop_id":"10475","from_stop_lat":"38.7892801","from_stop_lon":"-77.1872036","to_stop_id":"10463","to_stop_name":"origin","to_stop_lat":"38.8951118","placename":"Springfield, VA, USA","to_stop_lon":"-77.0363658","to_stop":{"id":"10463","name":"origin","lat":"38.8951118","placename":"Washington D.C., DC, USA","lon":"-77.0363658"},"from_stop":{"name":"origin","id":"10475","lat":"38.7892801","lon":"-77.1872036","placename":"Springfield, VA, USA"}},{"transport_id":null,"id":"7379","transport_name":null,"transport_description":null,"transport_unit":null,"transport_co2_eq":null,"from_stop_id":"10476","from_stop_lat":"38.7892801","from_stop_lon":"-77.1872036","to_stop_id":"10463","to_stop_name":"origin","to_stop_lat":"38.8951118","placename":"Springfield, VA, USA","to_stop_lon":"-77.0363658","to_stop":{"id":"10463","name":"origin","lat":"38.8951118","placename":"Washington D.C., DC, USA","lon":"-77.0363658"},"from_stop":{"name":"origin","id":"10476","lat":"38.7892801","lon":"-77.1872036","placename":"Springfield, VA, USA"}},{"transport_id":null,"id":"7380","transport_name":null,"transport_description":null,"transport_unit":null,"transport_co2_eq":null,"from_stop_id":"10477","from_stop_lat":"40.7973112","from_stop_lon":"-75.9693707","to_stop_id":"10463","to_stop_name":"origin","to_stop_lat":"38.8951118","placename":"Tamaqua, PA, USA","to_stop_lon":"-77.0363658","to_stop":{"id":"10463","name":"origin","lat":"38.8951118","placename":"Washington D.C., DC, USA","lon":"-77.0363658"},"from_stop":{"name":"origin","id":"10477","lat":"40.7973112","lon":"-75.9693707","placename":"Tamaqua, PA, USA"}}],"outgoing":[]}}},"parts":[{"oid":"423","imid":"5859","linkid":"0","weight":"0","rawemissions":"0","emissions":"0","shipping":"84.46","processemissions":"0","endoflifeemissions":"0","disposaltype":null,"disposalenergy":null,"disposalimpact":null,"disposalemissions":null,"description":"","name":"Apple Butter\/ Peach Butter","id":"5859","stops":{"origin":{"related_to":"5859","part_or_object":"p","notes":null,"placename":"1235 Berry Farm Ln, Colonial Beach, VA 22443, USA","id":10464,"name":"origin","lat":"38.1364401","lon":"-77.0472114","hops":{"incoming":[],"outgoing":[{"transport_id":"20","id":"7367","transport_name":"Road","transport_description":"from the Greenhouse Gas Protocol Initiative - GHG emission from transport or mobile sources calculator 2.0 (jun 2009)","transport_unit":"kg km","transport_co2_eq":"0.000204","from_stop_id":"10464","from_stop_lat":"38.1364401","from_stop_lon":"-77.0472114","from_stop_placename":"1235 Berry Farm Ln, Colonial Beach, VA 22443, USA","to_stop_id":"10463","to_stop_name":"origin","to_stop_lat":"38.8951118","to_stop_lon":"-77.0363658","to_stop_placename":"Washington D.C., DC, USA","to_stop":{"id":"10463","name":"origin","lat":"38.8951118","lon":"-77.0363658","placename":"Washington D.C., DC, USA"},"from_stop":{"name":"origin","id":"10464","lat":"38.1364401","lon":"-77.0472114","placename":"1235 Berry Farm Ln, Colonial Beach, VA 22443, USA"}}]}}},"processes":[],"eols":[]},{"oid":"423","imid":"5860","linkid":"0","weight":"0","rawemissions":"0","emissions":"0","shipping":"84.46","processemissions":"0","endoflifeemissions":"0","disposaltype":null,"disposalenergy":null,"disposalimpact":null,"disposalemissions":null,"description":"","name":"Blackberry Jam","id":"5860","stops":{"origin":{"related_to":"5860","part_or_object":"p","notes":null,"placename":"1235 Berry Farm Ln, Colonial Beach, VA 22443, USA","id":10465,"name":"origin","lat":"38.1364401","lon":"-77.0472114","hops":{"incoming":[],"outgoing":[{"transport_id":null,"id":"7368","transport_name":null,"transport_description":null,"transport_unit":null,"transport_co2_eq":null,"from_stop_id":"10465","from_stop_lat":"38.1364401","from_stop_lon":"-77.0472114","from_stop_placename":"1235 Berry Farm Ln, Colonial Beach, VA 22443, USA","to_stop_id":"10463","to_stop_name":"origin","to_stop_lat":"38.8951118","to_stop_lon":"-77.0363658","to_stop_placename":"Washington D.C., DC, USA","to_stop":{"id":"10463","name":"origin","lat":"38.8951118","lon":"-77.0363658","placename":"Washington D.C., DC, USA"},"from_stop":{"name":"origin","id":"10465","lat":"38.1364401","lon":"-77.0472114","placename":"1235 Berry Farm Ln, Colonial Beach, VA 22443, USA"}}]}}},"processes":[],"eols":[]},{"oid":"423","imid":"5861","linkid":"0","weight":"0","rawemissions":"0","emissions":"0","shipping":"118.36","processemissions":"0","endoflifeemissions":"0","disposaltype":null,"disposalenergy":null,"disposalimpact":null,"disposalemissions":null,"description":"","name":"Apple, Golden Delicous","id":"5861","stops":{"origin":{"related_to":"5861","part_or_object":"p","notes":null,"placename":"Colora, MD 21917, USA","id":10466,"name":"origin","lat":"39.6720536","lon":"-76.0985613","hops":{"incoming":[],"outgoing":[{"transport_id":null,"id":"7369","transport_name":null,"transport_description":null,"transport_unit":null,"transport_co2_eq":null,"from_stop_id":"10466","from_stop_lat":"39.6720536","from_stop_lon":"-76.0985613","from_stop_placename":"Colora, MD 21917, USA","to_stop_id":"10463","to_stop_name":"origin","to_stop_lat":"38.8951118","to_stop_lon":"-77.0363658","to_stop_placename":"Washington D.C., DC, USA","to_stop":{"id":"10463","name":"origin","lat":"38.8951118","lon":"-77.0363658","placename":"Washington D.C., DC, USA"},"from_stop":{"name":"origin","id":"10466","lat":"39.6720536","lon":"-76.0985613","placename":"Colora, MD 21917, USA"}}]}}},"processes":[],"eols":[]},{"oid":"423","imid":"5862","linkid":"0","weight":"0","rawemissions":"0","emissions":"0","shipping":"57.11","processemissions":"0","endoflifeemissions":"0","disposaltype":null,"disposalenergy":null,"disposalimpact":null,"disposalemissions":null,"description":"","name":"Feta Cheese","id":"5862","stops":{"origin":{"related_to":"5862","part_or_object":"p","notes":null,"placename":"Loudoun, Virginia, USA","id":10467,"name":"origin","lat":"39.076767","lon":"-77.6536125","hops":{"incoming":[],"outgoing":[{"transport_id":null,"id":"7370","transport_name":null,"transport_description":null,"transport_unit":null,"transport_co2_eq":null,"from_stop_id":"10467","from_stop_lat":"39.076767","from_stop_lon":"-77.6536125","from_stop_placename":"Loudoun, Virginia, USA","to_stop_id":"10463","to_stop_name":"origin","to_stop_lat":"38.8951118","to_stop_lon":"-77.0363658","to_stop_placename":"Washington D.C., DC, USA","to_stop":{"id":"10463","name":"origin","lat":"38.8951118","lon":"-77.0363658","placename":"Washington D.C., DC, USA"},"from_stop":{"name":"origin","id":"10467","lat":"39.076767","lon":"-77.6536125","placename":"Loudoun, Virginia, USA"}}]}}},"processes":[],"eols":[]},{"oid":"423","imid":"5863","linkid":"0","weight":"0","rawemissions":"0","emissions":"0","shipping":"202.56","processemissions":"0","endoflifeemissions":"0","disposaltype":null,"disposalenergy":null,"disposalimpact":null,"disposalemissions":null,"description":"","name":"Goat Chevre Cheese","id":"5863","stops":{"origin":{"related_to":"5863","part_or_object":"p","notes":null,"placename":"1099 Frank Brenneman Rd, Grantsville, MD 21536, USA","id":10468,"name":"origin","lat":"39.5854862","lon":"-79.2102535","hops":{"incoming":[],"outgoing":[{"transport_id":null,"id":"7371","transport_name":null,"transport_description":null,"transport_unit":null,"transport_co2_eq":null,"from_stop_id":"10468","from_stop_lat":"39.5854862","from_stop_lon":"-79.2102535","from_stop_placename":"1099 Frank Brenneman Rd, Grantsville, MD 21536, USA","to_stop_id":"10463","to_stop_name":"origin","to_stop_lat":"38.8951118","to_stop_lon":"-77.0363658","to_stop_placename":"Washington D.C., DC, USA","to_stop":{"id":"10463","name":"origin","lat":"38.8951118","lon":"-77.0363658","placename":"Washington D.C., DC, USA"},"from_stop":{"name":"origin","id":"10468","lat":"39.5854862","lon":"-79.2102535","placename":"1099 Frank Brenneman Rd, Grantsville, MD 21536, USA"}}]}}},"processes":[],"eols":[]},{"oid":"423","imid":"5864","linkid":"0","weight":"0","rawemissions":"0","emissions":"0","shipping":"180.04","processemissions":"0","endoflifeemissions":"0","disposaltype":null,"disposalenergy":null,"disposalimpact":null,"disposalemissions":null,"description":"Bell and Evans","name":"Chicken","id":"5864","stops":{"origin":{"related_to":"5864","part_or_object":"p","notes":null,"placename":"54 W Main St, Fredericksburg, PA 17026, USA","id":10469,"name":"origin","lat":"40.4443782","lon":"-76.4331433","hops":{"incoming":[],"outgoing":[{"transport_id":null,"id":"7372","transport_name":null,"transport_description":null,"transport_unit":null,"transport_co2_eq":null,"from_stop_id":"10469","from_stop_lat":"40.4443782","from_stop_lon":"-76.4331433","from_stop_placename":"54 W Main St, Fredericksburg, PA 17026, USA","to_stop_id":"10463","to_stop_name":"origin","to_stop_lat":"38.8951118","to_stop_lon":"-77.0363658","to_stop_placename":"Washington D.C., DC, USA","to_stop":{"id":"10463","name":"origin","lat":"38.8951118","lon":"-77.0363658","placename":"Washington D.C., DC, USA"},"from_stop":{"name":"origin","id":"10469","lat":"40.4443782","lon":"-76.4331433","placename":"54 W Main St, Fredericksburg, PA 17026, USA"}}]}}},"processes":[],"eols":[]},{"oid":"423","imid":"5865","linkid":"0","weight":"0","rawemissions":"0","emissions":"0","shipping":"185.53","processemissions":"0","endoflifeemissions":"0","disposaltype":null,"disposalenergy":null,"disposalimpact":null,"disposalemissions":null,"description":"","name":"Jalapeno Peppers","id":"5865","stops":{"origin":{"related_to":"5865","part_or_object":"p","notes":null,"placename":"Vineland, NJ, USA","id":10470,"name":"origin","lat":"39.4862267","lon":"-75.0257313","hops":{"incoming":[],"outgoing":[{"transport_id":null,"id":"7373","transport_name":null,"transport_description":null,"transport_unit":null,"transport_co2_eq":null,"from_stop_id":"10470","from_stop_lat":"39.4862267","from_stop_lon":"-75.0257313","from_stop_placename":"Vineland, NJ, USA","to_stop_id":"10463","to_stop_name":"origin","to_stop_lat":"38.8951118","to_stop_lon":"-77.0363658","to_stop_placename":"Washington D.C., DC, USA","to_stop":{"id":"10463","name":"origin","lat":"38.8951118","lon":"-77.0363658","placename":"Washington D.C., DC, USA"},"from_stop":{"name":"origin","id":"10470","lat":"39.4862267","lon":"-75.0257313","placename":"Vineland, NJ, USA"}}]}}},"processes":[],"eols":[]},{"oid":"423","imid":"5866","linkid":"0","weight":"0","rawemissions":"0","emissions":"0","shipping":"185.53","processemissions":"0","endoflifeemissions":"0","disposaltype":null,"disposalenergy":null,"disposalimpact":null,"disposalemissions":null,"description":"","name":"Mint","id":"5866","stops":{"origin":{"related_to":"5866","part_or_object":"p","notes":null,"placename":"Vineland, NJ, USA","id":10471,"name":"origin","lat":"39.4862267","lon":"-75.0257313","hops":{"incoming":[],"outgoing":[{"transport_id":null,"id":"7374","transport_name":null,"transport_description":null,"transport_unit":null,"transport_co2_eq":null,"from_stop_id":"10471","from_stop_lat":"39.4862267","from_stop_lon":"-75.0257313","from_stop_placename":"Vineland, NJ, USA","to_stop_id":"10463","to_stop_name":"origin","to_stop_lat":"38.8951118","to_stop_lon":"-77.0363658","to_stop_placename":"Washington D.C., DC, USA","to_stop":{"id":"10463","name":"origin","lat":"38.8951118","lon":"-77.0363658","placename":"Washington D.C., DC, USA"},"from_stop":{"name":"origin","id":"10471","lat":"39.4862267","lon":"-75.0257313","placename":"Vineland, NJ, USA"}}]}}},"processes":[],"eols":[]},{"oid":"423","imid":"5867","linkid":"0","weight":"0","rawemissions":"0","emissions":"0","shipping":"156.74","processemissions":"0","endoflifeemissions":"0","disposaltype":null,"disposalenergy":null,"disposalimpact":null,"disposalemissions":null,"description":"","name":"Button Mushrooms","id":"5867","stops":{"origin":{"related_to":"5867","part_or_object":"p","notes":null,"placename":"Kennett, PA, USA","id":10472,"name":"origin","lat":"39.8339248","lon":"-75.6789905","hops":{"incoming":[],"outgoing":[{"transport_id":null,"id":"7375","transport_name":null,"transport_description":null,"transport_unit":null,"transport_co2_eq":null,"from_stop_id":"10472","from_stop_lat":"39.8339248","from_stop_lon":"-75.6789905","from_stop_placename":"Kennett, PA, USA","to_stop_id":"10463","to_stop_name":"origin","to_stop_lat":"38.8951118","to_stop_lon":"-77.0363658","to_stop_placename":"Washington D.C., DC, USA","to_stop":{"id":"10463","name":"origin","lat":"38.8951118","lon":"-77.0363658","placename":"Washington D.C., DC, USA"},"from_stop":{"name":"origin","id":"10472","lat":"39.8339248","lon":"-75.6789905","placename":"Kennett, PA, USA"}}]}}},"processes":[],"eols":[]},{"oid":"423","imid":"5868","linkid":"0","weight":"0","rawemissions":"0","emissions":"0","shipping":"156.74","processemissions":"0","endoflifeemissions":"0","disposaltype":null,"disposalenergy":null,"disposalimpact":null,"disposalemissions":null,"description":"","name":"Portabello Mushroom","id":"5868","stops":{"origin":{"related_to":"5868","part_or_object":"p","notes":null,"placename":"Kennett, PA, USA","id":10473,"name":"origin","lat":"39.8339248","lon":"-75.6789905","hops":{"incoming":[],"outgoing":[{"transport_id":null,"id":"7376","transport_name":null,"transport_description":null,"transport_unit":null,"transport_co2_eq":null,"from_stop_id":"10473","from_stop_lat":"39.8339248","from_stop_lon":"-75.6789905","from_stop_placename":"Kennett, PA, USA","to_stop_id":"10463","to_stop_name":"origin","to_stop_lat":"38.8951118","to_stop_lon":"-77.0363658","to_stop_placename":"Washington D.C., DC, USA","to_stop":{"id":"10463","name":"origin","lat":"38.8951118","lon":"-77.0363658","placename":"Washington D.C., DC, USA"},"from_stop":{"name":"origin","id":"10473","lat":"39.8339248","lon":"-75.6789905","placename":"Kennett, PA, USA"}}]}}},"processes":[],"eols":[]},{"oid":"423","imid":"5869","linkid":"0","weight":"0","rawemissions":"0","emissions":"0","shipping":"200.85","processemissions":"0","endoflifeemissions":"0","disposaltype":null,"disposalenergy":null,"disposalimpact":null,"disposalemissions":null,"description":"","name":"Pickels, Hot Krinkle Chips","id":"5869","stops":{"origin":{"related_to":"5869","part_or_object":"p","notes":null,"placename":"Camden, NJ, USA","id":10474,"name":"origin","lat":"39.9259463","lon":"-75.1196199","hops":{"incoming":[],"outgoing":[{"transport_id":null,"id":"7377","transport_name":null,"transport_description":null,"transport_unit":null,"transport_co2_eq":null,"from_stop_id":"10474","from_stop_lat":"39.9259463","from_stop_lon":"-75.1196199","from_stop_placename":"Camden, NJ, USA","to_stop_id":"10463","to_stop_name":"origin","to_stop_lat":"38.8951118","to_stop_lon":"-77.0363658","to_stop_placename":"Washington D.C., DC, USA","to_stop":{"id":"10463","name":"origin","lat":"38.8951118","lon":"-77.0363658","placename":"Washington D.C., DC, USA"},"from_stop":{"name":"origin","id":"10474","lat":"39.9259463","lon":"-75.1196199","placename":"Camden, NJ, USA"}}]}}},"processes":[],"eols":[]},{"oid":"423","imid":"5870","linkid":"0","weight":"0","rawemissions":"0","emissions":"0","shipping":"17.6","processemissions":"0","endoflifeemissions":"0","disposaltype":null,"disposalenergy":null,"disposalimpact":null,"disposalemissions":null,"description":"","name":"Sprouts","id":"5870","stops":{"origin":{"related_to":"5870","part_or_object":"p","notes":null,"placename":"Springfield, VA, USA","id":10475,"name":"origin","lat":"38.7892801","lon":"-77.1872036","hops":{"incoming":[],"outgoing":[{"transport_id":null,"id":"7378","transport_name":null,"transport_description":null,"transport_unit":null,"transport_co2_eq":null,"from_stop_id":"10475","from_stop_lat":"38.7892801","from_stop_lon":"-77.1872036","from_stop_placename":"Springfield, VA, USA","to_stop_id":"10463","to_stop_name":"origin","to_stop_lat":"38.8951118","to_stop_lon":"-77.0363658","to_stop_placename":"Washington D.C., DC, USA","to_stop":{"id":"10463","name":"origin","lat":"38.8951118","lon":"-77.0363658","placename":"Washington D.C., DC, USA"},"from_stop":{"name":"origin","id":"10475","lat":"38.7892801","lon":"-77.1872036","placename":"Springfield, VA, USA"}}]}}},"processes":[],"eols":[]},{"oid":"423","imid":"5871","linkid":"0","weight":"0","rawemissions":"0","emissions":"0","shipping":"17.6","processemissions":"0","endoflifeemissions":"0","disposaltype":null,"disposalenergy":null,"disposalimpact":null,"disposalemissions":null,"description":"","name":"Tofu","id":"5871","stops":{"origin":{"related_to":"5871","part_or_object":"p","notes":null,"placename":"Springfield, VA, USA","id":10476,"name":"origin","lat":"38.7892801","lon":"-77.1872036","hops":{"incoming":[],"outgoing":[{"transport_id":null,"id":"7379","transport_name":null,"transport_description":null,"transport_unit":null,"transport_co2_eq":null,"from_stop_id":"10476","from_stop_lat":"38.7892801","from_stop_lon":"-77.1872036","from_stop_placename":"Springfield, VA, USA","to_stop_id":"10463","to_stop_name":"origin","to_stop_lat":"38.8951118","to_stop_lon":"-77.0363658","to_stop_placename":"Washington D.C., DC, USA","to_stop":{"id":"10463","name":"origin","lat":"38.8951118","lon":"-77.0363658","placename":"Washington D.C., DC, USA"},"from_stop":{"name":"origin","id":"10476","lat":"38.7892801","lon":"-77.1872036","placename":"Springfield, VA, USA"}}]}}},"processes":[],"eols":[]},{"oid":"423","imid":"5872","linkid":"0","weight":"0","rawemissions":"0","emissions":"0","shipping":"230.55","processemissions":"0","endoflifeemissions":"0","disposaltype":null,"disposalenergy":null,"disposalimpact":null,"disposalemissions":null,"description":"","name":"Turkey","id":"5872","stops":{"origin":{"related_to":"5872","part_or_object":"p","notes":null,"placename":"Tamaqua, PA, USA","id":10477,"name":"origin","lat":"40.7973112","lon":"-75.9693707","hops":{"incoming":[],"outgoing":[{"transport_id":null,"id":"7380","transport_name":null,"transport_description":null,"transport_unit":null,"transport_co2_eq":null,"from_stop_id":"10477","from_stop_lat":"40.7973112","from_stop_lon":"-75.9693707","from_stop_placename":"Tamaqua, PA, USA","to_stop_id":"10463","to_stop_name":"origin","to_stop_lat":"38.8951118","to_stop_lon":"-77.0363658","to_stop_placename":"Washington D.C., DC, USA","to_stop":{"id":"10463","name":"origin","lat":"38.8951118","lon":"-77.0363658","placename":"Washington D.C., DC, USA"},"from_stop":{"name":"origin","id":"10477","lat":"40.7973112","lon":"-75.9693707","placename":"Tamaqua, PA, USA"}}]}}},"processes":[],"eols":[]}],"user":{"name":"nathanielru","id":"12248"}}}