{"4240":{"oid":"4240","type":"trace","flag":"","creator":"10883","name":"fashion Source map","upc":"","imagelink":"","description":"","slug":"fashion-source-map","category":"","weight":"0","emissions":"0","embodied":"0","transport":"0","process":"0","endoflife":"0","shipping":"49594.31","lifetime":null,"usagetype":"","usageenergy":null,"usageemissions":null,"timecreated":"2010-10-12 06:44:33.742982","timemodified":"2010-10-14 10:06:33","visibility":"public","showfootprint":"on","showembodied":"on","showtransport":"on","showprocess":"on","showendoflife":"on","showlastleg":"on","showuse":"on","showstats":"on","stops":{"origin":{"related_to":"4240","part_or_object":"o","notes":"","placename":"Truro, Feock, Cornwall TR3 6, UK","id":"1610","category":"1","lat":"50.224697","lon":"-5.076523","name":"origin","hops":{"incoming":[{"transport_id":"17","id":"2006","transport_name":"None Selected","transport_description":null,"transport_unit":"kg km","transport_co2_eq":"0.000000","from_stop_id":"4266","from_stop_lat":"21.00789","from_stop_lon":"-10.940835","to_stop_id":"1610","to_stop_name":"origin","to_stop_lat":"50.224697","placename":"Mauritania","to_stop_lon":"-5.076523","to_stop":{"id":"1610","name":"origin","lat":"50.224697","placename":"Truro, Feock, Cornwall TR3 6, UK","lon":"-5.076523"},"from_stop":{"name":"origin","id":"4266","lat":"21.00789","lon":"-10.940835","placename":"Mauritania"}},{"transport_id":"17","id":"1828","transport_name":"None Selected","transport_description":null,"transport_unit":"kg km","transport_co2_eq":"0.000000","from_stop_id":"4088","from_stop_lat":"38.963745","from_stop_lon":"35.243322","to_stop_id":"1610","to_stop_name":"origin","to_stop_lat":"50.224697","placename":"Turkey","to_stop_lon":"-5.076523","to_stop":{"id":"1610","name":"origin","lat":"50.224697","placename":"Truro, Feock, Cornwall TR3 6, UK","lon":"-5.076523"},"from_stop":{"name":"origin","id":"4088","lat":"38.963745","lon":"35.243322","placename":"Turkey"}},{"transport_id":"17","id":"1829","transport_name":"None Selected","transport_description":null,"transport_unit":"kg km","transport_co2_eq":"0.000000","from_stop_id":"4089","from_stop_lat":"35.86166","from_stop_lon":"104.195397","to_stop_id":"1610","to_stop_name":"origin","to_stop_lat":"50.224697","placename":"China","to_stop_lon":"-5.076523","to_stop":{"id":"1610","name":"origin","lat":"50.224697","placename":"Truro, Feock, Cornwall TR3 6, UK","lon":"-5.076523"},"from_stop":{"name":"origin","id":"4089","lat":"35.86166","lon":"104.195397","placename":"China"}},{"transport_id":"17","id":"1830","transport_name":"None Selected","transport_description":null,"transport_unit":"kg km","transport_co2_eq":"0.000000","from_stop_id":"4090","from_stop_lat":"35.86166","from_stop_lon":"104.195397","to_stop_id":"1610","to_stop_name":"origin","to_stop_lat":"50.224697","placename":"China","to_stop_lon":"-5.076523","to_stop":{"id":"1610","name":"origin","lat":"50.224697","placename":"Truro, Feock, Cornwall TR3 6, UK","lon":"-5.076523"},"from_stop":{"name":"origin","id":"4090","lat":"35.86166","lon":"104.195397","placename":"China"}},{"transport_id":"17","id":"1831","transport_name":"None Selected","transport_description":null,"transport_unit":"kg km","transport_co2_eq":"0.000000","from_stop_id":"4091","from_stop_lat":"35.86166","from_stop_lon":"104.195397","to_stop_id":"1610","to_stop_name":"origin","to_stop_lat":"50.224697","placename":"China","to_stop_lon":"-5.076523","to_stop":{"id":"1610","name":"origin","lat":"50.224697","placename":"Truro, Feock, Cornwall TR3 6, UK","lon":"-5.076523"},"from_stop":{"name":"origin","id":"4091","lat":"35.86166","lon":"104.195397","placename":"China"}},{"transport_id":"17","id":"1832","transport_name":"None Selected","transport_description":null,"transport_unit":"kg km","transport_co2_eq":"0.000000","from_stop_id":"4092","from_stop_lat":"38.963745","from_stop_lon":"35.243322","to_stop_id":"1610","to_stop_name":"origin","to_stop_lat":"50.224697","placename":"Turkey","to_stop_lon":"-5.076523","to_stop":{"id":"1610","name":"origin","lat":"50.224697","placename":"Truro, Feock, Cornwall TR3 6, UK","lon":"-5.076523"},"from_stop":{"name":"origin","id":"4092","lat":"38.963745","lon":"35.243322","placename":"Turkey"}},{"transport_id":"17","id":"1833","transport_name":"None Selected","transport_description":null,"transport_unit":"kg km","transport_co2_eq":"0.000000","from_stop_id":"4093","from_stop_lat":"35.86166","from_stop_lon":"104.195397","to_stop_id":"1610","to_stop_name":"origin","to_stop_lat":"50.224697","placename":"China","to_stop_lon":"-5.076523","to_stop":{"id":"1610","name":"origin","lat":"50.224697","placename":"Truro, Feock, Cornwall TR3 6, UK","lon":"-5.076523"},"from_stop":{"name":"origin","id":"4093","lat":"35.86166","lon":"104.195397","placename":"China"}},{"transport_id":"17","id":"1623","transport_name":"None Selected","transport_description":null,"transport_unit":"kg km","transport_co2_eq":"0.000000","from_stop_id":"3883","from_stop_lat":"38.963745","from_stop_lon":"35.243322","to_stop_id":"1610","to_stop_name":"origin","to_stop_lat":"50.224697","placename":"Turkey","to_stop_lon":"-5.076523","to_stop":{"id":"1610","name":"origin","lat":"50.224697","placename":"Truro, Feock, Cornwall TR3 6, UK","lon":"-5.076523"},"from_stop":{"name":"origin","id":"3883","lat":"38.963745","lon":"35.243322","placename":"Turkey"}},{"transport_id":"17","id":"1624","transport_name":"None Selected","transport_description":null,"transport_unit":"kg km","transport_co2_eq":"0.000000","from_stop_id":"3884","from_stop_lat":"21.00789","from_stop_lon":"-10.940835","to_stop_id":"1610","to_stop_name":"origin","to_stop_lat":"50.224697","placename":"Mauritania","to_stop_lon":"-5.076523","to_stop":{"id":"1610","name":"origin","lat":"50.224697","placename":"Truro, Feock, Cornwall TR3 6, UK","lon":"-5.076523"},"from_stop":{"name":"origin","id":"3884","lat":"21.00789","lon":"-10.940835","placename":"Mauritania"}}],"outgoing":[]}}},"parts":[{"oid":"4240","imid":"4446","linkid":"","weight":"0","rawemissions":"0","emissions":"0","shipping":"3383.35","processemissions":"0","endoflifeemissions":"0","disposaltype":null,"disposalenergy":null,"disposalimpact":null,"disposalemissions":null,"description":"100% polyester","name":"Newlook Aviator Jacket - brown, beige","id":"4446","stops":{"origin":{"related_to":"4446","part_or_object":"p","notes":"","placename":"Turkey","id":3883,"name":"origin","lat":"38.963745","lon":"35.243322","hops":{"incoming":[],"outgoing":[{"transport_id":"17","id":"1623","transport_name":"None Selected","transport_description":null,"transport_unit":"kg km","transport_co2_eq":"0.000000","from_stop_id":"3883","from_stop_lat":"38.963745","from_stop_lon":"35.243322","from_stop_placename":"Turkey","to_stop_id":"1610","to_stop_name":"origin","to_stop_lat":"50.224697","to_stop_lon":"-5.076523","to_stop_placename":"Truro, Feock, Cornwall TR3 6, UK","to_stop":{"id":"1610","name":"origin","lat":"50.224697","lon":"-5.076523","placename":"Truro, Feock, Cornwall TR3 6, UK"},"from_stop":{"name":"origin","id":"3883","lat":"38.963745","lon":"35.243322","placename":"Turkey"}}]}}},"processes":[],"eols":[]},{"oid":"4240","imid":"4444","linkid":"","weight":"0","rawemissions":"0","emissions":"0","shipping":"3293.01","processemissions":"0","endoflifeemissions":"0","disposaltype":null,"disposalenergy":null,"disposalimpact":null,"disposalemissions":null,"description":"","name":"Topshop slashed knitted snood - Green","id":"4444","stops":{"origin":{"related_to":"4444","part_or_object":"p","notes":"","placename":"Mauritania","id":3884,"name":"origin","lat":"21.00789","lon":"-10.940835","hops":{"incoming":[],"outgoing":[{"transport_id":"17","id":"1624","transport_name":"None Selected","transport_description":null,"transport_unit":"kg km","transport_co2_eq":"0.000000","from_stop_id":"3884","from_stop_lat":"21.00789","from_stop_lon":"-10.940835","from_stop_placename":"Mauritania","to_stop_id":"1610","to_stop_name":"origin","to_stop_lat":"50.224697","to_stop_lon":"-5.076523","to_stop_placename":"Truro, Feock, Cornwall TR3 6, UK","to_stop":{"id":"1610","name":"origin","lat":"50.224697","lon":"-5.076523","placename":"Truro, Feock, Cornwall TR3 6, UK"},"from_stop":{"name":"origin","id":"3884","lat":"21.00789","lon":"-10.940835","placename":"Mauritania"}}]}}},"processes":[],"eols":[]},{"oid":"4240","imid":"4433","linkid":"","weight":"0","rawemissions":"0","emissions":"0","shipping":"3383.35","processemissions":"0","endoflifeemissions":"0","disposaltype":null,"disposalenergy":null,"disposalimpact":null,"disposalemissions":null,"description":"98 % cotton - 2 % elastane","name":"River Island Navy Denim Turnups","id":"4433","stops":{"origin":{"related_to":"4433","part_or_object":"p","notes":"","placename":"Turkey","id":4088,"name":"origin","lat":"38.963745","lon":"35.243322","hops":{"incoming":[],"outgoing":[{"transport_id":"17","id":"1828","transport_name":"None Selected","transport_description":null,"transport_unit":"kg km","transport_co2_eq":"0.000000","from_stop_id":"4088","from_stop_lat":"38.963745","from_stop_lon":"35.243322","from_stop_placename":"Turkey","to_stop_id":"1610","to_stop_name":"origin","to_stop_lat":"50.224697","to_stop_lon":"-5.076523","to_stop_placename":"Truro, Feock, Cornwall TR3 6, UK","to_stop":{"id":"1610","name":"origin","lat":"50.224697","lon":"-5.076523","placename":"Truro, Feock, Cornwall TR3 6, UK"},"from_stop":{"name":"origin","id":"4088","lat":"38.963745","lon":"35.243322","placename":"Turkey"}}]}}},"processes":[],"eols":[]},{"oid":"4240","imid":"4434","linkid":"","weight":"0","rawemissions":"0","emissions":"0","shipping":"8214.56","processemissions":"0","endoflifeemissions":"0","disposaltype":null,"disposalenergy":null,"disposalimpact":null,"disposalemissions":null,"description":"100% cotton","name":"Gul Jeans","id":"4434","stops":{"origin":{"related_to":"4434","part_or_object":"p","notes":"","placename":"China","id":4089,"name":"origin","lat":"35.86166","lon":"104.195397","hops":{"incoming":[],"outgoing":[{"transport_id":"17","id":"1829","transport_name":"None Selected","transport_description":null,"transport_unit":"kg km","transport_co2_eq":"0.000000","from_stop_id":"4089","from_stop_lat":"35.86166","from_stop_lon":"104.195397","from_stop_placename":"China","to_stop_id":"1610","to_stop_name":"origin","to_stop_lat":"50.224697","to_stop_lon":"-5.076523","to_stop_placename":"Truro, Feock, Cornwall TR3 6, UK","to_stop":{"id":"1610","name":"origin","lat":"50.224697","lon":"-5.076523","placename":"Truro, Feock, Cornwall TR3 6, UK"},"from_stop":{"name":"origin","id":"4089","lat":"35.86166","lon":"104.195397","placename":"China"}}]}}},"processes":[],"eols":[]},{"oid":"4240","imid":"4435","linkid":"","weight":"0","rawemissions":"0","emissions":"0","shipping":"8214.56","processemissions":"0","endoflifeemissions":"0","disposaltype":null,"disposalenergy":null,"disposalimpact":null,"disposalemissions":null,"description":"98% cotton - 2% elastane","name":"Topshop denim jeans","id":"4435","stops":{"origin":{"related_to":"4435","part_or_object":"p","notes":"","placename":"China","id":4090,"name":"origin","lat":"35.86166","lon":"104.195397","hops":{"incoming":[],"outgoing":[{"transport_id":"17","id":"1830","transport_name":"None Selected","transport_description":null,"transport_unit":"kg km","transport_co2_eq":"0.000000","from_stop_id":"4090","from_stop_lat":"35.86166","from_stop_lon":"104.195397","from_stop_placename":"China","to_stop_id":"1610","to_stop_name":"origin","to_stop_lat":"50.224697","to_stop_lon":"-5.076523","to_stop_placename":"Truro, Feock, Cornwall TR3 6, UK","to_stop":{"id":"1610","name":"origin","lat":"50.224697","lon":"-5.076523","placename":"Truro, Feock, Cornwall TR3 6, UK"},"from_stop":{"name":"origin","id":"4090","lat":"35.86166","lon":"104.195397","placename":"China"}}]}}},"processes":[],"eols":[]},{"oid":"4240","imid":"4436","linkid":"","weight":"0","rawemissions":"0","emissions":"0","shipping":"8214.56","processemissions":"0","endoflifeemissions":"0","disposaltype":null,"disposalenergy":null,"disposalimpact":null,"disposalemissions":null,"description":"100% cotton ","name":"Gul T- Shirt","id":"4436","stops":{"origin":{"related_to":"4436","part_or_object":"p","notes":"","placename":"China","id":4091,"name":"origin","lat":"35.86166","lon":"104.195397","hops":{"incoming":[],"outgoing":[{"transport_id":"17","id":"1831","transport_name":"None Selected","transport_description":null,"transport_unit":"kg km","transport_co2_eq":"0.000000","from_stop_id":"4091","from_stop_lat":"35.86166","from_stop_lon":"104.195397","from_stop_placename":"China","to_stop_id":"1610","to_stop_name":"origin","to_stop_lat":"50.224697","to_stop_lon":"-5.076523","to_stop_placename":"Truro, Feock, Cornwall TR3 6, UK","to_stop":{"id":"1610","name":"origin","lat":"50.224697","lon":"-5.076523","placename":"Truro, Feock, Cornwall TR3 6, UK"},"from_stop":{"name":"origin","id":"4091","lat":"35.86166","lon":"104.195397","placename":"China"}}]}}},"processes":[],"eols":[]},{"oid":"4240","imid":"4437","linkid":"","weight":"0","rawemissions":"0","emissions":"0","shipping":"3383.35","processemissions":"0","endoflifeemissions":"0","disposaltype":null,"disposalenergy":null,"disposalimpact":null,"disposalemissions":null,"description":"65% cotton - 31% polyester - 4% elastane","name":"Topshop Black Denim Jeans","id":"4437","stops":{"origin":{"related_to":"4437","part_or_object":"p","notes":"","placename":"Turkey","id":4092,"name":"origin","lat":"38.963745","lon":"35.243322","hops":{"incoming":[],"outgoing":[{"transport_id":"17","id":"1832","transport_name":"None Selected","transport_description":null,"transport_unit":"kg km","transport_co2_eq":"0.000000","from_stop_id":"4092","from_stop_lat":"38.963745","from_stop_lon":"35.243322","from_stop_placename":"Turkey","to_stop_id":"1610","to_stop_name":"origin","to_stop_lat":"50.224697","to_stop_lon":"-5.076523","to_stop_placename":"Truro, Feock, Cornwall TR3 6, UK","to_stop":{"id":"1610","name":"origin","lat":"50.224697","lon":"-5.076523","placename":"Truro, Feock, Cornwall TR3 6, UK"},"from_stop":{"name":"origin","id":"4092","lat":"38.963745","lon":"35.243322","placename":"Turkey"}}]}}},"processes":[],"eols":[]},{"oid":"4240","imid":"4438","linkid":"","weight":"0","rawemissions":"0","emissions":"0","shipping":"8214.56","processemissions":"0","endoflifeemissions":"0","disposaltype":null,"disposalenergy":null,"disposalimpact":null,"disposalemissions":null,"description":"75% cotton - 24% polyester - 1% elastane","name":"Dorothy Perkins Bootcut Jeans ","id":"4438","stops":{"origin":{"related_to":"4438","part_or_object":"p","notes":"","placename":"China","id":4093,"name":"origin","lat":"35.86166","lon":"104.195397","hops":{"incoming":[],"outgoing":[{"transport_id":"17","id":"1833","transport_name":"None Selected","transport_description":null,"transport_unit":"kg km","transport_co2_eq":"0.000000","from_stop_id":"4093","from_stop_lat":"35.86166","from_stop_lon":"104.195397","from_stop_placename":"China","to_stop_id":"1610","to_stop_name":"origin","to_stop_lat":"50.224697","to_stop_lon":"-5.076523","to_stop_placename":"Truro, Feock, Cornwall TR3 6, UK","to_stop":{"id":"1610","name":"origin","lat":"50.224697","lon":"-5.076523","placename":"Truro, Feock, Cornwall TR3 6, UK"},"from_stop":{"name":"origin","id":"4093","lat":"35.86166","lon":"104.195397","placename":"China"}}]}}},"processes":[],"eols":[]},{"oid":"4240","imid":"4445","linkid":"","weight":"0","rawemissions":"0","emissions":"0","shipping":"3293.01","processemissions":"0","endoflifeemissions":"0","disposaltype":null,"disposalenergy":null,"disposalimpact":null,"disposalemissions":null,"description":"69% nylon - 31% angora","name":"Topshop leopard print beret","id":"4445","stops":{"origin":{"related_to":"4445","part_or_object":"p","notes":"","placename":"Mauritania","id":4266,"name":"origin","lat":"21.00789","lon":"-10.940835","hops":{"incoming":[],"outgoing":[{"transport_id":"17","id":"2006","transport_name":"None Selected","transport_description":null,"transport_unit":"kg km","transport_co2_eq":"0.000000","from_stop_id":"4266","from_stop_lat":"21.00789","from_stop_lon":"-10.940835","from_stop_placename":"Mauritania","to_stop_id":"1610","to_stop_name":"origin","to_stop_lat":"50.224697","to_stop_lon":"-5.076523","to_stop_placename":"Truro, Feock, Cornwall TR3 6, UK","to_stop":{"id":"1610","name":"origin","lat":"50.224697","lon":"-5.076523","placename":"Truro, Feock, Cornwall TR3 6, UK"},"from_stop":{"name":"origin","id":"4266","lat":"21.00789","lon":"-10.940835","placename":"Mauritania"}}]}}},"processes":[],"eols":[]}],"user":{"name":"TeHGabwin","id":"10883"}}}