{"4262":{"oid":"4262","type":"object","flag":"","creator":"10918","name":"Nikon AF-S DX Nikkor","upc":"","imagelink":"","description":"","slug":"nikon-d3000","category":"","weight":"0","emissions":"0","embodied":"0","transport":"0","process":"0","endoflife":"0","shipping":"54665.29","lifetime":null,"usagetype":"","usageenergy":null,"usageemissions":null,"timecreated":"2010-10-15 07:06:12.684932","timemodified":"2010-10-17 15:57:01","visibility":"public","showfootprint":"on","showembodied":"on","showtransport":"on","showprocess":"on","showendoflife":"on","showlastleg":"on","showuse":"on","showstats":"on","stops":{"origin":{"related_to":"4262","part_or_object":"o","notes":"","placename":"1175 Lijnden, Nizozemsko","id":"1930","category":"1","lat":"52.3534363","lon":"4.7589546","name":"origin","hops":{"incoming":[{"transport_id":"17","id":"1636","transport_name":"None Selected","transport_description":null,"transport_unit":"kg km","transport_co2_eq":"0.000000","from_stop_id":"3896","from_stop_lat":"14.330435","from_stop_lon":"100.5296115","to_stop_id":"1930","to_stop_name":"origin","to_stop_lat":"52.3534363","placename":"Phra Nakhon Si Ayutthaya, Thajsko","to_stop_lon":"4.7589546","to_stop":{"id":"1930","name":"origin","lat":"52.3534363","placename":"1175 Lijnden, Nizozemsko","lon":"4.7589546"},"from_stop":{"name":"origin","id":"3896","lat":"14.330435","lon":"100.5296115","placename":"Phra Nakhon Si Ayutthaya, Thajsko"}},{"transport_id":"17","id":"1637","transport_name":"None Selected","transport_description":null,"transport_unit":"kg km","transport_co2_eq":"0.000000","from_stop_id":"3897","from_stop_lat":"14.330435","from_stop_lon":"100.5296115","to_stop_id":"1930","to_stop_name":"origin","to_stop_lat":"52.3534363","placename":"Phra Nakhon Si Ayutthaya, Thajsko","to_stop_lon":"4.7589546","to_stop":{"id":"1930","name":"origin","lat":"52.3534363","placename":"1175 Lijnden, Nizozemsko","lon":"4.7589546"},"from_stop":{"name":"origin","id":"3897","lat":"14.330435","lon":"100.5296115","placename":"Phra Nakhon Si Ayutthaya, Thajsko"}},{"transport_id":"17","id":"1638","transport_name":"None Selected","transport_description":null,"transport_unit":"kg km","transport_co2_eq":"0.000000","from_stop_id":"3898","from_stop_lat":"35.1814464","from_stop_lon":"136.906398","to_stop_id":"1930","to_stop_name":"origin","to_stop_lat":"52.3534363","placename":"Nagoja, Ai\u00c4\u008di, Japonsko","to_stop_lon":"4.7589546","to_stop":{"id":"1930","name":"origin","lat":"52.3534363","placename":"1175 Lijnden, Nizozemsko","lon":"4.7589546"},"from_stop":{"name":"origin","id":"3898","lat":"35.1814464","lon":"136.906398","placename":"Nagoja, Ai\u00c4\u008di, Japonsko"}},{"transport_id":"17","id":"1639","transport_name":"None Selected","transport_description":null,"transport_unit":"kg km","transport_co2_eq":"0.000000","from_stop_id":"3899","from_stop_lat":"31.566148","from_stop_lon":"120.303027","to_stop_id":"1930","to_stop_name":"origin","to_stop_lat":"52.3534363","placename":"Wuxi, \u00c5\u00a4iang-su, \u00c4\u008c\u00c3\u00adna","to_stop_lon":"4.7589546","to_stop":{"id":"1930","name":"origin","lat":"52.3534363","placename":"1175 Lijnden, Nizozemsko","lon":"4.7589546"},"from_stop":{"name":"origin","id":"3899","lat":"31.566148","lon":"120.303027","placename":"Wuxi, \u00c5\u00a4iang-su, \u00c4\u008c\u00c3\u00adna"}},{"transport_id":"17","id":"1640","transport_name":"None Selected","transport_description":null,"transport_unit":"kg km","transport_co2_eq":"0.000000","from_stop_id":"3900","from_stop_lat":"35.907757","from_stop_lon":"127.766922","to_stop_id":"1930","to_stop_name":"origin","to_stop_lat":"52.3534363","placename":"Korejsk\u00c3\u00a1 republika","to_stop_lon":"4.7589546","to_stop":{"id":"1930","name":"origin","lat":"52.3534363","placename":"1175 Lijnden, Nizozemsko","lon":"4.7589546"},"from_stop":{"name":"origin","id":"3900","lat":"35.907757","lon":"127.766922","placename":"Korejsk\u00c3\u00a1 republika"}},{"transport_id":"17","id":"1641","transport_name":"None Selected","transport_description":null,"transport_unit":"kg km","transport_co2_eq":"0.000000","from_stop_id":"3901","from_stop_lat":"23.69781","from_stop_lon":"120.960515","to_stop_id":"1930","to_stop_name":"origin","to_stop_lat":"52.3534363","placename":"Tchaj-wan","to_stop_lon":"4.7589546","to_stop":{"id":"1930","name":"origin","lat":"52.3534363","placename":"1175 Lijnden, Nizozemsko","lon":"4.7589546"},"from_stop":{"name":"origin","id":"3901","lat":"23.69781","lon":"120.960515","placename":"Tchaj-wan"}}],"outgoing":[]}}},"parts":[{"oid":"4262","imid":"4458","linkid":"","weight":"0","rawemissions":"0","emissions":"0","shipping":"9145.55","processemissions":"0","endoflifeemissions":"0","disposaltype":null,"disposalenergy":null,"disposalimpact":null,"disposalemissions":null,"description":"","name":"Fotoaparat Nikon D3000 ","id":"4458","stops":{"origin":{"related_to":"4458","part_or_object":"p","notes":"","placename":"Phra Nakhon Si Ayutthaya, Thajsko","id":3896,"name":"origin","lat":"14.330435","lon":"100.5296115","hops":{"incoming":[],"outgoing":[{"transport_id":"17","id":"1636","transport_name":"None Selected","transport_description":null,"transport_unit":"kg km","transport_co2_eq":"0.000000","from_stop_id":"3896","from_stop_lat":"14.330435","from_stop_lon":"100.5296115","from_stop_placename":"Phra Nakhon Si Ayutthaya, Thajsko","to_stop_id":"1930","to_stop_name":"origin","to_stop_lat":"52.3534363","to_stop_lon":"4.7589546","to_stop_placename":"1175 Lijnden, Nizozemsko","to_stop":{"id":"1930","name":"origin","lat":"52.3534363","lon":"4.7589546","placename":"1175 Lijnden, Nizozemsko"},"from_stop":{"name":"origin","id":"3896","lat":"14.330435","lon":"100.5296115","placename":"Phra Nakhon Si Ayutthaya, Thajsko"}}]}}},"processes":[],"eols":[]},{"oid":"4262","imid":"4459","linkid":"","weight":"0","rawemissions":"0","emissions":"0","shipping":"9145.55","processemissions":"0","endoflifeemissions":"0","disposaltype":null,"disposalenergy":null,"disposalimpact":null,"disposalemissions":null,"description":"","name":"objektiv NIKON LAUNCHES AF-S DX NIKKOR","id":"4459","stops":{"origin":{"related_to":"4459","part_or_object":"p","notes":"","placename":"Phra Nakhon Si Ayutthaya, Thajsko","id":3897,"name":"origin","lat":"14.330435","lon":"100.5296115","hops":{"incoming":[],"outgoing":[{"transport_id":"17","id":"1637","transport_name":"None Selected","transport_description":null,"transport_unit":"kg km","transport_co2_eq":"0.000000","from_stop_id":"3897","from_stop_lat":"14.330435","from_stop_lon":"100.5296115","from_stop_placename":"Phra Nakhon Si Ayutthaya, Thajsko","to_stop_id":"1930","to_stop_name":"origin","to_stop_lat":"52.3534363","to_stop_lon":"4.7589546","to_stop_placename":"1175 Lijnden, Nizozemsko","to_stop":{"id":"1930","name":"origin","lat":"52.3534363","lon":"4.7589546","placename":"1175 Lijnden, Nizozemsko"},"from_stop":{"name":"origin","id":"3897","lat":"14.330435","lon":"100.5296115","placename":"Phra Nakhon Si Ayutthaya, Thajsko"}}]}}},"processes":[],"eols":[]},{"oid":"4262","imid":"4460","linkid":"","weight":"0","rawemissions":"0","emissions":"0","shipping":"9243.75","processemissions":"0","endoflifeemissions":"0","disposaltype":null,"disposalenergy":null,"disposalimpact":null,"disposalemissions":null,"description":"","name":"Lithium Ion Baterie","id":"4460","stops":{"origin":{"related_to":"4460","part_or_object":"p","notes":"","placename":"Nagoja, Ai\u00c4\u008di, Japonsko","id":3898,"name":"origin","lat":"35.1814464","lon":"136.906398","hops":{"incoming":[],"outgoing":[{"transport_id":"17","id":"1638","transport_name":"None Selected","transport_description":null,"transport_unit":"kg km","transport_co2_eq":"0.000000","from_stop_id":"3898","from_stop_lat":"35.1814464","from_stop_lon":"136.906398","from_stop_placename":"Nagoja, Ai\u00c4\u008di, Japonsko","to_stop_id":"1930","to_stop_name":"origin","to_stop_lat":"52.3534363","to_stop_lon":"4.7589546","to_stop_placename":"1175 Lijnden, Nizozemsko","to_stop":{"id":"1930","name":"origin","lat":"52.3534363","lon":"4.7589546","placename":"1175 Lijnden, Nizozemsko"},"from_stop":{"name":"origin","id":"3898","lat":"35.1814464","lon":"136.906398","placename":"Nagoja, Ai\u00c4\u008di, Japonsko"}}]}}},"processes":[],"eols":[]},{"oid":"4262","imid":"4461","linkid":"","weight":"0","rawemissions":"0","emissions":"0","shipping":"8798.95","processemissions":"0","endoflifeemissions":"0","disposaltype":null,"disposalenergy":null,"disposalimpact":null,"disposalemissions":null,"description":"","name":"Obaly na baterie","id":"4461","stops":{"origin":{"related_to":"4461","part_or_object":"p","notes":"","placename":"Wuxi, \u00c5\u00a4iang-su, \u00c4\u008c\u00c3\u00adna","id":3899,"name":"origin","lat":"31.566148","lon":"120.303027","hops":{"incoming":[],"outgoing":[{"transport_id":"17","id":"1639","transport_name":"None Selected","transport_description":null,"transport_unit":"kg km","transport_co2_eq":"0.000000","from_stop_id":"3899","from_stop_lat":"31.566148","from_stop_lon":"120.303027","from_stop_placename":"Wuxi, \u00c5\u00a4iang-su, \u00c4\u008c\u00c3\u00adna","to_stop_id":"1930","to_stop_name":"origin","to_stop_lat":"52.3534363","to_stop_lon":"4.7589546","to_stop_placename":"1175 Lijnden, Nizozemsko","to_stop":{"id":"1930","name":"origin","lat":"52.3534363","lon":"4.7589546","placename":"1175 Lijnden, Nizozemsko"},"from_stop":{"name":"origin","id":"3899","lat":"31.566148","lon":"120.303027","placename":"Wuxi, \u00c5\u00a4iang-su, \u00c4\u008c\u00c3\u00adna"}}]}}},"processes":[],"eols":[]},{"oid":"4262","imid":"4462","linkid":"","weight":"0","rawemissions":"0","emissions":"0","shipping":"8767.82","processemissions":"0","endoflifeemissions":"0","disposaltype":null,"disposalenergy":null,"disposalimpact":null,"disposalemissions":null,"description":"","name":"UV filtr - Matin Inernational Co,","id":"4462","stops":{"origin":{"related_to":"4462","part_or_object":"p","notes":"","placename":"Korejsk\u00c3\u00a1 republika","id":3900,"name":"origin","lat":"35.907757","lon":"127.766922","hops":{"incoming":[],"outgoing":[{"transport_id":"17","id":"1640","transport_name":"None Selected","transport_description":null,"transport_unit":"kg km","transport_co2_eq":"0.000000","from_stop_id":"3900","from_stop_lat":"35.907757","from_stop_lon":"127.766922","from_stop_placename":"Korejsk\u00c3\u00a1 republika","to_stop_id":"1930","to_stop_name":"origin","to_stop_lat":"52.3534363","to_stop_lon":"4.7589546","to_stop_placename":"1175 Lijnden, Nizozemsko","to_stop":{"id":"1930","name":"origin","lat":"52.3534363","lon":"4.7589546","placename":"1175 Lijnden, Nizozemsko"},"from_stop":{"name":"origin","id":"3900","lat":"35.907757","lon":"127.766922","placename":"Korejsk\u00c3\u00a1 republika"}}]}}},"processes":[],"eols":[]},{"oid":"4262","imid":"4463","linkid":"","weight":"0","rawemissions":"0","emissions":"0","shipping":"9563.67","processemissions":"0","endoflifeemissions":"0","disposaltype":null,"disposalenergy":null,"disposalimpact":null,"disposalemissions":null,"description":"","name":"Pametova karta","id":"4463","stops":{"origin":{"related_to":"4463","part_or_object":"p","notes":"","placename":"Tchaj-wan","id":3901,"name":"origin","lat":"23.69781","lon":"120.960515","hops":{"incoming":[],"outgoing":[{"transport_id":"17","id":"1641","transport_name":"None Selected","transport_description":null,"transport_unit":"kg km","transport_co2_eq":"0.000000","from_stop_id":"3901","from_stop_lat":"23.69781","from_stop_lon":"120.960515","from_stop_placename":"Tchaj-wan","to_stop_id":"1930","to_stop_name":"origin","to_stop_lat":"52.3534363","to_stop_lon":"4.7589546","to_stop_placename":"1175 Lijnden, Nizozemsko","to_stop":{"id":"1930","name":"origin","lat":"52.3534363","lon":"4.7589546","placename":"1175 Lijnden, Nizozemsko"},"from_stop":{"name":"origin","id":"3901","lat":"23.69781","lon":"120.960515","placename":"Tchaj-wan"}}]}}},"processes":[],"eols":[]}],"user":{"name":"Globalizace","id":"10918"}}}