{"4292":{"oid":"4292","type":"food","flag":"","creator":"10857","name":"Billa","upc":"","imagelink":"","description":"","slug":"billa","category":"","weight":"0","emissions":"0","embodied":"0","transport":"0","process":"0","endoflife":"0","shipping":"18503.29","lifetime":null,"usagetype":"","usageenergy":null,"usageemissions":null,"timecreated":"2010-10-25 09:51:01.702366","timemodified":"2010-10-25 14:09:38","visibility":"public","showfootprint":"on","showembodied":"on","showtransport":"on","showprocess":"on","showendoflife":"on","showlastleg":"on","showuse":"on","showstats":"on","stops":{"origin":{"related_to":"4292","part_or_object":"o","notes":"","placename":"\u00c5\u0098\u00c3\u00ad\u00c4\u008dany, \u00c4\u008cesk\u00c3\u00a1 republika","id":"2020","category":"1","lat":"49.9916878","lon":"14.6528187","name":"origin","hops":{"incoming":[{"transport_id":"17","id":"3902","transport_name":"None Selected","transport_description":null,"transport_unit":"kg km","transport_co2_eq":"0.000000","from_stop_id":"6162","from_stop_lat":"49.817492","from_stop_lon":"15.472962","to_stop_id":"2020","to_stop_name":"origin","to_stop_lat":"49.9916878","placename":"\u00c4\u008cesk\u00c3\u00a1 republika","to_stop_lon":"14.6528187","to_stop":{"id":"2020","name":"origin","lat":"49.9916878","placename":"\u00c5\u0098\u00c3\u00ad\u00c4\u008dany, \u00c4\u008cesk\u00c3\u00a1 republika","lon":"14.6528187"},"from_stop":{"name":"origin","id":"6162","lat":"49.817492","lon":"15.472962","placename":"\u00c4\u008cesk\u00c3\u00a1 republika"}},{"transport_id":"17","id":"3903","transport_name":"None Selected","transport_description":null,"transport_unit":"kg km","transport_co2_eq":"0.000000","from_stop_id":"6163","from_stop_lat":"51.165691","from_stop_lon":"10.451526","to_stop_id":"2020","to_stop_name":"origin","to_stop_lat":"49.9916878","placename":"N\u00c4\u009bmecko","to_stop_lon":"14.6528187","to_stop":{"id":"2020","name":"origin","lat":"49.9916878","placename":"\u00c5\u0098\u00c3\u00ad\u00c4\u008dany, \u00c4\u008cesk\u00c3\u00a1 republika","lon":"14.6528187"},"from_stop":{"name":"origin","id":"6163","lat":"51.165691","lon":"10.451526","placename":"N\u00c4\u009bmecko"}},{"transport_id":"17","id":"3904","transport_name":"None Selected","transport_description":null,"transport_unit":"kg km","transport_co2_eq":"0.000000","from_stop_id":"6164","from_stop_lat":"51.165691","from_stop_lon":"10.451526","to_stop_id":"2020","to_stop_name":"origin","to_stop_lat":"49.9916878","placename":"N\u00c4\u009bmecko","to_stop_lon":"14.6528187","to_stop":{"id":"2020","name":"origin","lat":"49.9916878","placename":"\u00c5\u0098\u00c3\u00ad\u00c4\u008dany, \u00c4\u008cesk\u00c3\u00a1 republika","lon":"14.6528187"},"from_stop":{"name":"origin","id":"6164","lat":"51.165691","lon":"10.451526","placename":"N\u00c4\u009bmecko"}},{"transport_id":"17","id":"3905","transport_name":"None Selected","transport_description":null,"transport_unit":"kg km","transport_co2_eq":"0.000000","from_stop_id":"6165","from_stop_lat":"51.919438","from_stop_lon":"19.145136","to_stop_id":"2020","to_stop_name":"origin","to_stop_lat":"49.9916878","placename":"Polsko","to_stop_lon":"14.6528187","to_stop":{"id":"2020","name":"origin","lat":"49.9916878","placename":"\u00c5\u0098\u00c3\u00ad\u00c4\u008dany, \u00c4\u008cesk\u00c3\u00a1 republika","lon":"14.6528187"},"from_stop":{"name":"origin","id":"6165","lat":"51.919438","lon":"19.145136","placename":"Polsko"}},{"transport_id":"17","id":"3906","transport_name":"None Selected","transport_description":null,"transport_unit":"kg km","transport_co2_eq":"0.000000","from_stop_id":"6166","from_stop_lat":"26.820553","from_stop_lon":"30.802498","to_stop_id":"2020","to_stop_name":"origin","to_stop_lat":"49.9916878","placename":"Egypt","to_stop_lon":"14.6528187","to_stop":{"id":"2020","name":"origin","lat":"49.9916878","placename":"\u00c5\u0098\u00c3\u00ad\u00c4\u008dany, \u00c4\u008cesk\u00c3\u00a1 republika","lon":"14.6528187"},"from_stop":{"name":"origin","id":"6166","lat":"26.820553","lon":"30.802498","placename":"Egypt"}},{"transport_id":"17","id":"3907","transport_name":"None Selected","transport_description":null,"transport_unit":"kg km","transport_co2_eq":"0.000000","from_stop_id":"6167","from_stop_lat":"51.165691","from_stop_lon":"10.451526","to_stop_id":"2020","to_stop_name":"origin","to_stop_lat":"49.9916878","placename":"N\u00c4\u009bmecko","to_stop_lon":"14.6528187","to_stop":{"id":"2020","name":"origin","lat":"49.9916878","placename":"\u00c5\u0098\u00c3\u00ad\u00c4\u008dany, \u00c4\u008cesk\u00c3\u00a1 republika","lon":"14.6528187"},"from_stop":{"name":"origin","id":"6167","lat":"51.165691","lon":"10.451526","placename":"N\u00c4\u009bmecko"}},{"transport_id":"17","id":"3908","transport_name":"None Selected","transport_description":null,"transport_unit":"kg km","transport_co2_eq":"0.000000","from_stop_id":"6168","from_stop_lat":"49.817492","from_stop_lon":"15.472962","to_stop_id":"2020","to_stop_name":"origin","to_stop_lat":"49.9916878","placename":"\u00c4\u008cesk\u00c3\u00a1 republika","to_stop_lon":"14.6528187","to_stop":{"id":"2020","name":"origin","lat":"49.9916878","placename":"\u00c5\u0098\u00c3\u00ad\u00c4\u008dany, \u00c4\u008cesk\u00c3\u00a1 republika","lon":"14.6528187"},"from_stop":{"name":"origin","id":"6168","lat":"49.817492","lon":"15.472962","placename":"\u00c4\u008cesk\u00c3\u00a1 republika"}},{"transport_id":"17","id":"3909","transport_name":"None Selected","transport_description":null,"transport_unit":"kg km","transport_co2_eq":"0.000000","from_stop_id":"6169","from_stop_lat":"14.058324","from_stop_lon":"108.277199","to_stop_id":"2020","to_stop_name":"origin","to_stop_lat":"49.9916878","placename":"Vietnam","to_stop_lon":"14.6528187","to_stop":{"id":"2020","name":"origin","lat":"49.9916878","placename":"\u00c5\u0098\u00c3\u00ad\u00c4\u008dany, \u00c4\u008cesk\u00c3\u00a1 republika","lon":"14.6528187"},"from_stop":{"name":"origin","id":"6169","lat":"14.058324","lon":"108.277199","placename":"Vietnam"}},{"transport_id":"17","id":"3910","transport_name":"None Selected","transport_description":null,"transport_unit":"kg km","transport_co2_eq":"0.000000","from_stop_id":"6170","from_stop_lat":"38.963745","from_stop_lon":"35.243322","to_stop_id":"2020","to_stop_name":"origin","to_stop_lat":"49.9916878","placename":"Turecko","to_stop_lon":"14.6528187","to_stop":{"id":"2020","name":"origin","lat":"49.9916878","placename":"\u00c5\u0098\u00c3\u00ad\u00c4\u008dany, \u00c4\u008cesk\u00c3\u00a1 republika","lon":"14.6528187"},"from_stop":{"name":"origin","id":"6170","lat":"38.963745","lon":"35.243322","placename":"Turecko"}},{"transport_id":"17","id":"3911","transport_name":"None Selected","transport_description":null,"transport_unit":"kg km","transport_co2_eq":"0.000000","from_stop_id":"6171","from_stop_lat":"51.165691","from_stop_lon":"10.451526","to_stop_id":"2020","to_stop_name":"origin","to_stop_lat":"49.9916878","placename":"N\u00c4\u009bmecko","to_stop_lon":"14.6528187","to_stop":{"id":"2020","name":"origin","lat":"49.9916878","placename":"\u00c5\u0098\u00c3\u00ad\u00c4\u008dany, \u00c4\u008cesk\u00c3\u00a1 republika","lon":"14.6528187"},"from_stop":{"name":"origin","id":"6171","lat":"51.165691","lon":"10.451526","placename":"N\u00c4\u009bmecko"}},{"transport_id":"17","id":"3912","transport_name":"None Selected","transport_description":null,"transport_unit":"kg km","transport_co2_eq":"0.000000","from_stop_id":"6172","from_stop_lat":"49.817492","from_stop_lon":"15.472962","to_stop_id":"2020","to_stop_name":"origin","to_stop_lat":"49.9916878","placename":"\u00c4\u008cesk\u00c3\u00a1 republika","to_stop_lon":"14.6528187","to_stop":{"id":"2020","name":"origin","lat":"49.9916878","placename":"\u00c5\u0098\u00c3\u00ad\u00c4\u008dany, \u00c4\u008cesk\u00c3\u00a1 republika","lon":"14.6528187"},"from_stop":{"name":"origin","id":"6172","lat":"49.817492","lon":"15.472962","placename":"\u00c4\u008cesk\u00c3\u00a1 republika"}},{"transport_id":"17","id":"3913","transport_name":"None Selected","transport_description":null,"transport_unit":"kg km","transport_co2_eq":"0.000000","from_stop_id":"6173","from_stop_lat":"49.817492","from_stop_lon":"15.472962","to_stop_id":"2020","to_stop_name":"origin","to_stop_lat":"49.9916878","placename":"\u00c4\u008cesk\u00c3\u00a1 republika","to_stop_lon":"14.6528187","to_stop":{"id":"2020","name":"origin","lat":"49.9916878","placename":"\u00c5\u0098\u00c3\u00ad\u00c4\u008dany, \u00c4\u008cesk\u00c3\u00a1 republika","lon":"14.6528187"},"from_stop":{"name":"origin","id":"6173","lat":"49.817492","lon":"15.472962","placename":"\u00c4\u008cesk\u00c3\u00a1 republika"}},{"transport_id":"17","id":"3914","transport_name":"None Selected","transport_description":null,"transport_unit":"kg km","transport_co2_eq":"0.000000","from_stop_id":"6174","from_stop_lat":"49.817492","from_stop_lon":"15.472962","to_stop_id":"2020","to_stop_name":"origin","to_stop_lat":"49.9916878","placename":"\u00c4\u008cesk\u00c3\u00a1 republika","to_stop_lon":"14.6528187","to_stop":{"id":"2020","name":"origin","lat":"49.9916878","placename":"\u00c5\u0098\u00c3\u00ad\u00c4\u008dany, \u00c4\u008cesk\u00c3\u00a1 republika","lon":"14.6528187"},"from_stop":{"name":"origin","id":"6174","lat":"49.817492","lon":"15.472962","placename":"\u00c4\u008cesk\u00c3\u00a1 republika"}},{"transport_id":"17","id":"3915","transport_name":"None Selected","transport_description":null,"transport_unit":"kg km","transport_co2_eq":"0.000000","from_stop_id":"6175","from_stop_lat":"49.817492","from_stop_lon":"15.472962","to_stop_id":"2020","to_stop_name":"origin","to_stop_lat":"49.9916878","placename":"\u00c4\u008cesk\u00c3\u00a1 republika","to_stop_lon":"14.6528187","to_stop":{"id":"2020","name":"origin","lat":"49.9916878","placename":"\u00c5\u0098\u00c3\u00ad\u00c4\u008dany, \u00c4\u008cesk\u00c3\u00a1 republika","lon":"14.6528187"},"from_stop":{"name":"origin","id":"6175","lat":"49.817492","lon":"15.472962","placename":"\u00c4\u008cesk\u00c3\u00a1 republika"}},{"transport_id":"17","id":"3916","transport_name":"None Selected","transport_description":null,"transport_unit":"kg km","transport_co2_eq":"0.000000","from_stop_id":"6176","from_stop_lat":"38.963745","from_stop_lon":"35.243322","to_stop_id":"2020","to_stop_name":"origin","to_stop_lat":"49.9916878","placename":"Turecko","to_stop_lon":"14.6528187","to_stop":{"id":"2020","name":"origin","lat":"49.9916878","placename":"\u00c5\u0098\u00c3\u00ad\u00c4\u008dany, \u00c4\u008cesk\u00c3\u00a1 republika","lon":"14.6528187"},"from_stop":{"name":"origin","id":"6176","lat":"38.963745","lon":"35.243322","placename":"Turecko"}},{"transport_id":"17","id":"3917","transport_name":"None Selected","transport_description":null,"transport_unit":"kg km","transport_co2_eq":"0.000000","from_stop_id":"6177","from_stop_lat":"51.919438","from_stop_lon":"19.145136","to_stop_id":"2020","to_stop_name":"origin","to_stop_lat":"49.9916878","placename":"Polsko","to_stop_lon":"14.6528187","to_stop":{"id":"2020","name":"origin","lat":"49.9916878","placename":"\u00c5\u0098\u00c3\u00ad\u00c4\u008dany, \u00c4\u008cesk\u00c3\u00a1 republika","lon":"14.6528187"},"from_stop":{"name":"origin","id":"6177","lat":"51.919438","lon":"19.145136","placename":"Polsko"}}],"outgoing":[]}}},"parts":[{"oid":"4292","imid":"4499","linkid":"","weight":"0","rawemissions":"0","emissions":"0","shipping":"61.92","processemissions":"0","endoflifeemissions":"0","disposaltype":null,"disposalenergy":null,"disposalimpact":null,"disposalemissions":null,"description":"","name":"hovezi maso","id":"4499","stops":{"origin":{"related_to":"4499","part_or_object":"p","notes":"","placename":"\u00c4\u008cesk\u00c3\u00a1 republika","id":6162,"name":"origin","lat":"49.817492","lon":"15.472962","hops":{"incoming":[],"outgoing":[{"transport_id":"17","id":"3902","transport_name":"None Selected","transport_description":null,"transport_unit":"kg km","transport_co2_eq":"0.000000","from_stop_id":"6162","from_stop_lat":"49.817492","from_stop_lon":"15.472962","from_stop_placename":"\u00c4\u008cesk\u00c3\u00a1 republika","to_stop_id":"2020","to_stop_name":"origin","to_stop_lat":"49.9916878","to_stop_lon":"14.6528187","to_stop_placename":"\u00c5\u0098\u00c3\u00ad\u00c4\u008dany, \u00c4\u008cesk\u00c3\u00a1 republika","to_stop":{"id":"2020","name":"origin","lat":"49.9916878","lon":"14.6528187","placename":"\u00c5\u0098\u00c3\u00ad\u00c4\u008dany, \u00c4\u008cesk\u00c3\u00a1 republika"},"from_stop":{"name":"origin","id":"6162","lat":"49.817492","lon":"15.472962","placename":"\u00c4\u008cesk\u00c3\u00a1 republika"}}]}}},"processes":[],"eols":[]},{"oid":"4292","imid":"4500","linkid":"","weight":"0","rawemissions":"0","emissions":"0","shipping":"324.41","processemissions":"0","endoflifeemissions":"0","disposaltype":null,"disposalenergy":null,"disposalimpact":null,"disposalemissions":null,"description":"","name":"petrzel","id":"4500","stops":{"origin":{"related_to":"4500","part_or_object":"p","notes":"","placename":"N\u00c4\u009bmecko","id":6163,"name":"origin","lat":"51.165691","lon":"10.451526","hops":{"incoming":[],"outgoing":[{"transport_id":"17","id":"3903","transport_name":"None Selected","transport_description":null,"transport_unit":"kg km","transport_co2_eq":"0.000000","from_stop_id":"6163","from_stop_lat":"51.165691","from_stop_lon":"10.451526","from_stop_placename":"N\u00c4\u009bmecko","to_stop_id":"2020","to_stop_name":"origin","to_stop_lat":"49.9916878","to_stop_lon":"14.6528187","to_stop_placename":"\u00c5\u0098\u00c3\u00ad\u00c4\u008dany, \u00c4\u008cesk\u00c3\u00a1 republika","to_stop":{"id":"2020","name":"origin","lat":"49.9916878","lon":"14.6528187","placename":"\u00c5\u0098\u00c3\u00ad\u00c4\u008dany, \u00c4\u008cesk\u00c3\u00a1 republika"},"from_stop":{"name":"origin","id":"6163","lat":"51.165691","lon":"10.451526","placename":"N\u00c4\u009bmecko"}}]}}},"processes":[],"eols":[]},{"oid":"4292","imid":"4501","linkid":"","weight":"0","rawemissions":"0","emissions":"0","shipping":"324.41","processemissions":"0","endoflifeemissions":"0","disposaltype":null,"disposalenergy":null,"disposalimpact":null,"disposalemissions":null,"description":"","name":"mrkev","id":"4501","stops":{"origin":{"related_to":"4501","part_or_object":"p","notes":"","placename":"N\u00c4\u009bmecko","id":6164,"name":"origin","lat":"51.165691","lon":"10.451526","hops":{"incoming":[],"outgoing":[{"transport_id":"17","id":"3904","transport_name":"None Selected","transport_description":null,"transport_unit":"kg km","transport_co2_eq":"0.000000","from_stop_id":"6164","from_stop_lat":"51.165691","from_stop_lon":"10.451526","from_stop_placename":"N\u00c4\u009bmecko","to_stop_id":"2020","to_stop_name":"origin","to_stop_lat":"49.9916878","to_stop_lon":"14.6528187","to_stop_placename":"\u00c5\u0098\u00c3\u00ad\u00c4\u008dany, \u00c4\u008cesk\u00c3\u00a1 republika","to_stop":{"id":"2020","name":"origin","lat":"49.9916878","lon":"14.6528187","placename":"\u00c5\u0098\u00c3\u00ad\u00c4\u008dany, \u00c4\u008cesk\u00c3\u00a1 republika"},"from_stop":{"name":"origin","id":"6164","lat":"51.165691","lon":"10.451526","placename":"N\u00c4\u009bmecko"}}]}}},"processes":[],"eols":[]},{"oid":"4292","imid":"4502","linkid":"","weight":"0","rawemissions":"0","emissions":"0","shipping":"381.05","processemissions":"0","endoflifeemissions":"0","disposaltype":null,"disposalenergy":null,"disposalimpact":null,"disposalemissions":null,"description":"","name":"celer ","id":"4502","stops":{"origin":{"related_to":"4502","part_or_object":"p","notes":"","placename":"Polsko","id":6165,"name":"origin","lat":"51.919438","lon":"19.145136","hops":{"incoming":[],"outgoing":[{"transport_id":"17","id":"3905","transport_name":"None Selected","transport_description":null,"transport_unit":"kg km","transport_co2_eq":"0.000000","from_stop_id":"6165","from_stop_lat":"51.919438","from_stop_lon":"19.145136","from_stop_placename":"Polsko","to_stop_id":"2020","to_stop_name":"origin","to_stop_lat":"49.9916878","to_stop_lon":"14.6528187","to_stop_placename":"\u00c5\u0098\u00c3\u00ad\u00c4\u008dany, \u00c4\u008cesk\u00c3\u00a1 republika","to_stop":{"id":"2020","name":"origin","lat":"49.9916878","lon":"14.6528187","placename":"\u00c5\u0098\u00c3\u00ad\u00c4\u008dany, \u00c4\u008cesk\u00c3\u00a1 republika"},"from_stop":{"name":"origin","id":"6165","lat":"51.919438","lon":"19.145136","placename":"Polsko"}}]}}},"processes":[],"eols":[]},{"oid":"4292","imid":"4503","linkid":"","weight":"0","rawemissions":"0","emissions":"0","shipping":"2924.73","processemissions":"0","endoflifeemissions":"0","disposaltype":null,"disposalenergy":null,"disposalimpact":null,"disposalemissions":null,"description":"","name":"cibule","id":"4503","stops":{"origin":{"related_to":"4503","part_or_object":"p","notes":"","placename":"Egypt","id":6166,"name":"origin","lat":"26.820553","lon":"30.802498","hops":{"incoming":[],"outgoing":[{"transport_id":"17","id":"3906","transport_name":"None Selected","transport_description":null,"transport_unit":"kg km","transport_co2_eq":"0.000000","from_stop_id":"6166","from_stop_lat":"26.820553","from_stop_lon":"30.802498","from_stop_placename":"Egypt","to_stop_id":"2020","to_stop_name":"origin","to_stop_lat":"49.9916878","to_stop_lon":"14.6528187","to_stop_placename":"\u00c5\u0098\u00c3\u00ad\u00c4\u008dany, \u00c4\u008cesk\u00c3\u00a1 republika","to_stop":{"id":"2020","name":"origin","lat":"49.9916878","lon":"14.6528187","placename":"\u00c5\u0098\u00c3\u00ad\u00c4\u008dany, \u00c4\u008cesk\u00c3\u00a1 republika"},"from_stop":{"name":"origin","id":"6166","lat":"26.820553","lon":"30.802498","placename":"Egypt"}}]}}},"processes":[],"eols":[]},{"oid":"4292","imid":"4504","linkid":"","weight":"0","rawemissions":"0","emissions":"0","shipping":"324.41","processemissions":"0","endoflifeemissions":"0","disposaltype":null,"disposalenergy":null,"disposalimpact":null,"disposalemissions":null,"description":"","name":"smetana","id":"4504","stops":{"origin":{"related_to":"4504","part_or_object":"p","notes":"","placename":"N\u00c4\u009bmecko","id":6167,"name":"origin","lat":"51.165691","lon":"10.451526","hops":{"incoming":[],"outgoing":[{"transport_id":"17","id":"3907","transport_name":"None Selected","transport_description":null,"transport_unit":"kg km","transport_co2_eq":"0.000000","from_stop_id":"6167","from_stop_lat":"51.165691","from_stop_lon":"10.451526","from_stop_placename":"N\u00c4\u009bmecko","to_stop_id":"2020","to_stop_name":"origin","to_stop_lat":"49.9916878","to_stop_lon":"14.6528187","to_stop_placename":"\u00c5\u0098\u00c3\u00ad\u00c4\u008dany, \u00c4\u008cesk\u00c3\u00a1 republika","to_stop":{"id":"2020","name":"origin","lat":"49.9916878","lon":"14.6528187","placename":"\u00c5\u0098\u00c3\u00ad\u00c4\u008dany, \u00c4\u008cesk\u00c3\u00a1 republika"},"from_stop":{"name":"origin","id":"6167","lat":"51.165691","lon":"10.451526","placename":"N\u00c4\u009bmecko"}}]}}},"processes":[],"eols":[]},{"oid":"4292","imid":"4505","linkid":"","weight":"0","rawemissions":"0","emissions":"0","shipping":"61.92","processemissions":"0","endoflifeemissions":"0","disposaltype":null,"disposalenergy":null,"disposalimpact":null,"disposalemissions":null,"description":"","name":"slanina","id":"4505","stops":{"origin":{"related_to":"4505","part_or_object":"p","notes":"","placename":"\u00c4\u008cesk\u00c3\u00a1 republika","id":6168,"name":"origin","lat":"49.817492","lon":"15.472962","hops":{"incoming":[],"outgoing":[{"transport_id":"17","id":"3908","transport_name":"None Selected","transport_description":null,"transport_unit":"kg km","transport_co2_eq":"0.000000","from_stop_id":"6168","from_stop_lat":"49.817492","from_stop_lon":"15.472962","from_stop_placename":"\u00c4\u008cesk\u00c3\u00a1 republika","to_stop_id":"2020","to_stop_name":"origin","to_stop_lat":"49.9916878","to_stop_lon":"14.6528187","to_stop_placename":"\u00c5\u0098\u00c3\u00ad\u00c4\u008dany, \u00c4\u008cesk\u00c3\u00a1 republika","to_stop":{"id":"2020","name":"origin","lat":"49.9916878","lon":"14.6528187","placename":"\u00c5\u0098\u00c3\u00ad\u00c4\u008dany, \u00c4\u008cesk\u00c3\u00a1 republika"},"from_stop":{"name":"origin","id":"6168","lat":"49.817492","lon":"15.472962","placename":"\u00c4\u008cesk\u00c3\u00a1 republika"}}]}}},"processes":[],"eols":[]},{"oid":"4292","imid":"4506","linkid":"","weight":"0","rawemissions":"0","emissions":"0","shipping":"9080.12","processemissions":"0","endoflifeemissions":"0","disposaltype":null,"disposalenergy":null,"disposalimpact":null,"disposalemissions":null,"description":"","name":"pepr","id":"4506","stops":{"origin":{"related_to":"4506","part_or_object":"p","notes":"","placename":"Vietnam","id":6169,"name":"origin","lat":"14.058324","lon":"108.277199","hops":{"incoming":[],"outgoing":[{"transport_id":"17","id":"3909","transport_name":"None Selected","transport_description":null,"transport_unit":"kg km","transport_co2_eq":"0.000000","from_stop_id":"6169","from_stop_lat":"14.058324","from_stop_lon":"108.277199","from_stop_placename":"Vietnam","to_stop_id":"2020","to_stop_name":"origin","to_stop_lat":"49.9916878","to_stop_lon":"14.6528187","to_stop_placename":"\u00c5\u0098\u00c3\u00ad\u00c4\u008dany, \u00c4\u008cesk\u00c3\u00a1 republika","to_stop":{"id":"2020","name":"origin","lat":"49.9916878","lon":"14.6528187","placename":"\u00c5\u0098\u00c3\u00ad\u00c4\u008dany, \u00c4\u008cesk\u00c3\u00a1 republika"},"from_stop":{"name":"origin","id":"6169","lat":"14.058324","lon":"108.277199","placename":"Vietnam"}}]}}},"processes":[],"eols":[]},{"oid":"4292","imid":"4507","linkid":"","weight":"0","rawemissions":"0","emissions":"0","shipping":"2033.59","processemissions":"0","endoflifeemissions":"0","disposaltype":null,"disposalenergy":null,"disposalimpact":null,"disposalemissions":null,"description":"","name":"bobkovy list","id":"4507","stops":{"origin":{"related_to":"4507","part_or_object":"p","notes":"","placename":"Turecko","id":6170,"name":"origin","lat":"38.963745","lon":"35.243322","hops":{"incoming":[],"outgoing":[{"transport_id":"17","id":"3910","transport_name":"None Selected","transport_description":null,"transport_unit":"kg km","transport_co2_eq":"0.000000","from_stop_id":"6170","from_stop_lat":"38.963745","from_stop_lon":"35.243322","from_stop_placename":"Turecko","to_stop_id":"2020","to_stop_name":"origin","to_stop_lat":"49.9916878","to_stop_lon":"14.6528187","to_stop_placename":"\u00c5\u0098\u00c3\u00ad\u00c4\u008dany, \u00c4\u008cesk\u00c3\u00a1 republika","to_stop":{"id":"2020","name":"origin","lat":"49.9916878","lon":"14.6528187","placename":"\u00c5\u0098\u00c3\u00ad\u00c4\u008dany, \u00c4\u008cesk\u00c3\u00a1 republika"},"from_stop":{"name":"origin","id":"6170","lat":"38.963745","lon":"35.243322","placename":"Turecko"}}]}}},"processes":[],"eols":[]},{"oid":"4292","imid":"4508","linkid":"","weight":"0","rawemissions":"0","emissions":"0","shipping":"324.41","processemissions":"0","endoflifeemissions":"0","disposaltype":null,"disposalenergy":null,"disposalimpact":null,"disposalemissions":null,"description":"","name":"tymian","id":"4508","stops":{"origin":{"related_to":"4508","part_or_object":"p","notes":"","placename":"N\u00c4\u009bmecko","id":6171,"name":"origin","lat":"51.165691","lon":"10.451526","hops":{"incoming":[],"outgoing":[{"transport_id":"17","id":"3911","transport_name":"None Selected","transport_description":null,"transport_unit":"kg km","transport_co2_eq":"0.000000","from_stop_id":"6171","from_stop_lat":"51.165691","from_stop_lon":"10.451526","from_stop_placename":"N\u00c4\u009bmecko","to_stop_id":"2020","to_stop_name":"origin","to_stop_lat":"49.9916878","to_stop_lon":"14.6528187","to_stop_placename":"\u00c5\u0098\u00c3\u00ad\u00c4\u008dany, \u00c4\u008cesk\u00c3\u00a1 republika","to_stop":{"id":"2020","name":"origin","lat":"49.9916878","lon":"14.6528187","placename":"\u00c5\u0098\u00c3\u00ad\u00c4\u008dany, \u00c4\u008cesk\u00c3\u00a1 republika"},"from_stop":{"name":"origin","id":"6171","lat":"51.165691","lon":"10.451526","placename":"N\u00c4\u009bmecko"}}]}}},"processes":[],"eols":[]},{"oid":"4292","imid":"4509","linkid":"","weight":"0","rawemissions":"0","emissions":"0","shipping":"61.92","processemissions":"0","endoflifeemissions":"0","disposaltype":null,"disposalenergy":null,"disposalimpact":null,"disposalemissions":null,"description":"","name":"sul","id":"4509","stops":{"origin":{"related_to":"4509","part_or_object":"p","notes":"","placename":"\u00c4\u008cesk\u00c3\u00a1 republika","id":6172,"name":"origin","lat":"49.817492","lon":"15.472962","hops":{"incoming":[],"outgoing":[{"transport_id":"17","id":"3912","transport_name":"None Selected","transport_description":null,"transport_unit":"kg km","transport_co2_eq":"0.000000","from_stop_id":"6172","from_stop_lat":"49.817492","from_stop_lon":"15.472962","from_stop_placename":"\u00c4\u008cesk\u00c3\u00a1 republika","to_stop_id":"2020","to_stop_name":"origin","to_stop_lat":"49.9916878","to_stop_lon":"14.6528187","to_stop_placename":"\u00c5\u0098\u00c3\u00ad\u00c4\u008dany, \u00c4\u008cesk\u00c3\u00a1 republika","to_stop":{"id":"2020","name":"origin","lat":"49.9916878","lon":"14.6528187","placename":"\u00c5\u0098\u00c3\u00ad\u00c4\u008dany, \u00c4\u008cesk\u00c3\u00a1 republika"},"from_stop":{"name":"origin","id":"6172","lat":"49.817492","lon":"15.472962","placename":"\u00c4\u008cesk\u00c3\u00a1 republika"}}]}}},"processes":[],"eols":[]},{"oid":"4292","imid":"4510","linkid":"","weight":"0","rawemissions":"0","emissions":"0","shipping":"61.92","processemissions":"0","endoflifeemissions":"0","disposaltype":null,"disposalenergy":null,"disposalimpact":null,"disposalemissions":null,"description":"","name":"hladka mouka","id":"4510","stops":{"origin":{"related_to":"4510","part_or_object":"p","notes":"","placename":"\u00c4\u008cesk\u00c3\u00a1 republika","id":6173,"name":"origin","lat":"49.817492","lon":"15.472962","hops":{"incoming":[],"outgoing":[{"transport_id":"17","id":"3913","transport_name":"None Selected","transport_description":null,"transport_unit":"kg km","transport_co2_eq":"0.000000","from_stop_id":"6173","from_stop_lat":"49.817492","from_stop_lon":"15.472962","from_stop_placename":"\u00c4\u008cesk\u00c3\u00a1 republika","to_stop_id":"2020","to_stop_name":"origin","to_stop_lat":"49.9916878","to_stop_lon":"14.6528187","to_stop_placename":"\u00c5\u0098\u00c3\u00ad\u00c4\u008dany, \u00c4\u008cesk\u00c3\u00a1 republika","to_stop":{"id":"2020","name":"origin","lat":"49.9916878","lon":"14.6528187","placename":"\u00c5\u0098\u00c3\u00ad\u00c4\u008dany, \u00c4\u008cesk\u00c3\u00a1 republika"},"from_stop":{"name":"origin","id":"6173","lat":"49.817492","lon":"15.472962","placename":"\u00c4\u008cesk\u00c3\u00a1 republika"}}]}}},"processes":[],"eols":[]},{"oid":"4292","imid":"4511","linkid":"","weight":"0","rawemissions":"0","emissions":"0","shipping":"61.92","processemissions":"0","endoflifeemissions":"0","disposaltype":null,"disposalenergy":null,"disposalimpact":null,"disposalemissions":null,"description":"","name":"houskovy knedlik","id":"4511","stops":{"origin":{"related_to":"4511","part_or_object":"p","notes":"","placename":"\u00c4\u008cesk\u00c3\u00a1 republika","id":6174,"name":"origin","lat":"49.817492","lon":"15.472962","hops":{"incoming":[],"outgoing":[{"transport_id":"17","id":"3914","transport_name":"None Selected","transport_description":null,"transport_unit":"kg km","transport_co2_eq":"0.000000","from_stop_id":"6174","from_stop_lat":"49.817492","from_stop_lon":"15.472962","from_stop_placename":"\u00c4\u008cesk\u00c3\u00a1 republika","to_stop_id":"2020","to_stop_name":"origin","to_stop_lat":"49.9916878","to_stop_lon":"14.6528187","to_stop_placename":"\u00c5\u0098\u00c3\u00ad\u00c4\u008dany, \u00c4\u008cesk\u00c3\u00a1 republika","to_stop":{"id":"2020","name":"origin","lat":"49.9916878","lon":"14.6528187","placename":"\u00c5\u0098\u00c3\u00ad\u00c4\u008dany, \u00c4\u008cesk\u00c3\u00a1 republika"},"from_stop":{"name":"origin","id":"6174","lat":"49.817492","lon":"15.472962","placename":"\u00c4\u008cesk\u00c3\u00a1 republika"}}]}}},"processes":[],"eols":[]},{"oid":"4292","imid":"4512","linkid":"","weight":"0","rawemissions":"0","emissions":"0","shipping":"61.92","processemissions":"0","endoflifeemissions":"0","disposaltype":null,"disposalenergy":null,"disposalimpact":null,"disposalemissions":null,"description":"","name":"knedlik z prasku","id":"4512","stops":{"origin":{"related_to":"4512","part_or_object":"p","notes":"","placename":"\u00c4\u008cesk\u00c3\u00a1 republika","id":6175,"name":"origin","lat":"49.817492","lon":"15.472962","hops":{"incoming":[],"outgoing":[{"transport_id":"17","id":"3915","transport_name":"None Selected","transport_description":null,"transport_unit":"kg km","transport_co2_eq":"0.000000","from_stop_id":"6175","from_stop_lat":"49.817492","from_stop_lon":"15.472962","from_stop_placename":"\u00c4\u008cesk\u00c3\u00a1 republika","to_stop_id":"2020","to_stop_name":"origin","to_stop_lat":"49.9916878","to_stop_lon":"14.6528187","to_stop_placename":"\u00c5\u0098\u00c3\u00ad\u00c4\u008dany, \u00c4\u008cesk\u00c3\u00a1 republika","to_stop":{"id":"2020","name":"origin","lat":"49.9916878","lon":"14.6528187","placename":"\u00c5\u0098\u00c3\u00ad\u00c4\u008dany, \u00c4\u008cesk\u00c3\u00a1 republika"},"from_stop":{"name":"origin","id":"6175","lat":"49.817492","lon":"15.472962","placename":"\u00c4\u008cesk\u00c3\u00a1 republika"}}]}}},"processes":[],"eols":[]},{"oid":"4292","imid":"4513","linkid":"","weight":"0","rawemissions":"0","emissions":"0","shipping":"2033.59","processemissions":"0","endoflifeemissions":"0","disposaltype":null,"disposalenergy":null,"disposalimpact":null,"disposalemissions":null,"description":"","name":"citron","id":"4513","stops":{"origin":{"related_to":"4513","part_or_object":"p","notes":"","placename":"Turecko","id":6176,"name":"origin","lat":"38.963745","lon":"35.243322","hops":{"incoming":[],"outgoing":[{"transport_id":"17","id":"3916","transport_name":"None Selected","transport_description":null,"transport_unit":"kg km","transport_co2_eq":"0.000000","from_stop_id":"6176","from_stop_lat":"38.963745","from_stop_lon":"35.243322","from_stop_placename":"Turecko","to_stop_id":"2020","to_stop_name":"origin","to_stop_lat":"49.9916878","to_stop_lon":"14.6528187","to_stop_placename":"\u00c5\u0098\u00c3\u00ad\u00c4\u008dany, \u00c4\u008cesk\u00c3\u00a1 republika","to_stop":{"id":"2020","name":"origin","lat":"49.9916878","lon":"14.6528187","placename":"\u00c5\u0098\u00c3\u00ad\u00c4\u008dany, \u00c4\u008cesk\u00c3\u00a1 republika"},"from_stop":{"name":"origin","id":"6176","lat":"38.963745","lon":"35.243322","placename":"Turecko"}}]}}},"processes":[],"eols":[]},{"oid":"4292","imid":"4514","linkid":"","weight":"0","rawemissions":"0","emissions":"0","shipping":"381.05","processemissions":"0","endoflifeemissions":"0","disposaltype":null,"disposalenergy":null,"disposalimpact":null,"disposalemissions":null,"description":"","name":"brusinky","id":"4514","stops":{"origin":{"related_to":"4514","part_or_object":"p","notes":"","placename":"Polsko","id":6177,"name":"origin","lat":"51.919438","lon":"19.145136","hops":{"incoming":[],"outgoing":[{"transport_id":"17","id":"3917","transport_name":"None Selected","transport_description":null,"transport_unit":"kg km","transport_co2_eq":"0.000000","from_stop_id":"6177","from_stop_lat":"51.919438","from_stop_lon":"19.145136","from_stop_placename":"Polsko","to_stop_id":"2020","to_stop_name":"origin","to_stop_lat":"49.9916878","to_stop_lon":"14.6528187","to_stop_placename":"\u00c5\u0098\u00c3\u00ad\u00c4\u008dany, \u00c4\u008cesk\u00c3\u00a1 republika","to_stop":{"id":"2020","name":"origin","lat":"49.9916878","lon":"14.6528187","placename":"\u00c5\u0098\u00c3\u00ad\u00c4\u008dany, \u00c4\u008cesk\u00c3\u00a1 republika"},"from_stop":{"name":"origin","id":"6177","lat":"51.919438","lon":"19.145136","placename":"Polsko"}}]}}},"processes":[],"eols":[]}],"user":{"name":"demograph","id":"10857"}}}