{"4300":{"oid":"4300","type":"food","flag":"","creator":"10857","name":"Tesco Andel","upc":"","imagelink":"","description":"","slug":"tesco-andel","category":"","weight":"0","emissions":"0","embodied":"0","transport":"0","process":"0","endoflife":"0","shipping":"27044.32","lifetime":null,"usagetype":"","usageenergy":null,"usageemissions":null,"timecreated":"2010-10-25 11:09:21.856333","timemodified":"2010-10-25 15:17:17","visibility":"public","showfootprint":"on","showembodied":"on","showtransport":"on","showprocess":"on","showendoflife":"on","showlastleg":"on","showuse":"on","showstats":"on","stops":{"origin":{"related_to":"4300","part_or_object":"o","notes":"","placename":"And\u00c4\u009bl, N\u00c3\u00a1dra\u00c5\u00ben\u00c3\u00ad, 150 00 Praha 5, \u00c4\u008cesk\u00c3\u00a1 republika","id":"2033","category":"1","lat":"50.071285","lon":"14.403913","name":"origin","hops":{"incoming":[{"transport_id":"17","id":"3949","transport_name":"None Selected","transport_description":null,"transport_unit":"kg km","transport_co2_eq":"0.000000","from_stop_id":"6209","from_stop_lat":"49.817492","from_stop_lon":"15.472962","to_stop_id":"2033","to_stop_name":"origin","to_stop_lat":"50.071285","placename":"\u00c4\u008cesk\u00c3\u00a1 republika","to_stop_lon":"14.403913","to_stop":{"id":"2033","name":"origin","lat":"50.071285","placename":"And\u00c4\u009bl, N\u00c3\u00a1dra\u00c5\u00ben\u00c3\u00ad, 150 00 Praha 5, \u00c4\u008cesk\u00c3\u00a1 republika","lon":"14.403913"},"from_stop":{"name":"origin","id":"6209","lat":"49.817492","lon":"15.472962","placename":"\u00c4\u008cesk\u00c3\u00a1 republika"}},{"transport_id":"17","id":"3950","transport_name":"None Selected","transport_description":null,"transport_unit":"kg km","transport_co2_eq":"0.000000","from_stop_id":"6210","from_stop_lat":"51.919438","from_stop_lon":"19.145136","to_stop_id":"2033","to_stop_name":"origin","to_stop_lat":"50.071285","placename":"Polsko","to_stop_lon":"14.403913","to_stop":{"id":"2033","name":"origin","lat":"50.071285","placename":"And\u00c4\u009bl, N\u00c3\u00a1dra\u00c5\u00ben\u00c3\u00ad, 150 00 Praha 5, \u00c4\u008cesk\u00c3\u00a1 republika","lon":"14.403913"},"from_stop":{"name":"origin","id":"6210","lat":"51.919438","lon":"19.145136","placename":"Polsko"}},{"transport_id":"17","id":"3951","transport_name":"None Selected","transport_description":null,"transport_unit":"kg km","transport_co2_eq":"0.000000","from_stop_id":"6211","from_stop_lat":"49.817492","from_stop_lon":"15.472962","to_stop_id":"2033","to_stop_name":"origin","to_stop_lat":"50.071285","placename":"\u00c4\u008cesk\u00c3\u00a1 republika","to_stop_lon":"14.403913","to_stop":{"id":"2033","name":"origin","lat":"50.071285","placename":"And\u00c4\u009bl, N\u00c3\u00a1dra\u00c5\u00ben\u00c3\u00ad, 150 00 Praha 5, \u00c4\u008cesk\u00c3\u00a1 republika","lon":"14.403913"},"from_stop":{"name":"origin","id":"6211","lat":"49.817492","lon":"15.472962","placename":"\u00c4\u008cesk\u00c3\u00a1 republika"}},{"transport_id":"17","id":"3952","transport_name":"None Selected","transport_description":null,"transport_unit":"kg km","transport_co2_eq":"0.000000","from_stop_id":"6212","from_stop_lat":"51.919438","from_stop_lon":"19.145136","to_stop_id":"2033","to_stop_name":"origin","to_stop_lat":"50.071285","placename":"Polsko","to_stop_lon":"14.403913","to_stop":{"id":"2033","name":"origin","lat":"50.071285","placename":"And\u00c4\u009bl, N\u00c3\u00a1dra\u00c5\u00ben\u00c3\u00ad, 150 00 Praha 5, \u00c4\u008cesk\u00c3\u00a1 republika","lon":"14.403913"},"from_stop":{"name":"origin","id":"6212","lat":"51.919438","lon":"19.145136","placename":"Polsko"}},{"transport_id":"17","id":"3953","transport_name":"None Selected","transport_description":null,"transport_unit":"kg km","transport_co2_eq":"0.000000","from_stop_id":"6213","from_stop_lat":"51.165691","from_stop_lon":"10.451526","to_stop_id":"2033","to_stop_name":"origin","to_stop_lat":"50.071285","placename":"N\u00c4\u009bmecko","to_stop_lon":"14.403913","to_stop":{"id":"2033","name":"origin","lat":"50.071285","placename":"And\u00c4\u009bl, N\u00c3\u00a1dra\u00c5\u00ben\u00c3\u00ad, 150 00 Praha 5, \u00c4\u008cesk\u00c3\u00a1 republika","lon":"14.403913"},"from_stop":{"name":"origin","id":"6213","lat":"51.165691","lon":"10.451526","placename":"N\u00c4\u009bmecko"}},{"transport_id":"17","id":"3954","transport_name":"None Selected","transport_description":null,"transport_unit":"kg km","transport_co2_eq":"0.000000","from_stop_id":"6214","from_stop_lat":"49.817492","from_stop_lon":"15.472962","to_stop_id":"2033","to_stop_name":"origin","to_stop_lat":"50.071285","placename":"\u00c4\u008cesk\u00c3\u00a1 republika","to_stop_lon":"14.403913","to_stop":{"id":"2033","name":"origin","lat":"50.071285","placename":"And\u00c4\u009bl, N\u00c3\u00a1dra\u00c5\u00ben\u00c3\u00ad, 150 00 Praha 5, \u00c4\u008cesk\u00c3\u00a1 republika","lon":"14.403913"},"from_stop":{"name":"origin","id":"6214","lat":"49.817492","lon":"15.472962","placename":"\u00c4\u008cesk\u00c3\u00a1 republika"}},{"transport_id":"17","id":"3955","transport_name":"None Selected","transport_description":null,"transport_unit":"kg km","transport_co2_eq":"0.000000","from_stop_id":"6215","from_stop_lat":"49.817492","from_stop_lon":"15.472962","to_stop_id":"2033","to_stop_name":"origin","to_stop_lat":"50.071285","placename":"\u00c4\u008cesk\u00c3\u00a1 republika","to_stop_lon":"14.403913","to_stop":{"id":"2033","name":"origin","lat":"50.071285","placename":"And\u00c4\u009bl, N\u00c3\u00a1dra\u00c5\u00ben\u00c3\u00ad, 150 00 Praha 5, \u00c4\u008cesk\u00c3\u00a1 republika","lon":"14.403913"},"from_stop":{"name":"origin","id":"6215","lat":"49.817492","lon":"15.472962","placename":"\u00c4\u008cesk\u00c3\u00a1 republika"}},{"transport_id":"17","id":"3956","transport_name":"None Selected","transport_description":null,"transport_unit":"kg km","transport_co2_eq":"0.000000","from_stop_id":"6216","from_stop_lat":"-0.789275","from_stop_lon":"113.921327","to_stop_id":"2033","to_stop_name":"origin","to_stop_lat":"50.071285","placename":"Indon\u00c3\u00a9sie","to_stop_lon":"14.403913","to_stop":{"id":"2033","name":"origin","lat":"50.071285","placename":"And\u00c4\u009bl, N\u00c3\u00a1dra\u00c5\u00ben\u00c3\u00ad, 150 00 Praha 5, \u00c4\u008cesk\u00c3\u00a1 republika","lon":"14.403913"},"from_stop":{"name":"origin","id":"6216","lat":"-0.789275","lon":"113.921327","placename":"Indon\u00c3\u00a9sie"}},{"transport_id":"17","id":"3957","transport_name":"None Selected","transport_description":null,"transport_unit":"kg km","transport_co2_eq":"0.000000","from_stop_id":"6217","from_stop_lat":"15.783471","from_stop_lon":"-90.230759","to_stop_id":"2033","to_stop_name":"origin","to_stop_lat":"50.071285","placename":"Guatemala","to_stop_lon":"14.403913","to_stop":{"id":"2033","name":"origin","lat":"50.071285","placename":"And\u00c4\u009bl, N\u00c3\u00a1dra\u00c5\u00ben\u00c3\u00ad, 150 00 Praha 5, \u00c4\u008cesk\u00c3\u00a1 republika","lon":"14.403913"},"from_stop":{"name":"origin","id":"6217","lat":"15.783471","lon":"-90.230759","placename":"Guatemala"}},{"transport_id":"17","id":"3958","transport_name":"None Selected","transport_description":null,"transport_unit":"kg km","transport_co2_eq":"0.000000","from_stop_id":"6218","from_stop_lat":"38.963745","from_stop_lon":"35.243322","to_stop_id":"2033","to_stop_name":"origin","to_stop_lat":"50.071285","placename":"Turecko","to_stop_lon":"14.403913","to_stop":{"id":"2033","name":"origin","lat":"50.071285","placename":"And\u00c4\u009bl, N\u00c3\u00a1dra\u00c5\u00ben\u00c3\u00ad, 150 00 Praha 5, \u00c4\u008cesk\u00c3\u00a1 republika","lon":"14.403913"},"from_stop":{"name":"origin","id":"6218","lat":"38.963745","lon":"35.243322","placename":"Turecko"}},{"transport_id":"17","id":"3959","transport_name":"None Selected","transport_description":null,"transport_unit":"kg km","transport_co2_eq":"0.000000","from_stop_id":"6219","from_stop_lat":"51.919438","from_stop_lon":"19.145136","to_stop_id":"2033","to_stop_name":"origin","to_stop_lat":"50.071285","placename":"Polsko","to_stop_lon":"14.403913","to_stop":{"id":"2033","name":"origin","lat":"50.071285","placename":"And\u00c4\u009bl, N\u00c3\u00a1dra\u00c5\u00ben\u00c3\u00ad, 150 00 Praha 5, \u00c4\u008cesk\u00c3\u00a1 republika","lon":"14.403913"},"from_stop":{"name":"origin","id":"6219","lat":"51.919438","lon":"19.145136","placename":"Polsko"}},{"transport_id":"17","id":"3960","transport_name":"None Selected","transport_description":null,"transport_unit":"kg km","transport_co2_eq":"0.000000","from_stop_id":"6220","from_stop_lat":"48.669026","from_stop_lon":"19.699024","to_stop_id":"2033","to_stop_name":"origin","to_stop_lat":"50.071285","placename":"Slovensko","to_stop_lon":"14.403913","to_stop":{"id":"2033","name":"origin","lat":"50.071285","placename":"And\u00c4\u009bl, N\u00c3\u00a1dra\u00c5\u00ben\u00c3\u00ad, 150 00 Praha 5, \u00c4\u008cesk\u00c3\u00a1 republika","lon":"14.403913"},"from_stop":{"name":"origin","id":"6220","lat":"48.669026","lon":"19.699024","placename":"Slovensko"}},{"transport_id":"17","id":"3961","transport_name":"None Selected","transport_description":null,"transport_unit":"kg km","transport_co2_eq":"0.000000","from_stop_id":"6221","from_stop_lat":"49.817492","from_stop_lon":"15.472962","to_stop_id":"2033","to_stop_name":"origin","to_stop_lat":"50.071285","placename":"\u00c4\u008cesk\u00c3\u00a1 republika","to_stop_lon":"14.403913","to_stop":{"id":"2033","name":"origin","lat":"50.071285","placename":"And\u00c4\u009bl, N\u00c3\u00a1dra\u00c5\u00ben\u00c3\u00ad, 150 00 Praha 5, \u00c4\u008cesk\u00c3\u00a1 republika","lon":"14.403913"},"from_stop":{"name":"origin","id":"6221","lat":"49.817492","lon":"15.472962","placename":"\u00c4\u008cesk\u00c3\u00a1 republika"}},{"transport_id":"17","id":"3962","transport_name":"None Selected","transport_description":null,"transport_unit":"kg km","transport_co2_eq":"0.000000","from_stop_id":"6222","from_stop_lat":"49.817492","from_stop_lon":"15.472962","to_stop_id":"2033","to_stop_name":"origin","to_stop_lat":"50.071285","placename":"\u00c4\u008cesk\u00c3\u00a1 republika","to_stop_lon":"14.403913","to_stop":{"id":"2033","name":"origin","lat":"50.071285","placename":"And\u00c4\u009bl, N\u00c3\u00a1dra\u00c5\u00ben\u00c3\u00ad, 150 00 Praha 5, \u00c4\u008cesk\u00c3\u00a1 republika","lon":"14.403913"},"from_stop":{"name":"origin","id":"6222","lat":"49.817492","lon":"15.472962","placename":"\u00c4\u008cesk\u00c3\u00a1 republika"}},{"transport_id":"17","id":"3963","transport_name":"None Selected","transport_description":null,"transport_unit":"kg km","transport_co2_eq":"0.000000","from_stop_id":"6223","from_stop_lat":"0","from_stop_lon":"0","to_stop_id":"2033","to_stop_name":"origin","to_stop_lat":"50.071285","placename":"Ingredient Source","to_stop_lon":"14.403913","to_stop":{"id":"2033","name":"origin","lat":"50.071285","placename":"And\u00c4\u009bl, N\u00c3\u00a1dra\u00c5\u00ben\u00c3\u00ad, 150 00 Praha 5, \u00c4\u008cesk\u00c3\u00a1 republika","lon":"14.403913"},"from_stop":{"name":"origin","id":"6223","lat":"0","lon":"0","placename":"Ingredient Source"}},{"transport_id":"17","id":"3964","transport_name":"None Selected","transport_description":null,"transport_unit":"kg km","transport_co2_eq":"0.000000","from_stop_id":"6224","from_stop_lat":"40.463667","from_stop_lon":"-3.74922","to_stop_id":"2033","to_stop_name":"origin","to_stop_lat":"50.071285","placename":"\u00c5\u00a0pan\u00c4\u009blsko","to_stop_lon":"14.403913","to_stop":{"id":"2033","name":"origin","lat":"50.071285","placename":"And\u00c4\u009bl, N\u00c3\u00a1dra\u00c5\u00ben\u00c3\u00ad, 150 00 Praha 5, \u00c4\u008cesk\u00c3\u00a1 republika","lon":"14.403913"},"from_stop":{"name":"origin","id":"6224","lat":"40.463667","lon":"-3.74922","placename":"\u00c5\u00a0pan\u00c4\u009blsko"}},{"transport_id":"17","id":"3965","transport_name":"None Selected","transport_description":null,"transport_unit":"kg km","transport_co2_eq":"0.000000","from_stop_id":"6225","from_stop_lat":"51.919438","from_stop_lon":"19.145136","to_stop_id":"2033","to_stop_name":"origin","to_stop_lat":"50.071285","placename":"Polsko","to_stop_lon":"14.403913","to_stop":{"id":"2033","name":"origin","lat":"50.071285","placename":"And\u00c4\u009bl, N\u00c3\u00a1dra\u00c5\u00ben\u00c3\u00ad, 150 00 Praha 5, \u00c4\u008cesk\u00c3\u00a1 republika","lon":"14.403913"},"from_stop":{"name":"origin","id":"6225","lat":"51.919438","lon":"19.145136","placename":"Polsko"}}],"outgoing":[]}}},"parts":[{"oid":"4300","imid":"4529","linkid":"","weight":"0","rawemissions":"0","emissions":"0","shipping":"81.63","processemissions":"0","endoflifeemissions":"0","disposaltype":null,"disposalenergy":null,"disposalimpact":null,"disposalemissions":null,"description":"","name":"hovezi maso","id":"4529","stops":{"origin":{"related_to":"4529","part_or_object":"p","notes":"","placename":"\u00c4\u008cesk\u00c3\u00a1 republika","id":6209,"name":"origin","lat":"49.817492","lon":"15.472962","hops":{"incoming":[],"outgoing":[{"transport_id":"17","id":"3949","transport_name":"None Selected","transport_description":null,"transport_unit":"kg km","transport_co2_eq":"0.000000","from_stop_id":"6209","from_stop_lat":"49.817492","from_stop_lon":"15.472962","from_stop_placename":"\u00c4\u008cesk\u00c3\u00a1 republika","to_stop_id":"2033","to_stop_name":"origin","to_stop_lat":"50.071285","to_stop_lon":"14.403913","to_stop_placename":"And\u00c4\u009bl, N\u00c3\u00a1dra\u00c5\u00ben\u00c3\u00ad, 150 00 Praha 5, \u00c4\u008cesk\u00c3\u00a1 republika","to_stop":{"id":"2033","name":"origin","lat":"50.071285","lon":"14.403913","placename":"And\u00c4\u009bl, N\u00c3\u00a1dra\u00c5\u00ben\u00c3\u00ad, 150 00 Praha 5, \u00c4\u008cesk\u00c3\u00a1 republika"},"from_stop":{"name":"origin","id":"6209","lat":"49.817492","lon":"15.472962","placename":"\u00c4\u008cesk\u00c3\u00a1 republika"}}]}}},"processes":[],"eols":[]},{"oid":"4300","imid":"4530","linkid":"","weight":"0","rawemissions":"0","emissions":"0","shipping":"390.62","processemissions":"0","endoflifeemissions":"0","disposaltype":null,"disposalenergy":null,"disposalimpact":null,"disposalemissions":null,"description":"","name":"petrzel","id":"4530","stops":{"origin":{"related_to":"4530","part_or_object":"p","notes":"","placename":"Polsko","id":6210,"name":"origin","lat":"51.919438","lon":"19.145136","hops":{"incoming":[],"outgoing":[{"transport_id":"17","id":"3950","transport_name":"None Selected","transport_description":null,"transport_unit":"kg km","transport_co2_eq":"0.000000","from_stop_id":"6210","from_stop_lat":"51.919438","from_stop_lon":"19.145136","from_stop_placename":"Polsko","to_stop_id":"2033","to_stop_name":"origin","to_stop_lat":"50.071285","to_stop_lon":"14.403913","to_stop_placename":"And\u00c4\u009bl, N\u00c3\u00a1dra\u00c5\u00ben\u00c3\u00ad, 150 00 Praha 5, \u00c4\u008cesk\u00c3\u00a1 republika","to_stop":{"id":"2033","name":"origin","lat":"50.071285","lon":"14.403913","placename":"And\u00c4\u009bl, N\u00c3\u00a1dra\u00c5\u00ben\u00c3\u00ad, 150 00 Praha 5, \u00c4\u008cesk\u00c3\u00a1 republika"},"from_stop":{"name":"origin","id":"6210","lat":"51.919438","lon":"19.145136","placename":"Polsko"}}]}}},"processes":[],"eols":[]},{"oid":"4300","imid":"4531","linkid":"","weight":"0","rawemissions":"0","emissions":"0","shipping":"81.63","processemissions":"0","endoflifeemissions":"0","disposaltype":null,"disposalenergy":null,"disposalimpact":null,"disposalemissions":null,"description":"","name":"mrkev","id":"4531","stops":{"origin":{"related_to":"4531","part_or_object":"p","notes":"","placename":"\u00c4\u008cesk\u00c3\u00a1 republika","id":6211,"name":"origin","lat":"49.817492","lon":"15.472962","hops":{"incoming":[],"outgoing":[{"transport_id":"17","id":"3951","transport_name":"None Selected","transport_description":null,"transport_unit":"kg km","transport_co2_eq":"0.000000","from_stop_id":"6211","from_stop_lat":"49.817492","from_stop_lon":"15.472962","from_stop_placename":"\u00c4\u008cesk\u00c3\u00a1 republika","to_stop_id":"2033","to_stop_name":"origin","to_stop_lat":"50.071285","to_stop_lon":"14.403913","to_stop_placename":"And\u00c4\u009bl, N\u00c3\u00a1dra\u00c5\u00ben\u00c3\u00ad, 150 00 Praha 5, \u00c4\u008cesk\u00c3\u00a1 republika","to_stop":{"id":"2033","name":"origin","lat":"50.071285","lon":"14.403913","placename":"And\u00c4\u009bl, N\u00c3\u00a1dra\u00c5\u00ben\u00c3\u00ad, 150 00 Praha 5, \u00c4\u008cesk\u00c3\u00a1 republika"},"from_stop":{"name":"origin","id":"6211","lat":"49.817492","lon":"15.472962","placename":"\u00c4\u008cesk\u00c3\u00a1 republika"}}]}}},"processes":[],"eols":[]},{"oid":"4300","imid":"4532","linkid":"","weight":"0","rawemissions":"0","emissions":"0","shipping":"390.62","processemissions":"0","endoflifeemissions":"0","disposaltype":null,"disposalenergy":null,"disposalimpact":null,"disposalemissions":null,"description":"","name":"celer","id":"4532","stops":{"origin":{"related_to":"4532","part_or_object":"p","notes":"","placename":"Polsko","id":6212,"name":"origin","lat":"51.919438","lon":"19.145136","hops":{"incoming":[],"outgoing":[{"transport_id":"17","id":"3952","transport_name":"None Selected","transport_description":null,"transport_unit":"kg km","transport_co2_eq":"0.000000","from_stop_id":"6212","from_stop_lat":"51.919438","from_stop_lon":"19.145136","from_stop_placename":"Polsko","to_stop_id":"2033","to_stop_name":"origin","to_stop_lat":"50.071285","to_stop_lon":"14.403913","to_stop_placename":"And\u00c4\u009bl, N\u00c3\u00a1dra\u00c5\u00ben\u00c3\u00ad, 150 00 Praha 5, \u00c4\u008cesk\u00c3\u00a1 republika","to_stop":{"id":"2033","name":"origin","lat":"50.071285","lon":"14.403913","placename":"And\u00c4\u009bl, N\u00c3\u00a1dra\u00c5\u00ben\u00c3\u00ad, 150 00 Praha 5, \u00c4\u008cesk\u00c3\u00a1 republika"},"from_stop":{"name":"origin","id":"6212","lat":"51.919438","lon":"19.145136","placename":"Polsko"}}]}}},"processes":[],"eols":[]},{"oid":"4300","imid":"4533","linkid":"","weight":"0","rawemissions":"0","emissions":"0","shipping":"304.53","processemissions":"0","endoflifeemissions":"0","disposaltype":null,"disposalenergy":null,"disposalimpact":null,"disposalemissions":null,"description":"","name":"cibule","id":"4533","stops":{"origin":{"related_to":"4533","part_or_object":"p","notes":"","placename":"N\u00c4\u009bmecko","id":6213,"name":"origin","lat":"51.165691","lon":"10.451526","hops":{"incoming":[],"outgoing":[{"transport_id":"17","id":"3953","transport_name":"None Selected","transport_description":null,"transport_unit":"kg km","transport_co2_eq":"0.000000","from_stop_id":"6213","from_stop_lat":"51.165691","from_stop_lon":"10.451526","from_stop_placename":"N\u00c4\u009bmecko","to_stop_id":"2033","to_stop_name":"origin","to_stop_lat":"50.071285","to_stop_lon":"14.403913","to_stop_placename":"And\u00c4\u009bl, N\u00c3\u00a1dra\u00c5\u00ben\u00c3\u00ad, 150 00 Praha 5, \u00c4\u008cesk\u00c3\u00a1 republika","to_stop":{"id":"2033","name":"origin","lat":"50.071285","lon":"14.403913","placename":"And\u00c4\u009bl, N\u00c3\u00a1dra\u00c5\u00ben\u00c3\u00ad, 150 00 Praha 5, \u00c4\u008cesk\u00c3\u00a1 republika"},"from_stop":{"name":"origin","id":"6213","lat":"51.165691","lon":"10.451526","placename":"N\u00c4\u009bmecko"}}]}}},"processes":[],"eols":[]},{"oid":"4300","imid":"4534","linkid":"","weight":"0","rawemissions":"0","emissions":"0","shipping":"81.63","processemissions":"0","endoflifeemissions":"0","disposaltype":null,"disposalenergy":null,"disposalimpact":null,"disposalemissions":null,"description":"","name":"smetana","id":"4534","stops":{"origin":{"related_to":"4534","part_or_object":"p","notes":"","placename":"\u00c4\u008cesk\u00c3\u00a1 republika","id":6214,"name":"origin","lat":"49.817492","lon":"15.472962","hops":{"incoming":[],"outgoing":[{"transport_id":"17","id":"3954","transport_name":"None Selected","transport_description":null,"transport_unit":"kg km","transport_co2_eq":"0.000000","from_stop_id":"6214","from_stop_lat":"49.817492","from_stop_lon":"15.472962","from_stop_placename":"\u00c4\u008cesk\u00c3\u00a1 republika","to_stop_id":"2033","to_stop_name":"origin","to_stop_lat":"50.071285","to_stop_lon":"14.403913","to_stop_placename":"And\u00c4\u009bl, N\u00c3\u00a1dra\u00c5\u00ben\u00c3\u00ad, 150 00 Praha 5, \u00c4\u008cesk\u00c3\u00a1 republika","to_stop":{"id":"2033","name":"origin","lat":"50.071285","lon":"14.403913","placename":"And\u00c4\u009bl, N\u00c3\u00a1dra\u00c5\u00ben\u00c3\u00ad, 150 00 Praha 5, \u00c4\u008cesk\u00c3\u00a1 republika"},"from_stop":{"name":"origin","id":"6214","lat":"49.817492","lon":"15.472962","placename":"\u00c4\u008cesk\u00c3\u00a1 republika"}}]}}},"processes":[],"eols":[]},{"oid":"4300","imid":"4535","linkid":"","weight":"0","rawemissions":"0","emissions":"0","shipping":"81.63","processemissions":"0","endoflifeemissions":"0","disposaltype":null,"disposalenergy":null,"disposalimpact":null,"disposalemissions":null,"description":"","name":"slanina","id":"4535","stops":{"origin":{"related_to":"4535","part_or_object":"p","notes":"","placename":"\u00c4\u008cesk\u00c3\u00a1 republika","id":6215,"name":"origin","lat":"49.817492","lon":"15.472962","hops":{"incoming":[],"outgoing":[{"transport_id":"17","id":"3955","transport_name":"None Selected","transport_description":null,"transport_unit":"kg km","transport_co2_eq":"0.000000","from_stop_id":"6215","from_stop_lat":"49.817492","from_stop_lon":"15.472962","from_stop_placename":"\u00c4\u008cesk\u00c3\u00a1 republika","to_stop_id":"2033","to_stop_name":"origin","to_stop_lat":"50.071285","to_stop_lon":"14.403913","to_stop_placename":"And\u00c4\u009bl, N\u00c3\u00a1dra\u00c5\u00ben\u00c3\u00ad, 150 00 Praha 5, \u00c4\u008cesk\u00c3\u00a1 republika","to_stop":{"id":"2033","name":"origin","lat":"50.071285","lon":"14.403913","placename":"And\u00c4\u009bl, N\u00c3\u00a1dra\u00c5\u00ben\u00c3\u00ad, 150 00 Praha 5, \u00c4\u008cesk\u00c3\u00a1 republika"},"from_stop":{"name":"origin","id":"6215","lat":"49.817492","lon":"15.472962","placename":"\u00c4\u008cesk\u00c3\u00a1 republika"}}]}}},"processes":[],"eols":[]},{"oid":"4300","imid":"4536","linkid":"","weight":"0","rawemissions":"0","emissions":"0","shipping":"10764.65","processemissions":"0","endoflifeemissions":"0","disposaltype":null,"disposalenergy":null,"disposalimpact":null,"disposalemissions":null,"description":"","name":"pepr ","id":"4536","stops":{"origin":{"related_to":"4536","part_or_object":"p","notes":"","placename":"Indon\u00c3\u00a9sie","id":6216,"name":"origin","lat":"-0.789275","lon":"113.921327","hops":{"incoming":[],"outgoing":[{"transport_id":"17","id":"3956","transport_name":"None Selected","transport_description":null,"transport_unit":"kg km","transport_co2_eq":"0.000000","from_stop_id":"6216","from_stop_lat":"-0.789275","from_stop_lon":"113.921327","from_stop_placename":"Indon\u00c3\u00a9sie","to_stop_id":"2033","to_stop_name":"origin","to_stop_lat":"50.071285","to_stop_lon":"14.403913","to_stop_placename":"And\u00c4\u009bl, N\u00c3\u00a1dra\u00c5\u00ben\u00c3\u00ad, 150 00 Praha 5, \u00c4\u008cesk\u00c3\u00a1 republika","to_stop":{"id":"2033","name":"origin","lat":"50.071285","lon":"14.403913","placename":"And\u00c4\u009bl, N\u00c3\u00a1dra\u00c5\u00ben\u00c3\u00ad, 150 00 Praha 5, \u00c4\u008cesk\u00c3\u00a1 republika"},"from_stop":{"name":"origin","id":"6216","lat":"-0.789275","lon":"113.921327","placename":"Indon\u00c3\u00a9sie"}}]}}},"processes":[],"eols":[]},{"oid":"4300","imid":"4537","linkid":"","weight":"0","rawemissions":"0","emissions":"0","shipping":"9683.52","processemissions":"0","endoflifeemissions":"0","disposaltype":null,"disposalenergy":null,"disposalimpact":null,"disposalemissions":null,"description":"","name":"nove koreni","id":"4537","stops":{"origin":{"related_to":"4537","part_or_object":"p","notes":"","placename":"Guatemala","id":6217,"name":"origin","lat":"15.783471","lon":"-90.230759","hops":{"incoming":[],"outgoing":[{"transport_id":"17","id":"3957","transport_name":"None Selected","transport_description":null,"transport_unit":"kg km","transport_co2_eq":"0.000000","from_stop_id":"6217","from_stop_lat":"15.783471","from_stop_lon":"-90.230759","from_stop_placename":"Guatemala","to_stop_id":"2033","to_stop_name":"origin","to_stop_lat":"50.071285","to_stop_lon":"14.403913","to_stop_placename":"And\u00c4\u009bl, N\u00c3\u00a1dra\u00c5\u00ben\u00c3\u00ad, 150 00 Praha 5, \u00c4\u008cesk\u00c3\u00a1 republika","to_stop":{"id":"2033","name":"origin","lat":"50.071285","lon":"14.403913","placename":"And\u00c4\u009bl, N\u00c3\u00a1dra\u00c5\u00ben\u00c3\u00ad, 150 00 Praha 5, \u00c4\u008cesk\u00c3\u00a1 republika"},"from_stop":{"name":"origin","id":"6217","lat":"15.783471","lon":"-90.230759","placename":"Guatemala"}}]}}},"processes":[],"eols":[]},{"oid":"4300","imid":"4538","linkid":"","weight":"0","rawemissions":"0","emissions":"0","shipping":"2053.45","processemissions":"0","endoflifeemissions":"0","disposaltype":null,"disposalenergy":null,"disposalimpact":null,"disposalemissions":null,"description":"","name":"bobkovy list","id":"4538","stops":{"origin":{"related_to":"4538","part_or_object":"p","notes":"","placename":"Turecko","id":6218,"name":"origin","lat":"38.963745","lon":"35.243322","hops":{"incoming":[],"outgoing":[{"transport_id":"17","id":"3958","transport_name":"None Selected","transport_description":null,"transport_unit":"kg km","transport_co2_eq":"0.000000","from_stop_id":"6218","from_stop_lat":"38.963745","from_stop_lon":"35.243322","from_stop_placename":"Turecko","to_stop_id":"2033","to_stop_name":"origin","to_stop_lat":"50.071285","to_stop_lon":"14.403913","to_stop_placename":"And\u00c4\u009bl, N\u00c3\u00a1dra\u00c5\u00ben\u00c3\u00ad, 150 00 Praha 5, \u00c4\u008cesk\u00c3\u00a1 republika","to_stop":{"id":"2033","name":"origin","lat":"50.071285","lon":"14.403913","placename":"And\u00c4\u009bl, N\u00c3\u00a1dra\u00c5\u00ben\u00c3\u00ad, 150 00 Praha 5, \u00c4\u008cesk\u00c3\u00a1 republika"},"from_stop":{"name":"origin","id":"6218","lat":"38.963745","lon":"35.243322","placename":"Turecko"}}]}}},"processes":[],"eols":[]},{"oid":"4300","imid":"4539","linkid":"","weight":"0","rawemissions":"0","emissions":"0","shipping":"390.62","processemissions":"0","endoflifeemissions":"0","disposaltype":null,"disposalenergy":null,"disposalimpact":null,"disposalemissions":null,"description":"","name":"tymian","id":"4539","stops":{"origin":{"related_to":"4539","part_or_object":"p","notes":"","placename":"Polsko","id":6219,"name":"origin","lat":"51.919438","lon":"19.145136","hops":{"incoming":[],"outgoing":[{"transport_id":"17","id":"3959","transport_name":"None Selected","transport_description":null,"transport_unit":"kg km","transport_co2_eq":"0.000000","from_stop_id":"6219","from_stop_lat":"51.919438","from_stop_lon":"19.145136","from_stop_placename":"Polsko","to_stop_id":"2033","to_stop_name":"origin","to_stop_lat":"50.071285","to_stop_lon":"14.403913","to_stop_placename":"And\u00c4\u009bl, N\u00c3\u00a1dra\u00c5\u00ben\u00c3\u00ad, 150 00 Praha 5, \u00c4\u008cesk\u00c3\u00a1 republika","to_stop":{"id":"2033","name":"origin","lat":"50.071285","lon":"14.403913","placename":"And\u00c4\u009bl, N\u00c3\u00a1dra\u00c5\u00ben\u00c3\u00ad, 150 00 Praha 5, \u00c4\u008cesk\u00c3\u00a1 republika"},"from_stop":{"name":"origin","id":"6219","lat":"51.919438","lon":"19.145136","placename":"Polsko"}}]}}},"processes":[],"eols":[]},{"oid":"4300","imid":"4540","linkid":"","weight":"0","rawemissions":"0","emissions":"0","shipping":"414.24","processemissions":"0","endoflifeemissions":"0","disposaltype":null,"disposalenergy":null,"disposalimpact":null,"disposalemissions":null,"description":"","name":"sul","id":"4540","stops":{"origin":{"related_to":"4540","part_or_object":"p","notes":"","placename":"Slovensko","id":6220,"name":"origin","lat":"48.669026","lon":"19.699024","hops":{"incoming":[],"outgoing":[{"transport_id":"17","id":"3960","transport_name":"None Selected","transport_description":null,"transport_unit":"kg km","transport_co2_eq":"0.000000","from_stop_id":"6220","from_stop_lat":"48.669026","from_stop_lon":"19.699024","from_stop_placename":"Slovensko","to_stop_id":"2033","to_stop_name":"origin","to_stop_lat":"50.071285","to_stop_lon":"14.403913","to_stop_placename":"And\u00c4\u009bl, N\u00c3\u00a1dra\u00c5\u00ben\u00c3\u00ad, 150 00 Praha 5, \u00c4\u008cesk\u00c3\u00a1 republika","to_stop":{"id":"2033","name":"origin","lat":"50.071285","lon":"14.403913","placename":"And\u00c4\u009bl, N\u00c3\u00a1dra\u00c5\u00ben\u00c3\u00ad, 150 00 Praha 5, \u00c4\u008cesk\u00c3\u00a1 republika"},"from_stop":{"name":"origin","id":"6220","lat":"48.669026","lon":"19.699024","placename":"Slovensko"}}]}}},"processes":[],"eols":[]},{"oid":"4300","imid":"4541","linkid":"","weight":"0","rawemissions":"0","emissions":"0","shipping":"81.63","processemissions":"0","endoflifeemissions":"0","disposaltype":null,"disposalenergy":null,"disposalimpact":null,"disposalemissions":null,"description":"","name":"hladka mouka","id":"4541","stops":{"origin":{"related_to":"4541","part_or_object":"p","notes":"","placename":"\u00c4\u008cesk\u00c3\u00a1 republika","id":6221,"name":"origin","lat":"49.817492","lon":"15.472962","hops":{"incoming":[],"outgoing":[{"transport_id":"17","id":"3961","transport_name":"None Selected","transport_description":null,"transport_unit":"kg km","transport_co2_eq":"0.000000","from_stop_id":"6221","from_stop_lat":"49.817492","from_stop_lon":"15.472962","from_stop_placename":"\u00c4\u008cesk\u00c3\u00a1 republika","to_stop_id":"2033","to_stop_name":"origin","to_stop_lat":"50.071285","to_stop_lon":"14.403913","to_stop_placename":"And\u00c4\u009bl, N\u00c3\u00a1dra\u00c5\u00ben\u00c3\u00ad, 150 00 Praha 5, \u00c4\u008cesk\u00c3\u00a1 republika","to_stop":{"id":"2033","name":"origin","lat":"50.071285","lon":"14.403913","placename":"And\u00c4\u009bl, N\u00c3\u00a1dra\u00c5\u00ben\u00c3\u00ad, 150 00 Praha 5, \u00c4\u008cesk\u00c3\u00a1 republika"},"from_stop":{"name":"origin","id":"6221","lat":"49.817492","lon":"15.472962","placename":"\u00c4\u008cesk\u00c3\u00a1 republika"}}]}}},"processes":[],"eols":[]},{"oid":"4300","imid":"4542","linkid":"","weight":"0","rawemissions":"0","emissions":"0","shipping":"81.63","processemissions":"0","endoflifeemissions":"0","disposaltype":null,"disposalenergy":null,"disposalimpact":null,"disposalemissions":null,"description":"","name":"houskovy knedlik","id":"4542","stops":{"origin":{"related_to":"4542","part_or_object":"p","notes":"","placename":"\u00c4\u008cesk\u00c3\u00a1 republika","id":6222,"name":"origin","lat":"49.817492","lon":"15.472962","hops":{"incoming":[],"outgoing":[{"transport_id":"17","id":"3962","transport_name":"None Selected","transport_description":null,"transport_unit":"kg km","transport_co2_eq":"0.000000","from_stop_id":"6222","from_stop_lat":"49.817492","from_stop_lon":"15.472962","from_stop_placename":"\u00c4\u008cesk\u00c3\u00a1 republika","to_stop_id":"2033","to_stop_name":"origin","to_stop_lat":"50.071285","to_stop_lon":"14.403913","to_stop_placename":"And\u00c4\u009bl, N\u00c3\u00a1dra\u00c5\u00ben\u00c3\u00ad, 150 00 Praha 5, \u00c4\u008cesk\u00c3\u00a1 republika","to_stop":{"id":"2033","name":"origin","lat":"50.071285","lon":"14.403913","placename":"And\u00c4\u009bl, N\u00c3\u00a1dra\u00c5\u00ben\u00c3\u00ad, 150 00 Praha 5, \u00c4\u008cesk\u00c3\u00a1 republika"},"from_stop":{"name":"origin","id":"6222","lat":"49.817492","lon":"15.472962","placename":"\u00c4\u008cesk\u00c3\u00a1 republika"}}]}}},"processes":[],"eols":[]},{"oid":"4300","imid":"4543","linkid":"","weight":"0","rawemissions":"0","emissions":"0","shipping":"0","processemissions":"0","endoflifeemissions":"0","disposaltype":null,"disposalenergy":null,"disposalimpact":null,"disposalemissions":null,"description":"","name":"knedlik z prasku","id":"4543","stops":{"origin":{"related_to":"4543","part_or_object":"p","notes":"","placename":"Ingredient Source","id":6223,"name":"origin","lat":"0","lon":"0","hops":{"incoming":[],"outgoing":[{"transport_id":"17","id":"3963","transport_name":"None Selected","transport_description":null,"transport_unit":"kg km","transport_co2_eq":"0.000000","from_stop_id":"6223","from_stop_lat":"0","from_stop_lon":"0","from_stop_placename":"Ingredient Source","to_stop_id":"2033","to_stop_name":"origin","to_stop_lat":"50.071285","to_stop_lon":"14.403913","to_stop_placename":"And\u00c4\u009bl, N\u00c3\u00a1dra\u00c5\u00ben\u00c3\u00ad, 150 00 Praha 5, \u00c4\u008cesk\u00c3\u00a1 republika","to_stop":{"id":"2033","name":"origin","lat":"50.071285","lon":"14.403913","placename":"And\u00c4\u009bl, N\u00c3\u00a1dra\u00c5\u00ben\u00c3\u00ad, 150 00 Praha 5, \u00c4\u008cesk\u00c3\u00a1 republika"},"from_stop":{"name":"origin","id":"6223","lat":"0","lon":"0","placename":"Ingredient Source"}}]}}},"processes":[],"eols":[]},{"oid":"4300","imid":"4544","linkid":"","weight":"0","rawemissions":"0","emissions":"0","shipping":"1771.67","processemissions":"0","endoflifeemissions":"0","disposaltype":null,"disposalenergy":null,"disposalimpact":null,"disposalemissions":null,"description":"","name":"citrony","id":"4544","stops":{"origin":{"related_to":"4544","part_or_object":"p","notes":"","placename":"\u00c5\u00a0pan\u00c4\u009blsko","id":6224,"name":"origin","lat":"40.463667","lon":"-3.74922","hops":{"incoming":[],"outgoing":[{"transport_id":"17","id":"3964","transport_name":"None Selected","transport_description":null,"transport_unit":"kg km","transport_co2_eq":"0.000000","from_stop_id":"6224","from_stop_lat":"40.463667","from_stop_lon":"-3.74922","from_stop_placename":"\u00c5\u00a0pan\u00c4\u009blsko","to_stop_id":"2033","to_stop_name":"origin","to_stop_lat":"50.071285","to_stop_lon":"14.403913","to_stop_placename":"And\u00c4\u009bl, N\u00c3\u00a1dra\u00c5\u00ben\u00c3\u00ad, 150 00 Praha 5, \u00c4\u008cesk\u00c3\u00a1 republika","to_stop":{"id":"2033","name":"origin","lat":"50.071285","lon":"14.403913","placename":"And\u00c4\u009bl, N\u00c3\u00a1dra\u00c5\u00ben\u00c3\u00ad, 150 00 Praha 5, \u00c4\u008cesk\u00c3\u00a1 republika"},"from_stop":{"name":"origin","id":"6224","lat":"40.463667","lon":"-3.74922","placename":"\u00c5\u00a0pan\u00c4\u009blsko"}}]}}},"processes":[],"eols":[]},{"oid":"4300","imid":"4545","linkid":"","weight":"0","rawemissions":"0","emissions":"0","shipping":"390.62","processemissions":"0","endoflifeemissions":"0","disposaltype":null,"disposalenergy":null,"disposalimpact":null,"disposalemissions":null,"description":"","name":"brusinky","id":"4545","stops":{"origin":{"related_to":"4545","part_or_object":"p","notes":"","placename":"Polsko","id":6225,"name":"origin","lat":"51.919438","lon":"19.145136","hops":{"incoming":[],"outgoing":[{"transport_id":"17","id":"3965","transport_name":"None Selected","transport_description":null,"transport_unit":"kg km","transport_co2_eq":"0.000000","from_stop_id":"6225","from_stop_lat":"51.919438","from_stop_lon":"19.145136","from_stop_placename":"Polsko","to_stop_id":"2033","to_stop_name":"origin","to_stop_lat":"50.071285","to_stop_lon":"14.403913","to_stop_placename":"And\u00c4\u009bl, N\u00c3\u00a1dra\u00c5\u00ben\u00c3\u00ad, 150 00 Praha 5, \u00c4\u008cesk\u00c3\u00a1 republika","to_stop":{"id":"2033","name":"origin","lat":"50.071285","lon":"14.403913","placename":"And\u00c4\u009bl, N\u00c3\u00a1dra\u00c5\u00ben\u00c3\u00ad, 150 00 Praha 5, \u00c4\u008cesk\u00c3\u00a1 republika"},"from_stop":{"name":"origin","id":"6225","lat":"51.919438","lon":"19.145136","placename":"Polsko"}}]}}},"processes":[],"eols":[]}],"user":{"name":"demograph","id":"10857"}}}