{"432":{"oid":"432","type":"trace","flag":"","creator":"12268","name":"Samsung LED TV","upc":"","imagelink":"","description":"http:\/\/www.samsung.com\/sg\/consumer\/tv-audio-video\/television\/led-tv\/index.idx?pagetype=subtype_p2","slug":"Samsung-LED-TV","category":"","weight":"0","emissions":"0","embodied":"0","transport":"0","process":null,"endoflife":null,"shipping":"7174.99","lifetime":null,"usagetype":"","usageenergy":null,"usageemissions":null,"timecreated":"2011-02-08 09:14:53","timemodified":"2011-02-15 01:04:21","visibility":"public","showfootprint":"on","showembodied":"on","showtransport":"on","showprocess":"on","showendoflife":"on","showlastleg":"on","showuse":"on","showstats":"on","stops":{"origin":{"related_to":"432","part_or_object":"o","notes":null,"placename":"Busan, South Korea","id":"11010","category":"1","lat":"35.1795543","lon":"129.0756416","name":"origin","hops":{"incoming":[{"transport_id":null,"id":"7776","transport_name":null,"transport_description":null,"transport_unit":null,"transport_co2_eq":null,"from_stop_id":"11011","from_stop_lat":"39.121079","from_stop_lon":"117.214389","to_stop_id":"11010","to_stop_name":"origin","to_stop_lat":"35.1795543","placename":"Tianjin, China","to_stop_lon":"129.0756416","to_stop":{"id":"11010","name":"origin","lat":"35.1795543","placename":"Busan, South Korea","lon":"129.0756416"},"from_stop":{"name":"origin","id":"11011","lat":"39.121079","lon":"117.214389","placename":"Tianjin, China"}},{"transport_id":null,"id":"7777","transport_name":null,"transport_description":null,"transport_unit":null,"transport_co2_eq":null,"from_stop_id":"11012","from_stop_lat":"31.298886","from_stop_lon":"120.585316","to_stop_id":"11010","to_stop_name":"origin","to_stop_lat":"35.1795543","placename":"Suzhou, Jiangsu, China","to_stop_lon":"129.0756416","to_stop":{"id":"11010","name":"origin","lat":"35.1795543","placename":"Busan, South Korea","lon":"129.0756416"},"from_stop":{"name":"origin","id":"11012","lat":"31.298886","lon":"120.585316","placename":"Suzhou, Jiangsu, China"}},{"transport_id":null,"id":"7778","transport_name":null,"transport_description":null,"transport_unit":null,"transport_co2_eq":null,"from_stop_id":"11013","from_stop_lat":"35.1795543","from_stop_lon":"129.0756416","to_stop_id":"11010","to_stop_name":"origin","to_stop_lat":"35.1795543","placename":"Busan, South Korea","to_stop_lon":"129.0756416","to_stop":{"id":"11010","name":"origin","lat":"35.1795543","placename":"Busan, South Korea","lon":"129.0756416"},"from_stop":{"name":"origin","id":"11013","lat":"35.1795543","lon":"129.0756416","placename":"Busan, South Korea"}},{"transport_id":null,"id":"7779","transport_name":null,"transport_description":null,"transport_unit":null,"transport_co2_eq":null,"from_stop_id":"11014","from_stop_lat":"36.8003919","from_stop_lon":"127.0516906","to_stop_id":"11010","to_stop_name":"origin","to_stop_lat":"35.1795543","placename":"Tangjeong-myeon, Asan-si, Chungcheongnam-do, South Korea","to_stop_lon":"129.0756416","to_stop":{"id":"11010","name":"origin","lat":"35.1795543","placename":"Busan, South Korea","lon":"129.0756416"},"from_stop":{"name":"origin","id":"11014","lat":"36.8003919","lon":"127.0516906","placename":"Tangjeong-myeon, Asan-si, Chungcheongnam-do, South Korea"}},{"transport_id":null,"id":"7780","transport_name":null,"transport_description":null,"transport_unit":null,"transport_co2_eq":null,"from_stop_id":"11015","from_stop_lat":"37.2594897","from_stop_lon":"127.0466381","to_stop_id":"11010","to_stop_name":"origin","to_stop_lat":"35.1795543","placename":"Yeongtong-gu, Suwon-si, Gyeonggi-do, South Korea","to_stop_lon":"129.0756416","to_stop":{"id":"11010","name":"origin","lat":"35.1795543","placename":"Busan, South Korea","lon":"129.0756416"},"from_stop":{"name":"origin","id":"11015","lat":"37.2594897","lon":"127.0466381","placename":"Yeongtong-gu, Suwon-si, Gyeonggi-do, South Korea"}},{"transport_id":null,"id":"7781","transport_name":null,"transport_description":null,"transport_unit":null,"transport_co2_eq":null,"from_stop_id":"11016","from_stop_lat":"1.352083","from_stop_lon":"103.819836","to_stop_id":"11010","to_stop_name":"origin","to_stop_lat":"35.1795543","placename":"Singapore","to_stop_lon":"129.0756416","to_stop":{"id":"11010","name":"origin","lat":"35.1795543","placename":"Busan, South Korea","lon":"129.0756416"},"from_stop":{"name":"origin","id":"11016","lat":"1.352083","lon":"103.819836","placename":"Singapore"}}],"outgoing":[]}}},"parts":[{"oid":"432","imid":"5884","linkid":"0","weight":"0","rawemissions":"0","emissions":"0","shipping":"1139.07","processemissions":"0","endoflifeemissions":"0","disposaltype":null,"disposalenergy":null,"disposalimpact":null,"disposalemissions":null,"description":"","name":"LED Chip\/Package\/Light Bar","id":"5884","stops":{"origin":{"related_to":"5884","part_or_object":"p","notes":null,"placename":"Tianjin, China","id":11011,"name":"origin","lat":"39.121079","lon":"117.214389","hops":{"incoming":[],"outgoing":[{"transport_id":null,"id":"7776","transport_name":null,"transport_description":null,"transport_unit":null,"transport_co2_eq":null,"from_stop_id":"11011","from_stop_lat":"39.121079","from_stop_lon":"117.214389","from_stop_placename":"Tianjin, China","to_stop_id":"11010","to_stop_name":"origin","to_stop_lat":"35.1795543","to_stop_lon":"129.0756416","to_stop_placename":"Busan, South Korea","to_stop":{"id":"11010","name":"origin","lat":"35.1795543","lon":"129.0756416","placename":"Busan, South Korea"},"from_stop":{"name":"origin","id":"11011","lat":"39.121079","lon":"117.214389","placename":"Tianjin, China"}}]}}},"processes":[],"eols":[]},{"oid":"432","imid":"5885","linkid":"0","weight":"0","rawemissions":"0","emissions":"0","shipping":"900.35","processemissions":"0","endoflifeemissions":"0","disposaltype":null,"disposalenergy":null,"disposalimpact":null,"disposalemissions":null,"description":"","name":"LED Backlight","id":"5885","stops":{"origin":{"related_to":"5885","part_or_object":"p","notes":null,"placename":"Suzhou, Jiangsu, China","id":11012,"name":"origin","lat":"31.298886","lon":"120.585316","hops":{"incoming":[],"outgoing":[{"transport_id":null,"id":"7777","transport_name":null,"transport_description":null,"transport_unit":null,"transport_co2_eq":null,"from_stop_id":"11012","from_stop_lat":"31.298886","from_stop_lon":"120.585316","from_stop_placename":"Suzhou, Jiangsu, China","to_stop_id":"11010","to_stop_name":"origin","to_stop_lat":"35.1795543","to_stop_lon":"129.0756416","to_stop_placename":"Busan, South Korea","to_stop":{"id":"11010","name":"origin","lat":"35.1795543","lon":"129.0756416","placename":"Busan, South Korea"},"from_stop":{"name":"origin","id":"11012","lat":"31.298886","lon":"120.585316","placename":"Suzhou, Jiangsu, China"}}]}}},"processes":[],"eols":[]},{"oid":"432","imid":"5886","linkid":"0","weight":"0","rawemissions":"0","emissions":"0","shipping":"0","processemissions":"0","endoflifeemissions":"0","disposaltype":null,"disposalenergy":null,"disposalimpact":null,"disposalemissions":null,"description":"","name":"through Shinhang Port","id":"5886","stops":{"origin":{"related_to":"5886","part_or_object":"p","notes":null,"placename":"Busan, South Korea","id":11013,"name":"origin","lat":"35.1795543","lon":"129.0756416","hops":{"incoming":[],"outgoing":[{"transport_id":null,"id":"7778","transport_name":null,"transport_description":null,"transport_unit":null,"transport_co2_eq":null,"from_stop_id":"11013","from_stop_lat":"35.1795543","from_stop_lon":"129.0756416","from_stop_placename":"Busan, South Korea","to_stop_id":"11010","to_stop_name":"origin","to_stop_lat":"35.1795543","to_stop_lon":"129.0756416","to_stop_placename":"Busan, South Korea","to_stop":{"id":"11010","name":"origin","lat":"35.1795543","lon":"129.0756416","placename":"Busan, South Korea"},"from_stop":{"name":"origin","id":"11013","lat":"35.1795543","lon":"129.0756416","placename":"Busan, South Korea"}}]}}},"processes":[],"eols":[]},{"oid":"432","imid":"5892","linkid":"0","weight":"0","rawemissions":"0","emissions":"0","shipping":"256.48","processemissions":"0","endoflifeemissions":"0","disposaltype":null,"disposalenergy":null,"disposalimpact":null,"disposalemissions":null,"description":"","name":"LCD Module\/TV","id":"5892","stops":{"origin":{"related_to":"5892","part_or_object":"p","notes":null,"placename":"Tangjeong-myeon, Asan-si, Chungcheongnam-do, South Korea","id":11014,"name":"origin","lat":"36.8003919","lon":"127.0516906","hops":{"incoming":[],"outgoing":[{"transport_id":null,"id":"7779","transport_name":null,"transport_description":null,"transport_unit":null,"transport_co2_eq":null,"from_stop_id":"11014","from_stop_lat":"36.8003919","from_stop_lon":"127.0516906","from_stop_placename":"Tangjeong-myeon, Asan-si, Chungcheongnam-do, South Korea","to_stop_id":"11010","to_stop_name":"origin","to_stop_lat":"35.1795543","to_stop_lon":"129.0756416","to_stop_placename":"Busan, South Korea","to_stop":{"id":"11010","name":"origin","lat":"35.1795543","lon":"129.0756416","placename":"Busan, South Korea"},"from_stop":{"name":"origin","id":"11014","lat":"36.8003919","lon":"127.0516906","placename":"Tangjeong-myeon, Asan-si, Chungcheongnam-do, South Korea"}}]}}},"processes":[],"eols":[]},{"oid":"432","imid":"5893","linkid":"0","weight":"0","rawemissions":"0","emissions":"0","shipping":"294.62","processemissions":"0","endoflifeemissions":"0","disposaltype":null,"disposalenergy":null,"disposalimpact":null,"disposalemissions":null,"description":"Central distribution centre","name":"to Samsung Electronics Logitech","id":"5893","stops":{"origin":{"related_to":"5893","part_or_object":"p","notes":null,"placename":"Yeongtong-gu, Suwon-si, Gyeonggi-do, South Korea","id":11015,"name":"origin","lat":"37.2594897","lon":"127.0466381","hops":{"incoming":[],"outgoing":[{"transport_id":null,"id":"7780","transport_name":null,"transport_description":null,"transport_unit":null,"transport_co2_eq":null,"from_stop_id":"11015","from_stop_lat":"37.2594897","from_stop_lon":"127.0466381","from_stop_placename":"Yeongtong-gu, Suwon-si, Gyeonggi-do, South Korea","to_stop_id":"11010","to_stop_name":"origin","to_stop_lat":"35.1795543","to_stop_lon":"129.0756416","to_stop_placename":"Busan, South Korea","to_stop":{"id":"11010","name":"origin","lat":"35.1795543","lon":"129.0756416","placename":"Busan, South Korea"},"from_stop":{"name":"origin","id":"11015","lat":"37.2594897","lon":"127.0466381","placename":"Yeongtong-gu, Suwon-si, Gyeonggi-do, South Korea"}}]}}},"processes":[],"eols":[]},{"oid":"432","imid":"5911","linkid":"0","weight":"0","rawemissions":"0","emissions":"0","shipping":"4584.47","processemissions":"0","endoflifeemissions":"0","disposaltype":null,"disposalenergy":null,"disposalimpact":null,"disposalemissions":null,"description":"","name":"to Singapore","id":"5911","stops":{"origin":{"related_to":"5911","part_or_object":"p","notes":null,"placename":"Singapore","id":11016,"name":"origin","lat":"1.352083","lon":"103.819836","hops":{"incoming":[],"outgoing":[{"transport_id":null,"id":"7781","transport_name":null,"transport_description":null,"transport_unit":null,"transport_co2_eq":null,"from_stop_id":"11016","from_stop_lat":"1.352083","from_stop_lon":"103.819836","from_stop_placename":"Singapore","to_stop_id":"11010","to_stop_name":"origin","to_stop_lat":"35.1795543","to_stop_lon":"129.0756416","to_stop_placename":"Busan, South Korea","to_stop":{"id":"11010","name":"origin","lat":"35.1795543","lon":"129.0756416","placename":"Busan, South Korea"},"from_stop":{"name":"origin","id":"11016","lat":"1.352083","lon":"103.819836","placename":"Singapore"}}]}}},"processes":[],"eols":[]}],"user":{"name":"cia","id":"12268"}}}