{"4331":{"oid":"4331","type":"object","flag":"","creator":"11046","name":"AES0015","upc":"","imagelink":"","description":"2.5M2, Type G, Portrait Header and Riser Collector","slug":"aes0015","category":"","weight":"23.936","emissions":"1254.99112688","embodied":"77.88968","transport":"0.674633881","process":"2912.939303","endoflife":"-55.595304","shipping":"7980.54","lifetime":null,"usagetype":"","usageenergy":null,"usageemissions":null,"timecreated":"2010-10-28 10:36:31.949711","timemodified":"2010-11-26 04:34:26","visibility":"private","showfootprint":"on","showembodied":"on","showtransport":"on","showprocess":"on","showendoflife":"on","showlastleg":"on","showuse":"on","showstats":"on","stops":{"origin":{"related_to":"4331","part_or_object":"o","notes":null,"placename":"Lea Rd, Forres, Moray IV36 1, UK","id":"7462","category":"1","lat":"57.6119367","lon":"-3.6172283","name":"origin","hops":{"incoming":[{"transport_id":"3","id":"5019","transport_name":"truck, 40 tons","transport_description":"truck, half full","transport_unit":"kg km","transport_co2_eq":"0.030900","from_stop_id":"7463","from_stop_lat":"53.0975199","from_stop_lon":"-1.3840387","to_stop_id":"7462","to_stop_name":"origin","to_stop_lat":"57.6119367","placename":"Alfreton, Derbyshire DE55, UK","to_stop_lon":"-3.6172283","to_stop":{"id":"7462","name":"origin","lat":"57.6119367","placename":"Lea Rd, Forres, Moray IV36 1, UK","lon":"-3.6172283"},"from_stop":{"name":"origin","id":"7463","lat":"53.0975199","lon":"-1.3840387","placename":"Alfreton, Derbyshire DE55, UK"}},{"transport_id":"3","id":"5020","transport_name":"truck, 40 tons","transport_description":"truck, half full","transport_unit":"kg km","transport_co2_eq":"0.030900","from_stop_id":"7464","from_stop_lat":"53.0975199","from_stop_lon":"-1.3840387","to_stop_id":"7462","to_stop_name":"origin","to_stop_lat":"57.6119367","placename":"Alfreton, Derbyshire DE55, UK","to_stop_lon":"-3.6172283","to_stop":{"id":"7462","name":"origin","lat":"57.6119367","placename":"Lea Rd, Forres, Moray IV36 1, UK","lon":"-3.6172283"},"from_stop":{"name":"origin","id":"7464","lat":"53.0975199","lon":"-1.3840387","placename":"Alfreton, Derbyshire DE55, UK"}},{"transport_id":"3","id":"5021","transport_name":"truck, 40 tons","transport_description":"truck, half full","transport_unit":"kg km","transport_co2_eq":"0.030900","from_stop_id":"7465","from_stop_lat":"57.1217689","from_stop_lon":"-2.0690483","to_stop_id":"7462","to_stop_name":"origin","to_stop_lat":"57.6119367","placename":"Aberdeen, Aberdeen City AB12 3HT, UK","to_stop_lon":"-3.6172283","to_stop":{"id":"7462","name":"origin","lat":"57.6119367","placename":"Lea Rd, Forres, Moray IV36 1, UK","lon":"-3.6172283"},"from_stop":{"name":"origin","id":"7465","lat":"57.1217689","lon":"-2.0690483","placename":"Aberdeen, Aberdeen City AB12 3HT, UK"}},{"transport_id":"3","id":"5022","transport_name":"truck, 40 tons","transport_description":"truck, half full","transport_unit":"kg km","transport_co2_eq":"0.030900","from_stop_id":"7466","from_stop_lat":"57.1217689","from_stop_lon":"-2.0690483","to_stop_id":"7462","to_stop_name":"origin","to_stop_lat":"57.6119367","placename":"Aberdeen, Aberdeen City AB12 3HT, UK","to_stop_lon":"-3.6172283","to_stop":{"id":"7462","name":"origin","lat":"57.6119367","placename":"Lea Rd, Forres, Moray IV36 1, UK","lon":"-3.6172283"},"from_stop":{"name":"origin","id":"7466","lat":"57.1217689","lon":"-2.0690483","placename":"Aberdeen, Aberdeen City AB12 3HT, UK"}},{"transport_id":"9","id":"5023","transport_name":"container ship","transport_description":"moving boxcar size containers","transport_unit":"kg km","transport_co2_eq":"0.047800","from_stop_id":"7467","from_stop_lat":"60.128161","from_stop_lon":"18.643501","to_stop_id":"7462","to_stop_name":"origin","to_stop_lat":"57.6119367","placename":"Sweden","to_stop_lon":"-3.6172283","to_stop":{"id":"7462","name":"origin","lat":"57.6119367","placename":"Lea Rd, Forres, Moray IV36 1, UK","lon":"-3.6172283"},"from_stop":{"name":"origin","id":"7467","lat":"60.128161","lon":"18.643501","placename":"Sweden"}},{"transport_id":"1","id":"5024","transport_name":"van, 3.5 tons","transport_description":"delivery van, half full","transport_unit":"kg km","transport_co2_eq":"0.053400","from_stop_id":"7468","from_stop_lat":"51.7529133","from_stop_lon":"-2.2957088","to_stop_id":"7462","to_stop_name":"origin","to_stop_lat":"57.6119367","placename":"Stonehouse, Gloucestershire GL10 3SW, UK","to_stop_lon":"-3.6172283","to_stop":{"id":"7462","name":"origin","lat":"57.6119367","placename":"Lea Rd, Forres, Moray IV36 1, UK","lon":"-3.6172283"},"from_stop":{"name":"origin","id":"7468","lat":"51.7529133","lon":"-2.2957088","placename":"Stonehouse, Gloucestershire GL10 3SW, UK"}},{"transport_id":"3","id":"5025","transport_name":"truck, 40 tons","transport_description":"truck, half full","transport_unit":"kg km","transport_co2_eq":"0.030900","from_stop_id":"7469","from_stop_lat":"57.1217689","from_stop_lon":"-2.0690483","to_stop_id":"7462","to_stop_name":"origin","to_stop_lat":"57.6119367","placename":"Aberdeen, Aberdeen City AB12 3HT, UK","to_stop_lon":"-3.6172283","to_stop":{"id":"7462","name":"origin","lat":"57.6119367","placename":"Lea Rd, Forres, Moray IV36 1, UK","lon":"-3.6172283"},"from_stop":{"name":"origin","id":"7469","lat":"57.1217689","lon":"-2.0690483","placename":"Aberdeen, Aberdeen City AB12 3HT, UK"}},{"transport_id":"1","id":"5026","transport_name":"van, 3.5 tons","transport_description":"delivery van, half full","transport_unit":"kg km","transport_co2_eq":"0.053400","from_stop_id":"7470","from_stop_lat":"51.7529133","from_stop_lon":"-2.2957088","to_stop_id":"7462","to_stop_name":"origin","to_stop_lat":"57.6119367","placename":"Stonehouse, Gloucestershire GL10 3SW, UK","to_stop_lon":"-3.6172283","to_stop":{"id":"7462","name":"origin","lat":"57.6119367","placename":"Lea Rd, Forres, Moray IV36 1, UK","lon":"-3.6172283"},"from_stop":{"name":"origin","id":"7470","lat":"51.7529133","lon":"-2.2957088","placename":"Stonehouse, Gloucestershire GL10 3SW, UK"}},{"transport_id":"1","id":"5027","transport_name":"van, 3.5 tons","transport_description":"delivery van, half full","transport_unit":"kg km","transport_co2_eq":"0.053400","from_stop_id":"7471","from_stop_lat":"51.7529133","from_stop_lon":"-2.2957088","to_stop_id":"7462","to_stop_name":"origin","to_stop_lat":"57.6119367","placename":"Stonehouse, Gloucestershire GL10 3SW, UK","to_stop_lon":"-3.6172283","to_stop":{"id":"7462","name":"origin","lat":"57.6119367","placename":"Lea Rd, Forres, Moray IV36 1, UK","lon":"-3.6172283"},"from_stop":{"name":"origin","id":"7471","lat":"51.7529133","lon":"-2.2957088","placename":"Stonehouse, Gloucestershire GL10 3SW, UK"}},{"transport_id":"3","id":"5028","transport_name":"truck, 40 tons","transport_description":"truck, half full","transport_unit":"kg km","transport_co2_eq":"0.030900","from_stop_id":"7472","from_stop_lat":"52.0450475","from_stop_lon":"0.9527955","to_stop_id":"7462","to_stop_name":"origin","to_stop_lat":"57.6119367","placename":"Hadleigh, Ipswich, Suffolk, UK","to_stop_lon":"-3.6172283","to_stop":{"id":"7462","name":"origin","lat":"57.6119367","placename":"Lea Rd, Forres, Moray IV36 1, UK","lon":"-3.6172283"},"from_stop":{"name":"origin","id":"7472","lat":"52.0450475","lon":"0.9527955","placename":"Hadleigh, Ipswich, Suffolk, UK"}},{"transport_id":"2","id":"5029","transport_name":"truck, 16 tons","transport_description":"truck, half full","transport_unit":"kg km","transport_co2_eq":"0.020300","from_stop_id":"7473","from_stop_lat":"57.1474934","from_stop_lon":"-2.0953919","to_stop_id":"7462","to_stop_name":"origin","to_stop_lat":"57.6119367","placename":"Aberdeen, Aberdeen City, UK","to_stop_lon":"-3.6172283","to_stop":{"id":"7462","name":"origin","lat":"57.6119367","placename":"Lea Rd, Forres, Moray IV36 1, UK","lon":"-3.6172283"},"from_stop":{"name":"origin","id":"7473","lat":"57.1474934","lon":"-2.0953919","placename":"Aberdeen, Aberdeen City, UK"}},{"transport_id":"9","id":"5030","transport_name":"container ship","transport_description":"moving boxcar size containers","transport_unit":"kg km","transport_co2_eq":"0.047800","from_stop_id":"7474","from_stop_lat":"60.128161","from_stop_lon":"18.643501","to_stop_id":"7462","to_stop_name":"origin","to_stop_lat":"57.6119367","placename":"Sweden","to_stop_lon":"-3.6172283","to_stop":{"id":"7462","name":"origin","lat":"57.6119367","placename":"Lea Rd, Forres, Moray IV36 1, UK","lon":"-3.6172283"},"from_stop":{"name":"origin","id":"7474","lat":"60.128161","lon":"18.643501","placename":"Sweden"}},{"transport_id":"1","id":"5031","transport_name":"van, 3.5 tons","transport_description":"delivery van, half full","transport_unit":"kg km","transport_co2_eq":"0.053400","from_stop_id":"7475","from_stop_lat":"51.483113","from_stop_lon":"-0.0723212","to_stop_id":"7462","to_stop_name":"origin","to_stop_lat":"57.6119367","placename":"Glengall Rd, Camberwell, Greater London SE15 6, UK","to_stop_lon":"-3.6172283","to_stop":{"id":"7462","name":"origin","lat":"57.6119367","placename":"Lea Rd, Forres, Moray IV36 1, UK","lon":"-3.6172283"},"from_stop":{"name":"origin","id":"7475","lat":"51.483113","lon":"-0.0723212","placename":"Glengall Rd, Camberwell, Greater London SE15 6, UK"}},{"transport_id":"1","id":"5032","transport_name":"van, 3.5 tons","transport_description":"delivery van, half full","transport_unit":"kg km","transport_co2_eq":"0.053400","from_stop_id":"7476","from_stop_lat":"52.9991432","from_stop_lon":"-2.1860908","to_stop_id":"7462","to_stop_name":"origin","to_stop_lat":"57.6119367","placename":"Stoke-on-Trent ST4 4AP, UK","to_stop_lon":"-3.6172283","to_stop":{"id":"7462","name":"origin","lat":"57.6119367","placename":"Lea Rd, Forres, Moray IV36 1, UK","lon":"-3.6172283"},"from_stop":{"name":"origin","id":"7476","lat":"52.9991432","lon":"-2.1860908","placename":"Stoke-on-Trent ST4 4AP, UK"}}],"outgoing":[]}}},"parts":[{"oid":"4331","imid":"4641","linkid":"parts\/aluminum-typical","weight":"7.093","rawemissions":"3.6","emissions":"25.5348","shipping":"521.96","processemissions":"410.53489584","endoflifeemissions":"-25.5348","disposaltype":null,"disposalenergy":null,"disposalimpact":null,"disposalemissions":null,"description":"","name":"Aluminum, Typical","id":"4641","stops":{"origin":{"related_to":"4641","part_or_object":"p","notes":null,"placename":"Alfreton, Derbyshire DE55, UK","id":7463,"name":"origin","lat":"53.0975199","lon":"-1.3840387","hops":{"incoming":[],"outgoing":[{"transport_id":"3","id":"5019","transport_name":"truck, 40 tons","transport_description":"truck, half full","transport_unit":"kg km","transport_co2_eq":"0.030900","from_stop_id":"7463","from_stop_lat":"53.0975199","from_stop_lon":"-1.3840387","from_stop_placename":"Alfreton, Derbyshire DE55, UK","to_stop_id":"7462","to_stop_name":"origin","to_stop_lat":"57.6119367","to_stop_lon":"-3.6172283","to_stop_placename":"Lea Rd, Forres, Moray IV36 1, UK","to_stop":{"id":"7462","name":"origin","lat":"57.6119367","lon":"-3.6172283","placename":"Lea Rd, Forres, Moray IV36 1, UK"},"from_stop":{"name":"origin","id":"7463","lat":"53.0975199","lon":"-1.3840387","placename":"Alfreton, Derbyshire DE55, UK"}}]}}},"processes":[{"id":"373","name":"aluminum extrusion","description":"of profiles like window frames","type":"metal","emissions":"57.87888","parts_inst_id":"4641","unit":"kg","factor":"0"}],"eols":[{"id":"343","name":"Aluminum, Typical","description":null,"type":"reuse","emissions":"0","parts_inst_id":"4641","unit":"","factor":null}]},{"oid":"4331","imid":"4642","linkid":"parts\/aluminum-typical","weight":"0.648","rawemissions":"3.6","emissions":"2.3328","shipping":"521.96","processemissions":"3.42641664","endoflifeemissions":"-2.3328","disposaltype":null,"disposalenergy":null,"disposalimpact":null,"disposalemissions":null,"description":"","name":"Aluminum, Typical","id":"4642","stops":{"origin":{"related_to":"4642","part_or_object":"p","notes":null,"placename":"Alfreton, Derbyshire DE55, UK","id":7464,"name":"origin","lat":"53.0975199","lon":"-1.3840387","hops":{"incoming":[],"outgoing":[{"transport_id":"3","id":"5020","transport_name":"truck, 40 tons","transport_description":"truck, half full","transport_unit":"kg km","transport_co2_eq":"0.030900","from_stop_id":"7464","from_stop_lat":"53.0975199","from_stop_lon":"-1.3840387","from_stop_placename":"Alfreton, Derbyshire DE55, UK","to_stop_id":"7462","to_stop_name":"origin","to_stop_lat":"57.6119367","to_stop_lon":"-3.6172283","to_stop_placename":"Lea Rd, Forres, Moray IV36 1, UK","to_stop":{"id":"7462","name":"origin","lat":"57.6119367","lon":"-3.6172283","placename":"Lea Rd, Forres, Moray IV36 1, UK"},"from_stop":{"name":"origin","id":"7464","lat":"53.0975199","lon":"-1.3840387","placename":"Alfreton, Derbyshire DE55, UK"}}]}}},"processes":[{"id":"374","name":"aluminum extrusion","description":"of profiles like window frames","type":"metal","emissions":"5.28768","parts_inst_id":"4642","unit":"kg","factor":"0"}],"eols":[{"id":"344","name":"Aluminum, Typical","description":null,"type":"reuse","emissions":"0","parts_inst_id":"4642","unit":"","factor":null}]},{"oid":"4331","imid":"4643","linkid":"parts\/aluminum-typical","weight":"0.25","rawemissions":"3.6","emissions":"0.9","shipping":"107.77","processemissions":"0.51","endoflifeemissions":"-0.9","disposaltype":null,"disposalenergy":null,"disposalimpact":null,"disposalemissions":null,"description":"","name":"Aluminum, Typical","id":"4643","stops":{"origin":{"related_to":"4643","part_or_object":"p","notes":null,"placename":"Aberdeen, Aberdeen City AB12 3HT, UK","id":7465,"name":"origin","lat":"57.1217689","lon":"-2.0690483","hops":{"incoming":[],"outgoing":[{"transport_id":"3","id":"5021","transport_name":"truck, 40 tons","transport_description":"truck, half full","transport_unit":"kg km","transport_co2_eq":"0.030900","from_stop_id":"7465","from_stop_lat":"57.1217689","from_stop_lon":"-2.0690483","from_stop_placename":"Aberdeen, Aberdeen City AB12 3HT, UK","to_stop_id":"7462","to_stop_name":"origin","to_stop_lat":"57.6119367","to_stop_lon":"-3.6172283","to_stop_placename":"Lea Rd, Forres, Moray IV36 1, UK","to_stop":{"id":"7462","name":"origin","lat":"57.6119367","lon":"-3.6172283","placename":"Lea Rd, Forres, Moray IV36 1, UK"},"from_stop":{"name":"origin","id":"7465","lat":"57.1217689","lon":"-2.0690483","placename":"Aberdeen, Aberdeen City AB12 3HT, UK"}}]}}},"processes":[{"id":"375","name":"aluminum extrusion","description":"of profiles like window frames","type":"metal","emissions":"2.04","parts_inst_id":"4643","unit":"kg","factor":"0"}],"eols":[{"id":"345","name":"Aluminum, Typical","description":null,"type":"reuse","emissions":"0","parts_inst_id":"4643","unit":"","factor":null}]},{"oid":"4331","imid":"4644","linkid":"parts\/aluminum-typical","weight":"0.28","rawemissions":"3.6","emissions":"1.008","shipping":"107.77","processemissions":"0.0196","endoflifeemissions":"-1.008","disposaltype":null,"disposalenergy":null,"disposalimpact":null,"disposalemissions":null,"description":"","name":"Aluminum, Typical","id":"4644","stops":{"origin":{"related_to":"4644","part_or_object":"p","notes":null,"placename":"Aberdeen, Aberdeen City AB12 3HT, UK","id":7466,"name":"origin","lat":"57.1217689","lon":"-2.0690483","hops":{"incoming":[],"outgoing":[{"transport_id":"3","id":"5022","transport_name":"truck, 40 tons","transport_description":"truck, half full","transport_unit":"kg km","transport_co2_eq":"0.030900","from_stop_id":"7466","from_stop_lat":"57.1217689","from_stop_lon":"-2.0690483","from_stop_placename":"Aberdeen, Aberdeen City AB12 3HT, UK","to_stop_id":"7462","to_stop_name":"origin","to_stop_lat":"57.6119367","to_stop_lon":"-3.6172283","to_stop_placename":"Lea Rd, Forres, Moray IV36 1, UK","to_stop":{"id":"7462","name":"origin","lat":"57.6119367","lon":"-3.6172283","placename":"Lea Rd, Forres, Moray IV36 1, UK"},"from_stop":{"name":"origin","id":"7466","lat":"57.1217689","lon":"-2.0690483","placename":"Aberdeen, Aberdeen City AB12 3HT, UK"}}]}}},"processes":[{"id":"376","name":"aluminum rolling","description":"rolling of aluminum sheet","type":"metal","emissions":"0.07","parts_inst_id":"4644","unit":"kg","factor":"0"}],"eols":[{"id":"346","name":"Aluminum, Typical","description":null,"type":"reuse","emissions":"0","parts_inst_id":"4644","unit":"","factor":null}]},{"oid":"4331","imid":"4645","linkid":"parts\/aluminum-typical","weight":"3.103","rawemissions":"3.6","emissions":"11.1708","shipping":"1304.66","processemissions":"1088.9792","endoflifeemissions":"-11.1708","disposaltype":null,"disposalenergy":null,"disposalimpact":null,"disposalemissions":null,"description":"","name":"Aluminum, Typical","id":"4645","stops":{"origin":{"related_to":"4645","part_or_object":"p","notes":null,"placename":"Sweden","id":7467,"name":"origin","lat":"60.128161","lon":"18.643501","hops":{"incoming":[],"outgoing":[{"transport_id":"9","id":"5023","transport_name":"container ship","transport_description":"moving boxcar size containers","transport_unit":"kg km","transport_co2_eq":"0.047800","from_stop_id":"7467","from_stop_lat":"60.128161","from_stop_lon":"18.643501","from_stop_placename":"Sweden","to_stop_id":"7462","to_stop_name":"origin","to_stop_lat":"57.6119367","to_stop_lon":"-3.6172283","to_stop_placename":"Lea Rd, Forres, Moray IV36 1, UK","to_stop":{"id":"7462","name":"origin","lat":"57.6119367","lon":"-3.6172283","placename":"Lea Rd, Forres, Moray IV36 1, UK"},"from_stop":{"name":"origin","id":"7467","lat":"60.128161","lon":"18.643501","placename":"Sweden"}}]}}},"processes":[{"id":"377","name":"al. spot welding","description":"0.2 inch x 0.2 inch weld","type":"metal","emissions":"1088.238","parts_inst_id":"4645","unit":"spot","factor":"1"},{"id":"378","name":"al. anodizing ","description":null,"type":null,"emissions":"0.7412","parts_inst_id":"4645","unit":"sqmt","factor":"1"}],"eols":[{"id":"347","name":"Aluminum, Typical","description":null,"type":"reuse","emissions":"0","parts_inst_id":"4645","unit":"","factor":null}]},{"oid":"4331","imid":"4646","linkid":"parts\/aluminum-typical","weight":"0.049","rawemissions":"3.6","emissions":"0.1764","shipping":"657.71","processemissions":"0.000151263","endoflifeemissions":"-0.1764","disposaltype":null,"disposalenergy":null,"disposalimpact":null,"disposalemissions":null,"description":"","name":"Aluminum, Typical","id":"4646","stops":{"origin":{"related_to":"4646","part_or_object":"p","notes":null,"placename":"Stonehouse, Gloucestershire GL10 3SW, UK","id":7468,"name":"origin","lat":"51.7529133","lon":"-2.2957088","hops":{"incoming":[],"outgoing":[{"transport_id":"1","id":"5024","transport_name":"van, 3.5 tons","transport_description":"delivery van, half full","transport_unit":"kg km","transport_co2_eq":"0.053400","from_stop_id":"7468","from_stop_lat":"51.7529133","from_stop_lon":"-2.2957088","from_stop_placename":"Stonehouse, Gloucestershire GL10 3SW, UK","to_stop_id":"7462","to_stop_name":"origin","to_stop_lat":"57.6119367","to_stop_lon":"-3.6172283","to_stop_placename":"Lea Rd, Forres, Moray IV36 1, UK","to_stop":{"id":"7462","name":"origin","lat":"57.6119367","lon":"-3.6172283","placename":"Lea Rd, Forres, Moray IV36 1, UK"},"from_stop":{"name":"origin","id":"7468","lat":"51.7529133","lon":"-2.2957088","placename":"Stonehouse, Gloucestershire GL10 3SW, UK"}}]}}},"processes":[{"id":"379","name":"al.machining","description":"from electrical consumption","type":"metal","emissions":"0.003087","parts_inst_id":"4646","unit":"kg","factor":"0"}],"eols":[{"id":"348","name":"Aluminum, Typical","description":null,"type":"reuse","emissions":"0","parts_inst_id":"4646","unit":"","factor":null}]},{"oid":"4331","imid":"4647","linkid":"parts\/aluminum-typical","weight":"2.4","rawemissions":"3.6","emissions":"8.64","shipping":"107.77","processemissions":"47.3841","endoflifeemissions":"-8.64","disposaltype":null,"disposalenergy":null,"disposalimpact":null,"disposalemissions":null,"description":"","name":"Aluminum, Typical","id":"4647","stops":{"origin":{"related_to":"4647","part_or_object":"p","notes":null,"placename":"Aberdeen, Aberdeen City AB12 3HT, UK","id":7469,"name":"origin","lat":"57.1217689","lon":"-2.0690483","hops":{"incoming":[],"outgoing":[{"transport_id":"3","id":"5025","transport_name":"truck, 40 tons","transport_description":"truck, half full","transport_unit":"kg km","transport_co2_eq":"0.030900","from_stop_id":"7469","from_stop_lat":"57.1217689","from_stop_lon":"-2.0690483","from_stop_placename":"Aberdeen, Aberdeen City AB12 3HT, UK","to_stop_id":"7462","to_stop_name":"origin","to_stop_lat":"57.6119367","to_stop_lon":"-3.6172283","to_stop_placename":"Lea Rd, Forres, Moray IV36 1, UK","to_stop":{"id":"7462","name":"origin","lat":"57.6119367","lon":"-3.6172283","placename":"Lea Rd, Forres, Moray IV36 1, UK"},"from_stop":{"name":"origin","id":"7469","lat":"57.1217689","lon":"-2.0690483","placename":"Aberdeen, Aberdeen City AB12 3HT, UK"}}]}}},"processes":[{"id":"380","name":"al. anodizing ","description":"","type":"metal","emissions":"0.3825","parts_inst_id":"4647","unit":"sqmt","factor":"1"},{"id":"381","name":"aluminum extrusion","description":"of profiles like window frames","type":"metal","emissions":"19.584","parts_inst_id":"4647","unit":"kg","factor":"0"}],"eols":[{"id":"349","name":"Aluminum, Typical","description":null,"type":"reuse","emissions":"0","parts_inst_id":"4647","unit":"","factor":null}]},{"oid":"4331","imid":"4648","linkid":"parts\/steel-stainless","weight":"0.1","rawemissions":"6.63","emissions":"0.663","shipping":"657.71","processemissions":"0.00036","endoflifeemissions":"-0.663","disposaltype":null,"disposalenergy":null,"disposalimpact":null,"disposalemissions":null,"description":"","name":"Steel, Stainless","id":"4648","stops":{"origin":{"related_to":"4648","part_or_object":"p","notes":null,"placename":"Stonehouse, Gloucestershire GL10 3SW, UK","id":7470,"name":"origin","lat":"51.7529133","lon":"-2.2957088","hops":{"incoming":[],"outgoing":[{"transport_id":"1","id":"5026","transport_name":"van, 3.5 tons","transport_description":"delivery van, half full","transport_unit":"kg km","transport_co2_eq":"0.053400","from_stop_id":"7470","from_stop_lat":"51.7529133","from_stop_lon":"-2.2957088","from_stop_placename":"Stonehouse, Gloucestershire GL10 3SW, UK","to_stop_id":"7462","to_stop_name":"origin","to_stop_lat":"57.6119367","to_stop_lon":"-3.6172283","to_stop_placename":"Lea Rd, Forres, Moray IV36 1, UK","to_stop":{"id":"7462","name":"origin","lat":"57.6119367","lon":"-3.6172283","placename":"Lea Rd, Forres, Moray IV36 1, UK"},"from_stop":{"name":"origin","id":"7470","lat":"51.7529133","lon":"-2.2957088","placename":"Stonehouse, Gloucestershire GL10 3SW, UK"}}]}}},"processes":[{"id":"382","name":"steel machining","description":"from electrical consumption","type":"metal","emissions":"0.0036","parts_inst_id":"4648","unit":"kg","factor":"0"}],"eols":[{"id":"350","name":"Steel, Stainless","description":null,"type":"reuse","emissions":"0","parts_inst_id":"4648","unit":"","factor":null}]},{"oid":"4331","imid":"4649","linkid":"parts\/steel-stainless","weight":"0.036","rawemissions":"6.63","emissions":"0.23868","shipping":"657.71","processemissions":"4.6656e-05","endoflifeemissions":"-0.23868","disposaltype":null,"disposalenergy":null,"disposalimpact":null,"disposalemissions":null,"description":"","name":"Steel, Stainless","id":"4649","stops":{"origin":{"related_to":"4649","part_or_object":"p","notes":null,"placename":"Stonehouse, Gloucestershire GL10 3SW, UK","id":7471,"name":"origin","lat":"51.7529133","lon":"-2.2957088","hops":{"incoming":[],"outgoing":[{"transport_id":"1","id":"5027","transport_name":"van, 3.5 tons","transport_description":"delivery van, half full","transport_unit":"kg km","transport_co2_eq":"0.053400","from_stop_id":"7471","from_stop_lat":"51.7529133","from_stop_lon":"-2.2957088","from_stop_placename":"Stonehouse, Gloucestershire GL10 3SW, UK","to_stop_id":"7462","to_stop_name":"origin","to_stop_lat":"57.6119367","to_stop_lon":"-3.6172283","to_stop_placename":"Lea Rd, Forres, Moray IV36 1, UK","to_stop":{"id":"7462","name":"origin","lat":"57.6119367","lon":"-3.6172283","placename":"Lea Rd, Forres, Moray IV36 1, UK"},"from_stop":{"name":"origin","id":"7471","lat":"51.7529133","lon":"-2.2957088","placename":"Stonehouse, Gloucestershire GL10 3SW, UK"}}]}}},"processes":[{"id":"383","name":"steel machining","description":"from electrical consumption","type":"metal","emissions":"0.001296","parts_inst_id":"4649","unit":"kg","factor":"0"}],"eols":[{"id":"351","name":"Steel, Stainless","description":null,"type":"reuse","emissions":"0","parts_inst_id":"4649","unit":"","factor":null}]},{"oid":"4331","imid":"4652","linkid":"parts\/pu-foam-insulation","weight":"3.2","rawemissions":"1.2","emissions":"3.84","shipping":"685.13","processemissions":"0","endoflifeemissions":"0.0416","disposaltype":null,"disposalenergy":null,"disposalimpact":null,"disposalemissions":null,"description":"","name":"PU Foam Insulation","id":"4652","stops":{"origin":{"related_to":"4652","part_or_object":"p","notes":null,"placename":"Hadleigh, Ipswich, Suffolk, UK","id":7472,"name":"origin","lat":"52.0450475","lon":"0.9527955","hops":{"incoming":[],"outgoing":[{"transport_id":"3","id":"5028","transport_name":"truck, 40 tons","transport_description":"truck, half full","transport_unit":"kg km","transport_co2_eq":"0.030900","from_stop_id":"7472","from_stop_lat":"52.0450475","from_stop_lon":"0.9527955","from_stop_placename":"Hadleigh, Ipswich, Suffolk, UK","to_stop_id":"7462","to_stop_name":"origin","to_stop_lat":"57.6119367","to_stop_lon":"-3.6172283","to_stop_placename":"Lea Rd, Forres, Moray IV36 1, UK","to_stop":{"id":"7462","name":"origin","lat":"57.6119367","lon":"-3.6172283","placename":"Lea Rd, Forres, Moray IV36 1, UK"},"from_stop":{"name":"origin","id":"7472","lat":"52.0450475","lon":"0.9527955","placename":"Hadleigh, Ipswich, Suffolk, UK"}}]}}},"processes":[],"eols":[{"id":"352","name":"PU Foam Insulation","description":null,"type":"landfill","emissions":"0.013","parts_inst_id":"4652","unit":"kg","factor":null}]},{"oid":"4331","imid":"4654","linkid":"parts\/pc","weight":"4.24","rawemissions":"4.2","emissions":"17.808","shipping":"104.94","processemissions":"0.359552","endoflifeemissions":"0","disposaltype":null,"disposalenergy":null,"disposalimpact":null,"disposalemissions":null,"description":"","name":"PC","id":"4654","stops":{"origin":{"related_to":"4654","part_or_object":"p","notes":null,"placename":"Aberdeen, Aberdeen City, UK","id":7473,"name":"origin","lat":"57.1474934","lon":"-2.0953919","hops":{"incoming":[],"outgoing":[{"transport_id":"2","id":"5029","transport_name":"truck, 16 tons","transport_description":"truck, half full","transport_unit":"kg km","transport_co2_eq":"0.020300","from_stop_id":"7473","from_stop_lat":"57.1474934","from_stop_lon":"-2.0953919","from_stop_placename":"Aberdeen, Aberdeen City, UK","to_stop_id":"7462","to_stop_name":"origin","to_stop_lat":"57.6119367","to_stop_lon":"-3.6172283","to_stop_placename":"Lea Rd, Forres, Moray IV36 1, UK","to_stop":{"id":"7462","name":"origin","lat":"57.6119367","lon":"-3.6172283","placename":"Lea Rd, Forres, Moray IV36 1, UK"},"from_stop":{"name":"origin","id":"7473","lat":"57.1474934","lon":"-2.0953919","placename":"Aberdeen, Aberdeen City, UK"}}]}}},"processes":[{"id":"384","name":"film blow extrusion","description":"for films such as PE grocery sacks","type":"polymer","emissions":"0.0848","parts_inst_id":"4654","unit":"kg","factor":"0"}],"eols":[]},{"oid":"4331","imid":"4651","linkid":"parts\/copper-virgin","weight":"1.544","rawemissions":"2.15","emissions":"3.3196","shipping":"1304.66","processemissions":"2.07402432","endoflifeemissions":"-3.3196","disposaltype":null,"disposalenergy":null,"disposalimpact":null,"disposalemissions":null,"description":"","name":"Copper, Virgin","id":"4651","stops":{"origin":{"related_to":"4651","part_or_object":"p","notes":null,"placename":"Sweden","id":7474,"name":"origin","lat":"60.128161","lon":"18.643501","hops":{"incoming":[],"outgoing":[{"transport_id":"9","id":"5030","transport_name":"container ship","transport_description":"moving boxcar size containers","transport_unit":"kg km","transport_co2_eq":"0.047800","from_stop_id":"7474","from_stop_lat":"60.128161","from_stop_lon":"18.643501","from_stop_placename":"Sweden","to_stop_id":"7462","to_stop_name":"origin","to_stop_lat":"57.6119367","to_stop_lon":"-3.6172283","to_stop_placename":"Lea Rd, Forres, Moray IV36 1, UK","to_stop":{"id":"7462","name":"origin","lat":"57.6119367","lon":"-3.6172283","placename":"Lea Rd, Forres, Moray IV36 1, UK"},"from_stop":{"name":"origin","id":"7474","lat":"60.128161","lon":"18.643501","placename":"Sweden"}}]}}},"processes":[{"id":"385","name":"copper drawing","description":"copper wire drawing","type":"metal","emissions":"1.34328","parts_inst_id":"4651","unit":"kg","factor":"0"}],"eols":[{"id":"353","name":"Copper, Virgin","description":null,"type":"reuse","emissions":"0","parts_inst_id":"4651","unit":"","factor":null}]},{"oid":"4331","imid":"4653","linkid":"parts\/pet-virgin","weight":"0.223","rawemissions":"2.7","emissions":"0.6021","shipping":"719.38","processemissions":"0.01641057","endoflifeemissions":"0.002676","disposaltype":null,"disposalenergy":null,"disposalimpact":null,"disposalemissions":null,"description":"","name":"PET, virgin","id":"4653","stops":{"origin":{"related_to":"4653","part_or_object":"p","notes":null,"placename":"Glengall Rd, Camberwell, Greater London SE15 6, UK","id":7475,"name":"origin","lat":"51.483113","lon":"-0.0723212","hops":{"incoming":[],"outgoing":[{"transport_id":"1","id":"5031","transport_name":"van, 3.5 tons","transport_description":"delivery van, half full","transport_unit":"kg km","transport_co2_eq":"0.053400","from_stop_id":"7475","from_stop_lat":"51.483113","from_stop_lon":"-0.0723212","from_stop_placename":"Glengall Rd, Camberwell, Greater London SE15 6, UK","to_stop_id":"7462","to_stop_name":"origin","to_stop_lat":"57.6119367","to_stop_lon":"-3.6172283","to_stop_placename":"Lea Rd, Forres, Moray IV36 1, UK","to_stop":{"id":"7462","name":"origin","lat":"57.6119367","lon":"-3.6172283","placename":"Lea Rd, Forres, Moray IV36 1, UK"},"from_stop":{"name":"origin","id":"7475","lat":"51.483113","lon":"-0.0723212","placename":"Glengall Rd, Camberwell, Greater London SE15 6, UK"}}]}}},"processes":[{"id":"386","name":"thermoforming","description":"vacuum thermoforming","type":"polymer","emissions":"0.07359","parts_inst_id":"4653","unit":"kg","factor":"0"}],"eols":[{"id":"354","name":"PET, virgin","description":null,"type":"landfill","emissions":"0.012","parts_inst_id":"4653","unit":"kg","factor":null}]},{"oid":"4331","imid":"4650","linkid":"parts\/copper-virgin","weight":"0.77","rawemissions":"2.15","emissions":"1.6555","shipping":"521.41","processemissions":"0.515823","endoflifeemissions":"-1.6555","disposaltype":null,"disposalenergy":null,"disposalimpact":null,"disposalemissions":null,"description":"","name":"Copper, Virgin","id":"4650","stops":{"origin":{"related_to":"4650","part_or_object":"p","notes":null,"placename":"Stoke-on-Trent ST4 4AP, UK","id":7476,"name":"origin","lat":"52.9991432","lon":"-2.1860908","hops":{"incoming":[],"outgoing":[{"transport_id":"1","id":"5032","transport_name":"van, 3.5 tons","transport_description":"delivery van, half full","transport_unit":"kg km","transport_co2_eq":"0.053400","from_stop_id":"7476","from_stop_lat":"52.9991432","from_stop_lon":"-2.1860908","from_stop_placename":"Stoke-on-Trent ST4 4AP, UK","to_stop_id":"7462","to_stop_name":"origin","to_stop_lat":"57.6119367","to_stop_lon":"-3.6172283","to_stop_placename":"Lea Rd, Forres, Moray IV36 1, UK","to_stop":{"id":"7462","name":"origin","lat":"57.6119367","lon":"-3.6172283","placename":"Lea Rd, Forres, Moray IV36 1, UK"},"from_stop":{"name":"origin","id":"7476","lat":"52.9991432","lon":"-2.1860908","placename":"Stoke-on-Trent ST4 4AP, UK"}}]}}},"processes":[{"id":"387","name":"copper drawing","description":"copper wire drawing","type":"metal","emissions":"0.6699","parts_inst_id":"4650","unit":"kg","factor":"0"}],"eols":[{"id":"355","name":"Copper, Virgin","description":null,"type":"reuse","emissions":"0","parts_inst_id":"4650","unit":"","factor":null}]}],"user":{"name":"aes_solar","id":"11046"}}}