{"4342":{"oid":"4342","type":"trace","flag":"","creator":"11082","name":"Produk\u00c4\u008dn\u00c3\u00ad mapa","upc":"","imagelink":"","description":"","slug":"produkn-mapa","category":"","weight":"0","emissions":"0","embodied":"0","transport":"0","process":"0","endoflife":"0","shipping":"54094.51","lifetime":null,"usagetype":"","usageenergy":null,"usageemissions":null,"timecreated":"2010-10-29 09:51:39.566774","timemodified":"2010-10-29 15:42:53","visibility":"public","showfootprint":"on","showembodied":"on","showtransport":"on","showprocess":"on","showendoflife":"on","showlastleg":"on","showuse":"on","showstats":"on","stops":{"origin":{"related_to":"4342","part_or_object":"o","notes":"","placename":"Chelsea FC, Velk\u00c3\u00bd Lond\u00c3\u00bdn SW6, Velk\u00c3\u00a1 Brit\u00c3\u00a1nie","id":"2081","category":"1","lat":"51.48169","lon":"-0.190973","name":"origin","hops":{"incoming":[{"transport_id":"17","id":"4145","transport_name":"None Selected","transport_description":null,"transport_unit":"kg km","transport_co2_eq":"0.000000","from_stop_id":"6405","from_stop_lat":"44.9500185","from_stop_lon":"11.5489074","to_stop_id":"2081","to_stop_name":"origin","to_stop_lat":"51.48169","placename":"Bentivoglio, 45039 Stienta Rovigo, It\u00c3\u00a1lie","to_stop_lon":"-0.190973","to_stop":{"id":"2081","name":"origin","lat":"51.48169","placename":"Chelsea FC, Velk\u00c3\u00bd Lond\u00c3\u00bdn SW6, Velk\u00c3\u00a1 Brit\u00c3\u00a1nie","lon":"-0.190973"},"from_stop":{"name":"origin","id":"6405","lat":"44.9500185","lon":"11.5489074","placename":"Bentivoglio, 45039 Stienta Rovigo, It\u00c3\u00a1lie"}},{"transport_id":"17","id":"4150","transport_name":"None Selected","transport_description":null,"transport_unit":"kg km","transport_co2_eq":"0.000000","from_stop_id":"6410","from_stop_lat":"55.755786","from_stop_lon":"37.617633","to_stop_id":"2081","to_stop_name":"origin","to_stop_lat":"51.48169","placename":"Moskva, Rusko","to_stop_lon":"-0.190973","to_stop":{"id":"2081","name":"origin","lat":"51.48169","placename":"Chelsea FC, Velk\u00c3\u00bd Lond\u00c3\u00bdn SW6, Velk\u00c3\u00a1 Brit\u00c3\u00a1nie","lon":"-0.190973"},"from_stop":{"name":"origin","id":"6410","lat":"55.755786","lon":"37.617633","placename":"Moskva, Rusko"}},{"transport_id":"17","id":"4103","transport_name":"None Selected","transport_description":null,"transport_unit":"kg km","transport_co2_eq":"0.000000","from_stop_id":"6363","from_stop_lat":"49.7474848","from_stop_lon":"13.3776036","to_stop_id":"2081","to_stop_name":"origin","to_stop_lat":"51.48169","placename":"Plze\u00c5\u0088, \u00c4\u008cesk\u00c3\u00a1 republika","to_stop_lon":"-0.190973","to_stop":{"id":"2081","name":"origin","lat":"51.48169","placename":"Chelsea FC, Velk\u00c3\u00bd Lond\u00c3\u00bdn SW6, Velk\u00c3\u00a1 Brit\u00c3\u00a1nie","lon":"-0.190973"},"from_stop":{"name":"origin","id":"6363","lat":"49.7474848","lon":"13.3776036","placename":"Plze\u00c5\u0088, \u00c4\u008cesk\u00c3\u00a1 republika"}},{"transport_id":"17","id":"4104","transport_name":"None Selected","transport_description":null,"transport_unit":"kg km","transport_co2_eq":"0.000000","from_stop_id":"6364","from_stop_lat":"41.149968","from_stop_lon":"-8.6102426","to_stop_id":"2081","to_stop_name":"origin","to_stop_lat":"51.48169","placename":"Porto, Portugalsko","to_stop_lon":"-0.190973","to_stop":{"id":"2081","name":"origin","lat":"51.48169","placename":"Chelsea FC, Velk\u00c3\u00bd Lond\u00c3\u00bdn SW6, Velk\u00c3\u00a1 Brit\u00c3\u00a1nie","lon":"-0.190973"},"from_stop":{"name":"origin","id":"6364","lat":"41.149968","lon":"-8.6102426","placename":"Porto, Portugalsko"}},{"transport_id":"17","id":"4105","transport_name":"None Selected","transport_description":null,"transport_unit":"kg km","transport_co2_eq":"0.000000","from_stop_id":"6365","from_stop_lat":"51.5001524","from_stop_lon":"-0.1262362","to_stop_id":"2081","to_stop_name":"origin","to_stop_lat":"51.48169","placename":"Westminster, Lond\u00c3\u00bdn, Velk\u00c3\u00a1 Brit\u00c3\u00a1nie","to_stop_lon":"-0.190973","to_stop":{"id":"2081","name":"origin","lat":"51.48169","placename":"Chelsea FC, Velk\u00c3\u00bd Lond\u00c3\u00bdn SW6, Velk\u00c3\u00a1 Brit\u00c3\u00a1nie","lon":"-0.190973"},"from_stop":{"name":"origin","id":"6365","lat":"51.5001524","lon":"-0.1262362","placename":"Westminster, Lond\u00c3\u00bdn, Velk\u00c3\u00a1 Brit\u00c3\u00a1nie"}},{"transport_id":"17","id":"4106","transport_name":"None Selected","transport_description":null,"transport_unit":"kg km","transport_co2_eq":"0.000000","from_stop_id":"6366","from_stop_lat":"-22.9035393","from_stop_lon":"-43.2095869","to_stop_id":"2081","to_stop_name":"origin","to_stop_lat":"51.48169","placename":"Rio de Janeiro, Braz\u00c3\u00adlie","to_stop_lon":"-0.190973","to_stop":{"id":"2081","name":"origin","lat":"51.48169","placename":"Chelsea FC, Velk\u00c3\u00bd Lond\u00c3\u00bdn SW6, Velk\u00c3\u00a1 Brit\u00c3\u00a1nie","lon":"-0.190973"},"from_stop":{"name":"origin","id":"6366","lat":"-22.9035393","lon":"-43.2095869","placename":"Rio de Janeiro, Braz\u00c3\u00adlie"}},{"transport_id":"17","id":"4107","transport_name":"None Selected","transport_description":null,"transport_unit":"kg km","transport_co2_eq":"0.000000","from_stop_id":"6367","from_stop_lat":"44.978982","from_stop_lon":"19.615864","to_stop_id":"2081","to_stop_name":"origin","to_stop_lat":"51.48169","placename":"Sremska Mitrovica 22000, Srbsko","to_stop_lon":"-0.190973","to_stop":{"id":"2081","name":"origin","lat":"51.48169","placename":"Chelsea FC, Velk\u00c3\u00bd Lond\u00c3\u00bdn SW6, Velk\u00c3\u00a1 Brit\u00c3\u00a1nie","lon":"-0.190973"},"from_stop":{"name":"origin","id":"6367","lat":"44.978982","lon":"19.615864","placename":"Sremska Mitrovica 22000, Srbsko"}},{"transport_id":"17","id":"4108","transport_name":"None Selected","transport_description":null,"transport_unit":"kg km","transport_co2_eq":"0.000000","from_stop_id":"6368","from_stop_lat":"38.7070538","from_stop_lon":"-9.1354884","to_stop_id":"2081","to_stop_name":"origin","to_stop_lat":"51.48169","placename":"Lisabon, Portugalsko","to_stop_lon":"-0.190973","to_stop":{"id":"2081","name":"origin","lat":"51.48169","placename":"Chelsea FC, Velk\u00c3\u00bd Lond\u00c3\u00bdn SW6, Velk\u00c3\u00a1 Brit\u00c3\u00a1nie","lon":"-0.190973"},"from_stop":{"name":"origin","id":"6368","lat":"38.7070538","lon":"-9.1354884","placename":"Lisabon, Portugalsko"}},{"transport_id":"17","id":"4109","transport_name":"None Selected","transport_description":null,"transport_unit":"kg km","transport_co2_eq":"0.000000","from_stop_id":"6369","from_stop_lat":"51.9226899","from_stop_lon":"4.4707867","to_stop_id":"2081","to_stop_name":"origin","to_stop_lat":"51.48169","placename":"Rotterdam, Nizozemsko","to_stop_lon":"-0.190973","to_stop":{"id":"2081","name":"origin","lat":"51.48169","placename":"Chelsea FC, Velk\u00c3\u00bd Lond\u00c3\u00bdn SW6, Velk\u00c3\u00a1 Brit\u00c3\u00a1nie","lon":"-0.190973"},"from_stop":{"name":"origin","id":"6369","lat":"51.9226899","lon":"4.4707867","placename":"Rotterdam, Nizozemsko"}},{"transport_id":"17","id":"4110","transport_name":"None Selected","transport_description":null,"transport_unit":"kg km","transport_co2_eq":"0.000000","from_stop_id":"6370","from_stop_lat":"-4.3784185","from_stop_lon":"15.3188521","to_stop_id":"2081","to_stop_name":"origin","to_stop_lat":"51.48169","placename":"Mbandaka, Kinshasa, Demokratick\u00c3\u00a1 republika Kongo","to_stop_lon":"-0.190973","to_stop":{"id":"2081","name":"origin","lat":"51.48169","placename":"Chelsea FC, Velk\u00c3\u00bd Lond\u00c3\u00bdn SW6, Velk\u00c3\u00a1 Brit\u00c3\u00a1nie","lon":"-0.190973"},"from_stop":{"name":"origin","id":"6370","lat":"-4.3784185","lon":"15.3188521","placename":"Mbandaka, Kinshasa, Demokratick\u00c3\u00a1 republika Kongo"}},{"transport_id":"17","id":"4111","transport_name":"None Selected","transport_description":null,"transport_unit":"kg km","transport_co2_eq":"0.000000","from_stop_id":"6371","from_stop_lat":"5.555717","from_stop_lon":"-0.196306","to_stop_id":"2081","to_stop_name":"origin","to_stop_lat":"51.48169","placename":"Accra, Ghana","to_stop_lon":"-0.190973","to_stop":{"id":"2081","name":"origin","lat":"51.48169","placename":"Chelsea FC, Velk\u00c3\u00bd Lond\u00c3\u00bdn SW6, Velk\u00c3\u00a1 Brit\u00c3\u00a1nie","lon":"-0.190973"},"from_stop":{"name":"origin","id":"6371","lat":"5.555717","lon":"-0.196306","placename":"Accra, Ghana"}},{"transport_id":"17","id":"4112","transport_name":"None Selected","transport_description":null,"transport_unit":"kg km","transport_co2_eq":"0.000000","from_stop_id":"6372","from_stop_lat":"51.5741517","from_stop_lon":"0.1838708","to_stop_id":"2081","to_stop_name":"origin","to_stop_lat":"51.48169","placename":"Romford, Velk\u00c3\u00bd Lond\u00c3\u00bdn, Velk\u00c3\u00a1 Brit\u00c3\u00a1nie","to_stop_lon":"-0.190973","to_stop":{"id":"2081","name":"origin","lat":"51.48169","placename":"Chelsea FC, Velk\u00c3\u00bd Lond\u00c3\u00bdn SW6, Velk\u00c3\u00a1 Brit\u00c3\u00a1nie","lon":"-0.190973"},"from_stop":{"name":"origin","id":"6372","lat":"51.5741517","lon":"0.1838708","placename":"Romford, Velk\u00c3\u00bd Lond\u00c3\u00bdn, Velk\u00c3\u00a1 Brit\u00c3\u00a1nie"}},{"transport_id":"17","id":"4113","transport_name":"None Selected","transport_description":null,"transport_unit":"kg km","transport_co2_eq":"0.000000","from_stop_id":"6373","from_stop_lat":"4.9227","from_stop_lon":"-52.3269","to_stop_id":"2081","to_stop_name":"origin","to_stop_lat":"51.48169","placename":"Cayenne, Francouzsk\u00c3\u00a1 Guyana","to_stop_lon":"-0.190973","to_stop":{"id":"2081","name":"origin","lat":"51.48169","placename":"Chelsea FC, Velk\u00c3\u00bd Lond\u00c3\u00bdn SW6, Velk\u00c3\u00a1 Brit\u00c3\u00a1nie","lon":"-0.190973"},"from_stop":{"name":"origin","id":"6373","lat":"4.9227","lon":"-52.3269","placename":"Cayenne, Francouzsk\u00c3\u00a1 Guyana"}},{"transport_id":"17","id":"4114","transport_name":"None Selected","transport_description":null,"transport_unit":"kg km","transport_co2_eq":"0.000000","from_stop_id":"6374","from_stop_lat":"9.2350817","from_stop_lon":"9.7232673","to_stop_id":"2081","to_stop_name":"origin","to_stop_lat":"51.48169","placename":"st\u00c3\u00a1t Plateau, Nig\u00c3\u00a9rie","to_stop_lon":"-0.190973","to_stop":{"id":"2081","name":"origin","lat":"51.48169","placename":"Chelsea FC, Velk\u00c3\u00bd Lond\u00c3\u00bdn SW6, Velk\u00c3\u00a1 Brit\u00c3\u00a1nie","lon":"-0.190973"},"from_stop":{"name":"origin","id":"6374","lat":"9.2350817","lon":"9.7232673","placename":"st\u00c3\u00a1t Plateau, Nig\u00c3\u00a9rie"}},{"transport_id":"17","id":"4115","transport_name":"None Selected","transport_description":null,"transport_unit":"kg km","transport_co2_eq":"0.000000","from_stop_id":"6375","from_stop_lat":"52.7210998","from_stop_lon":"41.4173506","to_stop_id":"2081","to_stop_name":"origin","to_stop_lat":"51.48169","placename":"Tambov, Tambovsk\u00c3\u00a1 oblast, Rusko","to_stop_lon":"-0.190973","to_stop":{"id":"2081","name":"origin","lat":"51.48169","placename":"Chelsea FC, Velk\u00c3\u00bd Lond\u00c3\u00bdn SW6, Velk\u00c3\u00a1 Brit\u00c3\u00a1nie","lon":"-0.190973"},"from_stop":{"name":"origin","id":"6375","lat":"52.7210998","lon":"41.4173506","placename":"Tambov, Tambovsk\u00c3\u00a1 oblast, Rusko"}},{"transport_id":"17","id":"4116","transport_name":"None Selected","transport_description":null,"transport_unit":"kg km","transport_co2_eq":"0.000000","from_stop_id":"6376","from_stop_lat":"31.095","from_stop_lon":"34.9484","to_stop_id":"2081","to_stop_name":"origin","to_stop_lat":"51.48169","placename":"Dimona, Izrael","to_stop_lon":"-0.190973","to_stop":{"id":"2081","name":"origin","lat":"51.48169","placename":"Chelsea FC, Velk\u00c3\u00bd Lond\u00c3\u00bdn SW6, Velk\u00c3\u00a1 Brit\u00c3\u00a1nie","lon":"-0.190973"},"from_stop":{"name":"origin","id":"6376","lat":"31.095","lon":"34.9484","placename":"Dimona, Izrael"}},{"transport_id":"17","id":"4117","transport_name":"None Selected","transport_description":null,"transport_unit":"kg km","transport_co2_eq":"0.000000","from_stop_id":"6377","from_stop_lat":"5.336318","from_stop_lon":"-4.027751","to_stop_id":"2081","to_stop_name":"origin","to_stop_lat":"51.48169","placename":"Abid\u00c5\u00bean, Pob\u00c5\u0099e\u00c5\u00be\u00c3\u00ad slonoviny","to_stop_lon":"-0.190973","to_stop":{"id":"2081","name":"origin","lat":"51.48169","placename":"Chelsea FC, Velk\u00c3\u00bd Lond\u00c3\u00bdn SW6, Velk\u00c3\u00a1 Brit\u00c3\u00a1nie","lon":"-0.190973"},"from_stop":{"name":"origin","id":"6377","lat":"5.336318","lon":"-4.027751","placename":"Abid\u00c5\u00bean, Pob\u00c5\u0099e\u00c5\u00be\u00c3\u00ad slonoviny"}},{"transport_id":"17","id":"4118","transport_name":"None Selected","transport_description":null,"transport_unit":"kg km","transport_co2_eq":"0.000000","from_stop_id":"6378","from_stop_lat":"48.80233","from_stop_lon":"2.1298227","to_stop_id":"2081","to_stop_name":"origin","to_stop_lat":"51.48169","placename":"78000 Versailles, Francie","to_stop_lon":"-0.190973","to_stop":{"id":"2081","name":"origin","lat":"51.48169","placename":"Chelsea FC, Velk\u00c3\u00bd Lond\u00c3\u00bdn SW6, Velk\u00c3\u00a1 Brit\u00c3\u00a1nie","lon":"-0.190973"},"from_stop":{"name":"origin","id":"6378","lat":"48.80233","lon":"2.1298227","placename":"78000 Versailles, Francie"}}],"outgoing":[]}}},"parts":[{"oid":"4342","imid":"4717","linkid":"","weight":"0","rawemissions":"0","emissions":"0","shipping":"976.17","processemissions":"0","endoflifeemissions":"0","disposaltype":null,"disposalenergy":null,"disposalimpact":null,"disposalemissions":null,"description":"","name":"Petr Cech","id":"4717","stops":{"origin":{"related_to":"4717","part_or_object":"p","notes":"","placename":"Plze\u00c5\u0088, \u00c4\u008cesk\u00c3\u00a1 republika","id":6363,"name":"origin","lat":"49.7474848","lon":"13.3776036","hops":{"incoming":[],"outgoing":[{"transport_id":"17","id":"4103","transport_name":"None Selected","transport_description":null,"transport_unit":"kg km","transport_co2_eq":"0.000000","from_stop_id":"6363","from_stop_lat":"49.7474848","from_stop_lon":"13.3776036","from_stop_placename":"Plze\u00c5\u0088, \u00c4\u008cesk\u00c3\u00a1 republika","to_stop_id":"2081","to_stop_name":"origin","to_stop_lat":"51.48169","to_stop_lon":"-0.190973","to_stop_placename":"Chelsea FC, Velk\u00c3\u00bd Lond\u00c3\u00bdn SW6, Velk\u00c3\u00a1 Brit\u00c3\u00a1nie","to_stop":{"id":"2081","name":"origin","lat":"51.48169","lon":"-0.190973","placename":"Chelsea FC, Velk\u00c3\u00bd Lond\u00c3\u00bdn SW6, Velk\u00c3\u00a1 Brit\u00c3\u00a1nie"},"from_stop":{"name":"origin","id":"6363","lat":"49.7474848","lon":"13.3776036","placename":"Plze\u00c5\u0088, \u00c4\u008cesk\u00c3\u00a1 republika"}}]}}},"processes":[],"eols":[]},{"oid":"4342","imid":"4718","linkid":"","weight":"0","rawemissions":"0","emissions":"0","shipping":"1317.78","processemissions":"0","endoflifeemissions":"0","disposaltype":null,"disposalenergy":null,"disposalimpact":null,"disposalemissions":null,"description":"","name":"Henrique Hilario","id":"4718","stops":{"origin":{"related_to":"4718","part_or_object":"p","notes":"","placename":"Porto, Portugalsko","id":6364,"name":"origin","lat":"41.149968","lon":"-8.6102426","hops":{"incoming":[],"outgoing":[{"transport_id":"17","id":"4104","transport_name":"None Selected","transport_description":null,"transport_unit":"kg km","transport_co2_eq":"0.000000","from_stop_id":"6364","from_stop_lat":"41.149968","from_stop_lon":"-8.6102426","from_stop_placename":"Porto, Portugalsko","to_stop_id":"2081","to_stop_name":"origin","to_stop_lat":"51.48169","to_stop_lon":"-0.190973","to_stop_placename":"Chelsea FC, Velk\u00c3\u00bd Lond\u00c3\u00bdn SW6, Velk\u00c3\u00a1 Brit\u00c3\u00a1nie","to_stop":{"id":"2081","name":"origin","lat":"51.48169","lon":"-0.190973","placename":"Chelsea FC, Velk\u00c3\u00bd Lond\u00c3\u00bdn SW6, Velk\u00c3\u00a1 Brit\u00c3\u00a1nie"},"from_stop":{"name":"origin","id":"6364","lat":"41.149968","lon":"-8.6102426","placename":"Porto, Portugalsko"}}]}}},"processes":[],"eols":[]},{"oid":"4342","imid":"4719","linkid":"","weight":"0","rawemissions":"0","emissions":"0","shipping":"4.94","processemissions":"0","endoflifeemissions":"0","disposaltype":null,"disposalenergy":null,"disposalimpact":null,"disposalemissions":null,"description":"","name":"Ashley Cole, John Terry","id":"4719","stops":{"origin":{"related_to":"4719","part_or_object":"p","notes":"","placename":"Westminster, Lond\u00c3\u00bdn, Velk\u00c3\u00a1 Brit\u00c3\u00a1nie","id":6365,"name":"origin","lat":"51.5001524","lon":"-0.1262362","hops":{"incoming":[],"outgoing":[{"transport_id":"17","id":"4105","transport_name":"None Selected","transport_description":null,"transport_unit":"kg km","transport_co2_eq":"0.000000","from_stop_id":"6365","from_stop_lat":"51.5001524","from_stop_lon":"-0.1262362","from_stop_placename":"Westminster, Lond\u00c3\u00bdn, Velk\u00c3\u00a1 Brit\u00c3\u00a1nie","to_stop_id":"2081","to_stop_name":"origin","to_stop_lat":"51.48169","to_stop_lon":"-0.190973","to_stop_placename":"Chelsea FC, Velk\u00c3\u00bd Lond\u00c3\u00bdn SW6, Velk\u00c3\u00a1 Brit\u00c3\u00a1nie","to_stop":{"id":"2081","name":"origin","lat":"51.48169","lon":"-0.190973","placename":"Chelsea FC, Velk\u00c3\u00bd Lond\u00c3\u00bdn SW6, Velk\u00c3\u00a1 Brit\u00c3\u00a1nie"},"from_stop":{"name":"origin","id":"6365","lat":"51.5001524","lon":"-0.1262362","placename":"Westminster, Lond\u00c3\u00bdn, Velk\u00c3\u00a1 Brit\u00c3\u00a1nie"}}]}}},"processes":[],"eols":[]},{"oid":"4342","imid":"4720","linkid":"","weight":"0","rawemissions":"0","emissions":"0","shipping":"9284.11","processemissions":"0","endoflifeemissions":"0","disposaltype":null,"disposalenergy":null,"disposalimpact":null,"disposalemissions":null,"description":"","name":"Alex, Ramires","id":"4720","stops":{"origin":{"related_to":"4720","part_or_object":"p","notes":"","placename":"Rio de Janeiro, Braz\u00c3\u00adlie","id":6366,"name":"origin","lat":"-22.9035393","lon":"-43.2095869","hops":{"incoming":[],"outgoing":[{"transport_id":"17","id":"4106","transport_name":"None Selected","transport_description":null,"transport_unit":"kg km","transport_co2_eq":"0.000000","from_stop_id":"6366","from_stop_lat":"-22.9035393","from_stop_lon":"-43.2095869","from_stop_placename":"Rio de Janeiro, Braz\u00c3\u00adlie","to_stop_id":"2081","to_stop_name":"origin","to_stop_lat":"51.48169","to_stop_lon":"-0.190973","to_stop_placename":"Chelsea FC, Velk\u00c3\u00bd Lond\u00c3\u00bdn SW6, Velk\u00c3\u00a1 Brit\u00c3\u00a1nie","to_stop":{"id":"2081","name":"origin","lat":"51.48169","lon":"-0.190973","placename":"Chelsea FC, Velk\u00c3\u00bd Lond\u00c3\u00bdn SW6, Velk\u00c3\u00a1 Brit\u00c3\u00a1nie"},"from_stop":{"name":"origin","id":"6366","lat":"-22.9035393","lon":"-43.2095869","placename":"Rio de Janeiro, Braz\u00c3\u00adlie"}}]}}},"processes":[],"eols":[]},{"oid":"4342","imid":"4721","linkid":"","weight":"0","rawemissions":"0","emissions":"0","shipping":"1630.41","processemissions":"0","endoflifeemissions":"0","disposaltype":null,"disposalenergy":null,"disposalimpact":null,"disposalemissions":null,"description":"","name":"Branislav Ivanovic","id":"4721","stops":{"origin":{"related_to":"4721","part_or_object":"p","notes":"","placename":"Sremska Mitrovica 22000, Srbsko","id":6367,"name":"origin","lat":"44.978982","lon":"19.615864","hops":{"incoming":[],"outgoing":[{"transport_id":"17","id":"4107","transport_name":"None Selected","transport_description":null,"transport_unit":"kg km","transport_co2_eq":"0.000000","from_stop_id":"6367","from_stop_lat":"44.978982","from_stop_lon":"19.615864","from_stop_placename":"Sremska Mitrovica 22000, Srbsko","to_stop_id":"2081","to_stop_name":"origin","to_stop_lat":"51.48169","to_stop_lon":"-0.190973","to_stop_placename":"Chelsea FC, Velk\u00c3\u00bd Lond\u00c3\u00bdn SW6, Velk\u00c3\u00a1 Brit\u00c3\u00a1nie","to_stop":{"id":"2081","name":"origin","lat":"51.48169","lon":"-0.190973","placename":"Chelsea FC, Velk\u00c3\u00bd Lond\u00c3\u00bdn SW6, Velk\u00c3\u00a1 Brit\u00c3\u00a1nie"},"from_stop":{"name":"origin","id":"6367","lat":"44.978982","lon":"19.615864","placename":"Sremska Mitrovica 22000, Srbsko"}}]}}},"processes":[],"eols":[]},{"oid":"4342","imid":"4722","linkid":"","weight":"0","rawemissions":"0","emissions":"0","shipping":"1583.54","processemissions":"0","endoflifeemissions":"0","disposaltype":null,"disposalenergy":null,"disposalimpact":null,"disposalemissions":null,"description":"","name":"Paulo Ferreira","id":"4722","stops":{"origin":{"related_to":"4722","part_or_object":"p","notes":"","placename":"Lisabon, Portugalsko","id":6368,"name":"origin","lat":"38.7070538","lon":"-9.1354884","hops":{"incoming":[],"outgoing":[{"transport_id":"17","id":"4108","transport_name":"None Selected","transport_description":null,"transport_unit":"kg km","transport_co2_eq":"0.000000","from_stop_id":"6368","from_stop_lat":"38.7070538","from_stop_lon":"-9.1354884","from_stop_placename":"Lisabon, Portugalsko","to_stop_id":"2081","to_stop_name":"origin","to_stop_lat":"51.48169","to_stop_lon":"-0.190973","to_stop_placename":"Chelsea FC, Velk\u00c3\u00bd Lond\u00c3\u00bdn SW6, Velk\u00c3\u00a1 Brit\u00c3\u00a1nie","to_stop":{"id":"2081","name":"origin","lat":"51.48169","lon":"-0.190973","placename":"Chelsea FC, Velk\u00c3\u00bd Lond\u00c3\u00bdn SW6, Velk\u00c3\u00a1 Brit\u00c3\u00a1nie"},"from_stop":{"name":"origin","id":"6368","lat":"38.7070538","lon":"-9.1354884","placename":"Lisabon, Portugalsko"}}]}}},"processes":[],"eols":[]},{"oid":"4342","imid":"4723","linkid":"","weight":"0","rawemissions":"0","emissions":"0","shipping":"325.28","processemissions":"0","endoflifeemissions":"0","disposaltype":null,"disposalenergy":null,"disposalimpact":null,"disposalemissions":null,"description":"","name":"Jeffrey Bruma","id":"4723","stops":{"origin":{"related_to":"4723","part_or_object":"p","notes":"","placename":"Rotterdam, Nizozemsko","id":6369,"name":"origin","lat":"51.9226899","lon":"4.4707867","hops":{"incoming":[],"outgoing":[{"transport_id":"17","id":"4109","transport_name":"None Selected","transport_description":null,"transport_unit":"kg km","transport_co2_eq":"0.000000","from_stop_id":"6369","from_stop_lat":"51.9226899","from_stop_lon":"4.4707867","from_stop_placename":"Rotterdam, Nizozemsko","to_stop_id":"2081","to_stop_name":"origin","to_stop_lat":"51.48169","to_stop_lon":"-0.190973","to_stop_placename":"Chelsea FC, Velk\u00c3\u00bd Lond\u00c3\u00bdn SW6, Velk\u00c3\u00a1 Brit\u00c3\u00a1nie","to_stop":{"id":"2081","name":"origin","lat":"51.48169","lon":"-0.190973","placename":"Chelsea FC, Velk\u00c3\u00bd Lond\u00c3\u00bdn SW6, Velk\u00c3\u00a1 Brit\u00c3\u00a1nie"},"from_stop":{"name":"origin","id":"6369","lat":"51.9226899","lon":"4.4707867","placename":"Rotterdam, Nizozemsko"}}]}}},"processes":[],"eols":[]},{"oid":"4342","imid":"4724","linkid":"","weight":"0","rawemissions":"0","emissions":"0","shipping":"6391.01","processemissions":"0","endoflifeemissions":"0","disposaltype":null,"disposalenergy":null,"disposalimpact":null,"disposalemissions":null,"description":"","name":"Jose Bosingwa","id":"4724","stops":{"origin":{"related_to":"4724","part_or_object":"p","notes":"","placename":"Mbandaka, Kinshasa, Demokratick\u00c3\u00a1 republika Kongo","id":6370,"name":"origin","lat":"-4.3784185","lon":"15.3188521","hops":{"incoming":[],"outgoing":[{"transport_id":"17","id":"4110","transport_name":"None Selected","transport_description":null,"transport_unit":"kg km","transport_co2_eq":"0.000000","from_stop_id":"6370","from_stop_lat":"-4.3784185","from_stop_lon":"15.3188521","from_stop_placename":"Mbandaka, Kinshasa, Demokratick\u00c3\u00a1 republika Kongo","to_stop_id":"2081","to_stop_name":"origin","to_stop_lat":"51.48169","to_stop_lon":"-0.190973","to_stop_placename":"Chelsea FC, Velk\u00c3\u00bd Lond\u00c3\u00bdn SW6, Velk\u00c3\u00a1 Brit\u00c3\u00a1nie","to_stop":{"id":"2081","name":"origin","lat":"51.48169","lon":"-0.190973","placename":"Chelsea FC, Velk\u00c3\u00bd Lond\u00c3\u00bdn SW6, Velk\u00c3\u00a1 Brit\u00c3\u00a1nie"},"from_stop":{"name":"origin","id":"6370","lat":"-4.3784185","lon":"15.3188521","placename":"Mbandaka, Kinshasa, Demokratick\u00c3\u00a1 republika Kongo"}}]}}},"processes":[],"eols":[]},{"oid":"4342","imid":"4725","linkid":"","weight":"0","rawemissions":"0","emissions":"0","shipping":"5112.46","processemissions":"0","endoflifeemissions":"0","disposaltype":null,"disposalenergy":null,"disposalimpact":null,"disposalemissions":null,"description":"","name":"Michael Essien","id":"4725","stops":{"origin":{"related_to":"4725","part_or_object":"p","notes":"","placename":"Accra, Ghana","id":6371,"name":"origin","lat":"5.555717","lon":"-0.196306","hops":{"incoming":[],"outgoing":[{"transport_id":"17","id":"4111","transport_name":"None Selected","transport_description":null,"transport_unit":"kg km","transport_co2_eq":"0.000000","from_stop_id":"6371","from_stop_lat":"5.555717","from_stop_lon":"-0.196306","from_stop_placename":"Accra, Ghana","to_stop_id":"2081","to_stop_name":"origin","to_stop_lat":"51.48169","to_stop_lon":"-0.190973","to_stop_placename":"Chelsea FC, Velk\u00c3\u00bd Lond\u00c3\u00bdn SW6, Velk\u00c3\u00a1 Brit\u00c3\u00a1nie","to_stop":{"id":"2081","name":"origin","lat":"51.48169","lon":"-0.190973","placename":"Chelsea FC, Velk\u00c3\u00bd Lond\u00c3\u00bdn SW6, Velk\u00c3\u00a1 Brit\u00c3\u00a1nie"},"from_stop":{"name":"origin","id":"6371","lat":"5.555717","lon":"-0.196306","placename":"Accra, Ghana"}}]}}},"processes":[],"eols":[]},{"oid":"4342","imid":"4726","linkid":"","weight":"0","rawemissions":"0","emissions":"0","shipping":"27.93","processemissions":"0","endoflifeemissions":"0","disposaltype":null,"disposalenergy":null,"disposalimpact":null,"disposalemissions":null,"description":"","name":"Frank Lampard","id":"4726","stops":{"origin":{"related_to":"4726","part_or_object":"p","notes":"","placename":"Romford, Velk\u00c3\u00bd Lond\u00c3\u00bdn, Velk\u00c3\u00a1 Brit\u00c3\u00a1nie","id":6372,"name":"origin","lat":"51.5741517","lon":"0.1838708","hops":{"incoming":[],"outgoing":[{"transport_id":"17","id":"4112","transport_name":"None Selected","transport_description":null,"transport_unit":"kg km","transport_co2_eq":"0.000000","from_stop_id":"6372","from_stop_lat":"51.5741517","from_stop_lon":"0.1838708","from_stop_placename":"Romford, Velk\u00c3\u00bd Lond\u00c3\u00bdn, Velk\u00c3\u00a1 Brit\u00c3\u00a1nie","to_stop_id":"2081","to_stop_name":"origin","to_stop_lat":"51.48169","to_stop_lon":"-0.190973","to_stop_placename":"Chelsea FC, Velk\u00c3\u00bd Lond\u00c3\u00bdn SW6, Velk\u00c3\u00a1 Brit\u00c3\u00a1nie","to_stop":{"id":"2081","name":"origin","lat":"51.48169","lon":"-0.190973","placename":"Chelsea FC, Velk\u00c3\u00bd Lond\u00c3\u00bdn SW6, Velk\u00c3\u00a1 Brit\u00c3\u00a1nie"},"from_stop":{"name":"origin","id":"6372","lat":"51.5741517","lon":"0.1838708","placename":"Romford, Velk\u00c3\u00bd Lond\u00c3\u00bdn, Velk\u00c3\u00a1 Brit\u00c3\u00a1nie"}}]}}},"processes":[],"eols":[]},{"oid":"4342","imid":"4727","linkid":"","weight":"0","rawemissions":"0","emissions":"0","shipping":"7056.1","processemissions":"0","endoflifeemissions":"0","disposaltype":null,"disposalenergy":null,"disposalimpact":null,"disposalemissions":null,"description":"","name":"Florent Malouda","id":"4727","stops":{"origin":{"related_to":"4727","part_or_object":"p","notes":"","placename":"Cayenne, Francouzsk\u00c3\u00a1 Guyana","id":6373,"name":"origin","lat":"4.9227","lon":"-52.3269","hops":{"incoming":[],"outgoing":[{"transport_id":"17","id":"4113","transport_name":"None Selected","transport_description":null,"transport_unit":"kg km","transport_co2_eq":"0.000000","from_stop_id":"6373","from_stop_lat":"4.9227","from_stop_lon":"-52.3269","from_stop_placename":"Cayenne, Francouzsk\u00c3\u00a1 Guyana","to_stop_id":"2081","to_stop_name":"origin","to_stop_lat":"51.48169","to_stop_lon":"-0.190973","to_stop_placename":"Chelsea FC, Velk\u00c3\u00bd Lond\u00c3\u00bdn SW6, Velk\u00c3\u00a1 Brit\u00c3\u00a1nie","to_stop":{"id":"2081","name":"origin","lat":"51.48169","lon":"-0.190973","placename":"Chelsea FC, Velk\u00c3\u00bd Lond\u00c3\u00bdn SW6, Velk\u00c3\u00a1 Brit\u00c3\u00a1nie"},"from_stop":{"name":"origin","id":"6373","lat":"4.9227","lon":"-52.3269","placename":"Cayenne, Francouzsk\u00c3\u00a1 Guyana"}}]}}},"processes":[],"eols":[]},{"oid":"4342","imid":"4728","linkid":"","weight":"0","rawemissions":"0","emissions":"0","shipping":"4789.31","processemissions":"0","endoflifeemissions":"0","disposaltype":null,"disposalenergy":null,"disposalimpact":null,"disposalemissions":null,"description":"","name":"John Obi Mikel","id":"4728","stops":{"origin":{"related_to":"4728","part_or_object":"p","notes":"","placename":"st\u00c3\u00a1t Plateau, Nig\u00c3\u00a9rie","id":6374,"name":"origin","lat":"9.2350817","lon":"9.7232673","hops":{"incoming":[],"outgoing":[{"transport_id":"17","id":"4114","transport_name":"None Selected","transport_description":null,"transport_unit":"kg km","transport_co2_eq":"0.000000","from_stop_id":"6374","from_stop_lat":"9.2350817","from_stop_lon":"9.7232673","from_stop_placename":"st\u00c3\u00a1t Plateau, Nig\u00c3\u00a9rie","to_stop_id":"2081","to_stop_name":"origin","to_stop_lat":"51.48169","to_stop_lon":"-0.190973","to_stop_placename":"Chelsea FC, Velk\u00c3\u00bd Lond\u00c3\u00bdn SW6, Velk\u00c3\u00a1 Brit\u00c3\u00a1nie","to_stop":{"id":"2081","name":"origin","lat":"51.48169","lon":"-0.190973","placename":"Chelsea FC, Velk\u00c3\u00bd Lond\u00c3\u00bdn SW6, Velk\u00c3\u00a1 Brit\u00c3\u00a1nie"},"from_stop":{"name":"origin","id":"6374","lat":"9.2350817","lon":"9.7232673","placename":"st\u00c3\u00a1t Plateau, Nig\u00c3\u00a9rie"}}]}}},"processes":[],"eols":[]},{"oid":"4342","imid":"4729","linkid":"","weight":"0","rawemissions":"0","emissions":"0","shipping":"2808.69","processemissions":"0","endoflifeemissions":"0","disposaltype":null,"disposalenergy":null,"disposalimpact":null,"disposalemissions":null,"description":"","name":"Jurij Zhirkov","id":"4729","stops":{"origin":{"related_to":"4729","part_or_object":"p","notes":"","placename":"Tambov, Tambovsk\u00c3\u00a1 oblast, Rusko","id":6375,"name":"origin","lat":"52.7210998","lon":"41.4173506","hops":{"incoming":[],"outgoing":[{"transport_id":"17","id":"4115","transport_name":"None Selected","transport_description":null,"transport_unit":"kg km","transport_co2_eq":"0.000000","from_stop_id":"6375","from_stop_lat":"52.7210998","from_stop_lon":"41.4173506","from_stop_placename":"Tambov, Tambovsk\u00c3\u00a1 oblast, Rusko","to_stop_id":"2081","to_stop_name":"origin","to_stop_lat":"51.48169","to_stop_lon":"-0.190973","to_stop_placename":"Chelsea FC, Velk\u00c3\u00bd Lond\u00c3\u00bdn SW6, Velk\u00c3\u00a1 Brit\u00c3\u00a1nie","to_stop":{"id":"2081","name":"origin","lat":"51.48169","lon":"-0.190973","placename":"Chelsea FC, Velk\u00c3\u00bd Lond\u00c3\u00bdn SW6, Velk\u00c3\u00a1 Brit\u00c3\u00a1nie"},"from_stop":{"name":"origin","id":"6375","lat":"52.7210998","lon":"41.4173506","placename":"Tambov, Tambovsk\u00c3\u00a1 oblast, Rusko"}}]}}},"processes":[],"eols":[]},{"oid":"4342","imid":"4730","linkid":"","weight":"0","rawemissions":"0","emissions":"0","shipping":"3655.89","processemissions":"0","endoflifeemissions":"0","disposaltype":null,"disposalenergy":null,"disposalimpact":null,"disposalemissions":null,"description":"","name":"Yossi Benayoun","id":"4730","stops":{"origin":{"related_to":"4730","part_or_object":"p","notes":"","placename":"Dimona, Izrael","id":6376,"name":"origin","lat":"31.095","lon":"34.9484","hops":{"incoming":[],"outgoing":[{"transport_id":"17","id":"4116","transport_name":"None Selected","transport_description":null,"transport_unit":"kg km","transport_co2_eq":"0.000000","from_stop_id":"6376","from_stop_lat":"31.095","from_stop_lon":"34.9484","from_stop_placename":"Dimona, Izrael","to_stop_id":"2081","to_stop_name":"origin","to_stop_lat":"51.48169","to_stop_lon":"-0.190973","to_stop_placename":"Chelsea FC, Velk\u00c3\u00bd Lond\u00c3\u00bdn SW6, Velk\u00c3\u00a1 Brit\u00c3\u00a1nie","to_stop":{"id":"2081","name":"origin","lat":"51.48169","lon":"-0.190973","placename":"Chelsea FC, Velk\u00c3\u00bd Lond\u00c3\u00bdn SW6, Velk\u00c3\u00a1 Brit\u00c3\u00a1nie"},"from_stop":{"name":"origin","id":"6376","lat":"31.095","lon":"34.9484","placename":"Dimona, Izrael"}}]}}},"processes":[],"eols":[]},{"oid":"4342","imid":"4731","linkid":"","weight":"0","rawemissions":"0","emissions":"0","shipping":"5149.16","processemissions":"0","endoflifeemissions":"0","disposaltype":null,"disposalenergy":null,"disposalimpact":null,"disposalemissions":null,"description":"","name":"Didier Drogba, Salomon Kalou","id":"4731","stops":{"origin":{"related_to":"4731","part_or_object":"p","notes":"","placename":"Abid\u00c5\u00bean, Pob\u00c5\u0099e\u00c5\u00be\u00c3\u00ad slonoviny","id":6377,"name":"origin","lat":"5.336318","lon":"-4.027751","hops":{"incoming":[],"outgoing":[{"transport_id":"17","id":"4117","transport_name":"None Selected","transport_description":null,"transport_unit":"kg km","transport_co2_eq":"0.000000","from_stop_id":"6377","from_stop_lat":"5.336318","from_stop_lon":"-4.027751","from_stop_placename":"Abid\u00c5\u00bean, Pob\u00c5\u0099e\u00c5\u00be\u00c3\u00ad slonoviny","to_stop_id":"2081","to_stop_name":"origin","to_stop_lat":"51.48169","to_stop_lon":"-0.190973","to_stop_placename":"Chelsea FC, Velk\u00c3\u00bd Lond\u00c3\u00bdn SW6, Velk\u00c3\u00a1 Brit\u00c3\u00a1nie","to_stop":{"id":"2081","name":"origin","lat":"51.48169","lon":"-0.190973","placename":"Chelsea FC, Velk\u00c3\u00bd Lond\u00c3\u00bdn SW6, Velk\u00c3\u00a1 Brit\u00c3\u00a1nie"},"from_stop":{"name":"origin","id":"6377","lat":"5.336318","lon":"-4.027751","placename":"Abid\u00c5\u00bean, Pob\u00c5\u0099e\u00c5\u00be\u00c3\u00ad slonoviny"}}]}}},"processes":[],"eols":[]},{"oid":"4342","imid":"4732","linkid":"","weight":"0","rawemissions":"0","emissions":"0","shipping":"341.1","processemissions":"0","endoflifeemissions":"0","disposaltype":null,"disposalenergy":null,"disposalimpact":null,"disposalemissions":null,"description":"","name":"Nicolas Anelka, Gael Kakuta","id":"4732","stops":{"origin":{"related_to":"4732","part_or_object":"p","notes":"","placename":"78000 Versailles, Francie","id":6378,"name":"origin","lat":"48.80233","lon":"2.1298227","hops":{"incoming":[],"outgoing":[{"transport_id":"17","id":"4118","transport_name":"None Selected","transport_description":null,"transport_unit":"kg km","transport_co2_eq":"0.000000","from_stop_id":"6378","from_stop_lat":"48.80233","from_stop_lon":"2.1298227","from_stop_placename":"78000 Versailles, Francie","to_stop_id":"2081","to_stop_name":"origin","to_stop_lat":"51.48169","to_stop_lon":"-0.190973","to_stop_placename":"Chelsea FC, Velk\u00c3\u00bd Lond\u00c3\u00bdn SW6, Velk\u00c3\u00a1 Brit\u00c3\u00a1nie","to_stop":{"id":"2081","name":"origin","lat":"51.48169","lon":"-0.190973","placename":"Chelsea FC, Velk\u00c3\u00bd Lond\u00c3\u00bdn SW6, Velk\u00c3\u00a1 Brit\u00c3\u00a1nie"},"from_stop":{"name":"origin","id":"6378","lat":"48.80233","lon":"2.1298227","placename":"78000 Versailles, Francie"}}]}}},"processes":[],"eols":[]},{"oid":"4342","imid":"4733","linkid":"","weight":"0","rawemissions":"0","emissions":"0","shipping":"1132.08","processemissions":"0","endoflifeemissions":"0","disposaltype":null,"disposalenergy":null,"disposalimpact":null,"disposalemissions":null,"description":"","name":"Fabio Borini ","id":"4733","stops":{"origin":{"related_to":"4733","part_or_object":"p","notes":"","placename":"Bentivoglio, 45039 Stienta Rovigo, It\u00c3\u00a1lie","id":6405,"name":"origin","lat":"44.9500185","lon":"11.5489074","hops":{"incoming":[],"outgoing":[{"transport_id":"17","id":"4145","transport_name":"None Selected","transport_description":null,"transport_unit":"kg km","transport_co2_eq":"0.000000","from_stop_id":"6405","from_stop_lat":"44.9500185","from_stop_lon":"11.5489074","from_stop_placename":"Bentivoglio, 45039 Stienta Rovigo, It\u00c3\u00a1lie","to_stop_id":"2081","to_stop_name":"origin","to_stop_lat":"51.48169","to_stop_lon":"-0.190973","to_stop_placename":"Chelsea FC, Velk\u00c3\u00bd Lond\u00c3\u00bdn SW6, Velk\u00c3\u00a1 Brit\u00c3\u00a1nie","to_stop":{"id":"2081","name":"origin","lat":"51.48169","lon":"-0.190973","placename":"Chelsea FC, Velk\u00c3\u00bd Lond\u00c3\u00bdn SW6, Velk\u00c3\u00a1 Brit\u00c3\u00a1nie"},"from_stop":{"name":"origin","id":"6405","lat":"44.9500185","lon":"11.5489074","placename":"Bentivoglio, 45039 Stienta Rovigo, It\u00c3\u00a1lie"}}]}}},"processes":[],"eols":[]},{"oid":"4342","imid":"4738","linkid":"","weight":"0","rawemissions":"0","emissions":"0","shipping":"2508.55","processemissions":"0","endoflifeemissions":"0","disposaltype":null,"disposalenergy":null,"disposalimpact":null,"disposalemissions":null,"description":"","name":"abramovich","id":"4738","stops":{"origin":{"related_to":"4738","part_or_object":"p","notes":"","placename":"Moskva, Rusko","id":6410,"name":"origin","lat":"55.755786","lon":"37.617633","hops":{"incoming":[],"outgoing":[{"transport_id":"17","id":"4150","transport_name":"None Selected","transport_description":null,"transport_unit":"kg km","transport_co2_eq":"0.000000","from_stop_id":"6410","from_stop_lat":"55.755786","from_stop_lon":"37.617633","from_stop_placename":"Moskva, Rusko","to_stop_id":"2081","to_stop_name":"origin","to_stop_lat":"51.48169","to_stop_lon":"-0.190973","to_stop_placename":"Chelsea FC, Velk\u00c3\u00bd Lond\u00c3\u00bdn SW6, Velk\u00c3\u00a1 Brit\u00c3\u00a1nie","to_stop":{"id":"2081","name":"origin","lat":"51.48169","lon":"-0.190973","placename":"Chelsea FC, Velk\u00c3\u00bd Lond\u00c3\u00bdn SW6, Velk\u00c3\u00a1 Brit\u00c3\u00a1nie"},"from_stop":{"name":"origin","id":"6410","lat":"55.755786","lon":"37.617633","placename":"Moskva, Rusko"}}]}}},"processes":[],"eols":[]}],"user":{"name":"kolarova","id":"11082"}}}