{"4347":{"oid":"4347","type":"trace","flag":"","creator":"11082","name":"abramovich","upc":"","imagelink":"","description":"","slug":"abramovich","category":"","weight":"0","emissions":"0","embodied":"0","transport":"0","process":"0","endoflife":"0","shipping":"19270.13","lifetime":null,"usagetype":"","usageenergy":null,"usageemissions":null,"timecreated":"2010-10-29 11:23:58.748255","timemodified":"2010-10-29 15:32:26","visibility":"public","showfootprint":"on","showembodied":"on","showtransport":"on","showprocess":"on","showendoflife":"on","showlastleg":"on","showuse":"on","showstats":"on","stops":{"origin":{"related_to":"4347","part_or_object":"o","notes":"","placename":"Moskva, Rusko","id":"2079","category":"1","lat":"55.755786","lon":"37.617633","name":"origin","hops":{"incoming":[{"transport_id":"17","id":"4146","transport_name":"None Selected","transport_description":null,"transport_unit":"kg km","transport_co2_eq":"0.000000","from_stop_id":"6406","from_stop_lat":"40.7143528","from_stop_lon":"-74.0059731","to_stop_id":"2079","to_stop_name":"origin","to_stop_lat":"55.755786","placename":"New York, Spojen\u00c3\u00a9 st\u00c3\u00a1ty americk\u00c3\u00a9","to_stop_lon":"37.617633","to_stop":{"id":"2079","name":"origin","lat":"55.755786","placename":"Moskva, Rusko","lon":"37.617633"},"from_stop":{"name":"origin","id":"6406","lat":"40.7143528","lon":"-74.0059731","placename":"New York, Spojen\u00c3\u00a9 st\u00c3\u00a1ty americk\u00c3\u00a9"}},{"transport_id":"17","id":"4147","transport_name":"None Selected","transport_description":null,"transport_unit":"kg km","transport_co2_eq":"0.000000","from_stop_id":"6407","from_stop_lat":"47.5596145","from_stop_lon":"7.5806107","to_stop_id":"2079","to_stop_name":"origin","to_stop_lat":"55.755786","placename":"Basilej, \u00c5\u00a0v\u00c3\u00bdcarsko","to_stop_lon":"37.617633","to_stop":{"id":"2079","name":"origin","lat":"55.755786","placename":"Moskva, Rusko","lon":"37.617633"},"from_stop":{"name":"origin","id":"6407","lat":"47.5596145","lon":"7.5806107","placename":"Basilej, \u00c5\u00a0v\u00c3\u00bdcarsko"}},{"transport_id":"17","id":"4148","transport_name":"None Selected","transport_description":null,"transport_unit":"kg km","transport_co2_eq":"0.000000","from_stop_id":"6408","from_stop_lat":"36.778261","from_stop_lon":"-119.4179324","to_stop_id":"2079","to_stop_name":"origin","to_stop_lat":"55.755786","placename":"Kalifornie, Spojen\u00c3\u00a9 st\u00c3\u00a1ty americk\u00c3\u00a9","to_stop_lon":"37.617633","to_stop":{"id":"2079","name":"origin","lat":"55.755786","placename":"Moskva, Rusko","lon":"37.617633"},"from_stop":{"name":"origin","id":"6408","lat":"36.778261","lon":"-119.4179324","placename":"Kalifornie, Spojen\u00c3\u00a9 st\u00c3\u00a1ty americk\u00c3\u00a9"}},{"transport_id":"17","id":"4149","transport_name":"None Selected","transport_description":null,"transport_unit":"kg km","transport_co2_eq":"0.000000","from_stop_id":"6409","from_stop_lat":"0","from_stop_lon":"0","to_stop_id":"2079","to_stop_name":"origin","to_stop_lat":"55.755786","placename":"Part Location","to_stop_lon":"37.617633","to_stop":{"id":"2079","name":"origin","lat":"55.755786","placename":"Moskva, Rusko","lon":"37.617633"},"from_stop":{"name":"origin","id":"6409","lat":"0","lon":"0","placename":"Part Location"}}],"outgoing":[]}}},"parts":[{"oid":"4347","imid":"4734","linkid":"","weight":"0","rawemissions":"0","emissions":"0","shipping":"7518.55","processemissions":"0","endoflifeemissions":"0","disposaltype":null,"disposalenergy":null,"disposalimpact":null,"disposalemissions":null,"description":"","name":"Millhouse LLC ","id":"4734","stops":{"origin":{"related_to":"4734","part_or_object":"p","notes":"","placename":"New York, Spojen\u00c3\u00a9 st\u00c3\u00a1ty americk\u00c3\u00a9","id":6406,"name":"origin","lat":"40.7143528","lon":"-74.0059731","hops":{"incoming":[],"outgoing":[{"transport_id":"17","id":"4146","transport_name":"None Selected","transport_description":null,"transport_unit":"kg km","transport_co2_eq":"0.000000","from_stop_id":"6406","from_stop_lat":"40.7143528","from_stop_lon":"-74.0059731","from_stop_placename":"New York, Spojen\u00c3\u00a9 st\u00c3\u00a1ty americk\u00c3\u00a9","to_stop_id":"2079","to_stop_name":"origin","to_stop_lat":"55.755786","to_stop_lon":"37.617633","to_stop_placename":"Moskva, Rusko","to_stop":{"id":"2079","name":"origin","lat":"55.755786","lon":"37.617633","placename":"Moskva, Rusko"},"from_stop":{"name":"origin","id":"6406","lat":"40.7143528","lon":"-74.0059731","placename":"New York, Spojen\u00c3\u00a9 st\u00c3\u00a1ty americk\u00c3\u00a9"}}]}}},"processes":[],"eols":[]},{"oid":"4347","imid":"4735","linkid":"","weight":"0","rawemissions":"0","emissions":"0","shipping":"2243.2","processemissions":"0","endoflifeemissions":"0","disposaltype":null,"disposalenergy":null,"disposalimpact":null,"disposalemissions":null,"description":"","name":"Runicom SA","id":"4735","stops":{"origin":{"related_to":"4735","part_or_object":"p","notes":"","placename":"Basilej, \u00c5\u00a0v\u00c3\u00bdcarsko","id":6407,"name":"origin","lat":"47.5596145","lon":"7.5806107","hops":{"incoming":[],"outgoing":[{"transport_id":"17","id":"4147","transport_name":"None Selected","transport_description":null,"transport_unit":"kg km","transport_co2_eq":"0.000000","from_stop_id":"6407","from_stop_lat":"47.5596145","from_stop_lon":"7.5806107","from_stop_placename":"Basilej, \u00c5\u00a0v\u00c3\u00bdcarsko","to_stop_id":"2079","to_stop_name":"origin","to_stop_lat":"55.755786","to_stop_lon":"37.617633","to_stop_placename":"Moskva, Rusko","to_stop":{"id":"2079","name":"origin","lat":"55.755786","lon":"37.617633","placename":"Moskva, Rusko"},"from_stop":{"name":"origin","id":"6407","lat":"47.5596145","lon":"7.5806107","placename":"Basilej, \u00c5\u00a0v\u00c3\u00bdcarsko"}}]}}},"processes":[],"eols":[]},{"oid":"4347","imid":"4736","linkid":"","weight":"0","rawemissions":"0","emissions":"0","shipping":"9508.38","processemissions":"0","endoflifeemissions":"0","disposaltype":null,"disposalenergy":null,"disposalimpact":null,"disposalemissions":null,"description":"farmaceutika","name":"ICN","id":"4736","stops":{"origin":{"related_to":"4736","part_or_object":"p","notes":"","placename":"Kalifornie, Spojen\u00c3\u00a9 st\u00c3\u00a1ty americk\u00c3\u00a9","id":6408,"name":"origin","lat":"36.778261","lon":"-119.4179324","hops":{"incoming":[],"outgoing":[{"transport_id":"17","id":"4148","transport_name":"None Selected","transport_description":null,"transport_unit":"kg km","transport_co2_eq":"0.000000","from_stop_id":"6408","from_stop_lat":"36.778261","from_stop_lon":"-119.4179324","from_stop_placename":"Kalifornie, Spojen\u00c3\u00a9 st\u00c3\u00a1ty americk\u00c3\u00a9","to_stop_id":"2079","to_stop_name":"origin","to_stop_lat":"55.755786","to_stop_lon":"37.617633","to_stop_placename":"Moskva, Rusko","to_stop":{"id":"2079","name":"origin","lat":"55.755786","lon":"37.617633","placename":"Moskva, Rusko"},"from_stop":{"name":"origin","id":"6408","lat":"36.778261","lon":"-119.4179324","placename":"Kalifornie, Spojen\u00c3\u00a9 st\u00c3\u00a1ty americk\u00c3\u00a9"}}]}}},"processes":[],"eols":[]},{"oid":"4347","imid":"4737","linkid":"","weight":"0","rawemissions":"0","emissions":"0","shipping":"0","processemissions":"0","endoflifeemissions":"0","disposaltype":null,"disposalenergy":null,"disposalimpact":null,"disposalemissions":null,"description":"petrochemie, hlinikarny, letectvi","name":"Sibneft (Gazprom), Aeroflot, Russian Aluminium Copany","id":"4737","stops":{"origin":{"related_to":"4737","part_or_object":"p","notes":"","placename":"Part Location","id":6409,"name":"origin","lat":"0","lon":"0","hops":{"incoming":[],"outgoing":[{"transport_id":"17","id":"4149","transport_name":"None Selected","transport_description":null,"transport_unit":"kg km","transport_co2_eq":"0.000000","from_stop_id":"6409","from_stop_lat":"0","from_stop_lon":"0","from_stop_placename":"Part Location","to_stop_id":"2079","to_stop_name":"origin","to_stop_lat":"55.755786","to_stop_lon":"37.617633","to_stop_placename":"Moskva, Rusko","to_stop":{"id":"2079","name":"origin","lat":"55.755786","lon":"37.617633","placename":"Moskva, Rusko"},"from_stop":{"name":"origin","id":"6409","lat":"0","lon":"0","placename":"Part Location"}}]}}},"processes":[],"eols":[]}],"user":{"name":"kolarova","id":"11082"}}}