{"4352":{"oid":"4352","type":"trace","flag":"","creator":"10863","name":"PC","upc":"","imagelink":"","description":"Zem\u00c4\u009b v\u00c3\u00bdroby\n","slug":"pc-1","category":"","weight":"0","emissions":"0","embodied":"0","transport":"0","process":"0","endoflife":"0","shipping":"107156.14","lifetime":null,"usagetype":"","usageenergy":null,"usageemissions":null,"timecreated":"2010-10-30 06:06:58.267834","timemodified":"2010-10-30 17:13:39","visibility":"public","showfootprint":"on","showembodied":"on","showtransport":"on","showprocess":"on","showendoflife":"on","showlastleg":"on","showuse":"on","showstats":"on","stops":{"origin":{"related_to":"4352","part_or_object":"o","notes":"","placename":"\u00c4\u008cesk\u00c3\u00a1 republika","id":"2086","category":"1","lat":"49.817492","lon":"15.472962","name":"origin","hops":{"incoming":[{"transport_id":"17","id":"4162","transport_name":"None Selected","transport_description":null,"transport_unit":"kg km","transport_co2_eq":"0.000000","from_stop_id":"6422","from_stop_lat":"23.69781","from_stop_lon":"120.960515","to_stop_id":"2086","to_stop_name":"origin","to_stop_lat":"49.817492","placename":"Tchaj-wan","to_stop_lon":"15.472962","to_stop":{"id":"2086","name":"origin","lat":"49.817492","placename":"\u00c4\u008cesk\u00c3\u00a1 republika","lon":"15.472962"},"from_stop":{"name":"origin","id":"6422","lat":"23.69781","lon":"120.960515","placename":"Tchaj-wan"}},{"transport_id":"17","id":"4163","transport_name":"None Selected","transport_description":null,"transport_unit":"kg km","transport_co2_eq":"0.000000","from_stop_id":"6423","from_stop_lat":"23.69781","from_stop_lon":"120.960515","to_stop_id":"2086","to_stop_name":"origin","to_stop_lat":"49.817492","placename":"Tchaj-wan","to_stop_lon":"15.472962","to_stop":{"id":"2086","name":"origin","lat":"49.817492","placename":"\u00c4\u008cesk\u00c3\u00a1 republika","lon":"15.472962"},"from_stop":{"name":"origin","id":"6423","lat":"23.69781","lon":"120.960515","placename":"Tchaj-wan"}},{"transport_id":"17","id":"4164","transport_name":"None Selected","transport_description":null,"transport_unit":"kg km","transport_co2_eq":"0.000000","from_stop_id":"6424","from_stop_lat":"35.86166","from_stop_lon":"104.195397","to_stop_id":"2086","to_stop_name":"origin","to_stop_lat":"49.817492","placename":"\u00c4\u008c\u00c3\u00adna","to_stop_lon":"15.472962","to_stop":{"id":"2086","name":"origin","lat":"49.817492","placename":"\u00c4\u008cesk\u00c3\u00a1 republika","lon":"15.472962"},"from_stop":{"name":"origin","id":"6424","lat":"35.86166","lon":"104.195397","placename":"\u00c4\u008c\u00c3\u00adna"}},{"transport_id":"17","id":"4165","transport_name":"None Selected","transport_description":null,"transport_unit":"kg km","transport_co2_eq":"0.000000","from_stop_id":"6425","from_stop_lat":"23.69781","from_stop_lon":"120.960515","to_stop_id":"2086","to_stop_name":"origin","to_stop_lat":"49.817492","placename":"Tchaj-wan","to_stop_lon":"15.472962","to_stop":{"id":"2086","name":"origin","lat":"49.817492","placename":"\u00c4\u008cesk\u00c3\u00a1 republika","lon":"15.472962"},"from_stop":{"name":"origin","id":"6425","lat":"23.69781","lon":"120.960515","placename":"Tchaj-wan"}},{"transport_id":"17","id":"4166","transport_name":"None Selected","transport_description":null,"transport_unit":"kg km","transport_co2_eq":"0.000000","from_stop_id":"6426","from_stop_lat":"60.128161","from_stop_lon":"18.643501","to_stop_id":"2086","to_stop_name":"origin","to_stop_lat":"49.817492","placename":"\u00c5\u00a0v\u00c3\u00a9dsko","to_stop_lon":"15.472962","to_stop":{"id":"2086","name":"origin","lat":"49.817492","placename":"\u00c4\u008cesk\u00c3\u00a1 republika","lon":"15.472962"},"from_stop":{"name":"origin","id":"6426","lat":"60.128161","lon":"18.643501","placename":"\u00c5\u00a0v\u00c3\u00a9dsko"}},{"transport_id":"17","id":"4167","transport_name":"None Selected","transport_description":null,"transport_unit":"kg km","transport_co2_eq":"0.000000","from_stop_id":"6427","from_stop_lat":"35.86166","from_stop_lon":"104.195397","to_stop_id":"2086","to_stop_name":"origin","to_stop_lat":"49.817492","placename":"\u00c4\u008c\u00c3\u00adna","to_stop_lon":"15.472962","to_stop":{"id":"2086","name":"origin","lat":"49.817492","placename":"\u00c4\u008cesk\u00c3\u00a1 republika","lon":"15.472962"},"from_stop":{"name":"origin","id":"6427","lat":"35.86166","lon":"104.195397","placename":"\u00c4\u008c\u00c3\u00adna"}},{"transport_id":"17","id":"4168","transport_name":"None Selected","transport_description":null,"transport_unit":"kg km","transport_co2_eq":"0.000000","from_stop_id":"6428","from_stop_lat":"4.210484","from_stop_lon":"101.975766","to_stop_id":"2086","to_stop_name":"origin","to_stop_lat":"49.817492","placename":"Malajsie","to_stop_lon":"15.472962","to_stop":{"id":"2086","name":"origin","lat":"49.817492","placename":"\u00c4\u008cesk\u00c3\u00a1 republika","lon":"15.472962"},"from_stop":{"name":"origin","id":"6428","lat":"4.210484","lon":"101.975766","placename":"Malajsie"}},{"transport_id":"17","id":"4169","transport_name":"None Selected","transport_description":null,"transport_unit":"kg km","transport_co2_eq":"0.000000","from_stop_id":"6429","from_stop_lat":"23.69781","from_stop_lon":"120.960515","to_stop_id":"2086","to_stop_name":"origin","to_stop_lat":"49.817492","placename":"Tchaj-wan","to_stop_lon":"15.472962","to_stop":{"id":"2086","name":"origin","lat":"49.817492","placename":"\u00c4\u008cesk\u00c3\u00a1 republika","lon":"15.472962"},"from_stop":{"name":"origin","id":"6429","lat":"23.69781","lon":"120.960515","placename":"Tchaj-wan"}},{"transport_id":"17","id":"4170","transport_name":"None Selected","transport_description":null,"transport_unit":"kg km","transport_co2_eq":"0.000000","from_stop_id":"6430","from_stop_lat":"1.352083","from_stop_lon":"103.819836","to_stop_id":"2086","to_stop_name":"origin","to_stop_lat":"49.817492","placename":"Singapur","to_stop_lon":"15.472962","to_stop":{"id":"2086","name":"origin","lat":"49.817492","placename":"\u00c4\u008cesk\u00c3\u00a1 republika","lon":"15.472962"},"from_stop":{"name":"origin","id":"6430","lat":"1.352083","lon":"103.819836","placename":"Singapur"}},{"transport_id":"17","id":"4171","transport_name":"None Selected","transport_description":null,"transport_unit":"kg km","transport_co2_eq":"0.000000","from_stop_id":"6431","from_stop_lat":"48.669026","from_stop_lon":"19.699024","to_stop_id":"2086","to_stop_name":"origin","to_stop_lat":"49.817492","placename":"Slovensko","to_stop_lon":"15.472962","to_stop":{"id":"2086","name":"origin","lat":"49.817492","placename":"\u00c4\u008cesk\u00c3\u00a1 republika","lon":"15.472962"},"from_stop":{"name":"origin","id":"6431","lat":"48.669026","lon":"19.699024","placename":"Slovensko"}},{"transport_id":"17","id":"4172","transport_name":"None Selected","transport_description":null,"transport_unit":"kg km","transport_co2_eq":"0.000000","from_stop_id":"6432","from_stop_lat":"35.86166","from_stop_lon":"104.195397","to_stop_id":"2086","to_stop_name":"origin","to_stop_lat":"49.817492","placename":"\u00c4\u008c\u00c3\u00adna","to_stop_lon":"15.472962","to_stop":{"id":"2086","name":"origin","lat":"49.817492","placename":"\u00c4\u008cesk\u00c3\u00a1 republika","lon":"15.472962"},"from_stop":{"name":"origin","id":"6432","lat":"35.86166","lon":"104.195397","placename":"\u00c4\u008c\u00c3\u00adna"}},{"transport_id":"17","id":"4173","transport_name":"None Selected","transport_description":null,"transport_unit":"kg km","transport_co2_eq":"0.000000","from_stop_id":"6433","from_stop_lat":"35.86166","from_stop_lon":"104.195397","to_stop_id":"2086","to_stop_name":"origin","to_stop_lat":"49.817492","placename":"\u00c4\u008c\u00c3\u00adna","to_stop_lon":"15.472962","to_stop":{"id":"2086","name":"origin","lat":"49.817492","placename":"\u00c4\u008cesk\u00c3\u00a1 republika","lon":"15.472962"},"from_stop":{"name":"origin","id":"6433","lat":"35.86166","lon":"104.195397","placename":"\u00c4\u008c\u00c3\u00adna"}},{"transport_id":"17","id":"4174","transport_name":"None Selected","transport_description":null,"transport_unit":"kg km","transport_co2_eq":"0.000000","from_stop_id":"6434","from_stop_lat":"35.86166","from_stop_lon":"104.195397","to_stop_id":"2086","to_stop_name":"origin","to_stop_lat":"49.817492","placename":"\u00c4\u008c\u00c3\u00adna","to_stop_lon":"15.472962","to_stop":{"id":"2086","name":"origin","lat":"49.817492","placename":"\u00c4\u008cesk\u00c3\u00a1 republika","lon":"15.472962"},"from_stop":{"name":"origin","id":"6434","lat":"35.86166","lon":"104.195397","placename":"\u00c4\u008c\u00c3\u00adna"}},{"transport_id":"17","id":"4175","transport_name":"None Selected","transport_description":null,"transport_unit":"kg km","transport_co2_eq":"0.000000","from_stop_id":"6435","from_stop_lat":"35.86166","from_stop_lon":"104.195397","to_stop_id":"2086","to_stop_name":"origin","to_stop_lat":"49.817492","placename":"\u00c4\u008c\u00c3\u00adna","to_stop_lon":"15.472962","to_stop":{"id":"2086","name":"origin","lat":"49.817492","placename":"\u00c4\u008cesk\u00c3\u00a1 republika","lon":"15.472962"},"from_stop":{"name":"origin","id":"6435","lat":"35.86166","lon":"104.195397","placename":"\u00c4\u008c\u00c3\u00adna"}},{"transport_id":"17","id":"4176","transport_name":"None Selected","transport_description":null,"transport_unit":"kg km","transport_co2_eq":"0.000000","from_stop_id":"6436","from_stop_lat":"15.870032","from_stop_lon":"100.992541","to_stop_id":"2086","to_stop_name":"origin","to_stop_lat":"49.817492","placename":"Thajsko","to_stop_lon":"15.472962","to_stop":{"id":"2086","name":"origin","lat":"49.817492","placename":"\u00c4\u008cesk\u00c3\u00a1 republika","lon":"15.472962"},"from_stop":{"name":"origin","id":"6436","lat":"15.870032","lon":"100.992541","placename":"Thajsko"}}],"outgoing":[]}}},"parts":[{"oid":"4352","imid":"4752","linkid":"","weight":"0","rawemissions":"0","emissions":"0","shipping":"9062.97","processemissions":"0","endoflifeemissions":"0","disposaltype":null,"disposalenergy":null,"disposalimpact":null,"disposalemissions":null,"description":"","name":"chladic","id":"4752","stops":{"origin":{"related_to":"4752","part_or_object":"p","notes":"","placename":"Tchaj-wan","id":6422,"name":"origin","lat":"23.69781","lon":"120.960515","hops":{"incoming":[],"outgoing":[{"transport_id":"17","id":"4162","transport_name":"None Selected","transport_description":null,"transport_unit":"kg km","transport_co2_eq":"0.000000","from_stop_id":"6422","from_stop_lat":"23.69781","from_stop_lon":"120.960515","from_stop_placename":"Tchaj-wan","to_stop_id":"2086","to_stop_name":"origin","to_stop_lat":"49.817492","to_stop_lon":"15.472962","to_stop_placename":"\u00c4\u008cesk\u00c3\u00a1 republika","to_stop":{"id":"2086","name":"origin","lat":"49.817492","lon":"15.472962","placename":"\u00c4\u008cesk\u00c3\u00a1 republika"},"from_stop":{"name":"origin","id":"6422","lat":"23.69781","lon":"120.960515","placename":"Tchaj-wan"}}]}}},"processes":[],"eols":[]},{"oid":"4352","imid":"4753","linkid":"","weight":"0","rawemissions":"0","emissions":"0","shipping":"9062.97","processemissions":"0","endoflifeemissions":"0","disposaltype":null,"disposalenergy":null,"disposalimpact":null,"disposalemissions":null,"description":"","name":"zakladni deska","id":"4753","stops":{"origin":{"related_to":"4753","part_or_object":"p","notes":"","placename":"Tchaj-wan","id":6423,"name":"origin","lat":"23.69781","lon":"120.960515","hops":{"incoming":[],"outgoing":[{"transport_id":"17","id":"4163","transport_name":"None Selected","transport_description":null,"transport_unit":"kg km","transport_co2_eq":"0.000000","from_stop_id":"6423","from_stop_lat":"23.69781","from_stop_lon":"120.960515","from_stop_placename":"Tchaj-wan","to_stop_id":"2086","to_stop_name":"origin","to_stop_lat":"49.817492","to_stop_lon":"15.472962","to_stop_placename":"\u00c4\u008cesk\u00c3\u00a1 republika","to_stop":{"id":"2086","name":"origin","lat":"49.817492","lon":"15.472962","placename":"\u00c4\u008cesk\u00c3\u00a1 republika"},"from_stop":{"name":"origin","id":"6423","lat":"23.69781","lon":"120.960515","placename":"Tchaj-wan"}}]}}},"processes":[],"eols":[]},{"oid":"4352","imid":"4754","linkid":"","weight":"0","rawemissions":"0","emissions":"0","shipping":"6975.57","processemissions":"0","endoflifeemissions":"0","disposaltype":null,"disposalenergy":null,"disposalimpact":null,"disposalemissions":null,"description":"","name":"sitova WIFI","id":"4754","stops":{"origin":{"related_to":"4754","part_or_object":"p","notes":"","placename":"\u00c4\u008c\u00c3\u00adna","id":6424,"name":"origin","lat":"35.86166","lon":"104.195397","hops":{"incoming":[],"outgoing":[{"transport_id":"17","id":"4164","transport_name":"None Selected","transport_description":null,"transport_unit":"kg km","transport_co2_eq":"0.000000","from_stop_id":"6424","from_stop_lat":"35.86166","from_stop_lon":"104.195397","from_stop_placename":"\u00c4\u008c\u00c3\u00adna","to_stop_id":"2086","to_stop_name":"origin","to_stop_lat":"49.817492","to_stop_lon":"15.472962","to_stop_placename":"\u00c4\u008cesk\u00c3\u00a1 republika","to_stop":{"id":"2086","name":"origin","lat":"49.817492","lon":"15.472962","placename":"\u00c4\u008cesk\u00c3\u00a1 republika"},"from_stop":{"name":"origin","id":"6424","lat":"35.86166","lon":"104.195397","placename":"\u00c4\u008c\u00c3\u00adna"}}]}}},"processes":[],"eols":[]},{"oid":"4352","imid":"4755","linkid":"","weight":"0","rawemissions":"0","emissions":"0","shipping":"9062.97","processemissions":"0","endoflifeemissions":"0","disposaltype":null,"disposalenergy":null,"disposalimpact":null,"disposalemissions":null,"description":"","name":"graficka karta","id":"4755","stops":{"origin":{"related_to":"4755","part_or_object":"p","notes":"","placename":"Tchaj-wan","id":6425,"name":"origin","lat":"23.69781","lon":"120.960515","hops":{"incoming":[],"outgoing":[{"transport_id":"17","id":"4165","transport_name":"None Selected","transport_description":null,"transport_unit":"kg km","transport_co2_eq":"0.000000","from_stop_id":"6425","from_stop_lat":"23.69781","from_stop_lon":"120.960515","from_stop_placename":"Tchaj-wan","to_stop_id":"2086","to_stop_name":"origin","to_stop_lat":"49.817492","to_stop_lon":"15.472962","to_stop_placename":"\u00c4\u008cesk\u00c3\u00a1 republika","to_stop":{"id":"2086","name":"origin","lat":"49.817492","lon":"15.472962","placename":"\u00c4\u008cesk\u00c3\u00a1 republika"},"from_stop":{"name":"origin","id":"6425","lat":"23.69781","lon":"120.960515","placename":"Tchaj-wan"}}]}}},"processes":[],"eols":[]},{"oid":"4352","imid":"4756","linkid":"","weight":"0","rawemissions":"0","emissions":"0","shipping":"1165.18","processemissions":"0","endoflifeemissions":"0","disposaltype":null,"disposalenergy":null,"disposalimpact":null,"disposalemissions":null,"description":"","name":"case","id":"4756","stops":{"origin":{"related_to":"4756","part_or_object":"p","notes":"","placename":"\u00c5\u00a0v\u00c3\u00a9dsko","id":6426,"name":"origin","lat":"60.128161","lon":"18.643501","hops":{"incoming":[],"outgoing":[{"transport_id":"17","id":"4166","transport_name":"None Selected","transport_description":null,"transport_unit":"kg km","transport_co2_eq":"0.000000","from_stop_id":"6426","from_stop_lat":"60.128161","from_stop_lon":"18.643501","from_stop_placename":"\u00c5\u00a0v\u00c3\u00a9dsko","to_stop_id":"2086","to_stop_name":"origin","to_stop_lat":"49.817492","to_stop_lon":"15.472962","to_stop_placename":"\u00c4\u008cesk\u00c3\u00a1 republika","to_stop":{"id":"2086","name":"origin","lat":"49.817492","lon":"15.472962","placename":"\u00c4\u008cesk\u00c3\u00a1 republika"},"from_stop":{"name":"origin","id":"6426","lat":"60.128161","lon":"18.643501","placename":"\u00c5\u00a0v\u00c3\u00a9dsko"}}]}}},"processes":[],"eols":[]},{"oid":"4352","imid":"4757","linkid":"","weight":"0","rawemissions":"0","emissions":"0","shipping":"6975.57","processemissions":"0","endoflifeemissions":"0","disposaltype":null,"disposalenergy":null,"disposalimpact":null,"disposalemissions":null,"description":"","name":"zdroj","id":"4757","stops":{"origin":{"related_to":"4757","part_or_object":"p","notes":"","placename":"\u00c4\u008c\u00c3\u00adna","id":6427,"name":"origin","lat":"35.86166","lon":"104.195397","hops":{"incoming":[],"outgoing":[{"transport_id":"17","id":"4167","transport_name":"None Selected","transport_description":null,"transport_unit":"kg km","transport_co2_eq":"0.000000","from_stop_id":"6427","from_stop_lat":"35.86166","from_stop_lon":"104.195397","from_stop_placename":"\u00c4\u008c\u00c3\u00adna","to_stop_id":"2086","to_stop_name":"origin","to_stop_lat":"49.817492","to_stop_lon":"15.472962","to_stop_placename":"\u00c4\u008cesk\u00c3\u00a1 republika","to_stop":{"id":"2086","name":"origin","lat":"49.817492","lon":"15.472962","placename":"\u00c4\u008cesk\u00c3\u00a1 republika"},"from_stop":{"name":"origin","id":"6427","lat":"35.86166","lon":"104.195397","placename":"\u00c4\u008c\u00c3\u00adna"}}]}}},"processes":[],"eols":[]},{"oid":"4352","imid":"4758","linkid":"","weight":"0","rawemissions":"0","emissions":"0","shipping":"9409.7","processemissions":"0","endoflifeemissions":"0","disposaltype":null,"disposalenergy":null,"disposalimpact":null,"disposalemissions":null,"description":"","name":"procesor","id":"4758","stops":{"origin":{"related_to":"4758","part_or_object":"p","notes":"","placename":"Malajsie","id":6428,"name":"origin","lat":"4.210484","lon":"101.975766","hops":{"incoming":[],"outgoing":[{"transport_id":"17","id":"4168","transport_name":"None Selected","transport_description":null,"transport_unit":"kg km","transport_co2_eq":"0.000000","from_stop_id":"6428","from_stop_lat":"4.210484","from_stop_lon":"101.975766","from_stop_placename":"Malajsie","to_stop_id":"2086","to_stop_name":"origin","to_stop_lat":"49.817492","to_stop_lon":"15.472962","to_stop_placename":"\u00c4\u008cesk\u00c3\u00a1 republika","to_stop":{"id":"2086","name":"origin","lat":"49.817492","lon":"15.472962","placename":"\u00c4\u008cesk\u00c3\u00a1 republika"},"from_stop":{"name":"origin","id":"6428","lat":"4.210484","lon":"101.975766","placename":"Malajsie"}}]}}},"processes":[],"eols":[]},{"oid":"4352","imid":"4759","linkid":"","weight":"0","rawemissions":"0","emissions":"0","shipping":"9062.97","processemissions":"0","endoflifeemissions":"0","disposaltype":null,"disposalenergy":null,"disposalimpact":null,"disposalemissions":null,"description":"","name":"pameti","id":"4759","stops":{"origin":{"related_to":"4759","part_or_object":"p","notes":"","placename":"Tchaj-wan","id":6429,"name":"origin","lat":"23.69781","lon":"120.960515","hops":{"incoming":[],"outgoing":[{"transport_id":"17","id":"4169","transport_name":"None Selected","transport_description":null,"transport_unit":"kg km","transport_co2_eq":"0.000000","from_stop_id":"6429","from_stop_lat":"23.69781","from_stop_lon":"120.960515","from_stop_placename":"Tchaj-wan","to_stop_id":"2086","to_stop_name":"origin","to_stop_lat":"49.817492","to_stop_lon":"15.472962","to_stop_placename":"\u00c4\u008cesk\u00c3\u00a1 republika","to_stop":{"id":"2086","name":"origin","lat":"49.817492","lon":"15.472962","placename":"\u00c4\u008cesk\u00c3\u00a1 republika"},"from_stop":{"name":"origin","id":"6429","lat":"23.69781","lon":"120.960515","placename":"Tchaj-wan"}}]}}},"processes":[],"eols":[]},{"oid":"4352","imid":"4760","linkid":"","weight":"0","rawemissions":"0","emissions":"0","shipping":"9785.03","processemissions":"0","endoflifeemissions":"0","disposaltype":null,"disposalenergy":null,"disposalimpact":null,"disposalemissions":null,"description":"","name":"pevny disk","id":"4760","stops":{"origin":{"related_to":"4760","part_or_object":"p","notes":"","placename":"Singapur","id":6430,"name":"origin","lat":"1.352083","lon":"103.819836","hops":{"incoming":[],"outgoing":[{"transport_id":"17","id":"4170","transport_name":"None Selected","transport_description":null,"transport_unit":"kg km","transport_co2_eq":"0.000000","from_stop_id":"6430","from_stop_lat":"1.352083","from_stop_lon":"103.819836","from_stop_placename":"Singapur","to_stop_id":"2086","to_stop_name":"origin","to_stop_lat":"49.817492","to_stop_lon":"15.472962","to_stop_placename":"\u00c4\u008cesk\u00c3\u00a1 republika","to_stop":{"id":"2086","name":"origin","lat":"49.817492","lon":"15.472962","placename":"\u00c4\u008cesk\u00c3\u00a1 republika"},"from_stop":{"name":"origin","id":"6430","lat":"1.352083","lon":"103.819836","placename":"Singapur"}}]}}},"processes":[],"eols":[]},{"oid":"4352","imid":"4761","linkid":"","weight":"0","rawemissions":"0","emissions":"0","shipping":"332.61","processemissions":"0","endoflifeemissions":"0","disposaltype":null,"disposalenergy":null,"disposalimpact":null,"disposalemissions":null,"description":"","name":"monitor","id":"4761","stops":{"origin":{"related_to":"4761","part_or_object":"p","notes":"","placename":"Slovensko","id":6431,"name":"origin","lat":"48.669026","lon":"19.699024","hops":{"incoming":[],"outgoing":[{"transport_id":"17","id":"4171","transport_name":"None Selected","transport_description":null,"transport_unit":"kg km","transport_co2_eq":"0.000000","from_stop_id":"6431","from_stop_lat":"48.669026","from_stop_lon":"19.699024","from_stop_placename":"Slovensko","to_stop_id":"2086","to_stop_name":"origin","to_stop_lat":"49.817492","to_stop_lon":"15.472962","to_stop_placename":"\u00c4\u008cesk\u00c3\u00a1 republika","to_stop":{"id":"2086","name":"origin","lat":"49.817492","lon":"15.472962","placename":"\u00c4\u008cesk\u00c3\u00a1 republika"},"from_stop":{"name":"origin","id":"6431","lat":"48.669026","lon":"19.699024","placename":"Slovensko"}}]}}},"processes":[],"eols":[]},{"oid":"4352","imid":"4762","linkid":"","weight":"0","rawemissions":"0","emissions":"0","shipping":"6975.57","processemissions":"0","endoflifeemissions":"0","disposaltype":null,"disposalenergy":null,"disposalimpact":null,"disposalemissions":null,"description":"","name":"mys","id":"4762","stops":{"origin":{"related_to":"4762","part_or_object":"p","notes":"","placename":"\u00c4\u008c\u00c3\u00adna","id":6432,"name":"origin","lat":"35.86166","lon":"104.195397","hops":{"incoming":[],"outgoing":[{"transport_id":"17","id":"4172","transport_name":"None Selected","transport_description":null,"transport_unit":"kg km","transport_co2_eq":"0.000000","from_stop_id":"6432","from_stop_lat":"35.86166","from_stop_lon":"104.195397","from_stop_placename":"\u00c4\u008c\u00c3\u00adna","to_stop_id":"2086","to_stop_name":"origin","to_stop_lat":"49.817492","to_stop_lon":"15.472962","to_stop_placename":"\u00c4\u008cesk\u00c3\u00a1 republika","to_stop":{"id":"2086","name":"origin","lat":"49.817492","lon":"15.472962","placename":"\u00c4\u008cesk\u00c3\u00a1 republika"},"from_stop":{"name":"origin","id":"6432","lat":"35.86166","lon":"104.195397","placename":"\u00c4\u008c\u00c3\u00adna"}}]}}},"processes":[],"eols":[]},{"oid":"4352","imid":"4763","linkid":"","weight":"0","rawemissions":"0","emissions":"0","shipping":"6975.57","processemissions":"0","endoflifeemissions":"0","disposaltype":null,"disposalenergy":null,"disposalimpact":null,"disposalemissions":null,"description":"","name":"klavesnice","id":"4763","stops":{"origin":{"related_to":"4763","part_or_object":"p","notes":"","placename":"\u00c4\u008c\u00c3\u00adna","id":6433,"name":"origin","lat":"35.86166","lon":"104.195397","hops":{"incoming":[],"outgoing":[{"transport_id":"17","id":"4173","transport_name":"None Selected","transport_description":null,"transport_unit":"kg km","transport_co2_eq":"0.000000","from_stop_id":"6433","from_stop_lat":"35.86166","from_stop_lon":"104.195397","from_stop_placename":"\u00c4\u008c\u00c3\u00adna","to_stop_id":"2086","to_stop_name":"origin","to_stop_lat":"49.817492","to_stop_lon":"15.472962","to_stop_placename":"\u00c4\u008cesk\u00c3\u00a1 republika","to_stop":{"id":"2086","name":"origin","lat":"49.817492","lon":"15.472962","placename":"\u00c4\u008cesk\u00c3\u00a1 republika"},"from_stop":{"name":"origin","id":"6433","lat":"35.86166","lon":"104.195397","placename":"\u00c4\u008c\u00c3\u00adna"}}]}}},"processes":[],"eols":[]},{"oid":"4352","imid":"4764","linkid":"","weight":"0","rawemissions":"0","emissions":"0","shipping":"6975.57","processemissions":"0","endoflifeemissions":"0","disposaltype":null,"disposalenergy":null,"disposalimpact":null,"disposalemissions":null,"description":"","name":"sluchatka s mikrofonem","id":"4764","stops":{"origin":{"related_to":"4764","part_or_object":"p","notes":"","placename":"\u00c4\u008c\u00c3\u00adna","id":6434,"name":"origin","lat":"35.86166","lon":"104.195397","hops":{"incoming":[],"outgoing":[{"transport_id":"17","id":"4174","transport_name":"None Selected","transport_description":null,"transport_unit":"kg km","transport_co2_eq":"0.000000","from_stop_id":"6434","from_stop_lat":"35.86166","from_stop_lon":"104.195397","from_stop_placename":"\u00c4\u008c\u00c3\u00adna","to_stop_id":"2086","to_stop_name":"origin","to_stop_lat":"49.817492","to_stop_lon":"15.472962","to_stop_placename":"\u00c4\u008cesk\u00c3\u00a1 republika","to_stop":{"id":"2086","name":"origin","lat":"49.817492","lon":"15.472962","placename":"\u00c4\u008cesk\u00c3\u00a1 republika"},"from_stop":{"name":"origin","id":"6434","lat":"35.86166","lon":"104.195397","placename":"\u00c4\u008c\u00c3\u00adna"}}]}}},"processes":[],"eols":[]},{"oid":"4352","imid":"4765","linkid":"","weight":"0","rawemissions":"0","emissions":"0","shipping":"6975.57","processemissions":"0","endoflifeemissions":"0","disposaltype":null,"disposalenergy":null,"disposalimpact":null,"disposalemissions":null,"description":"","name":"bedynky","id":"4765","stops":{"origin":{"related_to":"4765","part_or_object":"p","notes":"","placename":"\u00c4\u008c\u00c3\u00adna","id":6435,"name":"origin","lat":"35.86166","lon":"104.195397","hops":{"incoming":[],"outgoing":[{"transport_id":"17","id":"4175","transport_name":"None Selected","transport_description":null,"transport_unit":"kg km","transport_co2_eq":"0.000000","from_stop_id":"6435","from_stop_lat":"35.86166","from_stop_lon":"104.195397","from_stop_placename":"\u00c4\u008c\u00c3\u00adna","to_stop_id":"2086","to_stop_name":"origin","to_stop_lat":"49.817492","to_stop_lon":"15.472962","to_stop_placename":"\u00c4\u008cesk\u00c3\u00a1 republika","to_stop":{"id":"2086","name":"origin","lat":"49.817492","lon":"15.472962","placename":"\u00c4\u008cesk\u00c3\u00a1 republika"},"from_stop":{"name":"origin","id":"6435","lat":"35.86166","lon":"104.195397","placename":"\u00c4\u008c\u00c3\u00adna"}}]}}},"processes":[],"eols":[]},{"oid":"4352","imid":"4766","linkid":"","weight":"0","rawemissions":"0","emissions":"0","shipping":"8358.32","processemissions":"0","endoflifeemissions":"0","disposaltype":null,"disposalenergy":null,"disposalimpact":null,"disposalemissions":null,"description":"","name":"externi disk","id":"4766","stops":{"origin":{"related_to":"4766","part_or_object":"p","notes":"","placename":"Thajsko","id":6436,"name":"origin","lat":"15.870032","lon":"100.992541","hops":{"incoming":[],"outgoing":[{"transport_id":"17","id":"4176","transport_name":"None Selected","transport_description":null,"transport_unit":"kg km","transport_co2_eq":"0.000000","from_stop_id":"6436","from_stop_lat":"15.870032","from_stop_lon":"100.992541","from_stop_placename":"Thajsko","to_stop_id":"2086","to_stop_name":"origin","to_stop_lat":"49.817492","to_stop_lon":"15.472962","to_stop_placename":"\u00c4\u008cesk\u00c3\u00a1 republika","to_stop":{"id":"2086","name":"origin","lat":"49.817492","lon":"15.472962","placename":"\u00c4\u008cesk\u00c3\u00a1 republika"},"from_stop":{"name":"origin","id":"6436","lat":"15.870032","lon":"100.992541","placename":"Thajsko"}}]}}},"processes":[],"eols":[]}],"user":{"name":"krasnageografka","id":"10863"}}}