{"4355":{"oid":"4355","type":"travel","flag":"","creator":"11093","name":"Arsenal Londyn","upc":"","imagelink":"","description":"","slug":"arsenal-londyn","category":"","weight":"0","emissions":"0","embodied":"0","transport":"0","process":"0","endoflife":"0","shipping":"50471.77","lifetime":null,"usagetype":"","usageenergy":null,"usageemissions":null,"timecreated":"2010-10-30 11:13:09.523522","timemodified":"2010-10-30 16:02:32","visibility":"public","showfootprint":"on","showembodied":"on","showtransport":"on","showprocess":"on","showendoflife":"on","showlastleg":"on","showuse":"on","showstats":"on","stops":{"origin":{"related_to":"4355","part_or_object":"o","notes":"","placename":"Emirates Stadium, Islington, Lond\u00fdn N5 1BU, Velk\u00e1 Brit\u00e1nie","id":"2085","category":"1","lat":"51.554499","lon":"-0.1086646","name":"origin","hops":{"incoming":[{"transport_id":"16","id":"4191","transport_name":"air, freight, intercontinental","transport_description":"intercontinental freight","transport_unit":"kg km","transport_co2_eq":"0.450000","from_stop_id":"6451","from_stop_lat":"42.8179906","from_stop_lon":"-1.644215","to_stop_id":"2085","to_stop_name":"origin","to_stop_lat":"51.554499","placename":"Pamplona, \u0160pan\u011blsko","to_stop_lon":"-0.1086646","to_stop":{"id":"2085","name":"origin","lat":"51.554499","placename":"Emirates Stadium, Islington, Lond\u00fdn N5 1BU, Velk\u00e1 Brit\u00e1nie","lon":"-0.1086646"},"from_stop":{"name":"origin","id":"6451","lat":"42.8179906","lon":"-1.644215","placename":"Pamplona, \u0160pan\u011blsko"}},{"transport_id":"14","id":"4192","transport_name":"air, passenger, intercontinental","transport_description":"intercontinental, kg km from person-km","transport_unit":"kg km","transport_co2_eq":"1.189000","from_stop_id":"6452","from_stop_lat":"45.6189486","from_stop_lon":"9.198744","to_stop_id":"2085","to_stop_name":"origin","to_stop_lat":"51.554499","placename":"20033 Desio MB, It\u00e1lie","to_stop_lon":"-0.1086646","to_stop":{"id":"2085","name":"origin","lat":"51.554499","placename":"Emirates Stadium, Islington, Lond\u00fdn N5 1BU, Velk\u00e1 Brit\u00e1nie","lon":"-0.1086646"},"from_stop":{"name":"origin","id":"6452","lat":"45.6189486","lon":"9.198744","placename":"20033 Desio MB, It\u00e1lie"}},{"transport_id":"14","id":"4193","transport_name":"air, passenger, intercontinental","transport_description":"intercontinental, kg km from person-km","transport_unit":"kg km","transport_co2_eq":"1.189000","from_stop_id":"6453","from_stop_lat":"52.5871889","from_stop_lon":"14.6494467","to_stop_id":"2085","to_stop_name":"origin","to_stop_lat":"51.554499","placename":"Kostrzyn nad Odr\u0105, Polsko","to_stop_lon":"-0.1086646","to_stop":{"id":"2085","name":"origin","lat":"51.554499","placename":"Emirates Stadium, Islington, Lond\u00fdn N5 1BU, Velk\u00e1 Brit\u00e1nie","lon":"-0.1086646"},"from_stop":{"name":"origin","id":"6453","lat":"52.5871889","lon":"14.6494467","placename":"Kostrzyn nad Odr\u0105, Polsko"}},{"transport_id":"14","id":"4194","transport_name":"air, passenger, intercontinental","transport_description":"intercontinental, kg km from person-km","transport_unit":"kg km","transport_co2_eq":"1.189000","from_stop_id":"6454","from_stop_lat":"52.2296756","from_stop_lon":"21.0122287","to_stop_id":"2085","to_stop_name":"origin","to_stop_lat":"51.554499","placename":"Var\u0161ava, Polsko","to_stop_lon":"-0.1086646","to_stop":{"id":"2085","name":"origin","lat":"51.554499","placename":"Emirates Stadium, Islington, Lond\u00fdn N5 1BU, Velk\u00e1 Brit\u00e1nie","lon":"-0.1086646"},"from_stop":{"name":"origin","id":"6454","lat":"52.2296756","lon":"21.0122287","placename":"Var\u0161ava, Polsko"}},{"transport_id":"17","id":"4195","transport_name":"None Selected","transport_description":null,"transport_unit":"kg km","transport_co2_eq":"0.000000","from_stop_id":"6455","from_stop_lat":"48.1977573","from_stop_lon":"3.2871773","to_stop_id":"2085","to_stop_name":"origin","to_stop_lat":"51.554499","placename":"89100 Sens, Francie","to_stop_lon":"-0.1086646","to_stop":{"id":"2085","name":"origin","lat":"51.554499","placename":"Emirates Stadium, Islington, Lond\u00fdn N5 1BU, Velk\u00e1 Brit\u00e1nie","lon":"-0.1086646"},"from_stop":{"name":"origin","id":"6455","lat":"48.1977573","lon":"3.2871773","placename":"89100 Sens, Francie"}},{"transport_id":"17","id":"4196","transport_name":"None Selected","transport_description":null,"transport_unit":"kg km","transport_co2_eq":"0.000000","from_stop_id":"6456","from_stop_lat":"45.2646735","from_stop_lon":"1.7676143","to_stop_id":"2085","to_stop_name":"origin","to_stop_lat":"51.554499","placename":"19000 Tulle, Francie","to_stop_lon":"-0.1086646","to_stop":{"id":"2085","name":"origin","lat":"51.554499","placename":"Emirates Stadium, Islington, Lond\u00fdn N5 1BU, Velk\u00e1 Brit\u00e1nie","lon":"-0.1086646"},"from_stop":{"name":"origin","id":"6456","lat":"45.2646735","lon":"1.7676143","placename":"19000 Tulle, Francie"}},{"transport_id":"17","id":"4197","transport_name":"None Selected","transport_description":null,"transport_unit":"kg km","transport_co2_eq":"0.000000","from_stop_id":"6457","from_stop_lat":"7.539989","from_stop_lon":"-5.54708","to_stop_id":"2085","to_stop_name":"origin","to_stop_lat":"51.554499","placename":"Pob\u0159e\u017e\u00ed slonoviny","to_stop_lon":"-0.1086646","to_stop":{"id":"2085","name":"origin","lat":"51.554499","placename":"Emirates Stadium, Islington, Lond\u00fdn N5 1BU, Velk\u00e1 Brit\u00e1nie","lon":"-0.1086646"},"from_stop":{"name":"origin","id":"6457","lat":"7.539989","lon":"-5.54708","placename":"Pob\u0159e\u017e\u00ed slonoviny"}},{"transport_id":"17","id":"4198","transport_name":"None Selected","transport_description":null,"transport_unit":"kg km","transport_co2_eq":"0.000000","from_stop_id":"6458","from_stop_lat":"51.316795","from_stop_lon":"4.4278683","to_stop_id":"2085","to_stop_name":"origin","to_stop_lat":"51.554499","placename":"2950 Kapellen, Belgie","to_stop_lon":"-0.1086646","to_stop":{"id":"2085","name":"origin","lat":"51.554499","placename":"Emirates Stadium, Islington, Lond\u00fdn N5 1BU, Velk\u00e1 Brit\u00e1nie","lon":"-0.1086646"},"from_stop":{"name":"origin","id":"6458","lat":"51.316795","lon":"4.4278683","placename":"2950 Kapellen, Belgie"}},{"transport_id":"17","id":"4199","transport_name":"None Selected","transport_description":null,"transport_unit":"kg km","transport_co2_eq":"0.000000","from_stop_id":"6459","from_stop_lat":"43.1251606","from_stop_lon":"5.9311119","to_stop_id":"2085","to_stop_name":"origin","to_stop_lat":"51.554499","placename":"Toulon, Francie","to_stop_lon":"-0.1086646","to_stop":{"id":"2085","name":"origin","lat":"51.554499","placename":"Emirates Stadium, Islington, Lond\u00fdn N5 1BU, Velk\u00e1 Brit\u00e1nie","lon":"-0.1086646"},"from_stop":{"name":"origin","id":"6459","lat":"43.1251606","lon":"5.9311119","placename":"Toulon, Francie"}},{"transport_id":"17","id":"4200","transport_name":"None Selected","transport_description":null,"transport_unit":"kg km","transport_co2_eq":"0.000000","from_stop_id":"6460","from_stop_lat":"43.604363","from_stop_lon":"1.4429513","to_stop_id":"2085","to_stop_name":"origin","to_stop_lat":"51.554499","placename":"Toulouse, Francie","to_stop_lon":"-0.1086646","to_stop":{"id":"2085","name":"origin","lat":"51.554499","placename":"Emirates Stadium, Islington, Lond\u00fdn N5 1BU, Velk\u00e1 Brit\u00e1nie","lon":"-0.1086646"},"from_stop":{"name":"origin","id":"6460","lat":"43.604363","lon":"1.4429513","placename":"Toulouse, Francie"}},{"transport_id":"17","id":"4201","transport_name":"None Selected","transport_description":null,"transport_unit":"kg km","transport_co2_eq":"0.000000","from_stop_id":"6461","from_stop_lat":"48.8566667","from_stop_lon":"2.3509871","to_stop_id":"2085","to_stop_name":"origin","to_stop_lat":"51.554499","placename":"Pa\u0159\u00ed\u017e, Francie","to_stop_lon":"-0.1086646","to_stop":{"id":"2085","name":"origin","lat":"51.554499","placename":"Emirates Stadium, Islington, Lond\u00fdn N5 1BU, Velk\u00e1 Brit\u00e1nie","lon":"-0.1086646"},"from_stop":{"name":"origin","id":"6461","lat":"48.8566667","lon":"2.3509871","placename":"Pa\u0159\u00ed\u017e, Francie"}},{"transport_id":"17","id":"4202","transport_name":"None Selected","transport_description":null,"transport_unit":"kg km","transport_co2_eq":"0.000000","from_stop_id":"6462","from_stop_lat":"48.8566667","from_stop_lon":"2.3509871","to_stop_id":"2085","to_stop_name":"origin","to_stop_lat":"51.554499","placename":"Pa\u0159\u00ed\u017e, Francie","to_stop_lon":"-0.1086646","to_stop":{"id":"2085","name":"origin","lat":"51.554499","placename":"Emirates Stadium, Islington, Lond\u00fdn N5 1BU, Velk\u00e1 Brit\u00e1nie","lon":"-0.1086646"},"from_stop":{"name":"origin","id":"6462","lat":"48.8566667","lon":"2.3509871","placename":"Pa\u0159\u00ed\u017e, Francie"}},{"transport_id":"17","id":"4203","transport_name":"None Selected","transport_description":null,"transport_unit":"kg km","transport_co2_eq":"0.000000","from_stop_id":"6463","from_stop_lat":"50.0878114","from_stop_lon":"14.4204598","to_stop_id":"2085","to_stop_name":"origin","to_stop_lat":"51.554499","placename":"Praha, \u010cesk\u00e1 republika","to_stop_lon":"-0.1086646","to_stop":{"id":"2085","name":"origin","lat":"51.554499","placename":"Emirates Stadium, Islington, Lond\u00fdn N5 1BU, Velk\u00e1 Brit\u00e1nie","lon":"-0.1086646"},"from_stop":{"name":"origin","id":"6463","lat":"50.0878114","lon":"14.4204598","placename":"Praha, \u010cesk\u00e1 republika"}},{"transport_id":"17","id":"4204","transport_name":"None Selected","transport_description":null,"transport_unit":"kg km","transport_co2_eq":"0.000000","from_stop_id":"6464","from_stop_lat":"-23.5489433","from_stop_lon":"-46.6388182","to_stop_id":"2085","to_stop_name":"origin","to_stop_lat":"51.554499","placename":"S\u00e3o Paulo, Braz\u00edlie","to_stop_lon":"-0.1086646","to_stop":{"id":"2085","name":"origin","lat":"51.554499","placename":"Emirates Stadium, Islington, Lond\u00fdn N5 1BU, Velk\u00e1 Brit\u00e1nie","lon":"-0.1086646"},"from_stop":{"name":"origin","id":"6464","lat":"-23.5489433","lon":"-46.6388182","placename":"S\u00e3o Paulo, Braz\u00edlie"}},{"transport_id":"17","id":"4205","transport_name":"None Selected","transport_description":null,"transport_unit":"kg km","transport_co2_eq":"0.000000","from_stop_id":"6465","from_stop_lat":"4.047486","from_stop_lon":"9.706374","to_stop_id":"2085","to_stop_name":"origin","to_stop_lat":"51.554499","placename":"Douala, Kamerun","to_stop_lon":"-0.1086646","to_stop":{"id":"2085","name":"origin","lat":"51.554499","placename":"Emirates Stadium, Islington, Lond\u00fdn N5 1BU, Velk\u00e1 Brit\u00e1nie","lon":"-0.1086646"},"from_stop":{"name":"origin","id":"6465","lat":"4.047486","lon":"9.706374","placename":"Douala, Kamerun"}},{"transport_id":"17","id":"4206","transport_name":"None Selected","transport_description":null,"transport_unit":"kg km","transport_co2_eq":"0.000000","from_stop_id":"6466","from_stop_lat":"59.939039","from_stop_lon":"30.315785","to_stop_id":"2085","to_stop_name":"origin","to_stop_lat":"51.554499","placename":"Sankt Pet\u011brburg, Rusko","to_stop_lon":"-0.1086646","to_stop":{"id":"2085","name":"origin","lat":"51.554499","placename":"Emirates Stadium, Islington, Lond\u00fdn N5 1BU, Velk\u00e1 Brit\u00e1nie","lon":"-0.1086646"},"from_stop":{"name":"origin","id":"6466","lat":"59.939039","lon":"30.315785","placename":"Sankt Pet\u011brburg, Rusko"}},{"transport_id":"17","id":"4207","transport_name":"None Selected","transport_description":null,"transport_unit":"kg km","transport_co2_eq":"0.000000","from_stop_id":"6467","from_stop_lat":"41.387917","from_stop_lon":"2.1699187","to_stop_id":"2085","to_stop_name":"origin","to_stop_lat":"51.554499","placename":"Barcelona, \u0160pan\u011blsko","to_stop_lon":"-0.1086646","to_stop":{"id":"2085","name":"origin","lat":"51.554499","placename":"Emirates Stadium, Islington, Lond\u00fdn N5 1BU, Velk\u00e1 Brit\u00e1nie","lon":"-0.1086646"},"from_stop":{"name":"origin","id":"6467","lat":"41.387917","lon":"2.1699187","placename":"Barcelona, \u0160pan\u011blsko"}},{"transport_id":"17","id":"4208","transport_name":"None Selected","transport_description":null,"transport_unit":"kg km","transport_co2_eq":"0.000000","from_stop_id":"6468","from_stop_lat":"43.2976116","from_stop_lon":"5.3810421","to_stop_id":"2085","to_stop_name":"origin","to_stop_lat":"51.554499","placename":"Marseille, Francie","to_stop_lon":"-0.1086646","to_stop":{"id":"2085","name":"origin","lat":"51.554499","placename":"Emirates Stadium, Islington, Lond\u00fdn N5 1BU, Velk\u00e1 Brit\u00e1nie","lon":"-0.1086646"},"from_stop":{"name":"origin","id":"6468","lat":"43.2976116","lon":"5.3810421","placename":"Marseille, Francie"}},{"transport_id":"17","id":"4209","transport_name":"None Selected","transport_description":null,"transport_unit":"kg km","transport_co2_eq":"0.000000","from_stop_id":"6469","from_stop_lat":"51.5785968","from_stop_lon":"-3.218061","to_stop_id":"2085","to_stop_name":"origin","to_stop_lat":"51.554499","placename":"Caerphilly, Velk\u00e1 Brit\u00e1nie","to_stop_lon":"-0.1086646","to_stop":{"id":"2085","name":"origin","lat":"51.554499","placename":"Emirates Stadium, Islington, Lond\u00fdn N5 1BU, Velk\u00e1 Brit\u00e1nie","lon":"-0.1086646"},"from_stop":{"name":"origin","id":"6469","lat":"51.5785968","lon":"-3.218061","placename":"Caerphilly, Velk\u00e1 Brit\u00e1nie"}},{"transport_id":"17","id":"4210","transport_name":"None Selected","transport_description":null,"transport_unit":"kg km","transport_co2_eq":"0.000000","from_stop_id":"6470","from_stop_lat":"5.336318","from_stop_lon":"-4.027751","to_stop_id":"2085","to_stop_name":"origin","to_stop_lat":"51.554499","placename":"Abid\u017ean, Pob\u0159e\u017e\u00ed slonoviny","to_stop_lon":"-0.1086646","to_stop":{"id":"2085","name":"origin","lat":"51.554499","placename":"Emirates Stadium, Islington, Lond\u00fdn N5 1BU, Velk\u00e1 Brit\u00e1nie","lon":"-0.1086646"},"from_stop":{"name":"origin","id":"6470","lat":"5.336318","lon":"-4.027751","placename":"Abid\u017ean, Pob\u0159e\u017e\u00ed slonoviny"}},{"transport_id":"17","id":"4211","transport_name":"None Selected","transport_description":null,"transport_unit":"kg km","transport_co2_eq":"0.000000","from_stop_id":"6471","from_stop_lat":"51.9226899","from_stop_lon":"4.4707867","to_stop_id":"2085","to_stop_name":"origin","to_stop_lat":"51.554499","placename":"Rotterdam, Nizozemsko","to_stop_lon":"-0.1086646","to_stop":{"id":"2085","name":"origin","lat":"51.554499","placename":"Emirates Stadium, Islington, Lond\u00fdn N5 1BU, Velk\u00e1 Brit\u00e1nie","lon":"-0.1086646"},"from_stop":{"name":"origin","id":"6471","lat":"51.9226899","lon":"4.4707867","placename":"Rotterdam, Nizozemsko"}},{"transport_id":"17","id":"4212","transport_name":"None Selected","transport_description":null,"transport_unit":"kg km","transport_co2_eq":"0.000000","from_stop_id":"6472","from_stop_lat":"55.6762944","from_stop_lon":"12.5681157","to_stop_id":"2085","to_stop_name":"origin","to_stop_lat":"51.554499","placename":"Koda\u0148, D\u00e1nsko","to_stop_lon":"-0.1086646","to_stop":{"id":"2085","name":"origin","lat":"51.554499","placename":"Emirates Stadium, Islington, Lond\u00fdn N5 1BU, Velk\u00e1 Brit\u00e1nie","lon":"-0.1086646"},"from_stop":{"name":"origin","id":"6472","lat":"55.6762944","lon":"12.5681157","placename":"Koda\u0148, D\u00e1nsko"}},{"transport_id":"17","id":"4213","transport_name":"None Selected","transport_description":null,"transport_unit":"kg km","transport_co2_eq":"0.000000","from_stop_id":"6473","from_stop_lat":"21.158964","from_stop_lon":"-86.845937","to_stop_id":"2085","to_stop_name":"origin","to_stop_lat":"51.554499","placename":"Canc\u00fan, Quintana Roo, Mexiko","to_stop_lon":"-0.1086646","to_stop":{"id":"2085","name":"origin","lat":"51.554499","placename":"Emirates Stadium, Islington, Lond\u00fdn N5 1BU, Velk\u00e1 Brit\u00e1nie","lon":"-0.1086646"},"from_stop":{"name":"origin","id":"6473","lat":"21.158964","lon":"-86.845937","placename":"Canc\u00fan, Quintana Roo, Mexiko"}},{"transport_id":"17","id":"4214","transport_name":"None Selected","transport_description":null,"transport_unit":"kg km","transport_co2_eq":"0.000000","from_stop_id":"6474","from_stop_lat":"31.791702","from_stop_lon":"-7.09262","to_stop_id":"2085","to_stop_name":"origin","to_stop_lat":"51.554499","placename":"Maroko","to_stop_lon":"-0.1086646","to_stop":{"id":"2085","name":"origin","lat":"51.554499","placename":"Emirates Stadium, Islington, Lond\u00fdn N5 1BU, Velk\u00e1 Brit\u00e1nie","lon":"-0.1086646"},"from_stop":{"name":"origin","id":"6474","lat":"31.791702","lon":"-7.09262","placename":"Maroko"}}],"outgoing":[]}}},"parts":[{"oid":"4355","imid":"4782","linkid":"","weight":"0","rawemissions":"0","emissions":"0","shipping":"979.4","processemissions":"0","endoflifeemissions":"0","disposaltype":null,"disposalenergy":null,"disposalimpact":null,"disposalemissions":null,"description":"","name":"Manuel Almunia","id":"4782","stops":{"origin":{"related_to":"4782","part_or_object":"p","notes":"","placename":"Pamplona, \u0160pan\u011blsko","id":6451,"name":"origin","lat":"42.8179906","lon":"-1.644215","hops":{"incoming":[],"outgoing":[{"transport_id":"16","id":"4191","transport_name":"air, freight, intercontinental","transport_description":"intercontinental freight","transport_unit":"kg km","transport_co2_eq":"0.450000","from_stop_id":"6451","from_stop_lat":"42.8179906","from_stop_lon":"-1.644215","from_stop_placename":"Pamplona, \u0160pan\u011blsko","to_stop_id":"2085","to_stop_name":"origin","to_stop_lat":"51.554499","to_stop_lon":"-0.1086646","to_stop_placename":"Emirates Stadium, Islington, Lond\u00fdn N5 1BU, Velk\u00e1 Brit\u00e1nie","to_stop":{"id":"2085","name":"origin","lat":"51.554499","lon":"-0.1086646","placename":"Emirates Stadium, Islington, Lond\u00fdn N5 1BU, Velk\u00e1 Brit\u00e1nie"},"from_stop":{"name":"origin","id":"6451","lat":"42.8179906","lon":"-1.644215","placename":"Pamplona, \u0160pan\u011blsko"}}]}}},"processes":[],"eols":[]},{"oid":"4355","imid":"4783","linkid":"","weight":"0","rawemissions":"0","emissions":"0","shipping":"950.62","processemissions":"0","endoflifeemissions":"0","disposaltype":null,"disposalenergy":null,"disposalimpact":null,"disposalemissions":null,"description":"","name":"Vito Mannone","id":"4783","stops":{"origin":{"related_to":"4783","part_or_object":"p","notes":"","placename":"20033 Desio MB, It\u00e1lie","id":6452,"name":"origin","lat":"45.6189486","lon":"9.198744","hops":{"incoming":[],"outgoing":[{"transport_id":"14","id":"4192","transport_name":"air, passenger, intercontinental","transport_description":"intercontinental, kg km from person-km","transport_unit":"kg km","transport_co2_eq":"1.189000","from_stop_id":"6452","from_stop_lat":"45.6189486","from_stop_lon":"9.198744","from_stop_placename":"20033 Desio MB, It\u00e1lie","to_stop_id":"2085","to_stop_name":"origin","to_stop_lat":"51.554499","to_stop_lon":"-0.1086646","to_stop_placename":"Emirates Stadium, Islington, Lond\u00fdn N5 1BU, Velk\u00e1 Brit\u00e1nie","to_stop":{"id":"2085","name":"origin","lat":"51.554499","lon":"-0.1086646","placename":"Emirates Stadium, Islington, Lond\u00fdn N5 1BU, Velk\u00e1 Brit\u00e1nie"},"from_stop":{"name":"origin","id":"6452","lat":"45.6189486","lon":"9.198744","placename":"20033 Desio MB, It\u00e1lie"}}]}}},"processes":[],"eols":[]},{"oid":"4355","imid":"4784","linkid":"","weight":"0","rawemissions":"0","emissions":"0","shipping":"1014.56","processemissions":"0","endoflifeemissions":"0","disposaltype":null,"disposalenergy":null,"disposalimpact":null,"disposalemissions":null,"description":"","name":"Lukasz Fabianski","id":"4784","stops":{"origin":{"related_to":"4784","part_or_object":"p","notes":"","placename":"Kostrzyn nad Odr\u0105, Polsko","id":6453,"name":"origin","lat":"52.5871889","lon":"14.6494467","hops":{"incoming":[],"outgoing":[{"transport_id":"14","id":"4193","transport_name":"air, passenger, intercontinental","transport_description":"intercontinental, kg km from person-km","transport_unit":"kg km","transport_co2_eq":"1.189000","from_stop_id":"6453","from_stop_lat":"52.5871889","from_stop_lon":"14.6494467","from_stop_placename":"Kostrzyn nad Odr\u0105, Polsko","to_stop_id":"2085","to_stop_name":"origin","to_stop_lat":"51.554499","to_stop_lon":"-0.1086646","to_stop_placename":"Emirates Stadium, Islington, Lond\u00fdn N5 1BU, Velk\u00e1 Brit\u00e1nie","to_stop":{"id":"2085","name":"origin","lat":"51.554499","lon":"-0.1086646","placename":"Emirates Stadium, Islington, Lond\u00fdn N5 1BU, Velk\u00e1 Brit\u00e1nie"},"from_stop":{"name":"origin","id":"6453","lat":"52.5871889","lon":"14.6494467","placename":"Kostrzyn nad Odr\u0105, Polsko"}}]}}},"processes":[],"eols":[]},{"oid":"4355","imid":"4785","linkid":"","weight":"0","rawemissions":"0","emissions":"0","shipping":"1447.81","processemissions":"0","endoflifeemissions":"0","disposaltype":null,"disposalenergy":null,"disposalimpact":null,"disposalemissions":null,"description":"","name":"Wojciech Szczesny ","id":"4785","stops":{"origin":{"related_to":"4785","part_or_object":"p","notes":"","placename":"Var\u0161ava, Polsko","id":6454,"name":"origin","lat":"52.2296756","lon":"21.0122287","hops":{"incoming":[],"outgoing":[{"transport_id":"14","id":"4194","transport_name":"air, passenger, intercontinental","transport_description":"intercontinental, kg km from person-km","transport_unit":"kg km","transport_co2_eq":"1.189000","from_stop_id":"6454","from_stop_lat":"52.2296756","from_stop_lon":"21.0122287","from_stop_placename":"Var\u0161ava, Polsko","to_stop_id":"2085","to_stop_name":"origin","to_stop_lat":"51.554499","to_stop_lon":"-0.1086646","to_stop_placename":"Emirates Stadium, Islington, Lond\u00fdn N5 1BU, Velk\u00e1 Brit\u00e1nie","to_stop":{"id":"2085","name":"origin","lat":"51.554499","lon":"-0.1086646","placename":"Emirates Stadium, Islington, Lond\u00fdn N5 1BU, Velk\u00e1 Brit\u00e1nie"},"from_stop":{"name":"origin","id":"6454","lat":"52.2296756","lon":"21.0122287","placename":"Var\u0161ava, Polsko"}}]}}},"processes":[],"eols":[]},{"oid":"4355","imid":"4786","linkid":"","weight":"0","rawemissions":"0","emissions":"0","shipping":"445.96","processemissions":"0","endoflifeemissions":"0","disposaltype":null,"disposalenergy":null,"disposalimpact":null,"disposalemissions":null,"description":"","name":"Bacary Sagna ","id":"4786","stops":{"origin":{"related_to":"4786","part_or_object":"p","notes":"","placename":"89100 Sens, Francie","id":6455,"name":"origin","lat":"48.1977573","lon":"3.2871773","hops":{"incoming":[],"outgoing":[{"transport_id":"17","id":"4195","transport_name":"None Selected","transport_description":null,"transport_unit":"kg km","transport_co2_eq":"0.000000","from_stop_id":"6455","from_stop_lat":"48.1977573","from_stop_lon":"3.2871773","from_stop_placename":"89100 Sens, Francie","to_stop_id":"2085","to_stop_name":"origin","to_stop_lat":"51.554499","to_stop_lon":"-0.1086646","to_stop_placename":"Emirates Stadium, Islington, Lond\u00fdn N5 1BU, Velk\u00e1 Brit\u00e1nie","to_stop":{"id":"2085","name":"origin","lat":"51.554499","lon":"-0.1086646","placename":"Emirates Stadium, Islington, Lond\u00fdn N5 1BU, Velk\u00e1 Brit\u00e1nie"},"from_stop":{"name":"origin","id":"6455","lat":"48.1977573","lon":"3.2871773","placename":"89100 Sens, Francie"}}]}}},"processes":[],"eols":[]},{"oid":"4355","imid":"4787","linkid":"","weight":"0","rawemissions":"0","emissions":"0","shipping":"713.71","processemissions":"0","endoflifeemissions":"0","disposaltype":null,"disposalenergy":null,"disposalimpact":null,"disposalemissions":null,"description":"","name":"Laurent Koscielny ","id":"4787","stops":{"origin":{"related_to":"4787","part_or_object":"p","notes":"","placename":"19000 Tulle, Francie","id":6456,"name":"origin","lat":"45.2646735","lon":"1.7676143","hops":{"incoming":[],"outgoing":[{"transport_id":"17","id":"4196","transport_name":"None Selected","transport_description":null,"transport_unit":"kg km","transport_co2_eq":"0.000000","from_stop_id":"6456","from_stop_lat":"45.2646735","from_stop_lon":"1.7676143","from_stop_placename":"19000 Tulle, Francie","to_stop_id":"2085","to_stop_name":"origin","to_stop_lat":"51.554499","to_stop_lon":"-0.1086646","to_stop_placename":"Emirates Stadium, Islington, Lond\u00fdn N5 1BU, Velk\u00e1 Brit\u00e1nie","to_stop":{"id":"2085","name":"origin","lat":"51.554499","lon":"-0.1086646","placename":"Emirates Stadium, Islington, Lond\u00fdn N5 1BU, Velk\u00e1 Brit\u00e1nie"},"from_stop":{"name":"origin","id":"6456","lat":"45.2646735","lon":"1.7676143","placename":"19000 Tulle, Francie"}}]}}},"processes":[],"eols":[]},{"oid":"4355","imid":"4788","linkid":"","weight":"0","rawemissions":"0","emissions":"0","shipping":"4925.09","processemissions":"0","endoflifeemissions":"0","disposaltype":null,"disposalenergy":null,"disposalimpact":null,"disposalemissions":null,"description":"","name":"Johan Djourou ","id":"4788","stops":{"origin":{"related_to":"4788","part_or_object":"p","notes":"","placename":"Pob\u0159e\u017e\u00ed slonoviny","id":6457,"name":"origin","lat":"7.539989","lon":"-5.54708","hops":{"incoming":[],"outgoing":[{"transport_id":"17","id":"4197","transport_name":"None Selected","transport_description":null,"transport_unit":"kg km","transport_co2_eq":"0.000000","from_stop_id":"6457","from_stop_lat":"7.539989","from_stop_lon":"-5.54708","from_stop_placename":"Pob\u0159e\u017e\u00ed slonoviny","to_stop_id":"2085","to_stop_name":"origin","to_stop_lat":"51.554499","to_stop_lon":"-0.1086646","to_stop_placename":"Emirates Stadium, Islington, Lond\u00fdn N5 1BU, Velk\u00e1 Brit\u00e1nie","to_stop":{"id":"2085","name":"origin","lat":"51.554499","lon":"-0.1086646","placename":"Emirates Stadium, Islington, Lond\u00fdn N5 1BU, Velk\u00e1 Brit\u00e1nie"},"from_stop":{"name":"origin","id":"6457","lat":"7.539989","lon":"-5.54708","placename":"Pob\u0159e\u017e\u00ed slonoviny"}}]}}},"processes":[],"eols":[]},{"oid":"4355","imid":"4789","linkid":"","weight":"0","rawemissions":"0","emissions":"0","shipping":"315.88","processemissions":"0","endoflifeemissions":"0","disposaltype":null,"disposalenergy":null,"disposalimpact":null,"disposalemissions":null,"description":"","name":"Thomas Vermaelen ","id":"4789","stops":{"origin":{"related_to":"4789","part_or_object":"p","notes":"","placename":"2950 Kapellen, Belgie","id":6458,"name":"origin","lat":"51.316795","lon":"4.4278683","hops":{"incoming":[],"outgoing":[{"transport_id":"17","id":"4198","transport_name":"None Selected","transport_description":null,"transport_unit":"kg km","transport_co2_eq":"0.000000","from_stop_id":"6458","from_stop_lat":"51.316795","from_stop_lon":"4.4278683","from_stop_placename":"2950 Kapellen, Belgie","to_stop_id":"2085","to_stop_name":"origin","to_stop_lat":"51.554499","to_stop_lon":"-0.1086646","to_stop_placename":"Emirates Stadium, Islington, Lond\u00fdn N5 1BU, Velk\u00e1 Brit\u00e1nie","to_stop":{"id":"2085","name":"origin","lat":"51.554499","lon":"-0.1086646","placename":"Emirates Stadium, Islington, Lond\u00fdn N5 1BU, Velk\u00e1 Brit\u00e1nie"},"from_stop":{"name":"origin","id":"6458","lat":"51.316795","lon":"4.4278683","placename":"2950 Kapellen, Belgie"}}]}}},"processes":[],"eols":[]},{"oid":"4355","imid":"4790","linkid":"","weight":"0","rawemissions":"0","emissions":"0","shipping":"1042.25","processemissions":"0","endoflifeemissions":"0","disposaltype":null,"disposalenergy":null,"disposalimpact":null,"disposalemissions":null,"description":"","name":"Sebastien Squillaci ","id":"4790","stops":{"origin":{"related_to":"4790","part_or_object":"p","notes":"","placename":"Toulon, Francie","id":6459,"name":"origin","lat":"43.1251606","lon":"5.9311119","hops":{"incoming":[],"outgoing":[{"transport_id":"17","id":"4199","transport_name":"None Selected","transport_description":null,"transport_unit":"kg km","transport_co2_eq":"0.000000","from_stop_id":"6459","from_stop_lat":"43.1251606","from_stop_lon":"5.9311119","from_stop_placename":"Toulon, Francie","to_stop_id":"2085","to_stop_name":"origin","to_stop_lat":"51.554499","to_stop_lon":"-0.1086646","to_stop_placename":"Emirates Stadium, Islington, Lond\u00fdn N5 1BU, Velk\u00e1 Brit\u00e1nie","to_stop":{"id":"2085","name":"origin","lat":"51.554499","lon":"-0.1086646","placename":"Emirates Stadium, Islington, Lond\u00fdn N5 1BU, Velk\u00e1 Brit\u00e1nie"},"from_stop":{"name":"origin","id":"6459","lat":"43.1251606","lon":"5.9311119","placename":"Toulon, Francie"}}]}}},"processes":[],"eols":[]},{"oid":"4355","imid":"4791","linkid":"","weight":"0","rawemissions":"0","emissions":"0","shipping":"892.59","processemissions":"0","endoflifeemissions":"0","disposaltype":null,"disposalenergy":null,"disposalimpact":null,"disposalemissions":null,"description":"","name":"Gael Clichy ","id":"4791","stops":{"origin":{"related_to":"4791","part_or_object":"p","notes":"","placename":"Toulouse, Francie","id":6460,"name":"origin","lat":"43.604363","lon":"1.4429513","hops":{"incoming":[],"outgoing":[{"transport_id":"17","id":"4200","transport_name":"None Selected","transport_description":null,"transport_unit":"kg km","transport_co2_eq":"0.000000","from_stop_id":"6460","from_stop_lat":"43.604363","from_stop_lon":"1.4429513","from_stop_placename":"Toulouse, Francie","to_stop_id":"2085","to_stop_name":"origin","to_stop_lat":"51.554499","to_stop_lon":"-0.1086646","to_stop_placename":"Emirates Stadium, Islington, Lond\u00fdn N5 1BU, Velk\u00e1 Brit\u00e1nie","to_stop":{"id":"2085","name":"origin","lat":"51.554499","lon":"-0.1086646","placename":"Emirates Stadium, Islington, Lond\u00fdn N5 1BU, Velk\u00e1 Brit\u00e1nie"},"from_stop":{"name":"origin","id":"6460","lat":"43.604363","lon":"1.4429513","placename":"Toulouse, Francie"}}]}}},"processes":[],"eols":[]},{"oid":"4355","imid":"4792","linkid":"","weight":"0","rawemissions":"0","emissions":"0","shipping":"347.67","processemissions":"0","endoflifeemissions":"0","disposaltype":null,"disposalenergy":null,"disposalimpact":null,"disposalemissions":null,"description":"","name":"Armand Traore ","id":"4792","stops":{"origin":{"related_to":"4792","part_or_object":"p","notes":"","placename":"Pa\u0159\u00ed\u017e, Francie","id":6461,"name":"origin","lat":"48.8566667","lon":"2.3509871","hops":{"incoming":[],"outgoing":[{"transport_id":"17","id":"4201","transport_name":"None Selected","transport_description":null,"transport_unit":"kg km","transport_co2_eq":"0.000000","from_stop_id":"6461","from_stop_lat":"48.8566667","from_stop_lon":"2.3509871","from_stop_placename":"Pa\u0159\u00ed\u017e, Francie","to_stop_id":"2085","to_stop_name":"origin","to_stop_lat":"51.554499","to_stop_lon":"-0.1086646","to_stop_placename":"Emirates Stadium, Islington, Lond\u00fdn N5 1BU, Velk\u00e1 Brit\u00e1nie","to_stop":{"id":"2085","name":"origin","lat":"51.554499","lon":"-0.1086646","placename":"Emirates Stadium, Islington, Lond\u00fdn N5 1BU, Velk\u00e1 Brit\u00e1nie"},"from_stop":{"name":"origin","id":"6461","lat":"48.8566667","lon":"2.3509871","placename":"Pa\u0159\u00ed\u017e, Francie"}}]}}},"processes":[],"eols":[]},{"oid":"4355","imid":"4793","linkid":"","weight":"0","rawemissions":"0","emissions":"0","shipping":"347.67","processemissions":"0","endoflifeemissions":"0","disposaltype":null,"disposalenergy":null,"disposalimpact":null,"disposalemissions":null,"description":"","name":"Abou Diaby ","id":"4793","stops":{"origin":{"related_to":"4793","part_or_object":"p","notes":"","placename":"Pa\u0159\u00ed\u017e, Francie","id":6462,"name":"origin","lat":"48.8566667","lon":"2.3509871","hops":{"incoming":[],"outgoing":[{"transport_id":"17","id":"4202","transport_name":"None Selected","transport_description":null,"transport_unit":"kg km","transport_co2_eq":"0.000000","from_stop_id":"6462","from_stop_lat":"48.8566667","from_stop_lon":"2.3509871","from_stop_placename":"Pa\u0159\u00ed\u017e, Francie","to_stop_id":"2085","to_stop_name":"origin","to_stop_lat":"51.554499","to_stop_lon":"-0.1086646","to_stop_placename":"Emirates Stadium, Islington, Lond\u00fdn N5 1BU, Velk\u00e1 Brit\u00e1nie","to_stop":{"id":"2085","name":"origin","lat":"51.554499","lon":"-0.1086646","placename":"Emirates Stadium, Islington, Lond\u00fdn N5 1BU, Velk\u00e1 Brit\u00e1nie"},"from_stop":{"name":"origin","id":"6462","lat":"48.8566667","lon":"2.3509871","placename":"Pa\u0159\u00ed\u017e, Francie"}}]}}},"processes":[],"eols":[]},{"oid":"4355","imid":"4794","linkid":"","weight":"0","rawemissions":"0","emissions":"0","shipping":"1032.95","processemissions":"0","endoflifeemissions":"0","disposaltype":null,"disposalenergy":null,"disposalimpact":null,"disposalemissions":null,"description":"","name":"Tomas Rosicky ","id":"4794","stops":{"origin":{"related_to":"4794","part_or_object":"p","notes":"","placename":"Praha, \u010cesk\u00e1 republika","id":6463,"name":"origin","lat":"50.0878114","lon":"14.4204598","hops":{"incoming":[],"outgoing":[{"transport_id":"17","id":"4203","transport_name":"None Selected","transport_description":null,"transport_unit":"kg km","transport_co2_eq":"0.000000","from_stop_id":"6463","from_stop_lat":"50.0878114","from_stop_lon":"14.4204598","from_stop_placename":"Praha, \u010cesk\u00e1 republika","to_stop_id":"2085","to_stop_name":"origin","to_stop_lat":"51.554499","to_stop_lon":"-0.1086646","to_stop_placename":"Emirates Stadium, Islington, Lond\u00fdn N5 1BU, Velk\u00e1 Brit\u00e1nie","to_stop":{"id":"2085","name":"origin","lat":"51.554499","lon":"-0.1086646","placename":"Emirates Stadium, Islington, Lond\u00fdn N5 1BU, Velk\u00e1 Brit\u00e1nie"},"from_stop":{"name":"origin","id":"6463","lat":"50.0878114","lon":"14.4204598","placename":"Praha, \u010cesk\u00e1 republika"}}]}}},"processes":[],"eols":[]},{"oid":"4355","imid":"4795","linkid":"","weight":"0","rawemissions":"0","emissions":"0","shipping":"9512.93","processemissions":"0","endoflifeemissions":"0","disposaltype":null,"disposalenergy":null,"disposalimpact":null,"disposalemissions":null,"description":"","name":"Denilson ","id":"4795","stops":{"origin":{"related_to":"4795","part_or_object":"p","notes":"","placename":"S\u00e3o Paulo, Braz\u00edlie","id":6464,"name":"origin","lat":"-23.5489433","lon":"-46.6388182","hops":{"incoming":[],"outgoing":[{"transport_id":"17","id":"4204","transport_name":"None Selected","transport_description":null,"transport_unit":"kg km","transport_co2_eq":"0.000000","from_stop_id":"6464","from_stop_lat":"-23.5489433","from_stop_lon":"-46.6388182","from_stop_placename":"S\u00e3o Paulo, Braz\u00edlie","to_stop_id":"2085","to_stop_name":"origin","to_stop_lat":"51.554499","to_stop_lon":"-0.1086646","to_stop_placename":"Emirates Stadium, Islington, Lond\u00fdn N5 1BU, Velk\u00e1 Brit\u00e1nie","to_stop":{"id":"2085","name":"origin","lat":"51.554499","lon":"-0.1086646","placename":"Emirates Stadium, Islington, Lond\u00fdn N5 1BU, Velk\u00e1 Brit\u00e1nie"},"from_stop":{"name":"origin","id":"6464","lat":"-23.5489433","lon":"-46.6388182","placename":"S\u00e3o Paulo, Braz\u00edlie"}}]}}},"processes":[],"eols":[]},{"oid":"4355","imid":"4796","linkid":"","weight":"0","rawemissions":"0","emissions":"0","shipping":"5366.55","processemissions":"0","endoflifeemissions":"0","disposaltype":null,"disposalenergy":null,"disposalimpact":null,"disposalemissions":null,"description":"","name":"Alex Song ","id":"4796","stops":{"origin":{"related_to":"4796","part_or_object":"p","notes":"","placename":"Douala, Kamerun","id":6465,"name":"origin","lat":"4.047486","lon":"9.706374","hops":{"incoming":[],"outgoing":[{"transport_id":"17","id":"4205","transport_name":"None Selected","transport_description":null,"transport_unit":"kg km","transport_co2_eq":"0.000000","from_stop_id":"6465","from_stop_lat":"4.047486","from_stop_lon":"9.706374","from_stop_placename":"Douala, Kamerun","to_stop_id":"2085","to_stop_name":"origin","to_stop_lat":"51.554499","to_stop_lon":"-0.1086646","to_stop_placename":"Emirates Stadium, Islington, Lond\u00fdn N5 1BU, Velk\u00e1 Brit\u00e1nie","to_stop":{"id":"2085","name":"origin","lat":"51.554499","lon":"-0.1086646","placename":"Emirates Stadium, Islington, Lond\u00fdn N5 1BU, Velk\u00e1 Brit\u00e1nie"},"from_stop":{"name":"origin","id":"6465","lat":"4.047486","lon":"9.706374","placename":"Douala, Kamerun"}}]}}},"processes":[],"eols":[]},{"oid":"4355","imid":"4797","linkid":"","weight":"0","rawemissions":"0","emissions":"0","shipping":"2097.27","processemissions":"0","endoflifeemissions":"0","disposaltype":null,"disposalenergy":null,"disposalimpact":null,"disposalemissions":null,"description":"","name":"Andrey Arshavin ","id":"4797","stops":{"origin":{"related_to":"4797","part_or_object":"p","notes":"","placename":"Sankt Pet\u011brburg, Rusko","id":6466,"name":"origin","lat":"59.939039","lon":"30.315785","hops":{"incoming":[],"outgoing":[{"transport_id":"17","id":"4206","transport_name":"None Selected","transport_description":null,"transport_unit":"kg km","transport_co2_eq":"0.000000","from_stop_id":"6466","from_stop_lat":"59.939039","from_stop_lon":"30.315785","from_stop_placename":"Sankt Pet\u011brburg, Rusko","to_stop_id":"2085","to_stop_name":"origin","to_stop_lat":"51.554499","to_stop_lon":"-0.1086646","to_stop_placename":"Emirates Stadium, Islington, Lond\u00fdn N5 1BU, Velk\u00e1 Brit\u00e1nie","to_stop":{"id":"2085","name":"origin","lat":"51.554499","lon":"-0.1086646","placename":"Emirates Stadium, Islington, Lond\u00fdn N5 1BU, Velk\u00e1 Brit\u00e1nie"},"from_stop":{"name":"origin","id":"6466","lat":"59.939039","lon":"30.315785","placename":"Sankt Pet\u011brburg, Rusko"}}]}}},"processes":[],"eols":[]},{"oid":"4355","imid":"4798","linkid":"","weight":"0","rawemissions":"0","emissions":"0","shipping":"1144.99","processemissions":"0","endoflifeemissions":"0","disposaltype":null,"disposalenergy":null,"disposalimpact":null,"disposalemissions":null,"description":"","name":"Cesc Fabregas ","id":"4798","stops":{"origin":{"related_to":"4798","part_or_object":"p","notes":"","placename":"Barcelona, \u0160pan\u011blsko","id":6467,"name":"origin","lat":"41.387917","lon":"2.1699187","hops":{"incoming":[],"outgoing":[{"transport_id":"17","id":"4207","transport_name":"None Selected","transport_description":null,"transport_unit":"kg km","transport_co2_eq":"0.000000","from_stop_id":"6467","from_stop_lat":"41.387917","from_stop_lon":"2.1699187","from_stop_placename":"Barcelona, \u0160pan\u011blsko","to_stop_id":"2085","to_stop_name":"origin","to_stop_lat":"51.554499","to_stop_lon":"-0.1086646","to_stop_placename":"Emirates Stadium, Islington, Lond\u00fdn N5 1BU, Velk\u00e1 Brit\u00e1nie","to_stop":{"id":"2085","name":"origin","lat":"51.554499","lon":"-0.1086646","placename":"Emirates Stadium, Islington, Lond\u00fdn N5 1BU, Velk\u00e1 Brit\u00e1nie"},"from_stop":{"name":"origin","id":"6467","lat":"41.387917","lon":"2.1699187","placename":"Barcelona, \u0160pan\u011blsko"}}]}}},"processes":[],"eols":[]},{"oid":"4355","imid":"4799","linkid":"","weight":"0","rawemissions":"0","emissions":"0","shipping":"1007.15","processemissions":"0","endoflifeemissions":"0","disposaltype":null,"disposalenergy":null,"disposalimpact":null,"disposalemissions":null,"description":"","name":"Samir Nasri ","id":"4799","stops":{"origin":{"related_to":"4799","part_or_object":"p","notes":"","placename":"Marseille, Francie","id":6468,"name":"origin","lat":"43.2976116","lon":"5.3810421","hops":{"incoming":[],"outgoing":[{"transport_id":"17","id":"4208","transport_name":"None Selected","transport_description":null,"transport_unit":"kg km","transport_co2_eq":"0.000000","from_stop_id":"6468","from_stop_lat":"43.2976116","from_stop_lon":"5.3810421","from_stop_placename":"Marseille, Francie","to_stop_id":"2085","to_stop_name":"origin","to_stop_lat":"51.554499","to_stop_lon":"-0.1086646","to_stop_placename":"Emirates Stadium, Islington, Lond\u00fdn N5 1BU, Velk\u00e1 Brit\u00e1nie","to_stop":{"id":"2085","name":"origin","lat":"51.554499","lon":"-0.1086646","placename":"Emirates Stadium, Islington, Lond\u00fdn N5 1BU, Velk\u00e1 Brit\u00e1nie"},"from_stop":{"name":"origin","id":"6468","lat":"43.2976116","lon":"5.3810421","placename":"Marseille, Francie"}}]}}},"processes":[],"eols":[]},{"oid":"4355","imid":"4800","linkid":"","weight":"0","rawemissions":"0","emissions":"0","shipping":"215.16","processemissions":"0","endoflifeemissions":"0","disposaltype":null,"disposalenergy":null,"disposalimpact":null,"disposalemissions":null,"description":"","name":"Aaron Ramsey ","id":"4800","stops":{"origin":{"related_to":"4800","part_or_object":"p","notes":"","placename":"Caerphilly, Velk\u00e1 Brit\u00e1nie","id":6469,"name":"origin","lat":"51.5785968","lon":"-3.218061","hops":{"incoming":[],"outgoing":[{"transport_id":"17","id":"4209","transport_name":"None Selected","transport_description":null,"transport_unit":"kg km","transport_co2_eq":"0.000000","from_stop_id":"6469","from_stop_lat":"51.5785968","from_stop_lon":"-3.218061","from_stop_placename":"Caerphilly, Velk\u00e1 Brit\u00e1nie","to_stop_id":"2085","to_stop_name":"origin","to_stop_lat":"51.554499","to_stop_lon":"-0.1086646","to_stop_placename":"Emirates Stadium, Islington, Lond\u00fdn N5 1BU, Velk\u00e1 Brit\u00e1nie","to_stop":{"id":"2085","name":"origin","lat":"51.554499","lon":"-0.1086646","placename":"Emirates Stadium, Islington, Lond\u00fdn N5 1BU, Velk\u00e1 Brit\u00e1nie"},"from_stop":{"name":"origin","id":"6469","lat":"51.5785968","lon":"-3.218061","placename":"Caerphilly, Velk\u00e1 Brit\u00e1nie"}}]}}},"processes":[],"eols":[]},{"oid":"4355","imid":"4801","linkid":"","weight":"0","rawemissions":"0","emissions":"0","shipping":"5157.76","processemissions":"0","endoflifeemissions":"0","disposaltype":null,"disposalenergy":null,"disposalimpact":null,"disposalemissions":null,"description":"","name":"Emmanuel Eboue ","id":"4801","stops":{"origin":{"related_to":"4801","part_or_object":"p","notes":"","placename":"Abid\u017ean, Pob\u0159e\u017e\u00ed slonoviny","id":6470,"name":"origin","lat":"5.336318","lon":"-4.027751","hops":{"incoming":[],"outgoing":[{"transport_id":"17","id":"4210","transport_name":"None Selected","transport_description":null,"transport_unit":"kg km","transport_co2_eq":"0.000000","from_stop_id":"6470","from_stop_lat":"5.336318","from_stop_lon":"-4.027751","from_stop_placename":"Abid\u017ean, Pob\u0159e\u017e\u00ed slonoviny","to_stop_id":"2085","to_stop_name":"origin","to_stop_lat":"51.554499","to_stop_lon":"-0.1086646","to_stop_placename":"Emirates Stadium, Islington, Lond\u00fdn N5 1BU, Velk\u00e1 Brit\u00e1nie","to_stop":{"id":"2085","name":"origin","lat":"51.554499","lon":"-0.1086646","placename":"Emirates Stadium, Islington, Lond\u00fdn N5 1BU, Velk\u00e1 Brit\u00e1nie"},"from_stop":{"name":"origin","id":"6470","lat":"5.336318","lon":"-4.027751","placename":"Abid\u017ean, Pob\u0159e\u017e\u00ed slonoviny"}}]}}},"processes":[],"eols":[]},{"oid":"4355","imid":"4802","linkid":"","weight":"0","rawemissions":"0","emissions":"0","shipping":"318.28","processemissions":"0","endoflifeemissions":"0","disposaltype":null,"disposalenergy":null,"disposalimpact":null,"disposalemissions":null,"description":"","name":"Robin van Persie ","id":"4802","stops":{"origin":{"related_to":"4802","part_or_object":"p","notes":"","placename":"Rotterdam, Nizozemsko","id":6471,"name":"origin","lat":"51.9226899","lon":"4.4707867","hops":{"incoming":[],"outgoing":[{"transport_id":"17","id":"4211","transport_name":"None Selected","transport_description":null,"transport_unit":"kg km","transport_co2_eq":"0.000000","from_stop_id":"6471","from_stop_lat":"51.9226899","from_stop_lon":"4.4707867","from_stop_placename":"Rotterdam, Nizozemsko","to_stop_id":"2085","to_stop_name":"origin","to_stop_lat":"51.554499","to_stop_lon":"-0.1086646","to_stop_placename":"Emirates Stadium, Islington, Lond\u00fdn N5 1BU, Velk\u00e1 Brit\u00e1nie","to_stop":{"id":"2085","name":"origin","lat":"51.554499","lon":"-0.1086646","placename":"Emirates Stadium, Islington, Lond\u00fdn N5 1BU, Velk\u00e1 Brit\u00e1nie"},"from_stop":{"name":"origin","id":"6471","lat":"51.9226899","lon":"4.4707867","placename":"Rotterdam, Nizozemsko"}}]}}},"processes":[],"eols":[]},{"oid":"4355","imid":"4803","linkid":"","weight":"0","rawemissions":"0","emissions":"0","shipping":"952.61","processemissions":"0","endoflifeemissions":"0","disposaltype":null,"disposalenergy":null,"disposalimpact":null,"disposalemissions":null,"description":"","name":"Nicklas Bendtner ","id":"4803","stops":{"origin":{"related_to":"4803","part_or_object":"p","notes":"","placename":"Koda\u0148, D\u00e1nsko","id":6472,"name":"origin","lat":"55.6762944","lon":"12.5681157","hops":{"incoming":[],"outgoing":[{"transport_id":"17","id":"4212","transport_name":"None Selected","transport_description":null,"transport_unit":"kg km","transport_co2_eq":"0.000000","from_stop_id":"6472","from_stop_lat":"55.6762944","from_stop_lon":"12.5681157","from_stop_placename":"Koda\u0148, D\u00e1nsko","to_stop_id":"2085","to_stop_name":"origin","to_stop_lat":"51.554499","to_stop_lon":"-0.1086646","to_stop_placename":"Emirates Stadium, Islington, Lond\u00fdn N5 1BU, Velk\u00e1 Brit\u00e1nie","to_stop":{"id":"2085","name":"origin","lat":"51.554499","lon":"-0.1086646","placename":"Emirates Stadium, Islington, Lond\u00fdn N5 1BU, Velk\u00e1 Brit\u00e1nie"},"from_stop":{"name":"origin","id":"6472","lat":"55.6762944","lon":"12.5681157","placename":"Koda\u0148, D\u00e1nsko"}}]}}},"processes":[],"eols":[]},{"oid":"4355","imid":"4804","linkid":"","weight":"0","rawemissions":"0","emissions":"0","shipping":"7970.11","processemissions":"0","endoflifeemissions":"0","disposaltype":null,"disposalenergy":null,"disposalimpact":null,"disposalemissions":null,"description":"","name":"Carlos Vela ","id":"4804","stops":{"origin":{"related_to":"4804","part_or_object":"p","notes":"","placename":"Canc\u00fan, Quintana Roo, Mexiko","id":6473,"name":"origin","lat":"21.158964","lon":"-86.845937","hops":{"incoming":[],"outgoing":[{"transport_id":"17","id":"4213","transport_name":"None Selected","transport_description":null,"transport_unit":"kg km","transport_co2_eq":"0.000000","from_stop_id":"6473","from_stop_lat":"21.158964","from_stop_lon":"-86.845937","from_stop_placename":"Canc\u00fan, Quintana Roo, Mexiko","to_stop_id":"2085","to_stop_name":"origin","to_stop_lat":"51.554499","to_stop_lon":"-0.1086646","to_stop_placename":"Emirates Stadium, Islington, Lond\u00fdn N5 1BU, Velk\u00e1 Brit\u00e1nie","to_stop":{"id":"2085","name":"origin","lat":"51.554499","lon":"-0.1086646","placename":"Emirates Stadium, Islington, Lond\u00fdn N5 1BU, Velk\u00e1 Brit\u00e1nie"},"from_stop":{"name":"origin","id":"6473","lat":"21.158964","lon":"-86.845937","placename":"Canc\u00fan, Quintana Roo, Mexiko"}}]}}},"processes":[],"eols":[]},{"oid":"4355","imid":"4805","linkid":"","weight":"0","rawemissions":"0","emissions":"0","shipping":"2272.8","processemissions":"0","endoflifeemissions":"0","disposaltype":null,"disposalenergy":null,"disposalimpact":null,"disposalemissions":null,"description":"","name":"Marouane Chamakh ","id":"4805","stops":{"origin":{"related_to":"4805","part_or_object":"p","notes":"","placename":"Maroko","id":6474,"name":"origin","lat":"31.791702","lon":"-7.09262","hops":{"incoming":[],"outgoing":[{"transport_id":"17","id":"4214","transport_name":"None Selected","transport_description":null,"transport_unit":"kg km","transport_co2_eq":"0.000000","from_stop_id":"6474","from_stop_lat":"31.791702","from_stop_lon":"-7.09262","from_stop_placename":"Maroko","to_stop_id":"2085","to_stop_name":"origin","to_stop_lat":"51.554499","to_stop_lon":"-0.1086646","to_stop_placename":"Emirates Stadium, Islington, Lond\u00fdn N5 1BU, Velk\u00e1 Brit\u00e1nie","to_stop":{"id":"2085","name":"origin","lat":"51.554499","lon":"-0.1086646","placename":"Emirates Stadium, Islington, Lond\u00fdn N5 1BU, Velk\u00e1 Brit\u00e1nie"},"from_stop":{"name":"origin","id":"6474","lat":"31.791702","lon":"-7.09262","placename":"Maroko"}}]}}},"processes":[],"eols":[]}],"user":{"name":"sadjaj","id":"11093"}}}