{"438":{"oid":"438","type":"object","flag":"","creator":"1","name":"CFL (compact fluorescent light bulb)","upc":"","imagelink":"","description":"This is from this <a href=\"https:\/\/www.rmi.org\/images\/PDFs\/Climate\/C08-02_CFL_LCA.pdf\">Rocky Mountain Institute report<\/a>","slug":"cfl-compact-fluorescent-light-bulb","category":"","weight":"0.072305","emissions":"188.872","embodied":"0.27","transport":"0.0017848","process":"0","endoflife":"0","shipping":"36719.4","lifetime":"0","usagetype":"","usageenergy":"230","usageemissions":"188.6","timecreated":"2010-02-24 22:03:35.505343","timemodified":"2009-09-30 15:44:10","visibility":"public","showfootprint":"on","showembodied":"on","showtransport":"on","showprocess":"on","showendoflife":"on","showlastleg":"on","showuse":"on","showstats":"on","stops":{"origin":{"related_to":"438","part_or_object":"o","notes":"","placename":"China","id":"79","category":"1","lat":"35.86166","lon":"104.195397","name":"origin","hops":{"incoming":[{"transport_id":"9","id":"637","transport_name":"container ship","transport_description":"moving boxcar size containers","transport_unit":"kg km","transport_co2_eq":"0.047800","from_stop_id":"2888","from_stop_lat":"-35.675147","from_stop_lon":"-71.542969","to_stop_id":"79","to_stop_name":"origin","to_stop_lat":"35.86166","placename":"Chile","to_stop_lon":"104.195397","to_stop":{"id":"79","name":"origin","lat":"35.86166","placename":"China","lon":"104.195397"},"from_stop":{"name":"origin","id":"2888","lat":"-35.675147","lon":"-71.542969","placename":"Chile"}},{"transport_id":"17","id":"635","transport_name":"None Selected","transport_description":null,"transport_unit":"kg km","transport_co2_eq":"0.000000","from_stop_id":"2886","from_stop_lat":"35.86166","from_stop_lon":"104.195397","to_stop_id":"79","to_stop_name":"origin","to_stop_lat":"35.86166","placename":"China","to_stop_lon":"104.195397","to_stop":{"id":"79","name":"origin","lat":"35.86166","placename":"China","lon":"104.195397"},"from_stop":{"name":"origin","id":"2886","lat":"35.86166","lon":"104.195397","placename":"China"}},{"transport_id":"17","id":"636","transport_name":"None Selected","transport_description":null,"transport_unit":"kg km","transport_co2_eq":"0.000000","from_stop_id":"2887","from_stop_lat":"35.86166","from_stop_lon":"104.195397","to_stop_id":"79","to_stop_name":"origin","to_stop_lat":"35.86166","placename":"China","to_stop_lon":"104.195397","to_stop":{"id":"79","name":"origin","lat":"35.86166","placename":"China","lon":"104.195397"},"from_stop":{"name":"origin","id":"2887","lat":"35.86166","lon":"104.195397","placename":"China"}},{"transport_id":"17","id":"638","transport_name":"None Selected","transport_description":null,"transport_unit":"kg km","transport_co2_eq":"0.000000","from_stop_id":"2889","from_stop_lat":"35.86166","from_stop_lon":"104.195397","to_stop_id":"79","to_stop_name":"origin","to_stop_lat":"35.86166","placename":"China","to_stop_lon":"104.195397","to_stop":{"id":"79","name":"origin","lat":"35.86166","placename":"China","lon":"104.195397"},"from_stop":{"name":"origin","id":"2889","lat":"35.86166","lon":"104.195397","placename":"China"}},{"transport_id":"17","id":"639","transport_name":"None Selected","transport_description":null,"transport_unit":"kg km","transport_co2_eq":"0.000000","from_stop_id":"2890","from_stop_lat":"35.86166","from_stop_lon":"104.195397","to_stop_id":"79","to_stop_name":"origin","to_stop_lat":"35.86166","placename":"China","to_stop_lon":"104.195397","to_stop":{"id":"79","name":"origin","lat":"35.86166","placename":"China","lon":"104.195397"},"from_stop":{"name":"origin","id":"2890","lat":"35.86166","lon":"104.195397","placename":"China"}},{"transport_id":"17","id":"640","transport_name":"None Selected","transport_description":null,"transport_unit":"kg km","transport_co2_eq":"0.000000","from_stop_id":"2891","from_stop_lat":"0","from_stop_lon":"0","to_stop_id":"79","to_stop_name":"origin","to_stop_lat":"35.86166","placename":"Part Location","to_stop_lon":"104.195397","to_stop":{"id":"79","name":"origin","lat":"35.86166","placename":"China","lon":"104.195397"},"from_stop":{"name":"origin","id":"2891","lat":"0","lon":"0","placename":"Part Location"}},{"transport_id":"17","id":"641","transport_name":"None Selected","transport_description":null,"transport_unit":"kg km","transport_co2_eq":"0.000000","from_stop_id":"2892","from_stop_lat":"0","from_stop_lon":"0","to_stop_id":"79","to_stop_name":"origin","to_stop_lat":"35.86166","placename":"Part Location","to_stop_lon":"104.195397","to_stop":{"id":"79","name":"origin","lat":"35.86166","placename":"China","lon":"104.195397"},"from_stop":{"name":"origin","id":"2892","lat":"0","lon":"0","placename":"Part Location"}}],"outgoing":[]}}},"parts":[{"oid":"438","imid":"808","linkid":"","weight":"0.024","rawemissions":"10","emissions":"0.24","shipping":"0","processemissions":null,"endoflifeemissions":null,"disposaltype":null,"disposalenergy":null,"disposalimpact":null,"disposalemissions":null,"description":"IC board with mixed components \/ this value is 1000x lower than the constant used by Okala for consistency with the rocky mountain study","name":"Integrated circuitry","id":"808","stops":{"origin":{"related_to":"808","part_or_object":"p","notes":"","placename":"China","id":2886,"name":"origin","lat":"35.86166","lon":"104.195397","hops":{"incoming":[],"outgoing":[{"transport_id":"17","id":"635","transport_name":"None Selected","transport_description":null,"transport_unit":"kg km","transport_co2_eq":"0.000000","from_stop_id":"2886","from_stop_lat":"35.86166","from_stop_lon":"104.195397","from_stop_placename":"China","to_stop_id":"79","to_stop_name":"origin","to_stop_lat":"35.86166","to_stop_lon":"104.195397","to_stop_placename":"China","to_stop":{"id":"79","name":"origin","lat":"35.86166","lon":"104.195397","placename":"China"},"from_stop":{"name":"origin","id":"2886","lat":"35.86166","lon":"104.195397","placename":"China"}}]}}},"processes":[],"eols":[]},{"oid":"438","imid":"809","linkid":"","weight":"0.0048","rawemissions":"1.98","emissions":"0.01","shipping":"0","processemissions":null,"endoflifeemissions":null,"disposaltype":null,"disposalenergy":null,"disposalimpact":null,"disposalemissions":null,"description":"Metal base","name":"Galvanized Steel","id":"809","stops":{"origin":{"related_to":"809","part_or_object":"p","notes":"","placename":"China","id":2887,"name":"origin","lat":"35.86166","lon":"104.195397","hops":{"incoming":[],"outgoing":[{"transport_id":"17","id":"636","transport_name":"None Selected","transport_description":null,"transport_unit":"kg km","transport_co2_eq":"0.000000","from_stop_id":"2887","from_stop_lat":"35.86166","from_stop_lon":"104.195397","from_stop_placename":"China","to_stop_id":"79","to_stop_name":"origin","to_stop_lat":"35.86166","to_stop_lon":"104.195397","to_stop_placename":"China","to_stop":{"id":"79","name":"origin","lat":"35.86166","lon":"104.195397","placename":"China"},"from_stop":{"name":"origin","id":"2887","lat":"35.86166","lon":"104.195397","placename":"China"}}]}}},"processes":[],"eols":[]},{"oid":"438","imid":"810","linkid":"","weight":"0.0019","rawemissions":"2.15","emissions":"0","shipping":"19652.1","processemissions":null,"endoflifeemissions":null,"disposaltype":null,"disposalenergy":null,"disposalimpact":null,"disposalemissions":null,"description":"Base pins","name":"Copper virgin","id":"810","stops":{"origin":{"related_to":"810","part_or_object":"p","notes":"","placename":"Chile","id":2888,"name":"origin","lat":"-35.675147","lon":"-71.542969","hops":{"incoming":[],"outgoing":[{"transport_id":"9","id":"637","transport_name":"container ship","transport_description":"moving boxcar size containers","transport_unit":"kg km","transport_co2_eq":"0.047800","from_stop_id":"2888","from_stop_lat":"-35.675147","from_stop_lon":"-71.542969","from_stop_placename":"Chile","to_stop_id":"79","to_stop_name":"origin","to_stop_lat":"35.86166","to_stop_lon":"104.195397","to_stop_placename":"China","to_stop":{"id":"79","name":"origin","lat":"35.86166","lon":"104.195397","placename":"China"},"from_stop":{"name":"origin","id":"2888","lat":"-35.675147","lon":"-71.542969","placename":"Chile"}}]}}},"processes":[],"eols":[]},{"oid":"438","imid":"811","linkid":"","weight":"0.0386","rawemissions":"0.27","emissions":"0.01","shipping":"0","processemissions":null,"endoflifeemissions":null,"disposaltype":null,"disposalenergy":null,"disposalimpact":null,"disposalemissions":null,"description":"tube glass and glass insulation at base","name":"Glass clear virgin","id":"811","stops":{"origin":{"related_to":"811","part_or_object":"p","notes":"","placename":"China","id":2889,"name":"origin","lat":"35.86166","lon":"104.195397","hops":{"incoming":[],"outgoing":[{"transport_id":"17","id":"638","transport_name":"None Selected","transport_description":null,"transport_unit":"kg km","transport_co2_eq":"0.000000","from_stop_id":"2889","from_stop_lat":"35.86166","from_stop_lon":"104.195397","from_stop_placename":"China","to_stop_id":"79","to_stop_name":"origin","to_stop_lat":"35.86166","to_stop_lon":"104.195397","to_stop_placename":"China","to_stop":{"id":"79","name":"origin","lat":"35.86166","lon":"104.195397","placename":"China"},"from_stop":{"name":"origin","id":"2889","lat":"35.86166","lon":"104.195397","placename":"China"}}]}}},"processes":[],"eols":[]},{"oid":"438","imid":"812","linkid":"","weight":"0.003","rawemissions":"1.8","emissions":"0.01","shipping":"0","processemissions":null,"endoflifeemissions":null,"disposaltype":null,"disposalenergy":null,"disposalimpact":null,"disposalemissions":null,"description":"polyurethane foam","name":"PU rigid foam","id":"812","stops":{"origin":{"related_to":"812","part_or_object":"p","notes":"","placename":"China","id":2890,"name":"origin","lat":"35.86166","lon":"104.195397","hops":{"incoming":[],"outgoing":[{"transport_id":"17","id":"639","transport_name":"None Selected","transport_description":null,"transport_unit":"kg km","transport_co2_eq":"0.000000","from_stop_id":"2890","from_stop_lat":"35.86166","from_stop_lon":"104.195397","from_stop_placename":"China","to_stop_id":"79","to_stop_name":"origin","to_stop_lat":"35.86166","to_stop_lon":"104.195397","to_stop_placename":"China","to_stop":{"id":"79","name":"origin","lat":"35.86166","lon":"104.195397","placename":"China"},"from_stop":{"name":"origin","id":"2890","lat":"35.86166","lon":"104.195397","placename":"China"}}]}}},"processes":[],"eols":[]},{"oid":"438","imid":"813","linkid":"","weight":"0","rawemissions":"0","emissions":"0","shipping":"0","processemissions":null,"endoflifeemissions":null,"disposaltype":null,"disposalenergy":null,"disposalimpact":null,"disposalemissions":null,"description":"","name":"Part","id":"813","stops":{"origin":{"related_to":"813","part_or_object":"p","notes":"","placename":"Part Location","id":2891,"name":"origin","lat":"0","lon":"0","hops":{"incoming":[],"outgoing":[{"transport_id":"17","id":"640","transport_name":"None Selected","transport_description":null,"transport_unit":"kg km","transport_co2_eq":"0.000000","from_stop_id":"2891","from_stop_lat":"0","from_stop_lon":"0","from_stop_placename":"Part Location","to_stop_id":"79","to_stop_name":"origin","to_stop_lat":"35.86166","to_stop_lon":"104.195397","to_stop_placename":"China","to_stop":{"id":"79","name":"origin","lat":"35.86166","lon":"104.195397","placename":"China"},"from_stop":{"name":"origin","id":"2891","lat":"0","lon":"0","placename":"Part Location"}}]}}},"processes":[],"eols":[]},{"oid":"438","imid":"814","linkid":"","weight":"5e-06","rawemissions":"4.94","emissions":"0","shipping":"0","processemissions":null,"endoflifeemissions":null,"disposaltype":null,"disposalenergy":null,"disposalimpact":null,"disposalemissions":null,"description":"5mg of mercury are included in the electrode assembly","name":"Mercury","id":"814","stops":{"origin":{"related_to":"814","part_or_object":"p","notes":"","placename":"Part Location","id":2892,"name":"origin","lat":"0","lon":"0","hops":{"incoming":[],"outgoing":[{"transport_id":"17","id":"641","transport_name":"None Selected","transport_description":null,"transport_unit":"kg km","transport_co2_eq":"0.000000","from_stop_id":"2892","from_stop_lat":"0","from_stop_lon":"0","from_stop_placename":"Part Location","to_stop_id":"79","to_stop_name":"origin","to_stop_lat":"35.86166","to_stop_lon":"104.195397","to_stop_placename":"China","to_stop":{"id":"79","name":"origin","lat":"35.86166","lon":"104.195397","placename":"China"},"from_stop":{"name":"origin","id":"2892","lat":"0","lon":"0","placename":"Part Location"}}]}}},"processes":[],"eols":[]}],"user":{"name":"leo","id":"1"}}}