{"439":{"oid":"439","type":"object","flag":"","creator":"6128","name":"homegrown tomatoes","upc":"","imagelink":"","description":"a first trial of what's the environmental cost of the tomatoes from my garden.\nwe got about 20 kg of delicious tomatoes!","slug":"homegrown-tomatoes","category":"","weight":"134.6","emissions":"46.9166","embodied":"46.16","transport":"0.756625","process":"0","endoflife":"0","shipping":"12519.2","lifetime":"0","usagetype":"","usageenergy":"0","usageemissions":"0","timecreated":"2010-02-24 22:03:35.506851","timemodified":"2009-09-30 16:28:40","visibility":"public","showfootprint":"on","showembodied":"on","showtransport":"on","showprocess":"on","showendoflife":"on","showlastleg":"on","showuse":"on","showstats":"on","stops":{"origin":{"related_to":"439","part_or_object":"o","notes":"","placename":"Mendata, Espa?a","id":"80","category":"1","lat":"43.283112","lon":"-2.643519","name":"origin","hops":{"incoming":[{"transport_id":"5","id":"642","transport_name":"automobile, 50 mpg","transport_description":"high efficiency automobile","transport_unit":"kg km","transport_co2_eq":"0.026400","from_stop_id":"2893","from_stop_lat":"43.3172329","from_stop_lon":"-2.6789581","to_stop_id":"80","to_stop_name":"origin","to_stop_lat":"43.283112","placename":"48300 Gernika-Lumo, Espa?a","to_stop_lon":"-2.643519","to_stop":{"id":"80","name":"origin","lat":"43.283112","placename":"Mendata, Espa?a","lon":"-2.643519"},"from_stop":{"name":"origin","id":"2893","lat":"43.3172329","lon":"-2.6789581","placename":"48300 Gernika-Lumo, Espa?a"}},{"transport_id":"5","id":"643","transport_name":"automobile, 50 mpg","transport_description":"high efficiency automobile","transport_unit":"kg km","transport_co2_eq":"0.026400","from_stop_id":"2894","from_stop_lat":"43.220496","from_stop_lon":"-2.7332359","to_stop_id":"80","to_stop_name":"origin","to_stop_lat":"43.283112","placename":"Amorebieta, Espa?a","to_stop_lon":"-2.643519","to_stop":{"id":"80","name":"origin","lat":"43.283112","placename":"Mendata, Espa?a","lon":"-2.643519"},"from_stop":{"name":"origin","id":"2894","lat":"43.220496","lon":"-2.7332359","placename":"Amorebieta, Espa?a"}},{"transport_id":"5","id":"644","transport_name":"automobile, 50 mpg","transport_description":"high efficiency automobile","transport_unit":"kg km","transport_co2_eq":"0.026400","from_stop_id":"2895","from_stop_lat":"43.220496","from_stop_lon":"-2.7332359","to_stop_id":"80","to_stop_name":"origin","to_stop_lat":"43.283112","placename":"Amorebieta, Espa?a","to_stop_lon":"-2.643519","to_stop":{"id":"80","name":"origin","lat":"43.283112","placename":"Mendata, Espa?a","lon":"-2.643519"},"from_stop":{"name":"origin","id":"2895","lat":"43.220496","lon":"-2.7332359","placename":"Amorebieta, Espa?a"}},{"transport_id":"2","id":"645","transport_name":"truck, 16 tons","transport_description":"truck, half full","transport_unit":"kg km","transport_co2_eq":"0.020300","from_stop_id":"2896","from_stop_lat":"51.4580686","from_stop_lon":"7.0147614","to_stop_id":"80","to_stop_name":"origin","to_stop_lat":"43.283112","placename":"Essen, Alemania","to_stop_lon":"-2.643519","to_stop":{"id":"80","name":"origin","lat":"43.283112","placename":"Mendata, Espa?a","lon":"-2.643519"},"from_stop":{"name":"origin","id":"2896","lat":"51.4580686","lon":"7.0147614","placename":"Essen, Alemania"}},{"transport_id":"2","id":"647","transport_name":"truck, 16 tons","transport_description":"truck, half full","transport_unit":"kg km","transport_co2_eq":"0.020300","from_stop_id":"2898","from_stop_lat":"37.38264","from_stop_lon":"-5.9962951","to_stop_id":"80","to_stop_name":"origin","to_stop_lat":"43.283112","placename":"Sevilla, Espa?a","to_stop_lon":"-2.643519","to_stop":{"id":"80","name":"origin","lat":"43.283112","placename":"Mendata, Espa?a","lon":"-2.643519"},"from_stop":{"name":"origin","id":"2898","lat":"37.38264","lon":"-5.9962951","placename":"Sevilla, Espa?a"}},{"transport_id":"6","id":"649","transport_name":"tanker ship","transport_description":"tanker for mobing liquids","transport_unit":"kg km","transport_co2_eq":"0.171600","from_stop_id":"2900","from_stop_lat":"23.69781","from_stop_lon":"120.960515","to_stop_id":"80","to_stop_name":"origin","to_stop_lat":"43.283112","placename":"Taiw","to_stop_lon":"-2.643519","to_stop":{"id":"80","name":"origin","lat":"43.283112","placename":"Mendata, Espa?a","lon":"-2.643519"},"from_stop":{"name":"origin","id":"2900","lat":"23.69781","lon":"120.960515","placename":"Taiw"}},{"transport_id":"17","id":"648","transport_name":"None Selected","transport_description":null,"transport_unit":"kg km","transport_co2_eq":"0.000000","from_stop_id":"2899","from_stop_lat":"43.283112","from_stop_lon":"-2.643519","to_stop_id":"80","to_stop_name":"origin","to_stop_lat":"43.283112","placename":"Mendata, Espa?a","to_stop_lon":"-2.643519","to_stop":{"id":"80","name":"origin","lat":"43.283112","placename":"Mendata, Espa?a","lon":"-2.643519"},"from_stop":{"name":"origin","id":"2899","lat":"43.283112","lon":"-2.643519","placename":"Mendata, Espa?a"}}],"outgoing":[]}}},"parts":[{"oid":"439","imid":"815","linkid":"","weight":"0.3","rawemissions":"0.1","emissions":"0.03","shipping":"4.76","processemissions":null,"endoflifeemissions":null,"disposaltype":null,"disposalenergy":null,"disposalimpact":null,"disposalemissions":null,"description":"","name":"seeds","id":"815","stops":{"origin":{"related_to":"815","part_or_object":"p","notes":"","placename":"48300 Gernika-Lumo, Espa?a","id":2893,"name":"origin","lat":"43.3172329","lon":"-2.6789581","hops":{"incoming":[],"outgoing":[{"transport_id":"5","id":"642","transport_name":"automobile, 50 mpg","transport_description":"high efficiency automobile","transport_unit":"kg km","transport_co2_eq":"0.026400","from_stop_id":"2893","from_stop_lat":"43.3172329","from_stop_lon":"-2.6789581","from_stop_placename":"48300 Gernika-Lumo, Espa?a","to_stop_id":"80","to_stop_name":"origin","to_stop_lat":"43.283112","to_stop_lon":"-2.643519","to_stop_placename":"Mendata, Espa?a","to_stop":{"id":"80","name":"origin","lat":"43.283112","lon":"-2.643519","placename":"Mendata, Espa?a"},"from_stop":{"name":"origin","id":"2893","lat":"43.3172329","lon":"-2.6789581","placename":"48300 Gernika-Lumo, Espa?a"}}]}}},"processes":[],"eols":[]},{"oid":"439","imid":"816","linkid":"","weight":"10","rawemissions":"1","emissions":"10","shipping":"10.07","processemissions":null,"endoflifeemissions":null,"disposaltype":null,"disposalenergy":null,"disposalimpact":null,"disposalemissions":null,"description":"","name":"manure","id":"816","stops":{"origin":{"related_to":"816","part_or_object":"p","notes":"","placename":"Amorebieta, Espa?a","id":2894,"name":"origin","lat":"43.220496","lon":"-2.7332359","hops":{"incoming":[],"outgoing":[{"transport_id":"5","id":"643","transport_name":"automobile, 50 mpg","transport_description":"high efficiency automobile","transport_unit":"kg km","transport_co2_eq":"0.026400","from_stop_id":"2894","from_stop_lat":"43.220496","from_stop_lon":"-2.7332359","from_stop_placename":"Amorebieta, Espa?a","to_stop_id":"80","to_stop_name":"origin","to_stop_lat":"43.283112","to_stop_lon":"-2.643519","to_stop_placename":"Mendata, Espa?a","to_stop":{"id":"80","name":"origin","lat":"43.283112","lon":"-2.643519","placename":"Mendata, Espa?a"},"from_stop":{"name":"origin","id":"2894","lat":"43.220496","lon":"-2.7332359","placename":"Amorebieta, Espa?a"}}]}}},"processes":[],"eols":[]},{"oid":"439","imid":"817","linkid":"","weight":"15","rawemissions":"0.1","emissions":"1.5","shipping":"10.07","processemissions":null,"endoflifeemissions":null,"disposaltype":null,"disposalenergy":null,"disposalimpact":null,"disposalemissions":null,"description":"","name":"sticks","id":"817","stops":{"origin":{"related_to":"817","part_or_object":"p","notes":"","placename":"Amorebieta, Espa?a","id":2895,"name":"origin","lat":"43.220496","lon":"-2.7332359","hops":{"incoming":[],"outgoing":[{"transport_id":"5","id":"644","transport_name":"automobile, 50 mpg","transport_description":"high efficiency automobile","transport_unit":"kg km","transport_co2_eq":"0.026400","from_stop_id":"2895","from_stop_lat":"43.220496","from_stop_lon":"-2.7332359","from_stop_placename":"Amorebieta, Espa?a","to_stop_id":"80","to_stop_name":"origin","to_stop_lat":"43.283112","to_stop_lon":"-2.643519","to_stop_placename":"Mendata, Espa?a","to_stop":{"id":"80","name":"origin","lat":"43.283112","lon":"-2.643519","placename":"Mendata, Espa?a"},"from_stop":{"name":"origin","id":"2895","lat":"43.220496","lon":"-2.7332359","placename":"Amorebieta, Espa?a"}}]}}},"processes":[],"eols":[]},{"oid":"439","imid":"818","linkid":"","weight":"8","rawemissions":"3","emissions":"24","shipping":"1163.44","processemissions":null,"endoflifeemissions":null,"disposaltype":null,"disposalenergy":null,"disposalimpact":null,"disposalemissions":null,"description":"","name":"garden tools","id":"818","stops":{"origin":{"related_to":"818","part_or_object":"p","notes":"","placename":"Essen, Alemania","id":2896,"name":"origin","lat":"51.4580686","lon":"7.0147614","hops":{"incoming":[],"outgoing":[{"transport_id":"2","id":"645","transport_name":"truck, 16 tons","transport_description":"truck, half full","transport_unit":"kg km","transport_co2_eq":"0.020300","from_stop_id":"2896","from_stop_lat":"51.4580686","from_stop_lon":"7.0147614","from_stop_placename":"Essen, Alemania","to_stop_id":"80","to_stop_name":"origin","to_stop_lat":"43.283112","to_stop_lon":"-2.643519","to_stop_placename":"Mendata, Espa?a","to_stop":{"id":"80","name":"origin","lat":"43.283112","lon":"-2.643519","placename":"Mendata, Espa?a"},"from_stop":{"name":"origin","id":"2896","lat":"51.4580686","lon":"7.0147614","placename":"Essen, Alemania"}}]}}},"processes":[],"eols":[]},{"oid":"439","imid":"820","linkid":"","weight":"1","rawemissions":"0.6","emissions":"0.6","shipping":"715.64","processemissions":null,"endoflifeemissions":null,"disposaltype":null,"disposalenergy":null,"disposalimpact":null,"disposalemissions":null,"description":"","name":"copper sulfat","id":"820","stops":{"origin":{"related_to":"820","part_or_object":"p","notes":"","placename":"Sevilla, Espa?a","id":2898,"name":"origin","lat":"37.38264","lon":"-5.9962951","hops":{"incoming":[],"outgoing":[{"transport_id":"2","id":"647","transport_name":"truck, 16 tons","transport_description":"truck, half full","transport_unit":"kg km","transport_co2_eq":"0.020300","from_stop_id":"2898","from_stop_lat":"37.38264","from_stop_lon":"-5.9962951","from_stop_placename":"Sevilla, Espa?a","to_stop_id":"80","to_stop_name":"origin","to_stop_lat":"43.283112","to_stop_lon":"-2.643519","to_stop_placename":"Mendata, Espa?a","to_stop":{"id":"80","name":"origin","lat":"43.283112","lon":"-2.643519","placename":"Mendata, Espa?a"},"from_stop":{"name":"origin","id":"2898","lat":"37.38264","lon":"-5.9962951","placename":"Sevilla, Espa?a"}}]}}},"processes":[],"eols":[]},{"oid":"439","imid":"821","linkid":"","weight":"100","rawemissions":"0.1","emissions":"10","shipping":"0","processemissions":null,"endoflifeemissions":null,"disposaltype":null,"disposalenergy":null,"disposalimpact":null,"disposalemissions":null,"description":"","name":"running water","id":"821","stops":{"origin":{"related_to":"821","part_or_object":"p","notes":"","placename":"Mendata, Espa?a","id":2899,"name":"origin","lat":"43.283112","lon":"-2.643519","hops":{"incoming":[],"outgoing":[{"transport_id":"17","id":"648","transport_name":"None Selected","transport_description":null,"transport_unit":"kg km","transport_co2_eq":"0.000000","from_stop_id":"2899","from_stop_lat":"43.283112","from_stop_lon":"-2.643519","from_stop_placename":"Mendata, Espa?a","to_stop_id":"80","to_stop_name":"origin","to_stop_lat":"43.283112","to_stop_lon":"-2.643519","to_stop_placename":"Mendata, Espa?a","to_stop":{"id":"80","name":"origin","lat":"43.283112","lon":"-2.643519","placename":"Mendata, Espa?a"},"from_stop":{"name":"origin","id":"2899","lat":"43.283112","lon":"-2.643519","placename":"Mendata, Espa?a"}}]}}},"processes":[],"eols":[]},{"oid":"439","imid":"822","linkid":"","weight":"0.3","rawemissions":"0.1","emissions":"0.03","shipping":"10615.2","processemissions":null,"endoflifeemissions":null,"disposaltype":null,"disposalenergy":null,"disposalimpact":null,"disposalemissions":null,"description":"","name":"thread","id":"822","stops":{"origin":{"related_to":"822","part_or_object":"p","notes":"","placename":"Taiw","id":2900,"name":"origin","lat":"23.69781","lon":"120.960515","hops":{"incoming":[],"outgoing":[{"transport_id":"6","id":"649","transport_name":"tanker ship","transport_description":"tanker for mobing liquids","transport_unit":"kg km","transport_co2_eq":"0.171600","from_stop_id":"2900","from_stop_lat":"23.69781","from_stop_lon":"120.960515","from_stop_placename":"Taiw","to_stop_id":"80","to_stop_name":"origin","to_stop_lat":"43.283112","to_stop_lon":"-2.643519","to_stop_placename":"Mendata, Espa?a","to_stop":{"id":"80","name":"origin","lat":"43.283112","lon":"-2.643519","placename":"Mendata, Espa?a"},"from_stop":{"name":"origin","id":"2900","lat":"23.69781","lon":"120.960515","placename":"Taiw"}}]}}},"processes":[],"eols":[]}],"user":{"name":"borjiz","id":"6128"}}}