{"4397":{"oid":"4397","type":"object","flag":"","creator":"11200","name":"Product X","upc":"","imagelink":"","description":"","slug":"earthmark-map-demo","category":"","weight":"0","emissions":"0","embodied":"0","transport":"0","process":"0","endoflife":"0","shipping":"50749.77","lifetime":null,"usagetype":"","usageenergy":null,"usageemissions":null,"timecreated":"2010-11-10 02:15:20.289126","timemodified":"2010-11-11 02:13:27","visibility":"public","showfootprint":"on","showembodied":"on","showtransport":"on","showprocess":"on","showendoflife":"on","showlastleg":"on","showuse":"on","showstats":"on","stops":{"origin":{"related_to":"4397","part_or_object":"o","notes":"","placename":"Sydney New South Wales, Australia","id":"2127","category":"1","lat":"-33.8599722","lon":"151.2111111","name":"origin","hops":{"incoming":[{"transport_id":"17","id":"4282","transport_name":"None Selected","transport_description":null,"transport_unit":"kg km","transport_co2_eq":"0.000000","from_stop_id":"6542","from_stop_lat":"-37.8131869","from_stop_lon":"144.9629796","to_stop_id":"2127","to_stop_name":"origin","to_stop_lat":"-33.8599722","placename":"Melbourne VIC, Australia","to_stop_lon":"151.2111111","to_stop":{"id":"2127","name":"origin","lat":"-33.8599722","placename":"Sydney New South Wales, Australia","lon":"151.2111111"},"from_stop":{"name":"origin","id":"6542","lat":"-37.8131869","lon":"144.9629796","placename":"Melbourne VIC, Australia"}},{"transport_id":"17","id":"4283","transport_name":"None Selected","transport_description":null,"transport_unit":"kg km","transport_co2_eq":"0.000000","from_stop_id":"6543","from_stop_lat":"-27.4709331","from_stop_lon":"153.0235024","to_stop_id":"2127","to_stop_name":"origin","to_stop_lat":"-33.8599722","placename":"Brisbane QLD, Australia","to_stop_lon":"151.2111111","to_stop":{"id":"2127","name":"origin","lat":"-33.8599722","placename":"Sydney New South Wales, Australia","lon":"151.2111111"},"from_stop":{"name":"origin","id":"6543","lat":"-27.4709331","lon":"153.0235024","placename":"Brisbane QLD, Australia"}},{"transport_id":"17","id":"4284","transport_name":"None Selected","transport_description":null,"transport_unit":"kg km","transport_co2_eq":"0.000000","from_stop_id":"6544","from_stop_lat":"31.230393","from_stop_lon":"121.473704","to_stop_id":"2127","to_stop_name":"origin","to_stop_lat":"-33.8599722","placename":"Shanghai, China","to_stop_lon":"151.2111111","to_stop":{"id":"2127","name":"origin","lat":"-33.8599722","placename":"Sydney New South Wales, Australia","lon":"151.2111111"},"from_stop":{"name":"origin","id":"6544","lat":"31.230393","lon":"121.473704","placename":"Shanghai, China"}},{"transport_id":"17","id":"4285","transport_name":"None Selected","transport_description":null,"transport_unit":"kg km","transport_co2_eq":"0.000000","from_stop_id":"6545","from_stop_lat":"19.0176147","from_stop_lon":"72.8561644","to_stop_id":"2127","to_stop_name":"origin","to_stop_lat":"-33.8599722","placename":"Mumbai, Maharashtra, India","to_stop_lon":"151.2111111","to_stop":{"id":"2127","name":"origin","lat":"-33.8599722","placename":"Sydney New South Wales, Australia","lon":"151.2111111"},"from_stop":{"name":"origin","id":"6545","lat":"19.0176147","lon":"72.8561644","placename":"Mumbai, Maharashtra, India"}},{"transport_id":"17","id":"4286","transport_name":"None Selected","transport_description":null,"transport_unit":"kg km","transport_co2_eq":"0.000000","from_stop_id":"6546","from_stop_lat":"39.904214","from_stop_lon":"116.407413","to_stop_id":"2127","to_stop_name":"origin","to_stop_lat":"-33.8599722","placename":"Beijing, China","to_stop_lon":"151.2111111","to_stop":{"id":"2127","name":"origin","lat":"-33.8599722","placename":"Sydney New South Wales, Australia","lon":"151.2111111"},"from_stop":{"name":"origin","id":"6546","lat":"39.904214","lon":"116.407413","placename":"Beijing, China"}},{"transport_id":"17","id":"4287","transport_name":"None Selected","transport_description":null,"transport_unit":"kg km","transport_co2_eq":"0.000000","from_stop_id":"6547","from_stop_lat":"-34.9305556","from_stop_lon":"138.6205556","to_stop_id":"2127","to_stop_name":"origin","to_stop_lat":"-33.8599722","placename":"Adelaide SA, Australia","to_stop_lon":"151.2111111","to_stop":{"id":"2127","name":"origin","lat":"-33.8599722","placename":"Sydney New South Wales, Australia","lon":"151.2111111"},"from_stop":{"name":"origin","id":"6547","lat":"-34.9305556","lon":"138.6205556","placename":"Adelaide SA, Australia"}},{"transport_id":"17","id":"4288","transport_name":"None Selected","transport_description":null,"transport_unit":"kg km","transport_co2_eq":"0.000000","from_stop_id":"6548","from_stop_lat":"28.635308","from_stop_lon":"77.22496","to_stop_id":"2127","to_stop_name":"origin","to_stop_lat":"-33.8599722","placename":"New Delhi, Delhi 110001, India","to_stop_lon":"151.2111111","to_stop":{"id":"2127","name":"origin","lat":"-33.8599722","placename":"Sydney New South Wales, Australia","lon":"151.2111111"},"from_stop":{"name":"origin","id":"6548","lat":"28.635308","lon":"77.22496","placename":"New Delhi, Delhi 110001, India"}},{"transport_id":"17","id":"4289","transport_name":"None Selected","transport_description":null,"transport_unit":"kg km","transport_co2_eq":"0.000000","from_stop_id":"6549","from_stop_lat":"22.396428","from_stop_lon":"114.109497","to_stop_id":"2127","to_stop_name":"origin","to_stop_lat":"-33.8599722","placename":"Hong Kong","to_stop_lon":"151.2111111","to_stop":{"id":"2127","name":"origin","lat":"-33.8599722","placename":"Sydney New South Wales, Australia","lon":"151.2111111"},"from_stop":{"name":"origin","id":"6549","lat":"22.396428","lon":"114.109497","placename":"Hong Kong"}},{"transport_id":"17","id":"4290","transport_name":"None Selected","transport_description":null,"transport_unit":"kg km","transport_co2_eq":"0.000000","from_stop_id":"6550","from_stop_lat":"-31.9522222","from_stop_lon":"115.8588889","to_stop_id":"2127","to_stop_name":"origin","to_stop_lat":"-33.8599722","placename":"Perth WA, Australia","to_stop_lon":"151.2111111","to_stop":{"id":"2127","name":"origin","lat":"-33.8599722","placename":"Sydney New South Wales, Australia","lon":"151.2111111"},"from_stop":{"name":"origin","id":"6550","lat":"-31.9522222","lon":"115.8588889","placename":"Perth WA, Australia"}}],"outgoing":[]}}},"parts":[{"oid":"4397","imid":"4868","linkid":"","weight":"0","rawemissions":"0","emissions":"0","shipping":"714.97","processemissions":"0","endoflifeemissions":"0","disposaltype":null,"disposalenergy":null,"disposalimpact":null,"disposalemissions":null,"description":"","name":"Part 1","id":"4868","stops":{"origin":{"related_to":"4868","part_or_object":"p","notes":"","placename":"Melbourne VIC, Australia","id":6542,"name":"origin","lat":"-37.8131869","lon":"144.9629796","hops":{"incoming":[],"outgoing":[{"transport_id":"17","id":"4282","transport_name":"None Selected","transport_description":null,"transport_unit":"kg km","transport_co2_eq":"0.000000","from_stop_id":"6542","from_stop_lat":"-37.8131869","from_stop_lon":"144.9629796","from_stop_placename":"Melbourne VIC, Australia","to_stop_id":"2127","to_stop_name":"origin","to_stop_lat":"-33.8599722","to_stop_lon":"151.2111111","to_stop_placename":"Sydney New South Wales, Australia","to_stop":{"id":"2127","name":"origin","lat":"-33.8599722","lon":"151.2111111","placename":"Sydney New South Wales, Australia"},"from_stop":{"name":"origin","id":"6542","lat":"-37.8131869","lon":"144.9629796","placename":"Melbourne VIC, Australia"}}]}}},"processes":[],"eols":[]},{"oid":"4397","imid":"4869","linkid":"","weight":"0","rawemissions":"0","emissions":"0","shipping":"732.05","processemissions":"0","endoflifeemissions":"0","disposaltype":null,"disposalenergy":null,"disposalimpact":null,"disposalemissions":null,"description":"","name":"Part 2","id":"4869","stops":{"origin":{"related_to":"4869","part_or_object":"p","notes":"","placename":"Brisbane QLD, Australia","id":6543,"name":"origin","lat":"-27.4709331","lon":"153.0235024","hops":{"incoming":[],"outgoing":[{"transport_id":"17","id":"4283","transport_name":"None Selected","transport_description":null,"transport_unit":"kg km","transport_co2_eq":"0.000000","from_stop_id":"6543","from_stop_lat":"-27.4709331","from_stop_lon":"153.0235024","from_stop_placename":"Brisbane QLD, Australia","to_stop_id":"2127","to_stop_name":"origin","to_stop_lat":"-33.8599722","to_stop_lon":"151.2111111","to_stop_placename":"Sydney New South Wales, Australia","to_stop":{"id":"2127","name":"origin","lat":"-33.8599722","lon":"151.2111111","placename":"Sydney New South Wales, Australia"},"from_stop":{"name":"origin","id":"6543","lat":"-27.4709331","lon":"153.0235024","placename":"Brisbane QLD, Australia"}}]}}},"processes":[],"eols":[]},{"oid":"4397","imid":"4870","linkid":"","weight":"0","rawemissions":"0","emissions":"0","shipping":"7889.45","processemissions":"0","endoflifeemissions":"0","disposaltype":null,"disposalenergy":null,"disposalimpact":null,"disposalemissions":null,"description":"","name":"Part 3","id":"4870","stops":{"origin":{"related_to":"4870","part_or_object":"p","notes":"","placename":"Shanghai, China","id":6544,"name":"origin","lat":"31.230393","lon":"121.473704","hops":{"incoming":[],"outgoing":[{"transport_id":"17","id":"4284","transport_name":"None Selected","transport_description":null,"transport_unit":"kg km","transport_co2_eq":"0.000000","from_stop_id":"6544","from_stop_lat":"31.230393","from_stop_lon":"121.473704","from_stop_placename":"Shanghai, China","to_stop_id":"2127","to_stop_name":"origin","to_stop_lat":"-33.8599722","to_stop_lon":"151.2111111","to_stop_placename":"Sydney New South Wales, Australia","to_stop":{"id":"2127","name":"origin","lat":"-33.8599722","lon":"151.2111111","placename":"Sydney New South Wales, Australia"},"from_stop":{"name":"origin","id":"6544","lat":"31.230393","lon":"121.473704","placename":"Shanghai, China"}}]}}},"processes":[],"eols":[]},{"oid":"4397","imid":"4871","linkid":"","weight":"0","rawemissions":"0","emissions":"0","shipping":"10166.04","processemissions":"0","endoflifeemissions":"0","disposaltype":null,"disposalenergy":null,"disposalimpact":null,"disposalemissions":null,"description":"","name":"Part 4","id":"4871","stops":{"origin":{"related_to":"4871","part_or_object":"p","notes":"","placename":"Mumbai, Maharashtra, India","id":6545,"name":"origin","lat":"19.0176147","lon":"72.8561644","hops":{"incoming":[],"outgoing":[{"transport_id":"17","id":"4285","transport_name":"None Selected","transport_description":null,"transport_unit":"kg km","transport_co2_eq":"0.000000","from_stop_id":"6545","from_stop_lat":"19.0176147","from_stop_lon":"72.8561644","from_stop_placename":"Mumbai, Maharashtra, India","to_stop_id":"2127","to_stop_name":"origin","to_stop_lat":"-33.8599722","to_stop_lon":"151.2111111","to_stop_placename":"Sydney New South Wales, Australia","to_stop":{"id":"2127","name":"origin","lat":"-33.8599722","lon":"151.2111111","placename":"Sydney New South Wales, Australia"},"from_stop":{"name":"origin","id":"6545","lat":"19.0176147","lon":"72.8561644","placename":"Mumbai, Maharashtra, India"}}]}}},"processes":[],"eols":[]},{"oid":"4397","imid":"4872","linkid":"","weight":"0","rawemissions":"0","emissions":"0","shipping":"8957.41","processemissions":"0","endoflifeemissions":"0","disposaltype":null,"disposalenergy":null,"disposalimpact":null,"disposalemissions":null,"description":"","name":"Part 5","id":"4872","stops":{"origin":{"related_to":"4872","part_or_object":"p","notes":"","placename":"Beijing, China","id":6546,"name":"origin","lat":"39.904214","lon":"116.407413","hops":{"incoming":[],"outgoing":[{"transport_id":"17","id":"4286","transport_name":"None Selected","transport_description":null,"transport_unit":"kg km","transport_co2_eq":"0.000000","from_stop_id":"6546","from_stop_lat":"39.904214","from_stop_lon":"116.407413","from_stop_placename":"Beijing, China","to_stop_id":"2127","to_stop_name":"origin","to_stop_lat":"-33.8599722","to_stop_lon":"151.2111111","to_stop_placename":"Sydney New South Wales, Australia","to_stop":{"id":"2127","name":"origin","lat":"-33.8599722","lon":"151.2111111","placename":"Sydney New South Wales, Australia"},"from_stop":{"name":"origin","id":"6546","lat":"39.904214","lon":"116.407413","placename":"Beijing, China"}}]}}},"processes":[],"eols":[]},{"oid":"4397","imid":"4874","linkid":"","weight":"0","rawemissions":"0","emissions":"0","shipping":"1161.87","processemissions":"0","endoflifeemissions":"0","disposaltype":null,"disposalenergy":null,"disposalimpact":null,"disposalemissions":null,"description":"","name":"Part 6","id":"4874","stops":{"origin":{"related_to":"4874","part_or_object":"p","notes":"","placename":"Adelaide SA, Australia","id":6547,"name":"origin","lat":"-34.9305556","lon":"138.6205556","hops":{"incoming":[],"outgoing":[{"transport_id":"17","id":"4287","transport_name":"None Selected","transport_description":null,"transport_unit":"kg km","transport_co2_eq":"0.000000","from_stop_id":"6547","from_stop_lat":"-34.9305556","from_stop_lon":"138.6205556","from_stop_placename":"Adelaide SA, Australia","to_stop_id":"2127","to_stop_name":"origin","to_stop_lat":"-33.8599722","to_stop_lon":"151.2111111","to_stop_placename":"Sydney New South Wales, Australia","to_stop":{"id":"2127","name":"origin","lat":"-33.8599722","lon":"151.2111111","placename":"Sydney New South Wales, Australia"},"from_stop":{"name":"origin","id":"6547","lat":"-34.9305556","lon":"138.6205556","placename":"Adelaide SA, Australia"}}]}}},"processes":[],"eols":[]},{"oid":"4397","imid":"4876","linkid":"","weight":"0","rawemissions":"0","emissions":"0","shipping":"10439.69","processemissions":"0","endoflifeemissions":"0","disposaltype":null,"disposalenergy":null,"disposalimpact":null,"disposalemissions":null,"description":"","name":"Part 8","id":"4876","stops":{"origin":{"related_to":"4876","part_or_object":"p","notes":"","placename":"New Delhi, Delhi 110001, India","id":6548,"name":"origin","lat":"28.635308","lon":"77.22496","hops":{"incoming":[],"outgoing":[{"transport_id":"17","id":"4288","transport_name":"None Selected","transport_description":null,"transport_unit":"kg km","transport_co2_eq":"0.000000","from_stop_id":"6548","from_stop_lat":"28.635308","from_stop_lon":"77.22496","from_stop_placename":"New Delhi, Delhi 110001, India","to_stop_id":"2127","to_stop_name":"origin","to_stop_lat":"-33.8599722","to_stop_lon":"151.2111111","to_stop_placename":"Sydney New South Wales, Australia","to_stop":{"id":"2127","name":"origin","lat":"-33.8599722","lon":"151.2111111","placename":"Sydney New South Wales, Australia"},"from_stop":{"name":"origin","id":"6548","lat":"28.635308","lon":"77.22496","placename":"New Delhi, Delhi 110001, India"}}]}}},"processes":[],"eols":[]},{"oid":"4397","imid":"4877","linkid":"","weight":"0","rawemissions":"0","emissions":"0","shipping":"7393.65","processemissions":"0","endoflifeemissions":"0","disposaltype":null,"disposalenergy":null,"disposalimpact":null,"disposalemissions":null,"description":"","name":"Part 9","id":"4877","stops":{"origin":{"related_to":"4877","part_or_object":"p","notes":"","placename":"Hong Kong","id":6549,"name":"origin","lat":"22.396428","lon":"114.109497","hops":{"incoming":[],"outgoing":[{"transport_id":"17","id":"4289","transport_name":"None Selected","transport_description":null,"transport_unit":"kg km","transport_co2_eq":"0.000000","from_stop_id":"6549","from_stop_lat":"22.396428","from_stop_lon":"114.109497","from_stop_placename":"Hong Kong","to_stop_id":"2127","to_stop_name":"origin","to_stop_lat":"-33.8599722","to_stop_lon":"151.2111111","to_stop_placename":"Sydney New South Wales, Australia","to_stop":{"id":"2127","name":"origin","lat":"-33.8599722","lon":"151.2111111","placename":"Sydney New South Wales, Australia"},"from_stop":{"name":"origin","id":"6549","lat":"22.396428","lon":"114.109497","placename":"Hong Kong"}}]}}},"processes":[],"eols":[]},{"oid":"4397","imid":"4875","linkid":"","weight":"0","rawemissions":"0","emissions":"0","shipping":"3294.64","processemissions":"0","endoflifeemissions":"0","disposaltype":null,"disposalenergy":null,"disposalimpact":null,"disposalemissions":null,"description":"","name":"Part 7","id":"4875","stops":{"origin":{"related_to":"4875","part_or_object":"p","notes":"","placename":"Perth WA, Australia","id":6550,"name":"origin","lat":"-31.9522222","lon":"115.8588889","hops":{"incoming":[],"outgoing":[{"transport_id":"17","id":"4290","transport_name":"None Selected","transport_description":null,"transport_unit":"kg km","transport_co2_eq":"0.000000","from_stop_id":"6550","from_stop_lat":"-31.9522222","from_stop_lon":"115.8588889","from_stop_placename":"Perth WA, Australia","to_stop_id":"2127","to_stop_name":"origin","to_stop_lat":"-33.8599722","to_stop_lon":"151.2111111","to_stop_placename":"Sydney New South Wales, Australia","to_stop":{"id":"2127","name":"origin","lat":"-33.8599722","lon":"151.2111111","placename":"Sydney New South Wales, Australia"},"from_stop":{"name":"origin","id":"6550","lat":"-31.9522222","lon":"115.8588889","placename":"Perth WA, Australia"}}]}}},"processes":[],"eols":[]}],"user":{"name":"earthmark","id":"11200"}}}