{"440":{"oid":"440","type":"travel","flag":"","creator":"6128","name":"artful research workshop","upc":"","imagelink":"","description":"a proxi of the co2 associated to the meeting last week","slug":"artful-research-workshop","category":"","weight":"3201","emissions":"4630.99","embodied":"0","transport":"4630.99","process":"0","endoflife":"0","shipping":"12281.6","lifetime":"0","usagetype":"","usageenergy":"0","usageemissions":"0","timecreated":"2010-02-24 22:03:35.508367","timemodified":"2009-09-30 16:52:14","visibility":"public","showfootprint":"on","showembodied":"on","showtransport":"on","showprocess":"on","showendoflife":"on","showlastleg":"on","showuse":"on","showstats":"on","stops":{"origin":{"related_to":"440","part_or_object":"o","notes":"","placename":"Berl?n, Alemania","id":"81","category":"1","lat":"52.5234051","lon":"13.4113999","name":"origin","hops":{"incoming":[{"transport_id":"13","id":"646","transport_name":"air, passenger, regional","transport_description":"within one continent, kg km from person-km","transport_unit":"kg km","transport_co2_eq":"2.262000","from_stop_id":"2897","from_stop_lat":"55.6762944","from_stop_lon":"12.5681157","to_stop_id":"81","to_stop_name":"origin","to_stop_lat":"52.5234051","placename":"Copenhague, Dinamarca","to_stop_lon":"13.4113999","to_stop":{"id":"81","name":"origin","lat":"52.5234051","placename":"Berl?n, Alemania","lon":"13.4113999"},"from_stop":{"name":"origin","id":"2897","lat":"55.6762944","lon":"12.5681157","placename":"Copenhague, Dinamarca"}},{"transport_id":"13","id":"650","transport_name":"air, passenger, regional","transport_description":"within one continent, kg km from person-km","transport_unit":"kg km","transport_co2_eq":"2.262000","from_stop_id":"2901","from_stop_lat":"57.696981","from_stop_lon":"11.9863834","to_stop_id":"81","to_stop_name":"origin","to_stop_lat":"52.5234051","placename":"Goteborg, Suecia","to_stop_lon":"13.4113999","to_stop":{"id":"81","name":"origin","lat":"52.5234051","placename":"Berl?n, Alemania","lon":"13.4113999"},"from_stop":{"name":"origin","id":"2901","lat":"57.696981","lon":"11.9863834","placename":"Goteborg, Suecia"}},{"transport_id":"13","id":"651","transport_name":"air, passenger, regional","transport_description":"within one continent, kg km from person-km","transport_unit":"kg km","transport_co2_eq":"2.262000","from_stop_id":"2902","from_stop_lat":"57.696981","from_stop_lon":"11.9863834","to_stop_id":"81","to_stop_name":"origin","to_stop_lat":"52.5234051","placename":"Goteborg, Suecia","to_stop_lon":"13.4113999","to_stop":{"id":"81","name":"origin","lat":"52.5234051","placename":"Berl?n, Alemania","lon":"13.4113999"},"from_stop":{"name":"origin","id":"2902","lat":"57.696981","lon":"11.9863834","placename":"Goteborg, Suecia"}},{"transport_id":"13","id":"652","transport_name":"air, passenger, regional","transport_description":"within one continent, kg km from person-km","transport_unit":"kg km","transport_co2_eq":"2.262000","from_stop_id":"2903","from_stop_lat":"57.696981","from_stop_lon":"11.9863834","to_stop_id":"81","to_stop_name":"origin","to_stop_lat":"52.5234051","placename":"Goteborg, Suecia","to_stop_lon":"13.4113999","to_stop":{"id":"81","name":"origin","lat":"52.5234051","placename":"Berl?n, Alemania","lon":"13.4113999"},"from_stop":{"name":"origin","id":"2903","lat":"57.696981","lon":"11.9863834","placename":"Goteborg, Suecia"}},{"transport_id":"14","id":"653","transport_name":"air, passenger, intercontinental","transport_description":"intercontinental, kg km from person-km","transport_unit":"kg km","transport_co2_eq":"1.189000","from_stop_id":"2904","from_stop_lat":"32.0554","from_stop_lon":"34.7595","to_stop_id":"81","to_stop_name":"origin","to_stop_lat":"52.5234051","placename":"Tel Aviv, Israel","to_stop_lon":"13.4113999","to_stop":{"id":"81","name":"origin","lat":"52.5234051","placename":"Berl?n, Alemania","lon":"13.4113999"},"from_stop":{"name":"origin","id":"2904","lat":"32.0554","lon":"34.7595","placename":"Tel Aviv, Israel"}},{"transport_id":"13","id":"654","transport_name":"air, passenger, regional","transport_description":"within one continent, kg km from person-km","transport_unit":"kg km","transport_co2_eq":"2.262000","from_stop_id":"2905","from_stop_lat":"41.387917","from_stop_lon":"2.1699187","to_stop_id":"81","to_stop_name":"origin","to_stop_lat":"52.5234051","placename":"Barcelona, Espa?a","to_stop_lon":"13.4113999","to_stop":{"id":"81","name":"origin","lat":"52.5234051","placename":"Berl?n, Alemania","lon":"13.4113999"},"from_stop":{"name":"origin","id":"2905","lat":"41.387917","lon":"2.1699187","placename":"Barcelona, Espa?a"}},{"transport_id":"4","id":"655","transport_name":"automobile, 20 mpg","transport_description":"low efficiency automobile","transport_unit":"kg km","transport_co2_eq":"0.067500","from_stop_id":"2906","from_stop_lat":"52.3969627","from_stop_lon":"13.0586008","to_stop_id":"81","to_stop_name":"origin","to_stop_lat":"52.5234051","placename":"Potsdam, Alemania","to_stop_lon":"13.4113999","to_stop":{"id":"81","name":"origin","lat":"52.5234051","placename":"Berl?n, Alemania","lon":"13.4113999"},"from_stop":{"name":"origin","id":"2906","lat":"52.3969627","lon":"13.0586008","placename":"Potsdam, Alemania"}},{"transport_id":"13","id":"656","transport_name":"air, passenger, regional","transport_description":"within one continent, kg km from person-km","transport_unit":"kg km","transport_co2_eq":"2.262000","from_stop_id":"2907","from_stop_lat":"58.3911541","from_stop_lon":"13.8472682","to_stop_id":"81","to_stop_name":"origin","to_stop_lat":"52.5234051","placename":"Sk?vde, Suecia","to_stop_lon":"13.4113999","to_stop":{"id":"81","name":"origin","lat":"52.5234051","placename":"Berl?n, Alemania","lon":"13.4113999"},"from_stop":{"name":"origin","id":"2907","lat":"58.3911541","lon":"13.8472682","placename":"Sk?vde, Suecia"}},{"transport_id":"13","id":"657","transport_name":"air, passenger, regional","transport_description":"within one continent, kg km from person-km","transport_unit":"kg km","transport_co2_eq":"2.262000","from_stop_id":"2908","from_stop_lat":"47.426484","from_stop_lon":"9.376052","to_stop_id":"81","to_stop_name":"origin","to_stop_lat":"52.5234051","placename":"San Galo, Suiza","to_stop_lon":"13.4113999","to_stop":{"id":"81","name":"origin","lat":"52.5234051","placename":"Berl?n, Alemania","lon":"13.4113999"},"from_stop":{"name":"origin","id":"2908","lat":"47.426484","lon":"9.376052","placename":"San Galo, Suiza"}},{"transport_id":"13","id":"658","transport_name":"air, passenger, regional","transport_description":"within one continent, kg km from person-km","transport_unit":"kg km","transport_co2_eq":"2.262000","from_stop_id":"2909","from_stop_lat":"51.5001524","from_stop_lon":"-0.1262362","to_stop_id":"81","to_stop_name":"origin","to_stop_lat":"52.5234051","placename":"Westminster, Londres, Reino Unido","to_stop_lon":"13.4113999","to_stop":{"id":"81","name":"origin","lat":"52.5234051","placename":"Berl?n, Alemania","lon":"13.4113999"},"from_stop":{"name":"origin","id":"2909","lat":"51.5001524","lon":"-0.1262362","placename":"Westminster, Londres, Reino Unido"}},{"transport_id":"13","id":"659","transport_name":"air, passenger, regional","transport_description":"within one continent, kg km from person-km","transport_unit":"kg km","transport_co2_eq":"2.262000","from_stop_id":"2910","from_stop_lat":"48.8566667","from_stop_lon":"2.3509871","to_stop_id":"81","to_stop_name":"origin","to_stop_lat":"52.5234051","placename":"Par?s, Francia","to_stop_lon":"13.4113999","to_stop":{"id":"81","name":"origin","lat":"52.5234051","placename":"Berl?n, Alemania","lon":"13.4113999"},"from_stop":{"name":"origin","id":"2910","lat":"48.8566667","lon":"2.3509871","placename":"Par?s, Francia"}},{"transport_id":"13","id":"660","transport_name":"air, passenger, regional","transport_description":"within one continent, kg km from person-km","transport_unit":"kg km","transport_co2_eq":"2.262000","from_stop_id":"2911","from_stop_lat":"47.3690239","from_stop_lon":"8.5380326","to_stop_id":"81","to_stop_name":"origin","to_stop_lat":"52.5234051","placename":"Zurich, Suiza","to_stop_lon":"13.4113999","to_stop":{"id":"81","name":"origin","lat":"52.5234051","placename":"Berl?n, Alemania","lon":"13.4113999"},"from_stop":{"name":"origin","id":"2911","lat":"47.3690239","lon":"8.5380326","placename":"Zurich, Suiza"}},{"transport_id":"13","id":"661","transport_name":"air, passenger, regional","transport_description":"within one continent, kg km from person-km","transport_unit":"kg km","transport_co2_eq":"2.262000","from_stop_id":"2912","from_stop_lat":"43.2569629","from_stop_lon":"-2.9234409","to_stop_id":"81","to_stop_name":"origin","to_stop_lat":"52.5234051","placename":"Bilbao, Espa?a","to_stop_lon":"13.4113999","to_stop":{"id":"81","name":"origin","lat":"52.5234051","placename":"Berl?n, Alemania","lon":"13.4113999"},"from_stop":{"name":"origin","id":"2912","lat":"43.2569629","lon":"-2.9234409","placename":"Bilbao, Espa?a"}},{"transport_id":"13","id":"662","transport_name":"air, passenger, regional","transport_description":"within one continent, kg km from person-km","transport_unit":"kg km","transport_co2_eq":"2.262000","from_stop_id":"2913","from_stop_lat":"50.180271","from_stop_lon":"8.512418","to_stop_id":"81","to_stop_name":"origin","to_stop_lat":"52.5234051","placename":"Kronberg, Alemania","to_stop_lon":"13.4113999","to_stop":{"id":"81","name":"origin","lat":"52.5234051","placename":"Berl?n, Alemania","lon":"13.4113999"},"from_stop":{"name":"origin","id":"2913","lat":"50.180271","lon":"8.512418","placename":"Kronberg, Alemania"}}],"outgoing":[]}}},"parts":[{"oid":"440","imid":"823","linkid":"","weight":"2","rawemissions":"0","emissions":"0","shipping":"355.26","processemissions":null,"endoflifeemissions":null,"disposaltype":null,"disposalenergy":null,"disposalimpact":null,"disposalemissions":null,"description":"","name":"kenneth & Gerda","id":"823","stops":{"origin":{"related_to":"823","part_or_object":"p","notes":"","placename":"Copenhague, Dinamarca","id":2897,"name":"origin","lat":"55.6762944","lon":"12.5681157","hops":{"incoming":[],"outgoing":[{"transport_id":"13","id":"646","transport_name":"air, passenger, regional","transport_description":"within one continent, kg km from person-km","transport_unit":"kg km","transport_co2_eq":"2.262000","from_stop_id":"2897","from_stop_lat":"55.6762944","from_stop_lon":"12.5681157","from_stop_placename":"Copenhague, Dinamarca","to_stop_id":"81","to_stop_name":"origin","to_stop_lat":"52.5234051","to_stop_lon":"13.4113999","to_stop_placename":"Berl?n, Alemania","to_stop":{"id":"81","name":"origin","lat":"52.5234051","lon":"13.4113999","placename":"Berl?n, Alemania"},"from_stop":{"name":"origin","id":"2897","lat":"55.6762944","lon":"12.5681157","placename":"Copenhague, Dinamarca"}}]}}},"processes":[],"eols":[]},{"oid":"440","imid":"824","linkid":"","weight":"1","rawemissions":"0","emissions":"0","shipping":"582.99","processemissions":null,"endoflifeemissions":null,"disposaltype":null,"disposalenergy":null,"disposalimpact":null,"disposalemissions":null,"description":"","name":"victoria","id":"824","stops":{"origin":{"related_to":"824","part_or_object":"p","notes":"","placename":"Goteborg, Suecia","id":2901,"name":"origin","lat":"57.696981","lon":"11.9863834","hops":{"incoming":[],"outgoing":[{"transport_id":"13","id":"650","transport_name":"air, passenger, regional","transport_description":"within one continent, kg km from person-km","transport_unit":"kg km","transport_co2_eq":"2.262000","from_stop_id":"2901","from_stop_lat":"57.696981","from_stop_lon":"11.9863834","from_stop_placename":"Goteborg, Suecia","to_stop_id":"81","to_stop_name":"origin","to_stop_lat":"52.5234051","to_stop_lon":"13.4113999","to_stop_placename":"Berl?n, Alemania","to_stop":{"id":"81","name":"origin","lat":"52.5234051","lon":"13.4113999","placename":"Berl?n, Alemania"},"from_stop":{"name":"origin","id":"2901","lat":"57.696981","lon":"11.9863834","placename":"Goteborg, Suecia"}}]}}},"processes":[],"eols":[]},{"oid":"440","imid":"825","linkid":"","weight":"2","rawemissions":"0","emissions":"0","shipping":"582.99","processemissions":null,"endoflifeemissions":null,"disposaltype":null,"disposalenergy":null,"disposalimpact":null,"disposalemissions":null,"description":"","name":"johanna & michael","id":"825","stops":{"origin":{"related_to":"825","part_or_object":"p","notes":"","placename":"Goteborg, Suecia","id":2902,"name":"origin","lat":"57.696981","lon":"11.9863834","hops":{"incoming":[],"outgoing":[{"transport_id":"13","id":"651","transport_name":"air, passenger, regional","transport_description":"within one continent, kg km from person-km","transport_unit":"kg km","transport_co2_eq":"2.262000","from_stop_id":"2902","from_stop_lat":"57.696981","from_stop_lon":"11.9863834","from_stop_placename":"Goteborg, Suecia","to_stop_id":"81","to_stop_name":"origin","to_stop_lat":"52.5234051","to_stop_lon":"13.4113999","to_stop_placename":"Berl?n, Alemania","to_stop":{"id":"81","name":"origin","lat":"52.5234051","lon":"13.4113999","placename":"Berl?n, Alemania"},"from_stop":{"name":"origin","id":"2902","lat":"57.696981","lon":"11.9863834","placename":"Goteborg, Suecia"}}]}}},"processes":[],"eols":[]},{"oid":"440","imid":"826","linkid":"","weight":"3","rawemissions":"0","emissions":"0","shipping":"582.99","processemissions":null,"endoflifeemissions":null,"disposaltype":null,"disposalenergy":null,"disposalimpact":null,"disposalemissions":null,"description":"","name":"pia, maria, anna","id":"826","stops":{"origin":{"related_to":"826","part_or_object":"p","notes":"","placename":"Goteborg, Suecia","id":2903,"name":"origin","lat":"57.696981","lon":"11.9863834","hops":{"incoming":[],"outgoing":[{"transport_id":"13","id":"652","transport_name":"air, passenger, regional","transport_description":"within one continent, kg km from person-km","transport_unit":"kg km","transport_co2_eq":"2.262000","from_stop_id":"2903","from_stop_lat":"57.696981","from_stop_lon":"11.9863834","from_stop_placename":"Goteborg, Suecia","to_stop_id":"81","to_stop_name":"origin","to_stop_lat":"52.5234051","to_stop_lon":"13.4113999","to_stop_placename":"Berl?n, Alemania","to_stop":{"id":"81","name":"origin","lat":"52.5234051","lon":"13.4113999","placename":"Berl?n, Alemania"},"from_stop":{"name":"origin","id":"2903","lat":"57.696981","lon":"11.9863834","placename":"Goteborg, Suecia"}}]}}},"processes":[],"eols":[]},{"oid":"440","imid":"827","linkid":"","weight":"1","rawemissions":"0","emissions":"0","shipping":"2854.9","processemissions":null,"endoflifeemissions":null,"disposaltype":null,"disposalenergy":null,"disposalimpact":null,"disposalemissions":null,"description":"","name":"daniela","id":"827","stops":{"origin":{"related_to":"827","part_or_object":"p","notes":"","placename":"Tel Aviv, Israel","id":2904,"name":"origin","lat":"32.0554","lon":"34.7595","hops":{"incoming":[],"outgoing":[{"transport_id":"14","id":"653","transport_name":"air, passenger, intercontinental","transport_description":"intercontinental, kg km from person-km","transport_unit":"kg km","transport_co2_eq":"1.189000","from_stop_id":"2904","from_stop_lat":"32.0554","from_stop_lon":"34.7595","from_stop_placename":"Tel Aviv, Israel","to_stop_id":"81","to_stop_name":"origin","to_stop_lat":"52.5234051","to_stop_lon":"13.4113999","to_stop_placename":"Berl?n, Alemania","to_stop":{"id":"81","name":"origin","lat":"52.5234051","lon":"13.4113999","placename":"Berl?n, Alemania"},"from_stop":{"name":"origin","id":"2904","lat":"32.0554","lon":"34.7595","placename":"Tel Aviv, Israel"}}]}}},"processes":[],"eols":[]},{"oid":"440","imid":"828","linkid":"","weight":"2","rawemissions":"0","emissions":"0","shipping":"1501.57","processemissions":null,"endoflifeemissions":null,"disposaltype":null,"disposalenergy":null,"disposalimpact":null,"disposalemissions":null,"description":"","name":"tere & josep","id":"828","stops":{"origin":{"related_to":"828","part_or_object":"p","notes":"","placename":"Barcelona, Espa?a","id":2905,"name":"origin","lat":"41.387917","lon":"2.1699187","hops":{"incoming":[],"outgoing":[{"transport_id":"13","id":"654","transport_name":"air, passenger, regional","transport_description":"within one continent, kg km from person-km","transport_unit":"kg km","transport_co2_eq":"2.262000","from_stop_id":"2905","from_stop_lat":"41.387917","from_stop_lon":"2.1699187","from_stop_placename":"Barcelona, Espa?a","to_stop_id":"81","to_stop_name":"origin","to_stop_lat":"52.5234051","to_stop_lon":"13.4113999","to_stop_placename":"Berl?n, Alemania","to_stop":{"id":"81","name":"origin","lat":"52.5234051","lon":"13.4113999","placename":"Berl?n, Alemania"},"from_stop":{"name":"origin","id":"2905","lat":"41.387917","lon":"2.1699187","placename":"Barcelona, Espa?a"}}]}}},"processes":[],"eols":[]},{"oid":"440","imid":"829","linkid":"","weight":"8","rawemissions":"0","emissions":"0","shipping":"27.76","processemissions":null,"endoflifeemissions":null,"disposaltype":null,"disposalenergy":null,"disposalimpact":null,"disposalemissions":null,"description":"","name":"Nina, Arianne, Kirsten, Michael, Jorg, Henrik, Anke, Solveig","id":"829","stops":{"origin":{"related_to":"829","part_or_object":"p","notes":"","placename":"Potsdam, Alemania","id":2906,"name":"origin","lat":"52.3969627","lon":"13.0586008","hops":{"incoming":[],"outgoing":[{"transport_id":"4","id":"655","transport_name":"automobile, 20 mpg","transport_description":"low efficiency automobile","transport_unit":"kg km","transport_co2_eq":"0.067500","from_stop_id":"2906","from_stop_lat":"52.3969627","from_stop_lon":"13.0586008","from_stop_placename":"Potsdam, Alemania","to_stop_id":"81","to_stop_name":"origin","to_stop_lat":"52.5234051","to_stop_lon":"13.4113999","to_stop_placename":"Berl?n, Alemania","to_stop":{"id":"81","name":"origin","lat":"52.5234051","lon":"13.4113999","placename":"Berl?n, Alemania"},"from_stop":{"name":"origin","id":"2906","lat":"52.3969627","lon":"13.0586008","placename":"Potsdam, Alemania"}}]}}},"processes":[],"eols":[]},{"oid":"440","imid":"830","linkid":"","weight":"2","rawemissions":"0","emissions":"0","shipping":"653.77","processemissions":null,"endoflifeemissions":null,"disposaltype":null,"disposalenergy":null,"disposalimpact":null,"disposalemissions":null,"description":"","name":"Gabriel & Lars","id":"830","stops":{"origin":{"related_to":"830","part_or_object":"p","notes":"","placename":"Sk?vde, Suecia","id":2907,"name":"origin","lat":"58.3911541","lon":"13.8472682","hops":{"incoming":[],"outgoing":[{"transport_id":"13","id":"656","transport_name":"air, passenger, regional","transport_description":"within one continent, kg km from person-km","transport_unit":"kg km","transport_co2_eq":"2.262000","from_stop_id":"2907","from_stop_lat":"58.3911541","from_stop_lon":"13.8472682","from_stop_placename":"Sk?vde, Suecia","to_stop_id":"81","to_stop_name":"origin","to_stop_lat":"52.5234051","to_stop_lon":"13.4113999","to_stop_placename":"Berl?n, Alemania","to_stop":{"id":"81","name":"origin","lat":"52.5234051","lon":"13.4113999","placename":"Berl?n, Alemania"},"from_stop":{"name":"origin","id":"2907","lat":"58.3911541","lon":"13.8472682","placename":"Sk?vde, Suecia"}}]}}},"processes":[],"eols":[]},{"oid":"440","imid":"831","linkid":"","weight":"1","rawemissions":"0","emissions":"0","shipping":"636.46","processemissions":null,"endoflifeemissions":null,"disposaltype":null,"disposalenergy":null,"disposalimpact":null,"disposalemissions":null,"description":"","name":"Timon","id":"831","stops":{"origin":{"related_to":"831","part_or_object":"p","notes":"","placename":"San Galo, Suiza","id":2908,"name":"origin","lat":"47.426484","lon":"9.376052","hops":{"incoming":[],"outgoing":[{"transport_id":"13","id":"657","transport_name":"air, passenger, regional","transport_description":"within one continent, kg km from person-km","transport_unit":"kg km","transport_co2_eq":"2.262000","from_stop_id":"2908","from_stop_lat":"47.426484","from_stop_lon":"9.376052","from_stop_placename":"San Galo, Suiza","to_stop_id":"81","to_stop_name":"origin","to_stop_lat":"52.5234051","to_stop_lon":"13.4113999","to_stop_placename":"Berl?n, Alemania","to_stop":{"id":"81","name":"origin","lat":"52.5234051","lon":"13.4113999","placename":"Berl?n, Alemania"},"from_stop":{"name":"origin","id":"2908","lat":"47.426484","lon":"9.376052","placename":"San Galo, Suiza"}}]}}},"processes":[],"eols":[]},{"oid":"440","imid":"832","linkid":"","weight":"4","rawemissions":"0","emissions":"0","shipping":"933.12","processemissions":null,"endoflifeemissions":null,"disposaltype":null,"disposalenergy":null,"disposalimpact":null,"disposalemissions":null,"description":"","name":"Clare, Howell, Hazel, Nema","id":"832","stops":{"origin":{"related_to":"832","part_or_object":"p","notes":"","placename":"Westminster, Londres, Reino Unido","id":2909,"name":"origin","lat":"51.5001524","lon":"-0.1262362","hops":{"incoming":[],"outgoing":[{"transport_id":"13","id":"658","transport_name":"air, passenger, regional","transport_description":"within one continent, kg km from person-km","transport_unit":"kg km","transport_co2_eq":"2.262000","from_stop_id":"2909","from_stop_lat":"51.5001524","from_stop_lon":"-0.1262362","from_stop_placename":"Westminster, Londres, Reino Unido","to_stop_id":"81","to_stop_name":"origin","to_stop_lat":"52.5234051","to_stop_lon":"13.4113999","to_stop_placename":"Berl?n, Alemania","to_stop":{"id":"81","name":"origin","lat":"52.5234051","lon":"13.4113999","placename":"Berl?n, Alemania"},"from_stop":{"name":"origin","id":"2909","lat":"51.5001524","lon":"-0.1262362","placename":"Westminster, Londres, Reino Unido"}}]}}},"processes":[],"eols":[]},{"oid":"440","imid":"833","linkid":"","weight":"2","rawemissions":"0","emissions":"0","shipping":"879.07","processemissions":null,"endoflifeemissions":null,"disposaltype":null,"disposalenergy":null,"disposalimpact":null,"disposalemissions":null,"description":"","name":"Clement & Julien","id":"833","stops":{"origin":{"related_to":"833","part_or_object":"p","notes":"","placename":"Par?s, Francia","id":2910,"name":"origin","lat":"48.8566667","lon":"2.3509871","hops":{"incoming":[],"outgoing":[{"transport_id":"13","id":"659","transport_name":"air, passenger, regional","transport_description":"within one continent, kg km from person-km","transport_unit":"kg km","transport_co2_eq":"2.262000","from_stop_id":"2910","from_stop_lat":"48.8566667","from_stop_lon":"2.3509871","from_stop_placename":"Par?s, Francia","to_stop_id":"81","to_stop_name":"origin","to_stop_lat":"52.5234051","to_stop_lon":"13.4113999","to_stop_placename":"Berl?n, Alemania","to_stop":{"id":"81","name":"origin","lat":"52.5234051","lon":"13.4113999","placename":"Berl?n, Alemania"},"from_stop":{"name":"origin","id":"2910","lat":"48.8566667","lon":"2.3509871","placename":"Par?s, Francia"}}]}}},"processes":[],"eols":[]},{"oid":"440","imid":"834","linkid":"","weight":"2","rawemissions":"0","emissions":"0","shipping":"671.29","processemissions":null,"endoflifeemissions":null,"disposaltype":null,"disposalenergy":null,"disposalimpact":null,"disposalemissions":null,"description":"","name":"Irene & Claus","id":"834","stops":{"origin":{"related_to":"834","part_or_object":"p","notes":"","placename":"Zurich, Suiza","id":2911,"name":"origin","lat":"47.3690239","lon":"8.5380326","hops":{"incoming":[],"outgoing":[{"transport_id":"13","id":"660","transport_name":"air, passenger, regional","transport_description":"within one continent, kg km from person-km","transport_unit":"kg km","transport_co2_eq":"2.262000","from_stop_id":"2911","from_stop_lat":"47.3690239","from_stop_lon":"8.5380326","from_stop_placename":"Zurich, Suiza","to_stop_id":"81","to_stop_name":"origin","to_stop_lat":"52.5234051","to_stop_lon":"13.4113999","to_stop_placename":"Berl?n, Alemania","to_stop":{"id":"81","name":"origin","lat":"52.5234051","lon":"13.4113999","placename":"Berl?n, Alemania"},"from_stop":{"name":"origin","id":"2911","lat":"47.3690239","lon":"8.5380326","placename":"Zurich, Suiza"}}]}}},"processes":[],"eols":[]},{"oid":"440","imid":"835","linkid":"","weight":"2","rawemissions":"0","emissions":"0","shipping":"1590.63","processemissions":null,"endoflifeemissions":null,"disposaltype":null,"disposalenergy":null,"disposalimpact":null,"disposalemissions":null,"description":"","name":"Borja & Miren","id":"835","stops":{"origin":{"related_to":"835","part_or_object":"p","notes":"","placename":"Bilbao, Espa?a","id":2912,"name":"origin","lat":"43.2569629","lon":"-2.9234409","hops":{"incoming":[],"outgoing":[{"transport_id":"13","id":"661","transport_name":"air, passenger, regional","transport_description":"within one continent, kg km from person-km","transport_unit":"kg km","transport_co2_eq":"2.262000","from_stop_id":"2912","from_stop_lat":"43.2569629","from_stop_lon":"-2.9234409","from_stop_placename":"Bilbao, Espa?a","to_stop_id":"81","to_stop_name":"origin","to_stop_lat":"52.5234051","to_stop_lon":"13.4113999","to_stop_placename":"Berl?n, Alemania","to_stop":{"id":"81","name":"origin","lat":"52.5234051","lon":"13.4113999","placename":"Berl?n, Alemania"},"from_stop":{"name":"origin","id":"2912","lat":"43.2569629","lon":"-2.9234409","placename":"Bilbao, Espa?a"}}]}}},"processes":[],"eols":[]},{"oid":"440","imid":"836","linkid":"","weight":"1","rawemissions":"0","emissions":"0","shipping":"428.84","processemissions":null,"endoflifeemissions":null,"disposaltype":null,"disposalenergy":null,"disposalimpact":null,"disposalemissions":null,"description":"","name":"Camilla","id":"836","stops":{"origin":{"related_to":"836","part_or_object":"p","notes":"","placename":"Kronberg, Alemania","id":2913,"name":"origin","lat":"50.180271","lon":"8.512418","hops":{"incoming":[],"outgoing":[{"transport_id":"13","id":"662","transport_name":"air, passenger, regional","transport_description":"within one continent, kg km from person-km","transport_unit":"kg km","transport_co2_eq":"2.262000","from_stop_id":"2913","from_stop_lat":"50.180271","from_stop_lon":"8.512418","from_stop_placename":"Kronberg, Alemania","to_stop_id":"81","to_stop_name":"origin","to_stop_lat":"52.5234051","to_stop_lon":"13.4113999","to_stop_placename":"Berl?n, Alemania","to_stop":{"id":"81","name":"origin","lat":"52.5234051","lon":"13.4113999","placename":"Berl?n, Alemania"},"from_stop":{"name":"origin","id":"2913","lat":"50.180271","lon":"8.512418","placename":"Kronberg, Alemania"}}]}}},"processes":[],"eols":[]}],"user":{"name":"borjiz","id":"6128"}}}