{"4404":{"oid":"4404","type":"trace","flag":"","creator":"11167","name":"Hyundai-Kia Motors","upc":"","imagelink":"","description":"","slug":"hyundai-kia-motors","category":"","weight":"0","emissions":"0","embodied":"0","transport":"0","process":"0","endoflife":"0","shipping":"40523.38","lifetime":null,"usagetype":"","usageenergy":null,"usageemissions":null,"timecreated":"2010-11-12 05:09:09.243167","timemodified":"2010-11-12 10:32:33","visibility":"public","showfootprint":"on","showembodied":"on","showtransport":"on","showprocess":"on","showendoflife":"on","showlastleg":"on","showuse":"on","showstats":"on","stops":{"origin":{"related_to":"4404","part_or_object":"o","notes":"","placename":"Seoul, South Korea","id":"2142","category":"1","lat":"37.566535","lon":"126.9779692","name":"origin","hops":{"incoming":[{"transport_id":"17","id":"4291","transport_name":"None Selected","transport_description":null,"transport_unit":"kg km","transport_co2_eq":"0.000000","from_stop_id":"6551","from_stop_lat":"39.221484","from_stop_lon":"117.13244","to_stop_id":"2142","to_stop_name":"origin","to_stop_lat":"37.566535","placename":"Beichen, Tianjin, China","to_stop_lon":"126.9779692","to_stop":{"id":"2142","name":"origin","lat":"37.566535","placename":"Seoul, South Korea","lon":"126.9779692"},"from_stop":{"name":"origin","id":"6551","lat":"39.221484","lon":"117.13244","placename":"Beichen, Tianjin, China"}},{"transport_id":"17","id":"4292","transport_name":"None Selected","transport_description":null,"transport_unit":"kg km","transport_co2_eq":"0.000000","from_stop_id":"6552","from_stop_lat":"13.060422","from_stop_lon":"80.249583","to_stop_id":"2142","to_stop_name":"origin","to_stop_lat":"37.566535","placename":"Chennai, Tamil Nadu, India","to_stop_lon":"126.9779692","to_stop":{"id":"2142","name":"origin","lat":"37.566535","placename":"Seoul, South Korea","lon":"126.9779692"},"from_stop":{"name":"origin","id":"6552","lat":"13.060422","lon":"80.249583","placename":"Chennai, Tamil Nadu, India"}},{"transport_id":"17","id":"4293","transport_name":"None Selected","transport_description":null,"transport_unit":"kg km","transport_co2_eq":"0.000000","from_stop_id":"6553","from_stop_lat":"49.8412715","from_stop_lon":"18.2902483","to_stop_id":"2142","to_stop_name":"origin","to_stop_lat":"37.566535","placename":"Ostrava, Czech Republic","to_stop_lon":"126.9779692","to_stop":{"id":"2142","name":"origin","lat":"37.566535","placename":"Seoul, South Korea","lon":"126.9779692"},"from_stop":{"name":"origin","id":"6553","lat":"49.8412715","lon":"18.2902483","placename":"Ostrava, Czech Republic"}},{"transport_id":"17","id":"4294","transport_name":"None Selected","transport_description":null,"transport_unit":"kg km","transport_co2_eq":"0.000000","from_stop_id":"6554","from_stop_lat":"40.775986","from_stop_lon":"29.948357","to_stop_id":"2142","to_stop_name":"origin","to_stop_lat":"37.566535","placename":"Izmit\/Kocaeli Province, Turkey","to_stop_lon":"126.9779692","to_stop":{"id":"2142","name":"origin","lat":"37.566535","placename":"Seoul, South Korea","lon":"126.9779692"},"from_stop":{"name":"origin","id":"6554","lat":"40.775986","lon":"29.948357","placename":"Izmit\/Kocaeli Province, Turkey"}},{"transport_id":"17","id":"4295","transport_name":"None Selected","transport_description":null,"transport_unit":"kg km","transport_co2_eq":"0.000000","from_stop_id":"6555","from_stop_lat":"32.3182314","from_stop_lon":"-86.902298","to_stop_id":"2142","to_stop_name":"origin","to_stop_lat":"37.566535","placename":"Alabama, USA","to_stop_lon":"126.9779692","to_stop":{"id":"2142","name":"origin","lat":"37.566535","placename":"Seoul, South Korea","lon":"126.9779692"},"from_stop":{"name":"origin","id":"6555","lat":"32.3182314","lon":"-86.902298","placename":"Alabama, USA"}},{"transport_id":"17","id":"4296","transport_name":"None Selected","transport_description":null,"transport_unit":"kg km","transport_co2_eq":"0.000000","from_stop_id":"6556","from_stop_lat":"59.939039","from_stop_lon":"30.315785","to_stop_id":"2142","to_stop_name":"origin","to_stop_lat":"37.566535","placename":"St Petersburg, Russia","to_stop_lon":"126.9779692","to_stop":{"id":"2142","name":"origin","lat":"37.566535","placename":"Seoul, South Korea","lon":"126.9779692"},"from_stop":{"name":"origin","id":"6556","lat":"59.939039","lon":"30.315785","placename":"St Petersburg, Russia"}}],"outgoing":[]}}},"parts":[{"oid":"4404","imid":"4878","linkid":"","weight":"0","rawemissions":"0","emissions":"0","shipping":"878.05","processemissions":"0","endoflifeemissions":"0","disposaltype":null,"disposalenergy":null,"disposalimpact":null,"disposalemissions":null,"description":"","name":"BHMC","id":"4878","stops":{"origin":{"related_to":"4878","part_or_object":"p","notes":"","placename":"Beichen, Tianjin, China","id":6551,"name":"origin","lat":"39.221484","lon":"117.13244","hops":{"incoming":[],"outgoing":[{"transport_id":"17","id":"4291","transport_name":"None Selected","transport_description":null,"transport_unit":"kg km","transport_co2_eq":"0.000000","from_stop_id":"6551","from_stop_lat":"39.221484","from_stop_lon":"117.13244","from_stop_placename":"Beichen, Tianjin, China","to_stop_id":"2142","to_stop_name":"origin","to_stop_lat":"37.566535","to_stop_lon":"126.9779692","to_stop_placename":"Seoul, South Korea","to_stop":{"id":"2142","name":"origin","lat":"37.566535","lon":"126.9779692","placename":"Seoul, South Korea"},"from_stop":{"name":"origin","id":"6551","lat":"39.221484","lon":"117.13244","placename":"Beichen, Tianjin, China"}}]}}},"processes":[],"eols":[]},{"oid":"4404","imid":"4879","linkid":"","weight":"0","rawemissions":"0","emissions":"0","shipping":"5361.21","processemissions":"0","endoflifeemissions":"0","disposaltype":null,"disposalenergy":null,"disposalimpact":null,"disposalemissions":null,"description":"","name":"HMI","id":"4879","stops":{"origin":{"related_to":"4879","part_or_object":"p","notes":"","placename":"Chennai, Tamil Nadu, India","id":6552,"name":"origin","lat":"13.060422","lon":"80.249583","hops":{"incoming":[],"outgoing":[{"transport_id":"17","id":"4292","transport_name":"None Selected","transport_description":null,"transport_unit":"kg km","transport_co2_eq":"0.000000","from_stop_id":"6552","from_stop_lat":"13.060422","from_stop_lon":"80.249583","from_stop_placename":"Chennai, Tamil Nadu, India","to_stop_id":"2142","to_stop_name":"origin","to_stop_lat":"37.566535","to_stop_lon":"126.9779692","to_stop_placename":"Seoul, South Korea","to_stop":{"id":"2142","name":"origin","lat":"37.566535","lon":"126.9779692","placename":"Seoul, South Korea"},"from_stop":{"name":"origin","id":"6552","lat":"13.060422","lon":"80.249583","placename":"Chennai, Tamil Nadu, India"}}]}}},"processes":[],"eols":[]},{"oid":"4404","imid":"4880","linkid":"","weight":"0","rawemissions":"0","emissions":"0","shipping":"8060.88","processemissions":"0","endoflifeemissions":"0","disposaltype":null,"disposalenergy":null,"disposalimpact":null,"disposalemissions":null,"description":"","name":"HMMC","id":"4880","stops":{"origin":{"related_to":"4880","part_or_object":"p","notes":"","placename":"Ostrava, Czech Republic","id":6553,"name":"origin","lat":"49.8412715","lon":"18.2902483","hops":{"incoming":[],"outgoing":[{"transport_id":"17","id":"4293","transport_name":"None Selected","transport_description":null,"transport_unit":"kg km","transport_co2_eq":"0.000000","from_stop_id":"6553","from_stop_lat":"49.8412715","from_stop_lon":"18.2902483","from_stop_placename":"Ostrava, Czech Republic","to_stop_id":"2142","to_stop_name":"origin","to_stop_lat":"37.566535","to_stop_lon":"126.9779692","to_stop_placename":"Seoul, South Korea","to_stop":{"id":"2142","name":"origin","lat":"37.566535","lon":"126.9779692","placename":"Seoul, South Korea"},"from_stop":{"name":"origin","id":"6553","lat":"49.8412715","lon":"18.2902483","placename":"Ostrava, Czech Republic"}}]}}},"processes":[],"eols":[]},{"oid":"4404","imid":"4881","linkid":"","weight":"0","rawemissions":"0","emissions":"0","shipping":"7909.36","processemissions":"0","endoflifeemissions":"0","disposaltype":null,"disposalenergy":null,"disposalimpact":null,"disposalemissions":null,"description":"","name":"HAOS","id":"4881","stops":{"origin":{"related_to":"4881","part_or_object":"p","notes":"","placename":"Izmit\/Kocaeli Province, Turkey","id":6554,"name":"origin","lat":"40.775986","lon":"29.948357","hops":{"incoming":[],"outgoing":[{"transport_id":"17","id":"4294","transport_name":"None Selected","transport_description":null,"transport_unit":"kg km","transport_co2_eq":"0.000000","from_stop_id":"6554","from_stop_lat":"40.775986","from_stop_lon":"29.948357","from_stop_placename":"Izmit\/Kocaeli Province, Turkey","to_stop_id":"2142","to_stop_name":"origin","to_stop_lat":"37.566535","to_stop_lon":"126.9779692","to_stop_placename":"Seoul, South Korea","to_stop":{"id":"2142","name":"origin","lat":"37.566535","lon":"126.9779692","placename":"Seoul, South Korea"},"from_stop":{"name":"origin","id":"6554","lat":"40.775986","lon":"29.948357","placename":"Izmit\/Kocaeli Province, Turkey"}}]}}},"processes":[],"eols":[]},{"oid":"4404","imid":"4882","linkid":"","weight":"0","rawemissions":"0","emissions":"0","shipping":"11500.09","processemissions":"0","endoflifeemissions":"0","disposaltype":null,"disposalenergy":null,"disposalimpact":null,"disposalemissions":null,"description":"","name":"HMMA","id":"4882","stops":{"origin":{"related_to":"4882","part_or_object":"p","notes":"","placename":"Alabama, USA","id":6555,"name":"origin","lat":"32.3182314","lon":"-86.902298","hops":{"incoming":[],"outgoing":[{"transport_id":"17","id":"4295","transport_name":"None Selected","transport_description":null,"transport_unit":"kg km","transport_co2_eq":"0.000000","from_stop_id":"6555","from_stop_lat":"32.3182314","from_stop_lon":"-86.902298","from_stop_placename":"Alabama, USA","to_stop_id":"2142","to_stop_name":"origin","to_stop_lat":"37.566535","to_stop_lon":"126.9779692","to_stop_placename":"Seoul, South Korea","to_stop":{"id":"2142","name":"origin","lat":"37.566535","lon":"126.9779692","placename":"Seoul, South Korea"},"from_stop":{"name":"origin","id":"6555","lat":"32.3182314","lon":"-86.902298","placename":"Alabama, USA"}}]}}},"processes":[],"eols":[]},{"oid":"4404","imid":"4883","linkid":"","weight":"0","rawemissions":"0","emissions":"0","shipping":"6813.79","processemissions":"0","endoflifeemissions":"0","disposaltype":null,"disposalenergy":null,"disposalimpact":null,"disposalemissions":null,"description":"","name":"HMMR","id":"4883","stops":{"origin":{"related_to":"4883","part_or_object":"p","notes":"","placename":"St Petersburg, Russia","id":6556,"name":"origin","lat":"59.939039","lon":"30.315785","hops":{"incoming":[],"outgoing":[{"transport_id":"17","id":"4296","transport_name":"None Selected","transport_description":null,"transport_unit":"kg km","transport_co2_eq":"0.000000","from_stop_id":"6556","from_stop_lat":"59.939039","from_stop_lon":"30.315785","from_stop_placename":"St Petersburg, Russia","to_stop_id":"2142","to_stop_name":"origin","to_stop_lat":"37.566535","to_stop_lon":"126.9779692","to_stop_placename":"Seoul, South Korea","to_stop":{"id":"2142","name":"origin","lat":"37.566535","lon":"126.9779692","placename":"Seoul, South Korea"},"from_stop":{"name":"origin","id":"6556","lat":"59.939039","lon":"30.315785","placename":"St Petersburg, Russia"}}]}}},"processes":[],"eols":[]}],"user":{"name":"bouncedjay","id":"11167"}}}