{"462":{"oid":"462","type":"object","flag":"","creator":"6138","name":"Giro Skyla bicycle helmet","upc":"","imagelink":"","description":"in-mold technology","slug":"giro-skyla-bicycle-helmet","category":"","weight":"0.27","emissions":"0.96","embodied":"0.96","transport":"0","process":"0","endoflife":"0","shipping":"0","lifetime":"0","usagetype":"","usageenergy":"0","usageemissions":"0","timecreated":"2010-02-24 22:03:35.514356","timemodified":"2009-10-07 03:25:14","visibility":"public","showfootprint":"on","showembodied":"on","showtransport":"on","showprocess":"on","showendoflife":"on","showlastleg":"on","showuse":"on","showstats":"on","stops":{"origin":{"related_to":"462","part_or_object":"o","notes":"","placename":"China","id":"86","category":"1","lat":"35.86166","lon":"104.195397","name":"origin","hops":{"incoming":[{"transport_id":"7","id":"819","transport_name":"freighter, inland","transport_description":"for rivers and lakes","transport_unit":"kg km","transport_co2_eq":"0.025300","from_stop_id":"3070","from_stop_lat":"35.86166","from_stop_lon":"104.195397","to_stop_id":"86","to_stop_name":"origin","to_stop_lat":"35.86166","placename":"China","to_stop_lon":"104.195397","to_stop":{"id":"86","name":"origin","lat":"35.86166","placename":"China","lon":"104.195397"},"from_stop":{"name":"origin","id":"3070","lat":"35.86166","lon":"104.195397","placename":"China"}},{"transport_id":"7","id":"820","transport_name":"freighter, inland","transport_description":"for rivers and lakes","transport_unit":"kg km","transport_co2_eq":"0.025300","from_stop_id":"3071","from_stop_lat":"35.86166","from_stop_lon":"104.195397","to_stop_id":"86","to_stop_name":"origin","to_stop_lat":"35.86166","placename":"China","to_stop_lon":"104.195397","to_stop":{"id":"86","name":"origin","lat":"35.86166","placename":"China","lon":"104.195397"},"from_stop":{"name":"origin","id":"3071","lat":"35.86166","lon":"104.195397","placename":"China"}},{"transport_id":"10","id":"821","transport_name":"train, freight","transport_description":"diesel freight locomotive","transport_unit":"kg km","transport_co2_eq":"0.005600","from_stop_id":"3072","from_stop_lat":"35.86166","from_stop_lon":"104.195397","to_stop_id":"86","to_stop_name":"origin","to_stop_lat":"35.86166","placename":"China","to_stop_lon":"104.195397","to_stop":{"id":"86","name":"origin","lat":"35.86166","placename":"China","lon":"104.195397"},"from_stop":{"name":"origin","id":"3072","lat":"35.86166","lon":"104.195397","placename":"China"}},{"transport_id":"7","id":"822","transport_name":"freighter, inland","transport_description":"for rivers and lakes","transport_unit":"kg km","transport_co2_eq":"0.025300","from_stop_id":"3073","from_stop_lat":"35.86166","from_stop_lon":"104.195397","to_stop_id":"86","to_stop_name":"origin","to_stop_lat":"35.86166","placename":"China","to_stop_lon":"104.195397","to_stop":{"id":"86","name":"origin","lat":"35.86166","placename":"China","lon":"104.195397"},"from_stop":{"name":"origin","id":"3073","lat":"35.86166","lon":"104.195397","placename":"China"}},{"transport_id":"7","id":"823","transport_name":"freighter, inland","transport_description":"for rivers and lakes","transport_unit":"kg km","transport_co2_eq":"0.025300","from_stop_id":"3074","from_stop_lat":"35.86166","from_stop_lon":"104.195397","to_stop_id":"86","to_stop_name":"origin","to_stop_lat":"35.86166","placename":"China","to_stop_lon":"104.195397","to_stop":{"id":"86","name":"origin","lat":"35.86166","placename":"China","lon":"104.195397"},"from_stop":{"name":"origin","id":"3074","lat":"35.86166","lon":"104.195397","placename":"China"}},{"transport_id":"7","id":"850","transport_name":"freighter, inland","transport_description":"for rivers and lakes","transport_unit":"kg km","transport_co2_eq":"0.025300","from_stop_id":"3101","from_stop_lat":"35.86166","from_stop_lon":"104.195397","to_stop_id":"86","to_stop_name":"origin","to_stop_lat":"35.86166","placename":"China","to_stop_lon":"104.195397","to_stop":{"id":"86","name":"origin","lat":"35.86166","placename":"China","lon":"104.195397"},"from_stop":{"name":"origin","id":"3101","lat":"35.86166","lon":"104.195397","placename":"China"}}],"outgoing":[]}}},"parts":[{"oid":"462","imid":"1002","linkid":"","weight":"0.06475","rawemissions":"4.2","emissions":"0.27","shipping":"0","processemissions":null,"endoflifeemissions":null,"disposaltype":null,"disposalenergy":null,"disposalimpact":null,"disposalemissions":null,"description":"Polycarbonate aka Lexan","name":"PC","id":"1002","stops":{"origin":{"related_to":"1002","part_or_object":"p","notes":"","placename":"China","id":3070,"name":"origin","lat":"35.86166","lon":"104.195397","hops":{"incoming":[],"outgoing":[{"transport_id":"7","id":"819","transport_name":"freighter, inland","transport_description":"for rivers and lakes","transport_unit":"kg km","transport_co2_eq":"0.025300","from_stop_id":"3070","from_stop_lat":"35.86166","from_stop_lon":"104.195397","from_stop_placename":"China","to_stop_id":"86","to_stop_name":"origin","to_stop_lat":"35.86166","to_stop_lon":"104.195397","to_stop_placename":"China","to_stop":{"id":"86","name":"origin","lat":"35.86166","lon":"104.195397","placename":"China"},"from_stop":{"name":"origin","id":"3070","lat":"35.86166","lon":"104.195397","placename":"China"}}]}}},"processes":[],"eols":[]},{"oid":"462","imid":"1003","linkid":"","weight":"0.06475","rawemissions":"2.1","emissions":"0.14","shipping":"0","processemissions":null,"endoflifeemissions":null,"disposaltype":null,"disposalenergy":null,"disposalimpact":null,"disposalemissions":null,"description":"Virgin expanded polystyrene","name":"EPS virgin","id":"1003","stops":{"origin":{"related_to":"1003","part_or_object":"p","notes":"","placename":"China","id":3071,"name":"origin","lat":"35.86166","lon":"104.195397","hops":{"incoming":[],"outgoing":[{"transport_id":"7","id":"820","transport_name":"freighter, inland","transport_description":"for rivers and lakes","transport_unit":"kg km","transport_co2_eq":"0.025300","from_stop_id":"3071","from_stop_lat":"35.86166","from_stop_lon":"104.195397","from_stop_placename":"China","to_stop_id":"86","to_stop_name":"origin","to_stop_lat":"35.86166","to_stop_lon":"104.195397","to_stop_placename":"China","to_stop":{"id":"86","name":"origin","lat":"35.86166","lon":"104.195397","placename":"China"},"from_stop":{"name":"origin","id":"3071","lat":"35.86166","lon":"104.195397","placename":"China"}}]}}},"processes":[],"eols":[]},{"oid":"462","imid":"1004","linkid":"","weight":"0.06475","rawemissions":"4.6","emissions":"0.3","shipping":"0","processemissions":null,"endoflifeemissions":null,"disposaltype":null,"disposalenergy":null,"disposalimpact":null,"disposalemissions":null,"description":"Polyamide 6 aka Nylon","name":"Nylon 6","id":"1004","stops":{"origin":{"related_to":"1004","part_or_object":"p","notes":"","placename":"China","id":3072,"name":"origin","lat":"35.86166","lon":"104.195397","hops":{"incoming":[],"outgoing":[{"transport_id":"10","id":"821","transport_name":"train, freight","transport_description":"diesel freight locomotive","transport_unit":"kg km","transport_co2_eq":"0.005600","from_stop_id":"3072","from_stop_lat":"35.86166","from_stop_lon":"104.195397","from_stop_placename":"China","to_stop_id":"86","to_stop_name":"origin","to_stop_lat":"35.86166","to_stop_lon":"104.195397","to_stop_placename":"China","to_stop":{"id":"86","name":"origin","lat":"35.86166","lon":"104.195397","placename":"China"},"from_stop":{"name":"origin","id":"3072","lat":"35.86166","lon":"104.195397","placename":"China"}}]}}},"processes":[],"eols":[]},{"oid":"462","imid":"1005","linkid":"","weight":"0.01","rawemissions":"3.5","emissions":"0.04","shipping":"0","processemissions":null,"endoflifeemissions":null,"disposaltype":null,"disposalenergy":null,"disposalimpact":null,"disposalemissions":null,"description":"chemical intensive cultivation","name":"Cotton fabric","id":"1005","stops":{"origin":{"related_to":"1005","part_or_object":"p","notes":"","placename":"China","id":3073,"name":"origin","lat":"35.86166","lon":"104.195397","hops":{"incoming":[],"outgoing":[{"transport_id":"7","id":"822","transport_name":"freighter, inland","transport_description":"for rivers and lakes","transport_unit":"kg km","transport_co2_eq":"0.025300","from_stop_id":"3073","from_stop_lat":"35.86166","from_stop_lon":"104.195397","from_stop_placename":"China","to_stop_id":"86","to_stop_name":"origin","to_stop_lat":"35.86166","to_stop_lon":"104.195397","to_stop_placename":"China","to_stop":{"id":"86","name":"origin","lat":"35.86166","lon":"104.195397","placename":"China"},"from_stop":{"name":"origin","id":"3073","lat":"35.86166","lon":"104.195397","placename":"China"}}]}}},"processes":[],"eols":[]},{"oid":"462","imid":"1006","linkid":"","weight":"0.001","rawemissions":"0.82","emissions":"0","shipping":"0","processemissions":null,"endoflifeemissions":null,"disposaltype":null,"disposalenergy":null,"disposalimpact":null,"disposalemissions":null,"description":"Ethylene vinyl acetate","name":"EVA","id":"1006","stops":{"origin":{"related_to":"1006","part_or_object":"p","notes":"","placename":"China","id":3074,"name":"origin","lat":"35.86166","lon":"104.195397","hops":{"incoming":[],"outgoing":[{"transport_id":"7","id":"823","transport_name":"freighter, inland","transport_description":"for rivers and lakes","transport_unit":"kg km","transport_co2_eq":"0.025300","from_stop_id":"3074","from_stop_lat":"35.86166","from_stop_lon":"104.195397","from_stop_placename":"China","to_stop_id":"86","to_stop_name":"origin","to_stop_lat":"35.86166","to_stop_lon":"104.195397","to_stop_placename":"China","to_stop":{"id":"86","name":"origin","lat":"35.86166","lon":"104.195397","placename":"China"},"from_stop":{"name":"origin","id":"3074","lat":"35.86166","lon":"104.195397","placename":"China"}}]}}},"processes":[],"eols":[]},{"oid":"462","imid":"1034","linkid":"","weight":"0.06475","rawemissions":"3.21","emissions":"0.21","shipping":"0","processemissions":null,"endoflifeemissions":null,"disposaltype":null,"disposalenergy":null,"disposalimpact":null,"disposalemissions":null,"description":"Epoxy resin with epichlorohydrin and  bisphenol A aka BPA","name":"Epoxy resin","id":"1034","stops":{"origin":{"related_to":"1034","part_or_object":"p","notes":"","placename":"China","id":3101,"name":"origin","lat":"35.86166","lon":"104.195397","hops":{"incoming":[],"outgoing":[{"transport_id":"7","id":"850","transport_name":"freighter, inland","transport_description":"for rivers and lakes","transport_unit":"kg km","transport_co2_eq":"0.025300","from_stop_id":"3101","from_stop_lat":"35.86166","from_stop_lon":"104.195397","from_stop_placename":"China","to_stop_id":"86","to_stop_name":"origin","to_stop_lat":"35.86166","to_stop_lon":"104.195397","to_stop_placename":"China","to_stop":{"id":"86","name":"origin","lat":"35.86166","lon":"104.195397","placename":"China"},"from_stop":{"name":"origin","id":"3101","lat":"35.86166","lon":"104.195397","placename":"China"}}]}}},"processes":[],"eols":[]}],"user":{"name":"nvolicer","id":"6138"}}}