{"464":{"oid":"464","type":"object","flag":"","creator":"6138","name":"Transparent Push Pin","upc":"","imagelink":"","description":"Per Pack of 100 Pins","slug":"transparent-push-pin","category":"","weight":"17.7","emissions":"22.6","embodied":"22.6","transport":"0","process":"0","endoflife":"0","shipping":"0","lifetime":"0","usagetype":"","usageenergy":"0","usageemissions":"0","timecreated":"2010-02-24 22:03:35.515856","timemodified":"2009-10-05 06:49:26","visibility":"public","showfootprint":"on","showembodied":"on","showtransport":"on","showprocess":"on","showendoflife":"on","showlastleg":"on","showuse":"on","showstats":"on","stops":{"origin":{"related_to":"464","part_or_object":"o","notes":"","placename":"Pennsylvania, USA","id":"87","category":"1","lat":"41.2033216","lon":"-77.1945247","name":"origin","hops":{"incoming":[{"transport_id":"17","id":"714","transport_name":"None Selected","transport_description":null,"transport_unit":"kg km","transport_co2_eq":"0.000000","from_stop_id":"2965","from_stop_lat":"41.2033216","from_stop_lon":"-77.1945247","to_stop_id":"87","to_stop_name":"origin","to_stop_lat":"41.2033216","placename":"Pennsylvania, USA","to_stop_lon":"-77.1945247","to_stop":{"id":"87","name":"origin","lat":"41.2033216","placename":"Pennsylvania, USA","lon":"-77.1945247"},"from_stop":{"name":"origin","id":"2965","lat":"41.2033216","lon":"-77.1945247","placename":"Pennsylvania, USA"}},{"transport_id":"17","id":"715","transport_name":"None Selected","transport_description":null,"transport_unit":"kg km","transport_co2_eq":"0.000000","from_stop_id":"2966","from_stop_lat":"41.2033216","from_stop_lon":"-77.1945247","to_stop_id":"87","to_stop_name":"origin","to_stop_lat":"41.2033216","placename":"Pennsylvania, USA","to_stop_lon":"-77.1945247","to_stop":{"id":"87","name":"origin","lat":"41.2033216","placename":"Pennsylvania, USA","lon":"-77.1945247"},"from_stop":{"name":"origin","id":"2966","lat":"41.2033216","lon":"-77.1945247","placename":"Pennsylvania, USA"}},{"transport_id":"17","id":"716","transport_name":"None Selected","transport_description":null,"transport_unit":"kg km","transport_co2_eq":"0.000000","from_stop_id":"2967","from_stop_lat":"41.2033216","from_stop_lon":"-77.1945247","to_stop_id":"87","to_stop_name":"origin","to_stop_lat":"41.2033216","placename":"Pennsylvania, USA","to_stop_lon":"-77.1945247","to_stop":{"id":"87","name":"origin","lat":"41.2033216","placename":"Pennsylvania, USA","lon":"-77.1945247"},"from_stop":{"name":"origin","id":"2967","lat":"41.2033216","lon":"-77.1945247","placename":"Pennsylvania, USA"}}],"outgoing":[]}}},"parts":[{"oid":"464","imid":"889","linkid":"","weight":"7.1","rawemissions":"0.49","emissions":"3.48","shipping":"0","processemissions":null,"endoflifeemissions":null,"disposaltype":null,"disposalenergy":null,"disposalimpact":null,"disposalemissions":null,"description":"Recycled low alloy steel","name":"Recycled steel","id":"889","stops":{"origin":{"related_to":"889","part_or_object":"p","notes":"","placename":"Pennsylvania, USA","id":2965,"name":"origin","lat":"41.2033216","lon":"-77.1945247","hops":{"incoming":[],"outgoing":[{"transport_id":"17","id":"714","transport_name":"None Selected","transport_description":null,"transport_unit":"kg km","transport_co2_eq":"0.000000","from_stop_id":"2965","from_stop_lat":"41.2033216","from_stop_lon":"-77.1945247","from_stop_placename":"Pennsylvania, USA","to_stop_id":"87","to_stop_name":"origin","to_stop_lat":"41.2033216","to_stop_lon":"-77.1945247","to_stop_placename":"Pennsylvania, USA","to_stop":{"id":"87","name":"origin","lat":"41.2033216","lon":"-77.1945247","placename":"Pennsylvania, USA"},"from_stop":{"name":"origin","id":"2965","lat":"41.2033216","lon":"-77.1945247","placename":"Pennsylvania, USA"}}]}}},"processes":[],"eols":[]},{"oid":"464","imid":"890","linkid":"","weight":"7.1","rawemissions":"2.5","emissions":"17.75","shipping":"0","processemissions":null,"endoflifeemissions":null,"disposaltype":null,"disposalenergy":null,"disposalimpact":null,"disposalemissions":null,"description":"polymethyl methacrylate aka acrylic and plexiglas or plexiglass","name":"PMMA ","id":"890","stops":{"origin":{"related_to":"890","part_or_object":"p","notes":"","placename":"Pennsylvania, USA","id":2966,"name":"origin","lat":"41.2033216","lon":"-77.1945247","hops":{"incoming":[],"outgoing":[{"transport_id":"17","id":"715","transport_name":"None Selected","transport_description":null,"transport_unit":"kg km","transport_co2_eq":"0.000000","from_stop_id":"2966","from_stop_lat":"41.2033216","from_stop_lon":"-77.1945247","from_stop_placename":"Pennsylvania, USA","to_stop_id":"87","to_stop_name":"origin","to_stop_lat":"41.2033216","to_stop_lon":"-77.1945247","to_stop_placename":"Pennsylvania, USA","to_stop":{"id":"87","name":"origin","lat":"41.2033216","lon":"-77.1945247","placename":"Pennsylvania, USA"},"from_stop":{"name":"origin","id":"2966","lat":"41.2033216","lon":"-77.1945247","placename":"Pennsylvania, USA"}}]}}},"processes":[],"eols":[]},{"oid":"464","imid":"891","linkid":"","weight":"3.5","rawemissions":"0.39","emissions":"1.37","shipping":"0","processemissions":null,"endoflifeemissions":null,"disposaltype":null,"disposalenergy":null,"disposalimpact":null,"disposalemissions":null,"description":"Virgin white paperboard","name":"Paperboard bleached","id":"891","stops":{"origin":{"related_to":"891","part_or_object":"p","notes":"","placename":"Pennsylvania, USA","id":2967,"name":"origin","lat":"41.2033216","lon":"-77.1945247","hops":{"incoming":[],"outgoing":[{"transport_id":"17","id":"716","transport_name":"None Selected","transport_description":null,"transport_unit":"kg km","transport_co2_eq":"0.000000","from_stop_id":"2967","from_stop_lat":"41.2033216","from_stop_lon":"-77.1945247","from_stop_placename":"Pennsylvania, USA","to_stop_id":"87","to_stop_name":"origin","to_stop_lat":"41.2033216","to_stop_lon":"-77.1945247","to_stop_placename":"Pennsylvania, USA","to_stop":{"id":"87","name":"origin","lat":"41.2033216","lon":"-77.1945247","placename":"Pennsylvania, USA"},"from_stop":{"name":"origin","id":"2967","lat":"41.2033216","lon":"-77.1945247","placename":"Pennsylvania, USA"}}]}}},"processes":[],"eols":[]}],"user":{"name":"nvolicer","id":"6138"}}}