{"465":{"oid":"465","type":"object","flag":"","creator":"6141","name":"South End Open House","upc":"","imagelink":"","description":"","slug":"south-end-open-house","category":"","weight":"31","emissions":"0.032343584","embodied":"0","transport":"0.032343584","process":"0","endoflife":"0","shipping":"1734.09","lifetime":"0","usagetype":"","usageenergy":"0","usageemissions":"0","timecreated":"2010-02-24 22:03:35.517488","timemodified":"2010-03-02 13:33:24","visibility":"public","showfootprint":"on","showembodied":"on","showtransport":"on","showprocess":"on","showendoflife":"on","showlastleg":"on","showuse":"on","showstats":"on","stops":{"origin":{"related_to":"465","part_or_object":"o","notes":"","placename":"Cambridge, MA, USA","id":"816","category":"1","lat":"42.375392","lon":"-71.118487","name":"origin","hops":{"incoming":[{"transport_id":"2","id":"666","transport_name":"truck, 16 tons","transport_description":"truck, half full","transport_unit":"kg km","transport_co2_eq":"0.020300","from_stop_id":"2917","from_stop_lat":"42.666397","from_stop_lon":"-71.58901","to_stop_id":"816","to_stop_name":"origin","to_stop_lat":"42.375392","placename":"Pepperell, MA, USA","to_stop_lon":"-71.118487","to_stop":{"id":"816","name":"origin","lat":"42.375392","placename":"Cambridge, MA, USA","lon":"-71.118487"},"from_stop":{"name":"origin","id":"2917","lat":"42.666397","lon":"-71.58901","placename":"Pepperell, MA, USA"}},{"transport_id":"2","id":"667","transport_name":"truck, 16 tons","transport_description":"truck, half full","transport_unit":"kg km","transport_co2_eq":"0.020300","from_stop_id":"2918","from_stop_lat":"41.697719","from_stop_lon":"-70.7525299","to_stop_id":"816","to_stop_name":"origin","to_stop_lat":"42.375392","placename":"Marion, Massachusetts, USA","to_stop_lon":"-71.118487","to_stop":{"id":"816","name":"origin","lat":"42.375392","placename":"Cambridge, MA, USA","lon":"-71.118487"},"from_stop":{"name":"origin","id":"2918","lat":"41.697719","lon":"-70.7525299","placename":"Marion, Massachusetts, USA"}},{"transport_id":"1","id":"668","transport_name":"van, 3.5 tons","transport_description":"delivery van, half full","transport_unit":"kg km","transport_co2_eq":"0.053400","from_stop_id":"2919","from_stop_lat":"44.5588028","from_stop_lon":"-72.5778415","to_stop_id":"816","to_stop_name":"origin","to_stop_lat":"42.375392","placename":"Vermont, USA","to_stop_lon":"-71.118487","to_stop":{"id":"816","name":"origin","lat":"42.375392","placename":"Cambridge, MA, USA","lon":"-71.118487"},"from_stop":{"name":"origin","id":"2919","lat":"44.5588028","lon":"-72.5778415","placename":"Vermont, USA"}},{"transport_id":"1","id":"672","transport_name":"van, 3.5 tons","transport_description":"delivery van, half full","transport_unit":"kg km","transport_co2_eq":"0.053400","from_stop_id":"2923","from_stop_lat":"43.4893362","from_stop_lon":"-72.5914616","to_stop_id":"816","to_stop_name":"origin","to_stop_lat":"42.375392","placename":"Reading, Vermont, USA","to_stop_lon":"-71.118487","to_stop":{"id":"816","name":"origin","lat":"42.375392","placename":"Cambridge, MA, USA","lon":"-71.118487"},"from_stop":{"name":"origin","id":"2923","lat":"43.4893362","lon":"-72.5914616","placename":"Reading, Vermont, USA"}},{"transport_id":"17","id":"669","transport_name":"None Selected","transport_description":null,"transport_unit":"kg km","transport_co2_eq":"0.000000","from_stop_id":"2920","from_stop_lat":"44.5588028","from_stop_lon":"-72.5778415","to_stop_id":"816","to_stop_name":"origin","to_stop_lat":"42.375392","placename":"Vermont, USA","to_stop_lon":"-71.118487","to_stop":{"id":"816","name":"origin","lat":"42.375392","placename":"Cambridge, MA, USA","lon":"-71.118487"},"from_stop":{"name":"origin","id":"2920","lat":"44.5588028","lon":"-72.5778415","placename":"Vermont, USA"}},{"transport_id":"17","id":"670","transport_name":"None Selected","transport_description":null,"transport_unit":"kg km","transport_co2_eq":"0.000000","from_stop_id":"2921","from_stop_lat":"42.307365","from_stop_lon":"-73.250419","to_stop_id":"816","to_stop_name":"origin","to_stop_lat":"42.375392","placename":"Lee, MA, USA","to_stop_lon":"-71.118487","to_stop":{"id":"816","name":"origin","lat":"42.375392","placename":"Cambridge, MA, USA","lon":"-71.118487"},"from_stop":{"name":"origin","id":"2921","lat":"42.307365","lon":"-73.250419","placename":"Lee, MA, USA"}},{"transport_id":"17","id":"671","transport_name":"None Selected","transport_description":null,"transport_unit":"kg km","transport_co2_eq":"0.000000","from_stop_id":"2922","from_stop_lat":"42.443872","from_stop_lon":"-73.559261","to_stop_id":"816","to_stop_name":"origin","to_stop_lat":"42.375392","placename":"Old Chatham, New York, USA","to_stop_lon":"-71.118487","to_stop":{"id":"816","name":"origin","lat":"42.375392","placename":"Cambridge, MA, USA","lon":"-71.118487"},"from_stop":{"name":"origin","id":"2922","lat":"42.443872","lon":"-73.559261","placename":"Old Chatham, New York, USA"}},{"transport_id":"17","id":"673","transport_name":"None Selected","transport_description":null,"transport_unit":"kg km","transport_co2_eq":"0.000000","from_stop_id":"2924","from_stop_lat":"42.13612","from_stop_lon":"-71.238223","to_stop_id":"816","to_stop_name":"origin","to_stop_lat":"42.375392","placename":"Walpole, MA, USA","to_stop_lon":"-71.118487","to_stop":{"id":"816","name":"origin","lat":"42.375392","placename":"Cambridge, MA, USA","lon":"-71.118487"},"from_stop":{"name":"origin","id":"2924","lat":"42.13612","lon":"-71.238223","placename":"Walpole, MA, USA"}},{"transport_id":"17","id":"674","transport_name":"None Selected","transport_description":null,"transport_unit":"kg km","transport_co2_eq":"0.000000","from_stop_id":"2925","from_stop_lat":"44.889042","from_stop_lon":"-72.428719","to_stop_id":"816","to_stop_name":"origin","to_stop_lat":"42.375392","placename":"Westfield, Vermont, USA","to_stop_lon":"-71.118487","to_stop":{"id":"816","name":"origin","lat":"42.375392","placename":"Cambridge, MA, USA","lon":"-71.118487"},"from_stop":{"name":"origin","id":"2925","lat":"44.889042","lon":"-72.428719","placename":"Westfield, Vermont, USA"}},{"transport_id":"17","id":"675","transport_name":"None Selected","transport_description":null,"transport_unit":"kg km","transport_co2_eq":"0.000000","from_stop_id":"2926","from_stop_lat":"42.195853","from_stop_lon":"-73.361195","to_stop_id":"816","to_stop_name":"origin","to_stop_lat":"42.375392","placename":"Great Barrington, MA, USA","to_stop_lon":"-71.118487","to_stop":{"id":"816","name":"origin","lat":"42.375392","placename":"Cambridge, MA, USA","lon":"-71.118487"},"from_stop":{"name":"origin","id":"2926","lat":"42.195853","lon":"-73.361195","placename":"Great Barrington, MA, USA"}}],"outgoing":[]}}},"parts":[{"oid":"465","imid":"841","linkid":"","weight":"30","rawemissions":"0","emissions":"0","shipping":"50.4","processemissions":null,"endoflifeemissions":null,"disposaltype":null,"disposalenergy":null,"disposalimpact":null,"disposalemissions":null,"description":"All fruits and Veg from Kimball Fruit Farm","name":"Apples,Pears, Carrots, Melons, Cauliflower, Broccoli, Beets, Green Beans, Scallions Zucchini Pumpkin","id":"841","stops":{"origin":{"related_to":"841","part_or_object":"p","notes":"","placename":"Pepperell, MA, USA","id":2917,"name":"origin","lat":"42.666397","lon":"-71.58901","hops":{"incoming":[],"outgoing":[{"transport_id":"2","id":"666","transport_name":"truck, 16 tons","transport_description":"truck, half full","transport_unit":"kg km","transport_co2_eq":"0.020300","from_stop_id":"2917","from_stop_lat":"42.666397","from_stop_lon":"-71.58901","from_stop_placename":"Pepperell, MA, USA","to_stop_id":"816","to_stop_name":"origin","to_stop_lat":"42.375392","to_stop_lon":"-71.118487","to_stop_placename":"Cambridge, MA, USA","to_stop":{"id":"816","name":"origin","lat":"42.375392","lon":"-71.118487","placename":"Cambridge, MA, USA"},"from_stop":{"name":"origin","id":"2917","lat":"42.666397","lon":"-71.58901","placename":"Pepperell, MA, USA"}}]}}},"processes":[],"eols":[]},{"oid":"465","imid":"842","linkid":"","weight":"1","rawemissions":"0","emissions":"0","shipping":"81.28","processemissions":null,"endoflifeemissions":null,"disposaltype":null,"disposalenergy":null,"disposalimpact":null,"disposalemissions":null,"description":"","name":"Great Hill Blue Cheese","id":"842","stops":{"origin":{"related_to":"842","part_or_object":"p","notes":"","placename":"Marion, Massachusetts, USA","id":2918,"name":"origin","lat":"41.697719","lon":"-70.7525299","hops":{"incoming":[],"outgoing":[{"transport_id":"2","id":"667","transport_name":"truck, 16 tons","transport_description":"truck, half full","transport_unit":"kg km","transport_co2_eq":"0.020300","from_stop_id":"2918","from_stop_lat":"41.697719","from_stop_lon":"-70.7525299","from_stop_placename":"Marion, Massachusetts, USA","to_stop_id":"816","to_stop_name":"origin","to_stop_lat":"42.375392","to_stop_lon":"-71.118487","to_stop_placename":"Cambridge, MA, USA","to_stop":{"id":"816","name":"origin","lat":"42.375392","lon":"-71.118487","placename":"Cambridge, MA, USA"},"from_stop":{"name":"origin","id":"2918","lat":"41.697719","lon":"-70.7525299","placename":"Marion, Massachusetts, USA"}}]}}},"processes":[],"eols":[]},{"oid":"465","imid":"843","linkid":"","weight":"0","rawemissions":"0","emissions":"0","shipping":"270.13","processemissions":null,"endoflifeemissions":null,"disposaltype":null,"disposalenergy":null,"disposalimpact":null,"disposalemissions":null,"description":"","name":"Creme Friache, Copale Cheese","id":"843","stops":{"origin":{"related_to":"843","part_or_object":"p","notes":"","placename":"Vermont, USA","id":2919,"name":"origin","lat":"44.5588028","lon":"-72.5778415","hops":{"incoming":[],"outgoing":[{"transport_id":"1","id":"668","transport_name":"van, 3.5 tons","transport_description":"delivery van, half full","transport_unit":"kg km","transport_co2_eq":"0.053400","from_stop_id":"2919","from_stop_lat":"44.5588028","from_stop_lon":"-72.5778415","from_stop_placename":"Vermont, USA","to_stop_id":"816","to_stop_name":"origin","to_stop_lat":"42.375392","to_stop_lon":"-71.118487","to_stop_placename":"Cambridge, MA, USA","to_stop":{"id":"816","name":"origin","lat":"42.375392","lon":"-71.118487","placename":"Cambridge, MA, USA"},"from_stop":{"name":"origin","id":"2919","lat":"44.5588028","lon":"-72.5778415","placename":"Vermont, USA"}}]}}},"processes":[],"eols":[]},{"oid":"465","imid":"844","linkid":"","weight":"0","rawemissions":"0","emissions":"0","shipping":"270.13","processemissions":null,"endoflifeemissions":null,"disposaltype":null,"disposalenergy":null,"disposalimpact":null,"disposalemissions":null,"description":"","name":"Maple Syrup","id":"844","stops":{"origin":{"related_to":"844","part_or_object":"p","notes":"","placename":"Vermont, USA","id":2920,"name":"origin","lat":"44.5588028","lon":"-72.5778415","hops":{"incoming":[],"outgoing":[{"transport_id":"17","id":"669","transport_name":"None Selected","transport_description":null,"transport_unit":"kg km","transport_co2_eq":"0.000000","from_stop_id":"2920","from_stop_lat":"44.5588028","from_stop_lon":"-72.5778415","from_stop_placename":"Vermont, USA","to_stop_id":"816","to_stop_name":"origin","to_stop_lat":"42.375392","to_stop_lon":"-71.118487","to_stop_placename":"Cambridge, MA, USA","to_stop":{"id":"816","name":"origin","lat":"42.375392","lon":"-71.118487","placename":"Cambridge, MA, USA"},"from_stop":{"name":"origin","id":"2920","lat":"44.5588028","lon":"-72.5778415","placename":"Vermont, USA"}}]}}},"processes":[],"eols":[]},{"oid":"465","imid":"845","linkid":"","weight":"0","rawemissions":"0","emissions":"0","shipping":"175.58","processemissions":null,"endoflifeemissions":null,"disposaltype":null,"disposalenergy":null,"disposalimpact":null,"disposalemissions":null,"description":"HighLawn Dairy","name":"Heavy Cream","id":"845","stops":{"origin":{"related_to":"845","part_or_object":"p","notes":"","placename":"Lee, MA, USA","id":2921,"name":"origin","lat":"42.307365","lon":"-73.250419","hops":{"incoming":[],"outgoing":[{"transport_id":"17","id":"670","transport_name":"None Selected","transport_description":null,"transport_unit":"kg km","transport_co2_eq":"0.000000","from_stop_id":"2921","from_stop_lat":"42.307365","from_stop_lon":"-73.250419","from_stop_placename":"Lee, MA, USA","to_stop_id":"816","to_stop_name":"origin","to_stop_lat":"42.375392","to_stop_lon":"-71.118487","to_stop_placename":"Cambridge, MA, USA","to_stop":{"id":"816","name":"origin","lat":"42.375392","lon":"-71.118487","placename":"Cambridge, MA, USA"},"from_stop":{"name":"origin","id":"2921","lat":"42.307365","lon":"-73.250419","placename":"Lee, MA, USA"}}]}}},"processes":[],"eols":[]},{"oid":"465","imid":"846","linkid":"","weight":"0","rawemissions":"0","emissions":"0","shipping":"200.75","processemissions":null,"endoflifeemissions":null,"disposaltype":null,"disposalenergy":null,"disposalimpact":null,"disposalemissions":null,"description":"","name":"Old Chatham Camembert","id":"846","stops":{"origin":{"related_to":"846","part_or_object":"p","notes":"","placename":"Old Chatham, New York, USA","id":2922,"name":"origin","lat":"42.443872","lon":"-73.559261","hops":{"incoming":[],"outgoing":[{"transport_id":"17","id":"671","transport_name":"None Selected","transport_description":null,"transport_unit":"kg km","transport_co2_eq":"0.000000","from_stop_id":"2922","from_stop_lat":"42.443872","from_stop_lon":"-73.559261","from_stop_placename":"Old Chatham, New York, USA","to_stop_id":"816","to_stop_name":"origin","to_stop_lat":"42.375392","to_stop_lon":"-71.118487","to_stop_placename":"Cambridge, MA, USA","to_stop":{"id":"816","name":"origin","lat":"42.375392","lon":"-71.118487","placename":"Cambridge, MA, USA"},"from_stop":{"name":"origin","id":"2922","lat":"42.443872","lon":"-73.559261","placename":"Old Chatham, New York, USA"}}]}}},"processes":[],"eols":[]},{"oid":"465","imid":"847","linkid":"","weight":"0","rawemissions":"0","emissions":"0","shipping":"172.59","processemissions":null,"endoflifeemissions":null,"disposaltype":null,"disposalenergy":null,"disposalimpact":null,"disposalemissions":null,"description":"","name":"Tarentaise Cheese","id":"847","stops":{"origin":{"related_to":"847","part_or_object":"p","notes":"","placename":"Reading, Vermont, USA","id":2923,"name":"origin","lat":"43.4893362","lon":"-72.5914616","hops":{"incoming":[],"outgoing":[{"transport_id":"1","id":"672","transport_name":"van, 3.5 tons","transport_description":"delivery van, half full","transport_unit":"kg km","transport_co2_eq":"0.053400","from_stop_id":"2923","from_stop_lat":"43.4893362","from_stop_lon":"-72.5914616","from_stop_placename":"Reading, Vermont, USA","to_stop_id":"816","to_stop_name":"origin","to_stop_lat":"42.375392","to_stop_lon":"-71.118487","to_stop_placename":"Cambridge, MA, USA","to_stop":{"id":"816","name":"origin","lat":"42.375392","lon":"-71.118487","placename":"Cambridge, MA, USA"},"from_stop":{"name":"origin","id":"2923","lat":"43.4893362","lon":"-72.5914616","placename":"Reading, Vermont, USA"}}]}}},"processes":[],"eols":[]},{"oid":"465","imid":"848","linkid":"","weight":"0","rawemissions":"0","emissions":"0","shipping":"28.4","processemissions":null,"endoflifeemissions":null,"disposaltype":null,"disposalenergy":null,"disposalimpact":null,"disposalemissions":null,"description":"","name":"Fiddlehead Tomme Cheese ","id":"848","stops":{"origin":{"related_to":"848","part_or_object":"p","notes":"","placename":"Walpole, MA, USA","id":2924,"name":"origin","lat":"42.13612","lon":"-71.238223","hops":{"incoming":[],"outgoing":[{"transport_id":"17","id":"673","transport_name":"None Selected","transport_description":null,"transport_unit":"kg km","transport_co2_eq":"0.000000","from_stop_id":"2924","from_stop_lat":"42.13612","from_stop_lon":"-71.238223","from_stop_placename":"Walpole, MA, USA","to_stop_id":"816","to_stop_name":"origin","to_stop_lat":"42.375392","to_stop_lon":"-71.118487","to_stop_placename":"Cambridge, MA, USA","to_stop":{"id":"816","name":"origin","lat":"42.375392","lon":"-71.118487","placename":"Cambridge, MA, USA"},"from_stop":{"name":"origin","id":"2924","lat":"42.13612","lon":"-71.238223","placename":"Walpole, MA, USA"}}]}}},"processes":[],"eols":[]},{"oid":"465","imid":"849","linkid":"","weight":"0","rawemissions":"0","emissions":"0","shipping":"299.06","processemissions":null,"endoflifeemissions":null,"disposaltype":null,"disposalenergy":null,"disposalimpact":null,"disposalemissions":null,"description":"","name":"Aged Blue Bonnets Goat Cheese","id":"849","stops":{"origin":{"related_to":"849","part_or_object":"p","notes":"","placename":"Westfield, Vermont, USA","id":2925,"name":"origin","lat":"44.889042","lon":"-72.428719","hops":{"incoming":[],"outgoing":[{"transport_id":"17","id":"674","transport_name":"None Selected","transport_description":null,"transport_unit":"kg km","transport_co2_eq":"0.000000","from_stop_id":"2925","from_stop_lat":"44.889042","from_stop_lon":"-72.428719","from_stop_placename":"Westfield, Vermont, USA","to_stop_id":"816","to_stop_name":"origin","to_stop_lat":"42.375392","to_stop_lon":"-71.118487","to_stop_placename":"Cambridge, MA, USA","to_stop":{"id":"816","name":"origin","lat":"42.375392","lon":"-71.118487","placename":"Cambridge, MA, USA"},"from_stop":{"name":"origin","id":"2925","lat":"44.889042","lon":"-72.428719","placename":"Westfield, Vermont, USA"}}]}}},"processes":[],"eols":[]},{"oid":"465","imid":"850","linkid":"","weight":"0","rawemissions":"0","emissions":"0","shipping":"185.77","processemissions":null,"endoflifeemissions":null,"disposaltype":null,"disposalenergy":null,"disposalimpact":null,"disposalemissions":null,"description":"","name":"Birkshire Blue","id":"850","stops":{"origin":{"related_to":"850","part_or_object":"p","notes":"","placename":"Great Barrington, MA, USA","id":2926,"name":"origin","lat":"42.195853","lon":"-73.361195","hops":{"incoming":[],"outgoing":[{"transport_id":"17","id":"675","transport_name":"None Selected","transport_description":null,"transport_unit":"kg km","transport_co2_eq":"0.000000","from_stop_id":"2926","from_stop_lat":"42.195853","from_stop_lon":"-73.361195","from_stop_placename":"Great Barrington, MA, USA","to_stop_id":"816","to_stop_name":"origin","to_stop_lat":"42.375392","to_stop_lon":"-71.118487","to_stop_placename":"Cambridge, MA, USA","to_stop":{"id":"816","name":"origin","lat":"42.375392","lon":"-71.118487","placename":"Cambridge, MA, USA"},"from_stop":{"name":"origin","id":"2926","lat":"42.195853","lon":"-73.361195","placename":"Great Barrington, MA, USA"}}]}}},"processes":[],"eols":[]}],"user":{"name":"sttcat","id":"6141"}}}