{"466":{"oid":"466","type":"food","flag":"","creator":"6141","name":"South End Open House 2","upc":"","imagelink":"","description":"","slug":"south-end-open-house-2","category":"","weight":"0","emissions":"0","embodied":"0","transport":"0","process":"0","endoflife":"0","shipping":"20889.9","lifetime":"0","usagetype":"","usageenergy":"0","usageemissions":"0","timecreated":"2010-02-24 22:03:35.518972","timemodified":"2009-10-01 19:15:17","visibility":"public","showfootprint":"on","showembodied":"on","showtransport":"on","showprocess":"on","showendoflife":"on","showlastleg":"on","showuse":"on","showstats":"on","stops":{"origin":{"related_to":"466","part_or_object":"o","notes":"","placename":"Boston, MA, USA","id":"88","category":"1","lat":"42.35892","lon":"-71.05781","name":"origin","hops":{"incoming":[{"transport_id":"17","id":"677","transport_name":"None Selected","transport_description":null,"transport_unit":"kg km","transport_co2_eq":"0.000000","from_stop_id":"2928","from_stop_lat":"41.87194","from_stop_lon":"12.56738","to_stop_id":"88","to_stop_name":"origin","to_stop_lat":"42.35892","placename":"Italy","to_stop_lon":"-71.05781","to_stop":{"id":"88","name":"origin","lat":"42.35892","placename":"Boston, MA, USA","lon":"-71.05781"},"from_stop":{"name":"origin","id":"2928","lat":"41.87194","lon":"12.56738","placename":"Italy"}},{"transport_id":"17","id":"678","transport_name":"None Selected","transport_description":null,"transport_unit":"kg km","transport_co2_eq":"0.000000","from_stop_id":"2929","from_stop_lat":"27.6648274","from_stop_lon":"-81.5157535","to_stop_id":"88","to_stop_name":"origin","to_stop_lat":"42.35892","placename":"Florida, USA","to_stop_lon":"-71.05781","to_stop":{"id":"88","name":"origin","lat":"42.35892","placename":"Boston, MA, USA","lon":"-71.05781"},"from_stop":{"name":"origin","id":"2929","lat":"27.6648274","lon":"-81.5157535","placename":"Florida, USA"}},{"transport_id":"17","id":"679","transport_name":"None Selected","transport_description":null,"transport_unit":"kg km","transport_co2_eq":"0.000000","from_stop_id":"2930","from_stop_lat":"31.9685988","from_stop_lon":"-99.9018131","to_stop_id":"88","to_stop_name":"origin","to_stop_lat":"42.35892","placename":"Texas, USA","to_stop_lon":"-71.05781","to_stop":{"id":"88","name":"origin","lat":"42.35892","placename":"Boston, MA, USA","lon":"-71.05781"},"from_stop":{"name":"origin","id":"2930","lat":"31.9685988","lon":"-99.9018131","placename":"Texas, USA"}},{"transport_id":"17","id":"680","transport_name":"None Selected","transport_description":null,"transport_unit":"kg km","transport_co2_eq":"0.000000","from_stop_id":"2931","from_stop_lat":"36.778261","from_stop_lon":"-119.4179324","to_stop_id":"88","to_stop_name":"origin","to_stop_lat":"42.35892","placename":"California, USA","to_stop_lon":"-71.05781","to_stop":{"id":"88","name":"origin","lat":"42.35892","placename":"Boston, MA, USA","lon":"-71.05781"},"from_stop":{"name":"origin","id":"2931","lat":"36.778261","lon":"-119.4179324","placename":"California, USA"}},{"transport_id":"17","id":"681","transport_name":"None Selected","transport_description":null,"transport_unit":"kg km","transport_co2_eq":"0.000000","from_stop_id":"2932","from_stop_lat":"40.463667","from_stop_lon":"-3.74922","to_stop_id":"88","to_stop_name":"origin","to_stop_lat":"42.35892","placename":"Spain","to_stop_lon":"-71.05781","to_stop":{"id":"88","name":"origin","lat":"42.35892","placename":"Boston, MA, USA","lon":"-71.05781"},"from_stop":{"name":"origin","id":"2932","lat":"40.463667","lon":"-3.74922","placename":"Spain"}},{"transport_id":"17","id":"682","transport_name":"None Selected","transport_description":null,"transport_unit":"kg km","transport_co2_eq":"0.000000","from_stop_id":"2933","from_stop_lat":"0","from_stop_lon":"0","to_stop_id":"88","to_stop_name":"origin","to_stop_lat":"42.35892","placename":"Ingredient Source","to_stop_lon":"-71.05781","to_stop":{"id":"88","name":"origin","lat":"42.35892","placename":"Boston, MA, USA","lon":"-71.05781"},"from_stop":{"name":"origin","id":"2933","lat":"0","lon":"0","placename":"Ingredient Source"}}],"outgoing":[]}}},"parts":[{"oid":"466","imid":"852","linkid":"","weight":"0","rawemissions":"0","emissions":"0","shipping":"6599.22","processemissions":null,"endoflifeemissions":null,"disposaltype":null,"disposalenergy":null,"disposalimpact":null,"disposalemissions":null,"description":"","name":"EVOO","id":"852","stops":{"origin":{"related_to":"852","part_or_object":"p","notes":"","placename":"Italy","id":2928,"name":"origin","lat":"41.87194","lon":"12.56738","hops":{"incoming":[],"outgoing":[{"transport_id":"17","id":"677","transport_name":"None Selected","transport_description":null,"transport_unit":"kg km","transport_co2_eq":"0.000000","from_stop_id":"2928","from_stop_lat":"41.87194","from_stop_lon":"12.56738","from_stop_placename":"Italy","to_stop_id":"88","to_stop_name":"origin","to_stop_lat":"42.35892","to_stop_lon":"-71.05781","to_stop_placename":"Boston, MA, USA","to_stop":{"id":"88","name":"origin","lat":"42.35892","lon":"-71.05781","placename":"Boston, MA, USA"},"from_stop":{"name":"origin","id":"2928","lat":"41.87194","lon":"12.56738","placename":"Italy"}}]}}},"processes":[],"eols":[]},{"oid":"466","imid":"853","linkid":"","weight":"0","rawemissions":"0","emissions":"0","shipping":"1889.87","processemissions":null,"endoflifeemissions":null,"disposaltype":null,"disposalenergy":null,"disposalimpact":null,"disposalemissions":null,"description":"","name":"Sugar","id":"853","stops":{"origin":{"related_to":"853","part_or_object":"p","notes":"","placename":"Florida, USA","id":2929,"name":"origin","lat":"27.6648274","lon":"-81.5157535","hops":{"incoming":[],"outgoing":[{"transport_id":"17","id":"678","transport_name":"None Selected","transport_description":null,"transport_unit":"kg km","transport_co2_eq":"0.000000","from_stop_id":"2929","from_stop_lat":"27.6648274","from_stop_lon":"-81.5157535","from_stop_placename":"Florida, USA","to_stop_id":"88","to_stop_name":"origin","to_stop_lat":"42.35892","to_stop_lon":"-71.05781","to_stop_placename":"Boston, MA, USA","to_stop":{"id":"88","name":"origin","lat":"42.35892","lon":"-71.05781","placename":"Boston, MA, USA"},"from_stop":{"name":"origin","id":"2929","lat":"27.6648274","lon":"-81.5157535","placename":"Florida, USA"}}]}}},"processes":[],"eols":[]},{"oid":"466","imid":"854","linkid":"","weight":"0","rawemissions":"0","emissions":"0","shipping":"2790.19","processemissions":null,"endoflifeemissions":null,"disposaltype":null,"disposalenergy":null,"disposalimpact":null,"disposalemissions":null,"description":"","name":"Walnuts","id":"854","stops":{"origin":{"related_to":"854","part_or_object":"p","notes":"","placename":"Texas, USA","id":2930,"name":"origin","lat":"31.9685988","lon":"-99.9018131","hops":{"incoming":[],"outgoing":[{"transport_id":"17","id":"679","transport_name":"None Selected","transport_description":null,"transport_unit":"kg km","transport_co2_eq":"0.000000","from_stop_id":"2930","from_stop_lat":"31.9685988","from_stop_lon":"-99.9018131","from_stop_placename":"Texas, USA","to_stop_id":"88","to_stop_name":"origin","to_stop_lat":"42.35892","to_stop_lon":"-71.05781","to_stop_placename":"Boston, MA, USA","to_stop":{"id":"88","name":"origin","lat":"42.35892","lon":"-71.05781","placename":"Boston, MA, USA"},"from_stop":{"name":"origin","id":"2930","lat":"31.9685988","lon":"-99.9018131","placename":"Texas, USA"}}]}}},"processes":[],"eols":[]},{"oid":"466","imid":"855","linkid":"","weight":"0","rawemissions":"0","emissions":"0","shipping":"4139.71","processemissions":null,"endoflifeemissions":null,"disposaltype":null,"disposalenergy":null,"disposalimpact":null,"disposalemissions":null,"description":"","name":"Endive","id":"855","stops":{"origin":{"related_to":"855","part_or_object":"p","notes":"","placename":"California, USA","id":2931,"name":"origin","lat":"36.778261","lon":"-119.4179324","hops":{"incoming":[],"outgoing":[{"transport_id":"17","id":"680","transport_name":"None Selected","transport_description":null,"transport_unit":"kg km","transport_co2_eq":"0.000000","from_stop_id":"2931","from_stop_lat":"36.778261","from_stop_lon":"-119.4179324","from_stop_placename":"California, USA","to_stop_id":"88","to_stop_name":"origin","to_stop_lat":"42.35892","to_stop_lon":"-71.05781","to_stop_placename":"Boston, MA, USA","to_stop":{"id":"88","name":"origin","lat":"42.35892","lon":"-71.05781","placename":"Boston, MA, USA"},"from_stop":{"name":"origin","id":"2931","lat":"36.778261","lon":"-119.4179324","placename":"California, USA"}}]}}},"processes":[],"eols":[]},{"oid":"466","imid":"856","linkid":"","weight":"0","rawemissions":"0","emissions":"0","shipping":"5470.91","processemissions":null,"endoflifeemissions":null,"disposaltype":null,"disposalenergy":null,"disposalimpact":null,"disposalemissions":null,"description":"","name":"Sherry Vinaigrette","id":"856","stops":{"origin":{"related_to":"856","part_or_object":"p","notes":"","placename":"Spain","id":2932,"name":"origin","lat":"40.463667","lon":"-3.74922","hops":{"incoming":[],"outgoing":[{"transport_id":"17","id":"681","transport_name":"None Selected","transport_description":null,"transport_unit":"kg km","transport_co2_eq":"0.000000","from_stop_id":"2932","from_stop_lat":"40.463667","from_stop_lon":"-3.74922","from_stop_placename":"Spain","to_stop_id":"88","to_stop_name":"origin","to_stop_lat":"42.35892","to_stop_lon":"-71.05781","to_stop_placename":"Boston, MA, USA","to_stop":{"id":"88","name":"origin","lat":"42.35892","lon":"-71.05781","placename":"Boston, MA, USA"},"from_stop":{"name":"origin","id":"2932","lat":"40.463667","lon":"-3.74922","placename":"Spain"}}]}}},"processes":[],"eols":[]},{"oid":"466","imid":"857","linkid":"","weight":"0","rawemissions":"0","emissions":"0","shipping":"0","processemissions":null,"endoflifeemissions":null,"disposaltype":null,"disposalenergy":null,"disposalimpact":null,"disposalemissions":null,"description":"","name":"Ingredient","id":"857","stops":{"origin":{"related_to":"857","part_or_object":"p","notes":"","placename":"Ingredient Source","id":2933,"name":"origin","lat":"0","lon":"0","hops":{"incoming":[],"outgoing":[{"transport_id":"17","id":"682","transport_name":"None Selected","transport_description":null,"transport_unit":"kg km","transport_co2_eq":"0.000000","from_stop_id":"2933","from_stop_lat":"0","from_stop_lon":"0","from_stop_placename":"Ingredient Source","to_stop_id":"88","to_stop_name":"origin","to_stop_lat":"42.35892","to_stop_lon":"-71.05781","to_stop_placename":"Boston, MA, USA","to_stop":{"id":"88","name":"origin","lat":"42.35892","lon":"-71.05781","placename":"Boston, MA, USA"},"from_stop":{"name":"origin","id":"2933","lat":"0","lon":"0","placename":"Ingredient Source"}}]}}},"processes":[],"eols":[]}],"user":{"name":"sttcat","id":"6141"}}}