{"471":{"oid":"471","type":"trace","flag":"","creator":"12333","name":"Loft Renovation","upc":"","imagelink":"","description":"Tracing the materials for renovating our Bushwick loft.","slug":"Loft-Renovation","category":"","weight":"0","emissions":"0","embodied":"0","transport":"0","process":null,"endoflife":null,"shipping":"5.52","lifetime":null,"usagetype":"","usageenergy":null,"usageemissions":null,"timecreated":"2011-02-12 19:36:49","timemodified":"2011-02-14 09:01:07","visibility":"public","showfootprint":"on","showembodied":"on","showtransport":"on","showprocess":"on","showendoflife":"on","showlastleg":"on","showuse":"on","showstats":"on","stops":{"origin":{"related_to":"471","part_or_object":"o","notes":null,"placename":"Brooklyn, NY 11221, USA","id":"10863","category":"1","lat":"40.6922874","lon":"-73.9266891","name":"origin","hops":{"incoming":[{"transport_id":null,"id":"7672","transport_name":null,"transport_description":null,"transport_unit":null,"transport_co2_eq":null,"from_stop_id":"10864","from_stop_lat":"40.691707","from_stop_lon":"-73.948476","to_stop_id":"10863","to_stop_name":"origin","to_stop_lat":"40.6922874","placename":"Dekalb Ave, Brooklyn, NY, USA","to_stop_lon":"-73.9266891","to_stop":{"id":"10863","name":"origin","lat":"40.6922874","placename":"Brooklyn, NY 11221, USA","lon":"-73.9266891"},"from_stop":{"name":"origin","id":"10864","lat":"40.691707","lon":"-73.948476","placename":"Dekalb Ave, Brooklyn, NY, USA"}},{"transport_id":null,"id":"7673","transport_name":null,"transport_description":null,"transport_unit":null,"transport_co2_eq":null,"from_stop_id":"10865","from_stop_lat":"40.691707","from_stop_lon":"-73.948476","to_stop_id":"10863","to_stop_name":"origin","to_stop_lat":"40.6922874","placename":"Dekalb Ave, Brooklyn, NY, USA","to_stop_lon":"-73.9266891","to_stop":{"id":"10863","name":"origin","lat":"40.6922874","placename":"Brooklyn, NY 11221, USA","lon":"-73.9266891"},"from_stop":{"name":"origin","id":"10865","lat":"40.691707","lon":"-73.948476","placename":"Dekalb Ave, Brooklyn, NY, USA"}},{"transport_id":null,"id":"7674","transport_name":null,"transport_description":null,"transport_unit":null,"transport_co2_eq":null,"from_stop_id":"10866","from_stop_lat":"40.691707","from_stop_lon":"-73.948476","to_stop_id":"10863","to_stop_name":"origin","to_stop_lat":"40.6922874","placename":"Dekalb Ave, Brooklyn, NY, USA","to_stop_lon":"-73.9266891","to_stop":{"id":"10863","name":"origin","lat":"40.6922874","placename":"Brooklyn, NY 11221, USA","lon":"-73.9266891"},"from_stop":{"name":"origin","id":"10866","lat":"40.691707","lon":"-73.948476","placename":"Dekalb Ave, Brooklyn, NY, USA"}}],"outgoing":[]}}},"parts":[{"oid":"471","imid":"5913","linkid":"0","weight":"0","rawemissions":"0","emissions":"0","shipping":"1.84","processemissions":"0","endoflifeemissions":"0","disposaltype":null,"disposalenergy":null,"disposalimpact":null,"disposalemissions":null,"description":"","name":"Sheetrock","id":"5913","stops":{"origin":{"related_to":"5913","part_or_object":"p","notes":null,"placename":"Dekalb Ave, Brooklyn, NY, USA","id":10864,"name":"origin","lat":"40.691707","lon":"-73.948476","hops":{"incoming":[],"outgoing":[{"transport_id":null,"id":"7672","transport_name":null,"transport_description":null,"transport_unit":null,"transport_co2_eq":null,"from_stop_id":"10864","from_stop_lat":"40.691707","from_stop_lon":"-73.948476","from_stop_placename":"Dekalb Ave, Brooklyn, NY, USA","to_stop_id":"10863","to_stop_name":"origin","to_stop_lat":"40.6922874","to_stop_lon":"-73.9266891","to_stop_placename":"Brooklyn, NY 11221, USA","to_stop":{"id":"10863","name":"origin","lat":"40.6922874","lon":"-73.9266891","placename":"Brooklyn, NY 11221, USA"},"from_stop":{"name":"origin","id":"10864","lat":"40.691707","lon":"-73.948476","placename":"Dekalb Ave, Brooklyn, NY, USA"}}]}}},"processes":[],"eols":[]},{"oid":"471","imid":"5914","linkid":"0","weight":"0","rawemissions":"0","emissions":"0","shipping":"1.84","processemissions":"0","endoflifeemissions":"0","disposaltype":null,"disposalenergy":null,"disposalimpact":null,"disposalemissions":null,"description":"","name":"Pine, 2\" x 4\" x 96\"","id":"5914","stops":{"origin":{"related_to":"5914","part_or_object":"p","notes":null,"placename":"Dekalb Ave, Brooklyn, NY, USA","id":10865,"name":"origin","lat":"40.691707","lon":"-73.948476","hops":{"incoming":[],"outgoing":[{"transport_id":null,"id":"7673","transport_name":null,"transport_description":null,"transport_unit":null,"transport_co2_eq":null,"from_stop_id":"10865","from_stop_lat":"40.691707","from_stop_lon":"-73.948476","from_stop_placename":"Dekalb Ave, Brooklyn, NY, USA","to_stop_id":"10863","to_stop_name":"origin","to_stop_lat":"40.6922874","to_stop_lon":"-73.9266891","to_stop_placename":"Brooklyn, NY 11221, USA","to_stop":{"id":"10863","name":"origin","lat":"40.6922874","lon":"-73.9266891","placename":"Brooklyn, NY 11221, USA"},"from_stop":{"name":"origin","id":"10865","lat":"40.691707","lon":"-73.948476","placename":"Dekalb Ave, Brooklyn, NY, USA"}}]}}},"processes":[],"eols":[]},{"oid":"471","imid":"5915","linkid":"0","weight":"0","rawemissions":"0","emissions":"0","shipping":"1.84","processemissions":"0","endoflifeemissions":"0","disposaltype":null,"disposalenergy":null,"disposalimpact":null,"disposalemissions":null,"description":"","name":"Drywall Screws","id":"5915","stops":{"origin":{"related_to":"5915","part_or_object":"p","notes":null,"placename":"Dekalb Ave, Brooklyn, NY, USA","id":10866,"name":"origin","lat":"40.691707","lon":"-73.948476","hops":{"incoming":[],"outgoing":[{"transport_id":null,"id":"7674","transport_name":null,"transport_description":null,"transport_unit":null,"transport_co2_eq":null,"from_stop_id":"10866","from_stop_lat":"40.691707","from_stop_lon":"-73.948476","from_stop_placename":"Dekalb Ave, Brooklyn, NY, USA","to_stop_id":"10863","to_stop_name":"origin","to_stop_lat":"40.6922874","to_stop_lon":"-73.9266891","to_stop_placename":"Brooklyn, NY 11221, USA","to_stop":{"id":"10863","name":"origin","lat":"40.6922874","lon":"-73.9266891","placename":"Brooklyn, NY 11221, USA"},"from_stop":{"name":"origin","id":"10866","lat":"40.691707","lon":"-73.948476","placename":"Dekalb Ave, Brooklyn, NY, USA"}}]}}},"processes":[],"eols":[]}],"user":{"name":"corrie_vs","id":"12333"}}}