{"472":{"oid":"472","type":"object","flag":"","creator":"6137","name":"watercolor kit","upc":"","imagelink":"","description":"","slug":"watercolor-kit","category":"","weight":"0.137","emissions":"0.176067","embodied":"0.16","transport":"0.0160669","process":"0","endoflife":"0","shipping":"58504.1","lifetime":"0","usagetype":"","usageenergy":"0","usageemissions":"0","timecreated":"2010-02-24 22:03:35.520458","timemodified":"2009-10-07 05:39:19","visibility":"public","showfootprint":"on","showembodied":"on","showtransport":"on","showprocess":"on","showendoflife":"on","showlastleg":"on","showuse":"on","showstats":"on","stops":{"origin":{"related_to":"472","part_or_object":"o","notes":"","placename":"The Netherlands","id":"89","category":"1","lat":"52.132633","lon":"5.291266","name":"origin","hops":{"incoming":[{"transport_id":"17","id":"686","transport_name":"None Selected","transport_description":null,"transport_unit":"kg km","transport_co2_eq":"0.000000","from_stop_id":"2937","from_stop_lat":"30.691967","from_stop_lon":"111.286471","to_stop_id":"89","to_stop_name":"origin","to_stop_lat":"52.132633","placename":"Yichang, Hubei, China","to_stop_lon":"5.291266","to_stop":{"id":"89","name":"origin","lat":"52.132633","placename":"The Netherlands","lon":"5.291266"},"from_stop":{"name":"origin","id":"2937","lat":"30.691967","lon":"111.286471","placename":"Yichang, Hubei, China"}},{"transport_id":"17","id":"732","transport_name":"None Selected","transport_description":null,"transport_unit":"kg km","transport_co2_eq":"0.000000","from_stop_id":"2983","from_stop_lat":"30.691967","from_stop_lon":"111.286471","to_stop_id":"89","to_stop_name":"origin","to_stop_lat":"52.132633","placename":"Yichang, Hubei, China","to_stop_lon":"5.291266","to_stop":{"id":"89","name":"origin","lat":"52.132633","placename":"The Netherlands","lon":"5.291266"},"from_stop":{"name":"origin","id":"2983","lat":"30.691967","lon":"111.286471","placename":"Yichang, Hubei, China"}},{"transport_id":"17","id":"733","transport_name":"None Selected","transport_description":null,"transport_unit":"kg km","transport_co2_eq":"0.000000","from_stop_id":"2984","from_stop_lat":"30.691967","from_stop_lon":"111.286471","to_stop_id":"89","to_stop_name":"origin","to_stop_lat":"52.132633","placename":"Yichang, Hubei, China","to_stop_lon":"5.291266","to_stop":{"id":"89","name":"origin","lat":"52.132633","placename":"The Netherlands","lon":"5.291266"},"from_stop":{"name":"origin","id":"2984","lat":"30.691967","lon":"111.286471","placename":"Yichang, Hubei, China"}},{"transport_id":"17","id":"738","transport_name":"None Selected","transport_description":null,"transport_unit":"kg km","transport_co2_eq":"0.000000","from_stop_id":"2989","from_stop_lat":"30.691967","from_stop_lon":"111.286471","to_stop_id":"89","to_stop_name":"origin","to_stop_lat":"52.132633","placename":"Yichang, Hubei, China","to_stop_lon":"5.291266","to_stop":{"id":"89","name":"origin","lat":"52.132633","placename":"The Netherlands","lon":"5.291266"},"from_stop":{"name":"origin","id":"2989","lat":"30.691967","lon":"111.286471","placename":"Yichang, Hubei, China"}},{"transport_id":"17","id":"740","transport_name":"None Selected","transport_description":null,"transport_unit":"kg km","transport_co2_eq":"0.000000","from_stop_id":"2991","from_stop_lat":"30.691967","from_stop_lon":"111.286471","to_stop_id":"89","to_stop_name":"origin","to_stop_lat":"52.132633","placename":"Yichang, Hubei, China","to_stop_lon":"5.291266","to_stop":{"id":"89","name":"origin","lat":"52.132633","placename":"The Netherlands","lon":"5.291266"},"from_stop":{"name":"origin","id":"2991","lat":"30.691967","lon":"111.286471","placename":"Yichang, Hubei, China"}},{"transport_id":"17","id":"741","transport_name":"None Selected","transport_description":null,"transport_unit":"kg km","transport_co2_eq":"0.000000","from_stop_id":"2992","from_stop_lat":"30.691967","from_stop_lon":"111.286471","to_stop_id":"89","to_stop_name":"origin","to_stop_lat":"52.132633","placename":"Yichang, Hubei, China","to_stop_lon":"5.291266","to_stop":{"id":"89","name":"origin","lat":"52.132633","placename":"The Netherlands","lon":"5.291266"},"from_stop":{"name":"origin","id":"2992","lat":"30.691967","lon":"111.286471","placename":"Yichang, Hubei, China"}},{"transport_id":"17","id":"743","transport_name":"None Selected","transport_description":null,"transport_unit":"kg km","transport_co2_eq":"0.000000","from_stop_id":"2994","from_stop_lat":"30.691967","from_stop_lon":"111.286471","to_stop_id":"89","to_stop_name":"origin","to_stop_lat":"52.132633","placename":"Yichang, Hubei, China","to_stop_lon":"5.291266","to_stop":{"id":"89","name":"origin","lat":"52.132633","placename":"The Netherlands","lon":"5.291266"},"from_stop":{"name":"origin","id":"2994","lat":"30.691967","lon":"111.286471","placename":"Yichang, Hubei, China"}}],"outgoing":[]}}},"parts":[{"oid":"472","imid":"915","linkid":"","weight":"0.041","rawemissions":"1.2","emissions":"0.05","shipping":"8357.73","processemissions":null,"endoflifeemissions":null,"disposaltype":null,"disposalenergy":null,"disposalimpact":null,"disposalemissions":null,"description":"Flexible polyvinyl chloride without lead phthalates or DEHP, Exterior case.","name":"PVC flexible","id":"915","stops":{"origin":{"related_to":"915","part_or_object":"p","notes":"","placename":"Yichang, Hubei, China","id":2937,"name":"origin","lat":"30.691967","lon":"111.286471","hops":{"incoming":[],"outgoing":[{"transport_id":"17","id":"686","transport_name":"None Selected","transport_description":null,"transport_unit":"kg km","transport_co2_eq":"0.000000","from_stop_id":"2937","from_stop_lat":"30.691967","from_stop_lon":"111.286471","from_stop_placename":"Yichang, Hubei, China","to_stop_id":"89","to_stop_name":"origin","to_stop_lat":"52.132633","to_stop_lon":"5.291266","to_stop_placename":"The Netherlands","to_stop":{"id":"89","name":"origin","lat":"52.132633","lon":"5.291266","placename":"The Netherlands"},"from_stop":{"name":"origin","id":"2937","lat":"30.691967","lon":"111.286471","placename":"Yichang, Hubei, China"}}]}}},"processes":[],"eols":[]},{"oid":"472","imid":"909","linkid":"","weight":"0.01","rawemissions":"2","emissions":"0.02","shipping":"8357.73","processemissions":null,"endoflifeemissions":null,"disposaltype":null,"disposalenergy":null,"disposalimpact":null,"disposalemissions":null,"description":"General purpose polystyrene","name":"GPS virgin","id":"909","stops":{"origin":{"related_to":"909","part_or_object":"p","notes":"","placename":"Yichang, Hubei, China","id":2983,"name":"origin","lat":"30.691967","lon":"111.286471","hops":{"incoming":[],"outgoing":[{"transport_id":"17","id":"732","transport_name":"None Selected","transport_description":null,"transport_unit":"kg km","transport_co2_eq":"0.000000","from_stop_id":"2983","from_stop_lat":"30.691967","from_stop_lon":"111.286471","from_stop_placename":"Yichang, Hubei, China","to_stop_id":"89","to_stop_name":"origin","to_stop_lat":"52.132633","to_stop_lon":"5.291266","to_stop_placename":"The Netherlands","to_stop":{"id":"89","name":"origin","lat":"52.132633","lon":"5.291266","placename":"The Netherlands"},"from_stop":{"name":"origin","id":"2983","lat":"30.691967","lon":"111.286471","placename":"Yichang, Hubei, China"}}]}}},"processes":[],"eols":[]},{"oid":"472","imid":"910","linkid":"","weight":"0.01","rawemissions":"1.3","emissions":"0.01","shipping":"8357.73","processemissions":null,"endoflifeemissions":null,"disposaltype":null,"disposalenergy":null,"disposalimpact":null,"disposalemissions":null,"description":"ethylene propylene diene rubber","name":"EPDM elastomer","id":"910","stops":{"origin":{"related_to":"910","part_or_object":"p","notes":"","placename":"Yichang, Hubei, China","id":2984,"name":"origin","lat":"30.691967","lon":"111.286471","hops":{"incoming":[],"outgoing":[{"transport_id":"17","id":"733","transport_name":"None Selected","transport_description":null,"transport_unit":"kg km","transport_co2_eq":"0.000000","from_stop_id":"2984","from_stop_lat":"30.691967","from_stop_lon":"111.286471","from_stop_placename":"Yichang, Hubei, China","to_stop_id":"89","to_stop_name":"origin","to_stop_lat":"52.132633","to_stop_lon":"5.291266","to_stop_placename":"The Netherlands","to_stop":{"id":"89","name":"origin","lat":"52.132633","lon":"5.291266","placename":"The Netherlands"},"from_stop":{"name":"origin","id":"2984","lat":"30.691967","lon":"111.286471","placename":"Yichang, Hubei, China"}}]}}},"processes":[],"eols":[]},{"oid":"472","imid":"916","linkid":"","weight":"0.014","rawemissions":"2","emissions":"0.03","shipping":"8357.73","processemissions":null,"endoflifeemissions":null,"disposaltype":null,"disposalenergy":null,"disposalimpact":null,"disposalemissions":null,"description":"General purpose polystyrene, for palette.","name":"GPS virgin","id":"916","stops":{"origin":{"related_to":"916","part_or_object":"p","notes":"","placename":"Yichang, Hubei, China","id":2989,"name":"origin","lat":"30.691967","lon":"111.286471","hops":{"incoming":[],"outgoing":[{"transport_id":"17","id":"738","transport_name":"None Selected","transport_description":null,"transport_unit":"kg km","transport_co2_eq":"0.000000","from_stop_id":"2989","from_stop_lat":"30.691967","from_stop_lon":"111.286471","from_stop_placename":"Yichang, Hubei, China","to_stop_id":"89","to_stop_name":"origin","to_stop_lat":"52.132633","to_stop_lon":"5.291266","to_stop_placename":"The Netherlands","to_stop":{"id":"89","name":"origin","lat":"52.132633","lon":"5.291266","placename":"The Netherlands"},"from_stop":{"name":"origin","id":"2989","lat":"30.691967","lon":"111.286471","placename":"Yichang, Hubei, China"}}]}}},"processes":[],"eols":[]},{"oid":"472","imid":"917","linkid":"","weight":"0.022","rawemissions":"2","emissions":"0.04","shipping":"8357.73","processemissions":null,"endoflifeemissions":null,"disposaltype":null,"disposalenergy":null,"disposalimpact":null,"disposalemissions":null,"description":"General purpose polystyrene, watercolor block holders.","name":"GPS virgin","id":"917","stops":{"origin":{"related_to":"917","part_or_object":"p","notes":"","placename":"Yichang, Hubei, China","id":2991,"name":"origin","lat":"30.691967","lon":"111.286471","hops":{"incoming":[],"outgoing":[{"transport_id":"17","id":"740","transport_name":"None Selected","transport_description":null,"transport_unit":"kg km","transport_co2_eq":"0.000000","from_stop_id":"2991","from_stop_lat":"30.691967","from_stop_lon":"111.286471","from_stop_placename":"Yichang, Hubei, China","to_stop_id":"89","to_stop_name":"origin","to_stop_lat":"52.132633","to_stop_lon":"5.291266","to_stop_placename":"The Netherlands","to_stop":{"id":"89","name":"origin","lat":"52.132633","lon":"5.291266","placename":"The Netherlands"},"from_stop":{"name":"origin","id":"2991","lat":"30.691967","lon":"111.286471","placename":"Yichang, Hubei, China"}}]}}},"processes":[],"eols":[]},{"oid":"472","imid":"918","linkid":"","weight":"0.004","rawemissions":"2","emissions":"0.01","shipping":"8357.73","processemissions":null,"endoflifeemissions":null,"disposaltype":null,"disposalenergy":null,"disposalimpact":null,"disposalemissions":null,"description":"General purpose polystyrene, brush","name":"GPS virgin","id":"918","stops":{"origin":{"related_to":"918","part_or_object":"p","notes":"","placename":"Yichang, Hubei, China","id":2992,"name":"origin","lat":"30.691967","lon":"111.286471","hops":{"incoming":[],"outgoing":[{"transport_id":"17","id":"741","transport_name":"None Selected","transport_description":null,"transport_unit":"kg km","transport_co2_eq":"0.000000","from_stop_id":"2992","from_stop_lat":"30.691967","from_stop_lon":"111.286471","from_stop_placename":"Yichang, Hubei, China","to_stop_id":"89","to_stop_name":"origin","to_stop_lat":"52.132633","to_stop_lon":"5.291266","to_stop_placename":"The Netherlands","to_stop":{"id":"89","name":"origin","lat":"52.132633","lon":"5.291266","placename":"The Netherlands"},"from_stop":{"name":"origin","id":"2992","lat":"30.691967","lon":"111.286471","placename":"Yichang, Hubei, China"}}]}}},"processes":[],"eols":[]},{"oid":"472","imid":"919","linkid":"","weight":"0.036","rawemissions":"0","emissions":"0","shipping":"8357.73","processemissions":null,"endoflifeemissions":null,"disposaltype":null,"disposalenergy":null,"disposalimpact":null,"disposalemissions":null,"description":"Gum arabic + color pigments","name":"color pigments","id":"919","stops":{"origin":{"related_to":"919","part_or_object":"p","notes":"","placename":"Yichang, Hubei, China","id":2994,"name":"origin","lat":"30.691967","lon":"111.286471","hops":{"incoming":[],"outgoing":[{"transport_id":"17","id":"743","transport_name":"None Selected","transport_description":null,"transport_unit":"kg km","transport_co2_eq":"0.000000","from_stop_id":"2994","from_stop_lat":"30.691967","from_stop_lon":"111.286471","from_stop_placename":"Yichang, Hubei, China","to_stop_id":"89","to_stop_name":"origin","to_stop_lat":"52.132633","to_stop_lon":"5.291266","to_stop_placename":"The Netherlands","to_stop":{"id":"89","name":"origin","lat":"52.132633","lon":"5.291266","placename":"The Netherlands"},"from_stop":{"name":"origin","id":"2994","lat":"30.691967","lon":"111.286471","placename":"Yichang, Hubei, China"}}]}}},"processes":[],"eols":[]}],"user":{"name":"jwong","id":"6137"}}}