{"480":{"oid":"480","type":"trace","flag":"","creator":"12314","name":"Where the Iphone 4 Originated","upc":"","imagelink":"","description":"","slug":"Where-the-Iphone-4-Originated","category":"","weight":"0","emissions":"0","embodied":"0","transport":"0","process":null,"endoflife":null,"shipping":"24031.95","lifetime":null,"usagetype":"","usageenergy":null,"usageemissions":null,"timecreated":"2011-02-14 09:52:29","timemodified":"2011-02-15 09:56:02","visibility":"public","showfootprint":"on","showembodied":"on","showtransport":"on","showprocess":"on","showendoflife":"on","showlastleg":"on","showuse":"on","showstats":"on","stops":{"origin":{"related_to":"480","part_or_object":"o","notes":null,"placename":"South Korea","id":"11124","category":"1","lat":"35.907757","lon":"127.766922","name":"origin","hops":{"incoming":[{"transport_id":null,"id":"7863","transport_name":null,"transport_description":null,"transport_unit":null,"transport_co2_eq":null,"from_stop_id":"11125","from_stop_lat":"35.907757","from_stop_lon":"127.766922","to_stop_id":"11124","to_stop_name":"origin","to_stop_lat":"35.907757","placename":"South Korea","to_stop_lon":"127.766922","to_stop":{"id":"11124","name":"origin","lat":"35.907757","placename":"South Korea","lon":"127.766922"},"from_stop":{"name":"origin","id":"11125","lat":"35.907757","lon":"127.766922","placename":"South Korea"}},{"transport_id":null,"id":"7864","transport_name":null,"transport_description":null,"transport_unit":null,"transport_co2_eq":null,"from_stop_id":"11126","from_stop_lat":"23.69781","from_stop_lon":"120.960515","to_stop_id":"11124","to_stop_name":"origin","to_stop_lat":"35.907757","placename":"Taiwan","to_stop_lon":"127.766922","to_stop":{"id":"11124","name":"origin","lat":"35.907757","placename":"South Korea","lon":"127.766922"},"from_stop":{"name":"origin","id":"11126","lat":"23.69781","lon":"120.960515","placename":"Taiwan"}},{"transport_id":null,"id":"7865","transport_name":null,"transport_description":null,"transport_unit":null,"transport_co2_eq":null,"from_stop_id":"11127","from_stop_lat":"35.86166","from_stop_lon":"104.195397","to_stop_id":"11124","to_stop_name":"origin","to_stop_lat":"35.907757","placename":"China","to_stop_lon":"127.766922","to_stop":{"id":"11124","name":"origin","lat":"35.907757","placename":"South Korea","lon":"127.766922"},"from_stop":{"name":"origin","id":"11127","lat":"35.86166","lon":"104.195397","placename":"China"}},{"transport_id":null,"id":"7866","transport_name":null,"transport_description":null,"transport_unit":null,"transport_co2_eq":null,"from_stop_id":"11128","from_stop_lat":"37.3131533102","from_stop_lon":"-121.845910916","to_stop_id":"11124","to_stop_name":"origin","to_stop_lat":"35.907757","placename":"683 Quinn Ave, San Jose, CA 95112, USA","to_stop_lon":"127.766922","to_stop":{"id":"11124","name":"origin","lat":"35.907757","placename":"South Korea","lon":"127.766922"},"from_stop":{"name":"origin","id":"11128","lat":"37.3131533102","lon":"-121.845910916","placename":"683 Quinn Ave, San Jose, CA 95112, USA"}},{"transport_id":null,"id":"7867","transport_name":null,"transport_description":null,"transport_unit":null,"transport_co2_eq":null,"from_stop_id":"11129","from_stop_lat":"40.7143528","from_stop_lon":"-74.0059731","to_stop_id":"11124","to_stop_name":"origin","to_stop_lat":"35.907757","placename":"New York, NY, USA","to_stop_lon":"127.766922","to_stop":{"id":"11124","name":"origin","lat":"35.907757","placename":"South Korea","lon":"127.766922"},"from_stop":{"name":"origin","id":"11129","lat":"40.7143528","lon":"-74.0059731","placename":"New York, NY, USA"}}],"outgoing":[]}}},"parts":[{"oid":"480","imid":"5922","linkid":"0","weight":"0","rawemissions":"0","emissions":"0","shipping":"0","processemissions":"0","endoflifeemissions":"0","disposaltype":null,"disposalenergy":null,"disposalimpact":null,"disposalemissions":null,"description":"This is were the Iphone 4 was made and originated from.","name":"Iphone 4 Made","id":"5922","stops":{"origin":{"related_to":"5922","part_or_object":"p","notes":null,"placename":"South Korea","id":11125,"name":"origin","lat":"35.907757","lon":"127.766922","hops":{"incoming":[],"outgoing":[{"transport_id":null,"id":"7863","transport_name":null,"transport_description":null,"transport_unit":null,"transport_co2_eq":null,"from_stop_id":"11125","from_stop_lat":"35.907757","from_stop_lon":"127.766922","from_stop_placename":"South Korea","to_stop_id":"11124","to_stop_name":"origin","to_stop_lat":"35.907757","to_stop_lon":"127.766922","to_stop_placename":"South Korea","to_stop":{"id":"11124","name":"origin","lat":"35.907757","lon":"127.766922","placename":"South Korea"},"from_stop":{"name":"origin","id":"11125","lat":"35.907757","lon":"127.766922","placename":"South Korea"}}]}}},"processes":[],"eols":[]},{"oid":"480","imid":"5923","linkid":"0","weight":"0","rawemissions":"0","emissions":"0","shipping":"1508.75","processemissions":"0","endoflifeemissions":"0","disposaltype":null,"disposalenergy":null,"disposalimpact":null,"disposalemissions":null,"description":"After South Korea Made it they needed more designs so Taiwan helped out and furthermore the process of the Iphone 4.","name":"Designed","id":"5923","stops":{"origin":{"related_to":"5923","part_or_object":"p","notes":null,"placename":"Taiwan","id":11126,"name":"origin","lat":"23.69781","lon":"120.960515","hops":{"incoming":[],"outgoing":[{"transport_id":null,"id":"7864","transport_name":null,"transport_description":null,"transport_unit":null,"transport_co2_eq":null,"from_stop_id":"11126","from_stop_lat":"23.69781","from_stop_lon":"120.960515","from_stop_placename":"Taiwan","to_stop_id":"11124","to_stop_name":"origin","to_stop_lat":"35.907757","to_stop_lon":"127.766922","to_stop_placename":"South Korea","to_stop":{"id":"11124","name":"origin","lat":"35.907757","lon":"127.766922","placename":"South Korea"},"from_stop":{"name":"origin","id":"11126","lat":"23.69781","lon":"120.960515","placename":"Taiwan"}}]}}},"processes":[],"eols":[]},{"oid":"480","imid":"5924","linkid":"0","weight":"0","rawemissions":"0","emissions":"0","shipping":"2120.74","processemissions":"0","endoflifeemissions":"0","disposaltype":null,"disposalenergy":null,"disposalimpact":null,"disposalemissions":null,"description":"All the pieces were then put together","name":"Assembled","id":"5924","stops":{"origin":{"related_to":"5924","part_or_object":"p","notes":null,"placename":"China","id":11127,"name":"origin","lat":"35.86166","lon":"104.195397","hops":{"incoming":[],"outgoing":[{"transport_id":null,"id":"7865","transport_name":null,"transport_description":null,"transport_unit":null,"transport_co2_eq":null,"from_stop_id":"11127","from_stop_lat":"35.86166","from_stop_lon":"104.195397","from_stop_placename":"China","to_stop_id":"11124","to_stop_name":"origin","to_stop_lat":"35.907757","to_stop_lon":"127.766922","to_stop_placename":"South Korea","to_stop":{"id":"11124","name":"origin","lat":"35.907757","lon":"127.766922","placename":"South Korea"},"from_stop":{"name":"origin","id":"11127","lat":"35.86166","lon":"104.195397","placename":"China"}}]}}},"processes":[],"eols":[]},{"oid":"480","imid":"6006","linkid":"0","weight":"0","rawemissions":"0","emissions":"0","shipping":"9180.19","processemissions":"0","endoflifeemissions":"0","disposaltype":null,"disposalenergy":null,"disposalimpact":null,"disposalemissions":null,"description":"This is were the iphone 4 is shared out to the different states and countries and being sold for prices were the company Apple can make a profit.","name":"Distributed ","id":"6006","stops":{"origin":{"related_to":"6006","part_or_object":"p","notes":null,"placename":"683 Quinn Ave, San Jose, CA 95112, USA","id":11128,"name":"origin","lat":"37.3131533102","lon":"-121.845910916","hops":{"incoming":[],"outgoing":[{"transport_id":null,"id":"7866","transport_name":null,"transport_description":null,"transport_unit":null,"transport_co2_eq":null,"from_stop_id":"11128","from_stop_lat":"37.3131533102","from_stop_lon":"-121.845910916","from_stop_placename":"683 Quinn Ave, San Jose, CA 95112, USA","to_stop_id":"11124","to_stop_name":"origin","to_stop_lat":"35.907757","to_stop_lon":"127.766922","to_stop_placename":"South Korea","to_stop":{"id":"11124","name":"origin","lat":"35.907757","lon":"127.766922","placename":"South Korea"},"from_stop":{"name":"origin","id":"11128","lat":"37.3131533102","lon":"-121.845910916","placename":"683 Quinn Ave, San Jose, CA 95112, USA"}}]}}},"processes":[],"eols":[]},{"oid":"480","imid":"6007","linkid":"0","weight":"0","rawemissions":"0","emissions":"0","shipping":"11222.27","processemissions":"0","endoflifeemissions":"0","disposaltype":null,"disposalenergy":null,"disposalimpact":null,"disposalemissions":null,"description":"","name":"Sold","id":"6007","stops":{"origin":{"related_to":"6007","part_or_object":"p","notes":null,"placename":"New York, NY, USA","id":11129,"name":"origin","lat":"40.7143528","lon":"-74.0059731","hops":{"incoming":[],"outgoing":[{"transport_id":null,"id":"7867","transport_name":null,"transport_description":null,"transport_unit":null,"transport_co2_eq":null,"from_stop_id":"11129","from_stop_lat":"40.7143528","from_stop_lon":"-74.0059731","from_stop_placename":"New York, NY, USA","to_stop_id":"11124","to_stop_name":"origin","to_stop_lat":"35.907757","to_stop_lon":"127.766922","to_stop_placename":"South Korea","to_stop":{"id":"11124","name":"origin","lat":"35.907757","lon":"127.766922","placename":"South Korea"},"from_stop":{"name":"origin","id":"11129","lat":"40.7143528","lon":"-74.0059731","placename":"New York, NY, USA"}}]}}},"processes":[],"eols":[]}],"user":{"name":"traeashby","id":"12314"}}}