{"487":{"oid":"487","type":"object","flag":"","creator":"12361","name":"20 x 20 Booth 2010","upc":"","imagelink":"","description":"","slug":"NGC-Show-2010-1","category":"","weight":"2398.2","emissions":"26547.2582105","embodied":"25815.2292","transport":"732.02901046","process":null,"endoflife":null,"shipping":"64221.47","lifetime":null,"usagetype":"","usageenergy":null,"usageemissions":null,"timecreated":"2011-02-14 16:25:26","timemodified":"2011-03-04 17:30:11","visibility":"private","showfootprint":"on","showembodied":"on","showtransport":"on","showprocess":"on","showendoflife":"on","showlastleg":"on","showuse":"on","showstats":"on","stops":{"origin":{"related_to":"487","part_or_object":"o","notes":null,"placename":"Corona, CA, USA","id":"12586","category":"1","lat":"33.8752935","lon":"-117.5664384","name":"origin","hops":{"incoming":[{"transport_id":"20","id":"9034","transport_name":"Road","transport_description":"from the Greenhouse Gas Protocol Initiative - GHG emission from transport or mobile sources calculator 2.0 (jun 2009)","transport_unit":"kg km","transport_co2_eq":"0.000204","from_stop_id":"12587","from_stop_lat":"44.8386814","from_stop_lon":"-68.7053114","to_stop_id":"12586","to_stop_name":"origin","to_stop_lat":"33.8752935","placename":"Veazie, ME 04401, USA","to_stop_lon":"-117.5664384","to_stop":{"id":"12586","name":"origin","lat":"33.8752935","placename":"Corona, CA, USA","lon":"-117.5664384"},"from_stop":{"name":"origin","id":"12587","lat":"44.8386814","lon":"-68.7053114","placename":"Veazie, ME 04401, USA"}},{"transport_id":"20","id":"9035","transport_name":"Road","transport_description":"from the Greenhouse Gas Protocol Initiative - GHG emission from transport or mobile sources calculator 2.0 (jun 2009)","transport_unit":"kg km","transport_co2_eq":"0.000204","from_stop_id":"12588","from_stop_lat":"42.3265152","from_stop_lon":"-122.8755949","to_stop_id":"12586","to_stop_name":"origin","to_stop_lat":"33.8752935","placename":"Medford, OR, USA","to_stop_lon":"-117.5664384","to_stop":{"id":"12586","name":"origin","lat":"33.8752935","placename":"Corona, CA, USA","lon":"-117.5664384"},"from_stop":{"name":"origin","id":"12588","lat":"42.3265152","lon":"-122.8755949","placename":"Medford, OR, USA"}},{"transport_id":"20","id":"9036","transport_name":"Road","transport_description":"from the Greenhouse Gas Protocol Initiative - GHG emission from transport or mobile sources calculator 2.0 (jun 2009)","transport_unit":"kg km","transport_co2_eq":"0.000204","from_stop_id":"12589","from_stop_lat":"42.3265152","from_stop_lon":"-122.8755949","to_stop_id":"12586","to_stop_name":"origin","to_stop_lat":"33.8752935","placename":"Medford, OR, USA","to_stop_lon":"-117.5664384","to_stop":{"id":"12586","name":"origin","lat":"33.8752935","placename":"Corona, CA, USA","lon":"-117.5664384"},"from_stop":{"name":"origin","id":"12589","lat":"42.3265152","lon":"-122.8755949","placename":"Medford, OR, USA"}},{"transport_id":"20","id":"9037","transport_name":"Road","transport_description":"from the Greenhouse Gas Protocol Initiative - GHG emission from transport or mobile sources calculator 2.0 (jun 2009)","transport_unit":"kg km","transport_co2_eq":"0.000204","from_stop_id":"12590","from_stop_lat":"42.3265152","from_stop_lon":"-122.8755949","to_stop_id":"12586","to_stop_name":"origin","to_stop_lat":"33.8752935","placename":"Medford, OR, USA","to_stop_lon":"-117.5664384","to_stop":{"id":"12586","name":"origin","lat":"33.8752935","placename":"Corona, CA, USA","lon":"-117.5664384"},"from_stop":{"name":"origin","id":"12590","lat":"42.3265152","lon":"-122.8755949","placename":"Medford, OR, USA"}},{"transport_id":"20","id":"9038","transport_name":"Road","transport_description":"from the Greenhouse Gas Protocol Initiative - GHG emission from transport or mobile sources calculator 2.0 (jun 2009)","transport_unit":"kg km","transport_co2_eq":"0.000204","from_stop_id":"12591","from_stop_lat":"33.9533487","from_stop_lon":"-117.3961564","to_stop_id":"12586","to_stop_name":"origin","to_stop_lat":"33.8752935","placename":"Riverside, CA, USA","to_stop_lon":"-117.5664384","to_stop":{"id":"12586","name":"origin","lat":"33.8752935","placename":"Corona, CA, USA","lon":"-117.5664384"},"from_stop":{"name":"origin","id":"12591","lat":"33.9533487","lon":"-117.3961564","placename":"Riverside, CA, USA"}},{"transport_id":"20","id":"9039","transport_name":"Road","transport_description":"from the Greenhouse Gas Protocol Initiative - GHG emission from transport or mobile sources calculator 2.0 (jun 2009)","transport_unit":"kg km","transport_co2_eq":"0.000204","from_stop_id":"12592","from_stop_lat":"56.130366","from_stop_lon":"-106.346771","to_stop_id":"12586","to_stop_name":"origin","to_stop_lat":"33.8752935","placename":"Canada","to_stop_lon":"-117.5664384","to_stop":{"id":"12586","name":"origin","lat":"33.8752935","placename":"Corona, CA, USA","lon":"-117.5664384"},"from_stop":{"name":"origin","id":"12592","lat":"56.130366","lon":"-106.346771","placename":"Canada"}},{"transport_id":"20","id":"9040","transport_name":"Road","transport_description":"from the Greenhouse Gas Protocol Initiative - GHG emission from transport or mobile sources calculator 2.0 (jun 2009)","transport_unit":"kg km","transport_co2_eq":"0.000204","from_stop_id":"12593","from_stop_lat":"42.3265152","from_stop_lon":"-122.8755949","to_stop_id":"12586","to_stop_name":"origin","to_stop_lat":"33.8752935","placename":"Medford, OR, USA","to_stop_lon":"-117.5664384","to_stop":{"id":"12586","name":"origin","lat":"33.8752935","placename":"Corona, CA, USA","lon":"-117.5664384"},"from_stop":{"name":"origin","id":"12593","lat":"42.3265152","lon":"-122.8755949","placename":"Medford, OR, USA"}},{"transport_id":"20","id":"9041","transport_name":"Road","transport_description":"from the Greenhouse Gas Protocol Initiative - GHG emission from transport or mobile sources calculator 2.0 (jun 2009)","transport_unit":"kg km","transport_co2_eq":"0.000204","from_stop_id":"12594","from_stop_lat":"42.3265152","from_stop_lon":"-122.8755949","to_stop_id":"12586","to_stop_name":"origin","to_stop_lat":"33.8752935","placename":"Medford, OR, USA","to_stop_lon":"-117.5664384","to_stop":{"id":"12586","name":"origin","lat":"33.8752935","placename":"Corona, CA, USA","lon":"-117.5664384"},"from_stop":{"name":"origin","id":"12594","lat":"42.3265152","lon":"-122.8755949","placename":"Medford, OR, USA"}},{"transport_id":"20","id":"9042","transport_name":"Road","transport_description":"from the Greenhouse Gas Protocol Initiative - GHG emission from transport or mobile sources calculator 2.0 (jun 2009)","transport_unit":"kg km","transport_co2_eq":"0.000204","from_stop_id":"12595","from_stop_lat":"42.3265152","from_stop_lon":"-122.8755949","to_stop_id":"12586","to_stop_name":"origin","to_stop_lat":"33.8752935","placename":"Medford, OR, USA","to_stop_lon":"-117.5664384","to_stop":{"id":"12586","name":"origin","lat":"33.8752935","placename":"Corona, CA, USA","lon":"-117.5664384"},"from_stop":{"name":"origin","id":"12595","lat":"42.3265152","lon":"-122.8755949","placename":"Medford, OR, USA"}},{"transport_id":"20","id":"9043","transport_name":"Road","transport_description":"from the Greenhouse Gas Protocol Initiative - GHG emission from transport or mobile sources calculator 2.0 (jun 2009)","transport_unit":"kg km","transport_co2_eq":"0.000204","from_stop_id":"12596","from_stop_lat":"42.3265152","from_stop_lon":"-122.8755949","to_stop_id":"12586","to_stop_name":"origin","to_stop_lat":"33.8752935","placename":"Medford, OR, USA","to_stop_lon":"-117.5664384","to_stop":{"id":"12586","name":"origin","lat":"33.8752935","placename":"Corona, CA, USA","lon":"-117.5664384"},"from_stop":{"name":"origin","id":"12596","lat":"42.3265152","lon":"-122.8755949","placename":"Medford, OR, USA"}},{"transport_id":"20","id":"9044","transport_name":"Road","transport_description":"from the Greenhouse Gas Protocol Initiative - GHG emission from transport or mobile sources calculator 2.0 (jun 2009)","transport_unit":"kg km","transport_co2_eq":"0.000204","from_stop_id":"12597","from_stop_lat":"33.9533487","from_stop_lon":"-117.3961564","to_stop_id":"12586","to_stop_name":"origin","to_stop_lat":"33.8752935","placename":"Riverside, CA, USA","to_stop_lon":"-117.5664384","to_stop":{"id":"12586","name":"origin","lat":"33.8752935","placename":"Corona, CA, USA","lon":"-117.5664384"},"from_stop":{"name":"origin","id":"12597","lat":"33.9533487","lon":"-117.3961564","placename":"Riverside, CA, USA"}},{"transport_id":"20","id":"9045","transport_name":"Road","transport_description":"from the Greenhouse Gas Protocol Initiative - GHG emission from transport or mobile sources calculator 2.0 (jun 2009)","transport_unit":"kg km","transport_co2_eq":"0.000204","from_stop_id":"12598","from_stop_lat":"42.9633599","from_stop_lon":"-85.6680863","to_stop_id":"12586","to_stop_name":"origin","to_stop_lat":"33.8752935","placename":"Grand Rapids, MI, USA","to_stop_lon":"-117.5664384","to_stop":{"id":"12586","name":"origin","lat":"33.8752935","placename":"Corona, CA, USA","lon":"-117.5664384"},"from_stop":{"name":"origin","id":"12598","lat":"42.9633599","lon":"-85.6680863","placename":"Grand Rapids, MI, USA"}},{"transport_id":"20","id":"9046","transport_name":"Road","transport_description":"from the Greenhouse Gas Protocol Initiative - GHG emission from transport or mobile sources calculator 2.0 (jun 2009)","transport_unit":"kg km","transport_co2_eq":"0.000204","from_stop_id":"12599","from_stop_lat":"34.0522342","from_stop_lon":"-118.2436849","to_stop_id":"12586","to_stop_name":"origin","to_stop_lat":"33.8752935","placename":"Los Angeles, CA, USA","to_stop_lon":"-117.5664384","to_stop":{"id":"12586","name":"origin","lat":"33.8752935","placename":"Corona, CA, USA","lon":"-117.5664384"},"from_stop":{"name":"origin","id":"12599","lat":"34.0522342","lon":"-118.2436849","placename":"Los Angeles, CA, USA"}},{"transport_id":"20","id":"9047","transport_name":"Road","transport_description":"from the Greenhouse Gas Protocol Initiative - GHG emission from transport or mobile sources calculator 2.0 (jun 2009)","transport_unit":"kg km","transport_co2_eq":"0.000204","from_stop_id":"12600","from_stop_lat":"36.8572781","from_stop_lon":"-88.350315","to_stop_id":"12586","to_stop_name":"origin","to_stop_lat":"33.8752935","placename":"Benton, KY 42025, USA","to_stop_lon":"-117.5664384","to_stop":{"id":"12586","name":"origin","lat":"33.8752935","placename":"Corona, CA, USA","lon":"-117.5664384"},"from_stop":{"name":"origin","id":"12600","lat":"36.8572781","lon":"-88.350315","placename":"Benton, KY 42025, USA"}},{"transport_id":"20","id":"9048","transport_name":"Road","transport_description":"from the Greenhouse Gas Protocol Initiative - GHG emission from transport or mobile sources calculator 2.0 (jun 2009)","transport_unit":"kg km","transport_co2_eq":"0.000204","from_stop_id":"12601","from_stop_lat":"56.130366","from_stop_lon":"-106.346771","to_stop_id":"12586","to_stop_name":"origin","to_stop_lat":"33.8752935","placename":"Canada","to_stop_lon":"-117.5664384","to_stop":{"id":"12586","name":"origin","lat":"33.8752935","placename":"Corona, CA, USA","lon":"-117.5664384"},"from_stop":{"name":"origin","id":"12601","lat":"56.130366","lon":"-106.346771","placename":"Canada"}},{"transport_id":"20","id":"9049","transport_name":"Road","transport_description":"from the Greenhouse Gas Protocol Initiative - GHG emission from transport or mobile sources calculator 2.0 (jun 2009)","transport_unit":"kg km","transport_co2_eq":"0.000204","from_stop_id":"12602","from_stop_lat":"56.130366","from_stop_lon":"-106.346771","to_stop_id":"12586","to_stop_name":"origin","to_stop_lat":"33.8752935","placename":"Canada","to_stop_lon":"-117.5664384","to_stop":{"id":"12586","name":"origin","lat":"33.8752935","placename":"Corona, CA, USA","lon":"-117.5664384"},"from_stop":{"name":"origin","id":"12602","lat":"56.130366","lon":"-106.346771","placename":"Canada"}},{"transport_id":"18","id":"9050","transport_name":"Sea","transport_description":"from the Greenhouse Gas Protocol Initiative - GHG emission from transport or mobile sources calculator 2.0 (jun 2009)","transport_unit":"kg km","transport_co2_eq":"0.000222","from_stop_id":"12603","from_stop_lat":"35.86166","from_stop_lon":"104.195397","to_stop_id":"12586","to_stop_name":"origin","to_stop_lat":"33.8752935","placename":"China","to_stop_lon":"-117.5664384","to_stop":{"id":"12586","name":"origin","lat":"33.8752935","placename":"Corona, CA, USA","lon":"-117.5664384"},"from_stop":{"name":"origin","id":"12603","lat":"35.86166","lon":"104.195397","placename":"China"}},{"transport_id":"20","id":"9051","transport_name":"Road","transport_description":"from the Greenhouse Gas Protocol Initiative - GHG emission from transport or mobile sources calculator 2.0 (jun 2009)","transport_unit":"kg km","transport_co2_eq":"0.000204","from_stop_id":"12604","from_stop_lat":"33.9533487","from_stop_lon":"-117.3961564","to_stop_id":"12586","to_stop_name":"origin","to_stop_lat":"33.8752935","placename":"Riverside, CA, USA","to_stop_lon":"-117.5664384","to_stop":{"id":"12586","name":"origin","lat":"33.8752935","placename":"Corona, CA, USA","lon":"-117.5664384"},"from_stop":{"name":"origin","id":"12604","lat":"33.9533487","lon":"-117.3961564","placename":"Riverside, CA, USA"}},{"transport_id":"20","id":"9052","transport_name":"Road","transport_description":"from the Greenhouse Gas Protocol Initiative - GHG emission from transport or mobile sources calculator 2.0 (jun 2009)","transport_unit":"kg km","transport_co2_eq":"0.000204","from_stop_id":"12605","from_stop_lat":"34.0197335","from_stop_lon":"-117.9586754","to_stop_id":"12586","to_stop_name":"origin","to_stop_lat":"33.8752935","placename":"Industry, CA, USA","to_stop_lon":"-117.5664384","to_stop":{"id":"12586","name":"origin","lat":"33.8752935","placename":"Corona, CA, USA","lon":"-117.5664384"},"from_stop":{"name":"origin","id":"12605","lat":"34.0197335","lon":"-117.9586754","placename":"Industry, CA, USA"}},{"transport_id":"20","id":"9053","transport_name":"Road","transport_description":"from the Greenhouse Gas Protocol Initiative - GHG emission from transport or mobile sources calculator 2.0 (jun 2009)","transport_unit":"kg km","transport_co2_eq":"0.000204","from_stop_id":"12606","from_stop_lat":"34.0197335","from_stop_lon":"-117.9586754","to_stop_id":"12586","to_stop_name":"origin","to_stop_lat":"33.8752935","placename":"Industry, CA, USA","to_stop_lon":"-117.5664384","to_stop":{"id":"12586","name":"origin","lat":"33.8752935","placename":"Corona, CA, USA","lon":"-117.5664384"},"from_stop":{"name":"origin","id":"12606","lat":"34.0197335","lon":"-117.9586754","placename":"Industry, CA, USA"}},{"transport_id":"20","id":"9054","transport_name":"Road","transport_description":"from the Greenhouse Gas Protocol Initiative - GHG emission from transport or mobile sources calculator 2.0 (jun 2009)","transport_unit":"kg km","transport_co2_eq":"0.000204","from_stop_id":"12607","from_stop_lat":"41.8006523","from_stop_lon":"-73.1212214","to_stop_id":"12586","to_stop_name":"origin","to_stop_lat":"33.8752935","placename":"Torrington, CT, USA","to_stop_lon":"-117.5664384","to_stop":{"id":"12586","name":"origin","lat":"33.8752935","placename":"Corona, CA, USA","lon":"-117.5664384"},"from_stop":{"name":"origin","id":"12607","lat":"41.8006523","lon":"-73.1212214","placename":"Torrington, CT, USA"}},{"transport_id":"20","id":"9055","transport_name":"Road","transport_description":"from the Greenhouse Gas Protocol Initiative - GHG emission from transport or mobile sources calculator 2.0 (jun 2009)","transport_unit":"kg km","transport_co2_eq":"0.000204","from_stop_id":"12608","from_stop_lat":"42.3265152","from_stop_lon":"-122.8755949","to_stop_id":"12586","to_stop_name":"origin","to_stop_lat":"33.8752935","placename":"Medford, OR, USA","to_stop_lon":"-117.5664384","to_stop":{"id":"12586","name":"origin","lat":"33.8752935","placename":"Corona, CA, USA","lon":"-117.5664384"},"from_stop":{"name":"origin","id":"12608","lat":"42.3265152","lon":"-122.8755949","placename":"Medford, OR, USA"}},{"transport_id":"20","id":"9056","transport_name":"Road","transport_description":"from the Greenhouse Gas Protocol Initiative - GHG emission from transport or mobile sources calculator 2.0 (jun 2009)","transport_unit":"kg km","transport_co2_eq":"0.000204","from_stop_id":"12609","from_stop_lat":"35.3590256","from_stop_lon":"-81.0970214","to_stop_id":"12586","to_stop_name":"origin","to_stop_lat":"33.8752935","placename":"Stanley, NC, USA","to_stop_lon":"-117.5664384","to_stop":{"id":"12586","name":"origin","lat":"33.8752935","placename":"Corona, CA, USA","lon":"-117.5664384"},"from_stop":{"name":"origin","id":"12609","lat":"35.3590256","lon":"-81.0970214","placename":"Stanley, NC, USA"}},{"transport_id":"20","id":"9057","transport_name":"Road","transport_description":"from the Greenhouse Gas Protocol Initiative - GHG emission from transport or mobile sources calculator 2.0 (jun 2009)","transport_unit":"kg km","transport_co2_eq":"0.000204","from_stop_id":"12610","from_stop_lat":"36.8572781","from_stop_lon":"-88.350315","to_stop_id":"12586","to_stop_name":"origin","to_stop_lat":"33.8752935","placename":"Benton, KY 42025, USA","to_stop_lon":"-117.5664384","to_stop":{"id":"12586","name":"origin","lat":"33.8752935","placename":"Corona, CA, USA","lon":"-117.5664384"},"from_stop":{"name":"origin","id":"12610","lat":"36.8572781","lon":"-88.350315","placename":"Benton, KY 42025, USA"}},{"transport_id":"20","id":"9058","transport_name":"Road","transport_description":"from the Greenhouse Gas Protocol Initiative - GHG emission from transport or mobile sources calculator 2.0 (jun 2009)","transport_unit":"kg km","transport_co2_eq":"0.000204","from_stop_id":"12611","from_stop_lat":"42.1391927","from_stop_lon":"-87.9289591","to_stop_id":"12586","to_stop_name":"origin","to_stop_lat":"33.8752935","placename":"Wheeling, IL, USA","to_stop_lon":"-117.5664384","to_stop":{"id":"12586","name":"origin","lat":"33.8752935","placename":"Corona, CA, USA","lon":"-117.5664384"},"from_stop":{"name":"origin","id":"12611","lat":"42.1391927","lon":"-87.9289591","placename":"Wheeling, IL, USA"}},{"transport_id":"20","id":"9059","transport_name":"Road","transport_description":"from the Greenhouse Gas Protocol Initiative - GHG emission from transport or mobile sources calculator 2.0 (jun 2009)","transport_unit":"kg km","transport_co2_eq":"0.000204","from_stop_id":"12612","from_stop_lat":"44.8386814","from_stop_lon":"-68.7053114","to_stop_id":"12586","to_stop_name":"origin","to_stop_lat":"33.8752935","placename":"Veazie, ME 04401, USA","to_stop_lon":"-117.5664384","to_stop":{"id":"12586","name":"origin","lat":"33.8752935","placename":"Corona, CA, USA","lon":"-117.5664384"},"from_stop":{"name":"origin","id":"12612","lat":"44.8386814","lon":"-68.7053114","placename":"Veazie, ME 04401, USA"}},{"transport_id":"20","id":"9060","transport_name":"Road","transport_description":"from the Greenhouse Gas Protocol Initiative - GHG emission from transport or mobile sources calculator 2.0 (jun 2009)","transport_unit":"kg km","transport_co2_eq":"0.000204","from_stop_id":"12613","from_stop_lat":"44.8386814","from_stop_lon":"-68.7053114","to_stop_id":"12586","to_stop_name":"origin","to_stop_lat":"33.8752935","placename":"Veazie, ME 04401, USA","to_stop_lon":"-117.5664384","to_stop":{"id":"12586","name":"origin","lat":"33.8752935","placename":"Corona, CA, USA","lon":"-117.5664384"},"from_stop":{"name":"origin","id":"12613","lat":"44.8386814","lon":"-68.7053114","placename":"Veazie, ME 04401, USA"}},{"transport_id":"20","id":"9061","transport_name":"Road","transport_description":"from the Greenhouse Gas Protocol Initiative - GHG emission from transport or mobile sources calculator 2.0 (jun 2009)","transport_unit":"kg km","transport_co2_eq":"0.000204","from_stop_id":"12614","from_stop_lat":"42.1391927","from_stop_lon":"-87.9289591","to_stop_id":"12586","to_stop_name":"origin","to_stop_lat":"33.8752935","placename":"Wheeling, IL, USA","to_stop_lon":"-117.5664384","to_stop":{"id":"12586","name":"origin","lat":"33.8752935","placename":"Corona, CA, USA","lon":"-117.5664384"},"from_stop":{"name":"origin","id":"12614","lat":"42.1391927","lon":"-87.9289591","placename":"Wheeling, IL, USA"}},{"transport_id":"20","id":"9062","transport_name":"Road","transport_description":"from the Greenhouse Gas Protocol Initiative - GHG emission from transport or mobile sources calculator 2.0 (jun 2009)","transport_unit":"kg km","transport_co2_eq":"0.000204","from_stop_id":"12615","from_stop_lat":"36.8572781","from_stop_lon":"-88.350315","to_stop_id":"12586","to_stop_name":"origin","to_stop_lat":"33.8752935","placename":"Benton, KY 42025, USA","to_stop_lon":"-117.5664384","to_stop":{"id":"12586","name":"origin","lat":"33.8752935","placename":"Corona, CA, USA","lon":"-117.5664384"},"from_stop":{"name":"origin","id":"12615","lat":"36.8572781","lon":"-88.350315","placename":"Benton, KY 42025, USA"}}],"outgoing":[]}}},"parts":[{"oid":"487","imid":"6333","linkid":"parts\/polyester-fabric","weight":"8.42","rawemissions":"8.9","emissions":"0","shipping":"4309.02","processemissions":"0","endoflifeemissions":"0","disposaltype":null,"disposalenergy":null,"disposalimpact":null,"disposalemissions":null,"description":"Fabric Graphics 196 sqft, Hanging Sign 196 sqft and Fabric roof 40sqft.\nall from Collabric.\nUsed the Collabric office as a manufacturers point, because they would not give out supplier's information. ","name":"Polyester fabric","id":"6333","stops":{"origin":{"related_to":"6333","part_or_object":"p","notes":null,"placename":"Veazie, ME 04401, USA","id":12587,"name":"origin","lat":"44.8386814","lon":"-68.7053114","hops":{"incoming":[],"outgoing":[{"transport_id":"20","id":"9034","transport_name":"Road","transport_description":"from the Greenhouse Gas Protocol Initiative - GHG emission from transport or mobile sources calculator 2.0 (jun 2009)","transport_unit":"kg km","transport_co2_eq":"0.000204","from_stop_id":"12587","from_stop_lat":"44.8386814","from_stop_lon":"-68.7053114","from_stop_placename":"Veazie, ME 04401, USA","to_stop_id":"12586","to_stop_name":"origin","to_stop_lat":"33.8752935","to_stop_lon":"-117.5664384","to_stop_placename":"Corona, CA, USA","to_stop":{"id":"12586","name":"origin","lat":"33.8752935","lon":"-117.5664384","placename":"Corona, CA, USA"},"from_stop":{"name":"origin","id":"12587","lat":"44.8386814","lon":"-68.7053114","placename":"Veazie, ME 04401, USA"}}]}}},"processes":[],"eols":[]},{"oid":"487","imid":"6334","linkid":"parts\/plywood-indoor","weight":"687","rawemissions":"13","emissions":"0","shipping":"1048.91","processemissions":"0","endoflifeemissions":"0","disposaltype":null,"disposalenergy":null,"disposalimpact":null,"disposalemissions":null,"description":"3\/4x4x8 birch plywood\n","name":"Plywood, Indoor","id":"6334","stops":{"origin":{"related_to":"6334","part_or_object":"p","notes":null,"placename":"Medford, OR, USA","id":12588,"name":"origin","lat":"42.3265152","lon":"-122.8755949","hops":{"incoming":[],"outgoing":[{"transport_id":"20","id":"9035","transport_name":"Road","transport_description":"from the Greenhouse Gas Protocol Initiative - GHG emission from transport or mobile sources calculator 2.0 (jun 2009)","transport_unit":"kg km","transport_co2_eq":"0.000204","from_stop_id":"12588","from_stop_lat":"42.3265152","from_stop_lon":"-122.8755949","from_stop_placename":"Medford, OR, USA","to_stop_id":"12586","to_stop_name":"origin","to_stop_lat":"33.8752935","to_stop_lon":"-117.5664384","to_stop_placename":"Corona, CA, USA","to_stop":{"id":"12586","name":"origin","lat":"33.8752935","lon":"-117.5664384","placename":"Corona, CA, USA"},"from_stop":{"name":"origin","id":"12588","lat":"42.3265152","lon":"-122.8755949","placename":"Medford, OR, USA"}}]}}},"processes":[],"eols":[]},{"oid":"487","imid":"6335","linkid":"parts\/plywood-indoor","weight":"27.2","rawemissions":"13","emissions":"0","shipping":"1048.91","processemissions":"0","endoflifeemissions":"0","disposaltype":null,"disposalenergy":null,"disposalimpact":null,"disposalemissions":null,"description":"1\/2x4x8 ply birch","name":"Plywood, Indoor","id":"6335","stops":{"origin":{"related_to":"6335","part_or_object":"p","notes":null,"placename":"Medford, OR, USA","id":12589,"name":"origin","lat":"42.3265152","lon":"-122.8755949","hops":{"incoming":[],"outgoing":[{"transport_id":"20","id":"9036","transport_name":"Road","transport_description":"from the Greenhouse Gas Protocol Initiative - GHG emission from transport or mobile sources calculator 2.0 (jun 2009)","transport_unit":"kg km","transport_co2_eq":"0.000204","from_stop_id":"12589","from_stop_lat":"42.3265152","from_stop_lon":"-122.8755949","from_stop_placename":"Medford, OR, USA","to_stop_id":"12586","to_stop_name":"origin","to_stop_lat":"33.8752935","to_stop_lon":"-117.5664384","to_stop_placename":"Corona, CA, USA","to_stop":{"id":"12586","name":"origin","lat":"33.8752935","lon":"-117.5664384","placename":"Corona, CA, USA"},"from_stop":{"name":"origin","id":"12589","lat":"42.3265152","lon":"-122.8755949","placename":"Medford, OR, USA"}}]}}},"processes":[],"eols":[]},{"oid":"487","imid":"6336","linkid":"parts\/plywood-indoor","weight":"170","rawemissions":"13","emissions":"0","shipping":"1048.91","processemissions":"0","endoflifeemissions":"0","disposaltype":null,"disposalenergy":null,"disposalimpact":null,"disposalemissions":null,"description":"3\/4x4x10 birch plywood","name":"Plywood, Indoor","id":"6336","stops":{"origin":{"related_to":"6336","part_or_object":"p","notes":null,"placename":"Medford, OR, USA","id":12590,"name":"origin","lat":"42.3265152","lon":"-122.8755949","hops":{"incoming":[],"outgoing":[{"transport_id":"20","id":"9037","transport_name":"Road","transport_description":"from the Greenhouse Gas Protocol Initiative - GHG emission from transport or mobile sources calculator 2.0 (jun 2009)","transport_unit":"kg km","transport_co2_eq":"0.000204","from_stop_id":"12590","from_stop_lat":"42.3265152","from_stop_lon":"-122.8755949","from_stop_placename":"Medford, OR, USA","to_stop_id":"12586","to_stop_name":"origin","to_stop_lat":"33.8752935","to_stop_lon":"-117.5664384","to_stop_placename":"Corona, CA, USA","to_stop":{"id":"12586","name":"origin","lat":"33.8752935","lon":"-117.5664384","placename":"Corona, CA, USA"},"from_stop":{"name":"origin","id":"12590","lat":"42.3265152","lon":"-122.8755949","placename":"Medford, OR, USA"}}]}}},"processes":[],"eols":[]},{"oid":"487","imid":"6360","linkid":"parts\/aluminum-recycled","weight":"10.9","rawemissions":"1.95","emissions":"0","shipping":"17.97","processemissions":"0","endoflifeemissions":"0","disposaltype":null,"disposalenergy":null,"disposalimpact":null,"disposalemissions":null,"description":"2\" rnd alum. Tubing\nCoast Aluminum ","name":"Aluminum, Recycled","id":"6360","stops":{"origin":{"related_to":"6360","part_or_object":"p","notes":null,"placename":"Riverside, CA, USA","id":12591,"name":"origin","lat":"33.9533487","lon":"-117.3961564","hops":{"incoming":[],"outgoing":[{"transport_id":"20","id":"9038","transport_name":"Road","transport_description":"from the Greenhouse Gas Protocol Initiative - GHG emission from transport or mobile sources calculator 2.0 (jun 2009)","transport_unit":"kg km","transport_co2_eq":"0.000204","from_stop_id":"12591","from_stop_lat":"33.9533487","from_stop_lon":"-117.3961564","from_stop_placename":"Riverside, CA, USA","to_stop_id":"12586","to_stop_name":"origin","to_stop_lat":"33.8752935","to_stop_lon":"-117.5664384","to_stop_placename":"Corona, CA, USA","to_stop":{"id":"12586","name":"origin","lat":"33.8752935","lon":"-117.5664384","placename":"Corona, CA, USA"},"from_stop":{"name":"origin","id":"12591","lat":"33.9533487","lon":"-117.3961564","placename":"Riverside, CA, USA"}}]}}},"processes":[],"eols":[]},{"oid":"487","imid":"6370","linkid":"parts\/wood-pitch-pine","weight":"121","rawemissions":"0.16","emissions":"0","shipping":"2622.34","processemissions":"0","endoflifeemissions":"0","disposaltype":null,"disposalenergy":null,"disposalimpact":null,"disposalemissions":null,"description":"California Timberline\nOrigin Canada, based on an assumption because there was no way for them to track down exactly which mill it came from. Canada was using the highest volume","name":"Wood, Pitch Pine","id":"6370","stops":{"origin":{"related_to":"6370","part_or_object":"p","notes":null,"placename":"Canada","id":12592,"name":"origin","lat":"56.130366","lon":"-106.346771","hops":{"incoming":[],"outgoing":[{"transport_id":"20","id":"9039","transport_name":"Road","transport_description":"from the Greenhouse Gas Protocol Initiative - GHG emission from transport or mobile sources calculator 2.0 (jun 2009)","transport_unit":"kg km","transport_co2_eq":"0.000204","from_stop_id":"12592","from_stop_lat":"56.130366","from_stop_lon":"-106.346771","from_stop_placename":"Canada","to_stop_id":"12586","to_stop_name":"origin","to_stop_lat":"33.8752935","to_stop_lon":"-117.5664384","to_stop_placename":"Corona, CA, USA","to_stop":{"id":"12586","name":"origin","lat":"33.8752935","lon":"-117.5664384","placename":"Corona, CA, USA"},"from_stop":{"name":"origin","id":"12592","lat":"56.130366","lon":"-106.346771","placename":"Canada"}}]}}},"processes":[],"eols":[]},{"oid":"487","imid":"6371","linkid":"parts\/plywood-outdoor","weight":"153","rawemissions":"18","emissions":"0","shipping":"1048.91","processemissions":"0","endoflifeemissions":"0","disposaltype":null,"disposalenergy":null,"disposalimpact":null,"disposalemissions":null,"description":"3\/4x4x10 plywood birch. Timber Products","name":"Plywood, Outdoor","id":"6371","stops":{"origin":{"related_to":"6371","part_or_object":"p","notes":null,"placename":"Medford, OR, USA","id":12593,"name":"origin","lat":"42.3265152","lon":"-122.8755949","hops":{"incoming":[],"outgoing":[{"transport_id":"20","id":"9040","transport_name":"Road","transport_description":"from the Greenhouse Gas Protocol Initiative - GHG emission from transport or mobile sources calculator 2.0 (jun 2009)","transport_unit":"kg km","transport_co2_eq":"0.000204","from_stop_id":"12593","from_stop_lat":"42.3265152","from_stop_lon":"-122.8755949","from_stop_placename":"Medford, OR, USA","to_stop_id":"12586","to_stop_name":"origin","to_stop_lat":"33.8752935","to_stop_lon":"-117.5664384","to_stop_placename":"Corona, CA, USA","to_stop":{"id":"12586","name":"origin","lat":"33.8752935","lon":"-117.5664384","placename":"Corona, CA, USA"},"from_stop":{"name":"origin","id":"12593","lat":"42.3265152","lon":"-122.8755949","placename":"Medford, OR, USA"}}]}}},"processes":[],"eols":[]},{"oid":"487","imid":"6372","linkid":"parts\/plywood-outdoor","weight":"281","rawemissions":"18","emissions":"0","shipping":"1048.91","processemissions":"0","endoflifeemissions":"0","disposaltype":null,"disposalenergy":null,"disposalimpact":null,"disposalemissions":null,"description":"Plywood Birch 4x8x1\/2\".\nTimber Products","name":"Plywood, Outdoor","id":"6372","stops":{"origin":{"related_to":"6372","part_or_object":"p","notes":null,"placename":"Medford, OR, USA","id":12594,"name":"origin","lat":"42.3265152","lon":"-122.8755949","hops":{"incoming":[],"outgoing":[{"transport_id":"20","id":"9041","transport_name":"Road","transport_description":"from the Greenhouse Gas Protocol Initiative - GHG emission from transport or mobile sources calculator 2.0 (jun 2009)","transport_unit":"kg km","transport_co2_eq":"0.000204","from_stop_id":"12594","from_stop_lat":"42.3265152","from_stop_lon":"-122.8755949","from_stop_placename":"Medford, OR, USA","to_stop_id":"12586","to_stop_name":"origin","to_stop_lat":"33.8752935","to_stop_lon":"-117.5664384","to_stop_placename":"Corona, CA, USA","to_stop":{"id":"12586","name":"origin","lat":"33.8752935","lon":"-117.5664384","placename":"Corona, CA, USA"},"from_stop":{"name":"origin","id":"12594","lat":"42.3265152","lon":"-122.8755949","placename":"Medford, OR, USA"}}]}}},"processes":[],"eols":[]},{"oid":"487","imid":"6373","linkid":"parts\/plywood-outdoor","weight":"190","rawemissions":"18","emissions":"0","shipping":"1048.91","processemissions":"0","endoflifeemissions":"0","disposaltype":null,"disposalenergy":null,"disposalimpact":null,"disposalemissions":null,"description":"Plywood Birch 4x8x3\/4\".\nTimber Products","name":"Plywood, Outdoor","id":"6373","stops":{"origin":{"related_to":"6373","part_or_object":"p","notes":null,"placename":"Medford, OR, USA","id":12595,"name":"origin","lat":"42.3265152","lon":"-122.8755949","hops":{"incoming":[],"outgoing":[{"transport_id":"20","id":"9042","transport_name":"Road","transport_description":"from the Greenhouse Gas Protocol Initiative - GHG emission from transport or mobile sources calculator 2.0 (jun 2009)","transport_unit":"kg km","transport_co2_eq":"0.000204","from_stop_id":"12595","from_stop_lat":"42.3265152","from_stop_lon":"-122.8755949","from_stop_placename":"Medford, OR, USA","to_stop_id":"12586","to_stop_name":"origin","to_stop_lat":"33.8752935","to_stop_lon":"-117.5664384","to_stop_placename":"Corona, CA, USA","to_stop":{"id":"12586","name":"origin","lat":"33.8752935","lon":"-117.5664384","placename":"Corona, CA, USA"},"from_stop":{"name":"origin","id":"12595","lat":"42.3265152","lon":"-122.8755949","placename":"Medford, OR, USA"}}]}}},"processes":[],"eols":[]},{"oid":"487","imid":"6374","linkid":"parts\/plywood-outdoor","weight":"125","rawemissions":"18","emissions":"0","shipping":"1048.91","processemissions":"0","endoflifeemissions":"0","disposaltype":null,"disposalenergy":null,"disposalimpact":null,"disposalemissions":null,"description":"1\/2x4x10 plywood birch,\nTimber Products","name":"Plywood, Outdoor","id":"6374","stops":{"origin":{"related_to":"6374","part_or_object":"p","notes":null,"placename":"Medford, OR, USA","id":12596,"name":"origin","lat":"42.3265152","lon":"-122.8755949","hops":{"incoming":[],"outgoing":[{"transport_id":"20","id":"9043","transport_name":"Road","transport_description":"from the Greenhouse Gas Protocol Initiative - GHG emission from transport or mobile sources calculator 2.0 (jun 2009)","transport_unit":"kg km","transport_co2_eq":"0.000204","from_stop_id":"12596","from_stop_lat":"42.3265152","from_stop_lon":"-122.8755949","from_stop_placename":"Medford, OR, USA","to_stop_id":"12586","to_stop_name":"origin","to_stop_lat":"33.8752935","to_stop_lon":"-117.5664384","to_stop_placename":"Corona, CA, USA","to_stop":{"id":"12586","name":"origin","lat":"33.8752935","lon":"-117.5664384","placename":"Corona, CA, USA"},"from_stop":{"name":"origin","id":"12596","lat":"42.3265152","lon":"-122.8755949","placename":"Medford, OR, USA"}}]}}},"processes":[],"eols":[]},{"oid":"487","imid":"6361","linkid":"parts\/aluminum-recycled","weight":"7","rawemissions":"1.95","emissions":"0","shipping":"17.97","processemissions":"0","endoflifeemissions":"0","disposaltype":null,"disposalenergy":null,"disposalimpact":null,"disposalemissions":null,"description":"1.5\" channel alum. \nCoast Aluminum ","name":"Aluminum, Recycled","id":"6361","stops":{"origin":{"related_to":"6361","part_or_object":"p","notes":null,"placename":"Riverside, CA, USA","id":12604,"name":"origin","lat":"33.9533487","lon":"-117.3961564","hops":{"incoming":[],"outgoing":[{"transport_id":"20","id":"9051","transport_name":"Road","transport_description":"from the Greenhouse Gas Protocol Initiative - GHG emission from transport or mobile sources calculator 2.0 (jun 2009)","transport_unit":"kg km","transport_co2_eq":"0.000204","from_stop_id":"12604","from_stop_lat":"33.9533487","from_stop_lon":"-117.3961564","from_stop_placename":"Riverside, CA, USA","to_stop_id":"12586","to_stop_name":"origin","to_stop_lat":"33.8752935","to_stop_lon":"-117.5664384","to_stop_placename":"Corona, CA, USA","to_stop":{"id":"12586","name":"origin","lat":"33.8752935","lon":"-117.5664384","placename":"Corona, CA, USA"},"from_stop":{"name":"origin","id":"12604","lat":"33.9533487","lon":"-117.3961564","placename":"Riverside, CA, USA"}}]}}},"processes":[],"eols":[]},{"oid":"487","imid":"6362","linkid":"parts\/aluminum-recycled","weight":"37.6","rawemissions":"1.95","emissions":"0","shipping":"39.63","processemissions":"0","endoflifeemissions":"0","disposaltype":null,"disposalenergy":null,"disposalimpact":null,"disposalemissions":null,"description":"3\"rnd alum. Tubing\nCoast Aluminum ","name":"Aluminum, Recycled","id":"6362","stops":{"origin":{"related_to":"6362","part_or_object":"p","notes":null,"placename":"Industry, CA, USA","id":12605,"name":"origin","lat":"34.0197335","lon":"-117.9586754","hops":{"incoming":[],"outgoing":[{"transport_id":"20","id":"9052","transport_name":"Road","transport_description":"from the Greenhouse Gas Protocol Initiative - GHG emission from transport or mobile sources calculator 2.0 (jun 2009)","transport_unit":"kg km","transport_co2_eq":"0.000204","from_stop_id":"12605","from_stop_lat":"34.0197335","from_stop_lon":"-117.9586754","from_stop_placename":"Industry, CA, USA","to_stop_id":"12586","to_stop_name":"origin","to_stop_lat":"33.8752935","to_stop_lon":"-117.5664384","to_stop_placename":"Corona, CA, USA","to_stop":{"id":"12586","name":"origin","lat":"33.8752935","lon":"-117.5664384","placename":"Corona, CA, USA"},"from_stop":{"name":"origin","id":"12605","lat":"34.0197335","lon":"-117.9586754","placename":"Industry, CA, USA"}}]}}},"processes":[],"eols":[]},{"oid":"487","imid":"6364","linkid":"parts\/aluminum-recycled","weight":"27.2","rawemissions":"1.95","emissions":"0","shipping":"17.97","processemissions":"0","endoflifeemissions":"0","disposaltype":null,"disposalenergy":null,"disposalimpact":null,"disposalemissions":null,"description":"1.5\" sq. alum tubing\nCoast Aluminum ","name":"Aluminum, Recycled","id":"6364","stops":{"origin":{"related_to":"6364","part_or_object":"p","notes":null,"placename":"Riverside, CA, USA","id":12597,"name":"origin","lat":"33.9533487","lon":"-117.3961564","hops":{"incoming":[],"outgoing":[{"transport_id":"20","id":"9044","transport_name":"Road","transport_description":"from the Greenhouse Gas Protocol Initiative - GHG emission from transport or mobile sources calculator 2.0 (jun 2009)","transport_unit":"kg km","transport_co2_eq":"0.000204","from_stop_id":"12597","from_stop_lat":"33.9533487","from_stop_lon":"-117.3961564","from_stop_placename":"Riverside, CA, USA","to_stop_id":"12586","to_stop_name":"origin","to_stop_lat":"33.8752935","to_stop_lon":"-117.5664384","to_stop_placename":"Corona, CA, USA","to_stop":{"id":"12586","name":"origin","lat":"33.8752935","lon":"-117.5664384","placename":"Corona, CA, USA"},"from_stop":{"name":"origin","id":"12597","lat":"33.9533487","lon":"-117.3961564","placename":"Riverside, CA, USA"}}]}}},"processes":[],"eols":[]},{"oid":"487","imid":"6363","linkid":"parts\/aluminum-recycled","weight":"20.4","rawemissions":"1.95","emissions":"0","shipping":"39.63","processemissions":"0","endoflifeemissions":"0","disposaltype":null,"disposalenergy":null,"disposalimpact":null,"disposalemissions":null,"description":"2.5\" rnd alum. Tubing\nCoast Aluminum ","name":"Aluminum, Recycled","id":"6363","stops":{"origin":{"related_to":"6363","part_or_object":"p","notes":null,"placename":"Industry, CA, USA","id":12606,"name":"origin","lat":"34.0197335","lon":"-117.9586754","hops":{"incoming":[],"outgoing":[{"transport_id":"20","id":"9053","transport_name":"Road","transport_description":"from the Greenhouse Gas Protocol Initiative - GHG emission from transport or mobile sources calculator 2.0 (jun 2009)","transport_unit":"kg km","transport_co2_eq":"0.000204","from_stop_id":"12606","from_stop_lat":"34.0197335","from_stop_lon":"-117.9586754","from_stop_placename":"Industry, CA, USA","to_stop_id":"12586","to_stop_name":"origin","to_stop_lat":"33.8752935","to_stop_lon":"-117.5664384","to_stop_placename":"Corona, CA, USA","to_stop":{"id":"12586","name":"origin","lat":"33.8752935","lon":"-117.5664384","placename":"Corona, CA, USA"},"from_stop":{"name":"origin","id":"12606","lat":"34.0197335","lon":"-117.9586754","placename":"Industry, CA, USA"}}]}}},"processes":[],"eols":[]},{"oid":"487","imid":"6365","linkid":"parts\/brass-virgin","weight":"0.91","rawemissions":"2.65","emissions":"0","shipping":"2939.07","processemissions":"0","endoflifeemissions":"0","disposaltype":null,"disposalenergy":null,"disposalimpact":null,"disposalemissions":null,"description":"","name":"Brass, Virgin","id":"6365","stops":{"origin":{"related_to":"6365","part_or_object":"p","notes":null,"placename":"Grand Rapids, MI, USA","id":12598,"name":"origin","lat":"42.9633599","lon":"-85.6680863","hops":{"incoming":[],"outgoing":[{"transport_id":"20","id":"9045","transport_name":"Road","transport_description":"from the Greenhouse Gas Protocol Initiative - GHG emission from transport or mobile sources calculator 2.0 (jun 2009)","transport_unit":"kg km","transport_co2_eq":"0.000204","from_stop_id":"12598","from_stop_lat":"42.9633599","from_stop_lon":"-85.6680863","from_stop_placename":"Grand Rapids, MI, USA","to_stop_id":"12586","to_stop_name":"origin","to_stop_lat":"33.8752935","to_stop_lon":"-117.5664384","to_stop_placename":"Corona, CA, USA","to_stop":{"id":"12586","name":"origin","lat":"33.8752935","lon":"-117.5664384","placename":"Corona, CA, USA"},"from_stop":{"name":"origin","id":"12598","lat":"42.9633599","lon":"-85.6680863","placename":"Grand Rapids, MI, USA"}}]}}},"processes":[],"eols":[]},{"oid":"487","imid":"6366","linkid":"parts\/hdpe-virgin","weight":"0.05","rawemissions":"0.8","emissions":"0","shipping":"65.56","processemissions":"0","endoflifeemissions":"0","disposaltype":null,"disposalenergy":null,"disposalimpact":null,"disposalemissions":null,"description":"Grommets by Mocket","name":"HDPE, virgin","id":"6366","stops":{"origin":{"related_to":"6366","part_or_object":"p","notes":null,"placename":"Los Angeles, CA, USA","id":12599,"name":"origin","lat":"34.0522342","lon":"-118.2436849","hops":{"incoming":[],"outgoing":[{"transport_id":"20","id":"9046","transport_name":"Road","transport_description":"from the Greenhouse Gas Protocol Initiative - GHG emission from transport or mobile sources calculator 2.0 (jun 2009)","transport_unit":"kg km","transport_co2_eq":"0.000204","from_stop_id":"12599","from_stop_lat":"34.0522342","from_stop_lon":"-118.2436849","from_stop_placename":"Los Angeles, CA, USA","to_stop_id":"12586","to_stop_name":"origin","to_stop_lat":"33.8752935","to_stop_lon":"-117.5664384","to_stop_placename":"Corona, CA, USA","to_stop":{"id":"12586","name":"origin","lat":"33.8752935","lon":"-117.5664384","placename":"Corona, CA, USA"},"from_stop":{"name":"origin","id":"12599","lat":"34.0522342","lon":"-118.2436849","placename":"Los Angeles, CA, USA"}}]}}},"processes":[],"eols":[]},{"oid":"487","imid":"6367","linkid":"parts\/pvc-flexible","weight":"28.1","rawemissions":"1.2","emissions":"0","shipping":"2662.4","processemissions":"0","endoflifeemissions":"0","disposaltype":null,"disposalenergy":null,"disposalimpact":null,"disposalemissions":null,"description":"1\/8x4x8 black sintra\n3A Composites ","name":"PVC, flexible","id":"6367","stops":{"origin":{"related_to":"6367","part_or_object":"p","notes":null,"placename":"Benton, KY 42025, USA","id":12600,"name":"origin","lat":"36.8572781","lon":"-88.350315","hops":{"incoming":[],"outgoing":[{"transport_id":"20","id":"9047","transport_name":"Road","transport_description":"from the Greenhouse Gas Protocol Initiative - GHG emission from transport or mobile sources calculator 2.0 (jun 2009)","transport_unit":"kg km","transport_co2_eq":"0.000204","from_stop_id":"12600","from_stop_lat":"36.8572781","from_stop_lon":"-88.350315","from_stop_placename":"Benton, KY 42025, USA","to_stop_id":"12586","to_stop_name":"origin","to_stop_lat":"33.8752935","to_stop_lon":"-117.5664384","to_stop_placename":"Corona, CA, USA","to_stop":{"id":"12586","name":"origin","lat":"33.8752935","lon":"-117.5664384","placename":"Corona, CA, USA"},"from_stop":{"name":"origin","id":"12600","lat":"36.8572781","lon":"-88.350315","placename":"Benton, KY 42025, USA"}}]}}},"processes":[],"eols":[]},{"oid":"487","imid":"6368","linkid":"parts\/wood-pitch-pine","weight":"65","rawemissions":"0.16","emissions":"0","shipping":"2622.34","processemissions":"0","endoflifeemissions":"0","disposaltype":null,"disposalenergy":null,"disposalimpact":null,"disposalemissions":null,"description":"California Timberline\nOrigin Canada, based on an assumption because there was no way for them to track down exactly which mill it came from. Canada was using the highest volume","name":"Wood, Pitch Pine","id":"6368","stops":{"origin":{"related_to":"6368","part_or_object":"p","notes":null,"placename":"Canada","id":12601,"name":"origin","lat":"56.130366","lon":"-106.346771","hops":{"incoming":[],"outgoing":[{"transport_id":"20","id":"9048","transport_name":"Road","transport_description":"from the Greenhouse Gas Protocol Initiative - GHG emission from transport or mobile sources calculator 2.0 (jun 2009)","transport_unit":"kg km","transport_co2_eq":"0.000204","from_stop_id":"12601","from_stop_lat":"56.130366","from_stop_lon":"-106.346771","from_stop_placename":"Canada","to_stop_id":"12586","to_stop_name":"origin","to_stop_lat":"33.8752935","to_stop_lon":"-117.5664384","to_stop_placename":"Corona, CA, USA","to_stop":{"id":"12586","name":"origin","lat":"33.8752935","lon":"-117.5664384","placename":"Corona, CA, USA"},"from_stop":{"name":"origin","id":"12601","lat":"56.130366","lon":"-106.346771","placename":"Canada"}}]}}},"processes":[],"eols":[]},{"oid":"487","imid":"6369","linkid":"parts\/wood-pitch-pine","weight":"333","rawemissions":"0.16","emissions":"0","shipping":"2622.34","processemissions":"0","endoflifeemissions":"0","disposaltype":null,"disposalenergy":null,"disposalimpact":null,"disposalemissions":null,"description":"California Timberline\nOrigin Canada, based on an assumption because there was no way for them to track down exactly which mill it came from. Canada was using the highest volume","name":"Wood, Pitch Pine","id":"6369","stops":{"origin":{"related_to":"6369","part_or_object":"p","notes":null,"placename":"Canada","id":12602,"name":"origin","lat":"56.130366","lon":"-106.346771","hops":{"incoming":[],"outgoing":[{"transport_id":"20","id":"9049","transport_name":"Road","transport_description":"from the Greenhouse Gas Protocol Initiative - GHG emission from transport or mobile sources calculator 2.0 (jun 2009)","transport_unit":"kg km","transport_co2_eq":"0.000204","from_stop_id":"12602","from_stop_lat":"56.130366","from_stop_lon":"-106.346771","from_stop_placename":"Canada","to_stop_id":"12586","to_stop_name":"origin","to_stop_lat":"33.8752935","to_stop_lon":"-117.5664384","to_stop_placename":"Corona, CA, USA","to_stop":{"id":"12586","name":"origin","lat":"33.8752935","lon":"-117.5664384","placename":"Corona, CA, USA"},"from_stop":{"name":"origin","id":"12602","lat":"56.130366","lon":"-106.346771","placename":"Canada"}}]}}},"processes":[],"eols":[]},{"oid":"487","imid":"6337","linkid":"parts\/cotton-fabric-organic","weight":"20.5","rawemissions":"0.95","emissions":"0","shipping":"11143.1","processemissions":"0","endoflifeemissions":"0","disposaltype":null,"disposalenergy":null,"disposalimpact":null,"disposalemissions":null,"description":"Based on organic cotton fabric.\nTatami is actually made from Grasses and\/or straw. \nPurchased from bamboohabitat.com","name":"Tatami Flooring, Organic","id":"6337","stops":{"origin":{"related_to":"6337","part_or_object":"p","notes":null,"placename":"China","id":12603,"name":"origin","lat":"35.86166","lon":"104.195397","hops":{"incoming":[],"outgoing":[{"transport_id":"18","id":"9050","transport_name":"Sea","transport_description":"from the Greenhouse Gas Protocol Initiative - GHG emission from transport or mobile sources calculator 2.0 (jun 2009)","transport_unit":"kg km","transport_co2_eq":"0.000222","from_stop_id":"12603","from_stop_lat":"35.86166","from_stop_lon":"104.195397","from_stop_placename":"China","to_stop_id":"12586","to_stop_name":"origin","to_stop_lat":"33.8752935","to_stop_lon":"-117.5664384","to_stop_placename":"Corona, CA, USA","to_stop":{"id":"12586","name":"origin","lat":"33.8752935","lon":"-117.5664384","placename":"Corona, CA, USA"},"from_stop":{"name":"origin","id":"12603","lat":"35.86166","lon":"104.195397","placename":"China"}}]}}},"processes":[],"eols":[]},{"oid":"487","imid":"6401","linkid":"parts\/steel-stainless","weight":"0.27","rawemissions":"6.63","emissions":"0","shipping":"3959.85","processemissions":"0","endoflifeemissions":"0","disposaltype":null,"disposalenergy":null,"disposalimpact":null,"disposalemissions":null,"description":"","name":"Steel, Stainless","id":"6401","stops":{"origin":{"related_to":"6401","part_or_object":"p","notes":null,"placename":"Torrington, CT, USA","id":12607,"name":"origin","lat":"41.8006523","lon":"-73.1212214","hops":{"incoming":[],"outgoing":[{"transport_id":"20","id":"9054","transport_name":"Road","transport_description":"from the Greenhouse Gas Protocol Initiative - GHG emission from transport or mobile sources calculator 2.0 (jun 2009)","transport_unit":"kg km","transport_co2_eq":"0.000204","from_stop_id":"12607","from_stop_lat":"41.8006523","from_stop_lon":"-73.1212214","from_stop_placename":"Torrington, CT, USA","to_stop_id":"12586","to_stop_name":"origin","to_stop_lat":"33.8752935","to_stop_lon":"-117.5664384","to_stop_placename":"Corona, CA, USA","to_stop":{"id":"12586","name":"origin","lat":"33.8752935","lon":"-117.5664384","placename":"Corona, CA, USA"},"from_stop":{"name":"origin","id":"12607","lat":"41.8006523","lon":"-73.1212214","placename":"Torrington, CT, USA"}}]}}},"processes":[],"eols":[]},{"oid":"487","imid":"6402","linkid":"parts\/plywood-indoor","weight":"21.79","rawemissions":"13","emissions":"0","shipping":"1048.91","processemissions":"0","endoflifeemissions":"0","disposaltype":null,"disposalenergy":null,"disposalimpact":null,"disposalemissions":null,"description":"1\/4x4x8 plywood","name":"Plywood, Indoor","id":"6402","stops":{"origin":{"related_to":"6402","part_or_object":"p","notes":null,"placename":"Medford, OR, USA","id":12608,"name":"origin","lat":"42.3265152","lon":"-122.8755949","hops":{"incoming":[],"outgoing":[{"transport_id":"20","id":"9055","transport_name":"Road","transport_description":"from the Greenhouse Gas Protocol Initiative - GHG emission from transport or mobile sources calculator 2.0 (jun 2009)","transport_unit":"kg km","transport_co2_eq":"0.000204","from_stop_id":"12608","from_stop_lat":"42.3265152","from_stop_lon":"-122.8755949","from_stop_placename":"Medford, OR, USA","to_stop_id":"12586","to_stop_name":"origin","to_stop_lat":"33.8752935","to_stop_lon":"-117.5664384","to_stop_placename":"Corona, CA, USA","to_stop":{"id":"12586","name":"origin","lat":"33.8752935","lon":"-117.5664384","placename":"Corona, CA, USA"},"from_stop":{"name":"origin","id":"12608","lat":"42.3265152","lon":"-122.8755949","placename":"Medford, OR, USA"}}]}}},"processes":[],"eols":[]},{"oid":"487","imid":"6395","linkid":"parts\/steel-stainless","weight":"1.93","rawemissions":"6.63","emissions":"0","shipping":"3326.24","processemissions":"0","endoflifeemissions":"0","disposaltype":null,"disposalenergy":null,"disposalimpact":null,"disposalemissions":null,"description":"Blum euro hinges","name":"Steel, Stainless","id":"6395","stops":{"origin":{"related_to":"6395","part_or_object":"p","notes":null,"placename":"Stanley, NC, USA","id":12609,"name":"origin","lat":"35.3590256","lon":"-81.0970214","hops":{"incoming":[],"outgoing":[{"transport_id":"20","id":"9056","transport_name":"Road","transport_description":"from the Greenhouse Gas Protocol Initiative - GHG emission from transport or mobile sources calculator 2.0 (jun 2009)","transport_unit":"kg km","transport_co2_eq":"0.000204","from_stop_id":"12609","from_stop_lat":"35.3590256","from_stop_lon":"-81.0970214","from_stop_placename":"Stanley, NC, USA","to_stop_id":"12586","to_stop_name":"origin","to_stop_lat":"33.8752935","to_stop_lon":"-117.5664384","to_stop_placename":"Corona, CA, USA","to_stop":{"id":"12586","name":"origin","lat":"33.8752935","lon":"-117.5664384","placename":"Corona, CA, USA"},"from_stop":{"name":"origin","id":"12609","lat":"35.3590256","lon":"-81.0970214","placename":"Stanley, NC, USA"}}]}}},"processes":[],"eols":[]},{"oid":"487","imid":"6396","linkid":"parts\/pvc-flexible","weight":"7.14","rawemissions":"1.2","emissions":"0","shipping":"2662.4","processemissions":"0","endoflifeemissions":"0","disposaltype":null,"disposalenergy":null,"disposalimpact":null,"disposalemissions":null,"description":"Sintra Graphics (4-33\" x 65\" x 1\/4\"t)\n","name":"PVC, flexible","id":"6396","stops":{"origin":{"related_to":"6396","part_or_object":"p","notes":null,"placename":"Benton, KY 42025, USA","id":12610,"name":"origin","lat":"36.8572781","lon":"-88.350315","hops":{"incoming":[],"outgoing":[{"transport_id":"20","id":"9057","transport_name":"Road","transport_description":"from the Greenhouse Gas Protocol Initiative - GHG emission from transport or mobile sources calculator 2.0 (jun 2009)","transport_unit":"kg km","transport_co2_eq":"0.000204","from_stop_id":"12610","from_stop_lat":"36.8572781","from_stop_lon":"-88.350315","from_stop_placename":"Benton, KY 42025, USA","to_stop_id":"12586","to_stop_name":"origin","to_stop_lat":"33.8752935","to_stop_lon":"-117.5664384","to_stop_placename":"Corona, CA, USA","to_stop":{"id":"12586","name":"origin","lat":"33.8752935","lon":"-117.5664384","placename":"Corona, CA, USA"},"from_stop":{"name":"origin","id":"12610","lat":"36.8572781","lon":"-88.350315","placename":"Benton, KY 42025, USA"}}]}}},"processes":[],"eols":[]},{"oid":"487","imid":"6397","linkid":"parts\/steel-stainless","weight":"0.79","rawemissions":"6.63","emissions":"0","shipping":"2740.96","processemissions":"0","endoflifeemissions":"0","disposaltype":null,"disposalenergy":null,"disposalimpact":null,"disposalemissions":null,"description":"Locks by CCL","name":"Steel, Stainless","id":"6397","stops":{"origin":{"related_to":"6397","part_or_object":"p","notes":null,"placename":"Wheeling, IL, USA","id":12611,"name":"origin","lat":"42.1391927","lon":"-87.9289591","hops":{"incoming":[],"outgoing":[{"transport_id":"20","id":"9058","transport_name":"Road","transport_description":"from the Greenhouse Gas Protocol Initiative - GHG emission from transport or mobile sources calculator 2.0 (jun 2009)","transport_unit":"kg km","transport_co2_eq":"0.000204","from_stop_id":"12611","from_stop_lat":"42.1391927","from_stop_lon":"-87.9289591","from_stop_placename":"Wheeling, IL, USA","to_stop_id":"12586","to_stop_name":"origin","to_stop_lat":"33.8752935","to_stop_lon":"-117.5664384","to_stop_placename":"Corona, CA, USA","to_stop":{"id":"12586","name":"origin","lat":"33.8752935","lon":"-117.5664384","placename":"Corona, CA, USA"},"from_stop":{"name":"origin","id":"12611","lat":"42.1391927","lon":"-87.9289591","placename":"Wheeling, IL, USA"}}]}}},"processes":[],"eols":[]},{"oid":"487","imid":"6398","linkid":"parts\/polyester-fabric","weight":"3.82","rawemissions":"8.9","emissions":"0","shipping":"4309.02","processemissions":"0","endoflifeemissions":"0","disposaltype":null,"disposalenergy":null,"disposalimpact":null,"disposalemissions":null,"description":"Fabric for hanging sign","name":"Polyester fabric","id":"6398","stops":{"origin":{"related_to":"6398","part_or_object":"p","notes":null,"placename":"Veazie, ME 04401, USA","id":12612,"name":"origin","lat":"44.8386814","lon":"-68.7053114","hops":{"incoming":[],"outgoing":[{"transport_id":"20","id":"9059","transport_name":"Road","transport_description":"from the Greenhouse Gas Protocol Initiative - GHG emission from transport or mobile sources calculator 2.0 (jun 2009)","transport_unit":"kg km","transport_co2_eq":"0.000204","from_stop_id":"12612","from_stop_lat":"44.8386814","from_stop_lon":"-68.7053114","from_stop_placename":"Veazie, ME 04401, USA","to_stop_id":"12586","to_stop_name":"origin","to_stop_lat":"33.8752935","to_stop_lon":"-117.5664384","to_stop_placename":"Corona, CA, USA","to_stop":{"id":"12586","name":"origin","lat":"33.8752935","lon":"-117.5664384","placename":"Corona, CA, USA"},"from_stop":{"name":"origin","id":"12612","lat":"44.8386814","lon":"-68.7053114","placename":"Veazie, ME 04401, USA"}}]}}},"processes":[],"eols":[]},{"oid":"487","imid":"6399","linkid":"parts\/aluminum-recycled","weight":"25.4","rawemissions":"1.95","emissions":"0","shipping":"4309.02","processemissions":"0","endoflifeemissions":"0","disposaltype":null,"disposalenergy":null,"disposalimpact":null,"disposalemissions":null,"description":"","name":"Aluminum, Recycled","id":"6399","stops":{"origin":{"related_to":"6399","part_or_object":"p","notes":null,"placename":"Veazie, ME 04401, USA","id":12613,"name":"origin","lat":"44.8386814","lon":"-68.7053114","hops":{"incoming":[],"outgoing":[{"transport_id":"20","id":"9060","transport_name":"Road","transport_description":"from the Greenhouse Gas Protocol Initiative - GHG emission from transport or mobile sources calculator 2.0 (jun 2009)","transport_unit":"kg km","transport_co2_eq":"0.000204","from_stop_id":"12613","from_stop_lat":"44.8386814","from_stop_lon":"-68.7053114","from_stop_placename":"Veazie, ME 04401, USA","to_stop_id":"12586","to_stop_name":"origin","to_stop_lat":"33.8752935","to_stop_lon":"-117.5664384","to_stop_placename":"Corona, CA, USA","to_stop":{"id":"12586","name":"origin","lat":"33.8752935","lon":"-117.5664384","placename":"Corona, CA, USA"},"from_stop":{"name":"origin","id":"12613","lat":"44.8386814","lon":"-68.7053114","placename":"Veazie, ME 04401, USA"}}]}}},"processes":[],"eols":[]},{"oid":"487","imid":"6400","linkid":"parts\/pmma","weight":"0.18","rawemissions":"2.5","emissions":"0","shipping":"2740.96","processemissions":"0","endoflifeemissions":"0","disposaltype":null,"disposalenergy":null,"disposalimpact":null,"disposalemissions":null,"description":"Literature racks Piedmont Plastics","name":"PMMA","id":"6400","stops":{"origin":{"related_to":"6400","part_or_object":"p","notes":null,"placename":"Wheeling, IL, USA","id":12614,"name":"origin","lat":"42.1391927","lon":"-87.9289591","hops":{"incoming":[],"outgoing":[{"transport_id":"20","id":"9061","transport_name":"Road","transport_description":"from the Greenhouse Gas Protocol Initiative - GHG emission from transport or mobile sources calculator 2.0 (jun 2009)","transport_unit":"kg km","transport_co2_eq":"0.000204","from_stop_id":"12614","from_stop_lat":"42.1391927","from_stop_lon":"-87.9289591","from_stop_placename":"Wheeling, IL, USA","to_stop_id":"12586","to_stop_name":"origin","to_stop_lat":"33.8752935","to_stop_lon":"-117.5664384","to_stop_placename":"Corona, CA, USA","to_stop":{"id":"12586","name":"origin","lat":"33.8752935","lon":"-117.5664384","placename":"Corona, CA, USA"},"from_stop":{"name":"origin","id":"12614","lat":"42.1391927","lon":"-87.9289591","placename":"Wheeling, IL, USA"}}]}}},"processes":[],"eols":[]},{"oid":"487","imid":"6195","linkid":"parts\/pvc-flexible","weight":"23.6","rawemissions":"1.2","emissions":"0","shipping":"2662.4","processemissions":"0","endoflifeemissions":"0","disposaltype":null,"disposalenergy":null,"disposalimpact":null,"disposalemissions":null,"description":"Sintra material for graphics. 3A Composites. ","name":"PVC, flexible","id":"6195","stops":{"origin":{"related_to":"6195","part_or_object":"p","notes":null,"placename":"Benton, KY 42025, USA","id":12615,"name":"origin","lat":"36.8572781","lon":"-88.350315","hops":{"incoming":[],"outgoing":[{"transport_id":"20","id":"9062","transport_name":"Road","transport_description":"from the Greenhouse Gas Protocol Initiative - GHG emission from transport or mobile sources calculator 2.0 (jun 2009)","transport_unit":"kg km","transport_co2_eq":"0.000204","from_stop_id":"12615","from_stop_lat":"36.8572781","from_stop_lon":"-88.350315","from_stop_placename":"Benton, KY 42025, USA","to_stop_id":"12586","to_stop_name":"origin","to_stop_lat":"33.8752935","to_stop_lon":"-117.5664384","to_stop_placename":"Corona, CA, USA","to_stop":{"id":"12586","name":"origin","lat":"33.8752935","lon":"-117.5664384","placename":"Corona, CA, USA"},"from_stop":{"name":"origin","id":"12615","lat":"36.8572781","lon":"-88.350315","placename":"Benton, KY 42025, USA"}}]}}},"processes":[],"eols":[]}],"user":{"name":"ianbowman85","id":"12361"}}}