{"518":{"oid":"518","type":"object","flag":"","creator":"6143","name":"Bicycle","upc":"","imagelink":"","description":"A basic Trek Road Bicycle with Frameset, Wheels, and Components made by Bontrager Bicycle parts. The Bike weighs around 6 kilograms.  Assemblage takes place at the Trek Factory in Waterloo, WI, USA.","slug":"bicycle","category":"","weight":"5.888","emissions":"36.5275","embodied":"21.16","transport":"15.3675","process":"0","endoflife":"0","shipping":"94853.2","lifetime":"0","usagetype":"","usageenergy":"0","usageemissions":"0","timecreated":"2010-02-24 22:03:35.530115","timemodified":"2009-10-07 07:06:28","visibility":"public","showfootprint":"on","showembodied":"on","showtransport":"on","showprocess":"on","showendoflife":"on","showlastleg":"on","showuse":"on","showstats":"on","stops":{"origin":{"related_to":"518","part_or_object":"o","notes":"","placename":"Waterloo, WI, USA","id":"95","category":"1","lat":"43.1838843","lon":"-88.9884421","name":"origin","hops":{"incoming":[{"transport_id":"15","id":"698","transport_name":"air, freight, regional","transport_description":"freight within one continent","transport_unit":"kg km","transport_co2_eq":"0.787500","from_stop_id":"2949","from_stop_lat":"36.9741171","from_stop_lon":"-122.0307963","to_stop_id":"95","to_stop_name":"origin","to_stop_lat":"43.1838843","placename":"Santa Cruz, CA, USA","to_stop_lon":"-88.9884421","to_stop":{"id":"95","name":"origin","lat":"43.1838843","placename":"Waterloo, WI, USA","lon":"-88.9884421"},"from_stop":{"name":"origin","id":"2949","lat":"36.9741171","lon":"-122.0307963","placename":"Santa Cruz, CA, USA"}},{"transport_id":"15","id":"699","transport_name":"air, freight, regional","transport_description":"freight within one continent","transport_unit":"kg km","transport_co2_eq":"0.787500","from_stop_id":"2950","from_stop_lat":"36.9741171","from_stop_lon":"-122.0307963","to_stop_id":"95","to_stop_name":"origin","to_stop_lat":"43.1838843","placename":"Santa Cruz, CA, USA","to_stop_lon":"-88.9884421","to_stop":{"id":"95","name":"origin","lat":"43.1838843","placename":"Waterloo, WI, USA","lon":"-88.9884421"},"from_stop":{"name":"origin","id":"2950","lat":"36.9741171","lon":"-122.0307963","placename":"Santa Cruz, CA, USA"}},{"transport_id":"16","id":"700","transport_name":"air, freight, intercontinental","transport_description":"intercontinental freight","transport_unit":"kg km","transport_co2_eq":"0.450000","from_stop_id":"2951","from_stop_lat":"35.86166","from_stop_lon":"104.195397","to_stop_id":"95","to_stop_name":"origin","to_stop_lat":"43.1838843","placename":"China","to_stop_lon":"-88.9884421","to_stop":{"id":"95","name":"origin","lat":"43.1838843","placename":"Waterloo, WI, USA","lon":"-88.9884421"},"from_stop":{"name":"origin","id":"2951","lat":"35.86166","lon":"104.195397","placename":"China"}},{"transport_id":"16","id":"701","transport_name":"air, freight, intercontinental","transport_description":"intercontinental freight","transport_unit":"kg km","transport_co2_eq":"0.450000","from_stop_id":"2952","from_stop_lat":"35.86166","from_stop_lon":"104.195397","to_stop_id":"95","to_stop_name":"origin","to_stop_lat":"43.1838843","placename":"China","to_stop_lon":"-88.9884421","to_stop":{"id":"95","name":"origin","lat":"43.1838843","placename":"Waterloo, WI, USA","lon":"-88.9884421"},"from_stop":{"name":"origin","id":"2952","lat":"35.86166","lon":"104.195397","placename":"China"}},{"transport_id":"16","id":"702","transport_name":"air, freight, intercontinental","transport_description":"intercontinental freight","transport_unit":"kg km","transport_co2_eq":"0.450000","from_stop_id":"2953","from_stop_lat":"35.86166","from_stop_lon":"104.195397","to_stop_id":"95","to_stop_name":"origin","to_stop_lat":"43.1838843","placename":"China","to_stop_lon":"-88.9884421","to_stop":{"id":"95","name":"origin","lat":"43.1838843","placename":"Waterloo, WI, USA","lon":"-88.9884421"},"from_stop":{"name":"origin","id":"2953","lat":"35.86166","lon":"104.195397","placename":"China"}},{"transport_id":"16","id":"703","transport_name":"air, freight, intercontinental","transport_description":"intercontinental freight","transport_unit":"kg km","transport_co2_eq":"0.450000","from_stop_id":"2954","from_stop_lat":"35.86166","from_stop_lon":"104.195397","to_stop_id":"95","to_stop_name":"origin","to_stop_lat":"43.1838843","placename":"China","to_stop_lon":"-88.9884421","to_stop":{"id":"95","name":"origin","lat":"43.1838843","placename":"Waterloo, WI, USA","lon":"-88.9884421"},"from_stop":{"name":"origin","id":"2954","lat":"35.86166","lon":"104.195397","placename":"China"}},{"transport_id":"16","id":"704","transport_name":"air, freight, intercontinental","transport_description":"intercontinental freight","transport_unit":"kg km","transport_co2_eq":"0.450000","from_stop_id":"2955","from_stop_lat":"35.86166","from_stop_lon":"104.195397","to_stop_id":"95","to_stop_name":"origin","to_stop_lat":"43.1838843","placename":"China","to_stop_lon":"-88.9884421","to_stop":{"id":"95","name":"origin","lat":"43.1838843","placename":"Waterloo, WI, USA","lon":"-88.9884421"},"from_stop":{"name":"origin","id":"2955","lat":"35.86166","lon":"104.195397","placename":"China"}},{"transport_id":"16","id":"705","transport_name":"air, freight, intercontinental","transport_description":"intercontinental freight","transport_unit":"kg km","transport_co2_eq":"0.450000","from_stop_id":"2956","from_stop_lat":"35.86166","from_stop_lon":"104.195397","to_stop_id":"95","to_stop_name":"origin","to_stop_lat":"43.1838843","placename":"China","to_stop_lon":"-88.9884421","to_stop":{"id":"95","name":"origin","lat":"43.1838843","placename":"Waterloo, WI, USA","lon":"-88.9884421"},"from_stop":{"name":"origin","id":"2956","lat":"35.86166","lon":"104.195397","placename":"China"}},{"transport_id":"16","id":"706","transport_name":"air, freight, intercontinental","transport_description":"intercontinental freight","transport_unit":"kg km","transport_co2_eq":"0.450000","from_stop_id":"2957","from_stop_lat":"35.86166","from_stop_lon":"104.195397","to_stop_id":"95","to_stop_name":"origin","to_stop_lat":"43.1838843","placename":"China","to_stop_lon":"-88.9884421","to_stop":{"id":"95","name":"origin","lat":"43.1838843","placename":"Waterloo, WI, USA","lon":"-88.9884421"},"from_stop":{"name":"origin","id":"2957","lat":"35.86166","lon":"104.195397","placename":"China"}},{"transport_id":"16","id":"707","transport_name":"air, freight, intercontinental","transport_description":"intercontinental freight","transport_unit":"kg km","transport_co2_eq":"0.450000","from_stop_id":"2958","from_stop_lat":"35.86166","from_stop_lon":"104.195397","to_stop_id":"95","to_stop_name":"origin","to_stop_lat":"43.1838843","placename":"China","to_stop_lon":"-88.9884421","to_stop":{"id":"95","name":"origin","lat":"43.1838843","placename":"Waterloo, WI, USA","lon":"-88.9884421"},"from_stop":{"name":"origin","id":"2958","lat":"35.86166","lon":"104.195397","placename":"China"}},{"transport_id":"16","id":"877","transport_name":"air, freight, intercontinental","transport_description":"intercontinental freight","transport_unit":"kg km","transport_co2_eq":"0.450000","from_stop_id":"3128","from_stop_lat":"35.86166","from_stop_lon":"104.195397","to_stop_id":"95","to_stop_name":"origin","to_stop_lat":"43.1838843","placename":"China","to_stop_lon":"-88.9884421","to_stop":{"id":"95","name":"origin","lat":"43.1838843","placename":"Waterloo, WI, USA","lon":"-88.9884421"},"from_stop":{"name":"origin","id":"3128","lat":"35.86166","lon":"104.195397","placename":"China"}}],"outgoing":[]}}},"parts":[{"oid":"518","imid":"873","linkid":"","weight":"1","rawemissions":"3.6","emissions":"3.6","shipping":"2877.91","processemissions":null,"endoflifeemissions":null,"disposaltype":null,"disposalenergy":null,"disposalimpact":null,"disposalemissions":null,"description":"Average of aluminum alloys","name":"Aluminum Frame","id":"873","stops":{"origin":{"related_to":"873","part_or_object":"p","notes":"","placename":"Santa Cruz, CA, USA","id":2949,"name":"origin","lat":"36.9741171","lon":"-122.0307963","hops":{"incoming":[],"outgoing":[{"transport_id":"15","id":"698","transport_name":"air, freight, regional","transport_description":"freight within one continent","transport_unit":"kg km","transport_co2_eq":"0.787500","from_stop_id":"2949","from_stop_lat":"36.9741171","from_stop_lon":"-122.0307963","from_stop_placename":"Santa Cruz, CA, USA","to_stop_id":"95","to_stop_name":"origin","to_stop_lat":"43.1838843","to_stop_lon":"-88.9884421","to_stop_placename":"Waterloo, WI, USA","to_stop":{"id":"95","name":"origin","lat":"43.1838843","lon":"-88.9884421","placename":"Waterloo, WI, USA"},"from_stop":{"name":"origin","id":"2949","lat":"36.9741171","lon":"-122.0307963","placename":"Santa Cruz, CA, USA"}}]}}},"processes":[],"eols":[]},{"oid":"518","imid":"874","linkid":"","weight":"0.5","rawemissions":"5.7","emissions":"2.85","shipping":"2877.91","processemissions":null,"endoflifeemissions":null,"disposaltype":null,"disposalenergy":null,"disposalimpact":null,"disposalemissions":null,"description":"carbon fiber for composites","name":"Carbon Fiber Fork","id":"874","stops":{"origin":{"related_to":"874","part_or_object":"p","notes":"","placename":"Santa Cruz, CA, USA","id":2950,"name":"origin","lat":"36.9741171","lon":"-122.0307963","hops":{"incoming":[],"outgoing":[{"transport_id":"15","id":"699","transport_name":"air, freight, regional","transport_description":"freight within one continent","transport_unit":"kg km","transport_co2_eq":"0.787500","from_stop_id":"2950","from_stop_lat":"36.9741171","from_stop_lon":"-122.0307963","from_stop_placename":"Santa Cruz, CA, USA","to_stop_id":"95","to_stop_name":"origin","to_stop_lat":"43.1838843","to_stop_lon":"-88.9884421","to_stop_placename":"Waterloo, WI, USA","to_stop":{"id":"95","name":"origin","lat":"43.1838843","lon":"-88.9884421","placename":"Waterloo, WI, USA"},"from_stop":{"name":"origin","id":"2950","lat":"36.9741171","lon":"-122.0307963","placename":"Santa Cruz, CA, USA"}}]}}},"processes":[],"eols":[]},{"oid":"518","imid":"875","linkid":"","weight":"2","rawemissions":"3.6","emissions":"7.2","shipping":"0","processemissions":null,"endoflifeemissions":null,"disposaltype":null,"disposalenergy":null,"disposalimpact":null,"disposalemissions":null,"description":"Average of aluminum alloys","name":"Aluminum Tread","id":"875","stops":{"origin":{"related_to":"875","part_or_object":"p","notes":"","placename":"China","id":2951,"name":"origin","lat":"35.86166","lon":"104.195397","hops":{"incoming":[],"outgoing":[{"transport_id":"16","id":"700","transport_name":"air, freight, intercontinental","transport_description":"intercontinental freight","transport_unit":"kg km","transport_co2_eq":"0.450000","from_stop_id":"2951","from_stop_lat":"35.86166","from_stop_lon":"104.195397","from_stop_placename":"China","to_stop_id":"95","to_stop_name":"origin","to_stop_lat":"43.1838843","to_stop_lon":"-88.9884421","to_stop_placename":"Waterloo, WI, USA","to_stop":{"id":"95","name":"origin","lat":"43.1838843","lon":"-88.9884421","placename":"Waterloo, WI, USA"},"from_stop":{"name":"origin","id":"2951","lat":"35.86166","lon":"104.195397","placename":"China"}}]}}},"processes":[],"eols":[]},{"oid":"518","imid":"876","linkid":"","weight":"0.2","rawemissions":"0.96","emissions":"0.19","shipping":"11137.2","processemissions":null,"endoflifeemissions":null,"disposaltype":null,"disposalenergy":null,"disposalimpact":null,"disposalemissions":null,"description":"certified sustainable unvulcanized latex ","name":"Rubber Tread","id":"876","stops":{"origin":{"related_to":"876","part_or_object":"p","notes":"","placename":"China","id":2952,"name":"origin","lat":"35.86166","lon":"104.195397","hops":{"incoming":[],"outgoing":[{"transport_id":"16","id":"701","transport_name":"air, freight, intercontinental","transport_description":"intercontinental freight","transport_unit":"kg km","transport_co2_eq":"0.450000","from_stop_id":"2952","from_stop_lat":"35.86166","from_stop_lon":"104.195397","from_stop_placename":"China","to_stop_id":"95","to_stop_name":"origin","to_stop_lat":"43.1838843","to_stop_lon":"-88.9884421","to_stop_placename":"Waterloo, WI, USA","to_stop":{"id":"95","name":"origin","lat":"43.1838843","lon":"-88.9884421","placename":"Waterloo, WI, USA"},"from_stop":{"name":"origin","id":"2952","lat":"35.86166","lon":"104.195397","placename":"China"}}]}}},"processes":[],"eols":[]},{"oid":"518","imid":"877","linkid":"","weight":"0.74","rawemissions":"3.6","emissions":"2.66","shipping":"11137.2","processemissions":null,"endoflifeemissions":null,"disposaltype":null,"disposalenergy":null,"disposalimpact":null,"disposalemissions":null,"description":"Average of aluminum alloys","name":"Alloy Crank","id":"877","stops":{"origin":{"related_to":"877","part_or_object":"p","notes":"","placename":"China","id":2953,"name":"origin","lat":"35.86166","lon":"104.195397","hops":{"incoming":[],"outgoing":[{"transport_id":"16","id":"702","transport_name":"air, freight, intercontinental","transport_description":"intercontinental freight","transport_unit":"kg km","transport_co2_eq":"0.450000","from_stop_id":"2953","from_stop_lat":"35.86166","from_stop_lon":"104.195397","from_stop_placename":"China","to_stop_id":"95","to_stop_name":"origin","to_stop_lat":"43.1838843","to_stop_lon":"-88.9884421","to_stop_placename":"Waterloo, WI, USA","to_stop":{"id":"95","name":"origin","lat":"43.1838843","lon":"-88.9884421","placename":"Waterloo, WI, USA"},"from_stop":{"name":"origin","id":"2953","lat":"35.86166","lon":"104.195397","placename":"China"}}]}}},"processes":[],"eols":[]},{"oid":"518","imid":"878","linkid":"","weight":"0.26","rawemissions":"0.27","emissions":"0.07","shipping":"11137.2","processemissions":null,"endoflifeemissions":null,"disposaltype":null,"disposalenergy":null,"disposalimpact":null,"disposalemissions":null,"description":"chrome processed","name":"Leather Saddle","id":"878","stops":{"origin":{"related_to":"878","part_or_object":"p","notes":"","placename":"China","id":2954,"name":"origin","lat":"35.86166","lon":"104.195397","hops":{"incoming":[],"outgoing":[{"transport_id":"16","id":"703","transport_name":"air, freight, intercontinental","transport_description":"intercontinental freight","transport_unit":"kg km","transport_co2_eq":"0.450000","from_stop_id":"2954","from_stop_lat":"35.86166","from_stop_lon":"104.195397","from_stop_placename":"China","to_stop_id":"95","to_stop_name":"origin","to_stop_lat":"43.1838843","to_stop_lon":"-88.9884421","to_stop_placename":"Waterloo, WI, USA","to_stop":{"id":"95","name":"origin","lat":"43.1838843","lon":"-88.9884421","placename":"Waterloo, WI, USA"},"from_stop":{"name":"origin","id":"2954","lat":"35.86166","lon":"104.195397","placename":"China"}}]}}},"processes":[],"eols":[]},{"oid":"518","imid":"879","linkid":"","weight":"0.26","rawemissions":"3.6","emissions":"0.94","shipping":"11137.2","processemissions":null,"endoflifeemissions":null,"disposaltype":null,"disposalenergy":null,"disposalimpact":null,"disposalemissions":null,"description":"Average of aluminum alloys","name":"Aluminum Seatpost","id":"879","stops":{"origin":{"related_to":"879","part_or_object":"p","notes":"","placename":"China","id":2955,"name":"origin","lat":"35.86166","lon":"104.195397","hops":{"incoming":[],"outgoing":[{"transport_id":"16","id":"704","transport_name":"air, freight, intercontinental","transport_description":"intercontinental freight","transport_unit":"kg km","transport_co2_eq":"0.450000","from_stop_id":"2955","from_stop_lat":"35.86166","from_stop_lon":"104.195397","from_stop_placename":"China","to_stop_id":"95","to_stop_name":"origin","to_stop_lat":"43.1838843","to_stop_lon":"-88.9884421","to_stop_placename":"Waterloo, WI, USA","to_stop":{"id":"95","name":"origin","lat":"43.1838843","lon":"-88.9884421","placename":"Waterloo, WI, USA"},"from_stop":{"name":"origin","id":"2955","lat":"35.86166","lon":"104.195397","placename":"China"}}]}}},"processes":[],"eols":[]},{"oid":"518","imid":"880","linkid":"","weight":"0.44","rawemissions":"3.6","emissions":"1.58","shipping":"11137.2","processemissions":null,"endoflifeemissions":null,"disposaltype":null,"disposalenergy":null,"disposalimpact":null,"disposalemissions":null,"description":"Average of aluminum alloys","name":"Aluminum Handlebars","id":"880","stops":{"origin":{"related_to":"880","part_or_object":"p","notes":"","placename":"China","id":2956,"name":"origin","lat":"35.86166","lon":"104.195397","hops":{"incoming":[],"outgoing":[{"transport_id":"16","id":"705","transport_name":"air, freight, intercontinental","transport_description":"intercontinental freight","transport_unit":"kg km","transport_co2_eq":"0.450000","from_stop_id":"2956","from_stop_lat":"35.86166","from_stop_lon":"104.195397","from_stop_placename":"China","to_stop_id":"95","to_stop_name":"origin","to_stop_lat":"43.1838843","to_stop_lon":"-88.9884421","to_stop_placename":"Waterloo, WI, USA","to_stop":{"id":"95","name":"origin","lat":"43.1838843","lon":"-88.9884421","placename":"Waterloo, WI, USA"},"from_stop":{"name":"origin","id":"2956","lat":"35.86166","lon":"104.195397","placename":"China"}}]}}},"processes":[],"eols":[]},{"oid":"518","imid":"881","linkid":"","weight":"0.15","rawemissions":"5.7","emissions":"0.86","shipping":"11137.2","processemissions":null,"endoflifeemissions":null,"disposaltype":null,"disposalenergy":null,"disposalimpact":null,"disposalemissions":null,"description":"carbon fiber for composites","name":"Carbon Fiber Stem","id":"881","stops":{"origin":{"related_to":"881","part_or_object":"p","notes":"","placename":"China","id":2957,"name":"origin","lat":"35.86166","lon":"104.195397","hops":{"incoming":[],"outgoing":[{"transport_id":"16","id":"706","transport_name":"air, freight, intercontinental","transport_description":"intercontinental freight","transport_unit":"kg km","transport_co2_eq":"0.450000","from_stop_id":"2957","from_stop_lat":"35.86166","from_stop_lon":"104.195397","from_stop_placename":"China","to_stop_id":"95","to_stop_name":"origin","to_stop_lat":"43.1838843","to_stop_lon":"-88.9884421","to_stop_placename":"Waterloo, WI, USA","to_stop":{"id":"95","name":"origin","lat":"43.1838843","lon":"-88.9884421","placename":"Waterloo, WI, USA"},"from_stop":{"name":"origin","id":"2957","lat":"35.86166","lon":"104.195397","placename":"China"}}]}}},"processes":[],"eols":[]},{"oid":"518","imid":"882","linkid":"","weight":"0.27","rawemissions":"3.6","emissions":"0.97","shipping":"11137.2","processemissions":null,"endoflifeemissions":null,"disposaltype":null,"disposalenergy":null,"disposalimpact":null,"disposalemissions":null,"description":"Average of aluminum alloys","name":"Aluminum Alloy Brake Set","id":"882","stops":{"origin":{"related_to":"882","part_or_object":"p","notes":"","placename":"China","id":2958,"name":"origin","lat":"35.86166","lon":"104.195397","hops":{"incoming":[],"outgoing":[{"transport_id":"16","id":"707","transport_name":"air, freight, intercontinental","transport_description":"intercontinental freight","transport_unit":"kg km","transport_co2_eq":"0.450000","from_stop_id":"2958","from_stop_lat":"35.86166","from_stop_lon":"104.195397","from_stop_placename":"China","to_stop_id":"95","to_stop_name":"origin","to_stop_lat":"43.1838843","to_stop_lon":"-88.9884421","to_stop_placename":"Waterloo, WI, USA","to_stop":{"id":"95","name":"origin","lat":"43.1838843","lon":"-88.9884421","placename":"Waterloo, WI, USA"},"from_stop":{"name":"origin","id":"2958","lat":"35.86166","lon":"104.195397","placename":"China"}}]}}},"processes":[],"eols":[]},{"oid":"518","imid":"1061","linkid":"","weight":"0.068","rawemissions":"3.6","emissions":"0.24","shipping":"11137.2","processemissions":null,"endoflifeemissions":null,"disposaltype":null,"disposalenergy":null,"disposalimpact":null,"disposalemissions":null,"description":"Average of aluminum alloys","name":"Headset Aluminum","id":"1061","stops":{"origin":{"related_to":"1061","part_or_object":"p","notes":"","placename":"China","id":3128,"name":"origin","lat":"35.86166","lon":"104.195397","hops":{"incoming":[],"outgoing":[{"transport_id":"16","id":"877","transport_name":"air, freight, intercontinental","transport_description":"intercontinental freight","transport_unit":"kg km","transport_co2_eq":"0.450000","from_stop_id":"3128","from_stop_lat":"35.86166","from_stop_lon":"104.195397","from_stop_placename":"China","to_stop_id":"95","to_stop_name":"origin","to_stop_lat":"43.1838843","to_stop_lon":"-88.9884421","to_stop_placename":"Waterloo, WI, USA","to_stop":{"id":"95","name":"origin","lat":"43.1838843","lon":"-88.9884421","placename":"Waterloo, WI, USA"},"from_stop":{"name":"origin","id":"3128","lat":"35.86166","lon":"104.195397","placename":"China"}}]}}},"processes":[],"eols":[]}],"user":{"name":"alexatw8","id":"6143"}}}