{"525":{"oid":"525","type":"object","flag":"","creator":"6143","name":"House Made of Tires","upc":"","imagelink":"","description":"The Tires and Dirt are free.","slug":"house-made-of-tires","category":"","weight":"0","emissions":"8.056","embodied":"8.056","transport":"0","process":"0","endoflife":"0","shipping":"134.28","lifetime":"0","usagetype":"","usageenergy":"0","usageemissions":"0","timecreated":"2010-02-24 22:03:35.53161","timemodified":"2009-10-05 06:56:02","visibility":"public","showfootprint":"on","showembodied":"on","showtransport":"on","showprocess":"on","showendoflife":"on","showlastleg":"on","showuse":"on","showstats":"on","stops":{"origin":{"related_to":"525","part_or_object":"o","notes":"","placename":"Lynnfield, MA, USA","id":"96","category":"1","lat":"42.53494","lon":"-71.043213","name":"origin","hops":{"incoming":[{"transport_id":"17","id":"708","transport_name":"None Selected","transport_description":null,"transport_unit":"kg km","transport_co2_eq":"0.000000","from_stop_id":"2959","from_stop_lat":"42.2667","from_stop_lon":"-71.61613","to_stop_id":"96","to_stop_name":"origin","to_stop_lat":"42.53494","placename":"Westborough, MA, USA","to_stop_lon":"-71.043213","to_stop":{"id":"96","name":"origin","lat":"42.53494","placename":"Lynnfield, MA, USA","lon":"-71.043213"},"from_stop":{"name":"origin","id":"2959","lat":"42.2667","lon":"-71.61613","placename":"Westborough, MA, USA"}},{"transport_id":"17","id":"709","transport_name":"None Selected","transport_description":null,"transport_unit":"kg km","transport_co2_eq":"0.000000","from_stop_id":"2960","from_stop_lat":"0","from_stop_lon":"0","to_stop_id":"96","to_stop_name":"origin","to_stop_lat":"42.53494","placename":"Part Location","to_stop_lon":"-71.043213","to_stop":{"id":"96","name":"origin","lat":"42.53494","placename":"Lynnfield, MA, USA","lon":"-71.043213"},"from_stop":{"name":"origin","id":"2960","lat":"0","lon":"0","placename":"Part Location"}},{"transport_id":"17","id":"710","transport_name":"None Selected","transport_description":null,"transport_unit":"kg km","transport_co2_eq":"0.000000","from_stop_id":"2961","from_stop_lat":"42.35892","from_stop_lon":"-71.05781","to_stop_id":"96","to_stop_name":"origin","to_stop_lat":"42.53494","placename":"Boston, MA, USA","to_stop_lon":"-71.043213","to_stop":{"id":"96","name":"origin","lat":"42.53494","placename":"Lynnfield, MA, USA","lon":"-71.043213"},"from_stop":{"name":"origin","id":"2961","lat":"42.35892","lon":"-71.05781","placename":"Boston, MA, USA"}},{"transport_id":"17","id":"711","transport_name":"None Selected","transport_description":null,"transport_unit":"kg km","transport_co2_eq":"0.000000","from_stop_id":"2962","from_stop_lat":"42.35892","from_stop_lon":"-71.05781","to_stop_id":"96","to_stop_name":"origin","to_stop_lat":"42.53494","placename":"Boston, MA, USA","to_stop_lon":"-71.043213","to_stop":{"id":"96","name":"origin","lat":"42.53494","placename":"Lynnfield, MA, USA","lon":"-71.043213"},"from_stop":{"name":"origin","id":"2962","lat":"42.35892","lon":"-71.05781","placename":"Boston, MA, USA"}},{"transport_id":"17","id":"712","transport_name":"None Selected","transport_description":null,"transport_unit":"kg km","transport_co2_eq":"0.000000","from_stop_id":"2963","from_stop_lat":"42.35892","from_stop_lon":"-71.05781","to_stop_id":"96","to_stop_name":"origin","to_stop_lat":"42.53494","placename":"Boston, MA, USA","to_stop_lon":"-71.043213","to_stop":{"id":"96","name":"origin","lat":"42.53494","placename":"Lynnfield, MA, USA","lon":"-71.043213"},"from_stop":{"name":"origin","id":"2963","lat":"42.35892","lon":"-71.05781","placename":"Boston, MA, USA"}},{"transport_id":"17","id":"713","transport_name":"None Selected","transport_description":null,"transport_unit":"kg km","transport_co2_eq":"0.000000","from_stop_id":"2964","from_stop_lat":"42.35892","from_stop_lon":"-71.05781","to_stop_id":"96","to_stop_name":"origin","to_stop_lat":"42.53494","placename":"Boston, MA, USA","to_stop_lon":"-71.043213","to_stop":{"id":"96","name":"origin","lat":"42.53494","placename":"Lynnfield, MA, USA","lon":"-71.043213"},"from_stop":{"name":"origin","id":"2964","lat":"42.35892","lon":"-71.05781","placename":"Boston, MA, USA"}}],"outgoing":[]}}},"parts":[{"oid":"525","imid":"883","linkid":"","weight":"0","rawemissions":"0.42","emissions":"0.42","shipping":"55.76","processemissions":null,"endoflifeemissions":null,"disposaltype":null,"disposalenergy":null,"disposalimpact":null,"disposalemissions":null,"description":"Corrugated cardboard 100 percent recycled ","name":"Cardboard recycled","id":"883","stops":{"origin":{"related_to":"883","part_or_object":"p","notes":"","placename":"Westborough, MA, USA","id":2959,"name":"origin","lat":"42.2667","lon":"-71.61613","hops":{"incoming":[],"outgoing":[{"transport_id":"17","id":"708","transport_name":"None Selected","transport_description":null,"transport_unit":"kg km","transport_co2_eq":"0.000000","from_stop_id":"2959","from_stop_lat":"42.2667","from_stop_lon":"-71.61613","from_stop_placename":"Westborough, MA, USA","to_stop_id":"96","to_stop_name":"origin","to_stop_lat":"42.53494","to_stop_lon":"-71.043213","to_stop_placename":"Lynnfield, MA, USA","to_stop":{"id":"96","name":"origin","lat":"42.53494","lon":"-71.043213","placename":"Lynnfield, MA, USA"},"from_stop":{"name":"origin","id":"2959","lat":"42.2667","lon":"-71.61613","placename":"Westborough, MA, USA"}}]}}},"processes":[],"eols":[]},{"oid":"525","imid":"884","linkid":"","weight":"0","rawemissions":"0.023","emissions":"0.023","shipping":"0","processemissions":null,"endoflifeemissions":null,"disposaltype":null,"disposalenergy":null,"disposalimpact":null,"disposalemissions":null,"description":"Rammed soil.","name":"Packed Earth","id":"884","stops":{"origin":{"related_to":"884","part_or_object":"p","notes":"","placename":"Part Location","id":2960,"name":"origin","lat":"0","lon":"0","hops":{"incoming":[],"outgoing":[{"transport_id":"17","id":"709","transport_name":"None Selected","transport_description":null,"transport_unit":"kg km","transport_co2_eq":"0.000000","from_stop_id":"2960","from_stop_lat":"0","from_stop_lon":"0","from_stop_placename":"Part Location","to_stop_id":"96","to_stop_name":"origin","to_stop_lat":"42.53494","to_stop_lon":"-71.043213","to_stop_placename":"Lynnfield, MA, USA","to_stop":{"id":"96","name":"origin","lat":"42.53494","lon":"-71.043213","placename":"Lynnfield, MA, USA"},"from_stop":{"name":"origin","id":"2960","lat":"0","lon":"0","placename":"Part Location"}}]}}},"processes":[],"eols":[]},{"oid":"525","imid":"885","linkid":"","weight":"0","rawemissions":"0.023","emissions":"0.023","shipping":"19.63","processemissions":null,"endoflifeemissions":null,"disposaltype":null,"disposalenergy":null,"disposalimpact":null,"disposalemissions":null,"description":"Obtain tires from Tire Service Centers.  Theyre happy to give the used tires away for free.","name":"Used Tires","id":"885","stops":{"origin":{"related_to":"885","part_or_object":"p","notes":"","placename":"Boston, MA, USA","id":2961,"name":"origin","lat":"42.35892","lon":"-71.05781","hops":{"incoming":[],"outgoing":[{"transport_id":"17","id":"710","transport_name":"None Selected","transport_description":null,"transport_unit":"kg km","transport_co2_eq":"0.000000","from_stop_id":"2961","from_stop_lat":"42.35892","from_stop_lon":"-71.05781","from_stop_placename":"Boston, MA, USA","to_stop_id":"96","to_stop_name":"origin","to_stop_lat":"42.53494","to_stop_lon":"-71.043213","to_stop_placename":"Lynnfield, MA, USA","to_stop":{"id":"96","name":"origin","lat":"42.53494","lon":"-71.043213","placename":"Lynnfield, MA, USA"},"from_stop":{"name":"origin","id":"2961","lat":"42.35892","lon":"-71.05781","placename":"Boston, MA, USA"}}]}}},"processes":[],"eols":[]},{"oid":"525","imid":"886","linkid":"","weight":"0","rawemissions":"0","emissions":"0","shipping":"19.63","processemissions":null,"endoflifeemissions":null,"disposaltype":null,"disposalenergy":null,"disposalimpact":null,"disposalemissions":null,"description":"Recycled cans","name":"Aluminum Cans","id":"886","stops":{"origin":{"related_to":"886","part_or_object":"p","notes":"","placename":"Boston, MA, USA","id":2962,"name":"origin","lat":"42.35892","lon":"-71.05781","hops":{"incoming":[],"outgoing":[{"transport_id":"17","id":"711","transport_name":"None Selected","transport_description":null,"transport_unit":"kg km","transport_co2_eq":"0.000000","from_stop_id":"2962","from_stop_lat":"42.35892","from_stop_lon":"-71.05781","from_stop_placename":"Boston, MA, USA","to_stop_id":"96","to_stop_name":"origin","to_stop_lat":"42.53494","to_stop_lon":"-71.043213","to_stop_placename":"Lynnfield, MA, USA","to_stop":{"id":"96","name":"origin","lat":"42.53494","lon":"-71.043213","placename":"Lynnfield, MA, USA"},"from_stop":{"name":"origin","id":"2962","lat":"42.35892","lon":"-71.05781","placename":"Boston, MA, USA"}}]}}},"processes":[],"eols":[]},{"oid":"525","imid":"887","linkid":"","weight":"0","rawemissions":"7.2","emissions":"7.2","shipping":"19.63","processemissions":null,"endoflifeemissions":null,"disposaltype":null,"disposalenergy":null,"disposalimpact":null,"disposalemissions":null,"description":"Regular non reinforced concrete","name":"Concrete","id":"887","stops":{"origin":{"related_to":"887","part_or_object":"p","notes":"","placename":"Boston, MA, USA","id":2963,"name":"origin","lat":"42.35892","lon":"-71.05781","hops":{"incoming":[],"outgoing":[{"transport_id":"17","id":"712","transport_name":"None Selected","transport_description":null,"transport_unit":"kg km","transport_co2_eq":"0.000000","from_stop_id":"2963","from_stop_lat":"42.35892","from_stop_lon":"-71.05781","from_stop_placename":"Boston, MA, USA","to_stop_id":"96","to_stop_name":"origin","to_stop_lat":"42.53494","to_stop_lon":"-71.043213","to_stop_placename":"Lynnfield, MA, USA","to_stop":{"id":"96","name":"origin","lat":"42.53494","lon":"-71.043213","placename":"Lynnfield, MA, USA"},"from_stop":{"name":"origin","id":"2963","lat":"42.35892","lon":"-71.05781","placename":"Boston, MA, USA"}}]}}},"processes":[],"eols":[]},{"oid":"525","imid":"888","linkid":"","weight":"0","rawemissions":"0.39","emissions":"0.39","shipping":"19.63","processemissions":null,"endoflifeemissions":null,"disposaltype":null,"disposalenergy":null,"disposalimpact":null,"disposalemissions":null,"description":"Plaster of Paris","name":"Plaster Finish","id":"888","stops":{"origin":{"related_to":"888","part_or_object":"p","notes":"","placename":"Boston, MA, USA","id":2964,"name":"origin","lat":"42.35892","lon":"-71.05781","hops":{"incoming":[],"outgoing":[{"transport_id":"17","id":"713","transport_name":"None Selected","transport_description":null,"transport_unit":"kg km","transport_co2_eq":"0.000000","from_stop_id":"2964","from_stop_lat":"42.35892","from_stop_lon":"-71.05781","from_stop_placename":"Boston, MA, USA","to_stop_id":"96","to_stop_name":"origin","to_stop_lat":"42.53494","to_stop_lon":"-71.043213","to_stop_placename":"Lynnfield, MA, USA","to_stop":{"id":"96","name":"origin","lat":"42.53494","lon":"-71.043213","placename":"Lynnfield, MA, USA"},"from_stop":{"name":"origin","id":"2964","lat":"42.35892","lon":"-71.05781","placename":"Boston, MA, USA"}}]}}},"processes":[],"eols":[]}],"user":{"name":"alexatw8","id":"6143"}}}