{"534":{"oid":"534","type":"object","flag":"","creator":"6192","name":"Purekitchen","upc":"","imagelink":"","description":"","slug":"purekitchen","category":"","weight":"185.25","emissions":"1379.28","embodied":"1353.24","transport":"26.0404","process":"0","endoflife":"0","shipping":"20483.5","lifetime":"0","usagetype":"","usageenergy":"0","usageemissions":"0","timecreated":"2010-02-24 22:03:35.537684","timemodified":"2009-10-05 14:42:03","visibility":"public","showfootprint":"on","showembodied":"on","showtransport":"on","showprocess":"on","showendoflife":"on","showlastleg":"on","showuse":"on","showstats":"on","stops":{"origin":{"related_to":"534","part_or_object":"o","notes":"","placename":"Boston, MA, USA","id":"100","category":"1","lat":"42.35892","lon":"-71.05781","name":"origin","hops":{"incoming":[{"transport_id":"2","id":"722","transport_name":"truck, 16 tons","transport_description":"truck, half full","transport_unit":"kg km","transport_co2_eq":"0.020300","from_stop_id":"2973","from_stop_lat":"35.632081","from_stop_lon":"-82.174603","to_stop_id":"100","to_stop_name":"origin","to_stop_lat":"42.35892","placename":"Old Fort, NC, USA","to_stop_lon":"-71.05781","to_stop":{"id":"100","name":"origin","lat":"42.35892","placename":"Boston, MA, USA","lon":"-71.05781"},"from_stop":{"name":"origin","id":"2973","lat":"35.632081","lon":"-82.174603","placename":"Old Fort, NC, USA"}},{"transport_id":"9","id":"723","transport_name":"container ship","transport_description":"moving boxcar size containers","transport_unit":"kg km","transport_co2_eq":"0.047800","from_stop_id":"2974","from_stop_lat":"35.86166","from_stop_lon":"104.195397","to_stop_id":"100","to_stop_name":"origin","to_stop_lat":"42.35892","placename":"China","to_stop_lon":"-71.05781","to_stop":{"id":"100","name":"origin","lat":"42.35892","placename":"Boston, MA, USA","lon":"-71.05781"},"from_stop":{"name":"origin","id":"2974","lat":"35.86166","lon":"104.195397","placename":"China"}},{"transport_id":"2","id":"724","transport_name":"truck, 16 tons","transport_description":"truck, half full","transport_unit":"kg km","transport_co2_eq":"0.020300","from_stop_id":"2975","from_stop_lat":"48.566428","from_stop_lon":"-67.685995","to_stop_id":"100","to_stop_name":"origin","to_stop_lat":"42.35892","placename":"Sayabec, QC, Canada","to_stop_lon":"-71.05781","to_stop":{"id":"100","name":"origin","lat":"42.35892","placename":"Boston, MA, USA","lon":"-71.05781"},"from_stop":{"name":"origin","id":"2975","lat":"48.566428","lon":"-67.685995","placename":"Sayabec, QC, Canada"}},{"transport_id":"2","id":"725","transport_name":"truck, 16 tons","transport_description":"truck, half full","transport_unit":"kg km","transport_co2_eq":"0.020300","from_stop_id":"2976","from_stop_lat":"42.327878","from_stop_lon":"-122.86829","to_stop_id":"100","to_stop_name":"origin","to_stop_lat":"42.35892","placename":"Medford, OR, USA","to_stop_lon":"-71.05781","to_stop":{"id":"100","name":"origin","lat":"42.35892","placename":"Boston, MA, USA","lon":"-71.05781"},"from_stop":{"name":"origin","id":"2976","lat":"42.327878","lon":"-122.86829","placename":"Medford, OR, USA"}},{"transport_id":"2","id":"726","transport_name":"truck, 16 tons","transport_description":"truck, half full","transport_unit":"kg km","transport_co2_eq":"0.020300","from_stop_id":"2977","from_stop_lat":"35.739392","from_stop_lon":"-81.323618","to_stop_id":"100","to_stop_name":"origin","to_stop_lat":"42.35892","placename":"Hickory, NC, USA","to_stop_lon":"-71.05781","to_stop":{"id":"100","name":"origin","lat":"42.35892","placename":"Boston, MA, USA","lon":"-71.05781"},"from_stop":{"name":"origin","id":"2977","lat":"35.739392","lon":"-81.323618","placename":"Hickory, NC, USA"}},{"transport_id":"2","id":"727","transport_name":"truck, 16 tons","transport_description":"truck, half full","transport_unit":"kg km","transport_co2_eq":"0.020300","from_stop_id":"2978","from_stop_lat":"44.166955","from_stop_lon":"-93.993724","to_stop_id":"100","to_stop_name":"origin","to_stop_lat":"42.35892","placename":"Mankato, MN, USA","to_stop_lon":"-71.05781","to_stop":{"id":"100","name":"origin","lat":"42.35892","placename":"Boston, MA, USA","lon":"-71.05781"},"from_stop":{"name":"origin","id":"2978","lat":"44.166955","lon":"-93.993724","placename":"Mankato, MN, USA"}}],"outgoing":[]}}},"parts":[{"oid":"534","imid":"899","linkid":"","weight":"37","rawemissions":"13","emissions":"481","shipping":"1217.16","processemissions":null,"endoflifeemissions":null,"disposaltype":null,"disposalenergy":null,"disposalimpact":null,"disposalemissions":null,"description":"Harvested from North American forests, no-added formaldehyde, transported via truck","name":"FSC Purebond","id":"899","stops":{"origin":{"related_to":"899","part_or_object":"p","notes":"","placename":"Old Fort, NC, USA","id":2973,"name":"origin","lat":"35.632081","lon":"-82.174603","hops":{"incoming":[],"outgoing":[{"transport_id":"2","id":"722","transport_name":"truck, 16 tons","transport_description":"truck, half full","transport_unit":"kg km","transport_co2_eq":"0.020300","from_stop_id":"2973","from_stop_lat":"35.632081","from_stop_lon":"-82.174603","from_stop_placename":"Old Fort, NC, USA","to_stop_id":"100","to_stop_name":"origin","to_stop_lat":"42.35892","to_stop_lon":"-71.05781","to_stop_placename":"Boston, MA, USA","to_stop":{"id":"100","name":"origin","lat":"42.35892","lon":"-71.05781","placename":"Boston, MA, USA"},"from_stop":{"name":"origin","id":"2973","lat":"35.632081","lon":"-82.174603","placename":"Old Fort, NC, USA"}}]}}},"processes":[],"eols":[]},{"oid":"534","imid":"900","linkid":"","weight":"37","rawemissions":"13","emissions":"481","shipping":"11316.7","processemissions":null,"endoflifeemissions":null,"disposaltype":null,"disposalenergy":null,"disposalimpact":null,"disposalemissions":null,"description":"Harvested from FSC-certified forests in China,  no-added formaldehyde, transported via container ship and truck","name":"FSC Plyboo Pure","id":"900","stops":{"origin":{"related_to":"900","part_or_object":"p","notes":"","placename":"China","id":2974,"name":"origin","lat":"35.86166","lon":"104.195397","hops":{"incoming":[],"outgoing":[{"transport_id":"9","id":"723","transport_name":"container ship","transport_description":"moving boxcar size containers","transport_unit":"kg km","transport_co2_eq":"0.047800","from_stop_id":"2974","from_stop_lat":"35.86166","from_stop_lon":"104.195397","from_stop_placename":"China","to_stop_id":"100","to_stop_name":"origin","to_stop_lat":"42.35892","to_stop_lon":"-71.05781","to_stop_placename":"Boston, MA, USA","to_stop":{"id":"100","name":"origin","lat":"42.35892","lon":"-71.05781","placename":"Boston, MA, USA"},"from_stop":{"name":"origin","id":"2974","lat":"35.86166","lon":"104.195397","placename":"China"}}]}}},"processes":[],"eols":[]},{"oid":"534","imid":"901","linkid":"","weight":"37","rawemissions":"3.76","emissions":"139.12","shipping":"739.27","processemissions":null,"endoflifeemissions":null,"disposaltype":null,"disposalenergy":null,"disposalimpact":null,"disposalemissions":null,"description":"Made from 100% pre-consumer recycled content, no-added formaldehyde, shipped via truck. ","name":"Uniboard Nu Green","id":"901","stops":{"origin":{"related_to":"901","part_or_object":"p","notes":"","placename":"Sayabec, QC, Canada","id":2975,"name":"origin","lat":"48.566428","lon":"-67.685995","hops":{"incoming":[],"outgoing":[{"transport_id":"2","id":"724","transport_name":"truck, 16 tons","transport_description":"truck, half full","transport_unit":"kg km","transport_co2_eq":"0.020300","from_stop_id":"2975","from_stop_lat":"48.566428","from_stop_lon":"-67.685995","from_stop_placename":"Sayabec, QC, Canada","to_stop_id":"100","to_stop_name":"origin","to_stop_lat":"42.35892","to_stop_lon":"-71.05781","to_stop_placename":"Boston, MA, USA","to_stop":{"id":"100","name":"origin","lat":"42.35892","lon":"-71.05781","placename":"Boston, MA, USA"},"from_stop":{"name":"origin","id":"2975","lat":"48.566428","lon":"-67.685995","placename":"Sayabec, QC, Canada"}}]}}},"processes":[],"eols":[]},{"oid":"534","imid":"902","linkid":"","weight":"37","rawemissions":"6.8","emissions":"251.6","shipping":"4194.3","processemissions":null,"endoflifeemissions":null,"disposaltype":null,"disposalenergy":null,"disposalimpact":null,"disposalemissions":null,"description":"Made partially or entirely from recycled wood fiber,  no-added formaldehyde, shipped via truck","name":"Medite II","id":"902","stops":{"origin":{"related_to":"902","part_or_object":"p","notes":"","placename":"Medford, OR, USA","id":2976,"name":"origin","lat":"42.327878","lon":"-122.86829","hops":{"incoming":[],"outgoing":[{"transport_id":"2","id":"725","transport_name":"truck, 16 tons","transport_description":"truck, half full","transport_unit":"kg km","transport_co2_eq":"0.020300","from_stop_id":"2976","from_stop_lat":"42.327878","from_stop_lon":"-122.86829","from_stop_placename":"Medford, OR, USA","to_stop_id":"100","to_stop_name":"origin","to_stop_lat":"42.35892","to_stop_lon":"-71.05781","to_stop_placename":"Boston, MA, USA","to_stop":{"id":"100","name":"origin","lat":"42.35892","lon":"-71.05781","placename":"Boston, MA, USA"},"from_stop":{"name":"origin","id":"2976","lat":"42.327878","lon":"-122.86829","placename":"Medford, OR, USA"}}]}}},"processes":[],"eols":[]},{"oid":"534","imid":"903","linkid":"","weight":"0.25","rawemissions":"2.08","emissions":"0.52","shipping":"1152.04","processemissions":null,"endoflifeemissions":null,"disposaltype":null,"disposalenergy":null,"disposalimpact":null,"disposalemissions":null,"description":"Made from steel \/ stainless steel, transported via truck","name":"Blum Hardware","id":"903","stops":{"origin":{"related_to":"903","part_or_object":"p","notes":"","placename":"Hickory, NC, USA","id":2977,"name":"origin","lat":"35.739392","lon":"-81.323618","hops":{"incoming":[],"outgoing":[{"transport_id":"2","id":"726","transport_name":"truck, 16 tons","transport_description":"truck, half full","transport_unit":"kg km","transport_co2_eq":"0.020300","from_stop_id":"2977","from_stop_lat":"35.739392","from_stop_lon":"-81.323618","from_stop_placename":"Hickory, NC, USA","to_stop_id":"100","to_stop_name":"origin","to_stop_lat":"42.35892","to_stop_lon":"-71.05781","to_stop_placename":"Boston, MA, USA","to_stop":{"id":"100","name":"origin","lat":"42.35892","lon":"-71.05781","placename":"Boston, MA, USA"},"from_stop":{"name":"origin","id":"2977","lat":"35.739392","lon":"-81.323618","placename":"Hickory, NC, USA"}}]}}},"processes":[],"eols":[]},{"oid":"534","imid":"904","linkid":"","weight":"37","rawemissions":"0","emissions":"0","shipping":"1864.03","processemissions":null,"endoflifeemissions":null,"disposaltype":null,"disposalenergy":null,"disposalimpact":null,"disposalemissions":null,"description":"Made from wheatstraw (95% pre-consumer recycled), no-added Formaldehyde, shipped via truck","name":"","id":"904","stops":{"origin":{"related_to":"904","part_or_object":"p","notes":"","placename":"Mankato, MN, USA","id":2978,"name":"origin","lat":"44.166955","lon":"-93.993724","hops":{"incoming":[],"outgoing":[{"transport_id":"2","id":"727","transport_name":"truck, 16 tons","transport_description":"truck, half full","transport_unit":"kg km","transport_co2_eq":"0.020300","from_stop_id":"2978","from_stop_lat":"44.166955","from_stop_lon":"-93.993724","from_stop_placename":"Mankato, MN, USA","to_stop_id":"100","to_stop_name":"origin","to_stop_lat":"42.35892","to_stop_lon":"-71.05781","to_stop_placename":"Boston, MA, USA","to_stop":{"id":"100","name":"origin","lat":"42.35892","lon":"-71.05781","placename":"Boston, MA, USA"},"from_stop":{"name":"origin","id":"2978","lat":"44.166955","lon":"-93.993724","placename":"Mankato, MN, USA"}}]}}},"processes":[],"eols":[]}],"user":{"name":"jameslear","id":"6192"}}}