{"557":{"oid":"557","type":"food","flag":"","creator":"12198","name":"Ammonium Bicarbonate (Food Grade)","upc":"","imagelink":"","description":"Ammonium bicarbonate (NH4HCO3), also known as hartshown or powdered baking ammonia, is a forerunner of today's baking powder and soda. It is used together with sodium bicarbonate as a leavening agent in the famous Oreo cookie. \n\nAs it will release an unpleasant ammonia smell, it is best to be used in cookies and pastries that are small enough to allow the odour to dissipate while baking. It must also be grounded into powder before using it in food production. \n\n\nAlthough ammonium bicarbonate has many other uses, the food grade ones must not be confused with the household ammonia for cleaning purposes which is poisonous.\n\nSource: \nhttp:\/\/en.wikipedia.org\/wiki\/Ammonium_bicarbonate\nhttp:\/\/www.food.com\/library\/ammonium-bicarbonate-780\n","slug":"Ammonium-Bicarbonate--Leavening--in-an-Oreo","category":"","weight":"0","emissions":"0","embodied":"0","transport":"0","process":null,"endoflife":null,"shipping":"16545.44","lifetime":null,"usagetype":"","usageenergy":null,"usageemissions":null,"timecreated":"2011-02-20 19:08:03","timemodified":"2011-02-20 22:00:06","visibility":"public","showfootprint":"on","showembodied":"on","showtransport":"on","showprocess":"on","showendoflife":"on","showlastleg":"on","showuse":"on","showstats":"on","stops":{"origin":{"related_to":"557","part_or_object":"o","notes":null,"placename":"Shandong, China","id":"11436","category":"1","lat":"36.668627","lon":"117.020411","name":"origin","hops":{"incoming":[{"transport_id":null,"id":"8062","transport_name":null,"transport_description":null,"transport_unit":null,"transport_co2_eq":null,"from_stop_id":"11437","from_stop_lat":"35.86166","from_stop_lon":"104.195397","to_stop_id":"11436","to_stop_name":"origin","to_stop_lat":"36.668627","placename":"China","to_stop_lon":"117.020411","to_stop":{"id":"11436","name":"origin","lat":"36.668627","placename":"Shandong, China","lon":"117.020411"},"from_stop":{"name":"origin","id":"11437","lat":"35.86166","lon":"104.195397","placename":"China"}},{"transport_id":null,"id":"8063","transport_name":null,"transport_description":null,"transport_unit":null,"transport_co2_eq":null,"from_stop_id":"11438","from_stop_lat":"35.86166","from_stop_lon":"104.195397","to_stop_id":"11436","to_stop_name":"origin","to_stop_lat":"36.668627","placename":"China","to_stop_lon":"117.020411","to_stop":{"id":"11436","name":"origin","lat":"36.668627","placename":"Shandong, China","lon":"117.020411"},"from_stop":{"name":"origin","id":"11438","lat":"35.86166","lon":"104.195397","placename":"China"}},{"transport_id":null,"id":"8064","transport_name":null,"transport_description":null,"transport_unit":null,"transport_co2_eq":null,"from_stop_id":"11439","from_stop_lat":"35.86166","from_stop_lon":"104.195397","to_stop_id":"11436","to_stop_name":"origin","to_stop_lat":"36.668627","placename":"China","to_stop_lon":"117.020411","to_stop":{"id":"11436","name":"origin","lat":"36.668627","placename":"Shandong, China","lon":"117.020411"},"from_stop":{"name":"origin","id":"11439","lat":"35.86166","lon":"104.195397","placename":"China"}},{"transport_id":null,"id":"8065","transport_name":null,"transport_description":null,"transport_unit":null,"transport_co2_eq":null,"from_stop_id":"11440","from_stop_lat":"35.86166","from_stop_lon":"104.195397","to_stop_id":"11436","to_stop_name":"origin","to_stop_lat":"36.668627","placename":"China","to_stop_lon":"117.020411","to_stop":{"id":"11436","name":"origin","lat":"36.668627","placename":"Shandong, China","lon":"117.020411"},"from_stop":{"name":"origin","id":"11440","lat":"35.86166","lon":"104.195397","placename":"China"}},{"transport_id":null,"id":"8066","transport_name":null,"transport_description":null,"transport_unit":null,"transport_co2_eq":null,"from_stop_id":"11441","from_stop_lat":"35.86166","from_stop_lon":"104.195397","to_stop_id":"11436","to_stop_name":"origin","to_stop_lat":"36.668627","placename":"China","to_stop_lon":"117.020411","to_stop":{"id":"11436","name":"origin","lat":"36.668627","placename":"Shandong, China","lon":"117.020411"},"from_stop":{"name":"origin","id":"11441","lat":"35.86166","lon":"104.195397","placename":"China"}},{"transport_id":null,"id":"8067","transport_name":null,"transport_description":null,"transport_unit":null,"transport_co2_eq":null,"from_stop_id":"11442","from_stop_lat":"35.86166","from_stop_lon":"104.195397","to_stop_id":"11436","to_stop_name":"origin","to_stop_lat":"36.668627","placename":"China","to_stop_lon":"117.020411","to_stop":{"id":"11436","name":"origin","lat":"36.668627","placename":"Shandong, China","lon":"117.020411"},"from_stop":{"name":"origin","id":"11442","lat":"35.86166","lon":"104.195397","placename":"China"}},{"transport_id":null,"id":"8068","transport_name":null,"transport_description":null,"transport_unit":null,"transport_co2_eq":null,"from_stop_id":"11443","from_stop_lat":"35.86166","from_stop_lon":"104.195397","to_stop_id":"11436","to_stop_name":"origin","to_stop_lat":"36.668627","placename":"China","to_stop_lon":"117.020411","to_stop":{"id":"11436","name":"origin","lat":"36.668627","placename":"Shandong, China","lon":"117.020411"},"from_stop":{"name":"origin","id":"11443","lat":"35.86166","lon":"104.195397","placename":"China"}},{"transport_id":null,"id":"8069","transport_name":null,"transport_description":null,"transport_unit":null,"transport_co2_eq":null,"from_stop_id":"11444","from_stop_lat":"52.0190289","from_stop_lon":"-0.7704274","to_stop_id":"11436","to_stop_name":"origin","to_stop_lat":"36.668627","placename":"Western Europe, United Kingdom","to_stop_lon":"117.020411","to_stop":{"id":"11436","name":"origin","lat":"36.668627","placename":"Shandong, China","lon":"117.020411"},"from_stop":{"name":"origin","id":"11444","lat":"52.0190289","lon":"-0.7704274","placename":"Western Europe, United Kingdom"}}],"outgoing":[]}}},"parts":[{"oid":"557","imid":"6135","linkid":"0","weight":"0","rawemissions":"0","emissions":"0","shipping":"1153.75","processemissions":"0","endoflifeemissions":"0","disposaltype":null,"disposalenergy":null,"disposalimpact":null,"disposalemissions":null,"description":"","name":"Sulfur (S)","id":"6135","stops":{"origin":{"related_to":"6135","part_or_object":"p","notes":null,"placename":"China","id":11437,"name":"origin","lat":"35.86166","lon":"104.195397","hops":{"incoming":[],"outgoing":[{"transport_id":null,"id":"8062","transport_name":null,"transport_description":null,"transport_unit":null,"transport_co2_eq":null,"from_stop_id":"11437","from_stop_lat":"35.86166","from_stop_lon":"104.195397","from_stop_placename":"China","to_stop_id":"11436","to_stop_name":"origin","to_stop_lat":"36.668627","to_stop_lon":"117.020411","to_stop_placename":"Shandong, China","to_stop":{"id":"11436","name":"origin","lat":"36.668627","lon":"117.020411","placename":"Shandong, China"},"from_stop":{"name":"origin","id":"11437","lat":"35.86166","lon":"104.195397","placename":"China"}}]}}},"processes":[],"eols":[]},{"oid":"557","imid":"6107","linkid":"0","weight":"0","rawemissions":"0","emissions":"0","shipping":"1153.75","processemissions":"0","endoflifeemissions":"0","disposaltype":null,"disposalenergy":null,"disposalimpact":null,"disposalemissions":null,"description":"","name":"Chloride (Cl)","id":"6107","stops":{"origin":{"related_to":"6107","part_or_object":"p","notes":null,"placename":"China","id":11438,"name":"origin","lat":"35.86166","lon":"104.195397","hops":{"incoming":[],"outgoing":[{"transport_id":null,"id":"8063","transport_name":null,"transport_description":null,"transport_unit":null,"transport_co2_eq":null,"from_stop_id":"11438","from_stop_lat":"35.86166","from_stop_lon":"104.195397","from_stop_placename":"China","to_stop_id":"11436","to_stop_name":"origin","to_stop_lat":"36.668627","to_stop_lon":"117.020411","to_stop_placename":"Shandong, China","to_stop":{"id":"11436","name":"origin","lat":"36.668627","lon":"117.020411","placename":"Shandong, China"},"from_stop":{"name":"origin","id":"11438","lat":"35.86166","lon":"104.195397","placename":"China"}}]}}},"processes":[],"eols":[]},{"oid":"557","imid":"6136","linkid":"0","weight":"0","rawemissions":"0","emissions":"0","shipping":"1153.75","processemissions":"0","endoflifeemissions":"0","disposaltype":null,"disposalenergy":null,"disposalimpact":null,"disposalemissions":null,"description":"","name":"Sulphate (SO4 2-)","id":"6136","stops":{"origin":{"related_to":"6136","part_or_object":"p","notes":null,"placename":"China","id":11439,"name":"origin","lat":"35.86166","lon":"104.195397","hops":{"incoming":[],"outgoing":[{"transport_id":null,"id":"8064","transport_name":null,"transport_description":null,"transport_unit":null,"transport_co2_eq":null,"from_stop_id":"11439","from_stop_lat":"35.86166","from_stop_lon":"104.195397","from_stop_placename":"China","to_stop_id":"11436","to_stop_name":"origin","to_stop_lat":"36.668627","to_stop_lon":"117.020411","to_stop_placename":"Shandong, China","to_stop":{"id":"11436","name":"origin","lat":"36.668627","lon":"117.020411","placename":"Shandong, China"},"from_stop":{"name":"origin","id":"11439","lat":"35.86166","lon":"104.195397","placename":"China"}}]}}},"processes":[],"eols":[]},{"oid":"557","imid":"6137","linkid":"0","weight":"0","rawemissions":"0","emissions":"0","shipping":"1153.75","processemissions":"0","endoflifeemissions":"0","disposaltype":null,"disposalenergy":null,"disposalimpact":null,"disposalemissions":null,"description":"","name":"Involatile matters","id":"6137","stops":{"origin":{"related_to":"6137","part_or_object":"p","notes":null,"placename":"China","id":11440,"name":"origin","lat":"35.86166","lon":"104.195397","hops":{"incoming":[],"outgoing":[{"transport_id":null,"id":"8065","transport_name":null,"transport_description":null,"transport_unit":null,"transport_co2_eq":null,"from_stop_id":"11440","from_stop_lat":"35.86166","from_stop_lon":"104.195397","from_stop_placename":"China","to_stop_id":"11436","to_stop_name":"origin","to_stop_lat":"36.668627","to_stop_lon":"117.020411","to_stop_placename":"Shandong, China","to_stop":{"id":"11436","name":"origin","lat":"36.668627","lon":"117.020411","placename":"Shandong, China"},"from_stop":{"name":"origin","id":"11440","lat":"35.86166","lon":"104.195397","placename":"China"}}]}}},"processes":[],"eols":[]},{"oid":"557","imid":"6138","linkid":"0","weight":"0","rawemissions":"0","emissions":"0","shipping":"1153.75","processemissions":"0","endoflifeemissions":"0","disposaltype":null,"disposalenergy":null,"disposalimpact":null,"disposalemissions":null,"description":"","name":"Arsenic","id":"6138","stops":{"origin":{"related_to":"6138","part_or_object":"p","notes":null,"placename":"China","id":11441,"name":"origin","lat":"35.86166","lon":"104.195397","hops":{"incoming":[],"outgoing":[{"transport_id":null,"id":"8066","transport_name":null,"transport_description":null,"transport_unit":null,"transport_co2_eq":null,"from_stop_id":"11441","from_stop_lat":"35.86166","from_stop_lon":"104.195397","from_stop_placename":"China","to_stop_id":"11436","to_stop_name":"origin","to_stop_lat":"36.668627","to_stop_lon":"117.020411","to_stop_placename":"Shandong, China","to_stop":{"id":"11436","name":"origin","lat":"36.668627","lon":"117.020411","placename":"Shandong, China"},"from_stop":{"name":"origin","id":"11441","lat":"35.86166","lon":"104.195397","placename":"China"}}]}}},"processes":[],"eols":[]},{"oid":"557","imid":"6139","linkid":"0","weight":"0","rawemissions":"0","emissions":"0","shipping":"1153.75","processemissions":"0","endoflifeemissions":"0","disposaltype":null,"disposalenergy":null,"disposalimpact":null,"disposalemissions":null,"description":"","name":"Iron","id":"6139","stops":{"origin":{"related_to":"6139","part_or_object":"p","notes":null,"placename":"China","id":11442,"name":"origin","lat":"35.86166","lon":"104.195397","hops":{"incoming":[],"outgoing":[{"transport_id":null,"id":"8067","transport_name":null,"transport_description":null,"transport_unit":null,"transport_co2_eq":null,"from_stop_id":"11442","from_stop_lat":"35.86166","from_stop_lon":"104.195397","from_stop_placename":"China","to_stop_id":"11436","to_stop_name":"origin","to_stop_lat":"36.668627","to_stop_lon":"117.020411","to_stop_placename":"Shandong, China","to_stop":{"id":"11436","name":"origin","lat":"36.668627","lon":"117.020411","placename":"Shandong, China"},"from_stop":{"name":"origin","id":"11442","lat":"35.86166","lon":"104.195397","placename":"China"}}]}}},"processes":[],"eols":[]},{"oid":"557","imid":"6140","linkid":"0","weight":"0","rawemissions":"0","emissions":"0","shipping":"1153.75","processemissions":"0","endoflifeemissions":"0","disposaltype":null,"disposalenergy":null,"disposalimpact":null,"disposalemissions":null,"description":"List of chemical components taken from http:\/\/www.be-longgroup.com\/Human-Nutrition\/Ammonium-Bicarbonate.html  ","name":"Heavy metals (such as lead)","id":"6140","stops":{"origin":{"related_to":"6140","part_or_object":"p","notes":null,"placename":"China","id":11443,"name":"origin","lat":"35.86166","lon":"104.195397","hops":{"incoming":[],"outgoing":[{"transport_id":null,"id":"8068","transport_name":null,"transport_description":null,"transport_unit":null,"transport_co2_eq":null,"from_stop_id":"11443","from_stop_lat":"35.86166","from_stop_lon":"104.195397","from_stop_placename":"China","to_stop_id":"11436","to_stop_name":"origin","to_stop_lat":"36.668627","to_stop_lon":"117.020411","to_stop_placename":"Shandong, China","to_stop":{"id":"11436","name":"origin","lat":"36.668627","lon":"117.020411","placename":"Shandong, China"},"from_stop":{"name":"origin","id":"11443","lat":"35.86166","lon":"104.195397","placename":"China"}}]}}},"processes":[],"eols":[]},{"oid":"557","imid":"6141","linkid":"0","weight":"0","rawemissions":"0","emissions":"0","shipping":"8469.19","processemissions":"0","endoflifeemissions":"0","disposaltype":null,"disposalenergy":null,"disposalimpact":null,"disposalemissions":null,"description":"In the ancient times, Ammonium Bicarbonate was made from the grounded antlers of reindeer. ","name":"Former sources: Reindeer antlers (see drop-down)","id":"6141","stops":{"origin":{"related_to":"6141","part_or_object":"p","notes":null,"placename":"Western Europe, United Kingdom","id":11444,"name":"origin","lat":"52.0190289","lon":"-0.7704274","hops":{"incoming":[],"outgoing":[{"transport_id":null,"id":"8069","transport_name":null,"transport_description":null,"transport_unit":null,"transport_co2_eq":null,"from_stop_id":"11444","from_stop_lat":"52.0190289","from_stop_lon":"-0.7704274","from_stop_placename":"Western Europe, United Kingdom","to_stop_id":"11436","to_stop_name":"origin","to_stop_lat":"36.668627","to_stop_lon":"117.020411","to_stop_placename":"Shandong, China","to_stop":{"id":"11436","name":"origin","lat":"36.668627","lon":"117.020411","placename":"Shandong, China"},"from_stop":{"name":"origin","id":"11444","lat":"52.0190289","lon":"-0.7704274","placename":"Western Europe, United Kingdom"}}]}}},"processes":[],"eols":[]},{"oid":"557","imid":"6142","linkid":"0","weight":"0","rawemissions":"0","emissions":"0","shipping":"0","processemissions":"0","endoflifeemissions":"0","disposaltype":null,"disposalenergy":null,"disposalimpact":null,"disposalemissions":null,"description":"Commercial Ammonium Bicarbonate was formerly obtained from the dry distillation of nitrogenous organic matter such as hair, horn, decomposed urine, etc., ","name":"Former sources: hair, decomposed urine etc.","id":"6142","processes":[],"eols":[]},{"oid":"557","imid":"6143","linkid":"0","weight":"0","rawemissions":"0","emissions":"0","shipping":"0","processemissions":"0","endoflifeemissions":"0","disposaltype":null,"disposalenergy":null,"disposalimpact":null,"disposalemissions":null,"description":"Now, it is obtained by heating a mixture of sal ammoniac, or ammonium sulfate and chalk, to redness in iron retorts, the vapours being condensed in leaden receivers. This explains the presence of the chemical components such as lead (listed above) found in the baking powder.","name":"Current sources: ammonium sulfate and chalk","id":"6143","processes":[],"eols":[]}],"user":{"name":"thefoodcloset","id":"12198"}}}