{"566":{"oid":"566","type":"trace","flag":"","creator":"12406","name":"Laundry Detergent","upc":"","imagelink":"","description":"","slug":"Laundry-Detergent","category":"","weight":"0","emissions":"0","embodied":"0","transport":"0","process":null,"endoflife":null,"shipping":"139238.47","lifetime":null,"usagetype":"","usageenergy":null,"usageemissions":null,"timecreated":"2011-02-21 16:50:43","timemodified":"2011-02-22 15:14:14","visibility":"public","showfootprint":"on","showembodied":"on","showtransport":"on","showprocess":"on","showendoflife":"on","showlastleg":"on","showuse":"on","showstats":"on","stops":{"origin":{"related_to":"566","part_or_object":"o","notes":null,"placename":"United States","id":"11856","category":"1","lat":"37.09024","lon":"-95.712891","name":"origin","hops":{"incoming":[{"transport_id":null,"id":"8398","transport_name":null,"transport_description":null,"transport_unit":null,"transport_co2_eq":null,"from_stop_id":"11857","from_stop_lat":"41.8781136","from_stop_lon":"-87.6297982","to_stop_id":"11856","to_stop_name":"origin","to_stop_lat":"37.09024","placename":"Chicago, IL, USA","to_stop_lon":"-95.712891","to_stop":{"id":"11856","name":"origin","lat":"37.09024","placename":"United States","lon":"-95.712891"},"from_stop":{"name":"origin","id":"11857","lat":"41.8781136","lon":"-87.6297982","placename":"Chicago, IL, USA"}},{"transport_id":null,"id":"8399","transport_name":null,"transport_description":null,"transport_unit":null,"transport_co2_eq":null,"from_stop_id":"11858","from_stop_lat":"-0.789275","from_stop_lon":"113.921327","to_stop_id":"11856","to_stop_name":"origin","to_stop_lat":"37.09024","placename":"Indonesia","to_stop_lon":"-95.712891","to_stop":{"id":"11856","name":"origin","lat":"37.09024","placename":"United States","lon":"-95.712891"},"from_stop":{"name":"origin","id":"11858","lat":"-0.789275","lon":"113.921327","placename":"Indonesia"}},{"transport_id":null,"id":"8400","transport_name":null,"transport_description":null,"transport_unit":null,"transport_co2_eq":null,"from_stop_id":"11859","from_stop_lat":"23.885942","from_stop_lon":"45.079162","to_stop_id":"11856","to_stop_name":"origin","to_stop_lat":"37.09024","placename":"Saudi Arabia","to_stop_lon":"-95.712891","to_stop":{"id":"11856","name":"origin","lat":"37.09024","placename":"United States","lon":"-95.712891"},"from_stop":{"name":"origin","id":"11859","lat":"23.885942","lon":"45.079162","placename":"Saudi Arabia"}},{"transport_id":null,"id":"8401","transport_name":null,"transport_description":null,"transport_unit":null,"transport_co2_eq":null,"from_stop_id":"11860","from_stop_lat":"43.0759678","from_stop_lon":"-107.2902839","to_stop_id":"11856","to_stop_name":"origin","to_stop_lat":"37.09024","placename":"Wyoming, USA","to_stop_lon":"-95.712891","to_stop":{"id":"11856","name":"origin","lat":"37.09024","placename":"United States","lon":"-95.712891"},"from_stop":{"name":"origin","id":"11860","lat":"43.0759678","lon":"-107.2902839","placename":"Wyoming, USA"}},{"transport_id":null,"id":"8402","transport_name":null,"transport_description":null,"transport_unit":null,"transport_co2_eq":null,"from_stop_id":"11861","from_stop_lat":"35.86166","from_stop_lon":"104.195397","to_stop_id":"11856","to_stop_name":"origin","to_stop_lat":"37.09024","placename":"China","to_stop_lon":"-95.712891","to_stop":{"id":"11856","name":"origin","lat":"37.09024","placename":"United States","lon":"-95.712891"},"from_stop":{"name":"origin","id":"11861","lat":"35.86166","lon":"104.195397","placename":"China"}},{"transport_id":null,"id":"8403","transport_name":null,"transport_description":null,"transport_unit":null,"transport_co2_eq":null,"from_stop_id":"11862","from_stop_lat":"20.593684","from_stop_lon":"78.96288","to_stop_id":"11856","to_stop_name":"origin","to_stop_lat":"37.09024","placename":"India","to_stop_lon":"-95.712891","to_stop":{"id":"11856","name":"origin","lat":"37.09024","placename":"United States","lon":"-95.712891"},"from_stop":{"name":"origin","id":"11862","lat":"20.593684","lon":"78.96288","placename":"India"}},{"transport_id":null,"id":"8404","transport_name":null,"transport_description":null,"transport_unit":null,"transport_co2_eq":null,"from_stop_id":"11863","from_stop_lat":"47.5514926","from_stop_lon":"-101.0020119","to_stop_id":"11856","to_stop_name":"origin","to_stop_lat":"37.09024","placename":"North Dakota, USA","to_stop_lon":"-95.712891","to_stop":{"id":"11856","name":"origin","lat":"37.09024","placename":"United States","lon":"-95.712891"},"from_stop":{"name":"origin","id":"11863","lat":"47.5514926","lon":"-101.0020119","placename":"North Dakota, USA"}},{"transport_id":null,"id":"8405","transport_name":null,"transport_description":null,"transport_unit":null,"transport_co2_eq":null,"from_stop_id":"11864","from_stop_lat":"35.86166","from_stop_lon":"104.195397","to_stop_id":"11856","to_stop_name":"origin","to_stop_lat":"37.09024","placename":"China","to_stop_lon":"-95.712891","to_stop":{"id":"11856","name":"origin","lat":"37.09024","placename":"United States","lon":"-95.712891"},"from_stop":{"name":"origin","id":"11864","lat":"35.86166","lon":"104.195397","placename":"China"}},{"transport_id":null,"id":"8406","transport_name":null,"transport_description":null,"transport_unit":null,"transport_co2_eq":null,"from_stop_id":"11865","from_stop_lat":"39.011902","from_stop_lon":"-98.4842465","to_stop_id":"11856","to_stop_name":"origin","to_stop_lat":"37.09024","placename":"Kansas, USA","to_stop_lon":"-95.712891","to_stop":{"id":"11856","name":"origin","lat":"37.09024","placename":"United States","lon":"-95.712891"},"from_stop":{"name":"origin","id":"11865","lat":"39.011902","lon":"-98.4842465","placename":"Kansas, USA"}}],"outgoing":[]}}},"parts":[{"oid":"566","imid":"6222","linkid":"0","weight":"0","rawemissions":"0","emissions":"0","shipping":"874.75","processemissions":"0","endoflifeemissions":"0","disposaltype":null,"disposalenergy":null,"disposalimpact":null,"disposalemissions":null,"description":"","name":"Chemicals","id":"6222","stops":{"origin":{"related_to":"6222","part_or_object":"p","notes":null,"placename":"Chicago, IL, USA","id":11857,"name":"origin","lat":"41.8781136","lon":"-87.6297982","hops":{"incoming":[],"outgoing":[{"transport_id":null,"id":"8398","transport_name":null,"transport_description":null,"transport_unit":null,"transport_co2_eq":null,"from_stop_id":"11857","from_stop_lat":"41.8781136","from_stop_lon":"-87.6297982","from_stop_placename":"Chicago, IL, USA","to_stop_id":"11856","to_stop_name":"origin","to_stop_lat":"37.09024","to_stop_lon":"-95.712891","to_stop_placename":"United States","to_stop":{"id":"11856","name":"origin","lat":"37.09024","lon":"-95.712891","placename":"United States"},"from_stop":{"name":"origin","id":"11857","lat":"41.8781136","lon":"-87.6297982","placename":"Chicago, IL, USA"}}]}}},"processes":[],"eols":[]},{"oid":"566","imid":"6223","linkid":"0","weight":"0","rawemissions":"0","emissions":"0","shipping":"14978.57","processemissions":"0","endoflifeemissions":"0","disposaltype":null,"disposalenergy":null,"disposalimpact":null,"disposalemissions":null,"description":"","name":"Palm Oil","id":"6223","stops":{"origin":{"related_to":"6223","part_or_object":"p","notes":null,"placename":"Indonesia","id":11858,"name":"origin","lat":"-0.789275","lon":"113.921327","hops":{"incoming":[],"outgoing":[{"transport_id":null,"id":"8399","transport_name":null,"transport_description":null,"transport_unit":null,"transport_co2_eq":null,"from_stop_id":"11858","from_stop_lat":"-0.789275","from_stop_lon":"113.921327","from_stop_placename":"Indonesia","to_stop_id":"11856","to_stop_name":"origin","to_stop_lat":"37.09024","to_stop_lon":"-95.712891","to_stop_placename":"United States","to_stop":{"id":"11856","name":"origin","lat":"37.09024","lon":"-95.712891","placename":"United States"},"from_stop":{"name":"origin","id":"11858","lat":"-0.789275","lon":"113.921327","placename":"Indonesia"}}]}}},"processes":[],"eols":[]},{"oid":"566","imid":"6226","linkid":"0","weight":"0","rawemissions":"0","emissions":"0","shipping":"12102.77","processemissions":"0","endoflifeemissions":"0","disposaltype":null,"disposalenergy":null,"disposalimpact":null,"disposalemissions":null,"description":"","name":"Oil","id":"6226","stops":{"origin":{"related_to":"6226","part_or_object":"p","notes":null,"placename":"Saudi Arabia","id":11859,"name":"origin","lat":"23.885942","lon":"45.079162","hops":{"incoming":[],"outgoing":[{"transport_id":null,"id":"8400","transport_name":null,"transport_description":null,"transport_unit":null,"transport_co2_eq":null,"from_stop_id":"11859","from_stop_lat":"23.885942","from_stop_lon":"45.079162","from_stop_placename":"Saudi Arabia","to_stop_id":"11856","to_stop_name":"origin","to_stop_lat":"37.09024","to_stop_lon":"-95.712891","to_stop_placename":"United States","to_stop":{"id":"11856","name":"origin","lat":"37.09024","lon":"-95.712891","placename":"United States"},"from_stop":{"name":"origin","id":"11859","lat":"23.885942","lon":"45.079162","placename":"Saudi Arabia"}}]}}},"processes":[],"eols":[]},{"oid":"566","imid":"6231","linkid":"0","weight":"0","rawemissions":"0","emissions":"0","shipping":"1188.35","processemissions":"0","endoflifeemissions":"0","disposaltype":null,"disposalenergy":null,"disposalimpact":null,"disposalemissions":null,"description":"","name":"Minerals and Salts","id":"6231","stops":{"origin":{"related_to":"6231","part_or_object":"p","notes":null,"placename":"Wyoming, USA","id":11860,"name":"origin","lat":"43.0759678","lon":"-107.2902839","hops":{"incoming":[],"outgoing":[{"transport_id":null,"id":"8401","transport_name":null,"transport_description":null,"transport_unit":null,"transport_co2_eq":null,"from_stop_id":"11860","from_stop_lat":"43.0759678","from_stop_lon":"-107.2902839","from_stop_placename":"Wyoming, USA","to_stop_id":"11856","to_stop_name":"origin","to_stop_lat":"37.09024","to_stop_lon":"-95.712891","to_stop_placename":"United States","to_stop":{"id":"11856","name":"origin","lat":"37.09024","lon":"-95.712891","placename":"United States"},"from_stop":{"name":"origin","id":"11860","lat":"43.0759678","lon":"-107.2902839","placename":"Wyoming, USA"}}]}}},"processes":[],"eols":[]},{"oid":"566","imid":"6232","linkid":"0","weight":"0","rawemissions":"0","emissions":"0","shipping":"11660.31","processemissions":"0","endoflifeemissions":"0","disposaltype":null,"disposalenergy":null,"disposalimpact":null,"disposalemissions":null,"description":"","name":"Water Collection, Purification and Distribution","id":"6232","stops":{"origin":{"related_to":"6232","part_or_object":"p","notes":null,"placename":"China","id":11861,"name":"origin","lat":"35.86166","lon":"104.195397","hops":{"incoming":[],"outgoing":[{"transport_id":null,"id":"8402","transport_name":null,"transport_description":null,"transport_unit":null,"transport_co2_eq":null,"from_stop_id":"11861","from_stop_lat":"35.86166","from_stop_lon":"104.195397","from_stop_placename":"China","to_stop_id":"11856","to_stop_name":"origin","to_stop_lat":"37.09024","to_stop_lon":"-95.712891","to_stop_placename":"United States","to_stop":{"id":"11856","name":"origin","lat":"37.09024","lon":"-95.712891","placename":"United States"},"from_stop":{"name":"origin","id":"11861","lat":"35.86166","lon":"104.195397","placename":"China"}}]}}},"processes":[],"eols":[]},{"oid":"566","imid":"6233","linkid":"0","weight":"0","rawemissions":"0","emissions":"0","shipping":"13591.88","processemissions":"0","endoflifeemissions":"0","disposaltype":null,"disposalenergy":null,"disposalimpact":null,"disposalemissions":null,"description":"","name":"LDPE Packaging","id":"6233","stops":{"origin":{"related_to":"6233","part_or_object":"p","notes":null,"placename":"India","id":11862,"name":"origin","lat":"20.593684","lon":"78.96288","hops":{"incoming":[],"outgoing":[{"transport_id":null,"id":"8403","transport_name":null,"transport_description":null,"transport_unit":null,"transport_co2_eq":null,"from_stop_id":"11862","from_stop_lat":"20.593684","from_stop_lon":"78.96288","from_stop_placename":"India","to_stop_id":"11856","to_stop_name":"origin","to_stop_lat":"37.09024","to_stop_lon":"-95.712891","to_stop_placename":"United States","to_stop":{"id":"11856","name":"origin","lat":"37.09024","lon":"-95.712891","placename":"United States"},"from_stop":{"name":"origin","id":"11862","lat":"20.593684","lon":"78.96288","placename":"India"}}]}}},"processes":[],"eols":[]},{"oid":"566","imid":"6234","linkid":"0","weight":"0","rawemissions":"0","emissions":"0","shipping":"1242.49","processemissions":"0","endoflifeemissions":"0","disposaltype":null,"disposalenergy":null,"disposalimpact":null,"disposalemissions":null,"description":"","name":"Wheat (alcohol)","id":"6234","stops":{"origin":{"related_to":"6234","part_or_object":"p","notes":null,"placename":"North Dakota, USA","id":11863,"name":"origin","lat":"47.5514926","lon":"-101.0020119","hops":{"incoming":[],"outgoing":[{"transport_id":null,"id":"8404","transport_name":null,"transport_description":null,"transport_unit":null,"transport_co2_eq":null,"from_stop_id":"11863","from_stop_lat":"47.5514926","from_stop_lon":"-101.0020119","from_stop_placename":"North Dakota, USA","to_stop_id":"11856","to_stop_name":"origin","to_stop_lat":"37.09024","to_stop_lon":"-95.712891","to_stop_placename":"United States","to_stop":{"id":"11856","name":"origin","lat":"37.09024","lon":"-95.712891","placename":"United States"},"from_stop":{"name":"origin","id":"11863","lat":"47.5514926","lon":"-101.0020119","placename":"North Dakota, USA"}}]}}},"processes":[],"eols":[]},{"oid":"566","imid":"6238","linkid":"0","weight":"0","rawemissions":"0","emissions":"0","shipping":"11660.31","processemissions":"0","endoflifeemissions":"0","disposaltype":null,"disposalenergy":null,"disposalimpact":null,"disposalemissions":null,"description":"","name":"Vegetables and Fruits (Potato)","id":"6238","stops":{"origin":{"related_to":"6238","part_or_object":"p","notes":null,"placename":"China","id":11864,"name":"origin","lat":"35.86166","lon":"104.195397","hops":{"incoming":[],"outgoing":[{"transport_id":null,"id":"8405","transport_name":null,"transport_description":null,"transport_unit":null,"transport_co2_eq":null,"from_stop_id":"11864","from_stop_lat":"35.86166","from_stop_lon":"104.195397","from_stop_placename":"China","to_stop_id":"11856","to_stop_name":"origin","to_stop_lat":"37.09024","to_stop_lon":"-95.712891","to_stop_placename":"United States","to_stop":{"id":"11856","name":"origin","lat":"37.09024","lon":"-95.712891","placename":"United States"},"from_stop":{"name":"origin","id":"11864","lat":"35.86166","lon":"104.195397","placename":"China"}}]}}},"processes":[],"eols":[]},{"oid":"566","imid":"6266","linkid":"0","weight":"0","rawemissions":"0","emissions":"0","shipping":"323.67","processemissions":"0","endoflifeemissions":"0","disposaltype":null,"disposalenergy":null,"disposalimpact":null,"disposalemissions":null,"description":"","name":"Other Grains","id":"6266","stops":{"origin":{"related_to":"6266","part_or_object":"p","notes":null,"placename":"Kansas, USA","id":11865,"name":"origin","lat":"39.011902","lon":"-98.4842465","hops":{"incoming":[],"outgoing":[{"transport_id":null,"id":"8406","transport_name":null,"transport_description":null,"transport_unit":null,"transport_co2_eq":null,"from_stop_id":"11865","from_stop_lat":"39.011902","from_stop_lon":"-98.4842465","from_stop_placename":"Kansas, USA","to_stop_id":"11856","to_stop_name":"origin","to_stop_lat":"37.09024","to_stop_lon":"-95.712891","to_stop_placename":"United States","to_stop":{"id":"11856","name":"origin","lat":"37.09024","lon":"-95.712891","placename":"United States"},"from_stop":{"name":"origin","id":"11865","lat":"39.011902","lon":"-98.4842465","placename":"Kansas, USA"}}]}}},"processes":[],"eols":[]}],"user":{"name":"Tamblium","id":"12406"}}}