{"568":{"oid":"568","type":"food","flag":"","creator":"12448","name":"Ribena","upc":"","imagelink":"","description":"Reference:http:\/\/en.wikipedia.org\/wiki\/Ribena","slug":"Ribena","category":"","weight":"0","emissions":"0","embodied":"0","transport":"0","process":null,"endoflife":null,"shipping":"29881.37","lifetime":null,"usagetype":"","usageenergy":null,"usageemissions":null,"timecreated":"2011-02-22 07:48:26","timemodified":"2011-02-22 07:59:41","visibility":"public","showfootprint":"on","showembodied":"on","showtransport":"on","showprocess":"on","showendoflife":"on","showlastleg":"on","showuse":"on","showstats":"on","stops":{"origin":{"related_to":"568","part_or_object":"o","notes":null,"placename":"Philippines","id":"11676","category":"1","lat":"12.879721","lon":"121.774017","name":"origin","hops":{"incoming":[{"transport_id":null,"id":"8235","transport_name":null,"transport_description":null,"transport_unit":null,"transport_co2_eq":null,"from_stop_id":"11677","from_stop_lat":"55.378051","from_stop_lon":"-3.435973","to_stop_id":"11676","to_stop_name":"origin","to_stop_lat":"12.879721","placename":"United Kingdom","to_stop_lon":"121.774017","to_stop":{"id":"11676","name":"origin","lat":"12.879721","placename":"Philippines","lon":"121.774017"},"from_stop":{"name":"origin","id":"11677","lat":"55.378051","lon":"-3.435973","placename":"United Kingdom"}},{"transport_id":null,"id":"8236","transport_name":null,"transport_description":null,"transport_unit":null,"transport_co2_eq":null,"from_stop_id":"11678","from_stop_lat":"55.378051","from_stop_lon":"-3.435973","to_stop_id":"11676","to_stop_name":"origin","to_stop_lat":"12.879721","placename":"United Kingdom","to_stop_lon":"121.774017","to_stop":{"id":"11676","name":"origin","lat":"12.879721","placename":"Philippines","lon":"121.774017"},"from_stop":{"name":"origin","id":"11678","lat":"55.378051","lon":"-3.435973","placename":"United Kingdom"}},{"transport_id":null,"id":"8237","transport_name":null,"transport_description":null,"transport_unit":null,"transport_co2_eq":null,"from_stop_id":"11679","from_stop_lat":"35.86166","from_stop_lon":"104.195397","to_stop_id":"11676","to_stop_name":"origin","to_stop_lat":"12.879721","placename":"China","to_stop_lon":"121.774017","to_stop":{"id":"11676","name":"origin","lat":"12.879721","placename":"Philippines","lon":"121.774017"},"from_stop":{"name":"origin","id":"11679","lat":"35.86166","lon":"104.195397","placename":"China"}},{"transport_id":null,"id":"8238","transport_name":null,"transport_description":null,"transport_unit":null,"transport_co2_eq":null,"from_stop_id":"11680","from_stop_lat":"39.121079","from_stop_lon":"117.214389","to_stop_id":"11676","to_stop_name":"origin","to_stop_lat":"12.879721","placename":"Tianjin, China","to_stop_lon":"121.774017","to_stop":{"id":"11676","name":"origin","lat":"12.879721","placename":"Philippines","lon":"121.774017"},"from_stop":{"name":"origin","id":"11680","lat":"39.121079","lon":"117.214389","placename":"Tianjin, China"}},{"transport_id":null,"id":"8239","transport_name":null,"transport_description":null,"transport_unit":null,"transport_co2_eq":null,"from_stop_id":"11681","from_stop_lat":"31.230393","from_stop_lon":"121.473704","to_stop_id":"11676","to_stop_name":"origin","to_stop_lat":"12.879721","placename":"Shanghai, China","to_stop_lon":"121.774017","to_stop":{"id":"11676","name":"origin","lat":"12.879721","placename":"Philippines","lon":"121.774017"},"from_stop":{"name":"origin","id":"11681","lat":"31.230393","lon":"121.473704","placename":"Shanghai, China"}}],"outgoing":[]}}},"parts":[{"oid":"568","imid":"6243","linkid":"0","weight":"0","rawemissions":"0","emissions":"0","shipping":"10888.31","processemissions":"0","endoflifeemissions":"0","disposaltype":null,"disposalenergy":null,"disposalimpact":null,"disposalemissions":null,"description":"","name":"Blackcurrants","id":"6243","stops":{"origin":{"related_to":"6243","part_or_object":"p","notes":null,"placename":"United Kingdom","id":11677,"name":"origin","lat":"55.378051","lon":"-3.435973","hops":{"incoming":[],"outgoing":[{"transport_id":null,"id":"8235","transport_name":null,"transport_description":null,"transport_unit":null,"transport_co2_eq":null,"from_stop_id":"11677","from_stop_lat":"55.378051","from_stop_lon":"-3.435973","from_stop_placename":"United Kingdom","to_stop_id":"11676","to_stop_name":"origin","to_stop_lat":"12.879721","to_stop_lon":"121.774017","to_stop_placename":"Philippines","to_stop":{"id":"11676","name":"origin","lat":"12.879721","lon":"121.774017","placename":"Philippines"},"from_stop":{"name":"origin","id":"11677","lat":"55.378051","lon":"-3.435973","placename":"United Kingdom"}}]}}},"processes":[],"eols":[]},{"oid":"568","imid":"6244","linkid":"food\/bottle-water","weight":"0","rawemissions":"0","emissions":"0","shipping":"10888.31","processemissions":"0","endoflifeemissions":"0","disposaltype":null,"disposalenergy":null,"disposalimpact":null,"disposalemissions":null,"description":"","name":"Bottle water","id":"6244","stops":{"origin":{"related_to":"6244","part_or_object":"p","notes":null,"placename":"United Kingdom","id":11678,"name":"origin","lat":"55.378051","lon":"-3.435973","hops":{"incoming":[],"outgoing":[{"transport_id":null,"id":"8236","transport_name":null,"transport_description":null,"transport_unit":null,"transport_co2_eq":null,"from_stop_id":"11678","from_stop_lat":"55.378051","from_stop_lon":"-3.435973","from_stop_placename":"United Kingdom","to_stop_id":"11676","to_stop_name":"origin","to_stop_lat":"12.879721","to_stop_lon":"121.774017","to_stop_placename":"Philippines","to_stop":{"id":"11676","name":"origin","lat":"12.879721","lon":"121.774017","placename":"Philippines"},"from_stop":{"name":"origin","id":"11678","lat":"55.378051","lon":"-3.435973","placename":"United Kingdom"}}]}}},"processes":[],"eols":[]},{"oid":"568","imid":"6245","linkid":"0","weight":"0","rawemissions":"0","emissions":"0","shipping":"3106.22","processemissions":"0","endoflifeemissions":"0","disposaltype":null,"disposalenergy":null,"disposalimpact":null,"disposalemissions":null,"description":"","name":"Citric Acid","id":"6245","stops":{"origin":{"related_to":"6245","part_or_object":"p","notes":null,"placename":"China","id":11679,"name":"origin","lat":"35.86166","lon":"104.195397","hops":{"incoming":[],"outgoing":[{"transport_id":null,"id":"8237","transport_name":null,"transport_description":null,"transport_unit":null,"transport_co2_eq":null,"from_stop_id":"11679","from_stop_lat":"35.86166","from_stop_lon":"104.195397","from_stop_placename":"China","to_stop_id":"11676","to_stop_name":"origin","to_stop_lat":"12.879721","to_stop_lon":"121.774017","to_stop_placename":"Philippines","to_stop":{"id":"11676","name":"origin","lat":"12.879721","lon":"121.774017","placename":"Philippines"},"from_stop":{"name":"origin","id":"11679","lat":"35.86166","lon":"104.195397","placename":"China"}}]}}},"processes":[],"eols":[]},{"oid":"568","imid":"6246","linkid":"0","weight":"0","rawemissions":"0","emissions":"0","shipping":"2955.51","processemissions":"0","endoflifeemissions":"0","disposaltype":null,"disposalenergy":null,"disposalimpact":null,"disposalemissions":null,"description":"","name":"Sucrose","id":"6246","stops":{"origin":{"related_to":"6246","part_or_object":"p","notes":null,"placename":"Tianjin, China","id":11680,"name":"origin","lat":"39.121079","lon":"117.214389","hops":{"incoming":[],"outgoing":[{"transport_id":null,"id":"8238","transport_name":null,"transport_description":null,"transport_unit":null,"transport_co2_eq":null,"from_stop_id":"11680","from_stop_lat":"39.121079","from_stop_lon":"117.214389","from_stop_placename":"Tianjin, China","to_stop_id":"11676","to_stop_name":"origin","to_stop_lat":"12.879721","to_stop_lon":"121.774017","to_stop_placename":"Philippines","to_stop":{"id":"11676","name":"origin","lat":"12.879721","lon":"121.774017","placename":"Philippines"},"from_stop":{"name":"origin","id":"11680","lat":"39.121079","lon":"117.214389","placename":"Tianjin, China"}}]}}},"processes":[],"eols":[]},{"oid":"568","imid":"6247","linkid":"0","weight":"0","rawemissions":"0","emissions":"0","shipping":"2043.02","processemissions":"0","endoflifeemissions":"0","disposaltype":null,"disposalenergy":null,"disposalimpact":null,"disposalemissions":null,"description":"","name":"Potassium Sorbate","id":"6247","stops":{"origin":{"related_to":"6247","part_or_object":"p","notes":null,"placename":"Shanghai, China","id":11681,"name":"origin","lat":"31.230393","lon":"121.473704","hops":{"incoming":[],"outgoing":[{"transport_id":null,"id":"8239","transport_name":null,"transport_description":null,"transport_unit":null,"transport_co2_eq":null,"from_stop_id":"11681","from_stop_lat":"31.230393","from_stop_lon":"121.473704","from_stop_placename":"Shanghai, China","to_stop_id":"11676","to_stop_name":"origin","to_stop_lat":"12.879721","to_stop_lon":"121.774017","to_stop_placename":"Philippines","to_stop":{"id":"11676","name":"origin","lat":"12.879721","lon":"121.774017","placename":"Philippines"},"from_stop":{"name":"origin","id":"11681","lat":"31.230393","lon":"121.473704","placename":"Shanghai, China"}}]}}},"processes":[],"eols":[]}],"user":{"name":"liyslmn","id":"12448"}}}