{"570":{"oid":"570","type":"food","flag":"","creator":"12460","name":"Tacos de asada","upc":"","imagelink":"","description":"","slug":"Tacos-de-asada","category":"","weight":"0","emissions":"0","embodied":"0","transport":"0","process":null,"endoflife":null,"shipping":"26718.3","lifetime":null,"usagetype":"","usageenergy":null,"usageemissions":null,"timecreated":"2011-02-22 08:36:25","timemodified":"2011-02-22 16:50:38","visibility":"public","showfootprint":"on","showembodied":"on","showtransport":"on","showprocess":"on","showendoflife":"on","showlastleg":"on","showuse":"on","showstats":"on","stops":{"origin":{"related_to":"570","part_or_object":"o","notes":null,"placename":"Hood River, OR 97031, USA","id":"11892","category":"1","lat":"45.7053966","lon":"-121.5214623","name":"origin","hops":{"incoming":[{"transport_id":"20","id":"8431","transport_name":"Road","transport_description":"from the Greenhouse Gas Protocol Initiative - GHG emission from transport or mobile sources calculator 2.0 (jun 2009)","transport_unit":"kg km","transport_co2_eq":"0.000204","from_stop_id":"11893","from_stop_lat":"23.634501","from_stop_lon":"-102.552784","to_stop_id":"11892","to_stop_name":"origin","to_stop_lat":"45.7053966","placename":"Mexico","to_stop_lon":"-121.5214623","to_stop":{"id":"11892","name":"origin","lat":"45.7053966","placename":"Hood River, OR 97031, USA","lon":"-121.5214623"},"from_stop":{"name":"origin","id":"11893","lat":"23.634501","lon":"-102.552784","placename":"Mexico"}},{"transport_id":"20","id":"8432","transport_name":"Road","transport_description":"from the Greenhouse Gas Protocol Initiative - GHG emission from transport or mobile sources calculator 2.0 (jun 2009)","transport_unit":"kg km","transport_co2_eq":"0.000204","from_stop_id":"11894","from_stop_lat":"45.5198391","from_stop_lon":"-121.5967417","to_stop_id":"11892","to_stop_name":"origin","to_stop_lat":"45.7053966","placename":"Mt Hood Parkdale, OR 97041, USA","to_stop_lon":"-121.5214623","to_stop":{"id":"11892","name":"origin","lat":"45.7053966","placename":"Hood River, OR 97031, USA","lon":"-121.5214623"},"from_stop":{"name":"origin","id":"11894","lat":"45.5198391","lon":"-121.5967417","placename":"Mt Hood Parkdale, OR 97041, USA"}},{"transport_id":"20","id":"8433","transport_name":"Road","transport_description":"from the Greenhouse Gas Protocol Initiative - GHG emission from transport or mobile sources calculator 2.0 (jun 2009)","transport_unit":"kg km","transport_co2_eq":"0.000204","from_stop_id":"11895","from_stop_lat":"36.778261","from_stop_lon":"-119.4179324","to_stop_id":"11892","to_stop_name":"origin","to_stop_lat":"45.7053966","placename":"California, USA","to_stop_lon":"-121.5214623","to_stop":{"id":"11892","name":"origin","lat":"45.7053966","placename":"Hood River, OR 97031, USA","lon":"-121.5214623"},"from_stop":{"name":"origin","id":"11895","lat":"36.778261","lon":"-119.4179324","placename":"California, USA"}},{"transport_id":"20","id":"8434","transport_name":"Road","transport_description":"from the Greenhouse Gas Protocol Initiative - GHG emission from transport or mobile sources calculator 2.0 (jun 2009)","transport_unit":"kg km","transport_co2_eq":"0.000204","from_stop_id":"11896","from_stop_lat":"23.634501","from_stop_lon":"-102.552784","to_stop_id":"11892","to_stop_name":"origin","to_stop_lat":"45.7053966","placename":"Mexico","to_stop_lon":"-121.5214623","to_stop":{"id":"11892","name":"origin","lat":"45.7053966","placename":"Hood River, OR 97031, USA","lon":"-121.5214623"},"from_stop":{"name":"origin","id":"11896","lat":"23.634501","lon":"-102.552784","placename":"Mexico"}},{"transport_id":"20","id":"8435","transport_name":"Road","transport_description":"from the Greenhouse Gas Protocol Initiative - GHG emission from transport or mobile sources calculator 2.0 (jun 2009)","transport_unit":"kg km","transport_co2_eq":"0.000204","from_stop_id":"11897","from_stop_lat":"36.778261","from_stop_lon":"-119.4179324","to_stop_id":"11892","to_stop_name":"origin","to_stop_lat":"45.7053966","placename":"California, USA","to_stop_lon":"-121.5214623","to_stop":{"id":"11892","name":"origin","lat":"45.7053966","placename":"Hood River, OR 97031, USA","lon":"-121.5214623"},"from_stop":{"name":"origin","id":"11897","lat":"36.778261","lon":"-119.4179324","placename":"California, USA"}},{"transport_id":"21","id":"8436","transport_name":"Air(>1500km)","transport_description":"from the Greenhouse Gas Protocol Initiative - GHG emission from transport or mobile sources calculator 2.0 (jun 2009)","transport_unit":"kg km","transport_co2_eq":"0.001439","from_stop_id":"11898","from_stop_lat":"-9.189967","from_stop_lon":"-75.015152","to_stop_id":"11892","to_stop_name":"origin","to_stop_lat":"45.7053966","placename":"Peru","to_stop_lon":"-121.5214623","to_stop":{"id":"11892","name":"origin","lat":"45.7053966","placename":"Hood River, OR 97031, USA","lon":"-121.5214623"},"from_stop":{"name":"origin","id":"11898","lat":"-9.189967","lon":"-75.015152","placename":"Peru"}},{"transport_id":"20","id":"8437","transport_name":"Road","transport_description":"from the Greenhouse Gas Protocol Initiative - GHG emission from transport or mobile sources calculator 2.0 (jun 2009)","transport_unit":"kg km","transport_co2_eq":"0.000204","from_stop_id":"11899","from_stop_lat":"41.254006","from_stop_lon":"-95.999258","to_stop_id":"11892","to_stop_name":"origin","to_stop_lat":"45.7053966","placename":"Omaha, NE, USA","to_stop_lon":"-121.5214623","to_stop":{"id":"11892","name":"origin","lat":"45.7053966","placename":"Hood River, OR 97031, USA","lon":"-121.5214623"},"from_stop":{"name":"origin","id":"11899","lat":"41.254006","lon":"-95.999258","placename":"Omaha, NE, USA"}},{"transport_id":"19","id":"8438","transport_name":"Rail","transport_description":"from the Greenhouse Gas Protocol Initiative - GHG emission from transport or mobile sources calculator 2.0 (jun 2009)","transport_unit":"kg km","transport_co2_eq":"0.000017","from_stop_id":"11900","from_stop_lat":"40.0583238","from_stop_lon":"-74.4056612","to_stop_id":"11892","to_stop_name":"origin","to_stop_lat":"45.7053966","placename":"New Jersey, USA","to_stop_lon":"-121.5214623","to_stop":{"id":"11892","name":"origin","lat":"45.7053966","placename":"Hood River, OR 97031, USA","lon":"-121.5214623"},"from_stop":{"name":"origin","id":"11900","lat":"40.0583238","lon":"-74.4056612","placename":"New Jersey, USA"}},{"transport_id":"20","id":"8439","transport_name":"Road","transport_description":"from the Greenhouse Gas Protocol Initiative - GHG emission from transport or mobile sources calculator 2.0 (jun 2009)","transport_unit":"kg km","transport_co2_eq":"0.000204","from_stop_id":"11901","from_stop_lat":"36.778261","from_stop_lon":"-119.4179324","to_stop_id":"11892","to_stop_name":"origin","to_stop_lat":"45.7053966","placename":"California, USA","to_stop_lon":"-121.5214623","to_stop":{"id":"11892","name":"origin","lat":"45.7053966","placename":"Hood River, OR 97031, USA","lon":"-121.5214623"},"from_stop":{"name":"origin","id":"11901","lat":"36.778261","lon":"-119.4179324","placename":"California, USA"}},{"transport_id":"20","id":"8440","transport_name":"Road","transport_description":"from the Greenhouse Gas Protocol Initiative - GHG emission from transport or mobile sources calculator 2.0 (jun 2009)","transport_unit":"kg km","transport_co2_eq":"0.000204","from_stop_id":"11902","from_stop_lat":"45.1087279","from_stop_lon":"-121.3636761","to_stop_id":"11892","to_stop_name":"origin","to_stop_lat":"45.7053966","placename":"Pine Grove, OR 97037, USA","to_stop_lon":"-121.5214623","to_stop":{"id":"11892","name":"origin","lat":"45.7053966","placename":"Hood River, OR 97031, USA","lon":"-121.5214623"},"from_stop":{"name":"origin","id":"11902","lat":"45.1087279","lon":"-121.3636761","placename":"Pine Grove, OR 97037, USA"}},{"transport_id":"20","id":"8441","transport_name":"Road","transport_description":"from the Greenhouse Gas Protocol Initiative - GHG emission from transport or mobile sources calculator 2.0 (jun 2009)","transport_unit":"kg km","transport_co2_eq":"0.000204","from_stop_id":"11903","from_stop_lat":"36.778261","from_stop_lon":"-119.4179324","to_stop_id":"11892","to_stop_name":"origin","to_stop_lat":"45.7053966","placename":"California, USA","to_stop_lon":"-121.5214623","to_stop":{"id":"11892","name":"origin","lat":"45.7053966","placename":"Hood River, OR 97031, USA","lon":"-121.5214623"},"from_stop":{"name":"origin","id":"11903","lat":"36.778261","lon":"-119.4179324","placename":"California, USA"}},{"transport_id":"20","id":"8442","transport_name":"Road","transport_description":"from the Greenhouse Gas Protocol Initiative - GHG emission from transport or mobile sources calculator 2.0 (jun 2009)","transport_unit":"kg km","transport_co2_eq":"0.000204","from_stop_id":"11904","from_stop_lat":"23.634501","from_stop_lon":"-102.552784","to_stop_id":"11892","to_stop_name":"origin","to_stop_lat":"45.7053966","placename":"Mexico","to_stop_lon":"-121.5214623","to_stop":{"id":"11892","name":"origin","lat":"45.7053966","placename":"Hood River, OR 97031, USA","lon":"-121.5214623"},"from_stop":{"name":"origin","id":"11904","lat":"23.634501","lon":"-102.552784","placename":"Mexico"}}],"outgoing":[]}}},"parts":[{"oid":"570","imid":"6275","linkid":"0","weight":"0","rawemissions":"0","emissions":"0","shipping":"1009.14","processemissions":"0","endoflifeemissions":"0","disposaltype":null,"disposalenergy":null,"disposalimpact":null,"disposalemissions":null,"description":"","name":"cabbage","id":"6275","stops":{"origin":{"related_to":"6275","part_or_object":"p","notes":null,"placename":"California, USA","id":11901,"name":"origin","lat":"36.778261","lon":"-119.4179324","hops":{"incoming":[],"outgoing":[{"transport_id":"20","id":"8439","transport_name":"Road","transport_description":"from the Greenhouse Gas Protocol Initiative - GHG emission from transport or mobile sources calculator 2.0 (jun 2009)","transport_unit":"kg km","transport_co2_eq":"0.000204","from_stop_id":"11901","from_stop_lat":"36.778261","from_stop_lon":"-119.4179324","from_stop_placename":"California, USA","to_stop_id":"11892","to_stop_name":"origin","to_stop_lat":"45.7053966","to_stop_lon":"-121.5214623","to_stop_placename":"Hood River, OR 97031, USA","to_stop":{"id":"11892","name":"origin","lat":"45.7053966","lon":"-121.5214623","placename":"Hood River, OR 97031, USA"},"from_stop":{"name":"origin","id":"11901","lat":"36.778261","lon":"-119.4179324","placename":"California, USA"}}]}}},"processes":[],"eols":[]},{"oid":"570","imid":"6276","linkid":"0","weight":"0","rawemissions":"0","emissions":"0","shipping":"67.56","processemissions":"0","endoflifeemissions":"0","disposaltype":null,"disposalenergy":null,"disposalimpact":null,"disposalemissions":null,"description":"","name":"Juanitas tortillas","id":"6276","stops":{"origin":{"related_to":"6276","part_or_object":"p","notes":null,"placename":"Pine Grove, OR 97037, USA","id":11902,"name":"origin","lat":"45.1087279","lon":"-121.3636761","hops":{"incoming":[],"outgoing":[{"transport_id":"20","id":"8440","transport_name":"Road","transport_description":"from the Greenhouse Gas Protocol Initiative - GHG emission from transport or mobile sources calculator 2.0 (jun 2009)","transport_unit":"kg km","transport_co2_eq":"0.000204","from_stop_id":"11902","from_stop_lat":"45.1087279","from_stop_lon":"-121.3636761","from_stop_placename":"Pine Grove, OR 97037, USA","to_stop_id":"11892","to_stop_name":"origin","to_stop_lat":"45.7053966","to_stop_lon":"-121.5214623","to_stop_placename":"Hood River, OR 97031, USA","to_stop":{"id":"11892","name":"origin","lat":"45.7053966","lon":"-121.5214623","placename":"Hood River, OR 97031, USA"},"from_stop":{"name":"origin","id":"11902","lat":"45.1087279","lon":"-121.3636761","placename":"Pine Grove, OR 97037, USA"}}]}}},"processes":[],"eols":[]},{"oid":"570","imid":"6277","linkid":"parts\/tomatoes","weight":"0","rawemissions":"1.03","emissions":"0","shipping":"1009.14","processemissions":"0","endoflifeemissions":"0","disposaltype":null,"disposalenergy":null,"disposalimpact":null,"disposalemissions":null,"description":"","name":"Tomatoes","id":"6277","stops":{"origin":{"related_to":"6277","part_or_object":"p","notes":null,"placename":"California, USA","id":11903,"name":"origin","lat":"36.778261","lon":"-119.4179324","hops":{"incoming":[],"outgoing":[{"transport_id":"20","id":"8441","transport_name":"Road","transport_description":"from the Greenhouse Gas Protocol Initiative - GHG emission from transport or mobile sources calculator 2.0 (jun 2009)","transport_unit":"kg km","transport_co2_eq":"0.000204","from_stop_id":"11903","from_stop_lat":"36.778261","from_stop_lon":"-119.4179324","from_stop_placename":"California, USA","to_stop_id":"11892","to_stop_name":"origin","to_stop_lat":"45.7053966","to_stop_lon":"-121.5214623","to_stop_placename":"Hood River, OR 97031, USA","to_stop":{"id":"11892","name":"origin","lat":"45.7053966","lon":"-121.5214623","placename":"Hood River, OR 97031, USA"},"from_stop":{"name":"origin","id":"11903","lat":"36.778261","lon":"-119.4179324","placename":"California, USA"}}]}}},"processes":[],"eols":[]},{"oid":"570","imid":"6278","linkid":"food\/mymap","weight":"0","rawemissions":"0","emissions":"0","shipping":"2991.95","processemissions":"0","endoflifeemissions":"0","disposaltype":null,"disposalenergy":null,"disposalimpact":null,"disposalemissions":null,"description":"","name":"chiles de arbol","id":"6278","stops":{"origin":{"related_to":"6278","part_or_object":"p","notes":null,"placename":"Mexico","id":11904,"name":"origin","lat":"23.634501","lon":"-102.552784","hops":{"incoming":[],"outgoing":[{"transport_id":"20","id":"8442","transport_name":"Road","transport_description":"from the Greenhouse Gas Protocol Initiative - GHG emission from transport or mobile sources calculator 2.0 (jun 2009)","transport_unit":"kg km","transport_co2_eq":"0.000204","from_stop_id":"11904","from_stop_lat":"23.634501","from_stop_lon":"-102.552784","from_stop_placename":"Mexico","to_stop_id":"11892","to_stop_name":"origin","to_stop_lat":"45.7053966","to_stop_lon":"-121.5214623","to_stop_placename":"Hood River, OR 97031, USA","to_stop":{"id":"11892","name":"origin","lat":"45.7053966","lon":"-121.5214623","placename":"Hood River, OR 97031, USA"},"from_stop":{"name":"origin","id":"11904","lat":"23.634501","lon":"-102.552784","placename":"Mexico"}}]}}},"processes":[],"eols":[]},{"oid":"570","imid":"6271","linkid":"0","weight":"0","rawemissions":"0","emissions":"0","shipping":"1009.14","processemissions":"0","endoflifeemissions":"0","disposaltype":null,"disposalenergy":null,"disposalimpact":null,"disposalemissions":null,"description":"","name":"garlic","id":"6271","stops":{"origin":{"related_to":"6271","part_or_object":"p","notes":null,"placename":"California, USA","id":11897,"name":"origin","lat":"36.778261","lon":"-119.4179324","hops":{"incoming":[],"outgoing":[{"transport_id":"20","id":"8435","transport_name":"Road","transport_description":"from the Greenhouse Gas Protocol Initiative - GHG emission from transport or mobile sources calculator 2.0 (jun 2009)","transport_unit":"kg km","transport_co2_eq":"0.000204","from_stop_id":"11897","from_stop_lat":"36.778261","from_stop_lon":"-119.4179324","from_stop_placename":"California, USA","to_stop_id":"11892","to_stop_name":"origin","to_stop_lat":"45.7053966","to_stop_lon":"-121.5214623","to_stop_placename":"Hood River, OR 97031, USA","to_stop":{"id":"11892","name":"origin","lat":"45.7053966","lon":"-121.5214623","placename":"Hood River, OR 97031, USA"},"from_stop":{"name":"origin","id":"11897","lat":"36.778261","lon":"-119.4179324","placename":"California, USA"}}]}}},"processes":[],"eols":[]},{"oid":"570","imid":"6267","linkid":"parts\/avocados","weight":"0","rawemissions":"2.26","emissions":"0","shipping":"2991.95","processemissions":"0","endoflifeemissions":"0","disposaltype":null,"disposalenergy":null,"disposalimpact":null,"disposalemissions":null,"description":"","name":"Avocados","id":"6267","stops":{"origin":{"related_to":"6267","part_or_object":"p","notes":null,"placename":"Mexico","id":11893,"name":"origin","lat":"23.634501","lon":"-102.552784","hops":{"incoming":[],"outgoing":[{"transport_id":"20","id":"8431","transport_name":"Road","transport_description":"from the Greenhouse Gas Protocol Initiative - GHG emission from transport or mobile sources calculator 2.0 (jun 2009)","transport_unit":"kg km","transport_co2_eq":"0.000204","from_stop_id":"11893","from_stop_lat":"23.634501","from_stop_lon":"-102.552784","from_stop_placename":"Mexico","to_stop_id":"11892","to_stop_name":"origin","to_stop_lat":"45.7053966","to_stop_lon":"-121.5214623","to_stop_placename":"Hood River, OR 97031, USA","to_stop":{"id":"11892","name":"origin","lat":"45.7053966","lon":"-121.5214623","placename":"Hood River, OR 97031, USA"},"from_stop":{"name":"origin","id":"11893","lat":"23.634501","lon":"-102.552784","placename":"Mexico"}}]}}},"processes":[],"eols":[]},{"oid":"570","imid":"6268","linkid":"parts\/beef-grain-fed","weight":"0","rawemissions":"13.3","emissions":"0","shipping":"21.47","processemissions":"0","endoflifeemissions":"0","disposaltype":null,"disposalenergy":null,"disposalimpact":null,"disposalemissions":null,"description":"","name":"Beef, Grain-fed","id":"6268","stops":{"origin":{"related_to":"6268","part_or_object":"p","notes":null,"placename":"Mt Hood Parkdale, OR 97041, USA","id":11894,"name":"origin","lat":"45.5198391","lon":"-121.5967417","hops":{"incoming":[],"outgoing":[{"transport_id":"20","id":"8432","transport_name":"Road","transport_description":"from the Greenhouse Gas Protocol Initiative - GHG emission from transport or mobile sources calculator 2.0 (jun 2009)","transport_unit":"kg km","transport_co2_eq":"0.000204","from_stop_id":"11894","from_stop_lat":"45.5198391","from_stop_lon":"-121.5967417","from_stop_placename":"Mt Hood Parkdale, OR 97041, USA","to_stop_id":"11892","to_stop_name":"origin","to_stop_lat":"45.7053966","to_stop_lon":"-121.5214623","to_stop_placename":"Hood River, OR 97031, USA","to_stop":{"id":"11892","name":"origin","lat":"45.7053966","lon":"-121.5214623","placename":"Hood River, OR 97031, USA"},"from_stop":{"name":"origin","id":"11894","lat":"45.5198391","lon":"-121.5967417","placename":"Mt Hood Parkdale, OR 97041, USA"}}]}}},"processes":[],"eols":[]},{"oid":"570","imid":"6269","linkid":"0","weight":"0","rawemissions":"0","emissions":"0","shipping":"1009.14","processemissions":"0","endoflifeemissions":"0","disposaltype":null,"disposalenergy":null,"disposalimpact":null,"disposalemissions":null,"description":"","name":"limes","id":"6269","stops":{"origin":{"related_to":"6269","part_or_object":"p","notes":null,"placename":"California, USA","id":11895,"name":"origin","lat":"36.778261","lon":"-119.4179324","hops":{"incoming":[],"outgoing":[{"transport_id":"20","id":"8433","transport_name":"Road","transport_description":"from the Greenhouse Gas Protocol Initiative - GHG emission from transport or mobile sources calculator 2.0 (jun 2009)","transport_unit":"kg km","transport_co2_eq":"0.000204","from_stop_id":"11895","from_stop_lat":"36.778261","from_stop_lon":"-119.4179324","from_stop_placename":"California, USA","to_stop_id":"11892","to_stop_name":"origin","to_stop_lat":"45.7053966","to_stop_lon":"-121.5214623","to_stop_placename":"Hood River, OR 97031, USA","to_stop":{"id":"11892","name":"origin","lat":"45.7053966","lon":"-121.5214623","placename":"Hood River, OR 97031, USA"},"from_stop":{"name":"origin","id":"11895","lat":"36.778261","lon":"-119.4179324","placename":"California, USA"}}]}}},"processes":[],"eols":[]},{"oid":"570","imid":"6270","linkid":"0","weight":"0","rawemissions":"0","emissions":"0","shipping":"2991.95","processemissions":"0","endoflifeemissions":"0","disposaltype":null,"disposalenergy":null,"disposalimpact":null,"disposalemissions":null,"description":"","name":"chiles verdes","id":"6270","stops":{"origin":{"related_to":"6270","part_or_object":"p","notes":null,"placename":"Mexico","id":11896,"name":"origin","lat":"23.634501","lon":"-102.552784","hops":{"incoming":[],"outgoing":[{"transport_id":"20","id":"8434","transport_name":"Road","transport_description":"from the Greenhouse Gas Protocol Initiative - GHG emission from transport or mobile sources calculator 2.0 (jun 2009)","transport_unit":"kg km","transport_co2_eq":"0.000204","from_stop_id":"11896","from_stop_lat":"23.634501","from_stop_lon":"-102.552784","from_stop_placename":"Mexico","to_stop_id":"11892","to_stop_name":"origin","to_stop_lat":"45.7053966","to_stop_lon":"-121.5214623","to_stop_placename":"Hood River, OR 97031, USA","to_stop":{"id":"11892","name":"origin","lat":"45.7053966","lon":"-121.5214623","placename":"Hood River, OR 97031, USA"},"from_stop":{"name":"origin","id":"11896","lat":"23.634501","lon":"-102.552784","placename":"Mexico"}}]}}},"processes":[],"eols":[]},{"oid":"570","imid":"6272","linkid":"parts\/onions","weight":"0","rawemissions":"0.39","emissions":"0","shipping":"7668.71","processemissions":"0","endoflifeemissions":"0","disposaltype":null,"disposalenergy":null,"disposalimpact":null,"disposalemissions":null,"description":"","name":"Onions","id":"6272","stops":{"origin":{"related_to":"6272","part_or_object":"p","notes":null,"placename":"Peru","id":11898,"name":"origin","lat":"-9.189967","lon":"-75.015152","hops":{"incoming":[],"outgoing":[{"transport_id":"21","id":"8436","transport_name":"Air(>1500km)","transport_description":"from the Greenhouse Gas Protocol Initiative - GHG emission from transport or mobile sources calculator 2.0 (jun 2009)","transport_unit":"kg km","transport_co2_eq":"0.001439","from_stop_id":"11898","from_stop_lat":"-9.189967","from_stop_lon":"-75.015152","from_stop_placename":"Peru","to_stop_id":"11892","to_stop_name":"origin","to_stop_lat":"45.7053966","to_stop_lon":"-121.5214623","to_stop_placename":"Hood River, OR 97031, USA","to_stop":{"id":"11892","name":"origin","lat":"45.7053966","lon":"-121.5214623","placename":"Hood River, OR 97031, USA"},"from_stop":{"name":"origin","id":"11898","lat":"-9.189967","lon":"-75.015152","placename":"Peru"}}]}}},"processes":[],"eols":[]},{"oid":"570","imid":"6273","linkid":"0","weight":"0","rawemissions":"0","emissions":"0","shipping":"2110.5","processemissions":"0","endoflifeemissions":"0","disposaltype":null,"disposalenergy":null,"disposalimpact":null,"disposalemissions":null,"description":"","name":"canola oil","id":"6273","stops":{"origin":{"related_to":"6273","part_or_object":"p","notes":null,"placename":"Omaha, NE, USA","id":11899,"name":"origin","lat":"41.254006","lon":"-95.999258","hops":{"incoming":[],"outgoing":[{"transport_id":"20","id":"8437","transport_name":"Road","transport_description":"from the Greenhouse Gas Protocol Initiative - GHG emission from transport or mobile sources calculator 2.0 (jun 2009)","transport_unit":"kg km","transport_co2_eq":"0.000204","from_stop_id":"11899","from_stop_lat":"41.254006","from_stop_lon":"-95.999258","from_stop_placename":"Omaha, NE, USA","to_stop_id":"11892","to_stop_name":"origin","to_stop_lat":"45.7053966","to_stop_lon":"-121.5214623","to_stop_placename":"Hood River, OR 97031, USA","to_stop":{"id":"11892","name":"origin","lat":"45.7053966","lon":"-121.5214623","placename":"Hood River, OR 97031, USA"},"from_stop":{"name":"origin","id":"11899","lat":"41.254006","lon":"-95.999258","placename":"Omaha, NE, USA"}}]}}},"processes":[],"eols":[]},{"oid":"570","imid":"6274","linkid":"0","weight":"0","rawemissions":"0","emissions":"0","shipping":"3837.65","processemissions":"0","endoflifeemissions":"0","disposaltype":null,"disposalenergy":null,"disposalimpact":null,"disposalemissions":null,"description":"","name":"meat tenderizer","id":"6274","stops":{"origin":{"related_to":"6274","part_or_object":"p","notes":null,"placename":"New Jersey, USA","id":11900,"name":"origin","lat":"40.0583238","lon":"-74.4056612","hops":{"incoming":[],"outgoing":[{"transport_id":"19","id":"8438","transport_name":"Rail","transport_description":"from the Greenhouse Gas Protocol Initiative - GHG emission from transport or mobile sources calculator 2.0 (jun 2009)","transport_unit":"kg km","transport_co2_eq":"0.000017","from_stop_id":"11900","from_stop_lat":"40.0583238","from_stop_lon":"-74.4056612","from_stop_placename":"New Jersey, USA","to_stop_id":"11892","to_stop_name":"origin","to_stop_lat":"45.7053966","to_stop_lon":"-121.5214623","to_stop_placename":"Hood River, OR 97031, USA","to_stop":{"id":"11892","name":"origin","lat":"45.7053966","lon":"-121.5214623","placename":"Hood River, OR 97031, USA"},"from_stop":{"name":"origin","id":"11900","lat":"40.0583238","lon":"-74.4056612","placename":"New Jersey, USA"}}]}}},"processes":[],"eols":[]}],"user":{"name":"tamietennant","id":"12460"}}}