{"572":{"oid":"572","type":"object","flag":"","creator":"12462","name":"Pizzza with \"meat\"","upc":"","imagelink":"","description":"Homemade pizza","slug":"Pizzza-with--meat-","category":"","weight":"7.133","emissions":"267.7936138","embodied":"267.50932","transport":"0.2842938","process":null,"endoflife":null,"shipping":"18270.86","lifetime":null,"usagetype":"Natural Gas","usageenergy":"0.25","usageemissions":"0.06","timecreated":"2011-02-22 12:49:39","timemodified":"2011-02-22 13:54:17","visibility":"public","showfootprint":"on","showembodied":"on","showtransport":"on","showprocess":"on","showendoflife":"on","showlastleg":"on","showuse":"on","showstats":"on","stops":{"origin":{"related_to":"572","part_or_object":"o","notes":null,"placename":"Hood River, OR 97031, USA","id":"11835","category":"1","lat":"45.7053966","lon":"-121.5214623","name":"origin","hops":{"incoming":[{"transport_id":"20","id":"8379","transport_name":"Road","transport_description":"from the Greenhouse Gas Protocol Initiative - GHG emission from transport or mobile sources calculator 2.0 (jun 2009)","transport_unit":"kg km","transport_co2_eq":"0.000204","from_stop_id":"11836","from_stop_lat":"46.729553","from_stop_lon":"-94.6858998","to_stop_id":"11835","to_stop_name":"origin","to_stop_lat":"45.7053966","placename":"Minnesota, USA","to_stop_lon":"-121.5214623","to_stop":{"id":"11835","name":"origin","lat":"45.7053966","placename":"Hood River, OR 97031, USA","lon":"-121.5214623"},"from_stop":{"name":"origin","id":"11836","lat":"46.729553","lon":"-94.6858998","placename":"Minnesota, USA"}},{"transport_id":null,"id":"8380","transport_name":null,"transport_description":null,"transport_unit":null,"transport_co2_eq":null,"from_stop_id":"11837","from_stop_lat":"56.130366","from_stop_lon":"-106.346771","to_stop_id":"11835","to_stop_name":"origin","to_stop_lat":"45.7053966","placename":"Canada","to_stop_lon":"-121.5214623","to_stop":{"id":"11835","name":"origin","lat":"45.7053966","placename":"Hood River, OR 97031, USA","lon":"-121.5214623"},"from_stop":{"name":"origin","id":"11837","lat":"56.130366","lon":"-106.346771","placename":"Canada"}},{"transport_id":null,"id":"8381","transport_name":null,"transport_description":null,"transport_unit":null,"transport_co2_eq":null,"from_stop_id":"11838","from_stop_lat":"41.87194","from_stop_lon":"12.56738","to_stop_id":"11835","to_stop_name":"origin","to_stop_lat":"45.7053966","placename":"Italy","to_stop_lon":"-121.5214623","to_stop":{"id":"11835","name":"origin","lat":"45.7053966","placename":"Hood River, OR 97031, USA","lon":"-121.5214623"},"from_stop":{"name":"origin","id":"11838","lat":"41.87194","lon":"12.56738","placename":"Italy"}},{"transport_id":null,"id":"8382","transport_name":null,"transport_description":null,"transport_unit":null,"transport_co2_eq":null,"from_stop_id":"11839","from_stop_lat":"40.4172871","from_stop_lon":"-82.907123","to_stop_id":"11835","to_stop_name":"origin","to_stop_lat":"45.7053966","placename":"Ohio, USA","to_stop_lon":"-121.5214623","to_stop":{"id":"11835","name":"origin","lat":"45.7053966","placename":"Hood River, OR 97031, USA","lon":"-121.5214623"},"from_stop":{"name":"origin","id":"11839","lat":"40.4172871","lon":"-82.907123","placename":"Ohio, USA"}},{"transport_id":null,"id":"8383","transport_name":null,"transport_description":null,"transport_unit":null,"transport_co2_eq":null,"from_stop_id":"11840","from_stop_lat":"45.7053966","from_stop_lon":"-121.5214623","to_stop_id":"11835","to_stop_name":"origin","to_stop_lat":"45.7053966","placename":"Hood River, OR 97031, USA","to_stop_lon":"-121.5214623","to_stop":{"id":"11835","name":"origin","lat":"45.7053966","placename":"Hood River, OR 97031, USA","lon":"-121.5214623"},"from_stop":{"name":"origin","id":"11840","lat":"45.7053966","lon":"-121.5214623","placename":"Hood River, OR 97031, USA"}},{"transport_id":null,"id":"8384","transport_name":null,"transport_description":null,"transport_unit":null,"transport_co2_eq":null,"from_stop_id":"11841","from_stop_lat":"36.778261","from_stop_lon":"-119.4179324","to_stop_id":"11835","to_stop_name":"origin","to_stop_lat":"45.7053966","placename":"California, USA","to_stop_lon":"-121.5214623","to_stop":{"id":"11835","name":"origin","lat":"45.7053966","placename":"Hood River, OR 97031, USA","lon":"-121.5214623"},"from_stop":{"name":"origin","id":"11841","lat":"36.778261","lon":"-119.4179324","placename":"California, USA"}},{"transport_id":null,"id":"8385","transport_name":null,"transport_description":null,"transport_unit":null,"transport_co2_eq":null,"from_stop_id":"11842","from_stop_lat":"36.778261","from_stop_lon":"-119.4179324","to_stop_id":"11835","to_stop_name":"origin","to_stop_lat":"45.7053966","placename":"California, USA","to_stop_lon":"-121.5214623","to_stop":{"id":"11835","name":"origin","lat":"45.7053966","placename":"Hood River, OR 97031, USA","lon":"-121.5214623"},"from_stop":{"name":"origin","id":"11842","lat":"36.778261","lon":"-119.4179324","placename":"California, USA"}},{"transport_id":null,"id":"8386","transport_name":null,"transport_description":null,"transport_unit":null,"transport_co2_eq":null,"from_stop_id":"11843","from_stop_lat":"45.7053966","from_stop_lon":"-121.5214623","to_stop_id":"11835","to_stop_name":"origin","to_stop_lat":"45.7053966","placename":"Hood River, OR 97031, USA","to_stop_lon":"-121.5214623","to_stop":{"id":"11835","name":"origin","lat":"45.7053966","placename":"Hood River, OR 97031, USA","lon":"-121.5214623"},"from_stop":{"name":"origin","id":"11843","lat":"45.7053966","lon":"-121.5214623","placename":"Hood River, OR 97031, USA"}},{"transport_id":null,"id":"8387","transport_name":null,"transport_description":null,"transport_unit":null,"transport_co2_eq":null,"from_stop_id":"11844","from_stop_lat":"45.4562158","from_stop_lon":"-123.8440137","to_stop_id":"11835","to_stop_name":"origin","to_stop_lat":"45.7053966","placename":"Tillamook, OR 97141, USA","to_stop_lon":"-121.5214623","to_stop":{"id":"11835","name":"origin","lat":"45.7053966","placename":"Hood River, OR 97031, USA","lon":"-121.5214623"},"from_stop":{"name":"origin","id":"11844","lat":"45.4562158","lon":"-123.8440137","placename":"Tillamook, OR 97141, USA"}}],"outgoing":[]}}},"parts":[{"oid":"572","imid":"6257","linkid":"0","weight":"0.69","rawemissions":"0","emissions":"0","shipping":"2060.1","processemissions":"0","endoflifeemissions":"0","disposaltype":null,"disposalenergy":null,"disposalimpact":null,"disposalemissions":null,"description":"","name":"Gold Medal Flour","id":"6257","stops":{"origin":{"related_to":"6257","part_or_object":"p","notes":null,"placename":"Minnesota, USA","id":11836,"name":"origin","lat":"46.729553","lon":"-94.6858998","hops":{"incoming":[],"outgoing":[{"transport_id":"20","id":"8379","transport_name":"Road","transport_description":"from the Greenhouse Gas Protocol Initiative - GHG emission from transport or mobile sources calculator 2.0 (jun 2009)","transport_unit":"kg km","transport_co2_eq":"0.000204","from_stop_id":"11836","from_stop_lat":"46.729553","from_stop_lon":"-94.6858998","from_stop_placename":"Minnesota, USA","to_stop_id":"11835","to_stop_name":"origin","to_stop_lat":"45.7053966","to_stop_lon":"-121.5214623","to_stop_placename":"Hood River, OR 97031, USA","to_stop":{"id":"11835","name":"origin","lat":"45.7053966","lon":"-121.5214623","placename":"Hood River, OR 97031, USA"},"from_stop":{"name":"origin","id":"11836","lat":"46.729553","lon":"-94.6858998","placename":"Minnesota, USA"}}]}}},"processes":[],"eols":[]},{"oid":"572","imid":"6258","linkid":"0","weight":"0.01","rawemissions":"0","emissions":"0","shipping":"1568.28","processemissions":"0","endoflifeemissions":"0","disposaltype":null,"disposalenergy":null,"disposalimpact":null,"disposalemissions":null,"description":"","name":"Fleishmanns Bread Machine Rapid Rise yeast","id":"6258","stops":{"origin":{"related_to":"6258","part_or_object":"p","notes":null,"placename":"Canada","id":11837,"name":"origin","lat":"56.130366","lon":"-106.346771","hops":{"incoming":[],"outgoing":[{"transport_id":null,"id":"8380","transport_name":null,"transport_description":null,"transport_unit":null,"transport_co2_eq":null,"from_stop_id":"11837","from_stop_lat":"56.130366","from_stop_lon":"-106.346771","from_stop_placename":"Canada","to_stop_id":"11835","to_stop_name":"origin","to_stop_lat":"45.7053966","to_stop_lon":"-121.5214623","to_stop_placename":"Hood River, OR 97031, USA","to_stop":{"id":"11835","name":"origin","lat":"45.7053966","lon":"-121.5214623","placename":"Hood River, OR 97031, USA"},"from_stop":{"name":"origin","id":"11837","lat":"56.130366","lon":"-106.346771","placename":"Canada"}}]}}},"processes":[],"eols":[]},{"oid":"572","imid":"6259","linkid":"0","weight":"0.142","rawemissions":"0","emissions":"0","shipping":"9277.66","processemissions":"0","endoflifeemissions":"0","disposaltype":null,"disposalenergy":null,"disposalimpact":null,"disposalemissions":null,"description":"","name":"Bertolli EV Olive Oil","id":"6259","stops":{"origin":{"related_to":"6259","part_or_object":"p","notes":null,"placename":"Italy","id":11838,"name":"origin","lat":"41.87194","lon":"12.56738","hops":{"incoming":[],"outgoing":[{"transport_id":null,"id":"8381","transport_name":null,"transport_description":null,"transport_unit":null,"transport_co2_eq":null,"from_stop_id":"11838","from_stop_lat":"41.87194","from_stop_lon":"12.56738","from_stop_placename":"Italy","to_stop_id":"11835","to_stop_name":"origin","to_stop_lat":"45.7053966","to_stop_lon":"-121.5214623","to_stop_placename":"Hood River, OR 97031, USA","to_stop":{"id":"11835","name":"origin","lat":"45.7053966","lon":"-121.5214623","placename":"Hood River, OR 97031, USA"},"from_stop":{"name":"origin","id":"11838","lat":"41.87194","lon":"12.56738","placename":"Italy"}}]}}},"processes":[],"eols":[]},{"oid":"572","imid":"6260","linkid":"0","weight":"0.05","rawemissions":"0","emissions":"0","shipping":"3163.48","processemissions":"0","endoflifeemissions":"0","disposaltype":null,"disposalenergy":null,"disposalimpact":null,"disposalemissions":null,"description":"","name":"Morton Iodized salt","id":"6260","stops":{"origin":{"related_to":"6260","part_or_object":"p","notes":null,"placename":"Ohio, USA","id":11839,"name":"origin","lat":"40.4172871","lon":"-82.907123","hops":{"incoming":[],"outgoing":[{"transport_id":null,"id":"8382","transport_name":null,"transport_description":null,"transport_unit":null,"transport_co2_eq":null,"from_stop_id":"11839","from_stop_lat":"40.4172871","from_stop_lon":"-82.907123","from_stop_placename":"Ohio, USA","to_stop_id":"11835","to_stop_name":"origin","to_stop_lat":"45.7053966","to_stop_lon":"-121.5214623","to_stop_placename":"Hood River, OR 97031, USA","to_stop":{"id":"11835","name":"origin","lat":"45.7053966","lon":"-121.5214623","placename":"Hood River, OR 97031, USA"},"from_stop":{"name":"origin","id":"11839","lat":"40.4172871","lon":"-82.907123","placename":"Ohio, USA"}}]}}},"processes":[],"eols":[]},{"oid":"572","imid":"6261","linkid":"object\/homegrown-tomatoes","weight":"5.7","rawemissions":"46.92","emissions":"0","shipping":"0","processemissions":"0","endoflifeemissions":"0","disposaltype":null,"disposalenergy":null,"disposalimpact":null,"disposalemissions":null,"description":"","name":"homegrown tomatoes","id":"6261","stops":{"origin":{"related_to":"6261","part_or_object":"p","notes":null,"placename":"Hood River, OR 97031, USA","id":11840,"name":"origin","lat":"45.7053966","lon":"-121.5214623","hops":{"incoming":[],"outgoing":[{"transport_id":null,"id":"8383","transport_name":null,"transport_description":null,"transport_unit":null,"transport_co2_eq":null,"from_stop_id":"11840","from_stop_lat":"45.7053966","from_stop_lon":"-121.5214623","from_stop_placename":"Hood River, OR 97031, USA","to_stop_id":"11835","to_stop_name":"origin","to_stop_lat":"45.7053966","to_stop_lon":"-121.5214623","to_stop_placename":"Hood River, OR 97031, USA","to_stop":{"id":"11835","name":"origin","lat":"45.7053966","lon":"-121.5214623","placename":"Hood River, OR 97031, USA"},"from_stop":{"name":"origin","id":"11840","lat":"45.7053966","lon":"-121.5214623","placename":"Hood River, OR 97031, USA"}}]}}},"processes":[],"eols":[]},{"oid":"572","imid":"6262","linkid":"0","weight":"0.228","rawemissions":"0","emissions":"0","shipping":"1009.14","processemissions":"0","endoflifeemissions":"0","disposaltype":null,"disposalenergy":null,"disposalimpact":null,"disposalemissions":null,"description":"","name":"Lucerne part skim mozzerella cheese","id":"6262","stops":{"origin":{"related_to":"6262","part_or_object":"p","notes":null,"placename":"California, USA","id":11841,"name":"origin","lat":"36.778261","lon":"-119.4179324","hops":{"incoming":[],"outgoing":[{"transport_id":null,"id":"8384","transport_name":null,"transport_description":null,"transport_unit":null,"transport_co2_eq":null,"from_stop_id":"11841","from_stop_lat":"36.778261","from_stop_lon":"-119.4179324","from_stop_placename":"California, USA","to_stop_id":"11835","to_stop_name":"origin","to_stop_lat":"45.7053966","to_stop_lon":"-121.5214623","to_stop_placename":"Hood River, OR 97031, USA","to_stop":{"id":"11835","name":"origin","lat":"45.7053966","lon":"-121.5214623","placename":"Hood River, OR 97031, USA"},"from_stop":{"name":"origin","id":"11841","lat":"36.778261","lon":"-119.4179324","placename":"California, USA"}}]}}},"processes":[],"eols":[]},{"oid":"572","imid":"6263","linkid":"0","weight":"0.057","rawemissions":"0","emissions":"0","shipping":"1009.14","processemissions":"0","endoflifeemissions":"0","disposaltype":null,"disposalenergy":null,"disposalimpact":null,"disposalemissions":null,"description":"","name":"Safeway smoked ham","id":"6263","stops":{"origin":{"related_to":"6263","part_or_object":"p","notes":null,"placename":"California, USA","id":11842,"name":"origin","lat":"36.778261","lon":"-119.4179324","hops":{"incoming":[],"outgoing":[{"transport_id":null,"id":"8385","transport_name":null,"transport_description":null,"transport_unit":null,"transport_co2_eq":null,"from_stop_id":"11842","from_stop_lat":"36.778261","from_stop_lon":"-119.4179324","from_stop_placename":"California, USA","to_stop_id":"11835","to_stop_name":"origin","to_stop_lat":"45.7053966","to_stop_lon":"-121.5214623","to_stop_placename":"Hood River, OR 97031, USA","to_stop":{"id":"11835","name":"origin","lat":"45.7053966","lon":"-121.5214623","placename":"Hood River, OR 97031, USA"},"from_stop":{"name":"origin","id":"11842","lat":"36.778261","lon":"-119.4179324","placename":"California, USA"}}]}}},"processes":[],"eols":[]},{"oid":"572","imid":"6264","linkid":"parts\/pears","weight":"0.142","rawemissions":"0.46","emissions":"0","shipping":"0","processemissions":"0","endoflifeemissions":"0","disposaltype":null,"disposalenergy":null,"disposalimpact":null,"disposalemissions":null,"description":"","name":"Pears","id":"6264","stops":{"origin":{"related_to":"6264","part_or_object":"p","notes":null,"placename":"Hood River, OR 97031, USA","id":11843,"name":"origin","lat":"45.7053966","lon":"-121.5214623","hops":{"incoming":[],"outgoing":[{"transport_id":null,"id":"8386","transport_name":null,"transport_description":null,"transport_unit":null,"transport_co2_eq":null,"from_stop_id":"11843","from_stop_lat":"45.7053966","from_stop_lon":"-121.5214623","from_stop_placename":"Hood River, OR 97031, USA","to_stop_id":"11835","to_stop_name":"origin","to_stop_lat":"45.7053966","to_stop_lon":"-121.5214623","to_stop_placename":"Hood River, OR 97031, USA","to_stop":{"id":"11835","name":"origin","lat":"45.7053966","lon":"-121.5214623","placename":"Hood River, OR 97031, USA"},"from_stop":{"name":"origin","id":"11843","lat":"45.7053966","lon":"-121.5214623","placename":"Hood River, OR 97031, USA"}}]}}},"processes":[],"eols":[]},{"oid":"572","imid":"6265","linkid":"0","weight":"0.114","rawemissions":"0","emissions":"0","shipping":"183.06","processemissions":"0","endoflifeemissions":"0","disposaltype":null,"disposalenergy":null,"disposalimpact":null,"disposalemissions":null,"description":"","name":"Tillamook Cheddar cheese","id":"6265","stops":{"origin":{"related_to":"6265","part_or_object":"p","notes":null,"placename":"Tillamook, OR 97141, USA","id":11844,"name":"origin","lat":"45.4562158","lon":"-123.8440137","hops":{"incoming":[],"outgoing":[{"transport_id":null,"id":"8387","transport_name":null,"transport_description":null,"transport_unit":null,"transport_co2_eq":null,"from_stop_id":"11844","from_stop_lat":"45.4562158","from_stop_lon":"-123.8440137","from_stop_placename":"Tillamook, OR 97141, USA","to_stop_id":"11835","to_stop_name":"origin","to_stop_lat":"45.7053966","to_stop_lon":"-121.5214623","to_stop_placename":"Hood River, OR 97031, USA","to_stop":{"id":"11835","name":"origin","lat":"45.7053966","lon":"-121.5214623","placename":"Hood River, OR 97031, USA"},"from_stop":{"name":"origin","id":"11844","lat":"45.4562158","lon":"-123.8440137","placename":"Tillamook, OR 97141, USA"}}]}}},"processes":[],"eols":[]}],"user":{"name":"Julie","id":"12462"}}}