{"605":{"oid":"605","type":"trace","flag":"","creator":"11968","name":"HBC Lines (2011)","upc":"","imagelink":"","description":"","slug":"HBC-Lines--2011-","category":"","weight":"0","emissions":"0","embodied":"0","transport":"0","process":null,"endoflife":null,"shipping":"128001.06","lifetime":null,"usagetype":"","usageenergy":null,"usageemissions":null,"timecreated":"2011-03-04 23:33:32","timemodified":"2011-03-05 02:26:10","visibility":"private","showfootprint":"on","showembodied":"on","showtransport":"on","showprocess":"on","showendoflife":"on","showlastleg":"on","showuse":"on","showstats":"on","stops":{"origin":{"related_to":"605","part_or_object":"o","notes":null,"placename":"Wichita, KS, USA","id":"12934","category":"1","lat":"37.6922361","lon":"-97.3375448","name":"origin","hops":{"incoming":[{"transport_id":null,"id":"9365","transport_name":null,"transport_description":null,"transport_unit":null,"transport_co2_eq":null,"from_stop_id":"12935","from_stop_lat":"33.4483771","from_stop_lon":"-112.0740373","to_stop_id":"12934","to_stop_name":"origin","to_stop_lat":"37.6922361","placename":"Phoenix, AZ, USA","to_stop_lon":"-97.3375448","to_stop":{"id":"12934","name":"origin","lat":"37.6922361","placename":"Wichita, KS, USA","lon":"-97.3375448"},"from_stop":{"name":"origin","id":"12935","lat":"33.4483771","lon":"-112.0740373","placename":"Phoenix, AZ, USA"}},{"transport_id":null,"id":"9366","transport_name":null,"transport_description":null,"transport_unit":null,"transport_co2_eq":null,"from_stop_id":"12936","from_stop_lat":"38.8813958","from_stop_lon":"-94.8191285","to_stop_id":"12934","to_stop_name":"origin","to_stop_lat":"37.6922361","placename":"Olathe, KS, USA","to_stop_lon":"-97.3375448","to_stop":{"id":"12934","name":"origin","lat":"37.6922361","placename":"Wichita, KS, USA","lon":"-97.3375448"},"from_stop":{"name":"origin","id":"12936","lat":"38.8813958","lon":"-94.8191285","placename":"Olathe, KS, USA"}},{"transport_id":null,"id":"9367","transport_name":null,"transport_description":null,"transport_unit":null,"transport_co2_eq":null,"from_stop_id":"12937","from_stop_lat":"28.6352778","from_stop_lon":"-106.0888889","to_stop_id":"12934","to_stop_name":"origin","to_stop_lat":"37.6922361","placename":"Chihuahua Municipality, Chihuahua, Mexico","to_stop_lon":"-97.3375448","to_stop":{"id":"12934","name":"origin","lat":"37.6922361","placename":"Wichita, KS, USA","lon":"-97.3375448"},"from_stop":{"name":"origin","id":"12937","lat":"28.6352778","lon":"-106.0888889","placename":"Chihuahua Municipality, Chihuahua, Mexico"}},{"transport_id":null,"id":"9368","transport_name":null,"transport_description":null,"transport_unit":null,"transport_co2_eq":null,"from_stop_id":"12938","from_stop_lat":"28.6352778","from_stop_lon":"-106.0888889","to_stop_id":"12934","to_stop_name":"origin","to_stop_lat":"37.6922361","placename":"Chihuahua Municipality, Chihuahua, Mexico","to_stop_lon":"-97.3375448","to_stop":{"id":"12934","name":"origin","lat":"37.6922361","placename":"Wichita, KS, USA","lon":"-97.3375448"},"from_stop":{"name":"origin","id":"12938","lat":"28.6352778","lon":"-106.0888889","placename":"Chihuahua Municipality, Chihuahua, Mexico"}},{"transport_id":null,"id":"9369","transport_name":null,"transport_description":null,"transport_unit":null,"transport_co2_eq":null,"from_stop_id":"12939","from_stop_lat":"32.802955","from_stop_lon":"-96.769923","to_stop_id":"12934","to_stop_name":"origin","to_stop_lat":"37.6922361","placename":"Dallas, TX, USA","to_stop_lon":"-97.3375448","to_stop":{"id":"12934","name":"origin","lat":"37.6922361","placename":"Wichita, KS, USA","lon":"-97.3375448"},"from_stop":{"name":"origin","id":"12939","lat":"32.802955","lon":"-96.769923","placename":"Dallas, TX, USA"}},{"transport_id":null,"id":"9370","transport_name":null,"transport_description":null,"transport_unit":null,"transport_co2_eq":null,"from_stop_id":"12940","from_stop_lat":"53.1914576","from_stop_lon":"-2.8950072","to_stop_id":"12934","to_stop_name":"origin","to_stop_lat":"37.6922361","placename":"Chester, Cheshire West and Chester, UK","to_stop_lon":"-97.3375448","to_stop":{"id":"12934","name":"origin","lat":"37.6922361","placename":"Wichita, KS, USA","lon":"-97.3375448"},"from_stop":{"name":"origin","id":"12940","lat":"53.1914576","lon":"-2.8950072","placename":"Chester, Cheshire West and Chester, UK"}},{"transport_id":null,"id":"9371","transport_name":null,"transport_description":null,"transport_unit":null,"transport_co2_eq":null,"from_stop_id":"12941","from_stop_lat":"28.6352778","from_stop_lon":"-106.0888889","to_stop_id":"12934","to_stop_name":"origin","to_stop_lat":"37.6922361","placename":"Chihuahua Municipality, Chihuahua, Mexico","to_stop_lon":"-97.3375448","to_stop":{"id":"12934","name":"origin","lat":"37.6922361","placename":"Wichita, KS, USA","lon":"-97.3375448"},"from_stop":{"name":"origin","id":"12941","lat":"28.6352778","lon":"-106.0888889","placename":"Chihuahua Municipality, Chihuahua, Mexico"}},{"transport_id":null,"id":"9372","transport_name":null,"transport_description":null,"transport_unit":null,"transport_co2_eq":null,"from_stop_id":"12942","from_stop_lat":"45.4636889","from_stop_lon":"9.1881408","to_stop_id":"12934","to_stop_name":"origin","to_stop_lat":"37.6922361","placename":"Milan, Italy","to_stop_lon":"-97.3375448","to_stop":{"id":"12934","name":"origin","lat":"37.6922361","placename":"Wichita, KS, USA","lon":"-97.3375448"},"from_stop":{"name":"origin","id":"12942","lat":"45.4636889","lon":"9.1881408","placename":"Milan, Italy"}},{"transport_id":null,"id":"9373","transport_name":null,"transport_description":null,"transport_unit":null,"transport_co2_eq":null,"from_stop_id":"12943","from_stop_lat":"42.9006144","from_stop_lon":"-78.6703062","to_stop_id":"12934","to_stop_name":"origin","to_stop_lat":"37.6922361","placename":"Lancaster, NY, USA","to_stop_lon":"-97.3375448","to_stop":{"id":"12934","name":"origin","lat":"37.6922361","placename":"Wichita, KS, USA","lon":"-97.3375448"},"from_stop":{"name":"origin","id":"12943","lat":"42.9006144","lon":"-78.6703062","placename":"Lancaster, NY, USA"}},{"transport_id":null,"id":"9374","transport_name":null,"transport_description":null,"transport_unit":null,"transport_co2_eq":null,"from_stop_id":"12944","from_stop_lat":"28.6352778","from_stop_lon":"-106.0888889","to_stop_id":"12934","to_stop_name":"origin","to_stop_lat":"37.6922361","placename":"Chihuahua Municipality, Chihuahua, Mexico","to_stop_lon":"-97.3375448","to_stop":{"id":"12934","name":"origin","lat":"37.6922361","placename":"Wichita, KS, USA","lon":"-97.3375448"},"from_stop":{"name":"origin","id":"12944","lat":"28.6352778","lon":"-106.0888889","placename":"Chihuahua Municipality, Chihuahua, Mexico"}},{"transport_id":null,"id":"9375","transport_name":null,"transport_description":null,"transport_unit":null,"transport_co2_eq":null,"from_stop_id":"12945","from_stop_lat":"45.537405","from_stop_lon":"-73.510726","to_stop_id":"12934","to_stop_name":"origin","to_stop_lat":"37.6922361","placename":"Longueuil, QC, Canada","to_stop_lon":"-97.3375448","to_stop":{"id":"12934","name":"origin","lat":"37.6922361","placename":"Wichita, KS, USA","lon":"-97.3375448"},"from_stop":{"name":"origin","id":"12945","lat":"45.537405","lon":"-73.510726","placename":"Longueuil, QC, Canada"}},{"transport_id":null,"id":"9376","transport_name":null,"transport_description":null,"transport_unit":null,"transport_co2_eq":null,"from_stop_id":"12946","from_stop_lat":"28.0836269","from_stop_lon":"-80.6081089","to_stop_id":"12934","to_stop_name":"origin","to_stop_lat":"37.6922361","placename":"Melbourne, FL, USA","to_stop_lon":"-97.3375448","to_stop":{"id":"12934","name":"origin","lat":"37.6922361","placename":"Wichita, KS, USA","lon":"-97.3375448"},"from_stop":{"name":"origin","id":"12946","lat":"28.0836269","lon":"-80.6081089","placename":"Melbourne, FL, USA"}},{"transport_id":null,"id":"9377","transport_name":null,"transport_description":null,"transport_unit":null,"transport_co2_eq":null,"from_stop_id":"12947","from_stop_lat":"3.139003","from_stop_lon":"101.686855","to_stop_id":"12934","to_stop_name":"origin","to_stop_lat":"37.6922361","placename":"Kuala Lumpur, Federal Territory of Kuala Lumpur, Malaysia","to_stop_lon":"-97.3375448","to_stop":{"id":"12934","name":"origin","lat":"37.6922361","placename":"Wichita, KS, USA","lon":"-97.3375448"},"from_stop":{"name":"origin","id":"12947","lat":"3.139003","lon":"101.686855","placename":"Kuala Lumpur, Federal Territory of Kuala Lumpur, Malaysia"}},{"transport_id":null,"id":"9378","transport_name":null,"transport_description":null,"transport_unit":null,"transport_co2_eq":null,"from_stop_id":"12948","from_stop_lat":"37.6922361","from_stop_lon":"-97.3375448","to_stop_id":"12934","to_stop_name":"origin","to_stop_lat":"37.6922361","placename":"Wichita, KS, USA","to_stop_lon":"-97.3375448","to_stop":{"id":"12934","name":"origin","lat":"37.6922361","placename":"Wichita, KS, USA","lon":"-97.3375448"},"from_stop":{"name":"origin","id":"12948","lat":"37.6922361","lon":"-97.3375448","placename":"Wichita, KS, USA"}},{"transport_id":null,"id":"9379","transport_name":null,"transport_description":null,"transport_unit":null,"transport_co2_eq":null,"from_stop_id":"12949","from_stop_lat":"36.1539816","from_stop_lon":"-95.992775","to_stop_id":"12934","to_stop_name":"origin","to_stop_lat":"37.6922361","placename":"Tulsa, OK, USA","to_stop_lon":"-97.3375448","to_stop":{"id":"12934","name":"origin","lat":"37.6922361","placename":"Wichita, KS, USA","lon":"-97.3375448"},"from_stop":{"name":"origin","id":"12949","lat":"36.1539816","lon":"-95.992775","placename":"Tulsa, OK, USA"}},{"transport_id":null,"id":"9380","transport_name":null,"transport_description":null,"transport_unit":null,"transport_co2_eq":null,"from_stop_id":"12950","from_stop_lat":"43.85","from_stop_lon":"-79.0166667","to_stop_id":"12934","to_stop_name":"origin","to_stop_lat":"37.6922361","placename":"Ajax, ON, Canada","to_stop_lon":"-97.3375448","to_stop":{"id":"12934","name":"origin","lat":"37.6922361","placename":"Wichita, KS, USA","lon":"-97.3375448"},"from_stop":{"name":"origin","id":"12950","lat":"43.85","lon":"-79.0166667","placename":"Ajax, ON, Canada"}},{"transport_id":null,"id":"9381","transport_name":null,"transport_description":null,"transport_unit":null,"transport_co2_eq":null,"from_stop_id":"12951","from_stop_lat":"34.7303688","from_stop_lon":"-86.5861037","to_stop_id":"12934","to_stop_name":"origin","to_stop_lat":"37.6922361","placename":"Huntsville, AL, USA","to_stop_lon":"-97.3375448","to_stop":{"id":"12934","name":"origin","lat":"37.6922361","placename":"Wichita, KS, USA","lon":"-97.3375448"},"from_stop":{"name":"origin","id":"12951","lat":"34.7303688","lon":"-86.5861037","placename":"Huntsville, AL, USA"}},{"transport_id":null,"id":"9382","transport_name":null,"transport_description":null,"transport_unit":null,"transport_co2_eq":null,"from_stop_id":"12952","from_stop_lat":"38.9536174","from_stop_lon":"-94.7335709","to_stop_id":"12934","to_stop_name":"origin","to_stop_lat":"37.6922361","placename":"Lenexa, KS, USA","to_stop_lon":"-97.3375448","to_stop":{"id":"12934","name":"origin","lat":"37.6922361","placename":"Wichita, KS, USA","lon":"-97.3375448"},"from_stop":{"name":"origin","id":"12952","lat":"38.9536174","lon":"-94.7335709","placename":"Lenexa, KS, USA"}},{"transport_id":null,"id":"9383","transport_name":null,"transport_description":null,"transport_unit":null,"transport_co2_eq":null,"from_stop_id":"12953","from_stop_lat":"35.1495343","from_stop_lon":"-90.0489801","to_stop_id":"12934","to_stop_name":"origin","to_stop_lat":"37.6922361","placename":"Memphis, TN, USA","to_stop_lon":"-97.3375448","to_stop":{"id":"12934","name":"origin","lat":"37.6922361","placename":"Wichita, KS, USA","lon":"-97.3375448"},"from_stop":{"name":"origin","id":"12953","lat":"35.1495343","lon":"-90.0489801","placename":"Memphis, TN, USA"}},{"transport_id":null,"id":"9384","transport_name":null,"transport_description":null,"transport_unit":null,"transport_co2_eq":null,"from_stop_id":"12954","from_stop_lat":"37.6922361","from_stop_lon":"-97.3375448","to_stop_id":"12934","to_stop_name":"origin","to_stop_lat":"37.6922361","placename":"Wichita, KS, USA","to_stop_lon":"-97.3375448","to_stop":{"id":"12934","name":"origin","lat":"37.6922361","placename":"Wichita, KS, USA","lon":"-97.3375448"},"from_stop":{"name":"origin","id":"12954","lat":"37.6922361","lon":"-97.3375448","placename":"Wichita, KS, USA"}},{"transport_id":null,"id":"9385","transport_name":null,"transport_description":null,"transport_unit":null,"transport_co2_eq":null,"from_stop_id":"12955","from_stop_lat":"54.6836384","from_stop_lon":"-1.8201775","to_stop_id":"12934","to_stop_name":"origin","to_stop_lat":"37.6922361","placename":"County Durham, UK","to_stop_lon":"-97.3375448","to_stop":{"id":"12934","name":"origin","lat":"37.6922361","placename":"Wichita, KS, USA","lon":"-97.3375448"},"from_stop":{"name":"origin","id":"12955","lat":"54.6836384","lon":"-1.8201775","placename":"County Durham, UK"}},{"transport_id":null,"id":"9386","transport_name":null,"transport_description":null,"transport_unit":null,"transport_co2_eq":null,"from_stop_id":"12956","from_stop_lat":"55.505808","from_stop_lon":"-4.6056696","to_stop_id":"12934","to_stop_name":"origin","to_stop_lat":"37.6922361","placename":"Prestwick, South Ayrshire KA9, UK","to_stop_lon":"-97.3375448","to_stop":{"id":"12934","name":"origin","lat":"37.6922361","placename":"Wichita, KS, USA","lon":"-97.3375448"},"from_stop":{"name":"origin","id":"12956","lat":"55.505808","lon":"-4.6056696","placename":"Prestwick, South Ayrshire KA9, UK"}},{"transport_id":null,"id":"9387","transport_name":null,"transport_description":null,"transport_unit":null,"transport_co2_eq":null,"from_stop_id":"12957","from_stop_lat":"51.879652","from_stop_lon":"-0.417558","to_stop_id":"12934","to_stop_name":"origin","to_stop_lat":"37.6922361","placename":"Luton, UK","to_stop_lon":"-97.3375448","to_stop":{"id":"12934","name":"origin","lat":"37.6922361","placename":"Wichita, KS, USA","lon":"-97.3375448"},"from_stop":{"name":"origin","id":"12957","lat":"51.879652","lon":"-0.417558","placename":"Luton, UK"}},{"transport_id":null,"id":"9388","transport_name":null,"transport_description":null,"transport_unit":null,"transport_co2_eq":null,"from_stop_id":"12958","from_stop_lat":"37.6922361","from_stop_lon":"-97.3375448","to_stop_id":"12934","to_stop_name":"origin","to_stop_lat":"37.6922361","placename":"Wichita, KS, USA","to_stop_lon":"-97.3375448","to_stop":{"id":"12934","name":"origin","lat":"37.6922361","placename":"Wichita, KS, USA","lon":"-97.3375448"},"from_stop":{"name":"origin","id":"12958","lat":"37.6922361","lon":"-97.3375448","placename":"Wichita, KS, USA"}},{"transport_id":null,"id":"9389","transport_name":null,"transport_description":null,"transport_unit":null,"transport_co2_eq":null,"from_stop_id":"12959","from_stop_lat":"30.6943566","from_stop_lon":"-88.0430541","to_stop_id":"12934","to_stop_name":"origin","to_stop_lat":"37.6922361","placename":"Mobile, AL, USA","to_stop_lon":"-97.3375448","to_stop":{"id":"12934","name":"origin","lat":"37.6922361","placename":"Wichita, KS, USA","lon":"-97.3375448"},"from_stop":{"name":"origin","id":"12959","lat":"30.6943566","lon":"-88.0430541","placename":"Mobile, AL, USA"}},{"transport_id":null,"id":"9390","transport_name":null,"transport_description":null,"transport_unit":null,"transport_co2_eq":null,"from_stop_id":"12960","from_stop_lat":"40.1447732","from_stop_lon":"-84.2424449","to_stop_id":"12934","to_stop_name":"origin","to_stop_lat":"37.6922361","placename":"Piqua, OH 45356, USA","to_stop_lon":"-97.3375448","to_stop":{"id":"12934","name":"origin","lat":"37.6922361","placename":"Wichita, KS, USA","lon":"-97.3375448"},"from_stop":{"name":"origin","id":"12960","lat":"40.1447732","lon":"-84.2424449","placename":"Piqua, OH 45356, USA"}},{"transport_id":null,"id":"9391","transport_name":null,"transport_description":null,"transport_unit":null,"transport_co2_eq":null,"from_stop_id":"12961","from_stop_lat":"41.223","from_stop_lon":"-111.9738304","to_stop_id":"12934","to_stop_name":"origin","to_stop_lat":"37.6922361","placename":"Ogden, UT, USA","to_stop_lon":"-97.3375448","to_stop":{"id":"12934","name":"origin","lat":"37.6922361","placename":"Wichita, KS, USA","lon":"-97.3375448"},"from_stop":{"name":"origin","id":"12961","lat":"41.223","lon":"-111.9738304","placename":"Ogden, UT, USA"}},{"transport_id":null,"id":"9392","transport_name":null,"transport_description":null,"transport_unit":null,"transport_co2_eq":null,"from_stop_id":"12962","from_stop_lat":"22.1564699","from_stop_lon":"-100.9855409","to_stop_id":"12934","to_stop_name":"origin","to_stop_lat":"37.6922361","placename":"San Luis Potosi, San Luis Potos\u00ed, Mexico","to_stop_lon":"-97.3375448","to_stop":{"id":"12934","name":"origin","lat":"37.6922361","placename":"Wichita, KS, USA","lon":"-97.3375448"},"from_stop":{"name":"origin","id":"12962","lat":"22.1564699","lon":"-100.9855409","placename":"San Luis Potosi, San Luis Potos\u00ed, Mexico"}},{"transport_id":null,"id":"9393","transport_name":null,"transport_description":null,"transport_unit":null,"transport_co2_eq":null,"from_stop_id":"12963","from_stop_lat":"39.521017","from_stop_lon":"116.706651","to_stop_id":"12934","to_stop_name":"origin","to_stop_lat":"37.6922361","placename":"Langfang, Hebei, China","to_stop_lon":"-97.3375448","to_stop":{"id":"12934","name":"origin","lat":"37.6922361","placename":"Wichita, KS, USA","lon":"-97.3375448"},"from_stop":{"name":"origin","id":"12963","lat":"39.521017","lon":"116.706651","placename":"Langfang, Hebei, China"}},{"transport_id":null,"id":"9394","transport_name":null,"transport_description":null,"transport_unit":null,"transport_co2_eq":null,"from_stop_id":"12964","from_stop_lat":"47.9789848","from_stop_lon":"-122.2020794","to_stop_id":"12934","to_stop_name":"origin","to_stop_lat":"37.6922361","placename":"Everett, WA, USA","to_stop_lon":"-97.3375448","to_stop":{"id":"12934","name":"origin","lat":"37.6922361","placename":"Wichita, KS, USA","lon":"-97.3375448"},"from_stop":{"name":"origin","id":"12964","lat":"47.9789848","lon":"-122.2020794","placename":"Everett, WA, USA"}},{"transport_id":null,"id":"9395","transport_name":null,"transport_description":null,"transport_unit":null,"transport_co2_eq":null,"from_stop_id":"12965","from_stop_lat":"3.107094","from_stop_lon":"101.6082551","to_stop_id":"12934","to_stop_name":"origin","to_stop_lat":"37.6922361","placename":"Petaling Jaya, Selangor, Malaysia","to_stop_lon":"-97.3375448","to_stop":{"id":"12934","name":"origin","lat":"37.6922361","placename":"Wichita, KS, USA","lon":"-97.3375448"},"from_stop":{"name":"origin","id":"12965","lat":"3.107094","lon":"101.6082551","placename":"Petaling Jaya, Selangor, Malaysia"}},{"transport_id":null,"id":"9396","transport_name":null,"transport_description":null,"transport_unit":null,"transport_co2_eq":null,"from_stop_id":"12966","from_stop_lat":"13.7234186","from_stop_lon":"100.4762319","to_stop_id":"12934","to_stop_name":"origin","to_stop_lat":"37.6922361","placename":"Bangkok, Thailand","to_stop_lon":"-97.3375448","to_stop":{"id":"12934","name":"origin","lat":"37.6922361","placename":"Wichita, KS, USA","lon":"-97.3375448"},"from_stop":{"name":"origin","id":"12966","lat":"13.7234186","lon":"100.4762319","placename":"Bangkok, Thailand"}},{"transport_id":null,"id":"9397","transport_name":null,"transport_description":null,"transport_unit":null,"transport_co2_eq":null,"from_stop_id":"12967","from_stop_lat":"35.1613985","from_stop_lon":"138.6762728","to_stop_id":"12934","to_stop_name":"origin","to_stop_lat":"37.6922361","placename":"Fuji, Shizuoka Prefecture, Japan","to_stop_lon":"-97.3375448","to_stop":{"id":"12934","name":"origin","lat":"37.6922361","placename":"Wichita, KS, USA","lon":"-97.3375448"},"from_stop":{"name":"origin","id":"12967","lat":"35.1613985","lon":"138.6762728","placename":"Fuji, Shizuoka Prefecture, Japan"}},{"transport_id":null,"id":"9398","transport_name":null,"transport_description":null,"transport_unit":null,"transport_co2_eq":null,"from_stop_id":"12968","from_stop_lat":"20.5930556","from_stop_lon":"-100.3922222","to_stop_id":"12934","to_stop_name":"origin","to_stop_lat":"37.6922361","placename":"Quer\u00e9taro, Mexico","to_stop_lon":"-97.3375448","to_stop":{"id":"12934","name":"origin","lat":"37.6922361","placename":"Wichita, KS, USA","lon":"-97.3375448"},"from_stop":{"name":"origin","id":"12968","lat":"20.5930556","lon":"-100.3922222","placename":"Quer\u00e9taro, Mexico"}}],"outgoing":[]}}},"parts":[{"oid":"605","imid":"6563","linkid":"0","weight":"0","rawemissions":"0","emissions":"0","shipping":"1413.61","processemissions":"0","endoflifeemissions":"0","disposaltype":null,"disposalenergy":null,"disposalimpact":null,"disposalemissions":null,"description":"Honeywell - H4000\n","name":"Avionics","id":"6563","stops":{"origin":{"related_to":"6563","part_or_object":"p","notes":null,"placename":"Phoenix, AZ, USA","id":12935,"name":"origin","lat":"33.4483771","lon":"-112.0740373","hops":{"incoming":[],"outgoing":[{"transport_id":null,"id":"9365","transport_name":null,"transport_description":null,"transport_unit":null,"transport_co2_eq":null,"from_stop_id":"12935","from_stop_lat":"33.4483771","from_stop_lon":"-112.0740373","from_stop_placename":"Phoenix, AZ, USA","to_stop_id":"12934","to_stop_name":"origin","to_stop_lat":"37.6922361","to_stop_lon":"-97.3375448","to_stop_placename":"Wichita, KS, USA","to_stop":{"id":"12934","name":"origin","lat":"37.6922361","lon":"-97.3375448","placename":"Wichita, KS, USA"},"from_stop":{"name":"origin","id":"12935","lat":"33.4483771","lon":"-112.0740373","placename":"Phoenix, AZ, USA"}}]}}},"processes":[],"eols":[]},{"oid":"605","imid":"6564","linkid":"0","weight":"0","rawemissions":"0","emissions":"0","shipping":"256.78","processemissions":"0","endoflifeemissions":"0","disposaltype":null,"disposalenergy":null,"disposalimpact":null,"disposalemissions":null,"description":"Garmin - Pistons","name":"Avionics","id":"6564","stops":{"origin":{"related_to":"6564","part_or_object":"p","notes":null,"placename":"Olathe, KS, USA","id":12936,"name":"origin","lat":"38.8813958","lon":"-94.8191285","hops":{"incoming":[],"outgoing":[{"transport_id":null,"id":"9366","transport_name":null,"transport_description":null,"transport_unit":null,"transport_co2_eq":null,"from_stop_id":"12936","from_stop_lat":"38.8813958","from_stop_lon":"-94.8191285","from_stop_placename":"Olathe, KS, USA","to_stop_id":"12934","to_stop_name":"origin","to_stop_lat":"37.6922361","to_stop_lon":"-97.3375448","to_stop_placename":"Wichita, KS, USA","to_stop":{"id":"12934","name":"origin","lat":"37.6922361","lon":"-97.3375448","placename":"Wichita, KS, USA"},"from_stop":{"name":"origin","id":"12936","lat":"38.8813958","lon":"-94.8191285","placename":"Olathe, KS, USA"}}]}}},"processes":[],"eols":[]},{"oid":"605","imid":"6565","linkid":"0","weight":"0","rawemissions":"0","emissions":"0","shipping":"1295.38","processemissions":"0","endoflifeemissions":"0","disposaltype":null,"disposalenergy":null,"disposalimpact":null,"disposalemissions":null,"description":"Labinal - Piston\nLabinal - King Air\nLabinal - Premier\nLabinal - H400\n","name":"Wire Harness","id":"6565","stops":{"origin":{"related_to":"6565","part_or_object":"p","notes":null,"placename":"Chihuahua Municipality, Chihuahua, Mexico","id":12937,"name":"origin","lat":"28.6352778","lon":"-106.0888889","hops":{"incoming":[],"outgoing":[{"transport_id":null,"id":"9367","transport_name":null,"transport_description":null,"transport_unit":null,"transport_co2_eq":null,"from_stop_id":"12937","from_stop_lat":"28.6352778","from_stop_lon":"-106.0888889","from_stop_placename":"Chihuahua Municipality, Chihuahua, Mexico","to_stop_id":"12934","to_stop_name":"origin","to_stop_lat":"37.6922361","to_stop_lon":"-97.3375448","to_stop_placename":"Wichita, KS, USA","to_stop":{"id":"12934","name":"origin","lat":"37.6922361","lon":"-97.3375448","placename":"Wichita, KS, USA"},"from_stop":{"name":"origin","id":"12937","lat":"28.6352778","lon":"-106.0888889","placename":"Chihuahua Municipality, Chihuahua, Mexico"}}]}}},"processes":[],"eols":[]},{"oid":"605","imid":"6580","linkid":"0","weight":"0","rawemissions":"0","emissions":"0","shipping":"1295.38","processemissions":"0","endoflifeemissions":"0","disposaltype":null,"disposalenergy":null,"disposalimpact":null,"disposalemissions":null,"description":"HBC - Premier","name":"Wings","id":"6580","stops":{"origin":{"related_to":"6580","part_or_object":"p","notes":null,"placename":"Chihuahua Municipality, Chihuahua, Mexico","id":12938,"name":"origin","lat":"28.6352778","lon":"-106.0888889","hops":{"incoming":[],"outgoing":[{"transport_id":null,"id":"9368","transport_name":null,"transport_description":null,"transport_unit":null,"transport_co2_eq":null,"from_stop_id":"12938","from_stop_lat":"28.6352778","from_stop_lon":"-106.0888889","from_stop_placename":"Chihuahua Municipality, Chihuahua, Mexico","to_stop_id":"12934","to_stop_name":"origin","to_stop_lat":"37.6922361","to_stop_lon":"-97.3375448","to_stop_placename":"Wichita, KS, USA","to_stop":{"id":"12934","name":"origin","lat":"37.6922361","lon":"-97.3375448","placename":"Wichita, KS, USA"},"from_stop":{"name":"origin","id":"12938","lat":"28.6352778","lon":"-106.0888889","placename":"Chihuahua Municipality, Chihuahua, Mexico"}}]}}},"processes":[],"eols":[]},{"oid":"605","imid":"6581","linkid":"0","weight":"0","rawemissions":"0","emissions":"0","shipping":"546.71","processemissions":"0","endoflifeemissions":"0","disposaltype":null,"disposalenergy":null,"disposalimpact":null,"disposalemissions":null,"description":"Meggitt - King Air","name":"ECS","id":"6581","stops":{"origin":{"related_to":"6581","part_or_object":"p","notes":null,"placename":"Dallas, TX, USA","id":12939,"name":"origin","lat":"32.802955","lon":"-96.769923","hops":{"incoming":[],"outgoing":[{"transport_id":null,"id":"9369","transport_name":null,"transport_description":null,"transport_unit":null,"transport_co2_eq":null,"from_stop_id":"12939","from_stop_lat":"32.802955","from_stop_lon":"-96.769923","from_stop_placename":"Dallas, TX, USA","to_stop_id":"12934","to_stop_name":"origin","to_stop_lat":"37.6922361","to_stop_lon":"-97.3375448","to_stop_placename":"Wichita, KS, USA","to_stop":{"id":"12934","name":"origin","lat":"37.6922361","lon":"-97.3375448","placename":"Wichita, KS, USA"},"from_stop":{"name":"origin","id":"12939","lat":"32.802955","lon":"-96.769923","placename":"Dallas, TX, USA"}}]}}},"processes":[],"eols":[]},{"oid":"605","imid":"6558","linkid":"0","weight":"0","rawemissions":"0","emissions":"0","shipping":"7021.61","processemissions":"0","endoflifeemissions":"0","disposaltype":null,"disposalenergy":null,"disposalimpact":null,"disposalemissions":null,"description":"Airbus - H900","name":"Wings","id":"6558","stops":{"origin":{"related_to":"6558","part_or_object":"p","notes":null,"placename":"Chester, Cheshire West and Chester, UK","id":12940,"name":"origin","lat":"53.1914576","lon":"-2.8950072","hops":{"incoming":[],"outgoing":[{"transport_id":null,"id":"9370","transport_name":null,"transport_description":null,"transport_unit":null,"transport_co2_eq":null,"from_stop_id":"12940","from_stop_lat":"53.1914576","from_stop_lon":"-2.8950072","from_stop_placename":"Chester, Cheshire West and Chester, UK","to_stop_id":"12934","to_stop_name":"origin","to_stop_lat":"37.6922361","to_stop_lon":"-97.3375448","to_stop_placename":"Wichita, KS, USA","to_stop":{"id":"12934","name":"origin","lat":"37.6922361","lon":"-97.3375448","placename":"Wichita, KS, USA"},"from_stop":{"name":"origin","id":"12940","lat":"53.1914576","lon":"-2.8950072","placename":"Chester, Cheshire West and Chester, UK"}}]}}},"processes":[],"eols":[]},{"oid":"605","imid":"6559","linkid":"0","weight":"0","rawemissions":"0","emissions":"0","shipping":"1295.38","processemissions":"0","endoflifeemissions":"0","disposaltype":null,"disposalenergy":null,"disposalimpact":null,"disposalemissions":null,"description":"HBC - Piston\nHBC - King Air\nHBC - H400\n","name":"Fuselage","id":"6559","stops":{"origin":{"related_to":"6559","part_or_object":"p","notes":null,"placename":"Chihuahua Municipality, Chihuahua, Mexico","id":12941,"name":"origin","lat":"28.6352778","lon":"-106.0888889","hops":{"incoming":[],"outgoing":[{"transport_id":null,"id":"9371","transport_name":null,"transport_description":null,"transport_unit":null,"transport_co2_eq":null,"from_stop_id":"12941","from_stop_lat":"28.6352778","from_stop_lon":"-106.0888889","from_stop_placename":"Chihuahua Municipality, Chihuahua, Mexico","to_stop_id":"12934","to_stop_name":"origin","to_stop_lat":"37.6922361","to_stop_lon":"-97.3375448","to_stop_placename":"Wichita, KS, USA","to_stop":{"id":"12934","name":"origin","lat":"37.6922361","lon":"-97.3375448","placename":"Wichita, KS, USA"},"from_stop":{"name":"origin","id":"12941","lat":"28.6352778","lon":"-106.0888889","placename":"Chihuahua Municipality, Chihuahua, Mexico"}}]}}},"processes":[],"eols":[]},{"oid":"605","imid":"6571","linkid":"0","weight":"0","rawemissions":"0","emissions":"0","shipping":"8222.23","processemissions":"0","endoflifeemissions":"0","disposaltype":null,"disposalenergy":null,"disposalimpact":null,"disposalemissions":null,"description":"PPG - Piston","name":"Windshield","id":"6571","stops":{"origin":{"related_to":"6571","part_or_object":"p","notes":null,"placename":"Milan, Italy","id":12942,"name":"origin","lat":"45.4636889","lon":"9.1881408","hops":{"incoming":[],"outgoing":[{"transport_id":null,"id":"9372","transport_name":null,"transport_description":null,"transport_unit":null,"transport_co2_eq":null,"from_stop_id":"12942","from_stop_lat":"45.4636889","from_stop_lon":"9.1881408","from_stop_placename":"Milan, Italy","to_stop_id":"12934","to_stop_name":"origin","to_stop_lat":"37.6922361","to_stop_lon":"-97.3375448","to_stop_placename":"Wichita, KS, USA","to_stop":{"id":"12934","name":"origin","lat":"37.6922361","lon":"-97.3375448","placename":"Wichita, KS, USA"},"from_stop":{"name":"origin","id":"12942","lat":"45.4636889","lon":"9.1881408","placename":"Milan, Italy"}}]}}},"processes":[],"eols":[]},{"oid":"605","imid":"6572","linkid":"0","weight":"0","rawemissions":"0","emissions":"0","shipping":"1683.26","processemissions":"0","endoflifeemissions":"0","disposaltype":null,"disposalenergy":null,"disposalimpact":null,"disposalemissions":null,"description":"AVOX - Piston","name":"O2 System","id":"6572","stops":{"origin":{"related_to":"6572","part_or_object":"p","notes":null,"placename":"Lancaster, NY, USA","id":12943,"name":"origin","lat":"42.9006144","lon":"-78.6703062","hops":{"incoming":[],"outgoing":[{"transport_id":null,"id":"9373","transport_name":null,"transport_description":null,"transport_unit":null,"transport_co2_eq":null,"from_stop_id":"12943","from_stop_lat":"42.9006144","from_stop_lon":"-78.6703062","from_stop_placename":"Lancaster, NY, USA","to_stop_id":"12934","to_stop_name":"origin","to_stop_lat":"37.6922361","to_stop_lon":"-97.3375448","to_stop_placename":"Wichita, KS, USA","to_stop":{"id":"12934","name":"origin","lat":"37.6922361","lon":"-97.3375448","placename":"Wichita, KS, USA"},"from_stop":{"name":"origin","id":"12943","lat":"42.9006144","lon":"-78.6703062","placename":"Lancaster, NY, USA"}}]}}},"processes":[],"eols":[]},{"oid":"605","imid":"6560","linkid":"0","weight":"0","rawemissions":"0","emissions":"0","shipping":"1295.38","processemissions":"0","endoflifeemissions":"0","disposaltype":null,"disposalenergy":null,"disposalimpact":null,"disposalemissions":null,"description":"HBC - H4000","name":"Fuse Components","id":"6560","stops":{"origin":{"related_to":"6560","part_or_object":"p","notes":null,"placename":"Chihuahua Municipality, Chihuahua, Mexico","id":12944,"name":"origin","lat":"28.6352778","lon":"-106.0888889","hops":{"incoming":[],"outgoing":[{"transport_id":null,"id":"9374","transport_name":null,"transport_description":null,"transport_unit":null,"transport_co2_eq":null,"from_stop_id":"12944","from_stop_lat":"28.6352778","from_stop_lon":"-106.0888889","from_stop_placename":"Chihuahua Municipality, Chihuahua, Mexico","to_stop_id":"12934","to_stop_name":"origin","to_stop_lat":"37.6922361","to_stop_lon":"-97.3375448","to_stop_placename":"Wichita, KS, USA","to_stop":{"id":"12934","name":"origin","lat":"37.6922361","lon":"-97.3375448","placename":"Wichita, KS, USA"},"from_stop":{"name":"origin","id":"12944","lat":"28.6352778","lon":"-106.0888889","placename":"Chihuahua Municipality, Chihuahua, Mexico"}}]}}},"processes":[],"eols":[]},{"oid":"605","imid":"6575","linkid":"0","weight":"0","rawemissions":"0","emissions":"0","shipping":"0","processemissions":"0","endoflifeemissions":"0","disposaltype":null,"disposalenergy":null,"disposalimpact":null,"disposalemissions":null,"description":"HBC - Premier\nHBC - H4000","name":"Fuselage","id":"6575","stops":{"origin":{"related_to":"6575","part_or_object":"p","notes":null,"placename":"Wichita, KS, USA","id":12954,"name":"origin","lat":"37.6922361","lon":"-97.3375448","hops":{"incoming":[],"outgoing":[{"transport_id":null,"id":"9384","transport_name":null,"transport_description":null,"transport_unit":null,"transport_co2_eq":null,"from_stop_id":"12954","from_stop_lat":"37.6922361","from_stop_lon":"-97.3375448","from_stop_placename":"Wichita, KS, USA","to_stop_id":"12934","to_stop_name":"origin","to_stop_lat":"37.6922361","to_stop_lon":"-97.3375448","to_stop_placename":"Wichita, KS, USA","to_stop":{"id":"12934","name":"origin","lat":"37.6922361","lon":"-97.3375448","placename":"Wichita, KS, USA"},"from_stop":{"name":"origin","id":"12954","lat":"37.6922361","lon":"-97.3375448","placename":"Wichita, KS, USA"}}]}}},"processes":[],"eols":[]},{"oid":"605","imid":"6583","linkid":"0","weight":"0","rawemissions":"0","emissions":"0","shipping":"1165.38","processemissions":"0","endoflifeemissions":"0","disposaltype":null,"disposalenergy":null,"disposalimpact":null,"disposalemissions":null,"description":"Hartzell - Piston\nHartzell - King Air","name":"Propellers","id":"6583","stops":{"origin":{"related_to":"6583","part_or_object":"p","notes":null,"placename":"Piqua, OH 45356, USA","id":12960,"name":"origin","lat":"40.1447732","lon":"-84.2424449","hops":{"incoming":[],"outgoing":[{"transport_id":null,"id":"9390","transport_name":null,"transport_description":null,"transport_unit":null,"transport_co2_eq":null,"from_stop_id":"12960","from_stop_lat":"40.1447732","from_stop_lon":"-84.2424449","from_stop_placename":"Piqua, OH 45356, USA","to_stop_id":"12934","to_stop_name":"origin","to_stop_lat":"37.6922361","to_stop_lon":"-97.3375448","to_stop_placename":"Wichita, KS, USA","to_stop":{"id":"12934","name":"origin","lat":"37.6922361","lon":"-97.3375448","placename":"Wichita, KS, USA"},"from_stop":{"name":"origin","id":"12960","lat":"40.1447732","lon":"-84.2424449","placename":"Piqua, OH 45356, USA"}}]}}},"processes":[],"eols":[]},{"oid":"605","imid":"6584","linkid":"0","weight":"0","rawemissions":"0","emissions":"0","shipping":"1316.05","processemissions":"0","endoflifeemissions":"0","disposaltype":null,"disposalenergy":null,"disposalimpact":null,"disposalemissions":null,"description":"Williams - Premier","name":"Engines","id":"6584","stops":{"origin":{"related_to":"6584","part_or_object":"p","notes":null,"placename":"Ogden, UT, USA","id":12961,"name":"origin","lat":"41.223","lon":"-111.9738304","hops":{"incoming":[],"outgoing":[{"transport_id":null,"id":"9391","transport_name":null,"transport_description":null,"transport_unit":null,"transport_co2_eq":null,"from_stop_id":"12961","from_stop_lat":"41.223","from_stop_lon":"-111.9738304","from_stop_placename":"Ogden, UT, USA","to_stop_id":"12934","to_stop_name":"origin","to_stop_lat":"37.6922361","to_stop_lon":"-97.3375448","to_stop_placename":"Wichita, KS, USA","to_stop":{"id":"12934","name":"origin","lat":"37.6922361","lon":"-97.3375448","placename":"Wichita, KS, USA"},"from_stop":{"name":"origin","id":"12961","lat":"41.223","lon":"-111.9738304","placename":"Ogden, UT, USA"}}]}}},"processes":[],"eols":[]},{"oid":"605","imid":"6585","linkid":"0","weight":"0","rawemissions":"0","emissions":"0","shipping":"1764.45","processemissions":"0","endoflifeemissions":"0","disposaltype":null,"disposalenergy":null,"disposalimpact":null,"disposalemissions":null,"description":"Tighitco - Piston\nTighitco - King Air","name":"Manufactured Components","id":"6585","stops":{"origin":{"related_to":"6585","part_or_object":"p","notes":null,"placename":"San Luis Potosi, San Luis Potos\u00ed, Mexico","id":12962,"name":"origin","lat":"22.1564699","lon":"-100.9855409","hops":{"incoming":[],"outgoing":[{"transport_id":null,"id":"9392","transport_name":null,"transport_description":null,"transport_unit":null,"transport_co2_eq":null,"from_stop_id":"12962","from_stop_lat":"22.1564699","from_stop_lon":"-100.9855409","from_stop_placename":"San Luis Potosi, San Luis Potos\u00ed, Mexico","to_stop_id":"12934","to_stop_name":"origin","to_stop_lat":"37.6922361","to_stop_lon":"-97.3375448","to_stop_placename":"Wichita, KS, USA","to_stop":{"id":"12934","name":"origin","lat":"37.6922361","lon":"-97.3375448","placename":"Wichita, KS, USA"},"from_stop":{"name":"origin","id":"12962","lat":"22.1564699","lon":"-100.9855409","placename":"San Luis Potosi, San Luis Potos\u00ed, Mexico"}}]}}},"processes":[],"eols":[]},{"oid":"605","imid":"6586","linkid":"0","weight":"0","rawemissions":"0","emissions":"0","shipping":"10764.8","processemissions":"0","endoflifeemissions":"0","disposaltype":null,"disposalenergy":null,"disposalimpact":null,"disposalemissions":null,"description":"Fokker Elmo - H4000","name":"Wiring Harness","id":"6586","stops":{"origin":{"related_to":"6586","part_or_object":"p","notes":null,"placename":"Langfang, Hebei, China","id":12963,"name":"origin","lat":"39.521017","lon":"116.706651","hops":{"incoming":[],"outgoing":[{"transport_id":null,"id":"9393","transport_name":null,"transport_description":null,"transport_unit":null,"transport_co2_eq":null,"from_stop_id":"12963","from_stop_lat":"39.521017","from_stop_lon":"116.706651","from_stop_placename":"Langfang, Hebei, China","to_stop_id":"12934","to_stop_name":"origin","to_stop_lat":"37.6922361","to_stop_lon":"-97.3375448","to_stop_placename":"Wichita, KS, USA","to_stop":{"id":"12934","name":"origin","lat":"37.6922361","lon":"-97.3375448","placename":"Wichita, KS, USA"},"from_stop":{"name":"origin","id":"12963","lat":"39.521017","lon":"116.706651","placename":"Langfang, Hebei, China"}}]}}},"processes":[],"eols":[]},{"oid":"605","imid":"6590","linkid":"0","weight":"0","rawemissions":"0","emissions":"0","shipping":"2315.45","processemissions":"0","endoflifeemissions":"0","disposaltype":null,"disposalenergy":null,"disposalimpact":null,"disposalemissions":null,"description":"BLR - King Air","name":"Winglets","id":"6590","stops":{"origin":{"related_to":"6590","part_or_object":"p","notes":null,"placename":"Everett, WA, USA","id":12964,"name":"origin","lat":"47.9789848","lon":"-122.2020794","hops":{"incoming":[],"outgoing":[{"transport_id":null,"id":"9394","transport_name":null,"transport_description":null,"transport_unit":null,"transport_co2_eq":null,"from_stop_id":"12964","from_stop_lat":"47.9789848","from_stop_lon":"-122.2020794","from_stop_placename":"Everett, WA, USA","to_stop_id":"12934","to_stop_name":"origin","to_stop_lat":"37.6922361","to_stop_lon":"-97.3375448","to_stop_placename":"Wichita, KS, USA","to_stop":{"id":"12934","name":"origin","lat":"37.6922361","lon":"-97.3375448","placename":"Wichita, KS, USA"},"from_stop":{"name":"origin","id":"12964","lat":"47.9789848","lon":"-122.2020794","placename":"Everett, WA, USA"}}]}}},"processes":[],"eols":[]},{"oid":"605","imid":"6561","linkid":"0","weight":"0","rawemissions":"0","emissions":"0","shipping":"2156.17","processemissions":"0","endoflifeemissions":"0","disposaltype":null,"disposalenergy":null,"disposalimpact":null,"disposalemissions":null,"description":"Pratt & Whitney - H4000\nPratt & Whitney - H400\nPratt & Whitney - King Air\n","name":"Engines","id":"6561","stops":{"origin":{"related_to":"6561","part_or_object":"p","notes":null,"placename":"Longueuil, QC, Canada","id":12945,"name":"origin","lat":"45.537405","lon":"-73.510726","hops":{"incoming":[],"outgoing":[{"transport_id":null,"id":"9375","transport_name":null,"transport_description":null,"transport_unit":null,"transport_co2_eq":null,"from_stop_id":"12945","from_stop_lat":"45.537405","from_stop_lon":"-73.510726","from_stop_placename":"Longueuil, QC, Canada","to_stop_id":"12934","to_stop_name":"origin","to_stop_lat":"37.6922361","to_stop_lon":"-97.3375448","to_stop_placename":"Wichita, KS, USA","to_stop":{"id":"12934","name":"origin","lat":"37.6922361","lon":"-97.3375448","placename":"Wichita, KS, USA"},"from_stop":{"name":"origin","id":"12945","lat":"45.537405","lon":"-73.510726","placename":"Longueuil, QC, Canada"}}]}}},"processes":[],"eols":[]},{"oid":"605","imid":"6562","linkid":"0","weight":"0","rawemissions":"0","emissions":"0","shipping":"1889.87","processemissions":"0","endoflifeemissions":"0","disposaltype":null,"disposalenergy":null,"disposalimpact":null,"disposalemissions":null,"description":"Rockwell Collins - King Air\nRockwell Collins - Premier\nRockwell Collins - H400\nRockwell Collins - H900\n","name":"Avionics","id":"6562","stops":{"origin":{"related_to":"6562","part_or_object":"p","notes":null,"placename":"Melbourne, FL, USA","id":12946,"name":"origin","lat":"28.0836269","lon":"-80.6081089","hops":{"incoming":[],"outgoing":[{"transport_id":null,"id":"9376","transport_name":null,"transport_description":null,"transport_unit":null,"transport_co2_eq":null,"from_stop_id":"12946","from_stop_lat":"28.0836269","from_stop_lon":"-80.6081089","from_stop_placename":"Melbourne, FL, USA","to_stop_id":"12934","to_stop_name":"origin","to_stop_lat":"37.6922361","to_stop_lon":"-97.3375448","to_stop_placename":"Wichita, KS, USA","to_stop":{"id":"12934","name":"origin","lat":"37.6922361","lon":"-97.3375448","placename":"Wichita, KS, USA"},"from_stop":{"name":"origin","id":"12946","lat":"28.0836269","lon":"-80.6081089","placename":"Melbourne, FL, USA"}}]}}},"processes":[],"eols":[]},{"oid":"605","imid":"6566","linkid":"0","weight":"0","rawemissions":"0","emissions":"0","shipping":"15085.9","processemissions":"0","endoflifeemissions":"0","disposaltype":null,"disposalenergy":null,"disposalimpact":null,"disposalemissions":null,"description":"Honeywell - H4000","name":"Avionics Components","id":"6566","stops":{"origin":{"related_to":"6566","part_or_object":"p","notes":null,"placename":"Kuala Lumpur, Federal Territory of Kuala Lumpur, Malaysia","id":12947,"name":"origin","lat":"3.139003","lon":"101.686855","hops":{"incoming":[],"outgoing":[{"transport_id":null,"id":"9377","transport_name":null,"transport_description":null,"transport_unit":null,"transport_co2_eq":null,"from_stop_id":"12947","from_stop_lat":"3.139003","from_stop_lon":"101.686855","from_stop_placename":"Kuala Lumpur, Federal Territory of Kuala Lumpur, Malaysia","to_stop_id":"12934","to_stop_name":"origin","to_stop_lat":"37.6922361","to_stop_lon":"-97.3375448","to_stop_placename":"Wichita, KS, USA","to_stop":{"id":"12934","name":"origin","lat":"37.6922361","lon":"-97.3375448","placename":"Wichita, KS, USA"},"from_stop":{"name":"origin","id":"12947","lat":"3.139003","lon":"101.686855","placename":"Kuala Lumpur, Federal Territory of Kuala Lumpur, Malaysia"}}]}}},"processes":[],"eols":[]},{"oid":"605","imid":"6567","linkid":"0","weight":"0","rawemissions":"0","emissions":"0","shipping":"0","processemissions":"0","endoflifeemissions":"0","disposaltype":null,"disposalenergy":null,"disposalimpact":null,"disposalemissions":null,"description":"PMC - H4000","name":"Pylons","id":"6567","stops":{"origin":{"related_to":"6567","part_or_object":"p","notes":null,"placename":"Wichita, KS, USA","id":12948,"name":"origin","lat":"37.6922361","lon":"-97.3375448","hops":{"incoming":[],"outgoing":[{"transport_id":null,"id":"9378","transport_name":null,"transport_description":null,"transport_unit":null,"transport_co2_eq":null,"from_stop_id":"12948","from_stop_lat":"37.6922361","from_stop_lon":"-97.3375448","from_stop_placename":"Wichita, KS, USA","to_stop_id":"12934","to_stop_name":"origin","to_stop_lat":"37.6922361","to_stop_lon":"-97.3375448","to_stop_placename":"Wichita, KS, USA","to_stop":{"id":"12934","name":"origin","lat":"37.6922361","lon":"-97.3375448","placename":"Wichita, KS, USA"},"from_stop":{"name":"origin","id":"12948","lat":"37.6922361","lon":"-97.3375448","placename":"Wichita, KS, USA"}}]}}},"processes":[],"eols":[]},{"oid":"605","imid":"6568","linkid":"0","weight":"0","rawemissions":"0","emissions":"0","shipping":"208.91","processemissions":"0","endoflifeemissions":"0","disposaltype":null,"disposalenergy":null,"disposalimpact":null,"disposalemissions":null,"description":"Nordam - H4000","name":"Nacelles","id":"6568","stops":{"origin":{"related_to":"6568","part_or_object":"p","notes":null,"placename":"Tulsa, OK, USA","id":12949,"name":"origin","lat":"36.1539816","lon":"-95.992775","hops":{"incoming":[],"outgoing":[{"transport_id":null,"id":"9379","transport_name":null,"transport_description":null,"transport_unit":null,"transport_co2_eq":null,"from_stop_id":"12949","from_stop_lat":"36.1539816","from_stop_lon":"-95.992775","from_stop_placename":"Tulsa, OK, USA","to_stop_id":"12934","to_stop_name":"origin","to_stop_lat":"37.6922361","to_stop_lon":"-97.3375448","to_stop_placename":"Wichita, KS, USA","to_stop":{"id":"12934","name":"origin","lat":"37.6922361","lon":"-97.3375448","placename":"Wichita, KS, USA"},"from_stop":{"name":"origin","id":"12949","lat":"36.1539816","lon":"-95.992775","placename":"Tulsa, OK, USA"}}]}}},"processes":[],"eols":[]},{"oid":"605","imid":"6569","linkid":"0","weight":"0","rawemissions":"0","emissions":"0","shipping":"1685.04","processemissions":"0","endoflifeemissions":"0","disposaltype":null,"disposalenergy":null,"disposalimpact":null,"disposalemissions":null,"description":"Messier Dowty - H4000\nMessier Dowty - H900\n","name":"Landing Gear","id":"6569","stops":{"origin":{"related_to":"6569","part_or_object":"p","notes":null,"placename":"Ajax, ON, Canada","id":12950,"name":"origin","lat":"43.85","lon":"-79.0166667","hops":{"incoming":[],"outgoing":[{"transport_id":null,"id":"9380","transport_name":null,"transport_description":null,"transport_unit":null,"transport_co2_eq":null,"from_stop_id":"12950","from_stop_lat":"43.85","from_stop_lon":"-79.0166667","from_stop_placename":"Ajax, ON, Canada","to_stop_id":"12934","to_stop_name":"origin","to_stop_lat":"37.6922361","to_stop_lon":"-97.3375448","to_stop_placename":"Wichita, KS, USA","to_stop":{"id":"12934","name":"origin","lat":"37.6922361","lon":"-97.3375448","placename":"Wichita, KS, USA"},"from_stop":{"name":"origin","id":"12950","lat":"43.85","lon":"-79.0166667","placename":"Ajax, ON, Canada"}}]}}},"processes":[],"eols":[]},{"oid":"605","imid":"6570","linkid":"0","weight":"0","rawemissions":"0","emissions":"0","shipping":"1019.67","processemissions":"0","endoflifeemissions":"0","disposaltype":null,"disposalenergy":null,"disposalimpact":null,"disposalemissions":null,"description":"PPG - H4000\nPPG - H400\nPPG - King Air","name":"Windshield","id":"6570","stops":{"origin":{"related_to":"6570","part_or_object":"p","notes":null,"placename":"Huntsville, AL, USA","id":12951,"name":"origin","lat":"34.7303688","lon":"-86.5861037","hops":{"incoming":[],"outgoing":[{"transport_id":null,"id":"9381","transport_name":null,"transport_description":null,"transport_unit":null,"transport_co2_eq":null,"from_stop_id":"12951","from_stop_lat":"34.7303688","from_stop_lon":"-86.5861037","from_stop_placename":"Huntsville, AL, USA","to_stop_id":"12934","to_stop_name":"origin","to_stop_lat":"37.6922361","to_stop_lon":"-97.3375448","to_stop_placename":"Wichita, KS, USA","to_stop":{"id":"12934","name":"origin","lat":"37.6922361","lon":"-97.3375448","placename":"Wichita, KS, USA"},"from_stop":{"name":"origin","id":"12951","lat":"34.7303688","lon":"-86.5861037","placename":"Huntsville, AL, USA"}}]}}},"processes":[],"eols":[]},{"oid":"605","imid":"6573","linkid":"0","weight":"0","rawemissions":"0","emissions":"0","shipping":"267.25","processemissions":"0","endoflifeemissions":"0","disposaltype":null,"disposalenergy":null,"disposalimpact":null,"disposalemissions":null,"description":"BE Aerospace - Premier\nBE Aerospace - H400","name":"O2 System","id":"6573","stops":{"origin":{"related_to":"6573","part_or_object":"p","notes":null,"placename":"Lenexa, KS, USA","id":12952,"name":"origin","lat":"38.9536174","lon":"-94.7335709","hops":{"incoming":[],"outgoing":[{"transport_id":null,"id":"9382","transport_name":null,"transport_description":null,"transport_unit":null,"transport_co2_eq":null,"from_stop_id":"12952","from_stop_lat":"38.9536174","from_stop_lon":"-94.7335709","from_stop_placename":"Lenexa, KS, USA","to_stop_id":"12934","to_stop_name":"origin","to_stop_lat":"37.6922361","to_stop_lon":"-97.3375448","to_stop_placename":"Wichita, KS, USA","to_stop":{"id":"12934","name":"origin","lat":"37.6922361","lon":"-97.3375448","placename":"Wichita, KS, USA"},"from_stop":{"name":"origin","id":"12952","lat":"38.9536174","lon":"-94.7335709","placename":"Lenexa, KS, USA"}}]}}},"processes":[],"eols":[]},{"oid":"605","imid":"6574","linkid":"0","weight":"0","rawemissions":"0","emissions":"0","shipping":"711.33","processemissions":"0","endoflifeemissions":"0","disposaltype":null,"disposalenergy":null,"disposalimpact":null,"disposalemissions":null,"description":"FFC - King Air","name":"Fuel Bladders","id":"6574","stops":{"origin":{"related_to":"6574","part_or_object":"p","notes":null,"placename":"Memphis, TN, USA","id":12953,"name":"origin","lat":"35.1495343","lon":"-90.0489801","hops":{"incoming":[],"outgoing":[{"transport_id":null,"id":"9383","transport_name":null,"transport_description":null,"transport_unit":null,"transport_co2_eq":null,"from_stop_id":"12953","from_stop_lat":"35.1495343","from_stop_lon":"-90.0489801","from_stop_placename":"Memphis, TN, USA","to_stop_id":"12934","to_stop_name":"origin","to_stop_lat":"37.6922361","to_stop_lon":"-97.3375448","to_stop_placename":"Wichita, KS, USA","to_stop":{"id":"12934","name":"origin","lat":"37.6922361","lon":"-97.3375448","placename":"Wichita, KS, USA"},"from_stop":{"name":"origin","id":"12953","lat":"35.1495343","lon":"-90.0489801","placename":"Memphis, TN, USA"}}]}}},"processes":[],"eols":[]},{"oid":"605","imid":"6576","linkid":"0","weight":"0","rawemissions":"0","emissions":"0","shipping":"7006.48","processemissions":"0","endoflifeemissions":"0","disposaltype":null,"disposalenergy":null,"disposalimpact":null,"disposalemissions":null,"description":"CAV - H4000","name":"Overfin & Tail Assy","id":"6576","stops":{"origin":{"related_to":"6576","part_or_object":"p","notes":null,"placename":"County Durham, UK","id":12955,"name":"origin","lat":"54.6836384","lon":"-1.8201775","hops":{"incoming":[],"outgoing":[{"transport_id":null,"id":"9385","transport_name":null,"transport_description":null,"transport_unit":null,"transport_co2_eq":null,"from_stop_id":"12955","from_stop_lat":"54.6836384","from_stop_lon":"-1.8201775","from_stop_placename":"County Durham, UK","to_stop_id":"12934","to_stop_name":"origin","to_stop_lat":"37.6922361","to_stop_lon":"-97.3375448","to_stop_placename":"Wichita, KS, USA","to_stop":{"id":"12934","name":"origin","lat":"37.6922361","lon":"-97.3375448","placename":"Wichita, KS, USA"},"from_stop":{"name":"origin","id":"12955","lat":"54.6836384","lon":"-1.8201775","placename":"County Durham, UK"}}]}}},"processes":[],"eols":[]},{"oid":"605","imid":"6577","linkid":"0","weight":"0","rawemissions":"0","emissions":"0","shipping":"6806.86","processemissions":"0","endoflifeemissions":"0","disposaltype":null,"disposalenergy":null,"disposalimpact":null,"disposalemissions":null,"description":"Spirit - H4000","name":"Entry Door, Tail, Rudder","id":"6577","stops":{"origin":{"related_to":"6577","part_or_object":"p","notes":null,"placename":"Prestwick, South Ayrshire KA9, UK","id":12956,"name":"origin","lat":"55.505808","lon":"-4.6056696","hops":{"incoming":[],"outgoing":[{"transport_id":null,"id":"9386","transport_name":null,"transport_description":null,"transport_unit":null,"transport_co2_eq":null,"from_stop_id":"12956","from_stop_lat":"55.505808","from_stop_lon":"-4.6056696","from_stop_placename":"Prestwick, South Ayrshire KA9, UK","to_stop_id":"12934","to_stop_name":"origin","to_stop_lat":"37.6922361","to_stop_lon":"-97.3375448","to_stop_placename":"Wichita, KS, USA","to_stop":{"id":"12934","name":"origin","lat":"37.6922361","lon":"-97.3375448","placename":"Wichita, KS, USA"},"from_stop":{"name":"origin","id":"12956","lat":"55.505808","lon":"-4.6056696","placename":"Prestwick, South Ayrshire KA9, UK"}}]}}},"processes":[],"eols":[]},{"oid":"605","imid":"6578","linkid":"0","weight":"0","rawemissions":"0","emissions":"0","shipping":"7239","processemissions":"0","endoflifeemissions":"0","disposaltype":null,"disposalenergy":null,"disposalimpact":null,"disposalemissions":null,"description":"GKN - H4000\nGKN - H400","name":"Windshields","id":"6578","stops":{"origin":{"related_to":"6578","part_or_object":"p","notes":null,"placename":"Luton, UK","id":12957,"name":"origin","lat":"51.879652","lon":"-0.417558","hops":{"incoming":[],"outgoing":[{"transport_id":null,"id":"9387","transport_name":null,"transport_description":null,"transport_unit":null,"transport_co2_eq":null,"from_stop_id":"12957","from_stop_lat":"51.879652","from_stop_lon":"-0.417558","from_stop_placename":"Luton, UK","to_stop_id":"12934","to_stop_name":"origin","to_stop_lat":"37.6922361","to_stop_lon":"-97.3375448","to_stop_placename":"Wichita, KS, USA","to_stop":{"id":"12934","name":"origin","lat":"37.6922361","lon":"-97.3375448","placename":"Wichita, KS, USA"},"from_stop":{"name":"origin","id":"12957","lat":"51.879652","lon":"-0.417558","placename":"Luton, UK"}}]}}},"processes":[],"eols":[]},{"oid":"605","imid":"6579","linkid":"0","weight":"0","rawemissions":"0","emissions":"0","shipping":"0","processemissions":"0","endoflifeemissions":"0","disposaltype":null,"disposalenergy":null,"disposalimpact":null,"disposalemissions":null,"description":"Triumph - H4000\n","name":"Windows","id":"6579","stops":{"origin":{"related_to":"6579","part_or_object":"p","notes":null,"placename":"Wichita, KS, USA","id":12958,"name":"origin","lat":"37.6922361","lon":"-97.3375448","hops":{"incoming":[],"outgoing":[{"transport_id":null,"id":"9388","transport_name":null,"transport_description":null,"transport_unit":null,"transport_co2_eq":null,"from_stop_id":"12958","from_stop_lat":"37.6922361","from_stop_lon":"-97.3375448","from_stop_placename":"Wichita, KS, USA","to_stop_id":"12934","to_stop_name":"origin","to_stop_lat":"37.6922361","to_stop_lon":"-97.3375448","to_stop_placename":"Wichita, KS, USA","to_stop":{"id":"12934","name":"origin","lat":"37.6922361","lon":"-97.3375448","placename":"Wichita, KS, USA"},"from_stop":{"name":"origin","id":"12958","lat":"37.6922361","lon":"-97.3375448","placename":"Wichita, KS, USA"}}]}}},"processes":[],"eols":[]},{"oid":"605","imid":"6582","linkid":"0","weight":"0","rawemissions":"0","emissions":"0","shipping":"1156.1","processemissions":"0","endoflifeemissions":"0","disposaltype":null,"disposalenergy":null,"disposalimpact":null,"disposalemissions":null,"description":"Teledyne - Piston","name":"Engines","id":"6582","stops":{"origin":{"related_to":"6582","part_or_object":"p","notes":null,"placename":"Mobile, AL, USA","id":12959,"name":"origin","lat":"30.6943566","lon":"-88.0430541","hops":{"incoming":[],"outgoing":[{"transport_id":null,"id":"9389","transport_name":null,"transport_description":null,"transport_unit":null,"transport_co2_eq":null,"from_stop_id":"12959","from_stop_lat":"30.6943566","from_stop_lon":"-88.0430541","from_stop_placename":"Mobile, AL, USA","to_stop_id":"12934","to_stop_name":"origin","to_stop_lat":"37.6922361","to_stop_lon":"-97.3375448","to_stop_placename":"Wichita, KS, USA","to_stop":{"id":"12934","name":"origin","lat":"37.6922361","lon":"-97.3375448","placename":"Wichita, KS, USA"},"from_stop":{"name":"origin","id":"12959","lat":"30.6943566","lon":"-88.0430541","placename":"Mobile, AL, USA"}}]}}},"processes":[],"eols":[]},{"oid":"605","imid":"6591","linkid":"0","weight":"0","rawemissions":"0","emissions":"0","shipping":"15092.42","processemissions":"0","endoflifeemissions":"0","disposaltype":null,"disposalenergy":null,"disposalimpact":null,"disposalemissions":null,"description":"Michelin","name":"Tires","id":"6591","stops":{"origin":{"related_to":"6591","part_or_object":"p","notes":null,"placename":"Petaling Jaya, Selangor, Malaysia","id":12965,"name":"origin","lat":"3.107094","lon":"101.6082551","hops":{"incoming":[],"outgoing":[{"transport_id":null,"id":"9395","transport_name":null,"transport_description":null,"transport_unit":null,"transport_co2_eq":null,"from_stop_id":"12965","from_stop_lat":"3.107094","from_stop_lon":"101.6082551","from_stop_placename":"Petaling Jaya, Selangor, Malaysia","to_stop_id":"12934","to_stop_name":"origin","to_stop_lat":"37.6922361","to_stop_lon":"-97.3375448","to_stop_placename":"Wichita, KS, USA","to_stop":{"id":"12934","name":"origin","lat":"37.6922361","lon":"-97.3375448","placename":"Wichita, KS, USA"},"from_stop":{"name":"origin","id":"12965","lat":"3.107094","lon":"101.6082551","placename":"Petaling Jaya, Selangor, Malaysia"}}]}}},"processes":[],"eols":[]},{"oid":"605","imid":"6592","linkid":"0","weight":"0","rawemissions":"0","emissions":"0","shipping":"14018.58","processemissions":"0","endoflifeemissions":"0","disposaltype":null,"disposalenergy":null,"disposalimpact":null,"disposalemissions":null,"description":"Goodyear","name":"Tires","id":"6592","stops":{"origin":{"related_to":"6592","part_or_object":"p","notes":null,"placename":"Bangkok, Thailand","id":12966,"name":"origin","lat":"13.7234186","lon":"100.4762319","hops":{"incoming":[],"outgoing":[{"transport_id":null,"id":"9396","transport_name":null,"transport_description":null,"transport_unit":null,"transport_co2_eq":null,"from_stop_id":"12966","from_stop_lat":"13.7234186","from_stop_lon":"100.4762319","from_stop_placename":"Bangkok, Thailand","to_stop_id":"12934","to_stop_name":"origin","to_stop_lat":"37.6922361","to_stop_lon":"-97.3375448","to_stop_placename":"Wichita, KS, USA","to_stop":{"id":"12934","name":"origin","lat":"37.6922361","lon":"-97.3375448","placename":"Wichita, KS, USA"},"from_stop":{"name":"origin","id":"12966","lat":"13.7234186","lon":"100.4762319","placename":"Bangkok, Thailand"}}]}}},"processes":[],"eols":[]},{"oid":"605","imid":"6407","linkid":"0","weight":"0","rawemissions":"0","emissions":"0","shipping":"10079.46","processemissions":"0","endoflifeemissions":"0","disposaltype":null,"disposalenergy":null,"disposalimpact":null,"disposalemissions":null,"description":"Fuji - H4000","name":" Wing & Wing Box","id":"6407","stops":{"origin":{"related_to":"6407","part_or_object":"p","notes":null,"placename":"Fuji, Shizuoka Prefecture, Japan","id":12967,"name":"origin","lat":"35.1613985","lon":"138.6762728","hops":{"incoming":[],"outgoing":[{"transport_id":null,"id":"9397","transport_name":null,"transport_description":null,"transport_unit":null,"transport_co2_eq":null,"from_stop_id":"12967","from_stop_lat":"35.1613985","from_stop_lon":"138.6762728","from_stop_placename":"Fuji, Shizuoka Prefecture, Japan","to_stop_id":"12934","to_stop_name":"origin","to_stop_lat":"37.6922361","to_stop_lon":"-97.3375448","to_stop_placename":"Wichita, KS, USA","to_stop":{"id":"12934","name":"origin","lat":"37.6922361","lon":"-97.3375448","placename":"Wichita, KS, USA"},"from_stop":{"name":"origin","id":"12967","lat":"35.1613985","lon":"138.6762728","placename":"Fuji, Shizuoka Prefecture, Japan"}}]}}},"processes":[],"eols":[]},{"oid":"605","imid":"6408","linkid":"0","weight":"0","rawemissions":"0","emissions":"0","shipping":"1926.17","processemissions":"0","endoflifeemissions":"0","disposaltype":null,"disposalenergy":null,"disposalimpact":null,"disposalemissions":null,"description":"Aeronova - Piston\nAeronova - King Air\nAeronova - H400\n","name":"Wings","id":"6408","stops":{"origin":{"related_to":"6408","part_or_object":"p","notes":null,"placename":"Quer\u00e9taro, Mexico","id":12968,"name":"origin","lat":"20.5930556","lon":"-100.3922222","hops":{"incoming":[],"outgoing":[{"transport_id":null,"id":"9398","transport_name":null,"transport_description":null,"transport_unit":null,"transport_co2_eq":null,"from_stop_id":"12968","from_stop_lat":"20.5930556","from_stop_lon":"-100.3922222","from_stop_placename":"Quer\u00e9taro, Mexico","to_stop_id":"12934","to_stop_name":"origin","to_stop_lat":"37.6922361","to_stop_lon":"-97.3375448","to_stop_placename":"Wichita, KS, USA","to_stop":{"id":"12934","name":"origin","lat":"37.6922361","lon":"-97.3375448","placename":"Wichita, KS, USA"},"from_stop":{"name":"origin","id":"12968","lat":"20.5930556","lon":"-100.3922222","placename":"Quer\u00e9taro, Mexico"}}]}}},"processes":[],"eols":[]}],"user":{"name":"bdegrandis","id":"11968"}}}