{"61":{"oid":"61","type":"trace","flag":"","creator":"11126","name":"Tim's Cascade Chips","upc":"","imagelink":"","description":"This map shows where ingredients in a bag of Tim's regular potato chips come from. Independent distributors deliver their product to major chain stores and many convenience stores throughout 11 western states, Alaska, Hawaii and Canada. They buy their salt and vegetable oil from major refineries in the United States.","slug":"Tim-s-Cascade-Chips","category":"","weight":"0","emissions":"0","embodied":"0","transport":"0","process":null,"endoflife":null,"shipping":"2043.41","lifetime":null,"usagetype":"","usageenergy":null,"usageemissions":null,"timecreated":"2010-11-22 13:54:26","timemodified":"2010-12-05 16:47:07","visibility":"public","showfootprint":"on","showembodied":"on","showtransport":"on","showprocess":"on","showendoflife":"on","showlastleg":"on","showuse":"on","showstats":"on","stops":{"origin":{"related_to":"61","part_or_object":"o","notes":null,"placename":"Algona, WA, USA","id":"8316","category":"1","lat":"47.2789896","lon":"-122.2520647","name":"origin","hops":{"incoming":[{"transport_id":null,"id":"5720","transport_name":null,"transport_description":null,"transport_unit":null,"transport_co2_eq":null,"from_stop_id":"8317","from_stop_lat":"46.3773509","from_stop_lon":"-120.3086667","to_stop_id":"8316","to_stop_name":"origin","to_stop_lat":"47.2789896","placename":"Toppenish, WA, USA","to_stop_lon":"-122.2520647","to_stop":{"id":"8316","name":"origin","lat":"47.2789896","placename":"Algona, WA, USA","lon":"-122.2520647"},"from_stop":{"name":"origin","id":"8317","lat":"46.3773509","lon":"-120.3086667","placename":"Toppenish, WA, USA"}},{"transport_id":null,"id":"5721","transport_name":null,"transport_description":null,"transport_unit":null,"transport_co2_eq":null,"from_stop_id":"8318","from_stop_lat":"47.2342997","from_stop_lon":"-119.8525504","to_stop_id":"8316","to_stop_name":"origin","to_stop_lat":"47.2789896","placename":"Quincy, WA 98848, USA","to_stop_lon":"-122.2520647","to_stop":{"id":"8316","name":"origin","lat":"47.2789896","placename":"Algona, WA, USA","lon":"-122.2520647"},"from_stop":{"name":"origin","id":"8318","lat":"47.2342997","lon":"-119.8525504","placename":"Quincy, WA 98848, USA"}},{"transport_id":null,"id":"5722","transport_name":null,"transport_description":null,"transport_unit":null,"transport_co2_eq":null,"from_stop_id":"8319","from_stop_lat":"46.9965144","from_stop_lon":"-120.5478474","to_stop_id":"8316","to_stop_name":"origin","to_stop_lat":"47.2789896","placename":"Ellensburg, WA, USA","to_stop_lon":"-122.2520647","to_stop":{"id":"8316","name":"origin","lat":"47.2789896","placename":"Algona, WA, USA","lon":"-122.2520647"},"from_stop":{"name":"origin","id":"8319","lat":"46.9965144","lon":"-120.5478474","placename":"Ellensburg, WA, USA"}},{"transport_id":null,"id":"5723","transport_name":null,"transport_description":null,"transport_unit":null,"transport_co2_eq":null,"from_stop_id":"8320","from_stop_lat":"45.5234515","from_stop_lon":"-122.6762071","to_stop_id":"8316","to_stop_name":"origin","to_stop_lat":"47.2789896","placename":"Portland, OR, USA","to_stop_lon":"-122.2520647","to_stop":{"id":"8316","name":"origin","lat":"47.2789896","placename":"Algona, WA, USA","lon":"-122.2520647"},"from_stop":{"name":"origin","id":"8320","lat":"45.5234515","lon":"-122.6762071","placename":"Portland, OR, USA"}},{"transport_id":null,"id":"5724","transport_name":null,"transport_description":null,"transport_unit":null,"transport_co2_eq":null,"from_stop_id":"8321","from_stop_lat":"35.3732921","from_stop_lon":"-119.0187125","to_stop_id":"8316","to_stop_name":"origin","to_stop_lat":"47.2789896","placename":"Bakersfield, CA, USA","to_stop_lon":"-122.2520647","to_stop":{"id":"8316","name":"origin","lat":"47.2789896","placename":"Algona, WA, USA","lon":"-122.2520647"},"from_stop":{"name":"origin","id":"8321","lat":"35.3732921","lon":"-119.0187125","placename":"Bakersfield, CA, USA"}}],"outgoing":[]}}},"parts":[{"oid":"61","imid":"5074","linkid":"0","weight":"0","rawemissions":"0","emissions":"0","shipping":"178.83","processemissions":"0","endoflifeemissions":"0","disposaltype":null,"disposalenergy":null,"disposalimpact":null,"disposalemissions":null,"description":"One of five family-owned farms that Tim's buys their potatoes from.","name":"Potatoes","id":"5074","stops":{"origin":{"related_to":"5074","part_or_object":"p","notes":null,"placename":"Toppenish, WA, USA","id":8317,"name":"origin","lat":"46.3773509","lon":"-120.3086667","hops":{"incoming":[],"outgoing":[{"transport_id":null,"id":"5720","transport_name":null,"transport_description":null,"transport_unit":null,"transport_co2_eq":null,"from_stop_id":"8317","from_stop_lat":"46.3773509","from_stop_lon":"-120.3086667","from_stop_placename":"Toppenish, WA, USA","to_stop_id":"8316","to_stop_name":"origin","to_stop_lat":"47.2789896","to_stop_lon":"-122.2520647","to_stop_placename":"Algona, WA, USA","to_stop":{"id":"8316","name":"origin","lat":"47.2789896","lon":"-122.2520647","placename":"Algona, WA, USA"},"from_stop":{"name":"origin","id":"8317","lat":"46.3773509","lon":"-120.3086667","placename":"Toppenish, WA, USA"}}]}}},"processes":[],"eols":[]},{"oid":"61","imid":"5075","linkid":"0","weight":"0","rawemissions":"0","emissions":"0","shipping":"181.35","processemissions":"0","endoflifeemissions":"0","disposaltype":null,"disposalenergy":null,"disposalimpact":null,"disposalemissions":null,"description":"One of five family-owned farms that Tim's buys their potatoes from.","name":"Potatoes","id":"5075","stops":{"origin":{"related_to":"5075","part_or_object":"p","notes":null,"placename":"Quincy, WA 98848, USA","id":8318,"name":"origin","lat":"47.2342997","lon":"-119.8525504","hops":{"incoming":[],"outgoing":[{"transport_id":null,"id":"5721","transport_name":null,"transport_description":null,"transport_unit":null,"transport_co2_eq":null,"from_stop_id":"8318","from_stop_lat":"47.2342997","from_stop_lon":"-119.8525504","from_stop_placename":"Quincy, WA 98848, USA","to_stop_id":"8316","to_stop_name":"origin","to_stop_lat":"47.2789896","to_stop_lon":"-122.2520647","to_stop_placename":"Algona, WA, USA","to_stop":{"id":"8316","name":"origin","lat":"47.2789896","lon":"-122.2520647","placename":"Algona, WA, USA"},"from_stop":{"name":"origin","id":"8318","lat":"47.2342997","lon":"-119.8525504","placename":"Quincy, WA 98848, USA"}}]}}},"processes":[],"eols":[]},{"oid":"61","imid":"5076","linkid":"0","weight":"0","rawemissions":"0","emissions":"0","shipping":"132.82","processemissions":"0","endoflifeemissions":"0","disposaltype":null,"disposalenergy":null,"disposalimpact":null,"disposalemissions":null,"description":"One of five family-owned farms that Tim's buys their potatoes from.","name":"Potatoes","id":"5076","stops":{"origin":{"related_to":"5076","part_or_object":"p","notes":null,"placename":"Ellensburg, WA, USA","id":8319,"name":"origin","lat":"46.9965144","lon":"-120.5478474","hops":{"incoming":[],"outgoing":[{"transport_id":null,"id":"5722","transport_name":null,"transport_description":null,"transport_unit":null,"transport_co2_eq":null,"from_stop_id":"8319","from_stop_lat":"46.9965144","from_stop_lon":"-120.5478474","from_stop_placename":"Ellensburg, WA, USA","to_stop_id":"8316","to_stop_name":"origin","to_stop_lat":"47.2789896","to_stop_lon":"-122.2520647","to_stop_placename":"Algona, WA, USA","to_stop":{"id":"8316","name":"origin","lat":"47.2789896","lon":"-122.2520647","placename":"Algona, WA, USA"},"from_stop":{"name":"origin","id":"8319","lat":"46.9965144","lon":"-120.5478474","placename":"Ellensburg, WA, USA"}}]}}},"processes":[],"eols":[]},{"oid":"61","imid":"5077","linkid":"0","weight":"0","rawemissions":"0","emissions":"0","shipping":"198.12","processemissions":"0","endoflifeemissions":"0","disposaltype":null,"disposalenergy":null,"disposalimpact":null,"disposalemissions":null,"description":"One of five family-owned farms that Tim's buys their potatoes from.","name":"Potatoes","id":"5077","stops":{"origin":{"related_to":"5077","part_or_object":"p","notes":null,"placename":"Portland, OR, USA","id":8320,"name":"origin","lat":"45.5234515","lon":"-122.6762071","hops":{"incoming":[],"outgoing":[{"transport_id":null,"id":"5723","transport_name":null,"transport_description":null,"transport_unit":null,"transport_co2_eq":null,"from_stop_id":"8320","from_stop_lat":"45.5234515","from_stop_lon":"-122.6762071","from_stop_placename":"Portland, OR, USA","to_stop_id":"8316","to_stop_name":"origin","to_stop_lat":"47.2789896","to_stop_lon":"-122.2520647","to_stop_placename":"Algona, WA, USA","to_stop":{"id":"8316","name":"origin","lat":"47.2789896","lon":"-122.2520647","placename":"Algona, WA, USA"},"from_stop":{"name":"origin","id":"8320","lat":"45.5234515","lon":"-122.6762071","placename":"Portland, OR, USA"}}]}}},"processes":[],"eols":[]},{"oid":"61","imid":"5078","linkid":"0","weight":"0","rawemissions":"0","emissions":"0","shipping":"1352.29","processemissions":"0","endoflifeemissions":"0","disposaltype":null,"disposalenergy":null,"disposalimpact":null,"disposalemissions":null,"description":"One of five family-owned farms that Tim's buys their potatoes from.","name":"Potatoes","id":"5078","stops":{"origin":{"related_to":"5078","part_or_object":"p","notes":null,"placename":"Bakersfield, CA, USA","id":8321,"name":"origin","lat":"35.3732921","lon":"-119.0187125","hops":{"incoming":[],"outgoing":[{"transport_id":null,"id":"5724","transport_name":null,"transport_description":null,"transport_unit":null,"transport_co2_eq":null,"from_stop_id":"8321","from_stop_lat":"35.3732921","from_stop_lon":"-119.0187125","from_stop_placename":"Bakersfield, CA, USA","to_stop_id":"8316","to_stop_name":"origin","to_stop_lat":"47.2789896","to_stop_lon":"-122.2520647","to_stop_placename":"Algona, WA, USA","to_stop":{"id":"8316","name":"origin","lat":"47.2789896","lon":"-122.2520647","placename":"Algona, WA, USA"},"from_stop":{"name":"origin","id":"8321","lat":"35.3732921","lon":"-119.0187125","placename":"Bakersfield, CA, USA"}}]}}},"processes":[],"eols":[]}],"user":{"name":"NateFord","id":"11126"}}}