{"617":{"oid":"617","type":"trace","flag":"","creator":"12438","name":"Pendant Lamp","upc":"","imagelink":"","description":"","slug":"Pendant-Lamp","category":"","weight":"0","emissions":"0","embodied":"0","transport":"0","process":null,"endoflife":null,"shipping":"22387.12","lifetime":null,"usagetype":"","usageenergy":null,"usageemissions":null,"timecreated":"2011-03-09 03:31:01","timemodified":"2011-03-09 03:38:32","visibility":"public","showfootprint":"on","showembodied":"on","showtransport":"on","showprocess":"on","showendoflife":"on","showlastleg":"on","showuse":"on","showstats":"on","stops":{"origin":{"related_to":"617","part_or_object":"o","notes":null,"placename":"China","id":"13237","category":"1","lat":"35.86166","lon":"104.195397","name":"origin","hops":{"incoming":[{"transport_id":null,"id":"9628","transport_name":null,"transport_description":null,"transport_unit":null,"transport_co2_eq":null,"from_stop_id":"13238","from_stop_lat":"23.885942","from_stop_lon":"45.079162","to_stop_id":"13237","to_stop_name":"origin","to_stop_lat":"35.86166","placename":"Saudi Arabia","to_stop_lon":"104.195397","to_stop":{"id":"13237","name":"origin","lat":"35.86166","placename":"China","lon":"104.195397"},"from_stop":{"name":"origin","id":"13238","lat":"23.885942","lon":"45.079162","placename":"Saudi Arabia"}},{"transport_id":null,"id":"9629","transport_name":null,"transport_description":null,"transport_unit":null,"transport_co2_eq":null,"from_stop_id":"13239","from_stop_lat":"1.352083","from_stop_lon":"103.819836","to_stop_id":"13237","to_stop_name":"origin","to_stop_lat":"35.86166","placename":"Singapore","to_stop_lon":"104.195397","to_stop":{"id":"13237","name":"origin","lat":"35.86166","placename":"China","lon":"104.195397"},"from_stop":{"name":"origin","id":"13239","lat":"1.352083","lon":"103.819836","placename":"Singapore"}},{"transport_id":null,"id":"9630","transport_name":null,"transport_description":null,"transport_unit":null,"transport_co2_eq":null,"from_stop_id":"13240","from_stop_lat":"21.512583","from_stop_lon":"55.923255","to_stop_id":"13237","to_stop_name":"origin","to_stop_lat":"35.86166","placename":"Oman","to_stop_lon":"104.195397","to_stop":{"id":"13237","name":"origin","lat":"35.86166","placename":"China","lon":"104.195397"},"from_stop":{"name":"origin","id":"13240","lat":"21.512583","lon":"55.923255","placename":"Oman"}},{"transport_id":null,"id":"9631","transport_name":null,"transport_description":null,"transport_unit":null,"transport_co2_eq":null,"from_stop_id":"13241","from_stop_lat":"60.128161","from_stop_lon":"18.643501","to_stop_id":"13237","to_stop_name":"origin","to_stop_lat":"35.86166","placename":"Sweden","to_stop_lon":"104.195397","to_stop":{"id":"13237","name":"origin","lat":"35.86166","placename":"China","lon":"104.195397"},"from_stop":{"name":"origin","id":"13241","lat":"60.128161","lon":"18.643501","placename":"Sweden"}},{"transport_id":null,"id":"9632","transport_name":null,"transport_description":null,"transport_unit":null,"transport_co2_eq":null,"from_stop_id":"13242","from_stop_lat":"32.199147","from_stop_lon":"119.45722","to_stop_id":"13237","to_stop_name":"origin","to_stop_lat":"35.86166","placename":"Zhenjiang, Jiangsu, China","to_stop_lon":"104.195397","to_stop":{"id":"13237","name":"origin","lat":"35.86166","placename":"China","lon":"104.195397"},"from_stop":{"name":"origin","id":"13242","lat":"32.199147","lon":"119.45722","placename":"Zhenjiang, Jiangsu, China"}},{"transport_id":null,"id":"9633","transport_name":null,"transport_description":null,"transport_unit":null,"transport_co2_eq":null,"from_stop_id":"13243","from_stop_lat":"35.86166","from_stop_lon":"104.195397","to_stop_id":"13237","to_stop_name":"origin","to_stop_lat":"35.86166","placename":"China","to_stop_lon":"104.195397","to_stop":{"id":"13237","name":"origin","lat":"35.86166","placename":"China","lon":"104.195397"},"from_stop":{"name":"origin","id":"13243","lat":"35.86166","lon":"104.195397","placename":"China"}}],"outgoing":[]}}},"parts":[{"oid":"617","imid":"6609","linkid":"0","weight":"0","rawemissions":"0","emissions":"0","shipping":"5773.08","processemissions":"0","endoflifeemissions":"0","disposaltype":null,"disposalenergy":null,"disposalimpact":null,"disposalemissions":null,"description":"","name":"Polycarbonate","id":"6609","stops":{"origin":{"related_to":"6609","part_or_object":"p","notes":null,"placename":"Saudi Arabia","id":13238,"name":"origin","lat":"23.885942","lon":"45.079162","hops":{"incoming":[],"outgoing":[{"transport_id":null,"id":"9628","transport_name":null,"transport_description":null,"transport_unit":null,"transport_co2_eq":null,"from_stop_id":"13238","from_stop_lat":"23.885942","from_stop_lon":"45.079162","from_stop_placename":"Saudi Arabia","to_stop_id":"13237","to_stop_name":"origin","to_stop_lat":"35.86166","to_stop_lon":"104.195397","to_stop_placename":"China","to_stop":{"id":"13237","name":"origin","lat":"35.86166","lon":"104.195397","placename":"China"},"from_stop":{"name":"origin","id":"13238","lat":"23.885942","lon":"45.079162","placename":"Saudi Arabia"}}]}}},"processes":[],"eols":[]},{"oid":"617","imid":"6610","linkid":"0","weight":"0","rawemissions":"0","emissions":"0","shipping":"3841.78","processemissions":"0","endoflifeemissions":"0","disposaltype":null,"disposalenergy":null,"disposalimpact":null,"disposalemissions":null,"description":"","name":"Polycarbonate Shade","id":"6610","stops":{"origin":{"related_to":"6610","part_or_object":"p","notes":null,"placename":"Singapore","id":13239,"name":"origin","lat":"1.352083","lon":"103.819836","hops":{"incoming":[],"outgoing":[{"transport_id":null,"id":"9629","transport_name":null,"transport_description":null,"transport_unit":null,"transport_co2_eq":null,"from_stop_id":"13239","from_stop_lat":"1.352083","from_stop_lon":"103.819836","from_stop_placename":"Singapore","to_stop_id":"13237","to_stop_name":"origin","to_stop_lat":"35.86166","to_stop_lon":"104.195397","to_stop_placename":"China","to_stop":{"id":"13237","name":"origin","lat":"35.86166","lon":"104.195397","placename":"China"},"from_stop":{"name":"origin","id":"13239","lat":"1.352083","lon":"103.819836","placename":"Singapore"}}]}}},"processes":[],"eols":[]},{"oid":"617","imid":"6611","linkid":"0","weight":"0","rawemissions":"0","emissions":"0","shipping":"4922.53","processemissions":"0","endoflifeemissions":"0","disposaltype":null,"disposalenergy":null,"disposalimpact":null,"disposalemissions":null,"description":"","name":"polypropelene Shade Construct","id":"6611","stops":{"origin":{"related_to":"6611","part_or_object":"p","notes":null,"placename":"Oman","id":13240,"name":"origin","lat":"21.512583","lon":"55.923255","hops":{"incoming":[],"outgoing":[{"transport_id":null,"id":"9630","transport_name":null,"transport_description":null,"transport_unit":null,"transport_co2_eq":null,"from_stop_id":"13240","from_stop_lat":"21.512583","from_stop_lon":"55.923255","from_stop_placename":"Oman","to_stop_id":"13237","to_stop_name":"origin","to_stop_lat":"35.86166","to_stop_lon":"104.195397","to_stop_placename":"China","to_stop":{"id":"13237","name":"origin","lat":"35.86166","lon":"104.195397","placename":"China"},"from_stop":{"name":"origin","id":"13240","lat":"21.512583","lon":"55.923255","placename":"Oman"}}]}}},"processes":[],"eols":[]},{"oid":"617","imid":"6612","linkid":"0","weight":"0","rawemissions":"0","emissions":"0","shipping":"6385.71","processemissions":"0","endoflifeemissions":"0","disposaltype":null,"disposalenergy":null,"disposalimpact":null,"disposalemissions":null,"description":"Main Basis of lamp Ideals\n","name":"Corporate office","id":"6612","stops":{"origin":{"related_to":"6612","part_or_object":"p","notes":null,"placename":"Sweden","id":13241,"name":"origin","lat":"60.128161","lon":"18.643501","hops":{"incoming":[],"outgoing":[{"transport_id":null,"id":"9631","transport_name":null,"transport_description":null,"transport_unit":null,"transport_co2_eq":null,"from_stop_id":"13241","from_stop_lat":"60.128161","from_stop_lon":"18.643501","from_stop_placename":"Sweden","to_stop_id":"13237","to_stop_name":"origin","to_stop_lat":"35.86166","to_stop_lon":"104.195397","to_stop_placename":"China","to_stop":{"id":"13237","name":"origin","lat":"35.86166","lon":"104.195397","placename":"China"},"from_stop":{"name":"origin","id":"13241","lat":"60.128161","lon":"18.643501","placename":"Sweden"}}]}}},"processes":[],"eols":[]},{"oid":"617","imid":"6613","linkid":"0","weight":"0","rawemissions":"0","emissions":"0","shipping":"1464.02","processemissions":"0","endoflifeemissions":"0","disposaltype":null,"disposalenergy":null,"disposalimpact":null,"disposalemissions":null,"description":"","name":"Incandecent Light bulb","id":"6613","stops":{"origin":{"related_to":"6613","part_or_object":"p","notes":null,"placename":"Zhenjiang, Jiangsu, China","id":13242,"name":"origin","lat":"32.199147","lon":"119.45722","hops":{"incoming":[],"outgoing":[{"transport_id":null,"id":"9632","transport_name":null,"transport_description":null,"transport_unit":null,"transport_co2_eq":null,"from_stop_id":"13242","from_stop_lat":"32.199147","from_stop_lon":"119.45722","from_stop_placename":"Zhenjiang, Jiangsu, China","to_stop_id":"13237","to_stop_name":"origin","to_stop_lat":"35.86166","to_stop_lon":"104.195397","to_stop_placename":"China","to_stop":{"id":"13237","name":"origin","lat":"35.86166","lon":"104.195397","placename":"China"},"from_stop":{"name":"origin","id":"13242","lat":"32.199147","lon":"119.45722","placename":"Zhenjiang, Jiangsu, China"}}]}}},"processes":[],"eols":[]},{"oid":"617","imid":"6614","linkid":"0","weight":"0","rawemissions":"0","emissions":"0","shipping":"0","processemissions":"0","endoflifeemissions":"0","disposaltype":null,"disposalenergy":null,"disposalimpact":null,"disposalemissions":null,"description":"","name":"Wire Steel","id":"6614","stops":{"origin":{"related_to":"6614","part_or_object":"p","notes":null,"placename":"China","id":13243,"name":"origin","lat":"35.86166","lon":"104.195397","hops":{"incoming":[],"outgoing":[{"transport_id":null,"id":"9633","transport_name":null,"transport_description":null,"transport_unit":null,"transport_co2_eq":null,"from_stop_id":"13243","from_stop_lat":"35.86166","from_stop_lon":"104.195397","from_stop_placename":"China","to_stop_id":"13237","to_stop_name":"origin","to_stop_lat":"35.86166","to_stop_lon":"104.195397","to_stop_placename":"China","to_stop":{"id":"13237","name":"origin","lat":"35.86166","lon":"104.195397","placename":"China"},"from_stop":{"name":"origin","id":"13243","lat":"35.86166","lon":"104.195397","placename":"China"}}]}}},"processes":[],"eols":[]}],"user":{"name":"pmcelveen01","id":"12438"}}}