{"63":{"oid":"63","type":"trace","flag":"","creator":"11251","name":"Black Cauldron Imperial Stout","upc":"","imagelink":"","description":"Boasts flavors of chocolate and coffee, along with raisins and dried fruit soaked in sherry. This beer is best with full-flavored grilled meats or chocolate.","slug":"Black-Cauldron-Imperial-Stout","category":"","weight":"0","emissions":"0","embodied":"0","transport":"0","process":null,"endoflife":null,"shipping":"11408.07","lifetime":null,"usagetype":"","usageenergy":null,"usageemissions":null,"timecreated":"2010-11-22 17:06:45","timemodified":"2010-11-29 15:45:34","visibility":"public","showfootprint":"on","showembodied":"on","showtransport":"on","showprocess":"on","showendoflife":"on","showlastleg":"on","showuse":"on","showstats":"on","stops":{"origin":{"related_to":"63","part_or_object":"o","notes":null,"placename":"Victor, ID 83455, USA","id":"7613","category":"1","lat":"43.6026976","lon":"-111.1113318","name":"origin","hops":{"incoming":[{"transport_id":null,"id":"5148","transport_name":null,"transport_description":null,"transport_unit":null,"transport_co2_eq":null,"from_stop_id":"7614","from_stop_lat":"44.0682019","from_stop_lon":"-114.7420408","to_stop_id":"7613","to_stop_name":"origin","to_stop_lat":"43.6026976","placename":"Idaho, USA","to_stop_lon":"-111.1113318","to_stop":{"id":"7613","name":"origin","lat":"43.6026976","placename":"Victor, ID 83455, USA","lon":"-111.1113318"},"from_stop":{"name":"origin","id":"7614","lat":"44.0682019","lon":"-114.7420408","placename":"Idaho, USA"}},{"transport_id":null,"id":"5149","transport_name":null,"transport_description":null,"transport_unit":null,"transport_co2_eq":null,"from_stop_id":"7615","from_stop_lat":"51.165691","from_stop_lon":"10.451526","to_stop_id":"7613","to_stop_name":"origin","to_stop_lat":"43.6026976","placename":"Germany","to_stop_lon":"-111.1113318","to_stop":{"id":"7613","name":"origin","lat":"43.6026976","placename":"Victor, ID 83455, USA","lon":"-111.1113318"},"from_stop":{"name":"origin","id":"7615","lat":"51.165691","lon":"10.451526","placename":"Germany"}},{"transport_id":null,"id":"5150","transport_name":null,"transport_description":null,"transport_unit":null,"transport_co2_eq":null,"from_stop_id":"7616","from_stop_lat":"46.5788657","from_stop_lon":"-120.5290358","to_stop_id":"7613","to_stop_name":"origin","to_stop_lat":"43.6026976","placename":"Yakima, Washington, USA","to_stop_lon":"-111.1113318","to_stop":{"id":"7613","name":"origin","lat":"43.6026976","placename":"Victor, ID 83455, USA","lon":"-111.1113318"},"from_stop":{"name":"origin","id":"7616","lat":"46.5788657","lon":"-120.5290358","placename":"Yakima, Washington, USA"}},{"transport_id":null,"id":"5151","transport_name":null,"transport_description":null,"transport_unit":null,"transport_co2_eq":null,"from_stop_id":"7617","from_stop_lat":"43.6026976","from_stop_lon":"-111.1113318","to_stop_id":"7613","to_stop_name":"origin","to_stop_lat":"43.6026976","placename":"Victor, ID 83455, USA","to_stop_lon":"-111.1113318","to_stop":{"id":"7613","name":"origin","lat":"43.6026976","placename":"Victor, ID 83455, USA","lon":"-111.1113318"},"from_stop":{"name":"origin","id":"7617","lat":"43.6026976","lon":"-111.1113318","placename":"Victor, ID 83455, USA"}},{"transport_id":null,"id":"5152","transport_name":null,"transport_description":null,"transport_unit":null,"transport_co2_eq":null,"from_stop_id":"7618","from_stop_lat":"40.0149856","from_stop_lon":"-105.2705456","to_stop_id":"7613","to_stop_name":"origin","to_stop_lat":"43.6026976","placename":"Boulder, CO, USA","to_stop_lon":"-111.1113318","to_stop":{"id":"7613","name":"origin","lat":"43.6026976","placename":"Victor, ID 83455, USA","lon":"-111.1113318"},"from_stop":{"name":"origin","id":"7618","lat":"40.0149856","lon":"-105.2705456","placename":"Boulder, CO, USA"}},{"transport_id":null,"id":"5153","transport_name":null,"transport_description":null,"transport_unit":null,"transport_co2_eq":null,"from_stop_id":"7619","from_stop_lat":"43.8013556","from_stop_lon":"-91.2395807","to_stop_id":"7613","to_stop_name":"origin","to_stop_lat":"43.6026976","placename":"La Crosse, WI, USA","to_stop_lon":"-111.1113318","to_stop":{"id":"7613","name":"origin","lat":"43.6026976","placename":"Victor, ID 83455, USA","lon":"-111.1113318"},"from_stop":{"name":"origin","id":"7619","lat":"43.8013556","lon":"-91.2395807","placename":"La Crosse, WI, USA"}}],"outgoing":[]}}},"parts":[{"oid":"63","imid":"4915","linkid":"0","weight":"0","rawemissions":"0","emissions":"0","shipping":"296.08","processemissions":"0","endoflifeemissions":"0","disposaltype":null,"disposalenergy":null,"disposalimpact":null,"disposalemissions":null,"description":"The barley in this particular beer comes from local growers within 100 miles of the brewery.\n","name":"Barley","id":"4915","stops":{"origin":{"related_to":"4915","part_or_object":"p","notes":null,"placename":"Idaho, USA","id":7614,"name":"origin","lat":"44.0682019","lon":"-114.7420408","hops":{"incoming":[],"outgoing":[{"transport_id":null,"id":"5148","transport_name":null,"transport_description":null,"transport_unit":null,"transport_co2_eq":null,"from_stop_id":"7614","from_stop_lat":"44.0682019","from_stop_lon":"-114.7420408","from_stop_placename":"Idaho, USA","to_stop_id":"7613","to_stop_name":"origin","to_stop_lat":"43.6026976","to_stop_lon":"-111.1113318","to_stop_placename":"Victor, ID 83455, USA","to_stop":{"id":"7613","name":"origin","lat":"43.6026976","lon":"-111.1113318","placename":"Victor, ID 83455, USA"},"from_stop":{"name":"origin","id":"7614","lat":"44.0682019","lon":"-114.7420408","placename":"Idaho, USA"}}]}}},"processes":[],"eols":[]},{"oid":"63","imid":"4916","linkid":"0","weight":"0","rawemissions":"0","emissions":"0","shipping":"8078.52","processemissions":"0","endoflifeemissions":"0","disposaltype":null,"disposalenergy":null,"disposalimpact":null,"disposalemissions":null,"description":"A small portion of the barley is imported from Germany, though most is from local growers.","name":"Barley","id":"4916","stops":{"origin":{"related_to":"4916","part_or_object":"p","notes":null,"placename":"Germany","id":7615,"name":"origin","lat":"51.165691","lon":"10.451526","hops":{"incoming":[],"outgoing":[{"transport_id":null,"id":"5149","transport_name":null,"transport_description":null,"transport_unit":null,"transport_co2_eq":null,"from_stop_id":"7615","from_stop_lat":"51.165691","from_stop_lon":"10.451526","from_stop_placename":"Germany","to_stop_id":"7613","to_stop_name":"origin","to_stop_lat":"43.6026976","to_stop_lon":"-111.1113318","to_stop_placename":"Victor, ID 83455, USA","to_stop":{"id":"7613","name":"origin","lat":"43.6026976","lon":"-111.1113318","placename":"Victor, ID 83455, USA"},"from_stop":{"name":"origin","id":"7615","lat":"51.165691","lon":"10.451526","placename":"Germany"}}]}}},"processes":[],"eols":[]},{"oid":"63","imid":"4917","linkid":"0","weight":"0","rawemissions":"0","emissions":"0","shipping":"810.22","processemissions":"0","endoflifeemissions":"0","disposaltype":null,"disposalenergy":null,"disposalimpact":null,"disposalemissions":null,"description":"All the hops for the Black Cauldron Imperial Stout come from the Western Untied States, particularly Washington.\n","name":"Hops","id":"4917","stops":{"origin":{"related_to":"4917","part_or_object":"p","notes":null,"placename":"Yakima, Washington, USA","id":7616,"name":"origin","lat":"46.5788657","lon":"-120.5290358","hops":{"incoming":[],"outgoing":[{"transport_id":null,"id":"5150","transport_name":null,"transport_description":null,"transport_unit":null,"transport_co2_eq":null,"from_stop_id":"7616","from_stop_lat":"46.5788657","from_stop_lon":"-120.5290358","from_stop_placename":"Yakima, Washington, USA","to_stop_id":"7613","to_stop_name":"origin","to_stop_lat":"43.6026976","to_stop_lon":"-111.1113318","to_stop_placename":"Victor, ID 83455, USA","to_stop":{"id":"7613","name":"origin","lat":"43.6026976","lon":"-111.1113318","placename":"Victor, ID 83455, USA"},"from_stop":{"name":"origin","id":"7616","lat":"46.5788657","lon":"-120.5290358","placename":"Yakima, Washington, USA"}}]}}},"processes":[],"eols":[]},{"oid":"63","imid":"4918","linkid":"0","weight":"0","rawemissions":"0","emissions":"0","shipping":"0","processemissions":"0","endoflifeemissions":"0","disposaltype":null,"disposalenergy":null,"disposalimpact":null,"disposalemissions":null,"description":"The local water is one of the main ingredients in all the brews from the Grand Teton Brewery.","name":"Water","id":"4918","stops":{"origin":{"related_to":"4918","part_or_object":"p","notes":null,"placename":"Victor, ID 83455, USA","id":7617,"name":"origin","lat":"43.6026976","lon":"-111.1113318","hops":{"incoming":[],"outgoing":[{"transport_id":null,"id":"5151","transport_name":null,"transport_description":null,"transport_unit":null,"transport_co2_eq":null,"from_stop_id":"7617","from_stop_lat":"43.6026976","from_stop_lon":"-111.1113318","from_stop_placename":"Victor, ID 83455, USA","to_stop_id":"7613","to_stop_name":"origin","to_stop_lat":"43.6026976","to_stop_lon":"-111.1113318","to_stop_placename":"Victor, ID 83455, USA","to_stop":{"id":"7613","name":"origin","lat":"43.6026976","lon":"-111.1113318","placename":"Victor, ID 83455, USA"},"from_stop":{"name":"origin","id":"7617","lat":"43.6026976","lon":"-111.1113318","placename":"Victor, ID 83455, USA"}}]}}},"processes":[],"eols":[]},{"oid":"63","imid":"4919","linkid":"0","weight":"0","rawemissions":"0","emissions":"0","shipping":"627.72","processemissions":"0","endoflifeemissions":"0","disposaltype":null,"disposalenergy":null,"disposalimpact":null,"disposalemissions":null,"description":"The glass for the bottles is trucked in from Colorado to the Brewery in Idaho.","name":"Glass","id":"4919","stops":{"origin":{"related_to":"4919","part_or_object":"p","notes":null,"placename":"Boulder, CO, USA","id":7618,"name":"origin","lat":"40.0149856","lon":"-105.2705456","hops":{"incoming":[],"outgoing":[{"transport_id":null,"id":"5152","transport_name":null,"transport_description":null,"transport_unit":null,"transport_co2_eq":null,"from_stop_id":"7618","from_stop_lat":"40.0149856","from_stop_lon":"-105.2705456","from_stop_placename":"Boulder, CO, USA","to_stop_id":"7613","to_stop_name":"origin","to_stop_lat":"43.6026976","to_stop_lon":"-111.1113318","to_stop_placename":"Victor, ID 83455, USA","to_stop":{"id":"7613","name":"origin","lat":"43.6026976","lon":"-111.1113318","placename":"Victor, ID 83455, USA"},"from_stop":{"name":"origin","id":"7618","lat":"40.0149856","lon":"-105.2705456","placename":"Boulder, CO, USA"}}]}}},"processes":[],"eols":[]},{"oid":"63","imid":"4920","linkid":"0","weight":"0","rawemissions":"0","emissions":"0","shipping":"1595.53","processemissions":"0","endoflifeemissions":"0","disposaltype":null,"disposalenergy":null,"disposalimpact":null,"disposalemissions":null,"description":"The labels for all the beers at the Grand Teton Brewery are put on trucks and transported to the Brewery in Idaho from Wisconsin.","name":"Labels","id":"4920","stops":{"origin":{"related_to":"4920","part_or_object":"p","notes":null,"placename":"La Crosse, WI, USA","id":7619,"name":"origin","lat":"43.8013556","lon":"-91.2395807","hops":{"incoming":[],"outgoing":[{"transport_id":null,"id":"5153","transport_name":null,"transport_description":null,"transport_unit":null,"transport_co2_eq":null,"from_stop_id":"7619","from_stop_lat":"43.8013556","from_stop_lon":"-91.2395807","from_stop_placename":"La Crosse, WI, USA","to_stop_id":"7613","to_stop_name":"origin","to_stop_lat":"43.6026976","to_stop_lon":"-111.1113318","to_stop_placename":"Victor, ID 83455, USA","to_stop":{"id":"7613","name":"origin","lat":"43.6026976","lon":"-111.1113318","placename":"Victor, ID 83455, USA"},"from_stop":{"name":"origin","id":"7619","lat":"43.8013556","lon":"-91.2395807","placename":"La Crosse, WI, USA"}}]}}},"processes":[],"eols":[]}],"user":{"name":"KellyB","id":"11251"}}}