{"632":{"oid":"632","type":"trace","flag":"","creator":"12592","name":"Fresha Milk","upc":"","imagelink":"","description":"Refreshing and healthy pasteurized homogenized milk coming straight from Kiambu","slug":"Fresha-Milk","category":"","weight":"0","emissions":"0","embodied":"0","transport":"0","process":null,"endoflife":null,"shipping":"387.29","lifetime":null,"usagetype":"","usageenergy":null,"usageemissions":null,"timecreated":"2011-03-11 00:57:56","timemodified":"2011-03-11 01:13:26","visibility":"public","showfootprint":"on","showembodied":"on","showtransport":"on","showprocess":"on","showendoflife":"on","showlastleg":"on","showuse":"on","showstats":"on","stops":{"origin":{"related_to":"632","part_or_object":"o","notes":null,"placename":"Kiambu, Kenya","id":"13276","category":"1","lat":"-1.1748105","lon":"36.8304102","name":"origin","hops":{"incoming":[{"transport_id":null,"id":"9643","transport_name":null,"transport_description":null,"transport_unit":null,"transport_co2_eq":null,"from_stop_id":"13277","from_stop_lat":"-0.6517541","from_stop_lon":"37.0225882","to_stop_id":"13276","to_stop_name":"origin","to_stop_lat":"-1.1748105","placename":"Githunguri, Kenya","to_stop_lon":"36.8304102","to_stop":{"id":"13276","name":"origin","lat":"-1.1748105","placename":"Kiambu, Kenya","lon":"36.8304102"},"from_stop":{"name":"origin","id":"13277","lat":"-0.6517541","lon":"37.0225882","placename":"Githunguri, Kenya"}},{"transport_id":null,"id":"9644","transport_name":null,"transport_description":null,"transport_unit":null,"transport_co2_eq":null,"from_stop_id":"13278","from_stop_lat":"-1.1692017","from_stop_lon":"36.6903289","to_stop_id":"13276","to_stop_name":"origin","to_stop_lat":"-1.1748105","placename":"Limuru, Kenya","to_stop_lon":"36.8304102","to_stop":{"id":"13276","name":"origin","lat":"-1.1748105","placename":"Kiambu, Kenya","lon":"36.8304102"},"from_stop":{"name":"origin","id":"13278","lat":"-1.1692017","lon":"36.6903289","placename":"Limuru, Kenya"}},{"transport_id":null,"id":"9645","transport_name":null,"transport_description":null,"transport_unit":null,"transport_co2_eq":null,"from_stop_id":"13279","from_stop_lat":"-1.049379","from_stop_lon":"37.092949","to_stop_id":"13276","to_stop_name":"origin","to_stop_lat":"-1.1748105","placename":"Thika, Kenya","to_stop_lon":"36.8304102","to_stop":{"id":"13276","name":"origin","lat":"-1.1748105","placename":"Kiambu, Kenya","lon":"36.8304102"},"from_stop":{"name":"origin","id":"13279","lat":"-1.049379","lon":"37.092949","placename":"Thika, Kenya"}},{"transport_id":null,"id":"9646","transport_name":null,"transport_description":null,"transport_unit":null,"transport_co2_eq":null,"from_stop_id":"13280","from_stop_lat":"-0.2833333","from_stop_lon":"36.0666667","to_stop_id":"13276","to_stop_name":"origin","to_stop_lat":"-1.1748105","placename":"Nakuru, Kenya","to_stop_lon":"36.8304102","to_stop":{"id":"13276","name":"origin","lat":"-1.1748105","placename":"Kiambu, Kenya","lon":"36.8304102"},"from_stop":{"name":"origin","id":"13280","lat":"-0.2833333","lon":"36.0666667","placename":"Nakuru, Kenya"}},{"transport_id":null,"id":"9647","transport_name":null,"transport_description":null,"transport_unit":null,"transport_co2_eq":null,"from_stop_id":"13281","from_stop_lat":"-0.416876","from_stop_lon":"36.950981","to_stop_id":"13276","to_stop_name":"origin","to_stop_lat":"-1.1748105","placename":"Nyeri, Kenya","to_stop_lon":"36.8304102","to_stop":{"id":"13276","name":"origin","lat":"-1.1748105","placename":"Kiambu, Kenya","lon":"36.8304102"},"from_stop":{"name":"origin","id":"13281","lat":"-0.416876","lon":"36.950981","placename":"Nyeri, Kenya"}},{"transport_id":null,"id":"9648","transport_name":null,"transport_description":null,"transport_unit":null,"transport_co2_eq":null,"from_stop_id":"13282","from_stop_lat":"-1.514274","from_stop_lon":"37.262798","to_stop_id":"13276","to_stop_name":"origin","to_stop_lat":"-1.1748105","placename":"Machakos, Kenya","to_stop_lon":"36.8304102","to_stop":{"id":"13276","name":"origin","lat":"-1.1748105","placename":"Kiambu, Kenya","lon":"36.8304102"},"from_stop":{"name":"origin","id":"13282","lat":"-1.514274","lon":"37.262798","placename":"Machakos, Kenya"}}],"outgoing":[]}}},"parts":[{"oid":"632","imid":"6621","linkid":"0","weight":"0","rawemissions":"0","emissions":"0","shipping":"62.03","processemissions":"0","endoflifeemissions":"0","disposaltype":null,"disposalenergy":null,"disposalimpact":null,"disposalemissions":null,"description":"3.3g","name":"Proteins","id":"6621","stops":{"origin":{"related_to":"6621","part_or_object":"p","notes":null,"placename":"Githunguri, Kenya","id":13277,"name":"origin","lat":"-0.6517541","lon":"37.0225882","hops":{"incoming":[],"outgoing":[{"transport_id":null,"id":"9643","transport_name":null,"transport_description":null,"transport_unit":null,"transport_co2_eq":null,"from_stop_id":"13277","from_stop_lat":"-0.6517541","from_stop_lon":"37.0225882","from_stop_placename":"Githunguri, Kenya","to_stop_id":"13276","to_stop_name":"origin","to_stop_lat":"-1.1748105","to_stop_lon":"36.8304102","to_stop_placename":"Kiambu, Kenya","to_stop":{"id":"13276","name":"origin","lat":"-1.1748105","lon":"36.8304102","placename":"Kiambu, Kenya"},"from_stop":{"name":"origin","id":"13277","lat":"-0.6517541","lon":"37.0225882","placename":"Githunguri, Kenya"}}]}}},"processes":[],"eols":[]},{"oid":"632","imid":"6622","linkid":"0","weight":"0","rawemissions":"0","emissions":"0","shipping":"15.6","processemissions":"0","endoflifeemissions":"0","disposaltype":null,"disposalenergy":null,"disposalimpact":null,"disposalemissions":null,"description":"3.3g","name":"Fat","id":"6622","stops":{"origin":{"related_to":"6622","part_or_object":"p","notes":null,"placename":"Limuru, Kenya","id":13278,"name":"origin","lat":"-1.1692017","lon":"36.6903289","hops":{"incoming":[],"outgoing":[{"transport_id":null,"id":"9644","transport_name":null,"transport_description":null,"transport_unit":null,"transport_co2_eq":null,"from_stop_id":"13278","from_stop_lat":"-1.1692017","from_stop_lon":"36.6903289","from_stop_placename":"Limuru, Kenya","to_stop_id":"13276","to_stop_name":"origin","to_stop_lat":"-1.1748105","to_stop_lon":"36.8304102","to_stop_placename":"Kiambu, Kenya","to_stop":{"id":"13276","name":"origin","lat":"-1.1748105","lon":"36.8304102","placename":"Kiambu, Kenya"},"from_stop":{"name":"origin","id":"13278","lat":"-1.1692017","lon":"36.6903289","placename":"Limuru, Kenya"}}]}}},"processes":[],"eols":[]},{"oid":"632","imid":"6623","linkid":"0","weight":"0","rawemissions":"0","emissions":"0","shipping":"32.38","processemissions":"0","endoflifeemissions":"0","disposaltype":null,"disposalenergy":null,"disposalimpact":null,"disposalemissions":null,"description":"4.5g","name":"Carbohydrates","id":"6623","stops":{"origin":{"related_to":"6623","part_or_object":"p","notes":null,"placename":"Thika, Kenya","id":13279,"name":"origin","lat":"-1.049379","lon":"37.092949","hops":{"incoming":[],"outgoing":[{"transport_id":null,"id":"9645","transport_name":null,"transport_description":null,"transport_unit":null,"transport_co2_eq":null,"from_stop_id":"13279","from_stop_lat":"-1.049379","from_stop_lon":"37.092949","from_stop_placename":"Thika, Kenya","to_stop_id":"13276","to_stop_name":"origin","to_stop_lat":"-1.1748105","to_stop_lon":"36.8304102","to_stop_placename":"Kiambu, Kenya","to_stop":{"id":"13276","name":"origin","lat":"-1.1748105","lon":"36.8304102","placename":"Kiambu, Kenya"},"from_stop":{"name":"origin","id":"13279","lat":"-1.049379","lon":"37.092949","placename":"Thika, Kenya"}}]}}},"processes":[],"eols":[]},{"oid":"632","imid":"6624","linkid":"0","weight":"0","rawemissions":"0","emissions":"0","shipping":"130.67","processemissions":"0","endoflifeemissions":"0","disposaltype":null,"disposalenergy":null,"disposalimpact":null,"disposalemissions":null,"description":"","name":"Vitamin A","id":"6624","stops":{"origin":{"related_to":"6624","part_or_object":"p","notes":null,"placename":"Nakuru, Kenya","id":13280,"name":"origin","lat":"-0.2833333","lon":"36.0666667","hops":{"incoming":[],"outgoing":[{"transport_id":null,"id":"9646","transport_name":null,"transport_description":null,"transport_unit":null,"transport_co2_eq":null,"from_stop_id":"13280","from_stop_lat":"-0.2833333","from_stop_lon":"36.0666667","from_stop_placename":"Nakuru, Kenya","to_stop_id":"13276","to_stop_name":"origin","to_stop_lat":"-1.1748105","to_stop_lon":"36.8304102","to_stop_placename":"Kiambu, Kenya","to_stop":{"id":"13276","name":"origin","lat":"-1.1748105","lon":"36.8304102","placename":"Kiambu, Kenya"},"from_stop":{"name":"origin","id":"13280","lat":"-0.2833333","lon":"36.0666667","placename":"Nakuru, Kenya"}}]}}},"processes":[],"eols":[]},{"oid":"632","imid":"6625","linkid":"0","weight":"0","rawemissions":"0","emissions":"0","shipping":"85.43","processemissions":"0","endoflifeemissions":"0","disposaltype":null,"disposalenergy":null,"disposalimpact":null,"disposalemissions":null,"description":"0.04gm","name":"Vitamin B1","id":"6625","stops":{"origin":{"related_to":"6625","part_or_object":"p","notes":null,"placename":"Nyeri, Kenya","id":13281,"name":"origin","lat":"-0.416876","lon":"36.950981","hops":{"incoming":[],"outgoing":[{"transport_id":null,"id":"9647","transport_name":null,"transport_description":null,"transport_unit":null,"transport_co2_eq":null,"from_stop_id":"13281","from_stop_lat":"-0.416876","from_stop_lon":"36.950981","from_stop_placename":"Nyeri, Kenya","to_stop_id":"13276","to_stop_name":"origin","to_stop_lat":"-1.1748105","to_stop_lon":"36.8304102","to_stop_placename":"Kiambu, Kenya","to_stop":{"id":"13276","name":"origin","lat":"-1.1748105","lon":"36.8304102","placename":"Kiambu, Kenya"},"from_stop":{"name":"origin","id":"13281","lat":"-0.416876","lon":"36.950981","placename":"Nyeri, Kenya"}}]}}},"processes":[],"eols":[]},{"oid":"632","imid":"6626","linkid":"0","weight":"0","rawemissions":"0","emissions":"0","shipping":"61.18","processemissions":"0","endoflifeemissions":"0","disposaltype":null,"disposalenergy":null,"disposalimpact":null,"disposalemissions":null,"description":"","name":"Packaging","id":"6626","stops":{"origin":{"related_to":"6626","part_or_object":"p","notes":null,"placename":"Machakos, Kenya","id":13282,"name":"origin","lat":"-1.514274","lon":"37.262798","hops":{"incoming":[],"outgoing":[{"transport_id":null,"id":"9648","transport_name":null,"transport_description":null,"transport_unit":null,"transport_co2_eq":null,"from_stop_id":"13282","from_stop_lat":"-1.514274","from_stop_lon":"37.262798","from_stop_placename":"Machakos, Kenya","to_stop_id":"13276","to_stop_name":"origin","to_stop_lat":"-1.1748105","to_stop_lon":"36.8304102","to_stop_placename":"Kiambu, Kenya","to_stop":{"id":"13276","name":"origin","lat":"-1.1748105","lon":"36.8304102","placename":"Kiambu, Kenya"},"from_stop":{"name":"origin","id":"13282","lat":"-1.514274","lon":"37.262798","placename":"Machakos, Kenya"}}]}}},"processes":[],"eols":[]}],"user":{"name":"errikkii","id":"12592"}}}