{"64":{"oid":"64","type":"trace","flag":"","creator":"11251","name":"Fat Tire","upc":"","imagelink":"","description":"This beer has a balance of toasty, biscuit-like malt flavors coasting in equilibrium with hoppy freshness.\n","slug":"Fat-Tire","category":"","weight":"0","emissions":"0","embodied":"0","transport":"0","process":null,"endoflife":null,"shipping":"4235.06","lifetime":null,"usagetype":"","usageenergy":null,"usageemissions":null,"timecreated":"2010-11-22 17:27:01","timemodified":"2010-11-29 15:53:01","visibility":"public","showfootprint":"on","showembodied":"on","showtransport":"on","showprocess":"on","showendoflife":"on","showlastleg":"on","showuse":"on","showstats":"on","stops":{"origin":{"related_to":"64","part_or_object":"o","notes":null,"placename":"Fort Collins, CO, USA","id":"7628","category":"1","lat":"40.5852602","lon":"-105.084423","name":"origin","hops":{"incoming":[{"transport_id":null,"id":"5161","transport_name":null,"transport_description":null,"transport_unit":null,"transport_co2_eq":null,"from_stop_id":"7629","from_stop_lat":"39.5500507","from_stop_lon":"-105.7820674","to_stop_id":"7628","to_stop_name":"origin","to_stop_lat":"40.5852602","placename":"Colorado, USA","to_stop_lon":"-105.084423","to_stop":{"id":"7628","name":"origin","lat":"40.5852602","placename":"Fort Collins, CO, USA","lon":"-105.084423"},"from_stop":{"name":"origin","id":"7629","lat":"39.5500507","lon":"-105.7820674","placename":"Colorado, USA"}},{"transport_id":null,"id":"5162","transport_name":null,"transport_description":null,"transport_unit":null,"transport_co2_eq":null,"from_stop_id":"7630","from_stop_lat":"40.5852602","from_stop_lon":"-105.084423","to_stop_id":"7628","to_stop_name":"origin","to_stop_lat":"40.5852602","placename":"Fort Collins, CO, USA","to_stop_lon":"-105.084423","to_stop":{"id":"7628","name":"origin","lat":"40.5852602","placename":"Fort Collins, CO, USA","lon":"-105.084423"},"from_stop":{"name":"origin","id":"7630","lat":"40.5852602","lon":"-105.084423","placename":"Fort Collins, CO, USA"}},{"transport_id":null,"id":"5163","transport_name":null,"transport_description":null,"transport_unit":null,"transport_co2_eq":null,"from_stop_id":"7631","from_stop_lat":"56.130366","from_stop_lon":"-106.346771","to_stop_id":"7628","to_stop_name":"origin","to_stop_lat":"40.5852602","placename":"Canada","to_stop_lon":"-105.084423","to_stop":{"id":"7628","name":"origin","lat":"40.5852602","placename":"Fort Collins, CO, USA","lon":"-105.084423"},"from_stop":{"name":"origin","id":"7631","lat":"56.130366","lon":"-106.346771","placename":"Canada"}},{"transport_id":null,"id":"5164","transport_name":null,"transport_description":null,"transport_unit":null,"transport_co2_eq":null,"from_stop_id":"7632","from_stop_lat":"37.09024","from_stop_lon":"-95.712891","to_stop_id":"7628","to_stop_name":"origin","to_stop_lat":"40.5852602","placename":"United States","to_stop_lon":"-105.084423","to_stop":{"id":"7628","name":"origin","lat":"40.5852602","placename":"Fort Collins, CO, USA","lon":"-105.084423"},"from_stop":{"name":"origin","id":"7632","lat":"37.09024","lon":"-95.712891","placename":"United States"}},{"transport_id":null,"id":"5165","transport_name":null,"transport_description":null,"transport_unit":null,"transport_co2_eq":null,"from_stop_id":"7633","from_stop_lat":"43.8041334","from_stop_lon":"-120.5542012","to_stop_id":"7628","to_stop_name":"origin","to_stop_lat":"40.5852602","placename":"Oregon, USA","to_stop_lon":"-105.084423","to_stop":{"id":"7628","name":"origin","lat":"40.5852602","placename":"Fort Collins, CO, USA","lon":"-105.084423"},"from_stop":{"name":"origin","id":"7633","lat":"43.8041334","lon":"-120.5542012","placename":"Oregon, USA"}},{"transport_id":null,"id":"5166","transport_name":null,"transport_description":null,"transport_unit":null,"transport_co2_eq":null,"from_stop_id":"7634","from_stop_lat":"40.4774818","from_stop_lon":"-104.9013617","to_stop_id":"7628","to_stop_name":"origin","to_stop_lat":"40.5852602","placename":"Windsor, CO, USA","to_stop_lon":"-105.084423","to_stop":{"id":"7628","name":"origin","lat":"40.5852602","placename":"Fort Collins, CO, USA","lon":"-105.084423"},"from_stop":{"name":"origin","id":"7634","lat":"40.4774818","lon":"-104.9013617","placename":"Windsor, CO, USA"}},{"transport_id":null,"id":"5167","transport_name":null,"transport_description":null,"transport_unit":null,"transport_co2_eq":null,"from_stop_id":"7635","from_stop_lat":"39.5500507","from_stop_lon":"-105.7820674","to_stop_id":"7628","to_stop_name":"origin","to_stop_lat":"40.5852602","placename":"Colorado, USA","to_stop_lon":"-105.084423","to_stop":{"id":"7628","name":"origin","lat":"40.5852602","placename":"Fort Collins, CO, USA","lon":"-105.084423"},"from_stop":{"name":"origin","id":"7635","lat":"39.5500507","lon":"-105.7820674","placename":"Colorado, USA"}}],"outgoing":[]}}},"parts":[{"oid":"64","imid":"4928","linkid":"0","weight":"0","rawemissions":"0","emissions":"0","shipping":"129.66","processemissions":"0","endoflifeemissions":"0","disposaltype":null,"disposalenergy":null,"disposalimpact":null,"disposalemissions":null,"description":"The barley for the beer made at the New Belgium Brewery comes from local growers in Colorado.","name":"Barley","id":"4928","stops":{"origin":{"related_to":"4928","part_or_object":"p","notes":null,"placename":"Colorado, USA","id":7629,"name":"origin","lat":"39.5500507","lon":"-105.7820674","hops":{"incoming":[],"outgoing":[{"transport_id":null,"id":"5161","transport_name":null,"transport_description":null,"transport_unit":null,"transport_co2_eq":null,"from_stop_id":"7629","from_stop_lat":"39.5500507","from_stop_lon":"-105.7820674","from_stop_placename":"Colorado, USA","to_stop_id":"7628","to_stop_name":"origin","to_stop_lat":"40.5852602","to_stop_lon":"-105.084423","to_stop_placename":"Fort Collins, CO, USA","to_stop":{"id":"7628","name":"origin","lat":"40.5852602","lon":"-105.084423","placename":"Fort Collins, CO, USA"},"from_stop":{"name":"origin","id":"7629","lat":"39.5500507","lon":"-105.7820674","placename":"Colorado, USA"}}]}}},"processes":[],"eols":[]},{"oid":"64","imid":"4929","linkid":"0","weight":"0","rawemissions":"0","emissions":"0","shipping":"0","processemissions":"0","endoflifeemissions":"0","disposaltype":null,"disposalenergy":null,"disposalimpact":null,"disposalemissions":null,"description":"The New Belgium Brewery has its own water treatment facility which provides water for all the brews, including Fat Tire.","name":"Water","id":"4929","stops":{"origin":{"related_to":"4929","part_or_object":"p","notes":null,"placename":"Fort Collins, CO, USA","id":7630,"name":"origin","lat":"40.5852602","lon":"-105.084423","hops":{"incoming":[],"outgoing":[{"transport_id":null,"id":"5162","transport_name":null,"transport_description":null,"transport_unit":null,"transport_co2_eq":null,"from_stop_id":"7630","from_stop_lat":"40.5852602","from_stop_lon":"-105.084423","from_stop_placename":"Fort Collins, CO, USA","to_stop_id":"7628","to_stop_name":"origin","to_stop_lat":"40.5852602","to_stop_lon":"-105.084423","to_stop_placename":"Fort Collins, CO, USA","to_stop":{"id":"7628","name":"origin","lat":"40.5852602","lon":"-105.084423","placename":"Fort Collins, CO, USA"},"from_stop":{"name":"origin","id":"7630","lat":"40.5852602","lon":"-105.084423","placename":"Fort Collins, CO, USA"}}]}}},"processes":[],"eols":[]},{"oid":"64","imid":"4930","linkid":"0","weight":"0","rawemissions":"0","emissions":"0","shipping":"1732.92","processemissions":"0","endoflifeemissions":"0","disposaltype":null,"disposalenergy":null,"disposalimpact":null,"disposalemissions":null,"description":"Some malted barley is imported from Canada, which is shipped to Fort Collins, Colorado.","name":"Malted Barley","id":"4930","stops":{"origin":{"related_to":"4930","part_or_object":"p","notes":null,"placename":"Canada","id":7631,"name":"origin","lat":"56.130366","lon":"-106.346771","hops":{"incoming":[],"outgoing":[{"transport_id":null,"id":"5163","transport_name":null,"transport_description":null,"transport_unit":null,"transport_co2_eq":null,"from_stop_id":"7631","from_stop_lat":"56.130366","from_stop_lon":"-106.346771","from_stop_placename":"Canada","to_stop_id":"7628","to_stop_name":"origin","to_stop_lat":"40.5852602","to_stop_lon":"-105.084423","to_stop_placename":"Fort Collins, CO, USA","to_stop":{"id":"7628","name":"origin","lat":"40.5852602","lon":"-105.084423","placename":"Fort Collins, CO, USA"},"from_stop":{"name":"origin","id":"7631","lat":"56.130366","lon":"-106.346771","placename":"Canada"}}]}}},"processes":[],"eols":[]},{"oid":"64","imid":"4931","linkid":"0","weight":"0","rawemissions":"0","emissions":"0","shipping":"900.28","processemissions":"0","endoflifeemissions":"0","disposaltype":null,"disposalenergy":null,"disposalimpact":null,"disposalemissions":null,"description":"More malted barley is imported from across the United States, which is one of the ingredients in beer.","name":"Malted Barley","id":"4931","stops":{"origin":{"related_to":"4931","part_or_object":"p","notes":null,"placename":"United States","id":7632,"name":"origin","lat":"37.09024","lon":"-95.712891","hops":{"incoming":[],"outgoing":[{"transport_id":null,"id":"5164","transport_name":null,"transport_description":null,"transport_unit":null,"transport_co2_eq":null,"from_stop_id":"7632","from_stop_lat":"37.09024","from_stop_lon":"-95.712891","from_stop_placename":"United States","to_stop_id":"7628","to_stop_name":"origin","to_stop_lat":"40.5852602","to_stop_lon":"-105.084423","to_stop_placename":"Fort Collins, CO, USA","to_stop":{"id":"7628","name":"origin","lat":"40.5852602","lon":"-105.084423","placename":"Fort Collins, CO, USA"},"from_stop":{"name":"origin","id":"7632","lat":"37.09024","lon":"-95.712891","placename":"United States"}}]}}},"processes":[],"eols":[]},{"oid":"64","imid":"4932","linkid":"0","weight":"0","rawemissions":"0","emissions":"0","shipping":"1322.95","processemissions":"0","endoflifeemissions":"0","disposaltype":null,"disposalenergy":null,"disposalimpact":null,"disposalemissions":null,"description":"Hops from the Northwestern United States are shipped to the New Belgium Brewery in order to make brews such as Fat Tire.","name":"Hops","id":"4932","stops":{"origin":{"related_to":"4932","part_or_object":"p","notes":null,"placename":"Oregon, USA","id":7633,"name":"origin","lat":"43.8041334","lon":"-120.5542012","hops":{"incoming":[],"outgoing":[{"transport_id":null,"id":"5165","transport_name":null,"transport_description":null,"transport_unit":null,"transport_co2_eq":null,"from_stop_id":"7633","from_stop_lat":"43.8041334","from_stop_lon":"-120.5542012","from_stop_placename":"Oregon, USA","to_stop_id":"7628","to_stop_name":"origin","to_stop_lat":"40.5852602","to_stop_lon":"-105.084423","to_stop_placename":"Fort Collins, CO, USA","to_stop":{"id":"7628","name":"origin","lat":"40.5852602","lon":"-105.084423","placename":"Fort Collins, CO, USA"},"from_stop":{"name":"origin","id":"7633","lat":"43.8041334","lon":"-120.5542012","placename":"Oregon, USA"}}]}}},"processes":[],"eols":[]},{"oid":"64","imid":"4933","linkid":"0","weight":"0","rawemissions":"0","emissions":"0","shipping":"19.59","processemissions":"0","endoflifeemissions":"0","disposaltype":null,"disposalenergy":null,"disposalimpact":null,"disposalemissions":null,"description":"The glass used to make the bottles at the New Belgium Brewery is trucked to Fort Collins from WIndsor, Colorado.","name":"Glass","id":"4933","stops":{"origin":{"related_to":"4933","part_or_object":"p","notes":null,"placename":"Windsor, CO, USA","id":7634,"name":"origin","lat":"40.4774818","lon":"-104.9013617","hops":{"incoming":[],"outgoing":[{"transport_id":null,"id":"5166","transport_name":null,"transport_description":null,"transport_unit":null,"transport_co2_eq":null,"from_stop_id":"7634","from_stop_lat":"40.4774818","from_stop_lon":"-104.9013617","from_stop_placename":"Windsor, CO, USA","to_stop_id":"7628","to_stop_name":"origin","to_stop_lat":"40.5852602","to_stop_lon":"-105.084423","to_stop_placename":"Fort Collins, CO, USA","to_stop":{"id":"7628","name":"origin","lat":"40.5852602","lon":"-105.084423","placename":"Fort Collins, CO, USA"},"from_stop":{"name":"origin","id":"7634","lat":"40.4774818","lon":"-104.9013617","placename":"Windsor, CO, USA"}}]}}},"processes":[],"eols":[]},{"oid":"64","imid":"4934","linkid":"0","weight":"0","rawemissions":"0","emissions":"0","shipping":"129.66","processemissions":"0","endoflifeemissions":"0","disposaltype":null,"disposalenergy":null,"disposalimpact":null,"disposalemissions":null,"description":"The cardboard used make boxes for the beer is made locally in Colorado before being shipped to numerous states.","name":"Cardboard","id":"4934","stops":{"origin":{"related_to":"4934","part_or_object":"p","notes":null,"placename":"Colorado, USA","id":7635,"name":"origin","lat":"39.5500507","lon":"-105.7820674","hops":{"incoming":[],"outgoing":[{"transport_id":null,"id":"5167","transport_name":null,"transport_description":null,"transport_unit":null,"transport_co2_eq":null,"from_stop_id":"7635","from_stop_lat":"39.5500507","from_stop_lon":"-105.7820674","from_stop_placename":"Colorado, USA","to_stop_id":"7628","to_stop_name":"origin","to_stop_lat":"40.5852602","to_stop_lon":"-105.084423","to_stop_placename":"Fort Collins, CO, USA","to_stop":{"id":"7628","name":"origin","lat":"40.5852602","lon":"-105.084423","placename":"Fort Collins, CO, USA"},"from_stop":{"name":"origin","id":"7635","lat":"39.5500507","lon":"-105.7820674","placename":"Colorado, USA"}}]}}},"processes":[],"eols":[]}],"user":{"name":"KellyB","id":"11251"}}}