{"640":{"oid":"640","type":"object","flag":"","creator":"6154","name":"Nike AirMax 180 classics","upc":"","imagelink":"","description":"Nike makes many claims to be progressive in \"green materials\" and \"sustainability\".  In the past, many allegations of labor abuse have come up and they seem to be taking a proactive approach to eliminating this as well as to make a conscious effort to use quality materials in at least some of their shoes.  They happen to be my favorite type of shoes and I am taking apart one of my older pairs to see if I can find whether or not they are living up to their claims. ","slug":"nike-airmax-180-classics","category":"","weight":null,"emissions":"0","embodied":"0","transport":"0","process":"0","endoflife":"0","shipping":"26093.4","lifetime":"0","usagetype":"","usageenergy":"0","usageemissions":"0","timecreated":"2010-02-24 22:03:35.554655","timemodified":"2009-10-06 01:24:22","visibility":"public","showfootprint":"on","showembodied":"on","showtransport":"on","showprocess":"on","showendoflife":"on","showlastleg":"on","showuse":"on","showstats":"on","stops":{"origin":{"related_to":"640","part_or_object":"o","notes":"","placename":"Vietnam","id":"113","category":"1","lat":"14.058324","lon":"108.277199","name":"origin","hops":{"incoming":[{"transport_id":"16","id":"783","transport_name":"air, freight, intercontinental","transport_description":"intercontinental freight","transport_unit":"kg km","transport_co2_eq":"0.450000","from_stop_id":"3034","from_stop_lat":"-14.235004","from_stop_lon":"-51.92528","to_stop_id":"113","to_stop_name":"origin","to_stop_lat":"14.058324","placename":"Brazil","to_stop_lon":"108.277199","to_stop":{"id":"113","name":"origin","lat":"14.058324","placename":"Vietnam","lon":"108.277199"},"from_stop":{"name":"origin","id":"3034","lat":"-14.235004","lon":"-51.92528","placename":"Brazil"}},{"transport_id":"10","id":"784","transport_name":"train, freight","transport_description":"diesel freight locomotive","transport_unit":"kg km","transport_co2_eq":"0.005600","from_stop_id":"3035","from_stop_lat":"35.86166","from_stop_lon":"104.195397","to_stop_id":"113","to_stop_name":"origin","to_stop_lat":"14.058324","placename":"China","to_stop_lon":"108.277199","to_stop":{"id":"113","name":"origin","lat":"14.058324","placename":"Vietnam","lon":"108.277199"},"from_stop":{"name":"origin","id":"3035","lat":"35.86166","lon":"104.195397","placename":"China"}},{"transport_id":"16","id":"785","transport_name":"air, freight, intercontinental","transport_description":"intercontinental freight","transport_unit":"kg km","transport_co2_eq":"0.450000","from_stop_id":"3036","from_stop_lat":"35.86166","from_stop_lon":"104.195397","to_stop_id":"113","to_stop_name":"origin","to_stop_lat":"14.058324","placename":"China","to_stop_lon":"108.277199","to_stop":{"id":"113","name":"origin","lat":"14.058324","placename":"Vietnam","lon":"108.277199"},"from_stop":{"name":"origin","id":"3036","lat":"35.86166","lon":"104.195397","placename":"China"}},{"transport_id":"16","id":"786","transport_name":"air, freight, intercontinental","transport_description":"intercontinental freight","transport_unit":"kg km","transport_co2_eq":"0.450000","from_stop_id":"3037","from_stop_lat":"15.870032","from_stop_lon":"100.992541","to_stop_id":"113","to_stop_name":"origin","to_stop_lat":"14.058324","placename":"Thailand","to_stop_lon":"108.277199","to_stop":{"id":"113","name":"origin","lat":"14.058324","placename":"Vietnam","lon":"108.277199"},"from_stop":{"name":"origin","id":"3037","lat":"15.870032","lon":"100.992541","placename":"Thailand"}},{"transport_id":"16","id":"787","transport_name":"air, freight, intercontinental","transport_description":"intercontinental freight","transport_unit":"kg km","transport_co2_eq":"0.450000","from_stop_id":"3038","from_stop_lat":"35.86166","from_stop_lon":"104.195397","to_stop_id":"113","to_stop_name":"origin","to_stop_lat":"14.058324","placename":"China","to_stop_lon":"108.277199","to_stop":{"id":"113","name":"origin","lat":"14.058324","placename":"Vietnam","lon":"108.277199"},"from_stop":{"name":"origin","id":"3038","lat":"35.86166","lon":"104.195397","placename":"China"}},{"transport_id":"17","id":"788","transport_name":"None Selected","transport_description":null,"transport_unit":"kg km","transport_co2_eq":"0.000000","from_stop_id":"3039","from_stop_lat":"0","from_stop_lon":"0","to_stop_id":"113","to_stop_name":"origin","to_stop_lat":"14.058324","placename":"Part Location","to_stop_lon":"108.277199","to_stop":{"id":"113","name":"origin","lat":"14.058324","placename":"Vietnam","lon":"108.277199"},"from_stop":{"name":"origin","id":"3039","lat":"0","lon":"0","placename":"Part Location"}}],"outgoing":[]}}},"parts":[{"oid":"640","imid":"960","linkid":"","weight":"0.1134","rawemissions":"0.27","emissions":"0.03","shipping":"17901.1","processemissions":null,"endoflifeemissions":null,"disposaltype":null,"disposalenergy":null,"disposalimpact":null,"disposalemissions":null,"description":"Nike recently stopped using Leather from this region, but these shoes were 4 years old","name":"Leather","id":"960","stops":{"origin":{"related_to":"960","part_or_object":"p","notes":"","placename":"Brazil","id":3034,"name":"origin","lat":"-14.235004","lon":"-51.92528","hops":{"incoming":[],"outgoing":[{"transport_id":"16","id":"783","transport_name":"air, freight, intercontinental","transport_description":"intercontinental freight","transport_unit":"kg km","transport_co2_eq":"0.450000","from_stop_id":"3034","from_stop_lat":"-14.235004","from_stop_lon":"-51.92528","from_stop_placename":"Brazil","to_stop_id":"113","to_stop_name":"origin","to_stop_lat":"14.058324","to_stop_lon":"108.277199","to_stop_placename":"Vietnam","to_stop":{"id":"113","name":"origin","lat":"14.058324","lon":"108.277199","placename":"Vietnam"},"from_stop":{"name":"origin","id":"3034","lat":"-14.235004","lon":"-51.92528","placename":"Brazil"}}]}}},"processes":[],"eols":[]},{"oid":"640","imid":"961","linkid":"","weight":"0","rawemissions":"0.27","emissions":null,"shipping":"2461.15","processemissions":null,"endoflifeemissions":null,"disposaltype":null,"disposalenergy":null,"disposalimpact":null,"disposalemissions":null,"description":"chrome processed","name":"cotton","id":"961","stops":{"origin":{"related_to":"961","part_or_object":"p","notes":"","placename":"China","id":3035,"name":"origin","lat":"35.86166","lon":"104.195397","hops":{"incoming":[],"outgoing":[{"transport_id":"10","id":"784","transport_name":"train, freight","transport_description":"diesel freight locomotive","transport_unit":"kg km","transport_co2_eq":"0.005600","from_stop_id":"3035","from_stop_lat":"35.86166","from_stop_lon":"104.195397","from_stop_placename":"China","to_stop_id":"113","to_stop_name":"origin","to_stop_lat":"14.058324","to_stop_lon":"108.277199","to_stop_placename":"Vietnam","to_stop":{"id":"113","name":"origin","lat":"14.058324","lon":"108.277199","placename":"Vietnam"},"from_stop":{"name":"origin","id":"3035","lat":"35.86166","lon":"104.195397","placename":"China"}}]}}},"processes":[],"eols":[]},{"oid":"640","imid":"962","linkid":"","weight":"0","rawemissions":"1.7","emissions":null,"shipping":"2461.15","processemissions":null,"endoflifeemissions":null,"disposaltype":null,"disposalenergy":null,"disposalimpact":null,"disposalemissions":null,"description":"polyurethane cushion foam","name":"PU flexible foam","id":"962","stops":{"origin":{"related_to":"962","part_or_object":"p","notes":"","placename":"China","id":3036,"name":"origin","lat":"35.86166","lon":"104.195397","hops":{"incoming":[],"outgoing":[{"transport_id":"16","id":"785","transport_name":"air, freight, intercontinental","transport_description":"intercontinental freight","transport_unit":"kg km","transport_co2_eq":"0.450000","from_stop_id":"3036","from_stop_lat":"35.86166","from_stop_lon":"104.195397","from_stop_placename":"China","to_stop_id":"113","to_stop_name":"origin","to_stop_lat":"14.058324","to_stop_lon":"108.277199","to_stop_placename":"Vietnam","to_stop":{"id":"113","name":"origin","lat":"14.058324","lon":"108.277199","placename":"Vietnam"},"from_stop":{"name":"origin","id":"3036","lat":"35.86166","lon":"104.195397","placename":"China"}}]}}},"processes":[],"eols":[]},{"oid":"640","imid":"963","linkid":"","weight":"0.226","rawemissions":"0.82","emissions":"0.19","shipping":"808.89","processemissions":null,"endoflifeemissions":null,"disposaltype":null,"disposalenergy":null,"disposalimpact":null,"disposalemissions":null,"description":"Ethylene vinyl acetate (midsole)","name":"EVA","id":"963","stops":{"origin":{"related_to":"963","part_or_object":"p","notes":"","placename":"Thailand","id":3037,"name":"origin","lat":"15.870032","lon":"100.992541","hops":{"incoming":[],"outgoing":[{"transport_id":"16","id":"786","transport_name":"air, freight, intercontinental","transport_description":"intercontinental freight","transport_unit":"kg km","transport_co2_eq":"0.450000","from_stop_id":"3037","from_stop_lat":"15.870032","from_stop_lon":"100.992541","from_stop_placename":"Thailand","to_stop_id":"113","to_stop_name":"origin","to_stop_lat":"14.058324","to_stop_lon":"108.277199","to_stop_placename":"Vietnam","to_stop":{"id":"113","name":"origin","lat":"14.058324","lon":"108.277199","placename":"Vietnam"},"from_stop":{"name":"origin","id":"3037","lat":"15.870032","lon":"100.992541","placename":"Thailand"}}]}}},"processes":[],"eols":[]},{"oid":"640","imid":"964","linkid":"","weight":"0.0453","rawemissions":"1.7","emissions":"0.08","shipping":"2461.15","processemissions":null,"endoflifeemissions":null,"disposaltype":null,"disposalenergy":null,"disposalimpact":null,"disposalemissions":null,"description":"Rigid polyvinyl chloride","name":"PVC rigid ","id":"964","stops":{"origin":{"related_to":"964","part_or_object":"p","notes":"","placename":"China","id":3038,"name":"origin","lat":"35.86166","lon":"104.195397","hops":{"incoming":[],"outgoing":[{"transport_id":"16","id":"787","transport_name":"air, freight, intercontinental","transport_description":"intercontinental freight","transport_unit":"kg km","transport_co2_eq":"0.450000","from_stop_id":"3038","from_stop_lat":"35.86166","from_stop_lon":"104.195397","from_stop_placename":"China","to_stop_id":"113","to_stop_name":"origin","to_stop_lat":"14.058324","to_stop_lon":"108.277199","to_stop_placename":"Vietnam","to_stop":{"id":"113","name":"origin","lat":"14.058324","lon":"108.277199","placename":"Vietnam"},"from_stop":{"name":"origin","id":"3038","lat":"35.86166","lon":"104.195397","placename":"China"}}]}}},"processes":[],"eols":[]},{"oid":"640","imid":"965","linkid":"","weight":"0","rawemissions":"0","emissions":"0","shipping":"0","processemissions":null,"endoflifeemissions":null,"disposaltype":null,"disposalenergy":null,"disposalimpact":null,"disposalemissions":null,"description":"","name":"carbon rubber (brs 1000)","id":"965","stops":{"origin":{"related_to":"965","part_or_object":"p","notes":"","placename":"Part Location","id":3039,"name":"origin","lat":"0","lon":"0","hops":{"incoming":[],"outgoing":[{"transport_id":"17","id":"788","transport_name":"None Selected","transport_description":null,"transport_unit":"kg km","transport_co2_eq":"0.000000","from_stop_id":"3039","from_stop_lat":"0","from_stop_lon":"0","from_stop_placename":"Part Location","to_stop_id":"113","to_stop_name":"origin","to_stop_lat":"14.058324","to_stop_lon":"108.277199","to_stop_placename":"Vietnam","to_stop":{"id":"113","name":"origin","lat":"14.058324","lon":"108.277199","placename":"Vietnam"},"from_stop":{"name":"origin","id":"3039","lat":"0","lon":"0","placename":"Part Location"}}]}}},"processes":[],"eols":[]}],"user":{"name":"bbrady","id":"6154"}}}