{"657":{"oid":"657","type":"object","flag":"","creator":"6308","name":"Blackberry Bold","upc":"","imagelink":"","description":"The Supply Chain for the Blackberry Bold","slug":"blackberry-bold","category":"","weight":"0.481","emissions":"548.776","embodied":"546.35","transport":"2.42641","process":"0","endoflife":"0","shipping":"75030.1","lifetime":"0","usagetype":"","usageenergy":"0","usageemissions":"0","timecreated":"2010-02-24 22:03:35.560872","timemodified":"2009-10-05 22:13:30","visibility":"private","showfootprint":"on","showembodied":"on","showtransport":"on","showprocess":"on","showendoflife":"on","showlastleg":"on","showuse":"on","showstats":"on","stops":{"origin":{"related_to":"657","part_or_object":"o","notes":"","placename":"Guadalajara, Ja, Mexico","id":"117","category":"1","lat":"20.67359","lon":"-103.343803","name":"origin","hops":{"incoming":[{"transport_id":"8","id":"756","transport_name":"freighter, oceanic","transport_description":"","transport_unit":"kg km","transport_co2_eq":"0.004200","from_stop_id":"3007","from_stop_lat":"-31.9554","from_stop_lon":"115.85859","to_stop_id":"117","to_stop_name":"origin","to_stop_lat":"20.67359","placename":"Perth WA, Australia","to_stop_lon":"-103.343803","to_stop":{"id":"117","name":"origin","lat":"20.67359","placename":"Guadalajara, Ja, Mexico","lon":"-103.343803"},"from_stop":{"name":"origin","id":"3007","lat":"-31.9554","lon":"115.85859","placename":"Perth WA, Australia"}},{"transport_id":"16","id":"757","transport_name":"air, freight, intercontinental","transport_description":"intercontinental freight","transport_unit":"kg km","transport_co2_eq":"0.450000","from_stop_id":"3008","from_stop_lat":"34.6937378","from_stop_lon":"135.5021651","to_stop_id":"117","to_stop_name":"origin","to_stop_lat":"20.67359","placename":"?saka City, ?saka Prefecture, Japan","to_stop_lon":"-103.343803","to_stop":{"id":"117","name":"origin","lat":"20.67359","placename":"Guadalajara, Ja, Mexico","lon":"-103.343803"},"from_stop":{"name":"origin","id":"3008","lat":"34.6937378","lon":"135.5021651","placename":"?saka City, ?saka Prefecture, Japan"}},{"transport_id":"16","id":"758","transport_name":"air, freight, intercontinental","transport_description":"intercontinental freight","transport_unit":"kg km","transport_co2_eq":"0.450000","from_stop_id":"3009","from_stop_lat":"1.352083","from_stop_lon":"103.819836","to_stop_id":"117","to_stop_name":"origin","to_stop_lat":"20.67359","placename":"Singapore","to_stop_lon":"-103.343803","to_stop":{"id":"117","name":"origin","lat":"20.67359","placename":"Guadalajara, Ja, Mexico","lon":"-103.343803"},"from_stop":{"name":"origin","id":"3009","lat":"1.352083","lon":"103.819836","placename":"Singapore"}},{"transport_id":"16","id":"759","transport_name":"air, freight, intercontinental","transport_description":"intercontinental freight","transport_unit":"kg km","transport_co2_eq":"0.450000","from_stop_id":"3010","from_stop_lat":"52.2296756","from_stop_lon":"21.0122287","to_stop_id":"117","to_stop_name":"origin","to_stop_lat":"20.67359","placename":"Warsaw, Poland","to_stop_lon":"-103.343803","to_stop":{"id":"117","name":"origin","lat":"20.67359","placename":"Guadalajara, Ja, Mexico","lon":"-103.343803"},"from_stop":{"name":"origin","id":"3010","lat":"52.2296756","lon":"21.0122287","placename":"Warsaw, Poland"}},{"transport_id":"8","id":"760","transport_name":"freighter, oceanic","transport_description":"","transport_unit":"kg km","transport_co2_eq":"0.004200","from_stop_id":"3011","from_stop_lat":"-21.8297222","from_stop_lon":"-49.2075","to_stop_id":"117","to_stop_name":"origin","to_stop_lat":"20.67359","placename":"S?o Paulo - Brazil","to_stop_lon":"-103.343803","to_stop":{"id":"117","name":"origin","lat":"20.67359","placename":"Guadalajara, Ja, Mexico","lon":"-103.343803"},"from_stop":{"name":"origin","id":"3011","lat":"-21.8297222","lon":"-49.2075","placename":"S?o Paulo - Brazil"}},{"transport_id":"16","id":"763","transport_name":"air, freight, intercontinental","transport_description":"intercontinental freight","transport_unit":"kg km","transport_co2_eq":"0.450000","from_stop_id":"3014","from_stop_lat":"22.3203365","from_stop_lon":"114.2390498","to_stop_id":"117","to_stop_name":"origin","to_stop_lat":"20.67359","placename":"Hong Kong","to_stop_lon":"-103.343803","to_stop":{"id":"117","name":"origin","lat":"20.67359","placename":"Guadalajara, Ja, Mexico","lon":"-103.343803"},"from_stop":{"name":"origin","id":"3014","lat":"22.3203365","lon":"114.2390498","placename":"Hong Kong"}}],"outgoing":[]}}},"parts":[{"oid":"657","imid":"932","linkid":"","weight":"0.001","rawemissions":"10.4","emissions":"0.01","shipping":"15954.5","processemissions":null,"endoflifeemissions":null,"disposaltype":null,"disposalenergy":null,"disposalimpact":null,"disposalemissions":null,"description":"Tin used in lead-free solder","name":"Tin","id":"932","stops":{"origin":{"related_to":"932","part_or_object":"p","notes":"","placename":"Perth WA, Australia","id":3007,"name":"origin","lat":"-31.9554","lon":"115.85859","hops":{"incoming":[],"outgoing":[{"transport_id":"8","id":"756","transport_name":"freighter, oceanic","transport_description":"","transport_unit":"kg km","transport_co2_eq":"0.004200","from_stop_id":"3007","from_stop_lat":"-31.9554","from_stop_lon":"115.85859","from_stop_placename":"Perth WA, Australia","to_stop_id":"117","to_stop_name":"origin","to_stop_lat":"20.67359","to_stop_lon":"-103.343803","to_stop_placename":"Guadalajara, Ja, Mexico","to_stop":{"id":"117","name":"origin","lat":"20.67359","lon":"-103.343803","placename":"Guadalajara, Ja, Mexico"},"from_stop":{"name":"origin","id":"3007","lat":"-31.9554","lon":"115.85859","placename":"Perth WA, Australia"}}]}}},"processes":[],"eols":[]},{"oid":"657","imid":"933","linkid":"","weight":"0.02","rawemissions":"3.2","emissions":"0.06","shipping":"11283.7","processemissions":null,"endoflifeemissions":null,"disposaltype":null,"disposalenergy":null,"disposalimpact":null,"disposalemissions":null,"description":"rechargeable, one AA battery weighs approx. 25g","name":"Battery lithium ion","id":"933","stops":{"origin":{"related_to":"933","part_or_object":"p","notes":"","placename":"?saka City, ?saka Prefecture, Japan","id":3008,"name":"origin","lat":"34.6937378","lon":"135.5021651","hops":{"incoming":[],"outgoing":[{"transport_id":"16","id":"757","transport_name":"air, freight, intercontinental","transport_description":"intercontinental freight","transport_unit":"kg km","transport_co2_eq":"0.450000","from_stop_id":"3008","from_stop_lat":"34.6937378","from_stop_lon":"135.5021651","from_stop_placename":"?saka City, ?saka Prefecture, Japan","to_stop_id":"117","to_stop_name":"origin","to_stop_lat":"20.67359","to_stop_lon":"-103.343803","to_stop_placename":"Guadalajara, Ja, Mexico","to_stop":{"id":"117","name":"origin","lat":"20.67359","lon":"-103.343803","placename":"Guadalajara, Ja, Mexico"},"from_stop":{"name":"origin","id":"3008","lat":"34.6937378","lon":"135.5021651","placename":"?saka City, ?saka Prefecture, Japan"}}]}}},"processes":[],"eols":[]},{"oid":"657","imid":"934","linkid":"","weight":"0.1","rawemissions":"4200","emissions":"420","shipping":"16193.9","processemissions":null,"endoflifeemissions":null,"disposaltype":null,"disposalenergy":null,"disposalimpact":null,"disposalemissions":null,"description":"printed board without components","name":"Circuit board","id":"934","stops":{"origin":{"related_to":"934","part_or_object":"p","notes":"","placename":"Singapore","id":3009,"name":"origin","lat":"1.352083","lon":"103.819836","hops":{"incoming":[],"outgoing":[{"transport_id":"16","id":"758","transport_name":"air, freight, intercontinental","transport_description":"intercontinental freight","transport_unit":"kg km","transport_co2_eq":"0.450000","from_stop_id":"3009","from_stop_lat":"1.352083","from_stop_lon":"103.819836","from_stop_placename":"Singapore","to_stop_id":"117","to_stop_name":"origin","to_stop_lat":"20.67359","to_stop_lon":"-103.343803","to_stop_placename":"Guadalajara, Ja, Mexico","to_stop":{"id":"117","name":"origin","lat":"20.67359","lon":"-103.343803","placename":"Guadalajara, Ja, Mexico"},"from_stop":{"name":"origin","id":"3009","lat":"1.352083","lon":"103.819836","placename":"Singapore"}}]}}},"processes":[],"eols":[]},{"oid":"657","imid":"935","linkid":"","weight":"0.01","rawemissions":"12000","emissions":"120","shipping":"10301.5","processemissions":null,"endoflifeemissions":null,"disposaltype":null,"disposalenergy":null,"disposalimpact":null,"disposalemissions":null,"description":"IC board RoHS compliant","name":"Integrated circuitry RoHS","id":"935","stops":{"origin":{"related_to":"935","part_or_object":"p","notes":"","placename":"Warsaw, Poland","id":3010,"name":"origin","lat":"52.2296756","lon":"21.0122287","hops":{"incoming":[],"outgoing":[{"transport_id":"16","id":"759","transport_name":"air, freight, intercontinental","transport_description":"intercontinental freight","transport_unit":"kg km","transport_co2_eq":"0.450000","from_stop_id":"3010","from_stop_lat":"52.2296756","from_stop_lon":"21.0122287","from_stop_placename":"Warsaw, Poland","to_stop_id":"117","to_stop_name":"origin","to_stop_lat":"20.67359","to_stop_lon":"-103.343803","to_stop_placename":"Guadalajara, Ja, Mexico","to_stop":{"id":"117","name":"origin","lat":"20.67359","lon":"-103.343803","placename":"Guadalajara, Ja, Mexico"},"from_stop":{"name":"origin","id":"3010","lat":"52.2296756","lon":"21.0122287","placename":"Warsaw, Poland"}}]}}},"processes":[],"eols":[]},{"oid":"657","imid":"936","linkid":"","weight":"0.1","rawemissions":"0.27","emissions":"0.03","shipping":"7549.47","processemissions":null,"endoflifeemissions":null,"disposaltype":null,"disposalenergy":null,"disposalimpact":null,"disposalemissions":null,"description":"chrome processed","name":"Leather","id":"936","stops":{"origin":{"related_to":"936","part_or_object":"p","notes":"","placename":"S?o Paulo - Brazil","id":3011,"name":"origin","lat":"-21.8297222","lon":"-49.2075","hops":{"incoming":[],"outgoing":[{"transport_id":"8","id":"760","transport_name":"freighter, oceanic","transport_description":"","transport_unit":"kg km","transport_co2_eq":"0.004200","from_stop_id":"3011","from_stop_lat":"-21.8297222","from_stop_lon":"-49.2075","from_stop_placename":"S?o Paulo - Brazil","to_stop_id":"117","to_stop_name":"origin","to_stop_lat":"20.67359","to_stop_lon":"-103.343803","to_stop_placename":"Guadalajara, Ja, Mexico","to_stop":{"id":"117","name":"origin","lat":"20.67359","lon":"-103.343803","placename":"Guadalajara, Ja, Mexico"},"from_stop":{"name":"origin","id":"3011","lat":"-21.8297222","lon":"-49.2075","placename":"S?o Paulo - Brazil"}}]}}},"processes":[],"eols":[]},{"oid":"657","imid":"939","linkid":"","weight":"0.25","rawemissions":"25","emissions":"6.25","shipping":"13747","processemissions":null,"endoflifeemissions":null,"disposaltype":null,"disposalenergy":null,"disposalimpact":null,"disposalemissions":null,"description":"Back-lit English keypad","name":"Keypad","id":"939","stops":{"origin":{"related_to":"939","part_or_object":"p","notes":"","placename":"Hong Kong","id":3014,"name":"origin","lat":"22.3203365","lon":"114.2390498","hops":{"incoming":[],"outgoing":[{"transport_id":"16","id":"763","transport_name":"air, freight, intercontinental","transport_description":"intercontinental freight","transport_unit":"kg km","transport_co2_eq":"0.450000","from_stop_id":"3014","from_stop_lat":"22.3203365","from_stop_lon":"114.2390498","from_stop_placename":"Hong Kong","to_stop_id":"117","to_stop_name":"origin","to_stop_lat":"20.67359","to_stop_lon":"-103.343803","to_stop_placename":"Guadalajara, Ja, Mexico","to_stop":{"id":"117","name":"origin","lat":"20.67359","lon":"-103.343803","placename":"Guadalajara, Ja, Mexico"},"from_stop":{"name":"origin","id":"3014","lat":"22.3203365","lon":"114.2390498","placename":"Hong Kong"}}]}}},"processes":[],"eols":[]}],"user":{"name":"richbecks","id":"6308"}}}