{"670":{"oid":"670","type":"object","flag":"","creator":"6319","name":"IKEA Sultan Alsarp bed","upc":"","imagelink":"","description":"","slug":"ikea-sultan-alsarp-bed","category":"featured","weight":"50.5","emissions":"247.417232079","embodied":"246.69","transport":"0.727232079","process":"0","endoflife":"0","shipping":"32664.1","lifetime":"0","usagetype":"","usageenergy":"0","usageemissions":"0","timecreated":"2010-02-24 22:03:35.567822","timemodified":"2010-04-07 19:09:28","visibility":"public","showfootprint":"on","showembodied":"on","showtransport":"on","showprocess":"on","showendoflife":"on","showlastleg":"on","showuse":"on","showstats":"on","stops":{"origin":{"related_to":"670","part_or_object":"o","notes":"","placename":"China","id":"1259","category":"1","lat":"35.86166","lon":"104.195397","name":"origin","hops":{"incoming":[{"transport_id":"8","id":"764","transport_name":"freighter, oceanic","transport_description":"","transport_unit":"kg km","transport_co2_eq":"0.004200","from_stop_id":"3015","from_stop_lat":"35.86166","from_stop_lon":"104.195397","to_stop_id":"1259","to_stop_name":"origin","to_stop_lat":"35.86166","placename":"China","to_stop_lon":"104.195397","to_stop":{"id":"1259","name":"origin","lat":"35.86166","placename":"China","lon":"104.195397"},"from_stop":{"name":"origin","id":"3015","lat":"35.86166","lon":"104.195397","placename":"China"}},{"transport_id":"8","id":"765","transport_name":"freighter, oceanic","transport_description":"","transport_unit":"kg km","transport_co2_eq":"0.004200","from_stop_id":"3016","from_stop_lat":"39.9081726","from_stop_lon":"116.3979471","to_stop_id":"1259","to_stop_name":"origin","to_stop_lat":"35.86166","placename":"Beijing, China","to_stop_lon":"104.195397","to_stop":{"id":"1259","name":"origin","lat":"35.86166","placename":"China","lon":"104.195397"},"from_stop":{"name":"origin","id":"3016","lat":"39.9081726","lon":"116.3979471","placename":"Beijing, China"}},{"transport_id":"8","id":"766","transport_name":"freighter, oceanic","transport_description":"","transport_unit":"kg km","transport_co2_eq":"0.004200","from_stop_id":"3017","from_stop_lat":"51.919438","from_stop_lon":"19.145136","to_stop_id":"1259","to_stop_name":"origin","to_stop_lat":"35.86166","placename":"Poland","to_stop_lon":"104.195397","to_stop":{"id":"1259","name":"origin","lat":"35.86166","placename":"China","lon":"104.195397"},"from_stop":{"name":"origin","id":"3017","lat":"51.919438","lon":"19.145136","placename":"Poland"}},{"transport_id":"8","id":"767","transport_name":"freighter, oceanic","transport_description":"","transport_unit":"kg km","transport_co2_eq":"0.004200","from_stop_id":"3018","from_stop_lat":"61.52401","from_stop_lon":"105.318756","to_stop_id":"1259","to_stop_name":"origin","to_stop_lat":"35.86166","placename":"Russian Federation","to_stop_lon":"104.195397","to_stop":{"id":"1259","name":"origin","lat":"35.86166","placename":"China","lon":"104.195397"},"from_stop":{"name":"origin","id":"3018","lat":"61.52401","lon":"105.318756","placename":"Russian Federation"}},{"transport_id":"8","id":"768","transport_name":"freighter, oceanic","transport_description":"","transport_unit":"kg km","transport_co2_eq":"0.004200","from_stop_id":"3019","from_stop_lat":"-8.783195","from_stop_lon":"34.508523","to_stop_id":"1259","to_stop_name":"origin","to_stop_lat":"35.86166","placename":"Africa","to_stop_lon":"104.195397","to_stop":{"id":"1259","name":"origin","lat":"35.86166","placename":"China","lon":"104.195397"},"from_stop":{"name":"origin","id":"3019","lat":"-8.783195","lon":"34.508523","placename":"Africa"}},{"transport_id":"8","id":"769","transport_name":"freighter, oceanic","transport_description":"","transport_unit":"kg km","transport_co2_eq":"0.004200","from_stop_id":"3020","from_stop_lat":"61.52401","from_stop_lon":"105.318756","to_stop_id":"1259","to_stop_name":"origin","to_stop_lat":"35.86166","placename":"Russian Federation","to_stop_lon":"104.195397","to_stop":{"id":"1259","name":"origin","lat":"35.86166","placename":"China","lon":"104.195397"},"from_stop":{"name":"origin","id":"3020","lat":"61.52401","lon":"105.318756","placename":"Russian Federation"}},{"transport_id":"8","id":"770","transport_name":"freighter, oceanic","transport_description":"","transport_unit":"kg km","transport_co2_eq":"0.004200","from_stop_id":"3021","from_stop_lat":"31.2243531","from_stop_lon":"121.4759159","to_stop_id":"1259","to_stop_name":"origin","to_stop_lat":"35.86166","placename":"Shanghai, China","to_stop_lon":"104.195397","to_stop":{"id":"1259","name":"origin","lat":"35.86166","placename":"China","lon":"104.195397"},"from_stop":{"name":"origin","id":"3021","lat":"31.2243531","lon":"121.4759159","placename":"Shanghai, China"}},{"transport_id":"8","id":"771","transport_name":"freighter, oceanic","transport_description":"","transport_unit":"kg km","transport_co2_eq":"0.004200","from_stop_id":"3022","from_stop_lat":"23.129075","from_stop_lon":"113.264423","to_stop_id":"1259","to_stop_name":"origin","to_stop_lat":"35.86166","placename":"Guangzhou, Guangdong, China","to_stop_lon":"104.195397","to_stop":{"id":"1259","name":"origin","lat":"35.86166","placename":"China","lon":"104.195397"},"from_stop":{"name":"origin","id":"3022","lat":"23.129075","lon":"113.264423","placename":"Guangzhou, Guangdong, China"}},{"transport_id":"8","id":"775","transport_name":"freighter, oceanic","transport_description":"","transport_unit":"kg km","transport_co2_eq":"0.004200","from_stop_id":"3026","from_stop_lat":"52.5234051","from_stop_lon":"13.4113999","to_stop_id":"1259","to_stop_name":"origin","to_stop_lat":"35.86166","placename":"Berlin, Germany","to_stop_lon":"104.195397","to_stop":{"id":"1259","name":"origin","lat":"35.86166","placename":"China","lon":"104.195397"},"from_stop":{"name":"origin","id":"3026","lat":"52.5234051","lon":"13.4113999","placename":"Berlin, Germany"}}],"outgoing":[]}}},"parts":[{"oid":"670","imid":"940","linkid":"","weight":"2","rawemissions":"15","emissions":"30","shipping":"0","processemissions":null,"endoflifeemissions":null,"disposaltype":null,"disposalenergy":null,"disposalimpact":null,"disposalemissions":null,"description":"high density fiberboard ","name":"HDF","id":"940","stops":{"origin":{"related_to":"940","part_or_object":"p","notes":"","placename":"China","id":3015,"name":"origin","lat":"35.86166","lon":"104.195397","hops":{"incoming":[],"outgoing":[{"transport_id":"8","id":"764","transport_name":"freighter, oceanic","transport_description":"","transport_unit":"kg km","transport_co2_eq":"0.004200","from_stop_id":"3015","from_stop_lat":"35.86166","from_stop_lon":"104.195397","from_stop_placename":"China","to_stop_id":"1259","to_stop_name":"origin","to_stop_lat":"35.86166","to_stop_lon":"104.195397","to_stop_placename":"China","to_stop":{"id":"1259","name":"origin","lat":"35.86166","lon":"104.195397","placename":"China"},"from_stop":{"name":"origin","id":"3015","lat":"35.86166","lon":"104.195397","placename":"China"}}]}}},"processes":[],"eols":[]},{"oid":"670","imid":"941","linkid":"","weight":"10","rawemissions":"3.76","emissions":"37.6","shipping":"1161.6","processemissions":null,"endoflifeemissions":null,"disposaltype":null,"disposalenergy":null,"disposalimpact":null,"disposalemissions":null,"description":"Flooring particle board with high acid rain impact","name":"Particle Board ","id":"941","stops":{"origin":{"related_to":"941","part_or_object":"p","notes":"","placename":"Beijing, China","id":3016,"name":"origin","lat":"39.9081726","lon":"116.3979471","hops":{"incoming":[],"outgoing":[{"transport_id":"8","id":"765","transport_name":"freighter, oceanic","transport_description":"","transport_unit":"kg km","transport_co2_eq":"0.004200","from_stop_id":"3016","from_stop_lat":"39.9081726","from_stop_lon":"116.3979471","from_stop_placename":"Beijing, China","to_stop_id":"1259","to_stop_name":"origin","to_stop_lat":"35.86166","to_stop_lon":"104.195397","to_stop_placename":"China","to_stop":{"id":"1259","name":"origin","lat":"35.86166","lon":"104.195397","placename":"China"},"from_stop":{"name":"origin","id":"3016","lat":"39.9081726","lon":"116.3979471","placename":"Beijing, China"}}]}}},"processes":[],"eols":[]},{"oid":"670","imid":"942","linkid":"","weight":"10","rawemissions":"13","emissions":"130","shipping":"6647.74","processemissions":null,"endoflifeemissions":null,"disposaltype":null,"disposalenergy":null,"disposalimpact":null,"disposalemissions":null,"description":"high acid rain impact","name":"Plywood indoor","id":"942","stops":{"origin":{"related_to":"942","part_or_object":"p","notes":"","placename":"Poland","id":3017,"name":"origin","lat":"51.919438","lon":"19.145136","hops":{"incoming":[],"outgoing":[{"transport_id":"8","id":"766","transport_name":"freighter, oceanic","transport_description":"","transport_unit":"kg km","transport_co2_eq":"0.004200","from_stop_id":"3017","from_stop_lat":"51.919438","from_stop_lon":"19.145136","from_stop_placename":"Poland","to_stop_id":"1259","to_stop_name":"origin","to_stop_lat":"35.86166","to_stop_lon":"104.195397","to_stop_placename":"China","to_stop":{"id":"1259","name":"origin","lat":"35.86166","lon":"104.195397","placename":"China"},"from_stop":{"name":"origin","id":"3017","lat":"51.919438","lon":"19.145136","placename":"Poland"}}]}}},"processes":[],"eols":[]},{"oid":"670","imid":"943","linkid":"","weight":"5","rawemissions":"0.16","emissions":"0.8","shipping":"2857.81","processemissions":null,"endoflifeemissions":null,"disposaltype":null,"disposalenergy":null,"disposalimpact":null,"disposalemissions":null,"description":"Solid pitch pine wood","name":"Wood pitch pine","id":"943","stops":{"origin":{"related_to":"943","part_or_object":"p","notes":"","placename":"Russian Federation","id":3018,"name":"origin","lat":"61.52401","lon":"105.318756","hops":{"incoming":[],"outgoing":[{"transport_id":"8","id":"767","transport_name":"freighter, oceanic","transport_description":"","transport_unit":"kg km","transport_co2_eq":"0.004200","from_stop_id":"3018","from_stop_lat":"61.52401","from_stop_lon":"105.318756","from_stop_placename":"Russian Federation","to_stop_id":"1259","to_stop_name":"origin","to_stop_lat":"35.86166","to_stop_lon":"104.195397","to_stop_placename":"China","to_stop":{"id":"1259","name":"origin","lat":"35.86166","lon":"104.195397","placename":"China"},"from_stop":{"name":"origin","id":"3018","lat":"61.52401","lon":"105.318756","placename":"Russian Federation"}}]}}},"processes":[],"eols":[]},{"oid":"670","imid":"944","linkid":"","weight":"1","rawemissions":"3.5","emissions":"3.5","shipping":"8808.66","processemissions":null,"endoflifeemissions":null,"disposaltype":null,"disposalenergy":null,"disposalimpact":null,"disposalemissions":null,"description":"chemical intensive cultivation","name":"Cotton fabric","id":"944","stops":{"origin":{"related_to":"944","part_or_object":"p","notes":"","placename":"Africa","id":3019,"name":"origin","lat":"-8.783195","lon":"34.508523","hops":{"incoming":[],"outgoing":[{"transport_id":"8","id":"768","transport_name":"freighter, oceanic","transport_description":"","transport_unit":"kg km","transport_co2_eq":"0.004200","from_stop_id":"3019","from_stop_lat":"-8.783195","from_stop_lon":"34.508523","from_stop_placename":"Africa","to_stop_id":"1259","to_stop_name":"origin","to_stop_lat":"35.86166","to_stop_lon":"104.195397","to_stop_placename":"China","to_stop":{"id":"1259","name":"origin","lat":"35.86166","lon":"104.195397","placename":"China"},"from_stop":{"name":"origin","id":"3019","lat":"-8.783195","lon":"34.508523","placename":"Africa"}}]}}},"processes":[],"eols":[]},{"oid":"670","imid":"945","linkid":"","weight":"20","rawemissions":"1.98","emissions":"39.6","shipping":"2857.81","processemissions":null,"endoflifeemissions":null,"disposaltype":null,"disposalenergy":null,"disposalimpact":null,"disposalemissions":null,"description":"","name":"Galvanized Steel","id":"945","stops":{"origin":{"related_to":"945","part_or_object":"p","notes":"","placename":"Russian Federation","id":3020,"name":"origin","lat":"61.52401","lon":"105.318756","hops":{"incoming":[],"outgoing":[{"transport_id":"8","id":"769","transport_name":"freighter, oceanic","transport_description":"","transport_unit":"kg km","transport_co2_eq":"0.004200","from_stop_id":"3020","from_stop_lat":"61.52401","from_stop_lon":"105.318756","from_stop_placename":"Russian Federation","to_stop_id":"1259","to_stop_name":"origin","to_stop_lat":"35.86166","to_stop_lon":"104.195397","to_stop_placename":"China","to_stop":{"id":"1259","name":"origin","lat":"35.86166","lon":"104.195397","placename":"China"},"from_stop":{"name":"origin","id":"3020","lat":"61.52401","lon":"105.318756","placename":"Russian Federation"}}]}}},"processes":[],"eols":[]},{"oid":"670","imid":"946","linkid":"","weight":"0.25","rawemissions":"3.21","emissions":"0.8","shipping":"1681.62","processemissions":null,"endoflifeemissions":null,"disposaltype":null,"disposalenergy":null,"disposalimpact":null,"disposalemissions":null,"description":"Epoxy resin with epichlorohydrin and  bisphenol A aka BPA","name":"Epoxy resin","id":"946","stops":{"origin":{"related_to":"946","part_or_object":"p","notes":"","placename":"Shanghai, China","id":3021,"name":"origin","lat":"31.2243531","lon":"121.4759159","hops":{"incoming":[],"outgoing":[{"transport_id":"8","id":"770","transport_name":"freighter, oceanic","transport_description":"","transport_unit":"kg km","transport_co2_eq":"0.004200","from_stop_id":"3021","from_stop_lat":"31.2243531","from_stop_lon":"121.4759159","from_stop_placename":"Shanghai, China","to_stop_id":"1259","to_stop_name":"origin","to_stop_lat":"35.86166","to_stop_lon":"104.195397","to_stop_placename":"China","to_stop":{"id":"1259","name":"origin","lat":"35.86166","lon":"104.195397","placename":"China"},"from_stop":{"name":"origin","id":"3021","lat":"31.2243531","lon":"121.4759159","placename":"Shanghai, China"}}]}}},"processes":[],"eols":[]},{"oid":"670","imid":"947","linkid":"","weight":"0.25","rawemissions":"1.7","emissions":"0.43","shipping":"1665.68","processemissions":null,"endoflifeemissions":null,"disposaltype":null,"disposalenergy":null,"disposalimpact":null,"disposalemissions":null,"description":"polyurethane cushion foam","name":"PU flexible foam","id":"947","stops":{"origin":{"related_to":"947","part_or_object":"p","notes":"","placename":"Guangzhou, Guangdong, China","id":3022,"name":"origin","lat":"23.129075","lon":"113.264423","hops":{"incoming":[],"outgoing":[{"transport_id":"8","id":"771","transport_name":"freighter, oceanic","transport_description":"","transport_unit":"kg km","transport_co2_eq":"0.004200","from_stop_id":"3022","from_stop_lat":"23.129075","from_stop_lon":"113.264423","from_stop_placename":"Guangzhou, Guangdong, China","to_stop_id":"1259","to_stop_name":"origin","to_stop_lat":"35.86166","to_stop_lon":"104.195397","to_stop_placename":"China","to_stop":{"id":"1259","name":"origin","lat":"35.86166","lon":"104.195397","placename":"China"},"from_stop":{"name":"origin","id":"3022","lat":"23.129075","lon":"113.264423","placename":"Guangzhou, Guangdong, China"}}]}}},"processes":[],"eols":[]},{"oid":"670","imid":"952","linkid":"","weight":"2","rawemissions":"1.98","emissions":"3.96","shipping":"6983.18","processemissions":null,"endoflifeemissions":null,"disposaltype":null,"disposalenergy":null,"disposalimpact":null,"disposalemissions":null,"description":"","name":"Hydraulics","id":"952","stops":{"origin":{"related_to":"952","part_or_object":"p","notes":"","placename":"Berlin, Germany","id":3026,"name":"origin","lat":"52.5234051","lon":"13.4113999","hops":{"incoming":[],"outgoing":[{"transport_id":"8","id":"775","transport_name":"freighter, oceanic","transport_description":"","transport_unit":"kg km","transport_co2_eq":"0.004200","from_stop_id":"3026","from_stop_lat":"52.5234051","from_stop_lon":"13.4113999","from_stop_placename":"Berlin, Germany","to_stop_id":"1259","to_stop_name":"origin","to_stop_lat":"35.86166","to_stop_lon":"104.195397","to_stop_placename":"China","to_stop":{"id":"1259","name":"origin","lat":"35.86166","lon":"104.195397","placename":"China"},"from_stop":{"name":"origin","id":"3026","lat":"52.5234051","lon":"13.4113999","placename":"Berlin, Germany"}}]}}},"processes":[],"eols":[]}],"user":{"name":"jeremyjih","id":"6319"}}}