{"684":{"oid":"684","type":"object","flag":"","creator":"6176","name":"PaperMate Pencil","upc":"","imagelink":"","description":"Analysis of a pack of PaperMate \"American Classic\" Pencils ","slug":"papermate-pencil","category":"","weight":"0.0911","emissions":"0.554332","embodied":"0.1","transport":"0.454333","process":"0","endoflife":"0","shipping":"77578.7","lifetime":"0","usagetype":"","usageenergy":"0","usageemissions":"0","timecreated":"2010-02-24 22:03:35.570822","timemodified":"2009-10-07 12:36:15","visibility":"public","showfootprint":"on","showembodied":"on","showtransport":"on","showprocess":"on","showendoflife":"on","showlastleg":"on","showuse":"on","showstats":"on","stops":{"origin":{"related_to":"684","part_or_object":"o","notes":"","placename":"Santa Monica, CA, USA","id":"121","category":"1","lat":"34.0194543","lon":"-118.4911912","name":"origin","hops":{"incoming":[{"transport_id":"16","id":"776","transport_name":"air, freight, intercontinental","transport_description":"intercontinental freight","transport_unit":"kg km","transport_co2_eq":"0.450000","from_stop_id":"3027","from_stop_lat":"35.86166","from_stop_lon":"104.195397","to_stop_id":"121","to_stop_name":"origin","to_stop_lat":"34.0194543","placename":"China","to_stop_lon":"-118.4911912","to_stop":{"id":"121","name":"origin","lat":"34.0194543","placename":"Santa Monica, CA, USA","lon":"-118.4911912"},"from_stop":{"name":"origin","id":"3027","lat":"35.86166","lon":"104.195397","placename":"China"}},{"transport_id":"16","id":"777","transport_name":"air, freight, intercontinental","transport_description":"intercontinental freight","transport_unit":"kg km","transport_co2_eq":"0.450000","from_stop_id":"3028","from_stop_lat":"35.86166","from_stop_lon":"104.195397","to_stop_id":"121","to_stop_name":"origin","to_stop_lat":"34.0194543","placename":"China","to_stop_lon":"-118.4911912","to_stop":{"id":"121","name":"origin","lat":"34.0194543","placename":"Santa Monica, CA, USA","lon":"-118.4911912"},"from_stop":{"name":"origin","id":"3028","lat":"35.86166","lon":"104.195397","placename":"China"}},{"transport_id":"16","id":"778","transport_name":"air, freight, intercontinental","transport_description":"intercontinental freight","transport_unit":"kg km","transport_co2_eq":"0.450000","from_stop_id":"3029","from_stop_lat":"35.86166","from_stop_lon":"104.195397","to_stop_id":"121","to_stop_name":"origin","to_stop_lat":"34.0194543","placename":"China","to_stop_lon":"-118.4911912","to_stop":{"id":"121","name":"origin","lat":"34.0194543","placename":"Santa Monica, CA, USA","lon":"-118.4911912"},"from_stop":{"name":"origin","id":"3029","lat":"35.86166","lon":"104.195397","placename":"China"}},{"transport_id":"16","id":"779","transport_name":"air, freight, intercontinental","transport_description":"intercontinental freight","transport_unit":"kg km","transport_co2_eq":"0.450000","from_stop_id":"3030","from_stop_lat":"35.86166","from_stop_lon":"104.195397","to_stop_id":"121","to_stop_name":"origin","to_stop_lat":"34.0194543","placename":"China","to_stop_lon":"-118.4911912","to_stop":{"id":"121","name":"origin","lat":"34.0194543","placename":"Santa Monica, CA, USA","lon":"-118.4911912"},"from_stop":{"name":"origin","id":"3030","lat":"35.86166","lon":"104.195397","placename":"China"}},{"transport_id":"16","id":"780","transport_name":"air, freight, intercontinental","transport_description":"intercontinental freight","transport_unit":"kg km","transport_co2_eq":"0.450000","from_stop_id":"3031","from_stop_lat":"35.86166","from_stop_lon":"104.195397","to_stop_id":"121","to_stop_name":"origin","to_stop_lat":"34.0194543","placename":"China","to_stop_lon":"-118.4911912","to_stop":{"id":"121","name":"origin","lat":"34.0194543","placename":"Santa Monica, CA, USA","lon":"-118.4911912"},"from_stop":{"name":"origin","id":"3031","lat":"35.86166","lon":"104.195397","placename":"China"}},{"transport_id":"16","id":"781","transport_name":"air, freight, intercontinental","transport_description":"intercontinental freight","transport_unit":"kg km","transport_co2_eq":"0.450000","from_stop_id":"3032","from_stop_lat":"35.86166","from_stop_lon":"104.195397","to_stop_id":"121","to_stop_name":"origin","to_stop_lat":"34.0194543","placename":"China","to_stop_lon":"-118.4911912","to_stop":{"id":"121","name":"origin","lat":"34.0194543","placename":"Santa Monica, CA, USA","lon":"-118.4911912"},"from_stop":{"name":"origin","id":"3032","lat":"35.86166","lon":"104.195397","placename":"China"}},{"transport_id":"16","id":"782","transport_name":"air, freight, intercontinental","transport_description":"intercontinental freight","transport_unit":"kg km","transport_co2_eq":"0.450000","from_stop_id":"3033","from_stop_lat":"35.86166","from_stop_lon":"104.195397","to_stop_id":"121","to_stop_name":"origin","to_stop_lat":"34.0194543","placename":"China","to_stop_lon":"-118.4911912","to_stop":{"id":"121","name":"origin","lat":"34.0194543","placename":"Santa Monica, CA, USA","lon":"-118.4911912"},"from_stop":{"name":"origin","id":"3033","lat":"35.86166","lon":"104.195397","placename":"China"}}],"outgoing":[]}}},"parts":[{"oid":"684","imid":"953","linkid":"","weight":"0.02","rawemissions":"0.47","emissions":"0.01","shipping":"11082.5","processemissions":null,"endoflifeemissions":null,"disposaltype":null,"disposalenergy":null,"disposalimpact":null,"disposalemissions":null,"description":"Corrugated cardboard from wood","name":"Cardboard virgin","id":"953","stops":{"origin":{"related_to":"953","part_or_object":"p","notes":"","placename":"China","id":3027,"name":"origin","lat":"35.86166","lon":"104.195397","hops":{"incoming":[],"outgoing":[{"transport_id":"16","id":"776","transport_name":"air, freight, intercontinental","transport_description":"intercontinental freight","transport_unit":"kg km","transport_co2_eq":"0.450000","from_stop_id":"3027","from_stop_lat":"35.86166","from_stop_lon":"104.195397","from_stop_placename":"China","to_stop_id":"121","to_stop_name":"origin","to_stop_lat":"34.0194543","to_stop_lon":"-118.4911912","to_stop_placename":"Santa Monica, CA, USA","to_stop":{"id":"121","name":"origin","lat":"34.0194543","lon":"-118.4911912","placename":"Santa Monica, CA, USA"},"from_stop":{"name":"origin","id":"3027","lat":"35.86166","lon":"104.195397","placename":"China"}}]}}},"processes":[],"eols":[]},{"oid":"684","imid":"954","linkid":"","weight":"0.0001","rawemissions":"0","emissions":"0","shipping":"11082.5","processemissions":null,"endoflifeemissions":null,"disposaltype":null,"disposalenergy":null,"disposalimpact":null,"disposalemissions":null,"description":"","name":"Clay ","id":"954","stops":{"origin":{"related_to":"954","part_or_object":"p","notes":"","placename":"China","id":3028,"name":"origin","lat":"35.86166","lon":"104.195397","hops":{"incoming":[],"outgoing":[{"transport_id":"16","id":"777","transport_name":"air, freight, intercontinental","transport_description":"intercontinental freight","transport_unit":"kg km","transport_co2_eq":"0.450000","from_stop_id":"3028","from_stop_lat":"35.86166","from_stop_lon":"104.195397","from_stop_placename":"China","to_stop_id":"121","to_stop_name":"origin","to_stop_lat":"34.0194543","to_stop_lon":"-118.4911912","to_stop_placename":"Santa Monica, CA, USA","to_stop":{"id":"121","name":"origin","lat":"34.0194543","lon":"-118.4911912","placename":"Santa Monica, CA, USA"},"from_stop":{"name":"origin","id":"3028","lat":"35.86166","lon":"104.195397","placename":"China"}}]}}},"processes":[],"eols":[]},{"oid":"684","imid":"955","linkid":"","weight":"0.04","rawemissions":"0.47","emissions":"0.02","shipping":"11082.5","processemissions":null,"endoflifeemissions":null,"disposaltype":null,"disposalenergy":null,"disposalimpact":null,"disposalemissions":null,"description":"Corrugated cardboard from wood","name":"Incense Cedar Wood","id":"955","stops":{"origin":{"related_to":"955","part_or_object":"p","notes":"","placename":"China","id":3029,"name":"origin","lat":"35.86166","lon":"104.195397","hops":{"incoming":[],"outgoing":[{"transport_id":"16","id":"778","transport_name":"air, freight, intercontinental","transport_description":"intercontinental freight","transport_unit":"kg km","transport_co2_eq":"0.450000","from_stop_id":"3029","from_stop_lat":"35.86166","from_stop_lon":"104.195397","from_stop_placename":"China","to_stop_id":"121","to_stop_name":"origin","to_stop_lat":"34.0194543","to_stop_lon":"-118.4911912","to_stop_placename":"Santa Monica, CA, USA","to_stop":{"id":"121","name":"origin","lat":"34.0194543","lon":"-118.4911912","placename":"Santa Monica, CA, USA"},"from_stop":{"name":"origin","id":"3029","lat":"35.86166","lon":"104.195397","placename":"China"}}]}}},"processes":[],"eols":[]},{"oid":"684","imid":"956","linkid":"","weight":"0.01","rawemissions":"1.7","emissions":"0.02","shipping":"11082.5","processemissions":null,"endoflifeemissions":null,"disposaltype":null,"disposalenergy":null,"disposalimpact":null,"disposalemissions":null,"description":"pigment","name":"carbon black","id":"956","stops":{"origin":{"related_to":"956","part_or_object":"p","notes":"","placename":"China","id":3030,"name":"origin","lat":"35.86166","lon":"104.195397","hops":{"incoming":[],"outgoing":[{"transport_id":"16","id":"779","transport_name":"air, freight, intercontinental","transport_description":"intercontinental freight","transport_unit":"kg km","transport_co2_eq":"0.450000","from_stop_id":"3030","from_stop_lat":"35.86166","from_stop_lon":"104.195397","from_stop_placename":"China","to_stop_id":"121","to_stop_name":"origin","to_stop_lat":"34.0194543","to_stop_lon":"-118.4911912","to_stop_placename":"Santa Monica, CA, USA","to_stop":{"id":"121","name":"origin","lat":"34.0194543","lon":"-118.4911912","placename":"Santa Monica, CA, USA"},"from_stop":{"name":"origin","id":"3030","lat":"35.86166","lon":"104.195397","placename":"China"}}]}}},"processes":[],"eols":[]},{"oid":"684","imid":"957","linkid":"","weight":"0.01","rawemissions":"3.6","emissions":"0.04","shipping":"11082.5","processemissions":null,"endoflifeemissions":null,"disposaltype":null,"disposalenergy":null,"disposalimpact":null,"disposalemissions":null,"description":"Average of aluminum alloys","name":"Aluminum typical","id":"957","stops":{"origin":{"related_to":"957","part_or_object":"p","notes":"","placename":"China","id":3031,"name":"origin","lat":"35.86166","lon":"104.195397","hops":{"incoming":[],"outgoing":[{"transport_id":"16","id":"780","transport_name":"air, freight, intercontinental","transport_description":"intercontinental freight","transport_unit":"kg km","transport_co2_eq":"0.450000","from_stop_id":"3031","from_stop_lat":"35.86166","from_stop_lon":"104.195397","from_stop_placename":"China","to_stop_id":"121","to_stop_name":"origin","to_stop_lat":"34.0194543","to_stop_lon":"-118.4911912","to_stop_placename":"Santa Monica, CA, USA","to_stop":{"id":"121","name":"origin","lat":"34.0194543","lon":"-118.4911912","placename":"Santa Monica, CA, USA"},"from_stop":{"name":"origin","id":"3031","lat":"35.86166","lon":"104.195397","placename":"China"}}]}}},"processes":[],"eols":[]},{"oid":"684","imid":"958","linkid":"","weight":"0.01","rawemissions":"1.3","emissions":"0.01","shipping":"11083.7","processemissions":null,"endoflifeemissions":null,"disposaltype":null,"disposalenergy":null,"disposalimpact":null,"disposalemissions":null,"description":"ethylene propylene diene rubber","name":"EPDM elastomer","id":"958","stops":{"origin":{"related_to":"958","part_or_object":"p","notes":"","placename":"China","id":3032,"name":"origin","lat":"35.86166","lon":"104.195397","hops":{"incoming":[],"outgoing":[{"transport_id":"16","id":"781","transport_name":"air, freight, intercontinental","transport_description":"intercontinental freight","transport_unit":"kg km","transport_co2_eq":"0.450000","from_stop_id":"3032","from_stop_lat":"35.86166","from_stop_lon":"104.195397","from_stop_placename":"China","to_stop_id":"121","to_stop_name":"origin","to_stop_lat":"34.0194543","to_stop_lon":"-118.4911912","to_stop_placename":"Santa Monica, CA, USA","to_stop":{"id":"121","name":"origin","lat":"34.0194543","lon":"-118.4911912","placename":"Santa Monica, CA, USA"},"from_stop":{"name":"origin","id":"3032","lat":"35.86166","lon":"104.195397","placename":"China"}}]}}},"processes":[],"eols":[]},{"oid":"684","imid":"959","linkid":"","weight":"0.001","rawemissions":"0","emissions":"0","shipping":"11082.5","processemissions":null,"endoflifeemissions":null,"disposaltype":null,"disposalenergy":null,"disposalimpact":null,"disposalemissions":null,"description":"","name":"Factice","id":"959","stops":{"origin":{"related_to":"959","part_or_object":"p","notes":"","placename":"China","id":3033,"name":"origin","lat":"35.86166","lon":"104.195397","hops":{"incoming":[],"outgoing":[{"transport_id":"16","id":"782","transport_name":"air, freight, intercontinental","transport_description":"intercontinental freight","transport_unit":"kg km","transport_co2_eq":"0.450000","from_stop_id":"3033","from_stop_lat":"35.86166","from_stop_lon":"104.195397","from_stop_placename":"China","to_stop_id":"121","to_stop_name":"origin","to_stop_lat":"34.0194543","to_stop_lon":"-118.4911912","to_stop_placename":"Santa Monica, CA, USA","to_stop":{"id":"121","name":"origin","lat":"34.0194543","lon":"-118.4911912","placename":"Santa Monica, CA, USA"},"from_stop":{"name":"origin","id":"3033","lat":"35.86166","lon":"104.195397","placename":"China"}}]}}},"processes":[],"eols":[]}],"user":{"name":"toddreily","id":"6176"}}}