{"690":{"oid":"690","type":"object","flag":"","creator":"6335","name":"Recurve Bow (Archery)","upc":"","imagelink":"","description":"A recurve bow is one a the few types of bows used in competitive archery.  The limbs can be made of full wood, but nowadays they are often made of a wood, carbon composite.  The riser is made of aluminum.","slug":"recurve-bow-archery","category":"","weight":"1.36","emissions":"4.39419","embodied":"4.38","transport":"0.014188","process":"0","endoflife":"0","shipping":"6372.18","lifetime":"0","usagetype":"","usageenergy":"0","usageemissions":"0","timecreated":"2010-02-24 22:03:35.57235","timemodified":"2009-10-07 18:01:45","visibility":"public","showfootprint":"on","showembodied":"on","showtransport":"on","showprocess":"on","showendoflife":"on","showlastleg":"on","showuse":"on","showstats":"on","stops":{"origin":{"related_to":"690","part_or_object":"o","notes":"","placename":"South Korea","id":"122","category":"1","lat":"35.907757","lon":"127.766922","name":"origin","hops":{"incoming":[{"transport_id":"10","id":"790","transport_name":"train, freight","transport_description":"diesel freight locomotive","transport_unit":"kg km","transport_co2_eq":"0.005600","from_stop_id":"3041","from_stop_lat":"22.543447","from_stop_lon":"114.057818","to_stop_id":"122","to_stop_name":"origin","to_stop_lat":"35.907757","placename":"Shenzhen, Guangdong, China","to_stop_lon":"127.766922","to_stop":{"id":"122","name":"origin","lat":"35.907757","placename":"South Korea","lon":"127.766922"},"from_stop":{"name":"origin","id":"3041","lat":"22.543447","lon":"114.057818","placename":"Shenzhen, Guangdong, China"}},{"transport_id":"3","id":"792","transport_name":"truck, 40 tons","transport_description":"truck, half full","transport_unit":"kg km","transport_co2_eq":"0.030900","from_stop_id":"3043","from_stop_lat":"22.543447","from_stop_lon":"114.057818","to_stop_id":"122","to_stop_name":"origin","to_stop_lat":"35.907757","placename":"Shenzhen, Guangdong, China","to_stop_lon":"127.766922","to_stop":{"id":"122","name":"origin","lat":"35.907757","placename":"South Korea","lon":"127.766922"},"from_stop":{"name":"origin","id":"3043","lat":"22.543447","lon":"114.057818","placename":"Shenzhen, Guangdong, China"}},{"transport_id":"2","id":"793","transport_name":"truck, 16 tons","transport_description":"truck, half full","transport_unit":"kg km","transport_co2_eq":"0.020300","from_stop_id":"3044","from_stop_lat":"37.566535","from_stop_lon":"126.9779692","to_stop_id":"122","to_stop_name":"origin","to_stop_lat":"35.907757","placename":"Seoul, South Korea","to_stop_lon":"127.766922","to_stop":{"id":"122","name":"origin","lat":"35.907757","placename":"South Korea","lon":"127.766922"},"from_stop":{"name":"origin","id":"3044","lat":"37.566535","lon":"126.9779692","placename":"Seoul, South Korea"}},{"transport_id":"10","id":"794","transport_name":"train, freight","transport_description":"diesel freight locomotive","transport_unit":"kg km","transport_co2_eq":"0.005600","from_stop_id":"3045","from_stop_lat":"22.543447","from_stop_lon":"114.057818","to_stop_id":"122","to_stop_name":"origin","to_stop_lat":"35.907757","placename":"Shenzhen, Guangdong, China","to_stop_lon":"127.766922","to_stop":{"id":"122","name":"origin","lat":"35.907757","placename":"South Korea","lon":"127.766922"},"from_stop":{"name":"origin","id":"3045","lat":"22.543447","lon":"114.057818","placename":"Shenzhen, Guangdong, China"}},{"transport_id":"17","id":"791","transport_name":"None Selected","transport_description":null,"transport_unit":"kg km","transport_co2_eq":"0.000000","from_stop_id":"3042","from_stop_lat":"37.566535","from_stop_lon":"126.9779692","to_stop_id":"122","to_stop_name":"origin","to_stop_lat":"35.907757","placename":"Seoul, South Korea","to_stop_lon":"127.766922","to_stop":{"id":"122","name":"origin","lat":"35.907757","placename":"South Korea","lon":"127.766922"},"from_stop":{"name":"origin","id":"3042","lat":"37.566535","lon":"126.9779692","placename":"Seoul, South Korea"}}],"outgoing":[]}}},"parts":[{"oid":"690","imid":"966","linkid":"","weight":"1","rawemissions":"3.6","emissions":"3.6","shipping":"1992.32","processemissions":null,"endoflifeemissions":null,"disposaltype":null,"disposalenergy":null,"disposalimpact":null,"disposalemissions":null,"description":"Average of aluminum alloys\n\nRISER","name":"Aluminum typical","id":"966","stops":{"origin":{"related_to":"966","part_or_object":"p","notes":"","placename":"Shenzhen, Guangdong, China","id":3041,"name":"origin","lat":"22.543447","lon":"114.057818","hops":{"incoming":[],"outgoing":[{"transport_id":"10","id":"790","transport_name":"train, freight","transport_description":"diesel freight locomotive","transport_unit":"kg km","transport_co2_eq":"0.005600","from_stop_id":"3041","from_stop_lat":"22.543447","from_stop_lon":"114.057818","from_stop_placename":"Shenzhen, Guangdong, China","to_stop_id":"122","to_stop_name":"origin","to_stop_lat":"35.907757","to_stop_lon":"127.766922","to_stop_placename":"South Korea","to_stop":{"id":"122","name":"origin","lat":"35.907757","lon":"127.766922","placename":"South Korea"},"from_stop":{"name":"origin","id":"3041","lat":"22.543447","lon":"114.057818","placename":"Shenzhen, Guangdong, China"}}]}}},"processes":[],"eols":[]},{"oid":"690","imid":"967","linkid":"","weight":"0.1","rawemissions":"5.7","emissions":"0.57","shipping":"197.61","processemissions":null,"endoflifeemissions":null,"disposaltype":null,"disposalenergy":null,"disposalimpact":null,"disposalemissions":null,"description":"carbon fiber for composites\n\nLIMBS","name":"carbon fiber","id":"967","stops":{"origin":{"related_to":"967","part_or_object":"p","notes":"","placename":"Seoul, South Korea","id":3042,"name":"origin","lat":"37.566535","lon":"126.9779692","hops":{"incoming":[],"outgoing":[{"transport_id":"17","id":"791","transport_name":"None Selected","transport_description":null,"transport_unit":"kg km","transport_co2_eq":"0.000000","from_stop_id":"3042","from_stop_lat":"37.566535","from_stop_lon":"126.9779692","from_stop_placename":"Seoul, South Korea","to_stop_id":"122","to_stop_name":"origin","to_stop_lat":"35.907757","to_stop_lon":"127.766922","to_stop_placename":"South Korea","to_stop":{"id":"122","name":"origin","lat":"35.907757","lon":"127.766922","placename":"South Korea"},"from_stop":{"name":"origin","id":"3042","lat":"37.566535","lon":"126.9779692","placename":"Seoul, South Korea"}}]}}},"processes":[],"eols":[]},{"oid":"690","imid":"968","linkid":"","weight":"0.01","rawemissions":"4.6","emissions":"0.05","shipping":"1992.32","processemissions":null,"endoflifeemissions":null,"disposaltype":null,"disposalenergy":null,"disposalimpact":null,"disposalemissions":null,"description":"Polyamide 6 aka Nylon\n\nSTRING","name":"Nylon 6","id":"968","stops":{"origin":{"related_to":"968","part_or_object":"p","notes":"","placename":"Shenzhen, Guangdong, China","id":3043,"name":"origin","lat":"22.543447","lon":"114.057818","hops":{"incoming":[],"outgoing":[{"transport_id":"3","id":"792","transport_name":"truck, 40 tons","transport_description":"truck, half full","transport_unit":"kg km","transport_co2_eq":"0.030900","from_stop_id":"3043","from_stop_lat":"22.543447","from_stop_lon":"114.057818","from_stop_placename":"Shenzhen, Guangdong, China","to_stop_id":"122","to_stop_name":"origin","to_stop_lat":"35.907757","to_stop_lon":"127.766922","to_stop_placename":"South Korea","to_stop":{"id":"122","name":"origin","lat":"35.907757","lon":"127.766922","placename":"South Korea"},"from_stop":{"name":"origin","id":"3043","lat":"22.543447","lon":"114.057818","placename":"Shenzhen, Guangdong, China"}}]}}},"processes":[],"eols":[]},{"oid":"690","imid":"969","linkid":"","weight":"0.2","rawemissions":"0.31","emissions":"0.06","shipping":"197.61","processemissions":null,"endoflifeemissions":null,"disposaltype":null,"disposalenergy":null,"disposalimpact":null,"disposalemissions":null,"description":"Solid ash wood\n\nRISER\/BOW","name":"Ash wood","id":"969","stops":{"origin":{"related_to":"969","part_or_object":"p","notes":"","placename":"Seoul, South Korea","id":3044,"name":"origin","lat":"37.566535","lon":"126.9779692","hops":{"incoming":[],"outgoing":[{"transport_id":"2","id":"793","transport_name":"truck, 16 tons","transport_description":"truck, half full","transport_unit":"kg km","transport_co2_eq":"0.020300","from_stop_id":"3044","from_stop_lat":"37.566535","from_stop_lon":"126.9779692","from_stop_placename":"Seoul, South Korea","to_stop_id":"122","to_stop_name":"origin","to_stop_lat":"35.907757","to_stop_lon":"127.766922","to_stop_placename":"South Korea","to_stop":{"id":"122","name":"origin","lat":"35.907757","lon":"127.766922","placename":"South Korea"},"from_stop":{"name":"origin","id":"3044","lat":"37.566535","lon":"126.9779692","placename":"Seoul, South Korea"}}]}}},"processes":[],"eols":[]},{"oid":"690","imid":"1085","linkid":"","weight":"0.05","rawemissions":"2.08","emissions":"0.1","shipping":"1992.32","processemissions":null,"endoflifeemissions":null,"disposaltype":null,"disposalenergy":null,"disposalimpact":null,"disposalemissions":null,"description":"Virgin low alloy steel\n\nHARDWARE","name":"Virgin Steel","id":"1085","stops":{"origin":{"related_to":"1085","part_or_object":"p","notes":"","placename":"Shenzhen, Guangdong, China","id":3045,"name":"origin","lat":"22.543447","lon":"114.057818","hops":{"incoming":[],"outgoing":[{"transport_id":"10","id":"794","transport_name":"train, freight","transport_description":"diesel freight locomotive","transport_unit":"kg km","transport_co2_eq":"0.005600","from_stop_id":"3045","from_stop_lat":"22.543447","from_stop_lon":"114.057818","from_stop_placename":"Shenzhen, Guangdong, China","to_stop_id":"122","to_stop_name":"origin","to_stop_lat":"35.907757","to_stop_lon":"127.766922","to_stop_placename":"South Korea","to_stop":{"id":"122","name":"origin","lat":"35.907757","lon":"127.766922","placename":"South Korea"},"from_stop":{"name":"origin","id":"3045","lat":"22.543447","lon":"114.057818","placename":"Shenzhen, Guangdong, China"}}]}}},"processes":[],"eols":[]}],"user":{"name":"mberns","id":"6335"}}}