{"740":{"oid":"740","type":"object","flag":"","creator":"6154","name":"Nike Air Max 180","upc":"","imagelink":"","description":"Nike makes many claims to be progressive in \"green materials\" and \"sustainability\".  In the past, many allegations of labor abuse have come up and they seem to be taking a proactive approach to eliminating this as well as to make a conscious effort to use quality materials in at least some of their shoes.  They happen to be my favorite type of shoes and I am taking apart one of my older pairs to see if I can find whether or not they are living up to their claims. ","slug":"nike-air-max-180","category":"","weight":"1.59338","emissions":"5.13242","embodied":"3.1","transport":"2.03242","process":"0","endoflife":"0","shipping":"33519.4","lifetime":"0","usagetype":"","usageenergy":"0","usageemissions":"0","timecreated":"2010-02-24 22:03:35.5814","timemodified":"2009-10-06 21:11:19","visibility":"public","showfootprint":"on","showembodied":"on","showtransport":"on","showprocess":"on","showendoflife":"on","showlastleg":"on","showuse":"on","showstats":"on","stops":{"origin":{"related_to":"740","part_or_object":"o","notes":"","placename":"Vietnam","id":"128","category":"1","lat":"14.058324","lon":"108.277199","name":"origin","hops":{"incoming":[{"transport_id":"16","id":"806","transport_name":"air, freight, intercontinental","transport_description":"intercontinental freight","transport_unit":"kg km","transport_co2_eq":"0.450000","from_stop_id":"3057","from_stop_lat":"-38.416097","from_stop_lon":"-63.616672","to_stop_id":"128","to_stop_name":"origin","to_stop_lat":"14.058324","placename":"Argentina","to_stop_lon":"108.277199","to_stop":{"id":"128","name":"origin","lat":"14.058324","placename":"Vietnam","lon":"108.277199"},"from_stop":{"name":"origin","id":"3057","lat":"-38.416097","lon":"-63.616672","placename":"Argentina"}},{"transport_id":"10","id":"807","transport_name":"train, freight","transport_description":"diesel freight locomotive","transport_unit":"kg km","transport_co2_eq":"0.005600","from_stop_id":"3058","from_stop_lat":"35.86166","from_stop_lon":"104.195397","to_stop_id":"128","to_stop_name":"origin","to_stop_lat":"14.058324","placename":"China","to_stop_lon":"108.277199","to_stop":{"id":"128","name":"origin","lat":"14.058324","placename":"Vietnam","lon":"108.277199"},"from_stop":{"name":"origin","id":"3058","lat":"35.86166","lon":"104.195397","placename":"China"}},{"transport_id":"12","id":"808","transport_name":"train, long-distance","transport_description":"> 640 km, diesel, kg km from person-km","transport_unit":"kg km","transport_co2_eq":"0.043500","from_stop_id":"3059","from_stop_lat":"35.86166","from_stop_lon":"104.195397","to_stop_id":"128","to_stop_name":"origin","to_stop_lat":"14.058324","placename":"China","to_stop_lon":"108.277199","to_stop":{"id":"128","name":"origin","lat":"14.058324","placename":"Vietnam","lon":"108.277199"},"from_stop":{"name":"origin","id":"3059","lat":"35.86166","lon":"104.195397","placename":"China"}},{"transport_id":"12","id":"809","transport_name":"train, long-distance","transport_description":"> 640 km, diesel, kg km from person-km","transport_unit":"kg km","transport_co2_eq":"0.043500","from_stop_id":"3060","from_stop_lat":"35.86166","from_stop_lon":"104.195397","to_stop_id":"128","to_stop_name":"origin","to_stop_lat":"14.058324","placename":"China","to_stop_lon":"108.277199","to_stop":{"id":"128","name":"origin","lat":"14.058324","placename":"Vietnam","lon":"108.277199"},"from_stop":{"name":"origin","id":"3060","lat":"35.86166","lon":"104.195397","placename":"China"}},{"transport_id":"12","id":"811","transport_name":"train, long-distance","transport_description":"> 640 km, diesel, kg km from person-km","transport_unit":"kg km","transport_co2_eq":"0.043500","from_stop_id":"3062","from_stop_lat":"35.86166","from_stop_lon":"104.195397","to_stop_id":"128","to_stop_name":"origin","to_stop_lat":"14.058324","placename":"China","to_stop_lon":"108.277199","to_stop":{"id":"128","name":"origin","lat":"14.058324","placename":"Vietnam","lon":"108.277199"},"from_stop":{"name":"origin","id":"3062","lat":"35.86166","lon":"104.195397","placename":"China"}},{"transport_id":"12","id":"812","transport_name":"train, long-distance","transport_description":"> 640 km, diesel, kg km from person-km","transport_unit":"kg km","transport_co2_eq":"0.043500","from_stop_id":"3063","from_stop_lat":"15.870032","from_stop_lon":"100.992541","to_stop_id":"128","to_stop_name":"origin","to_stop_lat":"14.058324","placename":"Thailand","to_stop_lon":"108.277199","to_stop":{"id":"128","name":"origin","lat":"14.058324","placename":"Vietnam","lon":"108.277199"},"from_stop":{"name":"origin","id":"3063","lat":"15.870032","lon":"100.992541","placename":"Thailand"}},{"transport_id":"16","id":"813","transport_name":"air, freight, intercontinental","transport_description":"intercontinental freight","transport_unit":"kg km","transport_co2_eq":"0.450000","from_stop_id":"3064","from_stop_lat":"14.058324","from_stop_lon":"108.277199","to_stop_id":"128","to_stop_name":"origin","to_stop_lat":"14.058324","placename":"Vietnam","to_stop_lon":"108.277199","to_stop":{"id":"128","name":"origin","lat":"14.058324","placename":"Vietnam","lon":"108.277199"},"from_stop":{"name":"origin","id":"3064","lat":"14.058324","lon":"108.277199","placename":"Vietnam"}},{"transport_id":"16","id":"814","transport_name":"air, freight, intercontinental","transport_description":"intercontinental freight","transport_unit":"kg km","transport_co2_eq":"0.450000","from_stop_id":"3065","from_stop_lat":"20.593684","from_stop_lon":"78.96288","to_stop_id":"128","to_stop_name":"origin","to_stop_lat":"14.058324","placename":"India","to_stop_lon":"108.277199","to_stop":{"id":"128","name":"origin","lat":"14.058324","placename":"Vietnam","lon":"108.277199"},"from_stop":{"name":"origin","id":"3065","lat":"20.593684","lon":"78.96288","placename":"India"}},{"transport_id":"17","id":"810","transport_name":"None Selected","transport_description":null,"transport_unit":"kg km","transport_co2_eq":"0.000000","from_stop_id":"3061","from_stop_lat":"35.86166","from_stop_lon":"104.195397","to_stop_id":"128","to_stop_name":"origin","to_stop_lat":"14.058324","placename":"China","to_stop_lon":"108.277199","to_stop":{"id":"128","name":"origin","lat":"14.058324","placename":"Vietnam","lon":"108.277199"},"from_stop":{"name":"origin","id":"3061","lat":"35.86166","lon":"104.195397","placename":"China"}}],"outgoing":[]}}},"parts":[{"oid":"740","imid":"988","linkid":"","weight":"0.226796","rawemissions":"0.27","emissions":"0.06","shipping":"17210.9","processemissions":null,"endoflifeemissions":null,"disposaltype":null,"disposalenergy":null,"disposalimpact":null,"disposalemissions":null,"description":"chrome processed","name":"Leather","id":"988","stops":{"origin":{"related_to":"988","part_or_object":"p","notes":"","placename":"Argentina","id":3057,"name":"origin","lat":"-38.416097","lon":"-63.616672","hops":{"incoming":[],"outgoing":[{"transport_id":"16","id":"806","transport_name":"air, freight, intercontinental","transport_description":"intercontinental freight","transport_unit":"kg km","transport_co2_eq":"0.450000","from_stop_id":"3057","from_stop_lat":"-38.416097","from_stop_lon":"-63.616672","from_stop_placename":"Argentina","to_stop_id":"128","to_stop_name":"origin","to_stop_lat":"14.058324","to_stop_lon":"108.277199","to_stop_placename":"Vietnam","to_stop":{"id":"128","name":"origin","lat":"14.058324","lon":"108.277199","placename":"Vietnam"},"from_stop":{"name":"origin","id":"3057","lat":"-38.416097","lon":"-63.616672","placename":"Argentina"}}]}}},"processes":[],"eols":[]},{"oid":"740","imid":"989","linkid":"","weight":"0.1134","rawemissions":"3.5","emissions":"0.4","shipping":"2461.15","processemissions":null,"endoflifeemissions":null,"disposaltype":null,"disposalenergy":null,"disposalimpact":null,"disposalemissions":null,"description":"chemical intensive cultivation","name":"Cotton fabric","id":"989","stops":{"origin":{"related_to":"989","part_or_object":"p","notes":"","placename":"China","id":3058,"name":"origin","lat":"35.86166","lon":"104.195397","hops":{"incoming":[],"outgoing":[{"transport_id":"10","id":"807","transport_name":"train, freight","transport_description":"diesel freight locomotive","transport_unit":"kg km","transport_co2_eq":"0.005600","from_stop_id":"3058","from_stop_lat":"35.86166","from_stop_lon":"104.195397","from_stop_placename":"China","to_stop_id":"128","to_stop_name":"origin","to_stop_lat":"14.058324","to_stop_lon":"108.277199","to_stop_placename":"Vietnam","to_stop":{"id":"128","name":"origin","lat":"14.058324","lon":"108.277199","placename":"Vietnam"},"from_stop":{"name":"origin","id":"3058","lat":"35.86166","lon":"104.195397","placename":"China"}}]}}},"processes":[],"eols":[]},{"oid":"740","imid":"990","linkid":"","weight":"0.046","rawemissions":"1.7","emissions":"0.08","shipping":"2461.15","processemissions":null,"endoflifeemissions":null,"disposaltype":null,"disposalenergy":null,"disposalimpact":null,"disposalemissions":null,"description":"pigment used in the creation of the BRS 1000 durable rubber outsole","name":"carbon black","id":"990","stops":{"origin":{"related_to":"990","part_or_object":"p","notes":"","placename":"China","id":3059,"name":"origin","lat":"35.86166","lon":"104.195397","hops":{"incoming":[],"outgoing":[{"transport_id":"12","id":"808","transport_name":"train, long-distance","transport_description":"> 640 km, diesel, kg km from person-km","transport_unit":"kg km","transport_co2_eq":"0.043500","from_stop_id":"3059","from_stop_lat":"35.86166","from_stop_lon":"104.195397","from_stop_placename":"China","to_stop_id":"128","to_stop_name":"origin","to_stop_lat":"14.058324","to_stop_lon":"108.277199","to_stop_placename":"Vietnam","to_stop":{"id":"128","name":"origin","lat":"14.058324","lon":"108.277199","placename":"Vietnam"},"from_stop":{"name":"origin","id":"3059","lat":"35.86166","lon":"104.195397","placename":"China"}}]}}},"processes":[],"eols":[]},{"oid":"740","imid":"991","linkid":"","weight":"0.34019","rawemissions":"0.82","emissions":"0.28","shipping":"2461.15","processemissions":null,"endoflifeemissions":null,"disposaltype":null,"disposalenergy":null,"disposalimpact":null,"disposalemissions":null,"description":"Ethylene vinyl acetate is used for the EVA midsole.  Nike has recently recycled old midsoles in their \"grind\" program to make new midsole material and sock liners","name":"EVA","id":"991","stops":{"origin":{"related_to":"991","part_or_object":"p","notes":"","placename":"China","id":3060,"name":"origin","lat":"35.86166","lon":"104.195397","hops":{"incoming":[],"outgoing":[{"transport_id":"12","id":"809","transport_name":"train, long-distance","transport_description":"> 640 km, diesel, kg km from person-km","transport_unit":"kg km","transport_co2_eq":"0.043500","from_stop_id":"3060","from_stop_lat":"35.86166","from_stop_lon":"104.195397","from_stop_placename":"China","to_stop_id":"128","to_stop_name":"origin","to_stop_lat":"14.058324","to_stop_lon":"108.277199","to_stop_placename":"Vietnam","to_stop":{"id":"128","name":"origin","lat":"14.058324","lon":"108.277199","placename":"Vietnam"},"from_stop":{"name":"origin","id":"3060","lat":"35.86166","lon":"104.195397","placename":"China"}}]}}},"processes":[],"eols":[]},{"oid":"740","imid":"992","linkid":"","weight":"0.34019","rawemissions":"2.76","emissions":"0.94","shipping":"2461.15","processemissions":null,"endoflifeemissions":null,"disposaltype":null,"disposalenergy":null,"disposalimpact":null,"disposalemissions":null,"description":"polybutadiene synthetic rubber: this is the synthetic rubber material that is combined with carbon black to make the brs 1000...i think.","name":"PBR elastomer","id":"992","stops":{"origin":{"related_to":"992","part_or_object":"p","notes":"","placename":"China","id":3061,"name":"origin","lat":"35.86166","lon":"104.195397","hops":{"incoming":[],"outgoing":[{"transport_id":"17","id":"810","transport_name":"None Selected","transport_description":null,"transport_unit":"kg km","transport_co2_eq":"0.000000","from_stop_id":"3061","from_stop_lat":"35.86166","from_stop_lon":"104.195397","from_stop_placename":"China","to_stop_id":"128","to_stop_name":"origin","to_stop_lat":"14.058324","to_stop_lon":"108.277199","to_stop_placename":"Vietnam","to_stop":{"id":"128","name":"origin","lat":"14.058324","lon":"108.277199","placename":"Vietnam"},"from_stop":{"name":"origin","id":"3061","lat":"35.86166","lon":"104.195397","placename":"China"}}]}}},"processes":[],"eols":[]},{"oid":"740","imid":"993","linkid":"","weight":"0.1134","rawemissions":"1.7","emissions":"0.19","shipping":"2461.15","processemissions":null,"endoflifeemissions":null,"disposaltype":null,"disposalenergy":null,"disposalimpact":null,"disposalemissions":null,"description":"polyurethane cushion foam used for cushioning of tongue and upper part of shoe.","name":"PU flexible foam","id":"993","stops":{"origin":{"related_to":"993","part_or_object":"p","notes":"","placename":"China","id":3062,"name":"origin","lat":"35.86166","lon":"104.195397","hops":{"incoming":[],"outgoing":[{"transport_id":"12","id":"811","transport_name":"train, long-distance","transport_description":"> 640 km, diesel, kg km from person-km","transport_unit":"kg km","transport_co2_eq":"0.043500","from_stop_id":"3062","from_stop_lat":"35.86166","from_stop_lon":"104.195397","from_stop_placename":"China","to_stop_id":"128","to_stop_name":"origin","to_stop_lat":"14.058324","to_stop_lon":"108.277199","to_stop_placename":"Vietnam","to_stop":{"id":"128","name":"origin","lat":"14.058324","lon":"108.277199","placename":"Vietnam"},"from_stop":{"name":"origin","id":"3062","lat":"35.86166","lon":"104.195397","placename":"China"}}]}}},"processes":[],"eols":[]},{"oid":"740","imid":"994","linkid":"","weight":"0.15","rawemissions":"1.8","emissions":"0.27","shipping":"808.89","processemissions":null,"endoflifeemissions":null,"disposaltype":null,"disposalenergy":null,"disposalimpact":null,"disposalemissions":null,"description":"polyurethane foam: insole","name":"PU rigid foam","id":"994","stops":{"origin":{"related_to":"994","part_or_object":"p","notes":"","placename":"Thailand","id":3063,"name":"origin","lat":"15.870032","lon":"100.992541","hops":{"incoming":[],"outgoing":[{"transport_id":"12","id":"812","transport_name":"train, long-distance","transport_description":"> 640 km, diesel, kg km from person-km","transport_unit":"kg km","transport_co2_eq":"0.043500","from_stop_id":"3063","from_stop_lat":"15.870032","from_stop_lon":"100.992541","from_stop_placename":"Thailand","to_stop_id":"128","to_stop_name":"origin","to_stop_lat":"14.058324","to_stop_lon":"108.277199","to_stop_placename":"Vietnam","to_stop":{"id":"128","name":"origin","lat":"14.058324","lon":"108.277199","placename":"Vietnam"},"from_stop":{"name":"origin","id":"3063","lat":"15.870032","lon":"100.992541","placename":"Thailand"}}]}}},"processes":[],"eols":[]},{"oid":"740","imid":"995","linkid":"","weight":"0.1134","rawemissions":"1.7","emissions":"0.19","shipping":"0","processemissions":null,"endoflifeemissions":null,"disposaltype":null,"disposalenergy":null,"disposalimpact":null,"disposalemissions":null,"description":"Rigid polyvinyl chloride:  This is the hot-pin part on the back of the heel.","name":"PVC rigid ","id":"995","stops":{"origin":{"related_to":"995","part_or_object":"p","notes":"","placename":"Vietnam","id":3064,"name":"origin","lat":"14.058324","lon":"108.277199","hops":{"incoming":[],"outgoing":[{"transport_id":"16","id":"813","transport_name":"air, freight, intercontinental","transport_description":"intercontinental freight","transport_unit":"kg km","transport_co2_eq":"0.450000","from_stop_id":"3064","from_stop_lat":"14.058324","from_stop_lon":"108.277199","from_stop_placename":"Vietnam","to_stop_id":"128","to_stop_name":"origin","to_stop_lat":"14.058324","to_stop_lon":"108.277199","to_stop_placename":"Vietnam","to_stop":{"id":"128","name":"origin","lat":"14.058324","lon":"108.277199","placename":"Vietnam"},"from_stop":{"name":"origin","id":"3064","lat":"14.058324","lon":"108.277199","placename":"Vietnam"}}]}}},"processes":[],"eols":[]},{"oid":"740","imid":"996","linkid":"","weight":"0.15","rawemissions":"4.6","emissions":"0.69","shipping":"3193.86","processemissions":null,"endoflifeemissions":null,"disposaltype":null,"disposalenergy":null,"disposalimpact":null,"disposalemissions":null,"description":"Polyamide 6 aka Nylon","name":"Nylon 6","id":"996","stops":{"origin":{"related_to":"996","part_or_object":"p","notes":"","placename":"India","id":3065,"name":"origin","lat":"20.593684","lon":"78.96288","hops":{"incoming":[],"outgoing":[{"transport_id":"16","id":"814","transport_name":"air, freight, intercontinental","transport_description":"intercontinental freight","transport_unit":"kg km","transport_co2_eq":"0.450000","from_stop_id":"3065","from_stop_lat":"20.593684","from_stop_lon":"78.96288","from_stop_placename":"India","to_stop_id":"128","to_stop_name":"origin","to_stop_lat":"14.058324","to_stop_lon":"108.277199","to_stop_placename":"Vietnam","to_stop":{"id":"128","name":"origin","lat":"14.058324","lon":"108.277199","placename":"Vietnam"},"from_stop":{"name":"origin","id":"3065","lat":"20.593684","lon":"78.96288","placename":"India"}}]}}},"processes":[],"eols":[]}],"user":{"name":"bbrady","id":"6154"}}}