{"760":{"oid":"760","type":"object","flag":"","creator":"6359","name":"Shoes","upc":"","imagelink":"","description":"Story of a shoe","slug":"shoes","category":"","weight":"0","emissions":"0","embodied":"0","transport":"0","process":"0","endoflife":"0","shipping":"0","lifetime":"0","usagetype":"","usageenergy":"0","usageemissions":"0","timecreated":"2010-02-24 22:03:35.585921","timemodified":"2009-10-07 02:00:03","visibility":"public","showfootprint":"on","showembodied":"on","showtransport":"on","showprocess":"on","showendoflife":"on","showlastleg":"on","showuse":"on","showstats":"on","stops":{"origin":{"related_to":"760","part_or_object":"o","notes":"","placename":"Canada","id":"131","category":"1","lat":"0","lon":"0","name":"origin","hops":{"incoming":[{"transport_id":"17","id":"789","transport_name":"None Selected","transport_description":null,"transport_unit":"kg km","transport_co2_eq":"0.000000","from_stop_id":"3040","from_stop_lat":"0","from_stop_lon":"0","to_stop_id":"131","to_stop_name":"origin","to_stop_lat":"0","placename":"Part Location","to_stop_lon":"0","to_stop":{"id":"131","name":"origin","lat":"0","placename":"Canada","lon":"0"},"from_stop":{"name":"origin","id":"3040","lat":"0","lon":"0","placename":"Part Location"}},{"transport_id":"17","id":"833","transport_name":"None Selected","transport_description":null,"transport_unit":"kg km","transport_co2_eq":"0.000000","from_stop_id":"3084","from_stop_lat":"0","from_stop_lon":"0","to_stop_id":"131","to_stop_name":"origin","to_stop_lat":"0","placename":"Part Location","to_stop_lon":"0","to_stop":{"id":"131","name":"origin","lat":"0","placename":"Canada","lon":"0"},"from_stop":{"name":"origin","id":"3084","lat":"0","lon":"0","placename":"Part Location"}},{"transport_id":"17","id":"834","transport_name":"None Selected","transport_description":null,"transport_unit":"kg km","transport_co2_eq":"0.000000","from_stop_id":"3085","from_stop_lat":"0","from_stop_lon":"0","to_stop_id":"131","to_stop_name":"origin","to_stop_lat":"0","placename":"Part Location","to_stop_lon":"0","to_stop":{"id":"131","name":"origin","lat":"0","placename":"Canada","lon":"0"},"from_stop":{"name":"origin","id":"3085","lat":"0","lon":"0","placename":"Part Location"}}],"outgoing":[]}}},"parts":[{"oid":"760","imid":"1017","linkid":"","weight":"0","rawemissions":"0","emissions":"0","shipping":"0","processemissions":null,"endoflifeemissions":null,"disposaltype":null,"disposalenergy":null,"disposalimpact":null,"disposalemissions":null,"description":"The Supply Chain for the Blackberry Bold","name":"Blackberry Bold","id":"1017","stops":{"origin":{"related_to":"1017","part_or_object":"p","notes":"","placename":"Part Location","id":3040,"name":"origin","lat":"0","lon":"0","hops":{"incoming":[],"outgoing":[{"transport_id":"17","id":"789","transport_name":"None Selected","transport_description":null,"transport_unit":"kg km","transport_co2_eq":"0.000000","from_stop_id":"3040","from_stop_lat":"0","from_stop_lon":"0","from_stop_placename":"Part Location","to_stop_id":"131","to_stop_name":"origin","to_stop_lat":"0","to_stop_lon":"0","to_stop_placename":"Canada","to_stop":{"id":"131","name":"origin","lat":"0","lon":"0","placename":"Canada"},"from_stop":{"name":"origin","id":"3040","lat":"0","lon":"0","placename":"Part Location"}}]}}},"processes":[],"eols":[]},{"oid":"760","imid":"1016","linkid":"","weight":"0","rawemissions":"0","emissions":"0","shipping":"0","processemissions":null,"endoflifeemissions":null,"disposaltype":null,"disposalenergy":null,"disposalimpact":null,"disposalemissions":null,"description":"","name":"Part","id":"1016","stops":{"origin":{"related_to":"1016","part_or_object":"p","notes":"","placename":"Part Location","id":3084,"name":"origin","lat":"0","lon":"0","hops":{"incoming":[],"outgoing":[{"transport_id":"17","id":"833","transport_name":"None Selected","transport_description":null,"transport_unit":"kg km","transport_co2_eq":"0.000000","from_stop_id":"3084","from_stop_lat":"0","from_stop_lon":"0","from_stop_placename":"Part Location","to_stop_id":"131","to_stop_name":"origin","to_stop_lat":"0","to_stop_lon":"0","to_stop_placename":"Canada","to_stop":{"id":"131","name":"origin","lat":"0","lon":"0","placename":"Canada"},"from_stop":{"name":"origin","id":"3084","lat":"0","lon":"0","placename":"Part Location"}}]}}},"processes":[],"eols":[]},{"oid":"760","imid":"1018","linkid":"","weight":"0","rawemissions":"0","emissions":"0","shipping":"0","processemissions":null,"endoflifeemissions":null,"disposaltype":null,"disposalenergy":null,"disposalimpact":null,"disposalemissions":null,"description":"Assembled in China","name":"iPhone 3GS","id":"1018","stops":{"origin":{"related_to":"1018","part_or_object":"p","notes":"","placename":"Part Location","id":3085,"name":"origin","lat":"0","lon":"0","hops":{"incoming":[],"outgoing":[{"transport_id":"17","id":"834","transport_name":"None Selected","transport_description":null,"transport_unit":"kg km","transport_co2_eq":"0.000000","from_stop_id":"3085","from_stop_lat":"0","from_stop_lon":"0","from_stop_placename":"Part Location","to_stop_id":"131","to_stop_name":"origin","to_stop_lat":"0","to_stop_lon":"0","to_stop_placename":"Canada","to_stop":{"id":"131","name":"origin","lat":"0","lon":"0","placename":"Canada"},"from_stop":{"name":"origin","id":"3085","lat":"0","lon":"0","placename":"Part Location"}}]}}},"processes":[],"eols":[]}],"user":{"name":"kcorley","id":"6359"}}}