{"769":{"oid":"769","type":"object","flag":"","creator":"6401","name":"GE Clock Radio No. 7-46200","upc":"","imagelink":"","description":"This clock radio has been in my house for longer than I've been alive, and very likely for a good part of my parents' lives as well.  It made its way to Cambridge, but unfortunately has become impossible to set.  Instead of tossing it straight into the landfill, I decided to dissect it to discover its parts - for the good of science, or at least Future Craft participants - and, in some ways, to see how early digital technologies differ from that of today.","slug":"ge-clock-radio-no--7-46200","category":"","weight":"0.1274","emissions":"0.969575","embodied":"0.91","transport":"0.0595747","process":"0","endoflife":"0","shipping":"49727.8","lifetime":"0","usagetype":"","usageenergy":"0","usageemissions":"0","timecreated":"2010-02-24 22:03:35.590523","timemodified":"2009-10-07 05:35:19","visibility":"public","showfootprint":"on","showembodied":"on","showtransport":"on","showprocess":"on","showendoflife":"on","showlastleg":"on","showuse":"on","showstats":"on","stops":{"origin":{"related_to":"769","part_or_object":"o","notes":"","placename":"Malaysia","id":"137","category":"1","lat":"4.210484","lon":"101.975766","name":"origin","hops":{"incoming":[{"transport_id":"8","id":"857","transport_name":"freighter, oceanic","transport_description":"","transport_unit":"kg km","transport_co2_eq":"0.004200","from_stop_id":"3108","from_stop_lat":"35.86166","from_stop_lon":"104.195397","to_stop_id":"137","to_stop_name":"origin","to_stop_lat":"4.210484","placename":"China","to_stop_lon":"101.975766","to_stop":{"id":"137","name":"origin","lat":"4.210484","placename":"Malaysia","lon":"101.975766"},"from_stop":{"name":"origin","id":"3108","lat":"35.86166","lon":"104.195397","placename":"China"}},{"transport_id":"8","id":"858","transport_name":"freighter, oceanic","transport_description":"","transport_unit":"kg km","transport_co2_eq":"0.004200","from_stop_id":"3109","from_stop_lat":"-30.559482","from_stop_lon":"22.937506","to_stop_id":"137","to_stop_name":"origin","to_stop_lat":"4.210484","placename":"South Africa","to_stop_lon":"101.975766","to_stop":{"id":"137","name":"origin","lat":"4.210484","placename":"Malaysia","lon":"101.975766"},"from_stop":{"name":"origin","id":"3109","lat":"-30.559482","lon":"22.937506","placename":"South Africa"}},{"transport_id":"3","id":"859","transport_name":"truck, 40 tons","transport_description":"truck, half full","transport_unit":"kg km","transport_co2_eq":"0.030900","from_stop_id":"3110","from_stop_lat":"4.210484","from_stop_lon":"101.975766","to_stop_id":"137","to_stop_name":"origin","to_stop_lat":"4.210484","placename":"Malaysia","to_stop_lon":"101.975766","to_stop":{"id":"137","name":"origin","lat":"4.210484","placename":"Malaysia","lon":"101.975766"},"from_stop":{"name":"origin","id":"3110","lat":"4.210484","lon":"101.975766","placename":"Malaysia"}},{"transport_id":"8","id":"860","transport_name":"freighter, oceanic","transport_description":"","transport_unit":"kg km","transport_co2_eq":"0.004200","from_stop_id":"3111","from_stop_lat":"35.86166","from_stop_lon":"104.195397","to_stop_id":"137","to_stop_name":"origin","to_stop_lat":"4.210484","placename":"China","to_stop_lon":"101.975766","to_stop":{"id":"137","name":"origin","lat":"4.210484","placename":"Malaysia","lon":"101.975766"},"from_stop":{"name":"origin","id":"3111","lat":"35.86166","lon":"104.195397","placename":"China"}},{"transport_id":"8","id":"861","transport_name":"freighter, oceanic","transport_description":"","transport_unit":"kg km","transport_co2_eq":"0.004200","from_stop_id":"3112","from_stop_lat":"35.86166","from_stop_lon":"104.195397","to_stop_id":"137","to_stop_name":"origin","to_stop_lat":"4.210484","placename":"China","to_stop_lon":"101.975766","to_stop":{"id":"137","name":"origin","lat":"4.210484","placename":"Malaysia","lon":"101.975766"},"from_stop":{"name":"origin","id":"3112","lat":"35.86166","lon":"104.195397","placename":"China"}},{"transport_id":"15","id":"862","transport_name":"air, freight, regional","transport_description":"freight within one continent","transport_unit":"kg km","transport_co2_eq":"0.787500","from_stop_id":"3113","from_stop_lat":"36.204824","from_stop_lon":"138.252924","to_stop_id":"137","to_stop_name":"origin","to_stop_lat":"4.210484","placename":"Japan","to_stop_lon":"101.975766","to_stop":{"id":"137","name":"origin","lat":"4.210484","placename":"Malaysia","lon":"101.975766"},"from_stop":{"name":"origin","id":"3113","lat":"36.204824","lon":"138.252924","placename":"Japan"}},{"transport_id":"15","id":"863","transport_name":"air, freight, regional","transport_description":"freight within one continent","transport_unit":"kg km","transport_co2_eq":"0.787500","from_stop_id":"3114","from_stop_lat":"35.907757","from_stop_lon":"127.766922","to_stop_id":"137","to_stop_name":"origin","to_stop_lat":"4.210484","placename":"South Korea","to_stop_lon":"101.975766","to_stop":{"id":"137","name":"origin","lat":"4.210484","placename":"Malaysia","lon":"101.975766"},"from_stop":{"name":"origin","id":"3114","lat":"35.907757","lon":"127.766922","placename":"South Korea"}},{"transport_id":"8","id":"864","transport_name":"freighter, oceanic","transport_description":"","transport_unit":"kg km","transport_co2_eq":"0.004200","from_stop_id":"3115","from_stop_lat":"-30.559482","from_stop_lon":"22.937506","to_stop_id":"137","to_stop_name":"origin","to_stop_lat":"4.210484","placename":"South Africa","to_stop_lon":"101.975766","to_stop":{"id":"137","name":"origin","lat":"4.210484","placename":"Malaysia","lon":"101.975766"},"from_stop":{"name":"origin","id":"3115","lat":"-30.559482","lon":"22.937506","placename":"South Africa"}},{"transport_id":"8","id":"865","transport_name":"freighter, oceanic","transport_description":"","transport_unit":"kg km","transport_co2_eq":"0.004200","from_stop_id":"3116","from_stop_lat":"35.86166","from_stop_lon":"104.195397","to_stop_id":"137","to_stop_name":"origin","to_stop_lat":"4.210484","placename":"China","to_stop_lon":"101.975766","to_stop":{"id":"137","name":"origin","lat":"4.210484","placename":"Malaysia","lon":"101.975766"},"from_stop":{"name":"origin","id":"3116","lat":"35.86166","lon":"104.195397","placename":"China"}},{"transport_id":"8","id":"867","transport_name":"freighter, oceanic","transport_description":"","transport_unit":"kg km","transport_co2_eq":"0.004200","from_stop_id":"3118","from_stop_lat":"-8.783195","from_stop_lon":"34.508523","to_stop_id":"137","to_stop_name":"origin","to_stop_lat":"4.210484","placename":"Africa","to_stop_lon":"101.975766","to_stop":{"id":"137","name":"origin","lat":"4.210484","placename":"Malaysia","lon":"101.975766"},"from_stop":{"name":"origin","id":"3118","lat":"-8.783195","lon":"34.508523","placename":"Africa"}},{"transport_id":"17","id":"866","transport_name":"None Selected","transport_description":null,"transport_unit":"kg km","transport_co2_eq":"0.000000","from_stop_id":"3117","from_stop_lat":"0","from_stop_lon":"0","to_stop_id":"137","to_stop_name":"origin","to_stop_lat":"4.210484","placename":"Part Location","to_stop_lon":"101.975766","to_stop":{"id":"137","name":"origin","lat":"4.210484","placename":"Malaysia","lon":"101.975766"},"from_stop":{"name":"origin","id":"3117","lat":"0","lon":"0","placename":"Part Location"}}],"outgoing":[]}}},"parts":[{"oid":"769","imid":"1041","linkid":"","weight":"0.0001","rawemissions":"2.15","emissions":"0","shipping":"3530.76","processemissions":null,"endoflifeemissions":null,"disposaltype":null,"disposalenergy":null,"disposalimpact":null,"disposalemissions":null,"description":"","name":"Copper virgin","id":"1041","stops":{"origin":{"related_to":"1041","part_or_object":"p","notes":"","placename":"China","id":3108,"name":"origin","lat":"35.86166","lon":"104.195397","hops":{"incoming":[],"outgoing":[{"transport_id":"8","id":"857","transport_name":"freighter, oceanic","transport_description":"","transport_unit":"kg km","transport_co2_eq":"0.004200","from_stop_id":"3108","from_stop_lat":"35.86166","from_stop_lon":"104.195397","from_stop_placename":"China","to_stop_id":"137","to_stop_name":"origin","to_stop_lat":"4.210484","to_stop_lon":"101.975766","to_stop_placename":"Malaysia","to_stop":{"id":"137","name":"origin","lat":"4.210484","lon":"101.975766","placename":"Malaysia"},"from_stop":{"name":"origin","id":"3108","lat":"35.86166","lon":"104.195397","placename":"China"}}]}}},"processes":[],"eols":[]},{"oid":"769","imid":"1042","linkid":"","weight":"0.0001","rawemissions":"6800","emissions":"0.68","shipping":"9213.16","processemissions":null,"endoflifeemissions":null,"disposaltype":null,"disposalenergy":null,"disposalimpact":null,"disposalemissions":null,"description":"","name":"Gold virgin","id":"1042","stops":{"origin":{"related_to":"1042","part_or_object":"p","notes":"","placename":"South Africa","id":3109,"name":"origin","lat":"-30.559482","lon":"22.937506","hops":{"incoming":[],"outgoing":[{"transport_id":"8","id":"858","transport_name":"freighter, oceanic","transport_description":"","transport_unit":"kg km","transport_co2_eq":"0.004200","from_stop_id":"3109","from_stop_lat":"-30.559482","from_stop_lon":"22.937506","from_stop_placename":"South Africa","to_stop_id":"137","to_stop_name":"origin","to_stop_lat":"4.210484","to_stop_lon":"101.975766","to_stop_placename":"Malaysia","to_stop":{"id":"137","name":"origin","lat":"4.210484","lon":"101.975766","placename":"Malaysia"},"from_stop":{"name":"origin","id":"3109","lat":"-30.559482","lon":"22.937506","placename":"South Africa"}}]}}},"processes":[],"eols":[]},{"oid":"769","imid":"1043","linkid":"","weight":"0.0001","rawemissions":"0.73","emissions":"0","shipping":"0","processemissions":null,"endoflifeemissions":null,"disposaltype":null,"disposalenergy":null,"disposalimpact":null,"disposalemissions":null,"description":"","name":"Wood - Teak veneer","id":"1043","stops":{"origin":{"related_to":"1043","part_or_object":"p","notes":"","placename":"Malaysia","id":3110,"name":"origin","lat":"4.210484","lon":"101.975766","hops":{"incoming":[],"outgoing":[{"transport_id":"3","id":"859","transport_name":"truck, 40 tons","transport_description":"truck, half full","transport_unit":"kg km","transport_co2_eq":"0.030900","from_stop_id":"3110","from_stop_lat":"4.210484","from_stop_lon":"101.975766","from_stop_placename":"Malaysia","to_stop_id":"137","to_stop_name":"origin","to_stop_lat":"4.210484","to_stop_lon":"101.975766","to_stop_placename":"Malaysia","to_stop":{"id":"137","name":"origin","lat":"4.210484","lon":"101.975766","placename":"Malaysia"},"from_stop":{"name":"origin","id":"3110","lat":"4.210484","lon":"101.975766","placename":"Malaysia"}}]}}},"processes":[],"eols":[]},{"oid":"769","imid":"1044","linkid":"","weight":"0.1","rawemissions":"1.3","emissions":"0.13","shipping":"3530.76","processemissions":null,"endoflifeemissions":null,"disposaltype":null,"disposalenergy":null,"disposalimpact":null,"disposalemissions":null,"description":"Virgin high impact polystyrene","name":"HIPS virgin","id":"1044","stops":{"origin":{"related_to":"1044","part_or_object":"p","notes":"","placename":"China","id":3111,"name":"origin","lat":"35.86166","lon":"104.195397","hops":{"incoming":[],"outgoing":[{"transport_id":"8","id":"860","transport_name":"freighter, oceanic","transport_description":"","transport_unit":"kg km","transport_co2_eq":"0.004200","from_stop_id":"3111","from_stop_lat":"35.86166","from_stop_lon":"104.195397","from_stop_placename":"China","to_stop_id":"137","to_stop_name":"origin","to_stop_lat":"4.210484","to_stop_lon":"101.975766","to_stop_placename":"Malaysia","to_stop":{"id":"137","name":"origin","lat":"4.210484","lon":"101.975766","placename":"Malaysia"},"from_stop":{"name":"origin","id":"3111","lat":"35.86166","lon":"104.195397","placename":"China"}}]}}},"processes":[],"eols":[]},{"oid":"769","imid":"1045","linkid":"","weight":"0.01","rawemissions":"3.21","emissions":"0.03","shipping":"3530.76","processemissions":null,"endoflifeemissions":null,"disposaltype":null,"disposalenergy":null,"disposalimpact":null,"disposalemissions":null,"description":"Epoxy resin with epichlorohydrin and  bisphenol A aka BPA","name":"Epoxy resin","id":"1045","stops":{"origin":{"related_to":"1045","part_or_object":"p","notes":"","placename":"China","id":3112,"name":"origin","lat":"35.86166","lon":"104.195397","hops":{"incoming":[],"outgoing":[{"transport_id":"8","id":"861","transport_name":"freighter, oceanic","transport_description":"","transport_unit":"kg km","transport_co2_eq":"0.004200","from_stop_id":"3112","from_stop_lat":"35.86166","from_stop_lon":"104.195397","from_stop_placename":"China","to_stop_id":"137","to_stop_name":"origin","to_stop_lat":"4.210484","to_stop_lon":"101.975766","to_stop_placename":"Malaysia","to_stop":{"id":"137","name":"origin","lat":"4.210484","lon":"101.975766","placename":"Malaysia"},"from_stop":{"name":"origin","id":"3112","lat":"35.86166","lon":"104.195397","placename":"China"}}]}}},"processes":[],"eols":[]},{"oid":"769","imid":"1046","linkid":"","weight":"0.01","rawemissions":"4","emissions":"0.04","shipping":"5143.21","processemissions":null,"endoflifeemissions":null,"disposaltype":null,"disposalenergy":null,"disposalimpact":null,"disposalemissions":null,"description":"","name":"Toshiba LED","id":"1046","stops":{"origin":{"related_to":"1046","part_or_object":"p","notes":"","placename":"Japan","id":3113,"name":"origin","lat":"36.204824","lon":"138.252924","hops":{"incoming":[],"outgoing":[{"transport_id":"15","id":"862","transport_name":"air, freight, regional","transport_description":"freight within one continent","transport_unit":"kg km","transport_co2_eq":"0.787500","from_stop_id":"3113","from_stop_lat":"36.204824","from_stop_lon":"138.252924","from_stop_placename":"Japan","to_stop_id":"137","to_stop_name":"origin","to_stop_lat":"4.210484","to_stop_lon":"101.975766","to_stop_placename":"Malaysia","to_stop":{"id":"137","name":"origin","lat":"4.210484","lon":"101.975766","placename":"Malaysia"},"from_stop":{"name":"origin","id":"3113","lat":"36.204824","lon":"138.252924","placename":"Japan"}}]}}},"processes":[],"eols":[]},{"oid":"769","imid":"1047","linkid":"","weight":"0.005","rawemissions":"4","emissions":"0.02","shipping":"4409.68","processemissions":null,"endoflifeemissions":null,"disposaltype":null,"disposalenergy":null,"disposalimpact":null,"disposalemissions":null,"description":"","name":"Sound speaker","id":"1047","stops":{"origin":{"related_to":"1047","part_or_object":"p","notes":"","placename":"South Korea","id":3114,"name":"origin","lat":"35.907757","lon":"127.766922","hops":{"incoming":[],"outgoing":[{"transport_id":"15","id":"863","transport_name":"air, freight, regional","transport_description":"freight within one continent","transport_unit":"kg km","transport_co2_eq":"0.787500","from_stop_id":"3114","from_stop_lat":"35.907757","from_stop_lon":"127.766922","from_stop_placename":"South Korea","to_stop_id":"137","to_stop_name":"origin","to_stop_lat":"4.210484","to_stop_lon":"101.975766","to_stop_placename":"Malaysia","to_stop":{"id":"137","name":"origin","lat":"4.210484","lon":"101.975766","placename":"Malaysia"},"from_stop":{"name":"origin","id":"3114","lat":"35.907757","lon":"127.766922","placename":"South Korea"}}]}}},"processes":[],"eols":[]},{"oid":"769","imid":"1048","linkid":"","weight":"0.001","rawemissions":"0.11","emissions":"0","shipping":"9213.16","processemissions":null,"endoflifeemissions":null,"disposaltype":null,"disposalenergy":null,"disposalimpact":null,"disposalemissions":null,"description":"","name":"Quartz (part of time mechanism)","id":"1048","stops":{"origin":{"related_to":"1048","part_or_object":"p","notes":"","placename":"South Africa","id":3115,"name":"origin","lat":"-30.559482","lon":"22.937506","hops":{"incoming":[],"outgoing":[{"transport_id":"8","id":"864","transport_name":"freighter, oceanic","transport_description":"","transport_unit":"kg km","transport_co2_eq":"0.004200","from_stop_id":"3115","from_stop_lat":"-30.559482","from_stop_lon":"22.937506","from_stop_placename":"South Africa","to_stop_id":"137","to_stop_name":"origin","to_stop_lat":"4.210484","to_stop_lon":"101.975766","to_stop_placename":"Malaysia","to_stop":{"id":"137","name":"origin","lat":"4.210484","lon":"101.975766","placename":"Malaysia"},"from_stop":{"name":"origin","id":"3115","lat":"-30.559482","lon":"22.937506","placename":"South Africa"}}]}}},"processes":[],"eols":[]},{"oid":"769","imid":"1049","linkid":"","weight":"0.0001","rawemissions":"1.3","emissions":"0","shipping":"3530.76","processemissions":null,"endoflifeemissions":null,"disposaltype":null,"disposalenergy":null,"disposalimpact":null,"disposalemissions":null,"description":"ethylene propylene diene rubber","name":"EPDM elastomer","id":"1049","stops":{"origin":{"related_to":"1049","part_or_object":"p","notes":"","placename":"China","id":3116,"name":"origin","lat":"35.86166","lon":"104.195397","hops":{"incoming":[],"outgoing":[{"transport_id":"8","id":"865","transport_name":"freighter, oceanic","transport_description":"","transport_unit":"kg km","transport_co2_eq":"0.004200","from_stop_id":"3116","from_stop_lat":"35.86166","from_stop_lon":"104.195397","from_stop_placename":"China","to_stop_id":"137","to_stop_name":"origin","to_stop_lat":"4.210484","to_stop_lon":"101.975766","to_stop_placename":"Malaysia","to_stop":{"id":"137","name":"origin","lat":"4.210484","lon":"101.975766","placename":"Malaysia"},"from_stop":{"name":"origin","id":"3116","lat":"35.86166","lon":"104.195397","placename":"China"}}]}}},"processes":[],"eols":[]},{"oid":"769","imid":"1050","linkid":"","weight":"0","rawemissions":"0","emissions":"0","shipping":"0","processemissions":null,"endoflifeemissions":null,"disposaltype":null,"disposalenergy":null,"disposalimpact":null,"disposalemissions":null,"description":"Average of aluminum alloys","name":"","id":"1050","stops":{"origin":{"related_to":"1050","part_or_object":"p","notes":"","placename":"Part Location","id":3117,"name":"origin","lat":"0","lon":"0","hops":{"incoming":[],"outgoing":[{"transport_id":"17","id":"866","transport_name":"None Selected","transport_description":null,"transport_unit":"kg km","transport_co2_eq":"0.000000","from_stop_id":"3117","from_stop_lat":"0","from_stop_lon":"0","from_stop_placename":"Part Location","to_stop_id":"137","to_stop_name":"origin","to_stop_lat":"4.210484","to_stop_lon":"101.975766","to_stop_placename":"Malaysia","to_stop":{"id":"137","name":"origin","lat":"4.210484","lon":"101.975766","placename":"Malaysia"},"from_stop":{"name":"origin","id":"3117","lat":"0","lon":"0","placename":"Part Location"}}]}}},"processes":[],"eols":[]},{"oid":"769","imid":"1051","linkid":"","weight":"0.001","rawemissions":"6.63","emissions":"0.01","shipping":"7625.5","processemissions":null,"endoflifeemissions":null,"disposaltype":null,"disposalenergy":null,"disposalimpact":null,"disposalemissions":null,"description":"Superaustenitic 18 8 stainless steel","name":"Stainless Steel","id":"1051","stops":{"origin":{"related_to":"1051","part_or_object":"p","notes":"","placename":"Africa","id":3118,"name":"origin","lat":"-8.783195","lon":"34.508523","hops":{"incoming":[],"outgoing":[{"transport_id":"8","id":"867","transport_name":"freighter, oceanic","transport_description":"","transport_unit":"kg km","transport_co2_eq":"0.004200","from_stop_id":"3118","from_stop_lat":"-8.783195","from_stop_lon":"34.508523","from_stop_placename":"Africa","to_stop_id":"137","to_stop_name":"origin","to_stop_lat":"4.210484","to_stop_lon":"101.975766","to_stop_placename":"Malaysia","to_stop":{"id":"137","name":"origin","lat":"4.210484","lon":"101.975766","placename":"Malaysia"},"from_stop":{"name":"origin","id":"3118","lat":"-8.783195","lon":"34.508523","placename":"Africa"}}]}}},"processes":[],"eols":[]}],"user":{"name":"etothelo","id":"6401"}}}