{"776":{"oid":"776","type":"object","flag":"","creator":"12759","name":"LCA frames","upc":"","imagelink":"","description":"www.melotte.be","slug":"LCA-frames","category":"","weight":"0","emissions":"0","embodied":"0","transport":"0","process":null,"endoflife":null,"shipping":"850.93","lifetime":null,"usagetype":"","usageenergy":null,"usageemissions":null,"timecreated":"2011-03-28 04:09:47","timemodified":"2011-04-04 04:27:57","visibility":"public","showfootprint":"on","showembodied":"on","showtransport":"on","showprocess":"on","showendoflife":"on","showlastleg":"on","showuse":"on","showstats":"on","stops":{"origin":{"related_to":"776","part_or_object":"o","notes":null,"placename":"Zonhoven, Belgi\u00eb","id":"14038","category":"1","lat":"50.989287","lon":"5.37246","name":"origin","hops":{"incoming":[{"transport_id":null,"id":"10208","transport_name":null,"transport_description":null,"transport_unit":null,"transport_co2_eq":null,"from_stop_id":"14039","from_stop_lat":"50.4539","from_stop_lon":"3.95893","to_stop_id":"14038","to_stop_name":"origin","to_stop_lat":"50.989287","placename":"Bergen, Belgi\u00eb","to_stop_lon":"5.37246","to_stop":{"id":"14038","name":"origin","lat":"50.989287","placename":"Zonhoven, Belgi\u00eb","lon":"5.37246"},"from_stop":{"name":"origin","id":"14039","lat":"50.4539","lon":"3.95893","placename":"Bergen, Belgi\u00eb"}},{"transport_id":null,"id":"10209","transport_name":null,"transport_description":null,"transport_unit":null,"transport_co2_eq":null,"from_stop_id":"14040","from_stop_lat":"51.2166667","from_stop_lon":"2.9","to_stop_id":"14038","to_stop_name":"origin","to_stop_lat":"50.989287","placename":"Oostende, Belgi\u00eb","to_stop_lon":"5.37246","to_stop":{"id":"14038","name":"origin","lat":"50.989287","placename":"Zonhoven, Belgi\u00eb","lon":"5.37246"},"from_stop":{"name":"origin","id":"14040","lat":"51.2166667","lon":"2.9","placename":"Oostende, Belgi\u00eb"}},{"transport_id":null,"id":"10210","transport_name":null,"transport_description":null,"transport_unit":null,"transport_co2_eq":null,"from_stop_id":"14041","from_stop_lat":"52.3730556","from_stop_lon":"4.8922222","to_stop_id":"14038","to_stop_name":"origin","to_stop_lat":"50.989287","placename":"Amsterdam, Nederland","to_stop_lon":"5.37246","to_stop":{"id":"14038","name":"origin","lat":"50.989287","placename":"Zonhoven, Belgi\u00eb","lon":"5.37246"},"from_stop":{"name":"origin","id":"14041","lat":"52.3730556","lon":"4.8922222","placename":"Amsterdam, Nederland"}},{"transport_id":null,"id":"10211","transport_name":null,"transport_description":null,"transport_unit":null,"transport_co2_eq":null,"from_stop_id":"14042","from_stop_lat":"49.815273","from_stop_lon":"6.129583","to_stop_id":"14038","to_stop_name":"origin","to_stop_lat":"50.989287","placename":"Luxemburg","to_stop_lon":"5.37246","to_stop":{"id":"14038","name":"origin","lat":"50.989287","placename":"Zonhoven, Belgi\u00eb","lon":"5.37246"},"from_stop":{"name":"origin","id":"14042","lat":"49.815273","lon":"6.129583","placename":"Luxemburg"}},{"transport_id":null,"id":"10212","transport_name":null,"transport_description":null,"transport_unit":null,"transport_co2_eq":null,"from_stop_id":"14043","from_stop_lat":"53.2193835","from_stop_lon":"6.5665018","to_stop_id":"14038","to_stop_name":"origin","to_stop_lat":"50.989287","placename":"Groningen, Nederland","to_stop_lon":"5.37246","to_stop":{"id":"14038","name":"origin","lat":"50.989287","placename":"Zonhoven, Belgi\u00eb","lon":"5.37246"},"from_stop":{"name":"origin","id":"14043","lat":"53.2193835","lon":"6.5665018","placename":"Groningen, Nederland"}}],"outgoing":[]}}},"parts":[{"oid":"776","imid":"6782","linkid":"0","weight":"0","rawemissions":"0","emissions":"0","shipping":"157.57","processemissions":"0","endoflifeemissions":"0","disposaltype":null,"disposalenergy":null,"disposalimpact":null,"disposalemissions":null,"description":"\n","name":"Part","id":"6782","stops":{"origin":{"related_to":"6782","part_or_object":"p","notes":null,"placename":"Amsterdam, Nederland","id":14041,"name":"origin","lat":"52.3730556","lon":"4.8922222","hops":{"incoming":[],"outgoing":[{"transport_id":null,"id":"10210","transport_name":null,"transport_description":null,"transport_unit":null,"transport_co2_eq":null,"from_stop_id":"14041","from_stop_lat":"52.3730556","from_stop_lon":"4.8922222","from_stop_placename":"Amsterdam, Nederland","to_stop_id":"14038","to_stop_name":"origin","to_stop_lat":"50.989287","to_stop_lon":"5.37246","to_stop_placename":"Zonhoven, Belgi\u00eb","to_stop":{"id":"14038","name":"origin","lat":"50.989287","lon":"5.37246","placename":"Zonhoven, Belgi\u00eb"},"from_stop":{"name":"origin","id":"14041","lat":"52.3730556","lon":"4.8922222","placename":"Amsterdam, Nederland"}}]}}},"processes":[],"eols":[]},{"oid":"776","imid":"6783","linkid":"0","weight":"0","rawemissions":"0","emissions":"0","shipping":"141.3","processemissions":"0","endoflifeemissions":"0","disposaltype":null,"disposalenergy":null,"disposalimpact":null,"disposalemissions":null,"description":"","name":"Part","id":"6783","stops":{"origin":{"related_to":"6783","part_or_object":"p","notes":null,"placename":"Luxemburg","id":14042,"name":"origin","lat":"49.815273","lon":"6.129583","hops":{"incoming":[],"outgoing":[{"transport_id":null,"id":"10211","transport_name":null,"transport_description":null,"transport_unit":null,"transport_co2_eq":null,"from_stop_id":"14042","from_stop_lat":"49.815273","from_stop_lon":"6.129583","from_stop_placename":"Luxemburg","to_stop_id":"14038","to_stop_name":"origin","to_stop_lat":"50.989287","to_stop_lon":"5.37246","to_stop_placename":"Zonhoven, Belgi\u00eb","to_stop":{"id":"14038","name":"origin","lat":"50.989287","lon":"5.37246","placename":"Zonhoven, Belgi\u00eb"},"from_stop":{"name":"origin","id":"14042","lat":"49.815273","lon":"6.129583","placename":"Luxemburg"}}]}}},"processes":[],"eols":[]},{"oid":"776","imid":"6784","linkid":"0","weight":"0","rawemissions":"0","emissions":"0","shipping":"261.32","processemissions":"0","endoflifeemissions":"0","disposaltype":null,"disposalenergy":null,"disposalimpact":null,"disposalemissions":null,"description":"","name":"Part","id":"6784","stops":{"origin":{"related_to":"6784","part_or_object":"p","notes":null,"placename":"Groningen, Nederland","id":14043,"name":"origin","lat":"53.2193835","lon":"6.5665018","hops":{"incoming":[],"outgoing":[{"transport_id":null,"id":"10212","transport_name":null,"transport_description":null,"transport_unit":null,"transport_co2_eq":null,"from_stop_id":"14043","from_stop_lat":"53.2193835","from_stop_lon":"6.5665018","from_stop_placename":"Groningen, Nederland","to_stop_id":"14038","to_stop_name":"origin","to_stop_lat":"50.989287","to_stop_lon":"5.37246","to_stop_placename":"Zonhoven, Belgi\u00eb","to_stop":{"id":"14038","name":"origin","lat":"50.989287","lon":"5.37246","placename":"Zonhoven, Belgi\u00eb"},"from_stop":{"name":"origin","id":"14043","lat":"53.2193835","lon":"6.5665018","placename":"Groningen, Nederland"}}]}}},"processes":[],"eols":[]},{"oid":"776","imid":"6780","linkid":"0","weight":"0","rawemissions":"0","emissions":"0","shipping":"116.08","processemissions":"0","endoflifeemissions":"0","disposaltype":null,"disposalenergy":null,"disposalimpact":null,"disposalemissions":null,"description":"","name":"Part","id":"6780","stops":{"origin":{"related_to":"6780","part_or_object":"p","notes":null,"placename":"Bergen, Belgi\u00eb","id":14039,"name":"origin","lat":"50.4539","lon":"3.95893","hops":{"incoming":[],"outgoing":[{"transport_id":null,"id":"10208","transport_name":null,"transport_description":null,"transport_unit":null,"transport_co2_eq":null,"from_stop_id":"14039","from_stop_lat":"50.4539","from_stop_lon":"3.95893","from_stop_placename":"Bergen, Belgi\u00eb","to_stop_id":"14038","to_stop_name":"origin","to_stop_lat":"50.989287","to_stop_lon":"5.37246","to_stop_placename":"Zonhoven, Belgi\u00eb","to_stop":{"id":"14038","name":"origin","lat":"50.989287","lon":"5.37246","placename":"Zonhoven, Belgi\u00eb"},"from_stop":{"name":"origin","id":"14039","lat":"50.4539","lon":"3.95893","placename":"Bergen, Belgi\u00eb"}}]}}},"processes":[],"eols":[]},{"oid":"776","imid":"6781","linkid":"0","weight":"0","rawemissions":"0","emissions":"0","shipping":"174.66","processemissions":"0","endoflifeemissions":"0","disposaltype":null,"disposalenergy":null,"disposalimpact":null,"disposalemissions":null,"description":"","name":"Part","id":"6781","stops":{"origin":{"related_to":"6781","part_or_object":"p","notes":null,"placename":"Oostende, Belgi\u00eb","id":14040,"name":"origin","lat":"51.2166667","lon":"2.9","hops":{"incoming":[],"outgoing":[{"transport_id":null,"id":"10209","transport_name":null,"transport_description":null,"transport_unit":null,"transport_co2_eq":null,"from_stop_id":"14040","from_stop_lat":"51.2166667","from_stop_lon":"2.9","from_stop_placename":"Oostende, Belgi\u00eb","to_stop_id":"14038","to_stop_name":"origin","to_stop_lat":"50.989287","to_stop_lon":"5.37246","to_stop_placename":"Zonhoven, Belgi\u00eb","to_stop":{"id":"14038","name":"origin","lat":"50.989287","lon":"5.37246","placename":"Zonhoven, Belgi\u00eb"},"from_stop":{"name":"origin","id":"14040","lat":"51.2166667","lon":"2.9","placename":"Oostende, Belgi\u00eb"}}]}}},"processes":[],"eols":[]}],"user":{"name":"BramGrandjean","id":"12759"}}}