{"777":{"oid":"777","type":"object","flag":"","creator":"6404","name":"Nike Free 5.0 v4","upc":"","imagelink":"","description":"Nike Free 5.0 v4 Shoes\n\nShoe Construction: Slip last\n\nMidsole Material: Compression molded EVA\n\nOutsole Material: Carbon rubber\n\nUpper Material: Mesh|Synthetic leather\n\nCountry of Origin: China\n","slug":"nike-free-5-0-v4","category":"","weight":"0.16","emissions":"4.78","embodied":"4.78","transport":"0","process":"0","endoflife":"0","shipping":"0","lifetime":"0","usagetype":"","usageenergy":"0","usageemissions":"0","timecreated":"2010-02-24 22:03:35.593574","timemodified":"2009-10-07 06:56:30","visibility":"public","showfootprint":"on","showembodied":"on","showtransport":"on","showprocess":"on","showendoflife":"on","showlastleg":"on","showuse":"on","showstats":"on","stops":{"origin":{"related_to":"777","part_or_object":"o","notes":"","placename":"China","id":"139","category":"1","lat":"35.86166","lon":"104.195397","name":"origin","hops":{"incoming":[{"transport_id":"6","id":"870","transport_name":"tanker ship","transport_description":"tanker for mobing liquids","transport_unit":"kg km","transport_co2_eq":"0.171600","from_stop_id":"3121","from_stop_lat":"35.86166","from_stop_lon":"104.195397","to_stop_id":"139","to_stop_name":"origin","to_stop_lat":"35.86166","placename":"China","to_stop_lon":"104.195397","to_stop":{"id":"139","name":"origin","lat":"35.86166","placename":"China","lon":"104.195397"},"from_stop":{"name":"origin","id":"3121","lat":"35.86166","lon":"104.195397","placename":"China"}},{"transport_id":"2","id":"871","transport_name":"truck, 16 tons","transport_description":"truck, half full","transport_unit":"kg km","transport_co2_eq":"0.020300","from_stop_id":"3122","from_stop_lat":"35.86166","from_stop_lon":"104.195397","to_stop_id":"139","to_stop_name":"origin","to_stop_lat":"35.86166","placename":"China","to_stop_lon":"104.195397","to_stop":{"id":"139","name":"origin","lat":"35.86166","placename":"China","lon":"104.195397"},"from_stop":{"name":"origin","id":"3122","lat":"35.86166","lon":"104.195397","placename":"China"}},{"transport_id":"3","id":"872","transport_name":"truck, 40 tons","transport_description":"truck, half full","transport_unit":"kg km","transport_co2_eq":"0.030900","from_stop_id":"3123","from_stop_lat":"35.86166","from_stop_lon":"104.195397","to_stop_id":"139","to_stop_name":"origin","to_stop_lat":"35.86166","placename":"China","to_stop_lon":"104.195397","to_stop":{"id":"139","name":"origin","lat":"35.86166","placename":"China","lon":"104.195397"},"from_stop":{"name":"origin","id":"3123","lat":"35.86166","lon":"104.195397","placename":"China"}},{"transport_id":"17","id":"873","transport_name":"None Selected","transport_description":null,"transport_unit":"kg km","transport_co2_eq":"0.000000","from_stop_id":"3124","from_stop_lat":"0","from_stop_lon":"0","to_stop_id":"139","to_stop_name":"origin","to_stop_lat":"35.86166","placename":"Part Location","to_stop_lon":"104.195397","to_stop":{"id":"139","name":"origin","lat":"35.86166","placename":"China","lon":"104.195397"},"from_stop":{"name":"origin","id":"3124","lat":"0","lon":"0","placename":"Part Location"}}],"outgoing":[]}}},"parts":[{"oid":"777","imid":"1054","linkid":"","weight":"0.06","rawemissions":"0.82","emissions":"0.05","shipping":"0","processemissions":null,"endoflifeemissions":null,"disposaltype":null,"disposalenergy":null,"disposalimpact":null,"disposalemissions":null,"description":"Ethylene vinyl acetate","name":"EVA","id":"1054","stops":{"origin":{"related_to":"1054","part_or_object":"p","notes":"","placename":"China","id":3121,"name":"origin","lat":"35.86166","lon":"104.195397","hops":{"incoming":[],"outgoing":[{"transport_id":"6","id":"870","transport_name":"tanker ship","transport_description":"tanker for mobing liquids","transport_unit":"kg km","transport_co2_eq":"0.171600","from_stop_id":"3121","from_stop_lat":"35.86166","from_stop_lon":"104.195397","from_stop_placename":"China","to_stop_id":"139","to_stop_name":"origin","to_stop_lat":"35.86166","to_stop_lon":"104.195397","to_stop_placename":"China","to_stop":{"id":"139","name":"origin","lat":"35.86166","lon":"104.195397","placename":"China"},"from_stop":{"name":"origin","id":"3121","lat":"35.86166","lon":"104.195397","placename":"China"}}]}}},"processes":[],"eols":[]},{"oid":"777","imid":"1055","linkid":"","weight":"0.1","rawemissions":"1.3","emissions":"0.13","shipping":"0","processemissions":null,"endoflifeemissions":null,"disposaltype":null,"disposalenergy":null,"disposalimpact":null,"disposalemissions":null,"description":"ethylene propylene diene rubber","name":"EPDM elastomer","id":"1055","stops":{"origin":{"related_to":"1055","part_or_object":"p","notes":"","placename":"China","id":3122,"name":"origin","lat":"35.86166","lon":"104.195397","hops":{"incoming":[],"outgoing":[{"transport_id":"2","id":"871","transport_name":"truck, 16 tons","transport_description":"truck, half full","transport_unit":"kg km","transport_co2_eq":"0.020300","from_stop_id":"3122","from_stop_lat":"35.86166","from_stop_lon":"104.195397","from_stop_placename":"China","to_stop_id":"139","to_stop_name":"origin","to_stop_lat":"35.86166","to_stop_lon":"104.195397","to_stop_placename":"China","to_stop":{"id":"139","name":"origin","lat":"35.86166","lon":"104.195397","placename":"China"},"from_stop":{"name":"origin","id":"3122","lat":"35.86166","lon":"104.195397","placename":"China"}}]}}},"processes":[],"eols":[]},{"oid":"777","imid":"1056","linkid":"","weight":"0","rawemissions":"4.6","emissions":"4.6","shipping":"0","processemissions":null,"endoflifeemissions":null,"disposaltype":null,"disposalenergy":null,"disposalimpact":null,"disposalemissions":null,"description":"Polyamide 6 aka Nylon","name":"Nylon 6","id":"1056","stops":{"origin":{"related_to":"1056","part_or_object":"p","notes":"","placename":"China","id":3123,"name":"origin","lat":"35.86166","lon":"104.195397","hops":{"incoming":[],"outgoing":[{"transport_id":"3","id":"872","transport_name":"truck, 40 tons","transport_description":"truck, half full","transport_unit":"kg km","transport_co2_eq":"0.030900","from_stop_id":"3123","from_stop_lat":"35.86166","from_stop_lon":"104.195397","from_stop_placename":"China","to_stop_id":"139","to_stop_name":"origin","to_stop_lat":"35.86166","to_stop_lon":"104.195397","to_stop_placename":"China","to_stop":{"id":"139","name":"origin","lat":"35.86166","lon":"104.195397","placename":"China"},"from_stop":{"name":"origin","id":"3123","lat":"35.86166","lon":"104.195397","placename":"China"}}]}}},"processes":[],"eols":[]},{"oid":"777","imid":"1057","linkid":"","weight":"0","rawemissions":"0","emissions":"0","shipping":"0","processemissions":null,"endoflifeemissions":null,"disposaltype":null,"disposalenergy":null,"disposalimpact":null,"disposalemissions":null,"description":"","name":"Part","id":"1057","stops":{"origin":{"related_to":"1057","part_or_object":"p","notes":"","placename":"Part Location","id":3124,"name":"origin","lat":"0","lon":"0","hops":{"incoming":[],"outgoing":[{"transport_id":"17","id":"873","transport_name":"None Selected","transport_description":null,"transport_unit":"kg km","transport_co2_eq":"0.000000","from_stop_id":"3124","from_stop_lat":"0","from_stop_lon":"0","from_stop_placename":"Part Location","to_stop_id":"139","to_stop_name":"origin","to_stop_lat":"35.86166","to_stop_lon":"104.195397","to_stop_placename":"China","to_stop":{"id":"139","name":"origin","lat":"35.86166","lon":"104.195397","placename":"China"},"from_stop":{"name":"origin","id":"3124","lat":"0","lon":"0","placename":"Part Location"}}]}}},"processes":[],"eols":[]}],"user":{"name":"spotcox","id":"6404"}}}