{"780":{"oid":"780","type":"object","flag":"","creator":"12762","name":"Shopping in Wholefoods","upc":"","imagelink":"","description":"Just a simple shopping trip for the following:\ntomatoes\nraspberries\ncream\npork chop\napples\nflowers","slug":"Shopping-in-Wholefoods","category":"","weight":"0.81","emissions":"0.5747616144","embodied":"0.5535","transport":"0.0212616144","process":null,"endoflife":null,"shipping":"23112.13","lifetime":null,"usagetype":"","usageenergy":null,"usageemissions":null,"timecreated":"2011-03-28 09:53:47","timemodified":"2011-04-06 15:45:10","visibility":"public","showfootprint":"on","showembodied":"on","showtransport":"on","showprocess":"on","showendoflife":"on","showlastleg":"on","showuse":"on","showstats":"on","stops":{"origin":{"related_to":"780","part_or_object":"o","notes":null,"placename":"Kensington, Greater London, UK","id":"14205","category":"1","lat":"51.5018856","lon":"-0.1908948","name":"origin","hops":{"incoming":[{"transport_id":null,"id":"10318","transport_name":null,"transport_description":null,"transport_unit":null,"transport_co2_eq":null,"from_stop_id":"14206","from_stop_lat":"-30.559482","from_stop_lon":"22.937506","to_stop_id":"14205","to_stop_name":"origin","to_stop_lat":"51.5018856","placename":"South Africa","to_stop_lon":"-0.1908948","to_stop":{"id":"14205","name":"origin","lat":"51.5018856","placename":"Kensington, Greater London, UK","lon":"-0.1908948"},"from_stop":{"name":"origin","id":"14206","lat":"-30.559482","lon":"22.937506","placename":"South Africa"}},{"transport_id":null,"id":"10319","transport_name":null,"transport_description":null,"transport_unit":null,"transport_co2_eq":null,"from_stop_id":"14207","from_stop_lat":"39.399872","from_stop_lon":"-8.224454","to_stop_id":"14205","to_stop_name":"origin","to_stop_lat":"51.5018856","placename":"Portugal","to_stop_lon":"-0.1908948","to_stop":{"id":"14205","name":"origin","lat":"51.5018856","placename":"Kensington, Greater London, UK","lon":"-0.1908948"},"from_stop":{"name":"origin","id":"14207","lat":"39.399872","lon":"-8.224454","placename":"Portugal"}},{"transport_id":"20","id":"10320","transport_name":"Road","transport_description":"from the Greenhouse Gas Protocol Initiative - GHG emission from transport or mobile sources calculator 2.0 (jun 2009)","transport_unit":"kg km","transport_co2_eq":"0.000204","from_stop_id":"14208","from_stop_lat":"49.214439","from_stop_lon":"-2.13125","to_stop_id":"14205","to_stop_name":"origin","to_stop_lat":"51.5018856","placename":"Jersey","to_stop_lon":"-0.1908948","to_stop":{"id":"14205","name":"origin","lat":"51.5018856","placename":"Kensington, Greater London, UK","lon":"-0.1908948"},"from_stop":{"name":"origin","id":"14208","lat":"49.214439","lon":"-2.13125","placename":"Jersey"}},{"transport_id":null,"id":"10321","transport_name":null,"transport_description":null,"transport_unit":null,"transport_co2_eq":null,"from_stop_id":"14209","from_stop_lat":"-35.675147","from_stop_lon":"-71.542969","to_stop_id":"14205","to_stop_name":"origin","to_stop_lat":"51.5018856","placename":"Chile","to_stop_lon":"-0.1908948","to_stop":{"id":"14205","name":"origin","lat":"51.5018856","placename":"Kensington, Greater London, UK","lon":"-0.1908948"},"from_stop":{"name":"origin","id":"14209","lat":"-35.675147","lon":"-71.542969","placename":"Chile"}}],"outgoing":[]}}},"parts":[{"oid":"780","imid":"6866","linkid":"parts\/raspberries","weight":"0.15","rawemissions":"1.63","emissions":"0","shipping":"9411.72","processemissions":"0","endoflifeemissions":"0","disposaltype":null,"disposalenergy":null,"disposalimpact":null,"disposalemissions":null,"description":"","name":"Raspberries","id":"6866","stops":{"origin":{"related_to":"6866","part_or_object":"p","notes":null,"placename":"South Africa","id":14206,"name":"origin","lat":"-30.559482","lon":"22.937506","hops":{"incoming":[],"outgoing":[{"transport_id":null,"id":"10318","transport_name":null,"transport_description":null,"transport_unit":null,"transport_co2_eq":null,"from_stop_id":"14206","from_stop_lat":"-30.559482","from_stop_lon":"22.937506","from_stop_placename":"South Africa","to_stop_id":"14205","to_stop_name":"origin","to_stop_lat":"51.5018856","to_stop_lon":"-0.1908948","to_stop_placename":"Kensington, Greater London, UK","to_stop":{"id":"14205","name":"origin","lat":"51.5018856","lon":"-0.1908948","placename":"Kensington, Greater London, UK"},"from_stop":{"name":"origin","id":"14206","lat":"-30.559482","lon":"22.937506","placename":"South Africa"}}]}}},"processes":[],"eols":[]},{"oid":"780","imid":"6867","linkid":"parts\/tomatoes","weight":"0.3","rawemissions":"1.03","emissions":"0","shipping":"1483.97","processemissions":"0","endoflifeemissions":"0","disposaltype":null,"disposalenergy":null,"disposalimpact":null,"disposalemissions":null,"description":"","name":"Tomatoes","id":"6867","stops":{"origin":{"related_to":"6867","part_or_object":"p","notes":null,"placename":"Portugal","id":14207,"name":"origin","lat":"39.399872","lon":"-8.224454","hops":{"incoming":[],"outgoing":[{"transport_id":null,"id":"10319","transport_name":null,"transport_description":null,"transport_unit":null,"transport_co2_eq":null,"from_stop_id":"14207","from_stop_lat":"39.399872","from_stop_lon":"-8.224454","from_stop_placename":"Portugal","to_stop_id":"14205","to_stop_name":"origin","to_stop_lat":"51.5018856","to_stop_lon":"-0.1908948","to_stop_placename":"Kensington, Greater London, UK","to_stop":{"id":"14205","name":"origin","lat":"51.5018856","lon":"-0.1908948","placename":"Kensington, Greater London, UK"},"from_stop":{"name":"origin","id":"14207","lat":"39.399872","lon":"-8.224454","placename":"Portugal"}}]}}},"processes":[],"eols":[]},{"oid":"780","imid":"6868","linkid":"0","weight":"0.36","rawemissions":"0","emissions":"0","shipping":"289.51","processemissions":"0","endoflifeemissions":"0","disposaltype":null,"disposalenergy":null,"disposalimpact":null,"disposalemissions":null,"description":"","name":"Cream","id":"6868","stops":{"origin":{"related_to":"6868","part_or_object":"p","notes":null,"placename":"Jersey","id":14208,"name":"origin","lat":"49.214439","lon":"-2.13125","hops":{"incoming":[],"outgoing":[{"transport_id":"20","id":"10320","transport_name":"Road","transport_description":"from the Greenhouse Gas Protocol Initiative - GHG emission from transport or mobile sources calculator 2.0 (jun 2009)","transport_unit":"kg km","transport_co2_eq":"0.000204","from_stop_id":"14208","from_stop_lat":"49.214439","from_stop_lon":"-2.13125","from_stop_placename":"Jersey","to_stop_id":"14205","to_stop_name":"origin","to_stop_lat":"51.5018856","to_stop_lon":"-0.1908948","to_stop_placename":"Kensington, Greater London, UK","to_stop":{"id":"14205","name":"origin","lat":"51.5018856","lon":"-0.1908948","placename":"Kensington, Greater London, UK"},"from_stop":{"name":"origin","id":"14208","lat":"49.214439","lon":"-2.13125","placename":"Jersey"}}]}}},"processes":[],"eols":[]},{"oid":"780","imid":"6869","linkid":"parts\/table-grapes","weight":"0.5","rawemissions":"0.74","emissions":"0","shipping":"11926.93","processemissions":"0","endoflifeemissions":"0","disposaltype":null,"disposalenergy":null,"disposalimpact":null,"disposalemissions":null,"description":"","name":"Grapes, Table","id":"6869","stops":{"origin":{"related_to":"6869","part_or_object":"p","notes":null,"placename":"Chile","id":14209,"name":"origin","lat":"-35.675147","lon":"-71.542969","hops":{"incoming":[],"outgoing":[{"transport_id":null,"id":"10321","transport_name":null,"transport_description":null,"transport_unit":null,"transport_co2_eq":null,"from_stop_id":"14209","from_stop_lat":"-35.675147","from_stop_lon":"-71.542969","from_stop_placename":"Chile","to_stop_id":"14205","to_stop_name":"origin","to_stop_lat":"51.5018856","to_stop_lon":"-0.1908948","to_stop_placename":"Kensington, Greater London, UK","to_stop":{"id":"14205","name":"origin","lat":"51.5018856","lon":"-0.1908948","placename":"Kensington, Greater London, UK"},"from_stop":{"name":"origin","id":"14209","lat":"-35.675147","lon":"-71.542969","placename":"Chile"}}]}}},"processes":[],"eols":[]}],"user":{"name":"Jessi","id":"12762"}}}