{"781":{"oid":"781","type":"food","flag":"","creator":"12326","name":"How Paulie Gee's Pizza Is Made","upc":"","imagelink":"","description":"Paulie Gee's in Greenpoint, Brooklyn \nhttp:\/\/www.pauliegee.com\/home.php","slug":"pizza-1","category":"","weight":"0","emissions":"0","embodied":"0","transport":"0","process":null,"endoflife":null,"shipping":"24496.17","lifetime":null,"usagetype":"","usageenergy":null,"usageemissions":null,"timecreated":"2011-03-28 11:15:30","timemodified":"2011-04-25 12:31:00","visibility":"public","showfootprint":"on","showembodied":"on","showtransport":"on","showprocess":"on","showendoflife":"on","showlastleg":"on","showuse":"on","showstats":"on","stops":{"origin":{"related_to":"781","part_or_object":"o","notes":null,"placename":"Brooklyn, NY, USA","id":"15681","category":"1","lat":"40.65","lon":"-73.95","name":"origin","hops":{"incoming":[{"transport_id":null,"id":"11364","transport_name":null,"transport_description":null,"transport_unit":null,"transport_co2_eq":null,"from_stop_id":"15682","from_stop_lat":"41.87194","from_stop_lon":"12.56738","to_stop_id":"15681","to_stop_name":"origin","to_stop_lat":"40.65","placename":"Italy","to_stop_lon":"-73.95","to_stop":{"id":"15681","name":"origin","lat":"40.65","placename":"Brooklyn, NY, USA","lon":"-73.95"},"from_stop":{"name":"origin","id":"15682","lat":"41.87194","lon":"12.56738","placename":"Italy"}},{"transport_id":null,"id":"11365","transport_name":null,"transport_description":null,"transport_unit":null,"transport_co2_eq":null,"from_stop_id":"15683","from_stop_lat":"52.9399159","from_stop_lon":"-73.5491361","to_stop_id":"15681","to_stop_name":"origin","to_stop_lat":"40.65","placename":"Quebec, Canada","to_stop_lon":"-73.95","to_stop":{"id":"15681","name":"origin","lat":"40.65","placename":"Brooklyn, NY, USA","lon":"-73.95"},"from_stop":{"name":"origin","id":"15683","lat":"52.9399159","lon":"-73.5491361","placename":"Quebec, Canada"}},{"transport_id":null,"id":"11366","transport_name":null,"transport_description":null,"transport_unit":null,"transport_co2_eq":null,"from_stop_id":"15684","from_stop_lat":"29.4581429","from_stop_lon":"-94.5005808","to_stop_id":"15681","to_stop_name":"origin","to_stop_lat":"40.65","placename":"Gulf Of Mexico, United States","to_stop_lon":"-73.95","to_stop":{"id":"15681","name":"origin","lat":"40.65","placename":"Brooklyn, NY, USA","lon":"-73.95"},"from_stop":{"name":"origin","id":"15684","lat":"29.4581429","lon":"-94.5005808","placename":"Gulf Of Mexico, United States"}},{"transport_id":null,"id":"11367","transport_name":null,"transport_description":null,"transport_unit":null,"transport_co2_eq":null,"from_stop_id":"15685","from_stop_lat":"41.87194","from_stop_lon":"12.56738","to_stop_id":"15681","to_stop_name":"origin","to_stop_lat":"40.65","placename":"Italy","to_stop_lon":"-73.95","to_stop":{"id":"15681","name":"origin","lat":"40.65","placename":"Brooklyn, NY, USA","lon":"-73.95"},"from_stop":{"name":"origin","id":"15685","lat":"41.87194","lon":"12.56738","placename":"Italy"}},{"transport_id":null,"id":"11368","transport_name":null,"transport_description":null,"transport_unit":null,"transport_co2_eq":null,"from_stop_id":"15686","from_stop_lat":"42.2173102","from_stop_lon":"-73.8645734","to_stop_id":"15681","to_stop_name":"origin","to_stop_lat":"40.65","placename":"Catskill, NY, USA","to_stop_lon":"-73.95","to_stop":{"id":"15681","name":"origin","lat":"40.65","placename":"Brooklyn, NY, USA","lon":"-73.95"},"from_stop":{"name":"origin","id":"15686","lat":"42.2173102","lon":"-73.8645734","placename":"Catskill, NY, USA"}},{"transport_id":null,"id":"11369","transport_name":null,"transport_description":null,"transport_unit":null,"transport_co2_eq":null,"from_stop_id":"15687","from_stop_lat":"40.65","from_stop_lon":"-73.95","to_stop_id":"15681","to_stop_name":"origin","to_stop_lat":"40.65","placename":"Brooklyn, NY, USA","to_stop_lon":"-73.95","to_stop":{"id":"15681","name":"origin","lat":"40.65","placename":"Brooklyn, NY, USA","lon":"-73.95"},"from_stop":{"name":"origin","id":"15687","lat":"40.65","lon":"-73.95","placename":"Brooklyn, NY, USA"}},{"transport_id":"17","id":"11370","transport_name":"None Selected","transport_description":null,"transport_unit":"kg km","transport_co2_eq":"0.000000","from_stop_id":"15688","from_stop_lat":"40.65","from_stop_lon":"-73.95","to_stop_id":"15681","to_stop_name":"origin","to_stop_lat":"40.65","placename":"Brooklyn, NY, USA","to_stop_lon":"-73.95","to_stop":{"id":"15681","name":"origin","lat":"40.65","placename":"Brooklyn, NY, USA","lon":"-73.95"},"from_stop":{"name":"origin","id":"15688","lat":"40.65","lon":"-73.95","placename":"Brooklyn, NY, USA"}},{"transport_id":null,"id":"11371","transport_name":null,"transport_description":null,"transport_unit":null,"transport_co2_eq":null,"from_stop_id":"15689","from_stop_lat":"40.65","from_stop_lon":"-73.95","to_stop_id":"15681","to_stop_name":"origin","to_stop_lat":"40.65","placename":"Brooklyn, NY, USA","to_stop_lon":"-73.95","to_stop":{"id":"15681","name":"origin","lat":"40.65","placename":"Brooklyn, NY, USA","lon":"-73.95"},"from_stop":{"name":"origin","id":"15689","lat":"40.65","lon":"-73.95","placename":"Brooklyn, NY, USA"}},{"transport_id":null,"id":"11372","transport_name":null,"transport_description":null,"transport_unit":null,"transport_co2_eq":null,"from_stop_id":"15690","from_stop_lat":"41.87194","from_stop_lon":"12.56738","to_stop_id":"15681","to_stop_name":"origin","to_stop_lat":"40.65","placename":"Italy","to_stop_lon":"-73.95","to_stop":{"id":"15681","name":"origin","lat":"40.65","placename":"Brooklyn, NY, USA","lon":"-73.95"},"from_stop":{"name":"origin","id":"15690","lat":"41.87194","lon":"12.56738","placename":"Italy"}}],"outgoing":[]}}},"parts":[{"oid":"781","imid":"6761","linkid":"0","weight":"0","rawemissions":"0","emissions":"0","shipping":"6904.26","processemissions":"0","endoflifeemissions":"0","disposaltype":null,"disposalenergy":null,"disposalimpact":null,"disposalemissions":null,"description":"Best guess","name":"olive oil","id":"6761","stops":{"origin":{"related_to":"6761","part_or_object":"p","notes":null,"placename":"Italy","id":15682,"name":"origin","lat":"41.87194","lon":"12.56738","hops":{"incoming":[],"outgoing":[{"transport_id":null,"id":"11364","transport_name":null,"transport_description":null,"transport_unit":null,"transport_co2_eq":null,"from_stop_id":"15682","from_stop_lat":"41.87194","from_stop_lon":"12.56738","from_stop_placename":"Italy","to_stop_id":"15681","to_stop_name":"origin","to_stop_lat":"40.65","to_stop_lon":"-73.95","to_stop_placename":"Brooklyn, NY, USA","to_stop":{"id":"15681","name":"origin","lat":"40.65","lon":"-73.95","placename":"Brooklyn, NY, USA"},"from_stop":{"name":"origin","id":"15682","lat":"41.87194","lon":"12.56738","placename":"Italy"}}]}}},"processes":[],"eols":[]},{"oid":"781","imid":"6762","linkid":"0","weight":"0","rawemissions":"0","emissions":"0","shipping":"1368.44","processemissions":"0","endoflifeemissions":"0","disposaltype":null,"disposalenergy":null,"disposalimpact":null,"disposalemissions":null,"description":"Reference: Adam Rubin, The Wood Man","name":"wood","id":"6762","stops":{"origin":{"related_to":"6762","part_or_object":"p","notes":null,"placename":"Quebec, Canada","id":15683,"name":"origin","lat":"52.9399159","lon":"-73.5491361","hops":{"incoming":[],"outgoing":[{"transport_id":null,"id":"11365","transport_name":null,"transport_description":null,"transport_unit":null,"transport_co2_eq":null,"from_stop_id":"15683","from_stop_lat":"52.9399159","from_stop_lon":"-73.5491361","from_stop_placename":"Quebec, Canada","to_stop_id":"15681","to_stop_name":"origin","to_stop_lat":"40.65","to_stop_lon":"-73.95","to_stop_placename":"Brooklyn, NY, USA","to_stop":{"id":"15681","name":"origin","lat":"40.65","lon":"-73.95","placename":"Brooklyn, NY, USA"},"from_stop":{"name":"origin","id":"15683","lat":"52.9399159","lon":"-73.5491361","placename":"Quebec, Canada"}}]}}},"processes":[],"eols":[]},{"oid":"781","imid":"6757","linkid":"parts\/wheat-flour","weight":"0","rawemissions":"0.7","emissions":"0","shipping":"6904.26","processemissions":"0","endoflifeemissions":"0","disposaltype":null,"disposalenergy":null,"disposalimpact":null,"disposalemissions":null,"description":"According to owner Paul Gianonne, the flour made in Italy and bought once a week.","name":"Flour, Wheat","id":"6757","stops":{"origin":{"related_to":"6757","part_or_object":"p","notes":null,"placename":"Italy","id":15685,"name":"origin","lat":"41.87194","lon":"12.56738","hops":{"incoming":[],"outgoing":[{"transport_id":null,"id":"11367","transport_name":null,"transport_description":null,"transport_unit":null,"transport_co2_eq":null,"from_stop_id":"15685","from_stop_lat":"41.87194","from_stop_lon":"12.56738","from_stop_placename":"Italy","to_stop_id":"15681","to_stop_name":"origin","to_stop_lat":"40.65","to_stop_lon":"-73.95","to_stop_placename":"Brooklyn, NY, USA","to_stop":{"id":"15681","name":"origin","lat":"40.65","lon":"-73.95","placename":"Brooklyn, NY, USA"},"from_stop":{"name":"origin","id":"15685","lat":"41.87194","lon":"12.56738","placename":"Italy"}}]}}},"processes":[],"eols":[]},{"oid":"781","imid":"6758","linkid":"0","weight":"0","rawemissions":"0","emissions":"0","shipping":"174.62","processemissions":"0","endoflifeemissions":"0","disposaltype":null,"disposalenergy":null,"disposalimpact":null,"disposalemissions":null,"description":"New York City tap water","name":"Water","id":"6758","stops":{"origin":{"related_to":"6758","part_or_object":"p","notes":null,"placename":"Catskill, NY, USA","id":15686,"name":"origin","lat":"42.2173102","lon":"-73.8645734","hops":{"incoming":[],"outgoing":[{"transport_id":null,"id":"11368","transport_name":null,"transport_description":null,"transport_unit":null,"transport_co2_eq":null,"from_stop_id":"15686","from_stop_lat":"42.2173102","from_stop_lon":"-73.8645734","from_stop_placename":"Catskill, NY, USA","to_stop_id":"15681","to_stop_name":"origin","to_stop_lat":"40.65","to_stop_lon":"-73.95","to_stop_placename":"Brooklyn, NY, USA","to_stop":{"id":"15681","name":"origin","lat":"40.65","lon":"-73.95","placename":"Brooklyn, NY, USA"},"from_stop":{"name":"origin","id":"15686","lat":"42.2173102","lon":"-73.8645734","placename":"Catskill, NY, USA"}}]}}},"processes":[],"eols":[]},{"oid":"781","imid":"6759","linkid":"0","weight":"0","rawemissions":"0","emissions":"0","shipping":"0","processemissions":"0","endoflifeemissions":"0","disposaltype":null,"disposalenergy":null,"disposalimpact":null,"disposalemissions":null,"description":"Best Guess","name":"Yeast","id":"6759","stops":{"origin":{"related_to":"6759","part_or_object":"p","notes":null,"placename":"Brooklyn, NY, USA","id":15687,"name":"origin","lat":"40.65","lon":"-73.95","hops":{"incoming":[],"outgoing":[{"transport_id":null,"id":"11369","transport_name":null,"transport_description":null,"transport_unit":null,"transport_co2_eq":null,"from_stop_id":"15687","from_stop_lat":"40.65","from_stop_lon":"-73.95","from_stop_placename":"Brooklyn, NY, USA","to_stop_id":"15681","to_stop_name":"origin","to_stop_lat":"40.65","to_stop_lon":"-73.95","to_stop_placename":"Brooklyn, NY, USA","to_stop":{"id":"15681","name":"origin","lat":"40.65","lon":"-73.95","placename":"Brooklyn, NY, USA"},"from_stop":{"name":"origin","id":"15687","lat":"40.65","lon":"-73.95","placename":"Brooklyn, NY, USA"}}]}}},"processes":[],"eols":[]},{"oid":"781","imid":"6754","linkid":"0","weight":"0","rawemissions":"0","emissions":"0","shipping":"0","processemissions":"0","endoflifeemissions":"0","disposaltype":null,"disposalenergy":null,"disposalimpact":null,"disposalemissions":null,"description":"According to owner Paul Gianonne, most of the basil used at Paulie Gee's is grown on rooftop farms in Brooklyn.","name":"Basil","id":"6754","stops":{"origin":{"related_to":"6754","part_or_object":"p","notes":null,"placename":"Brooklyn, NY, USA","id":15688,"name":"origin","lat":"40.65","lon":"-73.95","hops":{"incoming":[],"outgoing":[{"transport_id":"17","id":"11370","transport_name":"None Selected","transport_description":null,"transport_unit":"kg km","transport_co2_eq":"0.000000","from_stop_id":"15688","from_stop_lat":"40.65","from_stop_lon":"-73.95","from_stop_placename":"Brooklyn, NY, USA","to_stop_id":"15681","to_stop_name":"origin","to_stop_lat":"40.65","to_stop_lon":"-73.95","to_stop_placename":"Brooklyn, NY, USA","to_stop":{"id":"15681","name":"origin","lat":"40.65","lon":"-73.95","placename":"Brooklyn, NY, USA"},"from_stop":{"name":"origin","id":"15688","lat":"40.65","lon":"-73.95","placename":"Brooklyn, NY, USA"}}]}}},"processes":[],"eols":[]},{"oid":"781","imid":"6755","linkid":"0","weight":"0","rawemissions":"0","emissions":"0","shipping":"0","processemissions":"0","endoflifeemissions":"0","disposaltype":null,"disposalenergy":null,"disposalimpact":null,"disposalemissions":null,"description":"According to owner Paul Gianonne, Paulie Gee's uses a cheese shop in North Brooklyn.","name":"Mozzarella","id":"6755","stops":{"origin":{"related_to":"6755","part_or_object":"p","notes":null,"placename":"Brooklyn, NY, USA","id":15689,"name":"origin","lat":"40.65","lon":"-73.95","hops":{"incoming":[],"outgoing":[{"transport_id":null,"id":"11371","transport_name":null,"transport_description":null,"transport_unit":null,"transport_co2_eq":null,"from_stop_id":"15689","from_stop_lat":"40.65","from_stop_lon":"-73.95","from_stop_placename":"Brooklyn, NY, USA","to_stop_id":"15681","to_stop_name":"origin","to_stop_lat":"40.65","to_stop_lon":"-73.95","to_stop_placename":"Brooklyn, NY, USA","to_stop":{"id":"15681","name":"origin","lat":"40.65","lon":"-73.95","placename":"Brooklyn, NY, USA"},"from_stop":{"name":"origin","id":"15689","lat":"40.65","lon":"-73.95","placename":"Brooklyn, NY, USA"}}]}}},"processes":[],"eols":[]},{"oid":"781","imid":"6756","linkid":"0","weight":"0","rawemissions":"0","emissions":"0","shipping":"6904.26","processemissions":"0","endoflifeemissions":"0","disposaltype":null,"disposalenergy":null,"disposalimpact":null,"disposalemissions":null,"description":"According to owner Paul Gianonne, the tomatoes are grown in Italy and bought once every two weeks.","name":"Tomatoes","id":"6756","stops":{"origin":{"related_to":"6756","part_or_object":"p","notes":null,"placename":"Italy","id":15690,"name":"origin","lat":"41.87194","lon":"12.56738","hops":{"incoming":[],"outgoing":[{"transport_id":null,"id":"11372","transport_name":null,"transport_description":null,"transport_unit":null,"transport_co2_eq":null,"from_stop_id":"15690","from_stop_lat":"41.87194","from_stop_lon":"12.56738","from_stop_placename":"Italy","to_stop_id":"15681","to_stop_name":"origin","to_stop_lat":"40.65","to_stop_lon":"-73.95","to_stop_placename":"Brooklyn, NY, USA","to_stop":{"id":"15681","name":"origin","lat":"40.65","lon":"-73.95","placename":"Brooklyn, NY, USA"},"from_stop":{"name":"origin","id":"15690","lat":"41.87194","lon":"12.56738","placename":"Italy"}}]}}},"processes":[],"eols":[]},{"oid":"781","imid":"6763","linkid":"0","weight":"0","rawemissions":"0","emissions":"0","shipping":"2240.33","processemissions":"0","endoflifeemissions":"0","disposaltype":null,"disposalenergy":null,"disposalimpact":null,"disposalemissions":null,"description":"\"Turning on the stove is just the start of a complicated journey over hundreds of miles, beginning in the gas fields of Texas, Louisiana, the Gulf of Mexico, and today 30%of Con Edison\u2019s gas comes from Canada.\" http:\/\/www.coned.com\/newsroom\/energysystems_gas.asp","name":"natural gas","id":"6763","stops":{"origin":{"related_to":"6763","part_or_object":"p","notes":null,"placename":"Gulf Of Mexico, United States","id":15684,"name":"origin","lat":"29.4581429","lon":"-94.5005808","hops":{"incoming":[],"outgoing":[{"transport_id":null,"id":"11366","transport_name":null,"transport_description":null,"transport_unit":null,"transport_co2_eq":null,"from_stop_id":"15684","from_stop_lat":"29.4581429","from_stop_lon":"-94.5005808","from_stop_placename":"Gulf Of Mexico, United States","to_stop_id":"15681","to_stop_name":"origin","to_stop_lat":"40.65","to_stop_lon":"-73.95","to_stop_placename":"Brooklyn, NY, USA","to_stop":{"id":"15681","name":"origin","lat":"40.65","lon":"-73.95","placename":"Brooklyn, NY, USA"},"from_stop":{"name":"origin","id":"15684","lat":"29.4581429","lon":"-94.5005808","placename":"Gulf Of Mexico, United States"}}]}}},"processes":[],"eols":[]}],"user":{"name":"bf701","id":"12326"}}}