{"84":{"oid":"84","type":"trace","flag":"","creator":"11251","name":"Coors","upc":"","imagelink":"","description":"The Coors Brewery in Golden, CO makes some of the most well known beer in America. Adolph Coors began the Brewery in the 1800s, which was the beginning of one of America's most popular beers.","slug":"Coors","category":"","weight":"0","emissions":"0","embodied":"0","transport":"0","process":null,"endoflife":null,"shipping":"21196.87","lifetime":null,"usagetype":"","usageenergy":null,"usageemissions":null,"timecreated":"2010-11-29 15:57:22","timemodified":"2010-11-29 16:04:57","visibility":"public","showfootprint":"on","showembodied":"on","showtransport":"on","showprocess":"on","showendoflife":"on","showlastleg":"on","showuse":"on","showstats":"on","stops":{"origin":{"related_to":"84","part_or_object":"o","notes":null,"placename":"Golden, CO, USA","id":"7637","category":"1","lat":"39.755543","lon":"-105.2210997","name":"origin","hops":{"incoming":[{"transport_id":null,"id":"5168","transport_name":null,"transport_description":null,"transport_unit":null,"transport_co2_eq":null,"from_stop_id":"7638","from_stop_lat":"39.755543","from_stop_lon":"-105.2210997","to_stop_id":"7637","to_stop_name":"origin","to_stop_lat":"39.755543","placename":"Golden, CO, USA","to_stop_lon":"-105.2210997","to_stop":{"id":"7637","name":"origin","lat":"39.755543","placename":"Golden, CO, USA","lon":"-105.2210997"},"from_stop":{"name":"origin","id":"7638","lat":"39.755543","lon":"-105.2210997","placename":"Golden, CO, USA"}},{"transport_id":null,"id":"5169","transport_name":null,"transport_description":null,"transport_unit":null,"transport_co2_eq":null,"from_stop_id":"7639","from_stop_lat":"44.0682019","from_stop_lon":"-114.7420408","to_stop_id":"7637","to_stop_name":"origin","to_stop_lat":"39.755543","placename":"Idaho, USA","to_stop_lon":"-105.2210997","to_stop":{"id":"7637","name":"origin","lat":"39.755543","placename":"Golden, CO, USA","lon":"-105.2210997"},"from_stop":{"name":"origin","id":"7639","lat":"44.0682019","lon":"-114.7420408","placename":"Idaho, USA"}},{"transport_id":null,"id":"5170","transport_name":null,"transport_description":null,"transport_unit":null,"transport_co2_eq":null,"from_stop_id":"7640","from_stop_lat":"-40.900557","from_stop_lon":"174.885971","to_stop_id":"7637","to_stop_name":"origin","to_stop_lat":"39.755543","placename":"New Zealand","to_stop_lon":"-105.2210997","to_stop":{"id":"7637","name":"origin","lat":"39.755543","placename":"Golden, CO, USA","lon":"-105.2210997"},"from_stop":{"name":"origin","id":"7640","lat":"-40.900557","lon":"174.885971","placename":"New Zealand"}},{"transport_id":null,"id":"5171","transport_name":null,"transport_description":null,"transport_unit":null,"transport_co2_eq":null,"from_stop_id":"7641","from_stop_lat":"51.165691","from_stop_lon":"10.451526","to_stop_id":"7637","to_stop_name":"origin","to_stop_lat":"39.755543","placename":"Germany","to_stop_lon":"-105.2210997","to_stop":{"id":"7637","name":"origin","lat":"39.755543","placename":"Golden, CO, USA","lon":"-105.2210997"},"from_stop":{"name":"origin","id":"7641","lat":"51.165691","lon":"10.451526","placename":"Germany"}},{"transport_id":null,"id":"5172","transport_name":null,"transport_description":null,"transport_unit":null,"transport_co2_eq":null,"from_stop_id":"7642","from_stop_lat":"39.5500507","from_stop_lon":"-105.7820674","to_stop_id":"7637","to_stop_name":"origin","to_stop_lat":"39.755543","placename":"Colorado, USA","to_stop_lon":"-105.2210997","to_stop":{"id":"7637","name":"origin","lat":"39.755543","placename":"Golden, CO, USA","lon":"-105.2210997"},"from_stop":{"name":"origin","id":"7642","lat":"39.5500507","lon":"-105.7820674","placename":"Colorado, USA"}}],"outgoing":[]}}},"parts":[{"oid":"84","imid":"4935","linkid":"0","weight":"0","rawemissions":"0","emissions":"0","shipping":"0","processemissions":"0","endoflifeemissions":"0","disposaltype":null,"disposalenergy":null,"disposalimpact":null,"disposalemissions":null,"description":"The soft water from the Colorado Rocky Mountains is one of the main ingredients that goes into making Coors such a delicious beer. The water has just the right mineral content for making beer.","name":"Water","id":"4935","stops":{"origin":{"related_to":"4935","part_or_object":"p","notes":null,"placename":"Golden, CO, USA","id":7638,"name":"origin","lat":"39.755543","lon":"-105.2210997","hops":{"incoming":[],"outgoing":[{"transport_id":null,"id":"5168","transport_name":null,"transport_description":null,"transport_unit":null,"transport_co2_eq":null,"from_stop_id":"7638","from_stop_lat":"39.755543","from_stop_lon":"-105.2210997","from_stop_placename":"Golden, CO, USA","to_stop_id":"7637","to_stop_name":"origin","to_stop_lat":"39.755543","to_stop_lon":"-105.2210997","to_stop_placename":"Golden, CO, USA","to_stop":{"id":"7637","name":"origin","lat":"39.755543","lon":"-105.2210997","placename":"Golden, CO, USA"},"from_stop":{"name":"origin","id":"7638","lat":"39.755543","lon":"-105.2210997","placename":"Golden, CO, USA"}}]}}},"processes":[],"eols":[]},{"oid":"84","imid":"4936","linkid":"0","weight":"0","rawemissions":"0","emissions":"0","shipping":"922.45","processemissions":"0","endoflifeemissions":"0","disposaltype":null,"disposalenergy":null,"disposalimpact":null,"disposalemissions":null,"description":"The hops for Coors comes from Idaho, Washington and Oregon which is transported to the Brewery in Golden, Colorado.","name":"Hops","id":"4936","stops":{"origin":{"related_to":"4936","part_or_object":"p","notes":null,"placename":"Idaho, USA","id":7639,"name":"origin","lat":"44.0682019","lon":"-114.7420408","hops":{"incoming":[],"outgoing":[{"transport_id":null,"id":"5169","transport_name":null,"transport_description":null,"transport_unit":null,"transport_co2_eq":null,"from_stop_id":"7639","from_stop_lat":"44.0682019","from_stop_lon":"-114.7420408","from_stop_placename":"Idaho, USA","to_stop_id":"7637","to_stop_name":"origin","to_stop_lat":"39.755543","to_stop_lon":"-105.2210997","to_stop_placename":"Golden, CO, USA","to_stop":{"id":"7637","name":"origin","lat":"39.755543","lon":"-105.2210997","placename":"Golden, CO, USA"},"from_stop":{"name":"origin","id":"7639","lat":"44.0682019","lon":"-114.7420408","placename":"Idaho, USA"}}]}}},"processes":[],"eols":[]},{"oid":"84","imid":"4937","linkid":"0","weight":"0","rawemissions":"0","emissions":"0","shipping":"12074.42","processemissions":"0","endoflifeemissions":"0","disposaltype":null,"disposalenergy":null,"disposalimpact":null,"disposalemissions":null,"description":"Some hops are shipped to the United States, probably in container ships before being trucked to the Coors Brewery in Colorado.","name":"New Zealand Hops","id":"4937","stops":{"origin":{"related_to":"4937","part_or_object":"p","notes":null,"placename":"New Zealand","id":7640,"name":"origin","lat":"-40.900557","lon":"174.885971","hops":{"incoming":[],"outgoing":[{"transport_id":null,"id":"5170","transport_name":null,"transport_description":null,"transport_unit":null,"transport_co2_eq":null,"from_stop_id":"7640","from_stop_lat":"-40.900557","from_stop_lon":"174.885971","from_stop_placename":"New Zealand","to_stop_id":"7637","to_stop_name":"origin","to_stop_lat":"39.755543","to_stop_lon":"-105.2210997","to_stop_placename":"Golden, CO, USA","to_stop":{"id":"7637","name":"origin","lat":"39.755543","lon":"-105.2210997","placename":"Golden, CO, USA"},"from_stop":{"name":"origin","id":"7640","lat":"-40.900557","lon":"174.885971","placename":"New Zealand"}}]}}},"processes":[],"eols":[]},{"oid":"84","imid":"4938","linkid":"0","weight":"0","rawemissions":"0","emissions":"0","shipping":"8146.76","processemissions":"0","endoflifeemissions":"0","disposaltype":null,"disposalenergy":null,"disposalimpact":null,"disposalemissions":null,"description":"There are also hops imported from Germany, which are also shipped to the United States before making their way into the beer at Golden, Colorado.","name":"German Hops","id":"4938","stops":{"origin":{"related_to":"4938","part_or_object":"p","notes":null,"placename":"Germany","id":7641,"name":"origin","lat":"51.165691","lon":"10.451526","hops":{"incoming":[],"outgoing":[{"transport_id":null,"id":"5171","transport_name":null,"transport_description":null,"transport_unit":null,"transport_co2_eq":null,"from_stop_id":"7641","from_stop_lat":"51.165691","from_stop_lon":"10.451526","from_stop_placename":"Germany","to_stop_id":"7637","to_stop_name":"origin","to_stop_lat":"39.755543","to_stop_lon":"-105.2210997","to_stop_placename":"Golden, CO, USA","to_stop":{"id":"7637","name":"origin","lat":"39.755543","lon":"-105.2210997","placename":"Golden, CO, USA"},"from_stop":{"name":"origin","id":"7641","lat":"51.165691","lon":"10.451526","placename":"Germany"}}]}}},"processes":[],"eols":[]},{"oid":"84","imid":"4939","linkid":"0","weight":"0","rawemissions":"0","emissions":"0","shipping":"53.24","processemissions":"0","endoflifeemissions":"0","disposaltype":null,"disposalenergy":null,"disposalimpact":null,"disposalemissions":null,"description":"The 2-row barley used in Coors and Coors Light comes from local farmers in northern Colorado.","name":"Barley","id":"4939","stops":{"origin":{"related_to":"4939","part_or_object":"p","notes":null,"placename":"Colorado, USA","id":7642,"name":"origin","lat":"39.5500507","lon":"-105.7820674","hops":{"incoming":[],"outgoing":[{"transport_id":null,"id":"5172","transport_name":null,"transport_description":null,"transport_unit":null,"transport_co2_eq":null,"from_stop_id":"7642","from_stop_lat":"39.5500507","from_stop_lon":"-105.7820674","from_stop_placename":"Colorado, USA","to_stop_id":"7637","to_stop_name":"origin","to_stop_lat":"39.755543","to_stop_lon":"-105.2210997","to_stop_placename":"Golden, CO, USA","to_stop":{"id":"7637","name":"origin","lat":"39.755543","lon":"-105.2210997","placename":"Golden, CO, USA"},"from_stop":{"name":"origin","id":"7642","lat":"39.5500507","lon":"-105.7820674","placename":"Colorado, USA"}}]}}},"processes":[],"eols":[]}],"user":{"name":"KellyB","id":"11251"}}}