{"849":{"oid":"849","type":"trace","flag":"","creator":"12862","name":"Map of traceability ecozap\u00b4s shoes ","upc":"","imagelink":"","description":"where the shoes are made","slug":"Map-of-traceability-ecozap\u00b4s-shoes--1","category":"","weight":"0","emissions":"0","embodied":"0","transport":"0","process":null,"endoflife":null,"shipping":"20561.55","lifetime":null,"usagetype":"","usageenergy":null,"usageemissions":null,"timecreated":"2011-04-06 10:03:15","timemodified":"2011-04-06 10:54:59","visibility":"public","showfootprint":"on","showembodied":"on","showtransport":"on","showprocess":"on","showendoflife":"on","showlastleg":"on","showuse":"on","showstats":"on","stops":{"origin":{"related_to":"849","part_or_object":"o","notes":null,"placename":"Madrid, Espa\u00f1a","id":"14172","category":"1","lat":"40.4166909","lon":"-3.7003454","name":"origin","hops":{"incoming":[{"transport_id":null,"id":"10292","transport_name":null,"transport_description":null,"transport_unit":null,"transport_co2_eq":null,"from_stop_id":"14173","from_stop_lat":"41.4419546","from_stop_lon":"-8.2956069","to_stop_id":"14172","to_stop_name":"origin","to_stop_lat":"40.4166909","placename":"Guimaraes, Portugal","to_stop_lon":"-3.7003454","to_stop":{"id":"14172","name":"origin","lat":"40.4166909","placename":"Madrid, Espa\u00f1a","lon":"-3.7003454"},"from_stop":{"name":"origin","id":"14173","lat":"41.4419546","lon":"-8.2956069","placename":"Guimaraes, Portugal"}},{"transport_id":null,"id":"10293","transport_name":null,"transport_description":null,"transport_unit":null,"transport_co2_eq":null,"from_stop_id":"14174","from_stop_lat":"42.5184982","from_stop_lon":"-7.5106882","to_stop_id":"14172","to_stop_name":"origin","to_stop_lat":"40.4166909","placename":"Monforte de Lemos, Espa\u00f1a","to_stop_lon":"-3.7003454","to_stop":{"id":"14172","name":"origin","lat":"40.4166909","placename":"Madrid, Espa\u00f1a","lon":"-3.7003454"},"from_stop":{"name":"origin","id":"14174","lat":"42.5184982","lon":"-7.5106882","placename":"Monforte de Lemos, Espa\u00f1a"}},{"transport_id":null,"id":"10294","transport_name":null,"transport_description":null,"transport_unit":null,"transport_co2_eq":null,"from_stop_id":"14175","from_stop_lat":"39.9496287","from_stop_lon":"4.1104449","to_stop_id":"14172","to_stop_name":"origin","to_stop_lat":"40.4166909","placename":"Isla de Menorca, Espa\u00f1a","to_stop_lon":"-3.7003454","to_stop":{"id":"14172","name":"origin","lat":"40.4166909","placename":"Madrid, Espa\u00f1a","lon":"-3.7003454"},"from_stop":{"name":"origin","id":"14175","lat":"39.9496287","lon":"4.1104449","placename":"Isla de Menorca, Espa\u00f1a"}},{"transport_id":null,"id":"10295","transport_name":null,"transport_description":null,"transport_unit":null,"transport_co2_eq":null,"from_stop_id":"14176","from_stop_lat":"38.6994956","from_stop_lon":"-9.2292727","to_stop_id":"14172","to_stop_name":"origin","to_stop_lat":"40.4166909","placename":"Alg\u00e9s, 1495 Oeiras, Portugal","to_stop_lon":"-3.7003454","to_stop":{"id":"14172","name":"origin","lat":"40.4166909","placename":"Madrid, Espa\u00f1a","lon":"-3.7003454"},"from_stop":{"name":"origin","id":"14176","lat":"38.6994956","lon":"-9.2292727","placename":"Alg\u00e9s, 1495 Oeiras, Portugal"}},{"transport_id":null,"id":"10296","transport_name":null,"transport_description":null,"transport_unit":null,"transport_co2_eq":null,"from_stop_id":"14177","from_stop_lat":"41.387917","from_stop_lon":"2.1699187","to_stop_id":"14172","to_stop_name":"origin","to_stop_lat":"40.4166909","placename":"Barcelona, Espa\u00f1a","to_stop_lon":"-3.7003454","to_stop":{"id":"14172","name":"origin","lat":"40.4166909","placename":"Madrid, Espa\u00f1a","lon":"-3.7003454"},"from_stop":{"name":"origin","id":"14177","lat":"41.387917","lon":"2.1699187","placename":"Barcelona, Espa\u00f1a"}},{"transport_id":null,"id":"10297","transport_name":null,"transport_description":null,"transport_unit":null,"transport_co2_eq":null,"from_stop_id":"14178","from_stop_lat":"38.2671765","from_stop_lon":"-0.6952196","to_stop_id":"14172","to_stop_name":"origin","to_stop_lat":"40.4166909","placename":"Elche, Espa\u00f1a","to_stop_lon":"-3.7003454","to_stop":{"id":"14172","name":"origin","lat":"40.4166909","placename":"Madrid, Espa\u00f1a","lon":"-3.7003454"},"from_stop":{"name":"origin","id":"14178","lat":"38.2671765","lon":"-0.6952196","placename":"Elche, Espa\u00f1a"}},{"transport_id":null,"id":"10298","transport_name":null,"transport_description":null,"transport_unit":null,"transport_co2_eq":null,"from_stop_id":"14179","from_stop_lat":"39.9496287","from_stop_lon":"4.1104449","to_stop_id":"14172","to_stop_name":"origin","to_stop_lat":"40.4166909","placename":"Isla de Menorca, Espa\u00f1a","to_stop_lon":"-3.7003454","to_stop":{"id":"14172","name":"origin","lat":"40.4166909","placename":"Madrid, Espa\u00f1a","lon":"-3.7003454"},"from_stop":{"name":"origin","id":"14179","lat":"39.9496287","lon":"4.1104449","placename":"Isla de Menorca, Espa\u00f1a"}},{"transport_id":null,"id":"10299","transport_name":null,"transport_description":null,"transport_unit":null,"transport_co2_eq":null,"from_stop_id":"14180","from_stop_lat":"41.5363208","from_stop_lon":"-1.6234421","to_stop_id":"14172","to_stop_name":"origin","to_stop_lat":"40.4166909","placename":"50250 Illueca, Espa\u00f1a","to_stop_lon":"-3.7003454","to_stop":{"id":"14172","name":"origin","lat":"40.4166909","placename":"Madrid, Espa\u00f1a","lon":"-3.7003454"},"from_stop":{"name":"origin","id":"14180","lat":"41.5363208","lon":"-1.6234421","placename":"50250 Illueca, Espa\u00f1a"}},{"transport_id":null,"id":"10300","transport_name":null,"transport_description":null,"transport_unit":null,"transport_co2_eq":null,"from_stop_id":"14181","from_stop_lat":"10.9336421","from_stop_lon":"-65.3094564","to_stop_id":"14172","to_stop_name":"origin","to_stop_lat":"40.4166909","placename":"Isla La Tortuga, Venezuela","to_stop_lon":"-3.7003454","to_stop":{"id":"14172","name":"origin","lat":"40.4166909","placename":"Madrid, Espa\u00f1a","lon":"-3.7003454"},"from_stop":{"name":"origin","id":"14181","lat":"10.9336421","lon":"-65.3094564","placename":"Isla La Tortuga, Venezuela"}},{"transport_id":null,"id":"10301","transport_name":null,"transport_description":null,"transport_unit":null,"transport_co2_eq":null,"from_stop_id":"14182","from_stop_lat":"-14.235004","from_stop_lon":"-51.92528","to_stop_id":"14172","to_stop_name":"origin","to_stop_lat":"40.4166909","placename":"Brasil","to_stop_lon":"-3.7003454","to_stop":{"id":"14172","name":"origin","lat":"40.4166909","placename":"Madrid, Espa\u00f1a","lon":"-3.7003454"},"from_stop":{"name":"origin","id":"14182","lat":"-14.235004","lon":"-51.92528","placename":"Brasil"}},{"transport_id":null,"id":"10302","transport_name":null,"transport_description":null,"transport_unit":null,"transport_co2_eq":null,"from_stop_id":"14183","from_stop_lat":"39.9860683","from_stop_lon":"-0.0360242","to_stop_id":"14172","to_stop_name":"origin","to_stop_lat":"40.4166909","placename":"Castell\u00f3n, Espa\u00f1a","to_stop_lon":"-3.7003454","to_stop":{"id":"14172","name":"origin","lat":"40.4166909","placename":"Madrid, Espa\u00f1a","lon":"-3.7003454"},"from_stop":{"name":"origin","id":"14183","lat":"39.9860683","lon":"-0.0360242","placename":"Castell\u00f3n, Espa\u00f1a"}},{"transport_id":null,"id":"10303","transport_name":null,"transport_description":null,"transport_unit":null,"transport_co2_eq":null,"from_stop_id":"14184","from_stop_lat":"38.3452032","from_stop_lon":"-0.481006","to_stop_id":"14172","to_stop_name":"origin","to_stop_lat":"40.4166909","placename":"Alicante, Espa\u00f1a","to_stop_lon":"-3.7003454","to_stop":{"id":"14172","name":"origin","lat":"40.4166909","placename":"Madrid, Espa\u00f1a","lon":"-3.7003454"},"from_stop":{"name":"origin","id":"14184","lat":"38.3452032","lon":"-0.481006","placename":"Alicante, Espa\u00f1a"}},{"transport_id":null,"id":"10304","transport_name":null,"transport_description":null,"transport_unit":null,"transport_co2_eq":null,"from_stop_id":"14185","from_stop_lat":"43.304563","from_stop_lon":"13.7194675","to_stop_id":"14172","to_stop_name":"origin","to_stop_lat":"40.4166909","placename":"62012 Civitanova Marche Macerata, Italia","to_stop_lon":"-3.7003454","to_stop":{"id":"14172","name":"origin","lat":"40.4166909","placename":"Madrid, Espa\u00f1a","lon":"-3.7003454"},"from_stop":{"name":"origin","id":"14185","lat":"43.304563","lon":"13.7194675","placename":"62012 Civitanova Marche Macerata, Italia"}}],"outgoing":[]}}},"parts":[{"oid":"849","imid":"6840","linkid":"0","weight":"0","rawemissions":"0","emissions":"0","shipping":"402.92","processemissions":"0","endoflifeemissions":"0","disposaltype":null,"disposalenergy":null,"disposalimpact":null,"disposalemissions":null,"description":"ecological shoes without glue, with natural materials vegan and vegetable tanned leather.\n\n","name":"PO-ZU","id":"6840","stops":{"origin":{"related_to":"6840","part_or_object":"p","notes":null,"placename":"Guimaraes, Portugal","id":14173,"name":"origin","lat":"41.4419546","lon":"-8.2956069","hops":{"incoming":[],"outgoing":[{"transport_id":null,"id":"10292","transport_name":null,"transport_description":null,"transport_unit":null,"transport_co2_eq":null,"from_stop_id":"14173","from_stop_lat":"41.4419546","from_stop_lon":"-8.2956069","from_stop_placename":"Guimaraes, Portugal","to_stop_id":"14172","to_stop_name":"origin","to_stop_lat":"40.4166909","to_stop_lon":"-3.7003454","to_stop_placename":"Madrid, Espa\u00f1a","to_stop":{"id":"14172","name":"origin","lat":"40.4166909","lon":"-3.7003454","placename":"Madrid, Espa\u00f1a"},"from_stop":{"name":"origin","id":"14173","lat":"41.4419546","lon":"-8.2956069","placename":"Guimaraes, Portugal"}}]}}},"processes":[],"eols":[]},{"oid":"849","imid":"6841","linkid":"0","weight":"0","rawemissions":"0","emissions":"0","shipping":"394.6","processemissions":"0","endoflifeemissions":"0","disposaltype":null,"disposalenergy":null,"disposalimpact":null,"disposalemissions":null,"description":"Vegetable tanned leather shoes specially made for Ecozap.","name":"Losal","id":"6841","stops":{"origin":{"related_to":"6841","part_or_object":"p","notes":null,"placename":"Monforte de Lemos, Espa\u00f1a","id":14174,"name":"origin","lat":"42.5184982","lon":"-7.5106882","hops":{"incoming":[],"outgoing":[{"transport_id":null,"id":"10293","transport_name":null,"transport_description":null,"transport_unit":null,"transport_co2_eq":null,"from_stop_id":"14174","from_stop_lat":"42.5184982","from_stop_lon":"-7.5106882","from_stop_placename":"Monforte de Lemos, Espa\u00f1a","to_stop_id":"14172","to_stop_name":"origin","to_stop_lat":"40.4166909","to_stop_lon":"-3.7003454","to_stop_placename":"Madrid, Espa\u00f1a","to_stop":{"id":"14172","name":"origin","lat":"40.4166909","lon":"-3.7003454","placename":"Madrid, Espa\u00f1a"},"from_stop":{"name":"origin","id":"14174","lat":"42.5184982","lon":"-7.5106882","placename":"Monforte de Lemos, Espa\u00f1a"}}]}}},"processes":[],"eols":[]},{"oid":"849","imid":"6842","linkid":"0","weight":"0","rawemissions":"0","emissions":"0","shipping":"666.09","processemissions":"0","endoflifeemissions":"0","disposaltype":null,"disposalenergy":null,"disposalimpact":null,"disposalemissions":null,"description":"Ecological leather shoes. Ergonomic, confortable.","name":"Nagore","id":"6842","stops":{"origin":{"related_to":"6842","part_or_object":"p","notes":null,"placename":"Isla de Menorca, Espa\u00f1a","id":14175,"name":"origin","lat":"39.9496287","lon":"4.1104449","hops":{"incoming":[],"outgoing":[{"transport_id":null,"id":"10294","transport_name":null,"transport_description":null,"transport_unit":null,"transport_co2_eq":null,"from_stop_id":"14175","from_stop_lat":"39.9496287","from_stop_lon":"4.1104449","from_stop_placename":"Isla de Menorca, Espa\u00f1a","to_stop_id":"14172","to_stop_name":"origin","to_stop_lat":"40.4166909","to_stop_lon":"-3.7003454","to_stop_placename":"Madrid, Espa\u00f1a","to_stop":{"id":"14172","name":"origin","lat":"40.4166909","lon":"-3.7003454","placename":"Madrid, Espa\u00f1a"},"from_stop":{"name":"origin","id":"14175","lat":"39.9496287","lon":"4.1104449","placename":"Isla de Menorca, Espa\u00f1a"}}]}}},"processes":[],"eols":[]},{"oid":"849","imid":"6843","linkid":"0","weight":"0","rawemissions":"0","emissions":"0","shipping":"511.46","processemissions":"0","endoflifeemissions":"0","disposaltype":null,"disposalenergy":null,"disposalimpact":null,"disposalemissions":null,"description":"No animal explotation, vegan shoes.","name":"NAE","id":"6843","stops":{"origin":{"related_to":"6843","part_or_object":"p","notes":null,"placename":"Alg\u00e9s, 1495 Oeiras, Portugal","id":14176,"name":"origin","lat":"38.6994956","lon":"-9.2292727","hops":{"incoming":[],"outgoing":[{"transport_id":null,"id":"10295","transport_name":null,"transport_description":null,"transport_unit":null,"transport_co2_eq":null,"from_stop_id":"14176","from_stop_lat":"38.6994956","from_stop_lon":"-9.2292727","from_stop_placename":"Alg\u00e9s, 1495 Oeiras, Portugal","to_stop_id":"14172","to_stop_name":"origin","to_stop_lat":"40.4166909","to_stop_lon":"-3.7003454","to_stop_placename":"Madrid, Espa\u00f1a","to_stop":{"id":"14172","name":"origin","lat":"40.4166909","lon":"-3.7003454","placename":"Madrid, Espa\u00f1a"},"from_stop":{"name":"origin","id":"14176","lat":"38.6994956","lon":"-9.2292727","placename":"Alg\u00e9s, 1495 Oeiras, Portugal"}}]}}},"processes":[],"eols":[]},{"oid":"849","imid":"6844","linkid":"0","weight":"0","rawemissions":"0","emissions":"0","shipping":"505.5","processemissions":"0","endoflifeemissions":"0","disposaltype":null,"disposalenergy":null,"disposalimpact":null,"disposalemissions":null,"description":"Original jute artisan sandals","name":"De Cos","id":"6844","stops":{"origin":{"related_to":"6844","part_or_object":"p","notes":null,"placename":"Barcelona, Espa\u00f1a","id":14177,"name":"origin","lat":"41.387917","lon":"2.1699187","hops":{"incoming":[],"outgoing":[{"transport_id":null,"id":"10296","transport_name":null,"transport_description":null,"transport_unit":null,"transport_co2_eq":null,"from_stop_id":"14177","from_stop_lat":"41.387917","from_stop_lon":"2.1699187","from_stop_placename":"Barcelona, Espa\u00f1a","to_stop_id":"14172","to_stop_name":"origin","to_stop_lat":"40.4166909","to_stop_lon":"-3.7003454","to_stop_placename":"Madrid, Espa\u00f1a","to_stop":{"id":"14172","name":"origin","lat":"40.4166909","lon":"-3.7003454","placename":"Madrid, Espa\u00f1a"},"from_stop":{"name":"origin","id":"14177","lat":"41.387917","lon":"2.1699187","placename":"Barcelona, Espa\u00f1a"}}]}}},"processes":[],"eols":[]},{"oid":"849","imid":"6845","linkid":"0","weight":"0","rawemissions":"0","emissions":"0","shipping":"352.36","processemissions":"0","endoflifeemissions":"0","disposaltype":null,"disposalenergy":null,"disposalimpact":null,"disposalemissions":null,"description":"First ecological label in Spain.","name":"Pikolinos","id":"6845","stops":{"origin":{"related_to":"6845","part_or_object":"p","notes":null,"placename":"Elche, Espa\u00f1a","id":14178,"name":"origin","lat":"38.2671765","lon":"-0.6952196","hops":{"incoming":[],"outgoing":[{"transport_id":null,"id":"10297","transport_name":null,"transport_description":null,"transport_unit":null,"transport_co2_eq":null,"from_stop_id":"14178","from_stop_lat":"38.2671765","from_stop_lon":"-0.6952196","from_stop_placename":"Elche, Espa\u00f1a","to_stop_id":"14172","to_stop_name":"origin","to_stop_lat":"40.4166909","to_stop_lon":"-3.7003454","to_stop_placename":"Madrid, Espa\u00f1a","to_stop":{"id":"14172","name":"origin","lat":"40.4166909","lon":"-3.7003454","placename":"Madrid, Espa\u00f1a"},"from_stop":{"name":"origin","id":"14178","lat":"38.2671765","lon":"-0.6952196","placename":"Elche, Espa\u00f1a"}}]}}},"processes":[],"eols":[]},{"oid":"849","imid":"6846","linkid":"0","weight":"0","rawemissions":"0","emissions":"0","shipping":"666.09","processemissions":"0","endoflifeemissions":"0","disposaltype":null,"disposalenergy":null,"disposalimpact":null,"disposalemissions":null,"description":"Cotton, eco leather, ballerinas from Jaime Mascar\u00f3.","name":"Pretty Ballerinas","id":"6846","stops":{"origin":{"related_to":"6846","part_or_object":"p","notes":null,"placename":"Isla de Menorca, Espa\u00f1a","id":14179,"name":"origin","lat":"39.9496287","lon":"4.1104449","hops":{"incoming":[],"outgoing":[{"transport_id":null,"id":"10298","transport_name":null,"transport_description":null,"transport_unit":null,"transport_co2_eq":null,"from_stop_id":"14179","from_stop_lat":"39.9496287","from_stop_lon":"4.1104449","from_stop_placename":"Isla de Menorca, Espa\u00f1a","to_stop_id":"14172","to_stop_name":"origin","to_stop_lat":"40.4166909","to_stop_lon":"-3.7003454","to_stop_placename":"Madrid, Espa\u00f1a","to_stop":{"id":"14172","name":"origin","lat":"40.4166909","lon":"-3.7003454","placename":"Madrid, Espa\u00f1a"},"from_stop":{"name":"origin","id":"14179","lat":"39.9496287","lon":"4.1104449","placename":"Isla de Menorca, Espa\u00f1a"}}]}}},"processes":[],"eols":[]},{"oid":"849","imid":"6847","linkid":"0","weight":"0","rawemissions":"0","emissions":"0","shipping":"214.47","processemissions":"0","endoflifeemissions":"0","disposaltype":null,"disposalenergy":null,"disposalimpact":null,"disposalemissions":null,"description":"Vegetable tanned leather elegant men shoes.","name":"Zampiere","id":"6847","stops":{"origin":{"related_to":"6847","part_or_object":"p","notes":null,"placename":"50250 Illueca, Espa\u00f1a","id":14180,"name":"origin","lat":"41.5363208","lon":"-1.6234421","hops":{"incoming":[],"outgoing":[{"transport_id":null,"id":"10299","transport_name":null,"transport_description":null,"transport_unit":null,"transport_co2_eq":null,"from_stop_id":"14180","from_stop_lat":"41.5363208","from_stop_lon":"-1.6234421","from_stop_placename":"50250 Illueca, Espa\u00f1a","to_stop_id":"14172","to_stop_name":"origin","to_stop_lat":"40.4166909","to_stop_lon":"-3.7003454","to_stop_placename":"Madrid, Espa\u00f1a","to_stop":{"id":"14172","name":"origin","lat":"40.4166909","lon":"-3.7003454","placename":"Madrid, Espa\u00f1a"},"from_stop":{"name":"origin","id":"14180","lat":"41.5363208","lon":"-1.6234421","placename":"50250 Illueca, Espa\u00f1a"}}]}}},"processes":[],"eols":[]},{"oid":"849","imid":"6848","linkid":"0","weight":"0","rawemissions":"0","emissions":"0","shipping":"6837.06","processemissions":"0","endoflifeemissions":"0","disposaltype":null,"disposalenergy":null,"disposalimpact":null,"disposalemissions":null,"description":"Fair Trade vegan shoes and sandals.","name":"Fundaci\u00f3n La Tortuga","id":"6848","stops":{"origin":{"related_to":"6848","part_or_object":"p","notes":null,"placename":"Isla La Tortuga, Venezuela","id":14181,"name":"origin","lat":"10.9336421","lon":"-65.3094564","hops":{"incoming":[],"outgoing":[{"transport_id":null,"id":"10300","transport_name":null,"transport_description":null,"transport_unit":null,"transport_co2_eq":null,"from_stop_id":"14181","from_stop_lat":"10.9336421","from_stop_lon":"-65.3094564","from_stop_placename":"Isla La Tortuga, Venezuela","to_stop_id":"14172","to_stop_name":"origin","to_stop_lat":"40.4166909","to_stop_lon":"-3.7003454","to_stop_placename":"Madrid, Espa\u00f1a","to_stop":{"id":"14172","name":"origin","lat":"40.4166909","lon":"-3.7003454","placename":"Madrid, Espa\u00f1a"},"from_stop":{"name":"origin","id":"14181","lat":"10.9336421","lon":"-65.3094564","placename":"Isla La Tortuga, Venezuela"}}]}}},"processes":[],"eols":[]},{"oid":"849","imid":"6849","linkid":"0","weight":"0","rawemissions":"0","emissions":"0","shipping":"7858.78","processemissions":"0","endoflifeemissions":"0","disposaltype":null,"disposalenergy":null,"disposalimpact":null,"disposalemissions":null,"description":"Fair Trade vegetable tanned leather and car tyres sandals","name":"Caboclo","id":"6849","stops":{"origin":{"related_to":"6849","part_or_object":"p","notes":null,"placename":"Brasil","id":14182,"name":"origin","lat":"-14.235004","lon":"-51.92528","hops":{"incoming":[],"outgoing":[{"transport_id":null,"id":"10301","transport_name":null,"transport_description":null,"transport_unit":null,"transport_co2_eq":null,"from_stop_id":"14182","from_stop_lat":"-14.235004","from_stop_lon":"-51.92528","from_stop_placename":"Brasil","to_stop_id":"14172","to_stop_name":"origin","to_stop_lat":"40.4166909","to_stop_lon":"-3.7003454","to_stop_placename":"Madrid, Espa\u00f1a","to_stop":{"id":"14172","name":"origin","lat":"40.4166909","lon":"-3.7003454","placename":"Madrid, Espa\u00f1a"},"from_stop":{"name":"origin","id":"14182","lat":"-14.235004","lon":"-51.92528","placename":"Brasil"}}]}}},"processes":[],"eols":[]},{"oid":"849","imid":"6850","linkid":"0","weight":"0","rawemissions":"0","emissions":"0","shipping":"315.2","processemissions":"0","endoflifeemissions":"0","disposaltype":null,"disposalenergy":null,"disposalimpact":null,"disposalemissions":null,"description":"vegan sandalas","name":"Ecozap","id":"6850","stops":{"origin":{"related_to":"6850","part_or_object":"p","notes":null,"placename":"Castell\u00f3n, Espa\u00f1a","id":14183,"name":"origin","lat":"39.9860683","lon":"-0.0360242","hops":{"incoming":[],"outgoing":[{"transport_id":null,"id":"10302","transport_name":null,"transport_description":null,"transport_unit":null,"transport_co2_eq":null,"from_stop_id":"14183","from_stop_lat":"39.9860683","from_stop_lon":"-0.0360242","from_stop_placename":"Castell\u00f3n, Espa\u00f1a","to_stop_id":"14172","to_stop_name":"origin","to_stop_lat":"40.4166909","to_stop_lon":"-3.7003454","to_stop_placename":"Madrid, Espa\u00f1a","to_stop":{"id":"14172","name":"origin","lat":"40.4166909","lon":"-3.7003454","placename":"Madrid, Espa\u00f1a"},"from_stop":{"name":"origin","id":"14183","lat":"39.9860683","lon":"-0.0360242","placename":"Castell\u00f3n, Espa\u00f1a"}}]}}},"processes":[],"eols":[]},{"oid":"849","imid":"6851","linkid":"0","weight":"0","rawemissions":"0","emissions":"0","shipping":"360.38","processemissions":"0","endoflifeemissions":"0","disposaltype":null,"disposalenergy":null,"disposalimpact":null,"disposalemissions":null,"description":"cotton produced in Spain shoes","name":"Victoria","id":"6851","stops":{"origin":{"related_to":"6851","part_or_object":"p","notes":null,"placename":"Alicante, Espa\u00f1a","id":14184,"name":"origin","lat":"38.3452032","lon":"-0.481006","hops":{"incoming":[],"outgoing":[{"transport_id":null,"id":"10303","transport_name":null,"transport_description":null,"transport_unit":null,"transport_co2_eq":null,"from_stop_id":"14184","from_stop_lat":"38.3452032","from_stop_lon":"-0.481006","from_stop_placename":"Alicante, Espa\u00f1a","to_stop_id":"14172","to_stop_name":"origin","to_stop_lat":"40.4166909","to_stop_lon":"-3.7003454","to_stop_placename":"Madrid, Espa\u00f1a","to_stop":{"id":"14172","name":"origin","lat":"40.4166909","lon":"-3.7003454","placename":"Madrid, Espa\u00f1a"},"from_stop":{"name":"origin","id":"14184","lat":"38.3452032","lon":"-0.481006","placename":"Alicante, Espa\u00f1a"}}]}}},"processes":[],"eols":[]},{"oid":"849","imid":"6852","linkid":"0","weight":"0","rawemissions":"0","emissions":"0","shipping":"1476.64","processemissions":"0","endoflifeemissions":"0","disposaltype":null,"disposalenergy":null,"disposalimpact":null,"disposalemissions":null,"description":"vegetable tanned leather children shoes","name":"Naturino","id":"6852","stops":{"origin":{"related_to":"6852","part_or_object":"p","notes":null,"placename":"62012 Civitanova Marche Macerata, Italia","id":14185,"name":"origin","lat":"43.304563","lon":"13.7194675","hops":{"incoming":[],"outgoing":[{"transport_id":null,"id":"10304","transport_name":null,"transport_description":null,"transport_unit":null,"transport_co2_eq":null,"from_stop_id":"14185","from_stop_lat":"43.304563","from_stop_lon":"13.7194675","from_stop_placename":"62012 Civitanova Marche Macerata, Italia","to_stop_id":"14172","to_stop_name":"origin","to_stop_lat":"40.4166909","to_stop_lon":"-3.7003454","to_stop_placename":"Madrid, Espa\u00f1a","to_stop":{"id":"14172","name":"origin","lat":"40.4166909","lon":"-3.7003454","placename":"Madrid, Espa\u00f1a"},"from_stop":{"name":"origin","id":"14185","lat":"43.304563","lon":"13.7194675","placename":"62012 Civitanova Marche Macerata, Italia"}}]}}},"processes":[],"eols":[]}],"user":{"name":"ecozap","id":"12862"}}}