{"853":{"oid":"853","type":"trace","flag":"","creator":"10265","name":"Wheat Cereal","upc":"","imagelink":"","description":"","slug":"Wheat-Cereal","category":"","weight":"0","emissions":"0","embodied":"0","transport":"0","process":null,"endoflife":null,"shipping":"5914.26","lifetime":null,"usagetype":"","usageenergy":null,"usageemissions":null,"timecreated":"2011-04-06 15:23:30","timemodified":"2011-04-06 15:32:29","visibility":"public","showfootprint":"on","showembodied":"on","showtransport":"on","showprocess":"on","showendoflife":"on","showlastleg":"on","showuse":"on","showstats":"on","stops":{"origin":{"related_to":"853","part_or_object":"o","notes":null,"placename":"Belvidere, IL, USA","id":"14188","category":"1","lat":"42.2639098","lon":"-88.8442674","name":"origin","hops":{"incoming":[{"transport_id":null,"id":"10305","transport_name":null,"transport_description":null,"transport_unit":null,"transport_co2_eq":null,"from_stop_id":"14189","from_stop_lat":"39.011902","from_stop_lon":"-98.4842465","to_stop_id":"14188","to_stop_name":"origin","to_stop_lat":"42.2639098","placename":"Kansas, USA","to_stop_lon":"-88.8442674","to_stop":{"id":"14188","name":"origin","lat":"42.2639098","placename":"Belvidere, IL, USA","lon":"-88.8442674"},"from_stop":{"name":"origin","id":"14189","lat":"39.011902","lon":"-98.4842465","placename":"Kansas, USA"}},{"transport_id":null,"id":"10306","transport_name":null,"transport_description":null,"transport_unit":null,"transport_co2_eq":null,"from_stop_id":"14190","from_stop_lat":"44.3148443","from_stop_lon":"-85.6023643","to_stop_id":"14188","to_stop_name":"origin","to_stop_lat":"42.2639098","placename":"Michigan, USA","to_stop_lon":"-88.8442674","to_stop":{"id":"14188","name":"origin","lat":"42.2639098","placename":"Belvidere, IL, USA","lon":"-88.8442674"},"from_stop":{"name":"origin","id":"14190","lat":"44.3148443","lon":"-85.6023643","placename":"Michigan, USA"}},{"transport_id":null,"id":"10307","transport_name":null,"transport_description":null,"transport_unit":null,"transport_co2_eq":null,"from_stop_id":"14191","from_stop_lat":"39.3209801","from_stop_lon":"-111.0937311","to_stop_id":"14188","to_stop_name":"origin","to_stop_lat":"42.2639098","placename":"Utah, USA","to_stop_lon":"-88.8442674","to_stop":{"id":"14188","name":"origin","lat":"42.2639098","placename":"Belvidere, IL, USA","lon":"-88.8442674"},"from_stop":{"name":"origin","id":"14191","lat":"39.3209801","lon":"-111.0937311","placename":"Utah, USA"}},{"transport_id":null,"id":"10308","transport_name":null,"transport_description":null,"transport_unit":null,"transport_co2_eq":null,"from_stop_id":"14192","from_stop_lat":"41.8780025","from_stop_lon":"-93.097702","to_stop_id":"14188","to_stop_name":"origin","to_stop_lat":"42.2639098","placename":"Iowa, USA","to_stop_lon":"-88.8442674","to_stop":{"id":"14188","name":"origin","lat":"42.2639098","placename":"Belvidere, IL, USA","lon":"-88.8442674"},"from_stop":{"name":"origin","id":"14192","lat":"41.8780025","lon":"-93.097702","placename":"Iowa, USA"}},{"transport_id":null,"id":"10309","transport_name":null,"transport_description":null,"transport_unit":null,"transport_co2_eq":null,"from_stop_id":"14193","from_stop_lat":"43.9695148","from_stop_lon":"-99.9018131","to_stop_id":"14188","to_stop_name":"origin","to_stop_lat":"42.2639098","placename":"South Dakota, USA","to_stop_lon":"-88.8442674","to_stop":{"id":"14188","name":"origin","lat":"42.2639098","placename":"Belvidere, IL, USA","lon":"-88.8442674"},"from_stop":{"name":"origin","id":"14193","lat":"43.9695148","lon":"-99.9018131","placename":"South Dakota, USA"}},{"transport_id":null,"id":"10310","transport_name":null,"transport_description":null,"transport_unit":null,"transport_co2_eq":null,"from_stop_id":"14194","from_stop_lat":"31.9685988","from_stop_lon":"-99.9018131","to_stop_id":"14188","to_stop_name":"origin","to_stop_lat":"42.2639098","placename":"Texas, USA","to_stop_lon":"-88.8442674","to_stop":{"id":"14188","name":"origin","lat":"42.2639098","placename":"Belvidere, IL, USA","lon":"-88.8442674"},"from_stop":{"name":"origin","id":"14194","lat":"31.9685988","lon":"-99.9018131","placename":"Texas, USA"}},{"transport_id":null,"id":"10311","transport_name":null,"transport_description":null,"transport_unit":null,"transport_co2_eq":null,"from_stop_id":"14195","from_stop_lat":"0","from_stop_lon":"0","to_stop_id":"14188","to_stop_name":"origin","to_stop_lat":"42.2639098","placename":"China","to_stop_lon":"-88.8442674","to_stop":{"id":"14188","name":"origin","lat":"42.2639098","placename":"Belvidere, IL, USA","lon":"-88.8442674"},"from_stop":{"name":"origin","id":"14195","lat":"0","lon":"0","placename":"China"}}],"outgoing":[]}}},"parts":[{"oid":"853","imid":"6853","linkid":"0","weight":"0","rawemissions":"0","emissions":"0","shipping":"890.47","processemissions":"0","endoflifeemissions":"0","disposaltype":null,"disposalenergy":null,"disposalimpact":null,"disposalemissions":null,"description":"","name":"Wheat","id":"6853","stops":{"origin":{"related_to":"6853","part_or_object":"p","notes":null,"placename":"Kansas, USA","id":14189,"name":"origin","lat":"39.011902","lon":"-98.4842465","hops":{"incoming":[],"outgoing":[{"transport_id":null,"id":"10305","transport_name":null,"transport_description":null,"transport_unit":null,"transport_co2_eq":null,"from_stop_id":"14189","from_stop_lat":"39.011902","from_stop_lon":"-98.4842465","from_stop_placename":"Kansas, USA","to_stop_id":"14188","to_stop_name":"origin","to_stop_lat":"42.2639098","to_stop_lon":"-88.8442674","to_stop_placename":"Belvidere, IL, USA","to_stop":{"id":"14188","name":"origin","lat":"42.2639098","lon":"-88.8442674","placename":"Belvidere, IL, USA"},"from_stop":{"name":"origin","id":"14189","lat":"39.011902","lon":"-98.4842465","placename":"Kansas, USA"}}]}}},"processes":[],"eols":[]},{"oid":"853","imid":"6854","linkid":"0","weight":"0","rawemissions":"0","emissions":"0","shipping":"347.99","processemissions":"0","endoflifeemissions":"0","disposaltype":null,"disposalenergy":null,"disposalimpact":null,"disposalemissions":null,"description":"","name":"Sugar Beets","id":"6854","stops":{"origin":{"related_to":"6854","part_or_object":"p","notes":null,"placename":"Michigan, USA","id":14190,"name":"origin","lat":"44.3148443","lon":"-85.6023643","hops":{"incoming":[],"outgoing":[{"transport_id":null,"id":"10306","transport_name":null,"transport_description":null,"transport_unit":null,"transport_co2_eq":null,"from_stop_id":"14190","from_stop_lat":"44.3148443","from_stop_lon":"-85.6023643","from_stop_placename":"Michigan, USA","to_stop_id":"14188","to_stop_name":"origin","to_stop_lat":"42.2639098","to_stop_lon":"-88.8442674","to_stop_placename":"Belvidere, IL, USA","to_stop":{"id":"14188","name":"origin","lat":"42.2639098","lon":"-88.8442674","placename":"Belvidere, IL, USA"},"from_stop":{"name":"origin","id":"14190","lat":"44.3148443","lon":"-85.6023643","placename":"Michigan, USA"}}]}}},"processes":[],"eols":[]},{"oid":"853","imid":"6855","linkid":"0","weight":"0","rawemissions":"0","emissions":"0","shipping":"1897.89","processemissions":"0","endoflifeemissions":"0","disposaltype":null,"disposalenergy":null,"disposalimpact":null,"disposalemissions":null,"description":"","name":"Salt","id":"6855","stops":{"origin":{"related_to":"6855","part_or_object":"p","notes":null,"placename":"Utah, USA","id":14191,"name":"origin","lat":"39.3209801","lon":"-111.0937311","hops":{"incoming":[],"outgoing":[{"transport_id":null,"id":"10307","transport_name":null,"transport_description":null,"transport_unit":null,"transport_co2_eq":null,"from_stop_id":"14191","from_stop_lat":"39.3209801","from_stop_lon":"-111.0937311","from_stop_placename":"Utah, USA","to_stop_id":"14188","to_stop_name":"origin","to_stop_lat":"42.2639098","to_stop_lon":"-88.8442674","to_stop_placename":"Belvidere, IL, USA","to_stop":{"id":"14188","name":"origin","lat":"42.2639098","lon":"-88.8442674","placename":"Belvidere, IL, USA"},"from_stop":{"name":"origin","id":"14191","lat":"39.3209801","lon":"-111.0937311","placename":"Utah, USA"}}]}}},"processes":[],"eols":[]},{"oid":"853","imid":"6856","linkid":"0","weight":"0","rawemissions":"0","emissions":"0","shipping":"354.06","processemissions":"0","endoflifeemissions":"0","disposaltype":null,"disposalenergy":null,"disposalimpact":null,"disposalemissions":null,"description":"","name":"Corn Syrup","id":"6856","stops":{"origin":{"related_to":"6856","part_or_object":"p","notes":null,"placename":"Iowa, USA","id":14192,"name":"origin","lat":"41.8780025","lon":"-93.097702","hops":{"incoming":[],"outgoing":[{"transport_id":null,"id":"10308","transport_name":null,"transport_description":null,"transport_unit":null,"transport_co2_eq":null,"from_stop_id":"14192","from_stop_lat":"41.8780025","from_stop_lon":"-93.097702","from_stop_placename":"Iowa, USA","to_stop_id":"14188","to_stop_name":"origin","to_stop_lat":"42.2639098","to_stop_lon":"-88.8442674","to_stop_placename":"Belvidere, IL, USA","to_stop":{"id":"14188","name":"origin","lat":"42.2639098","lon":"-88.8442674","placename":"Belvidere, IL, USA"},"from_stop":{"name":"origin","id":"14192","lat":"41.8780025","lon":"-93.097702","placename":"Iowa, USA"}}]}}},"processes":[],"eols":[]},{"oid":"853","imid":"6857","linkid":"0","weight":"0","rawemissions":"0","emissions":"0","shipping":"917.61","processemissions":"0","endoflifeemissions":"0","disposaltype":null,"disposalenergy":null,"disposalimpact":null,"disposalemissions":null,"description":"","name":"Soy Lecitin","id":"6857","stops":{"origin":{"related_to":"6857","part_or_object":"p","notes":null,"placename":"South Dakota, USA","id":14193,"name":"origin","lat":"43.9695148","lon":"-99.9018131","hops":{"incoming":[],"outgoing":[{"transport_id":null,"id":"10309","transport_name":null,"transport_description":null,"transport_unit":null,"transport_co2_eq":null,"from_stop_id":"14193","from_stop_lat":"43.9695148","from_stop_lon":"-99.9018131","from_stop_placename":"South Dakota, USA","to_stop_id":"14188","to_stop_name":"origin","to_stop_lat":"42.2639098","to_stop_lon":"-88.8442674","to_stop_placename":"Belvidere, IL, USA","to_stop":{"id":"14188","name":"origin","lat":"42.2639098","lon":"-88.8442674","placename":"Belvidere, IL, USA"},"from_stop":{"name":"origin","id":"14193","lat":"43.9695148","lon":"-99.9018131","placename":"South Dakota, USA"}}]}}},"processes":[],"eols":[]},{"oid":"853","imid":"6858","linkid":"0","weight":"0","rawemissions":"0","emissions":"0","shipping":"1506.24","processemissions":"0","endoflifeemissions":"0","disposaltype":null,"disposalenergy":null,"disposalimpact":null,"disposalemissions":null,"description":"","name":"Trisodium Phosphate","id":"6858","stops":{"origin":{"related_to":"6858","part_or_object":"p","notes":null,"placename":"Texas, USA","id":14194,"name":"origin","lat":"31.9685988","lon":"-99.9018131","hops":{"incoming":[],"outgoing":[{"transport_id":null,"id":"10310","transport_name":null,"transport_description":null,"transport_unit":null,"transport_co2_eq":null,"from_stop_id":"14194","from_stop_lat":"31.9685988","from_stop_lon":"-99.9018131","from_stop_placename":"Texas, USA","to_stop_id":"14188","to_stop_name":"origin","to_stop_lat":"42.2639098","to_stop_lon":"-88.8442674","to_stop_placename":"Belvidere, IL, USA","to_stop":{"id":"14188","name":"origin","lat":"42.2639098","lon":"-88.8442674","placename":"Belvidere, IL, USA"},"from_stop":{"name":"origin","id":"14194","lat":"31.9685988","lon":"-99.9018131","placename":"Texas, USA"}}]}}},"processes":[],"eols":[]},{"oid":"853","imid":"6859","linkid":"0","weight":"0","rawemissions":"0","emissions":"0","shipping":"9923.54","processemissions":"0","endoflifeemissions":"0","disposaltype":null,"disposalenergy":null,"disposalimpact":null,"disposalemissions":null,"description":"","name":"Butylated hydroxyanisole(BHT)","id":"6859","stops":{"origin":{"related_to":"6859","part_or_object":"p","notes":null,"placename":"China","id":14195,"name":"origin","lat":"0","lon":"0","hops":{"incoming":[],"outgoing":[{"transport_id":null,"id":"10311","transport_name":null,"transport_description":null,"transport_unit":null,"transport_co2_eq":null,"from_stop_id":"14195","from_stop_lat":"0","from_stop_lon":"0","from_stop_placename":"China","to_stop_id":"14188","to_stop_name":"origin","to_stop_lat":"42.2639098","to_stop_lon":"-88.8442674","to_stop_placename":"Belvidere, IL, USA","to_stop":{"id":"14188","name":"origin","lat":"42.2639098","lon":"-88.8442674","placename":"Belvidere, IL, USA"},"from_stop":{"name":"origin","id":"14195","lat":"0","lon":"0","placename":"China"}}]}}},"processes":[],"eols":[]}],"user":{"name":"deanaaulisio","id":"10265"}}}