{"855":{"oid":"855","type":"trace","flag":"","creator":"12369","name":"KSEA Transportation","upc":"","imagelink":"","description":"Provider of marine transportation and distribution of refined petroleum products via tank barge and tugboat fleets.","slug":"KSEA-Transportation-1","category":"","weight":"0","emissions":"0","embodied":"0","transport":"0","process":null,"endoflife":null,"shipping":"244865.72","lifetime":null,"usagetype":"","usageenergy":null,"usageemissions":null,"timecreated":"2011-04-07 11:40:10","timemodified":"2011-04-07 13:20:03","visibility":"public","showfootprint":"on","showembodied":"on","showtransport":"on","showprocess":"on","showendoflife":"on","showlastleg":"on","showuse":"on","showstats":"on","stops":{"origin":{"related_to":"855","part_or_object":"o","notes":null,"placename":"East Brunswick, NJ, USA","id":"14280","category":"1","lat":"40.4278841","lon":"-74.415984","name":"origin","hops":{"incoming":[{"transport_id":null,"id":"10351","transport_name":null,"transport_description":null,"transport_unit":null,"transport_co2_eq":null,"from_stop_id":"14281","from_stop_lat":"40.5834379","from_stop_lon":"-74.1495875","to_stop_id":"14280","to_stop_name":"origin","to_stop_lat":"40.4278841","placename":"Staten Island, NY, USA","to_stop_lon":"-74.415984","to_stop":{"id":"14280","name":"origin","lat":"40.4278841","placename":"East Brunswick, NJ, USA","lon":"-74.415984"},"from_stop":{"name":"origin","id":"14281","lat":"40.5834379","lon":"-74.1495875","placename":"Staten Island, NY, USA"}},{"transport_id":null,"id":"10352","transport_name":null,"transport_description":null,"transport_unit":null,"transport_co2_eq":null,"from_stop_id":"14282","from_stop_lat":"21.4389123","from_stop_lon":"-158.0000565","to_stop_id":"14280","to_stop_name":"origin","to_stop_lat":"40.4278841","placename":"Oahu, Hawaii, USA","to_stop_lon":"-74.415984","to_stop":{"id":"14280","name":"origin","lat":"40.4278841","placename":"East Brunswick, NJ, USA","lon":"-74.415984"},"from_stop":{"name":"origin","id":"14282","lat":"21.4389123","lon":"-158.0000565","placename":"Oahu, Hawaii, USA"}},{"transport_id":null,"id":"10353","transport_name":null,"transport_description":null,"transport_unit":null,"transport_co2_eq":null,"from_stop_id":"14283","from_stop_lat":"40.6367701","from_stop_lon":"-74.1587547","to_stop_id":"14280","to_stop_name":"origin","to_stop_lat":"40.4278841","placename":"Mariners Harbor, Staten Island, NY 10303, USA","to_stop_lon":"-74.415984","to_stop":{"id":"14280","name":"origin","lat":"40.4278841","placename":"East Brunswick, NJ, USA","lon":"-74.415984"},"from_stop":{"name":"origin","id":"14283","lat":"40.6367701","lon":"-74.1587547","placename":"Mariners Harbor, Staten Island, NY 10303, USA"}},{"transport_id":null,"id":"10354","transport_name":null,"transport_description":null,"transport_unit":null,"transport_co2_eq":null,"from_stop_id":"14284","from_stop_lat":"47.6062095","from_stop_lon":"-122.3320708","to_stop_id":"14280","to_stop_name":"origin","to_stop_lat":"40.4278841","placename":"Seattle, WA, USA","to_stop_lon":"-74.415984","to_stop":{"id":"14280","name":"origin","lat":"40.4278841","placename":"East Brunswick, NJ, USA","lon":"-74.415984"},"from_stop":{"name":"origin","id":"14284","lat":"47.6062095","lon":"-122.3320708","placename":"Seattle, WA, USA"}},{"transport_id":null,"id":"10355","transport_name":null,"transport_description":null,"transport_unit":null,"transport_co2_eq":null,"from_stop_id":"14285","from_stop_lat":"56.130366","from_stop_lon":"-106.346771","to_stop_id":"14280","to_stop_name":"origin","to_stop_lat":"40.4278841","placename":"Canada","to_stop_lon":"-74.415984","to_stop":{"id":"14280","name":"origin","lat":"40.4278841","placename":"East Brunswick, NJ, USA","lon":"-74.415984"},"from_stop":{"name":"origin","id":"14285","lat":"56.130366","lon":"-106.346771","placename":"Canada"}},{"transport_id":null,"id":"10356","transport_name":null,"transport_description":null,"transport_unit":null,"transport_co2_eq":null,"from_stop_id":"14286","from_stop_lat":"63.588753","from_stop_lon":"-154.4930619","to_stop_id":"14280","to_stop_name":"origin","to_stop_lat":"40.4278841","placename":"Alaska, USA","to_stop_lon":"-74.415984","to_stop":{"id":"14280","name":"origin","lat":"40.4278841","placename":"East Brunswick, NJ, USA","lon":"-74.415984"},"from_stop":{"name":"origin","id":"14286","lat":"63.588753","lon":"-154.4930619","placename":"Alaska, USA"}},{"transport_id":null,"id":"10357","transport_name":null,"transport_description":null,"transport_unit":null,"transport_co2_eq":null,"from_stop_id":"14287","from_stop_lat":"34.9727305","from_stop_lon":"-105.0323635","to_stop_id":"14280","to_stop_name":"origin","to_stop_lat":"40.4278841","placename":"New Mexico, USA","to_stop_lon":"-74.415984","to_stop":{"id":"14280","name":"origin","lat":"40.4278841","placename":"East Brunswick, NJ, USA","lon":"-74.415984"},"from_stop":{"name":"origin","id":"14287","lat":"34.9727305","lon":"-105.0323635","placename":"New Mexico, USA"}},{"transport_id":null,"id":"10358","transport_name":null,"transport_description":null,"transport_unit":null,"transport_co2_eq":null,"from_stop_id":"14288","from_stop_lat":"43.0759678","from_stop_lon":"-107.2902839","to_stop_id":"14280","to_stop_name":"origin","to_stop_lat":"40.4278841","placename":"Wyoming, USA","to_stop_lon":"-74.415984","to_stop":{"id":"14280","name":"origin","lat":"40.4278841","placename":"East Brunswick, NJ, USA","lon":"-74.415984"},"from_stop":{"name":"origin","id":"14288","lat":"43.0759678","lon":"-107.2902839","placename":"Wyoming, USA"}},{"transport_id":null,"id":"10359","transport_name":null,"transport_description":null,"transport_unit":null,"transport_co2_eq":null,"from_stop_id":"14289","from_stop_lat":"47.5514926","from_stop_lon":"-101.0020119","to_stop_id":"14280","to_stop_name":"origin","to_stop_lat":"40.4278841","placename":"North Dakota, USA","to_stop_lon":"-74.415984","to_stop":{"id":"14280","name":"origin","lat":"40.4278841","placename":"East Brunswick, NJ, USA","lon":"-74.415984"},"from_stop":{"name":"origin","id":"14289","lat":"47.5514926","lon":"-101.0020119","placename":"North Dakota, USA"}},{"transport_id":null,"id":"10360","transport_name":null,"transport_description":null,"transport_unit":null,"transport_co2_eq":null,"from_stop_id":"14290","from_stop_lat":"35.0077519","from_stop_lon":"-97.092877","to_stop_id":"14280","to_stop_name":"origin","to_stop_lat":"40.4278841","placename":"Oklahoma, USA","to_stop_lon":"-74.415984","to_stop":{"id":"14280","name":"origin","lat":"40.4278841","placename":"East Brunswick, NJ, USA","lon":"-74.415984"},"from_stop":{"name":"origin","id":"14290","lat":"35.0077519","lon":"-97.092877","placename":"Oklahoma, USA"}},{"transport_id":null,"id":"10361","transport_name":null,"transport_description":null,"transport_unit":null,"transport_co2_eq":null,"from_stop_id":"14291","from_stop_lat":"31.9685988","from_stop_lon":"-99.9018131","to_stop_id":"14280","to_stop_name":"origin","to_stop_lat":"40.4278841","placename":"Texas, USA","to_stop_lon":"-74.415984","to_stop":{"id":"14280","name":"origin","lat":"40.4278841","placename":"East Brunswick, NJ, USA","lon":"-74.415984"},"from_stop":{"name":"origin","id":"14291","lat":"31.9685988","lon":"-99.9018131","placename":"Texas, USA"}},{"transport_id":null,"id":"10362","transport_name":null,"transport_description":null,"transport_unit":null,"transport_co2_eq":null,"from_stop_id":"14292","from_stop_lat":"31.2448234","from_stop_lon":"-92.1450245","to_stop_id":"14280","to_stop_name":"origin","to_stop_lat":"40.4278841","placename":"Louisiana, USA","to_stop_lon":"-74.415984","to_stop":{"id":"14280","name":"origin","lat":"40.4278841","placename":"East Brunswick, NJ, USA","lon":"-74.415984"},"from_stop":{"name":"origin","id":"14292","lat":"31.2448234","lon":"-92.1450245","placename":"Louisiana, USA"}},{"transport_id":null,"id":"10363","transport_name":null,"transport_description":null,"transport_unit":null,"transport_co2_eq":null,"from_stop_id":"14293","from_stop_lat":"29.4581429","from_stop_lon":"-94.5005808","to_stop_id":"14280","to_stop_name":"origin","to_stop_lat":"40.4278841","placename":"Gulf Of Mexico, United States","to_stop_lon":"-74.415984","to_stop":{"id":"14280","name":"origin","lat":"40.4278841","placename":"East Brunswick, NJ, USA","lon":"-74.415984"},"from_stop":{"name":"origin","id":"14293","lat":"29.4581429","lon":"-94.5005808","placename":"Gulf Of Mexico, United States"}},{"transport_id":null,"id":"10364","transport_name":null,"transport_description":null,"transport_unit":null,"transport_co2_eq":null,"from_stop_id":"14294","from_stop_lat":"-9.189967","from_stop_lon":"-75.015152","to_stop_id":"14280","to_stop_name":"origin","to_stop_lat":"40.4278841","placename":"Peru","to_stop_lon":"-74.415984","to_stop":{"id":"14280","name":"origin","lat":"40.4278841","placename":"East Brunswick, NJ, USA","lon":"-74.415984"},"from_stop":{"name":"origin","id":"14294","lat":"-9.189967","lon":"-75.015152","placename":"Peru"}},{"transport_id":null,"id":"10365","transport_name":null,"transport_description":null,"transport_unit":null,"transport_co2_eq":null,"from_stop_id":"14295","from_stop_lat":"60.472024","from_stop_lon":"8.468946","to_stop_id":"14280","to_stop_name":"origin","to_stop_lat":"40.4278841","placename":"Norway","to_stop_lon":"-74.415984","to_stop":{"id":"14280","name":"origin","lat":"40.4278841","placename":"East Brunswick, NJ, USA","lon":"-74.415984"},"from_stop":{"name":"origin","id":"14295","lat":"60.472024","lon":"8.468946","placename":"Norway"}},{"transport_id":null,"id":"10366","transport_name":null,"transport_description":null,"transport_unit":null,"transport_co2_eq":null,"from_stop_id":"14296","from_stop_lat":"55.378051","from_stop_lon":"-3.435973","to_stop_id":"14280","to_stop_name":"origin","to_stop_lat":"40.4278841","placename":"United Kingdom","to_stop_lon":"-74.415984","to_stop":{"id":"14280","name":"origin","lat":"40.4278841","placename":"East Brunswick, NJ, USA","lon":"-74.415984"},"from_stop":{"name":"origin","id":"14296","lat":"55.378051","lon":"-3.435973","placename":"United Kingdom"}},{"transport_id":null,"id":"10367","transport_name":null,"transport_description":null,"transport_unit":null,"transport_co2_eq":null,"from_stop_id":"14297","from_stop_lat":"53.41291","from_stop_lon":"-8.24389","to_stop_id":"14280","to_stop_name":"origin","to_stop_lat":"40.4278841","placename":"Ireland","to_stop_lon":"-74.415984","to_stop":{"id":"14280","name":"origin","lat":"40.4278841","placename":"East Brunswick, NJ, USA","lon":"-74.415984"},"from_stop":{"name":"origin","id":"14297","lat":"53.41291","lon":"-8.24389","placename":"Ireland"}},{"transport_id":null,"id":"10368","transport_name":null,"transport_description":null,"transport_unit":null,"transport_co2_eq":null,"from_stop_id":"14298","from_stop_lat":"51.165691","from_stop_lon":"10.451526","to_stop_id":"14280","to_stop_name":"origin","to_stop_lat":"40.4278841","placename":"Germany","to_stop_lon":"-74.415984","to_stop":{"id":"14280","name":"origin","lat":"40.4278841","placename":"East Brunswick, NJ, USA","lon":"-74.415984"},"from_stop":{"name":"origin","id":"14298","lat":"51.165691","lon":"10.451526","placename":"Germany"}},{"transport_id":null,"id":"10369","transport_name":null,"transport_description":null,"transport_unit":null,"transport_co2_eq":null,"from_stop_id":"14299","from_stop_lat":"28.033886","from_stop_lon":"1.659626","to_stop_id":"14280","to_stop_name":"origin","to_stop_lat":"40.4278841","placename":"Algeria","to_stop_lon":"-74.415984","to_stop":{"id":"14280","name":"origin","lat":"40.4278841","placename":"East Brunswick, NJ, USA","lon":"-74.415984"},"from_stop":{"name":"origin","id":"14299","lat":"28.033886","lon":"1.659626","placename":"Algeria"}},{"transport_id":null,"id":"10370","transport_name":null,"transport_description":null,"transport_unit":null,"transport_co2_eq":null,"from_stop_id":"14300","from_stop_lat":"26.3351","from_stop_lon":"17.228331","to_stop_id":"14280","to_stop_name":"origin","to_stop_lat":"40.4278841","placename":"Libya","to_stop_lon":"-74.415984","to_stop":{"id":"14280","name":"origin","lat":"40.4278841","placename":"East Brunswick, NJ, USA","lon":"-74.415984"},"from_stop":{"name":"origin","id":"14300","lat":"26.3351","lon":"17.228331","placename":"Libya"}},{"transport_id":null,"id":"10371","transport_name":null,"transport_description":null,"transport_unit":null,"transport_co2_eq":null,"from_stop_id":"14301","from_stop_lat":"9.081999","from_stop_lon":"8.675277","to_stop_id":"14280","to_stop_name":"origin","to_stop_lat":"40.4278841","placename":"Nigeria","to_stop_lon":"-74.415984","to_stop":{"id":"14280","name":"origin","lat":"40.4278841","placename":"East Brunswick, NJ, USA","lon":"-74.415984"},"from_stop":{"name":"origin","id":"14301","lat":"9.081999","lon":"8.675277","placename":"Nigeria"}},{"transport_id":null,"id":"10372","transport_name":null,"transport_description":null,"transport_unit":null,"transport_co2_eq":null,"from_stop_id":"14302","from_stop_lat":"23.885942","from_stop_lon":"45.079162","to_stop_id":"14280","to_stop_name":"origin","to_stop_lat":"40.4278841","placename":"Saudi Arabia","to_stop_lon":"-74.415984","to_stop":{"id":"14280","name":"origin","lat":"40.4278841","placename":"East Brunswick, NJ, USA","lon":"-74.415984"},"from_stop":{"name":"origin","id":"14302","lat":"23.885942","lon":"45.079162","placename":"Saudi Arabia"}},{"transport_id":null,"id":"10373","transport_name":null,"transport_description":null,"transport_unit":null,"transport_co2_eq":null,"from_stop_id":"14303","from_stop_lat":"25.354826","from_stop_lon":"51.183884","to_stop_id":"14280","to_stop_name":"origin","to_stop_lat":"40.4278841","placename":"Qatar","to_stop_lon":"-74.415984","to_stop":{"id":"14280","name":"origin","lat":"40.4278841","placename":"East Brunswick, NJ, USA","lon":"-74.415984"},"from_stop":{"name":"origin","id":"14303","lat":"25.354826","lon":"51.183884","placename":"Qatar"}},{"transport_id":null,"id":"10374","transport_name":null,"transport_description":null,"transport_unit":null,"transport_co2_eq":null,"from_stop_id":"14304","from_stop_lat":"48.019573","from_stop_lon":"66.923684","to_stop_id":"14280","to_stop_name":"origin","to_stop_lat":"40.4278841","placename":"Kazakhstan","to_stop_lon":"-74.415984","to_stop":{"id":"14280","name":"origin","lat":"40.4278841","placename":"East Brunswick, NJ, USA","lon":"-74.415984"},"from_stop":{"name":"origin","id":"14304","lat":"48.019573","lon":"66.923684","placename":"Kazakhstan"}},{"transport_id":null,"id":"10375","transport_name":null,"transport_description":null,"transport_unit":null,"transport_co2_eq":null,"from_stop_id":"14305","from_stop_lat":"61.52401","from_stop_lon":"105.318756","to_stop_id":"14280","to_stop_name":"origin","to_stop_lat":"40.4278841","placename":"Russia","to_stop_lon":"-74.415984","to_stop":{"id":"14280","name":"origin","lat":"40.4278841","placename":"East Brunswick, NJ, USA","lon":"-74.415984"},"from_stop":{"name":"origin","id":"14305","lat":"61.52401","lon":"105.318756","placename":"Russia"}},{"transport_id":null,"id":"10376","transport_name":null,"transport_description":null,"transport_unit":null,"transport_co2_eq":null,"from_stop_id":"14306","from_stop_lat":"22.541166","from_stop_lon":"115.191977","to_stop_id":"14280","to_stop_name":"origin","to_stop_lat":"40.4278841","placename":"South China Sea, China","to_stop_lon":"-74.415984","to_stop":{"id":"14280","name":"origin","lat":"40.4278841","placename":"East Brunswick, NJ, USA","lon":"-74.415984"},"from_stop":{"name":"origin","id":"14306","lat":"22.541166","lon":"115.191977","placename":"South China Sea, China"}},{"transport_id":null,"id":"10377","transport_name":null,"transport_description":null,"transport_unit":null,"transport_co2_eq":null,"from_stop_id":"14307","from_stop_lat":"35.907757","from_stop_lon":"127.766922","to_stop_id":"14280","to_stop_name":"origin","to_stop_lat":"40.4278841","placename":"South Korea","to_stop_lon":"-74.415984","to_stop":{"id":"14280","name":"origin","lat":"40.4278841","placename":"East Brunswick, NJ, USA","lon":"-74.415984"},"from_stop":{"name":"origin","id":"14307","lat":"35.907757","lon":"127.766922","placename":"South Korea"}},{"transport_id":null,"id":"10378","transport_name":null,"transport_description":null,"transport_unit":null,"transport_co2_eq":null,"from_stop_id":"14308","from_stop_lat":"-0.789275","from_stop_lon":"113.921327","to_stop_id":"14280","to_stop_name":"origin","to_stop_lat":"40.4278841","placename":"Indonesia","to_stop_lon":"-74.415984","to_stop":{"id":"14280","name":"origin","lat":"40.4278841","placename":"East Brunswick, NJ, USA","lon":"-74.415984"},"from_stop":{"name":"origin","id":"14308","lat":"-0.789275","lon":"113.921327","placename":"Indonesia"}},{"transport_id":null,"id":"10379","transport_name":null,"transport_description":null,"transport_unit":null,"transport_co2_eq":null,"from_stop_id":"14309","from_stop_lat":"14.058324","from_stop_lon":"108.277199","to_stop_id":"14280","to_stop_name":"origin","to_stop_lat":"40.4278841","placename":"Vietnam","to_stop_lon":"-74.415984","to_stop":{"id":"14280","name":"origin","lat":"40.4278841","placename":"East Brunswick, NJ, USA","lon":"-74.415984"},"from_stop":{"name":"origin","id":"14309","lat":"14.058324","lon":"108.277199","placename":"Vietnam"}},{"transport_id":null,"id":"10380","transport_name":null,"transport_description":null,"transport_unit":null,"transport_co2_eq":null,"from_stop_id":"14310","from_stop_lat":"4.210484","from_stop_lon":"101.975766","to_stop_id":"14280","to_stop_name":"origin","to_stop_lat":"40.4278841","placename":"Malaysia","to_stop_lon":"-74.415984","to_stop":{"id":"14280","name":"origin","lat":"40.4278841","placename":"East Brunswick, NJ, USA","lon":"-74.415984"},"from_stop":{"name":"origin","id":"14310","lat":"4.210484","lon":"101.975766","placename":"Malaysia"}},{"transport_id":null,"id":"10381","transport_name":null,"transport_description":null,"transport_unit":null,"transport_co2_eq":null,"from_stop_id":"14311","from_stop_lat":"1.352083","from_stop_lon":"103.819836","to_stop_id":"14280","to_stop_name":"origin","to_stop_lat":"40.4278841","placename":"Singapore","to_stop_lon":"-74.415984","to_stop":{"id":"14280","name":"origin","lat":"40.4278841","placename":"East Brunswick, NJ, USA","lon":"-74.415984"},"from_stop":{"name":"origin","id":"14311","lat":"1.352083","lon":"103.819836","placename":"Singapore"}},{"transport_id":null,"id":"10382","transport_name":null,"transport_description":null,"transport_unit":null,"transport_co2_eq":null,"from_stop_id":"14312","from_stop_lat":"-0.789275","from_stop_lon":"113.921327","to_stop_id":"14280","to_stop_name":"origin","to_stop_lat":"40.4278841","placename":"Indonesia","to_stop_lon":"-74.415984","to_stop":{"id":"14280","name":"origin","lat":"40.4278841","placename":"East Brunswick, NJ, USA","lon":"-74.415984"},"from_stop":{"name":"origin","id":"14312","lat":"-0.789275","lon":"113.921327","placename":"Indonesia"}},{"transport_id":null,"id":"10383","transport_name":null,"transport_description":null,"transport_unit":null,"transport_co2_eq":null,"from_stop_id":"14313","from_stop_lat":"-25.274398","from_stop_lon":"133.775136","to_stop_id":"14280","to_stop_name":"origin","to_stop_lat":"40.4278841","placename":"Australia","to_stop_lon":"-74.415984","to_stop":{"id":"14280","name":"origin","lat":"40.4278841","placename":"East Brunswick, NJ, USA","lon":"-74.415984"},"from_stop":{"name":"origin","id":"14313","lat":"-25.274398","lon":"133.775136","placename":"Australia"}}],"outgoing":[]}}},"parts":[{"oid":"855","imid":"6914","linkid":"0","weight":"0","rawemissions":"0","emissions":"0","shipping":"28.43","processemissions":"0","endoflifeemissions":"0","disposaltype":null,"disposalenergy":null,"disposalimpact":null,"disposalemissions":null,"description":"<imgsrc=\"http:\/\/www.k-sea.com\/vessel\/gallery\/AdriaticSea.jpg\"\/>\n","name":"Atlantic Division","id":"6914","stops":{"origin":{"related_to":"6914","part_or_object":"p","notes":null,"placename":"Staten Island, NY, USA","id":14281,"name":"origin","lat":"40.5834379","lon":"-74.1495875","hops":{"incoming":[],"outgoing":[{"transport_id":null,"id":"10351","transport_name":null,"transport_description":null,"transport_unit":null,"transport_co2_eq":null,"from_stop_id":"14281","from_stop_lat":"40.5834379","from_stop_lon":"-74.1495875","from_stop_placename":"Staten Island, NY, USA","to_stop_id":"14280","to_stop_name":"origin","to_stop_lat":"40.4278841","to_stop_lon":"-74.415984","to_stop_placename":"East Brunswick, NJ, USA","to_stop":{"id":"14280","name":"origin","lat":"40.4278841","lon":"-74.415984","placename":"East Brunswick, NJ, USA"},"from_stop":{"name":"origin","id":"14281","lat":"40.5834379","lon":"-74.1495875","placename":"Staten Island, NY, USA"}}]}}},"processes":[],"eols":[]},{"oid":"855","imid":"6915","linkid":"0","weight":"0","rawemissions":"0","emissions":"0","shipping":"7966.73","processemissions":"0","endoflifeemissions":"0","disposaltype":null,"disposalenergy":null,"disposalimpact":null,"disposalemissions":null,"description":"Smith Maritime LLC (acquired by KSEA in 2007). Vessels deliver petroleum between ports on Oahu and its neighbor islands. \nhttp:\/\/www.k-sea.com\/main.php?_content","name":"Hawaii Division","id":"6915","stops":{"origin":{"related_to":"6915","part_or_object":"p","notes":null,"placename":"Oahu, Hawaii, USA","id":14282,"name":"origin","lat":"21.4389123","lon":"-158.0000565","hops":{"incoming":[],"outgoing":[{"transport_id":null,"id":"10352","transport_name":null,"transport_description":null,"transport_unit":null,"transport_co2_eq":null,"from_stop_id":"14282","from_stop_lat":"21.4389123","from_stop_lon":"-158.0000565","from_stop_placename":"Oahu, Hawaii, USA","to_stop_id":"14280","to_stop_name":"origin","to_stop_lat":"40.4278841","to_stop_lon":"-74.415984","to_stop_placename":"East Brunswick, NJ, USA","to_stop":{"id":"14280","name":"origin","lat":"40.4278841","lon":"-74.415984","placename":"East Brunswick, NJ, USA"},"from_stop":{"name":"origin","id":"14282","lat":"21.4389123","lon":"-158.0000565","placename":"Oahu, Hawaii, USA"}}]}}},"processes":[],"eols":[]},{"oid":"855","imid":"6916","linkid":"0","weight":"0","rawemissions":"0","emissions":"0","shipping":"31.85","processemissions":"0","endoflifeemissions":"0","disposaltype":null,"disposalenergy":null,"disposalimpact":null,"disposalemissions":null,"description":"Close to container terminals, refineries, and petroleum storage facilities of New York Harbor.","name":"New York Division","id":"6916","stops":{"origin":{"related_to":"6916","part_or_object":"p","notes":null,"placename":"Mariners Harbor, Staten Island, NY 10303, USA","id":14283,"name":"origin","lat":"40.6367701","lon":"-74.1587547","hops":{"incoming":[],"outgoing":[{"transport_id":null,"id":"10353","transport_name":null,"transport_description":null,"transport_unit":null,"transport_co2_eq":null,"from_stop_id":"14283","from_stop_lat":"40.6367701","from_stop_lon":"-74.1587547","from_stop_placename":"Mariners Harbor, Staten Island, NY 10303, USA","to_stop_id":"14280","to_stop_name":"origin","to_stop_lat":"40.4278841","to_stop_lon":"-74.415984","to_stop_placename":"East Brunswick, NJ, USA","to_stop":{"id":"14280","name":"origin","lat":"40.4278841","lon":"-74.415984","placename":"East Brunswick, NJ, USA"},"from_stop":{"name":"origin","id":"14283","lat":"40.6367701","lon":"-74.1587547","placename":"Mariners Harbor, Staten Island, NY 10303, USA"}}]}}},"processes":[],"eols":[]},{"oid":"855","imid":"6917","linkid":"0","weight":"0","rawemissions":"0","emissions":"0","shipping":"3854.23","processemissions":"0","endoflifeemissions":"0","disposaltype":null,"disposalenergy":null,"disposalimpact":null,"disposalemissions":null,"description":"Transports petroleum products along US West Coast from California to Alaska. ","name":"Pacific Division","id":"6917","stops":{"origin":{"related_to":"6917","part_or_object":"p","notes":null,"placename":"Seattle, WA, USA","id":14284,"name":"origin","lat":"47.6062095","lon":"-122.3320708","hops":{"incoming":[],"outgoing":[{"transport_id":null,"id":"10354","transport_name":null,"transport_description":null,"transport_unit":null,"transport_co2_eq":null,"from_stop_id":"14284","from_stop_lat":"47.6062095","from_stop_lon":"-122.3320708","from_stop_placename":"Seattle, WA, USA","to_stop_id":"14280","to_stop_name":"origin","to_stop_lat":"40.4278841","to_stop_lon":"-74.415984","to_stop_placename":"East Brunswick, NJ, USA","to_stop":{"id":"14280","name":"origin","lat":"40.4278841","lon":"-74.415984","placename":"East Brunswick, NJ, USA"},"from_stop":{"name":"origin","id":"14284","lat":"47.6062095","lon":"-122.3320708","placename":"Seattle, WA, USA"}}]}}},"processes":[],"eols":[]},{"oid":"855","imid":"6918","linkid":"0","weight":"0","rawemissions":"0","emissions":"0","shipping":"2898.75","processemissions":"0","endoflifeemissions":"0","disposaltype":null,"disposalenergy":null,"disposalimpact":null,"disposalemissions":null,"description":"ConoccoPhillips is one of the top 3 natural gas producers in Canada.","name":"oil & natural gas ","id":"6918","stops":{"origin":{"related_to":"6918","part_or_object":"p","notes":null,"placename":"Canada","id":14285,"name":"origin","lat":"56.130366","lon":"-106.346771","hops":{"incoming":[],"outgoing":[{"transport_id":null,"id":"10355","transport_name":null,"transport_description":null,"transport_unit":null,"transport_co2_eq":null,"from_stop_id":"14285","from_stop_lat":"56.130366","from_stop_lon":"-106.346771","from_stop_placename":"Canada","to_stop_id":"14280","to_stop_name":"origin","to_stop_lat":"40.4278841","to_stop_lon":"-74.415984","to_stop_placename":"East Brunswick, NJ, USA","to_stop":{"id":"14280","name":"origin","lat":"40.4278841","lon":"-74.415984","placename":"East Brunswick, NJ, USA"},"from_stop":{"name":"origin","id":"14285","lat":"56.130366","lon":"-106.346771","placename":"Canada"}}]}}},"processes":[],"eols":[]},{"oid":"855","imid":"6919","linkid":"0","weight":"0","rawemissions":"0","emissions":"0","shipping":"5596.18","processemissions":"0","endoflifeemissions":"0","disposaltype":null,"disposalenergy":null,"disposalimpact":null,"disposalemissions":null,"description":"Conoco Phillips is Alaska's largerst oil and gas producer. It owns about 1.8 million net undeveloped acres (as of 2009). 0.8 million of these acres in National Petroleum REserve-Alaska.","name":"oil and gas production","id":"6919","stops":{"origin":{"related_to":"6919","part_or_object":"p","notes":null,"placename":"Alaska, USA","id":14286,"name":"origin","lat":"63.588753","lon":"-154.4930619","hops":{"incoming":[],"outgoing":[{"transport_id":null,"id":"10356","transport_name":null,"transport_description":null,"transport_unit":null,"transport_co2_eq":null,"from_stop_id":"14286","from_stop_lat":"63.588753","from_stop_lon":"-154.4930619","from_stop_placename":"Alaska, USA","to_stop_id":"14280","to_stop_name":"origin","to_stop_lat":"40.4278841","to_stop_lon":"-74.415984","to_stop_placename":"East Brunswick, NJ, USA","to_stop":{"id":"14280","name":"origin","lat":"40.4278841","lon":"-74.415984","placename":"East Brunswick, NJ, USA"},"from_stop":{"name":"origin","id":"14286","lat":"63.588753","lon":"-154.4930619","placename":"Alaska, USA"}}]}}},"processes":[],"eols":[]},{"oid":"855","imid":"6920","linkid":"0","weight":"0","rawemissions":"0","emissions":"0","shipping":"2749.47","processemissions":"0","endoflifeemissions":"0","disposaltype":null,"disposalenergy":null,"disposalimpact":null,"disposalemissions":null,"description":"San Juan Basin, Permian Basin","name":"natural gas & crude oil","id":"6920","stops":{"origin":{"related_to":"6920","part_or_object":"p","notes":null,"placename":"New Mexico, USA","id":14287,"name":"origin","lat":"34.9727305","lon":"-105.0323635","hops":{"incoming":[],"outgoing":[{"transport_id":null,"id":"10357","transport_name":null,"transport_description":null,"transport_unit":null,"transport_co2_eq":null,"from_stop_id":"14287","from_stop_lat":"34.9727305","from_stop_lon":"-105.0323635","from_stop_placename":"New Mexico, USA","to_stop_id":"14280","to_stop_name":"origin","to_stop_lat":"40.4278841","to_stop_lon":"-74.415984","to_stop_placename":"East Brunswick, NJ, USA","to_stop":{"id":"14280","name":"origin","lat":"40.4278841","lon":"-74.415984","placename":"East Brunswick, NJ, USA"},"from_stop":{"name":"origin","id":"14287","lat":"34.9727305","lon":"-105.0323635","placename":"New Mexico, USA"}}]}}},"processes":[],"eols":[]},{"oid":"855","imid":"6921","linkid":"0","weight":"0","rawemissions":"0","emissions":"0","shipping":"2728.41","processemissions":"0","endoflifeemissions":"0","disposaltype":null,"disposalenergy":null,"disposalimpact":null,"disposalemissions":null,"description":"Wind River Basin","name":"natural gas","id":"6921","stops":{"origin":{"related_to":"6921","part_or_object":"p","notes":null,"placename":"Wyoming, USA","id":14288,"name":"origin","lat":"43.0759678","lon":"-107.2902839","hops":{"incoming":[],"outgoing":[{"transport_id":null,"id":"10358","transport_name":null,"transport_description":null,"transport_unit":null,"transport_co2_eq":null,"from_stop_id":"14288","from_stop_lat":"43.0759678","from_stop_lon":"-107.2902839","from_stop_placename":"Wyoming, USA","to_stop_id":"14280","to_stop_name":"origin","to_stop_lat":"40.4278841","to_stop_lon":"-74.415984","to_stop_placename":"East Brunswick, NJ, USA","to_stop":{"id":"14280","name":"origin","lat":"40.4278841","lon":"-74.415984","placename":"East Brunswick, NJ, USA"},"from_stop":{"name":"origin","id":"14288","lat":"43.0759678","lon":"-107.2902839","placename":"Wyoming, USA"}}]}}},"processes":[],"eols":[]},{"oid":"855","imid":"6922","linkid":"0","weight":"0","rawemissions":"0","emissions":"0","shipping":"2258.54","processemissions":"0","endoflifeemissions":"0","disposaltype":null,"disposalenergy":null,"disposalimpact":null,"disposalemissions":null,"description":"Williston Basin","name":"natural gas & crude oil","id":"6922","stops":{"origin":{"related_to":"6922","part_or_object":"p","notes":null,"placename":"North Dakota, USA","id":14289,"name":"origin","lat":"47.5514926","lon":"-101.0020119","hops":{"incoming":[],"outgoing":[{"transport_id":null,"id":"10359","transport_name":null,"transport_description":null,"transport_unit":null,"transport_co2_eq":null,"from_stop_id":"14289","from_stop_lat":"47.5514926","from_stop_lon":"-101.0020119","from_stop_placename":"North Dakota, USA","to_stop_id":"14280","to_stop_name":"origin","to_stop_lat":"40.4278841","to_stop_lon":"-74.415984","to_stop_placename":"East Brunswick, NJ, USA","to_stop":{"id":"14280","name":"origin","lat":"40.4278841","lon":"-74.415984","placename":"East Brunswick, NJ, USA"},"from_stop":{"name":"origin","id":"14289","lat":"47.5514926","lon":"-101.0020119","placename":"North Dakota, USA"}}]}}},"processes":[],"eols":[]},{"oid":"855","imid":"6923","linkid":"0","weight":"0","rawemissions":"0","emissions":"0","shipping":"2079.32","processemissions":"0","endoflifeemissions":"0","disposaltype":null,"disposalenergy":null,"disposalimpact":null,"disposalemissions":null,"description":"Anandarko Basin contains some of the deepest producing formations in the world. ","name":"natural gas","id":"6923","stops":{"origin":{"related_to":"6923","part_or_object":"p","notes":null,"placename":"Oklahoma, USA","id":14290,"name":"origin","lat":"35.0077519","lon":"-97.092877","hops":{"incoming":[],"outgoing":[{"transport_id":null,"id":"10360","transport_name":null,"transport_description":null,"transport_unit":null,"transport_co2_eq":null,"from_stop_id":"14290","from_stop_lat":"35.0077519","from_stop_lon":"-97.092877","from_stop_placename":"Oklahoma, USA","to_stop_id":"14280","to_stop_name":"origin","to_stop_lat":"40.4278841","to_stop_lon":"-74.415984","to_stop_placename":"East Brunswick, NJ, USA","to_stop":{"id":"14280","name":"origin","lat":"40.4278841","lon":"-74.415984","placename":"East Brunswick, NJ, USA"},"from_stop":{"name":"origin","id":"14290","lat":"35.0077519","lon":"-97.092877","placename":"Oklahoma, USA"}}]}}},"processes":[],"eols":[]},{"oid":"855","imid":"6924","linkid":"0","weight":"0","rawemissions":"0","emissions":"0","shipping":"2464.35","processemissions":"0","endoflifeemissions":"0","disposaltype":null,"disposalenergy":null,"disposalimpact":null,"disposalemissions":null,"description":"Texas and Oklahoma panhandles (1.2 million net areas of development and exploration assets held by ConoccoPhillips in this area). It also owns Lobo Trend, a long-life gas field in South, TX.","name":"natural gas and crude oil","id":"6924","stops":{"origin":{"related_to":"6924","part_or_object":"p","notes":null,"placename":"Texas, USA","id":14291,"name":"origin","lat":"31.9685988","lon":"-99.9018131","hops":{"incoming":[],"outgoing":[{"transport_id":null,"id":"10361","transport_name":null,"transport_description":null,"transport_unit":null,"transport_co2_eq":null,"from_stop_id":"14291","from_stop_lat":"31.9685988","from_stop_lon":"-99.9018131","from_stop_placename":"Texas, USA","to_stop_id":"14280","to_stop_name":"origin","to_stop_lat":"40.4278841","to_stop_lon":"-74.415984","to_stop_placename":"East Brunswick, NJ, USA","to_stop":{"id":"14280","name":"origin","lat":"40.4278841","lon":"-74.415984","placename":"East Brunswick, NJ, USA"},"from_stop":{"name":"origin","id":"14291","lat":"31.9685988","lon":"-99.9018131","placename":"Texas, USA"}}]}}},"processes":[],"eols":[]},{"oid":"855","imid":"6925","linkid":"0","weight":"0","rawemissions":"0","emissions":"0","shipping":"1893.09","processemissions":"0","endoflifeemissions":"0","disposaltype":null,"disposalenergy":null,"disposalimpact":null,"disposalemissions":null,"description":"","name":"natural gas wells","id":"6925","stops":{"origin":{"related_to":"6925","part_or_object":"p","notes":null,"placename":"Louisiana, USA","id":14292,"name":"origin","lat":"31.2448234","lon":"-92.1450245","hops":{"incoming":[],"outgoing":[{"transport_id":null,"id":"10362","transport_name":null,"transport_description":null,"transport_unit":null,"transport_co2_eq":null,"from_stop_id":"14292","from_stop_lat":"31.2448234","from_stop_lon":"-92.1450245","from_stop_placename":"Louisiana, USA","to_stop_id":"14280","to_stop_name":"origin","to_stop_lat":"40.4278841","to_stop_lon":"-74.415984","to_stop_placename":"East Brunswick, NJ, USA","to_stop":{"id":"14280","name":"origin","lat":"40.4278841","lon":"-74.415984","placename":"East Brunswick, NJ, USA"},"from_stop":{"name":"origin","id":"14292","lat":"31.2448234","lon":"-92.1450245","placename":"Louisiana, USA"}}]}}},"processes":[],"eols":[]},{"oid":"855","imid":"6926","linkid":"0","weight":"0","rawemissions":"0","emissions":"0","shipping":"2193.95","processemissions":"0","endoflifeemissions":"0","disposaltype":null,"disposalenergy":null,"disposalimpact":null,"disposalemissions":null,"description":"","name":"oil wells","id":"6926","stops":{"origin":{"related_to":"6926","part_or_object":"p","notes":null,"placename":"Gulf Of Mexico, United States","id":14293,"name":"origin","lat":"29.4581429","lon":"-94.5005808","hops":{"incoming":[],"outgoing":[{"transport_id":null,"id":"10363","transport_name":null,"transport_description":null,"transport_unit":null,"transport_co2_eq":null,"from_stop_id":"14293","from_stop_lat":"29.4581429","from_stop_lon":"-94.5005808","from_stop_placename":"Gulf Of Mexico, United States","to_stop_id":"14280","to_stop_name":"origin","to_stop_lat":"40.4278841","to_stop_lon":"-74.415984","to_stop_placename":"East Brunswick, NJ, USA","to_stop":{"id":"14280","name":"origin","lat":"40.4278841","lon":"-74.415984","placename":"East Brunswick, NJ, USA"},"from_stop":{"name":"origin","id":"14293","lat":"29.4581429","lon":"-94.5005808","placename":"Gulf Of Mexico, United States"}}]}}},"processes":[],"eols":[]},{"oid":"855","imid":"6927","linkid":"0","weight":"0","rawemissions":"0","emissions":"0","shipping":"5523.78","processemissions":"0","endoflifeemissions":"0","disposaltype":null,"disposalenergy":null,"disposalimpact":null,"disposalemissions":null,"description":"","name":"3 exploration blocks","id":"6927","stops":{"origin":{"related_to":"6927","part_or_object":"p","notes":null,"placename":"Peru","id":14294,"name":"origin","lat":"-9.189967","lon":"-75.015152","hops":{"incoming":[],"outgoing":[{"transport_id":null,"id":"10364","transport_name":null,"transport_description":null,"transport_unit":null,"transport_co2_eq":null,"from_stop_id":"14294","from_stop_lat":"-9.189967","from_stop_lon":"-75.015152","from_stop_placename":"Peru","to_stop_id":"14280","to_stop_name":"origin","to_stop_lat":"40.4278841","to_stop_lon":"-74.415984","to_stop_placename":"East Brunswick, NJ, USA","to_stop":{"id":"14280","name":"origin","lat":"40.4278841","lon":"-74.415984","placename":"East Brunswick, NJ, USA"},"from_stop":{"name":"origin","id":"14294","lat":"-9.189967","lon":"-75.015152","placename":"Peru"}}]}}},"processes":[],"eols":[]},{"oid":"855","imid":"6928","linkid":"0","weight":"0","rawemissions":"0","emissions":"0","shipping":"5828.43","processemissions":"0","endoflifeemissions":"0","disposaltype":null,"disposalenergy":null,"disposalimpact":null,"disposalemissions":null,"description":"","name":"crude oil","id":"6928","stops":{"origin":{"related_to":"6928","part_or_object":"p","notes":null,"placename":"Norway","id":14295,"name":"origin","lat":"60.472024","lon":"8.468946","hops":{"incoming":[],"outgoing":[{"transport_id":null,"id":"10365","transport_name":null,"transport_description":null,"transport_unit":null,"transport_co2_eq":null,"from_stop_id":"14295","from_stop_lat":"60.472024","from_stop_lon":"8.468946","from_stop_placename":"Norway","to_stop_id":"14280","to_stop_name":"origin","to_stop_lat":"40.4278841","to_stop_lon":"-74.415984","to_stop_placename":"East Brunswick, NJ, USA","to_stop":{"id":"14280","name":"origin","lat":"40.4278841","lon":"-74.415984","placename":"East Brunswick, NJ, USA"},"from_stop":{"name":"origin","id":"14295","lat":"60.472024","lon":"8.468946","placename":"Norway"}}]}}},"processes":[],"eols":[]},{"oid":"855","imid":"6929","linkid":"0","weight":"0","rawemissions":"0","emissions":"0","shipping":"5296.2","processemissions":"0","endoflifeemissions":"0","disposaltype":null,"disposalenergy":null,"disposalimpact":null,"disposalemissions":null,"description":"","name":"Refinery","id":"6929","stops":{"origin":{"related_to":"6929","part_or_object":"p","notes":null,"placename":"United Kingdom","id":14296,"name":"origin","lat":"55.378051","lon":"-3.435973","hops":{"incoming":[],"outgoing":[{"transport_id":null,"id":"10366","transport_name":null,"transport_description":null,"transport_unit":null,"transport_co2_eq":null,"from_stop_id":"14296","from_stop_lat":"55.378051","from_stop_lon":"-3.435973","from_stop_placename":"United Kingdom","to_stop_id":"14280","to_stop_name":"origin","to_stop_lat":"40.4278841","to_stop_lon":"-74.415984","to_stop_placename":"East Brunswick, NJ, USA","to_stop":{"id":"14280","name":"origin","lat":"40.4278841","lon":"-74.415984","placename":"East Brunswick, NJ, USA"},"from_stop":{"name":"origin","id":"14296","lat":"55.378051","lon":"-3.435973","placename":"United Kingdom"}}]}}},"processes":[],"eols":[]},{"oid":"855","imid":"6930","linkid":"0","weight":"0","rawemissions":"0","emissions":"0","shipping":"5037.28","processemissions":"0","endoflifeemissions":"0","disposaltype":null,"disposalenergy":null,"disposalimpact":null,"disposalemissions":null,"description":"","name":"crude oil refinery","id":"6930","stops":{"origin":{"related_to":"6930","part_or_object":"p","notes":null,"placename":"Ireland","id":14297,"name":"origin","lat":"53.41291","lon":"-8.24389","hops":{"incoming":[],"outgoing":[{"transport_id":null,"id":"10367","transport_name":null,"transport_description":null,"transport_unit":null,"transport_co2_eq":null,"from_stop_id":"14297","from_stop_lat":"53.41291","from_stop_lon":"-8.24389","from_stop_placename":"Ireland","to_stop_id":"14280","to_stop_name":"origin","to_stop_lat":"40.4278841","to_stop_lon":"-74.415984","to_stop_placename":"East Brunswick, NJ, USA","to_stop":{"id":"14280","name":"origin","lat":"40.4278841","lon":"-74.415984","placename":"East Brunswick, NJ, USA"},"from_stop":{"name":"origin","id":"14297","lat":"53.41291","lon":"-8.24389","placename":"Ireland"}}]}}},"processes":[],"eols":[]},{"oid":"855","imid":"6931","linkid":"0","weight":"0","rawemissions":"0","emissions":"0","shipping":"6320.74","processemissions":"0","endoflifeemissions":"0","disposaltype":null,"disposalenergy":null,"disposalimpact":null,"disposalemissions":null,"description":"","name":"2 refineries","id":"6931","stops":{"origin":{"related_to":"6931","part_or_object":"p","notes":null,"placename":"Germany","id":14298,"name":"origin","lat":"51.165691","lon":"10.451526","hops":{"incoming":[],"outgoing":[{"transport_id":null,"id":"10368","transport_name":null,"transport_description":null,"transport_unit":null,"transport_co2_eq":null,"from_stop_id":"14298","from_stop_lat":"51.165691","from_stop_lon":"10.451526","from_stop_placename":"Germany","to_stop_id":"14280","to_stop_name":"origin","to_stop_lat":"40.4278841","to_stop_lon":"-74.415984","to_stop_placename":"East Brunswick, NJ, USA","to_stop":{"id":"14280","name":"origin","lat":"40.4278841","lon":"-74.415984","placename":"East Brunswick, NJ, USA"},"from_stop":{"name":"origin","id":"14298","lat":"51.165691","lon":"10.451526","placename":"Germany"}}]}}},"processes":[],"eols":[]},{"oid":"855","imid":"6932","linkid":"0","weight":"0","rawemissions":"0","emissions":"0","shipping":"6923.43","processemissions":"0","endoflifeemissions":"0","disposaltype":null,"disposalenergy":null,"disposalimpact":null,"disposalemissions":null,"description":"3 fields","name":"oil production","id":"6932","stops":{"origin":{"related_to":"6932","part_or_object":"p","notes":null,"placename":"Algeria","id":14299,"name":"origin","lat":"28.033886","lon":"1.659626","hops":{"incoming":[],"outgoing":[{"transport_id":null,"id":"10369","transport_name":null,"transport_description":null,"transport_unit":null,"transport_co2_eq":null,"from_stop_id":"14299","from_stop_lat":"28.033886","from_stop_lon":"1.659626","from_stop_placename":"Algeria","to_stop_id":"14280","to_stop_name":"origin","to_stop_lat":"40.4278841","to_stop_lon":"-74.415984","to_stop_placename":"East Brunswick, NJ, USA","to_stop":{"id":"14280","name":"origin","lat":"40.4278841","lon":"-74.415984","placename":"East Brunswick, NJ, USA"},"from_stop":{"name":"origin","id":"14299","lat":"28.033886","lon":"1.659626","placename":"Algeria"}}]}}},"processes":[],"eols":[]},{"oid":"855","imid":"6933","linkid":"0","weight":"0","rawemissions":"0","emissions":"0","shipping":"8287.55","processemissions":"0","endoflifeemissions":"0","disposaltype":null,"disposalenergy":null,"disposalimpact":null,"disposalemissions":null,"description":"Temporarily closed offices and evacuated expatriate employees as of March 2011.","name":"oil","id":"6933","stops":{"origin":{"related_to":"6933","part_or_object":"p","notes":null,"placename":"Libya","id":14300,"name":"origin","lat":"26.3351","lon":"17.228331","hops":{"incoming":[],"outgoing":[{"transport_id":null,"id":"10370","transport_name":null,"transport_description":null,"transport_unit":null,"transport_co2_eq":null,"from_stop_id":"14300","from_stop_lat":"26.3351","from_stop_lon":"17.228331","from_stop_placename":"Libya","to_stop_id":"14280","to_stop_name":"origin","to_stop_lat":"40.4278841","to_stop_lon":"-74.415984","to_stop_placename":"East Brunswick, NJ, USA","to_stop":{"id":"14280","name":"origin","lat":"40.4278841","lon":"-74.415984","placename":"East Brunswick, NJ, USA"},"from_stop":{"name":"origin","id":"14300","lat":"26.3351","lon":"17.228331","placename":"Libya"}}]}}},"processes":[],"eols":[]},{"oid":"855","imid":"6934","linkid":"0","weight":"0","rawemissions":"0","emissions":"0","shipping":"8781.42","processemissions":"0","endoflifeemissions":"0","disposaltype":null,"disposalenergy":null,"disposalimpact":null,"disposalemissions":null,"description":"","name":"onshore\/offshore oil mining leases","id":"6934","stops":{"origin":{"related_to":"6934","part_or_object":"p","notes":null,"placename":"Nigeria","id":14301,"name":"origin","lat":"9.081999","lon":"8.675277","hops":{"incoming":[],"outgoing":[{"transport_id":null,"id":"10371","transport_name":null,"transport_description":null,"transport_unit":null,"transport_co2_eq":null,"from_stop_id":"14301","from_stop_lat":"9.081999","from_stop_lon":"8.675277","from_stop_placename":"Nigeria","to_stop_id":"14280","to_stop_name":"origin","to_stop_lat":"40.4278841","to_stop_lon":"-74.415984","to_stop_placename":"East Brunswick, NJ, USA","to_stop":{"id":"14280","name":"origin","lat":"40.4278841","lon":"-74.415984","placename":"East Brunswick, NJ, USA"},"from_stop":{"name":"origin","id":"14301","lat":"9.081999","lon":"8.675277","placename":"Nigeria"}}]}}},"processes":[],"eols":[]},{"oid":"855","imid":"6935","linkid":"0","weight":"0","rawemissions":"0","emissions":"0","shipping":"10530.21","processemissions":"0","endoflifeemissions":"0","disposaltype":null,"disposalenergy":null,"disposalimpact":null,"disposalemissions":null,"description":"","name":"chemical sector","id":"6935","stops":{"origin":{"related_to":"6935","part_or_object":"p","notes":null,"placename":"Saudi Arabia","id":14302,"name":"origin","lat":"23.885942","lon":"45.079162","hops":{"incoming":[],"outgoing":[{"transport_id":null,"id":"10372","transport_name":null,"transport_description":null,"transport_unit":null,"transport_co2_eq":null,"from_stop_id":"14302","from_stop_lat":"23.885942","from_stop_lon":"45.079162","from_stop_placename":"Saudi Arabia","to_stop_id":"14280","to_stop_name":"origin","to_stop_lat":"40.4278841","to_stop_lon":"-74.415984","to_stop_placename":"East Brunswick, NJ, USA","to_stop":{"id":"14280","name":"origin","lat":"40.4278841","lon":"-74.415984","placename":"East Brunswick, NJ, USA"},"from_stop":{"name":"origin","id":"14302","lat":"23.885942","lon":"45.079162","placename":"Saudi Arabia"}}]}}},"processes":[],"eols":[]},{"oid":"855","imid":"6936","linkid":"0","weight":"0","rawemissions":"0","emissions":"0","shipping":"10803.59","processemissions":"0","endoflifeemissions":"0","disposaltype":null,"disposalenergy":null,"disposalimpact":null,"disposalemissions":null,"description":"","name":"liquified natural gas (LNG)","id":"6936","stops":{"origin":{"related_to":"6936","part_or_object":"p","notes":null,"placename":"Qatar","id":14303,"name":"origin","lat":"25.354826","lon":"51.183884","hops":{"incoming":[],"outgoing":[{"transport_id":null,"id":"10373","transport_name":null,"transport_description":null,"transport_unit":null,"transport_co2_eq":null,"from_stop_id":"14303","from_stop_lat":"25.354826","from_stop_lon":"51.183884","from_stop_placename":"Qatar","to_stop_id":"14280","to_stop_name":"origin","to_stop_lat":"40.4278841","to_stop_lon":"-74.415984","to_stop_placename":"East Brunswick, NJ, USA","to_stop":{"id":"14280","name":"origin","lat":"40.4278841","lon":"-74.415984","placename":"East Brunswick, NJ, USA"},"from_stop":{"name":"origin","id":"14303","lat":"25.354826","lon":"51.183884","placename":"Qatar"}}]}}},"processes":[],"eols":[]},{"oid":"855","imid":"6937","linkid":"0","weight":"0","rawemissions":"0","emissions":"0","shipping":"9479.27","processemissions":"0","endoflifeemissions":"0","disposaltype":null,"disposalenergy":null,"disposalimpact":null,"disposalemissions":null,"description":"","name":"oil & gas fields","id":"6937","stops":{"origin":{"related_to":"6937","part_or_object":"p","notes":null,"placename":"Kazakhstan","id":14304,"name":"origin","lat":"48.019573","lon":"66.923684","hops":{"incoming":[],"outgoing":[{"transport_id":null,"id":"10374","transport_name":null,"transport_description":null,"transport_unit":null,"transport_co2_eq":null,"from_stop_id":"14304","from_stop_lat":"48.019573","from_stop_lon":"66.923684","from_stop_placename":"Kazakhstan","to_stop_id":"14280","to_stop_name":"origin","to_stop_lat":"40.4278841","to_stop_lon":"-74.415984","to_stop_placename":"East Brunswick, NJ, USA","to_stop":{"id":"14280","name":"origin","lat":"40.4278841","lon":"-74.415984","placename":"East Brunswick, NJ, USA"},"from_stop":{"name":"origin","id":"14304","lat":"48.019573","lon":"66.923684","placename":"Kazakhstan"}}]}}},"processes":[],"eols":[]},{"oid":"855","imid":"6938","linkid":"0","weight":"0","rawemissions":"0","emissions":"0","shipping":"8688.25","processemissions":"0","endoflifeemissions":"0","disposaltype":null,"disposalenergy":null,"disposalimpact":null,"disposalemissions":null,"description":"shares in LUKOIL","name":"oil and gas resources","id":"6938","stops":{"origin":{"related_to":"6938","part_or_object":"p","notes":null,"placename":"Russia","id":14305,"name":"origin","lat":"61.52401","lon":"105.318756","hops":{"incoming":[],"outgoing":[{"transport_id":null,"id":"10375","transport_name":null,"transport_description":null,"transport_unit":null,"transport_co2_eq":null,"from_stop_id":"14305","from_stop_lat":"61.52401","from_stop_lon":"105.318756","from_stop_placename":"Russia","to_stop_id":"14280","to_stop_name":"origin","to_stop_lat":"40.4278841","to_stop_lon":"-74.415984","to_stop_placename":"East Brunswick, NJ, USA","to_stop":{"id":"14280","name":"origin","lat":"40.4278841","lon":"-74.415984","placename":"East Brunswick, NJ, USA"},"from_stop":{"name":"origin","id":"14305","lat":"61.52401","lon":"105.318756","placename":"Russia"}}]}}},"processes":[],"eols":[]},{"oid":"855","imid":"6939","linkid":"0","weight":"0","rawemissions":"0","emissions":"0","shipping":"12957.41","processemissions":"0","endoflifeemissions":"0","disposaltype":null,"disposalenergy":null,"disposalimpact":null,"disposalemissions":null,"description":"","name":"oil fields\/ chemical sector","id":"6939","stops":{"origin":{"related_to":"6939","part_or_object":"p","notes":null,"placename":"South China Sea, China","id":14306,"name":"origin","lat":"22.541166","lon":"115.191977","hops":{"incoming":[],"outgoing":[{"transport_id":null,"id":"10376","transport_name":null,"transport_description":null,"transport_unit":null,"transport_co2_eq":null,"from_stop_id":"14306","from_stop_lat":"22.541166","from_stop_lon":"115.191977","from_stop_placename":"South China Sea, China","to_stop_id":"14280","to_stop_name":"origin","to_stop_lat":"40.4278841","to_stop_lon":"-74.415984","to_stop_placename":"East Brunswick, NJ, USA","to_stop":{"id":"14280","name":"origin","lat":"40.4278841","lon":"-74.415984","placename":"East Brunswick, NJ, USA"},"from_stop":{"name":"origin","id":"14306","lat":"22.541166","lon":"115.191977","placename":"South China Sea, China"}}]}}},"processes":[],"eols":[]},{"oid":"855","imid":"6940","linkid":"0","weight":"0","rawemissions":"0","emissions":"0","shipping":"11241.9","processemissions":"0","endoflifeemissions":"0","disposaltype":null,"disposalenergy":null,"disposalimpact":null,"disposalemissions":null,"description":"produces 115 million pounds\/year of styrene-butadiene copolymer (medical devices, toys, and food packaging).","name":"chemical sector","id":"6940","stops":{"origin":{"related_to":"6940","part_or_object":"p","notes":null,"placename":"South Korea","id":14307,"name":"origin","lat":"35.907757","lon":"127.766922","hops":{"incoming":[],"outgoing":[{"transport_id":null,"id":"10377","transport_name":null,"transport_description":null,"transport_unit":null,"transport_co2_eq":null,"from_stop_id":"14307","from_stop_lat":"35.907757","from_stop_lon":"127.766922","from_stop_placename":"South Korea","to_stop_id":"14280","to_stop_name":"origin","to_stop_lat":"40.4278841","to_stop_lon":"-74.415984","to_stop_placename":"East Brunswick, NJ, USA","to_stop":{"id":"14280","name":"origin","lat":"40.4278841","lon":"-74.415984","placename":"East Brunswick, NJ, USA"},"from_stop":{"name":"origin","id":"14307","lat":"35.907757","lon":"127.766922","placename":"South Korea"}}]}}},"processes":[],"eols":[]},{"oid":"855","imid":"6941","linkid":"0","weight":"0","rawemissions":"0","emissions":"0","shipping":"15545.13","processemissions":"0","endoflifeemissions":"0","disposaltype":null,"disposalenergy":null,"disposalimpact":null,"disposalemissions":null,"description":"","name":"crude oil and NGL (natural gas liquids)","id":"6941","stops":{"origin":{"related_to":"6941","part_or_object":"p","notes":null,"placename":"Indonesia","id":14308,"name":"origin","lat":"-0.789275","lon":"113.921327","hops":{"incoming":[],"outgoing":[{"transport_id":null,"id":"10378","transport_name":null,"transport_description":null,"transport_unit":null,"transport_co2_eq":null,"from_stop_id":"14308","from_stop_lat":"-0.789275","from_stop_lon":"113.921327","from_stop_placename":"Indonesia","to_stop_id":"14280","to_stop_name":"origin","to_stop_lat":"40.4278841","to_stop_lon":"-74.415984","to_stop_placename":"East Brunswick, NJ, USA","to_stop":{"id":"14280","name":"origin","lat":"40.4278841","lon":"-74.415984","placename":"East Brunswick, NJ, USA"},"from_stop":{"name":"origin","id":"14308","lat":"-0.789275","lon":"113.921327","placename":"Indonesia"}}]}}},"processes":[],"eols":[]},{"oid":"855","imid":"6942","linkid":"0","weight":"0","rawemissions":"0","emissions":"0","shipping":"13965.74","processemissions":"0","endoflifeemissions":"0","disposaltype":null,"disposalenergy":null,"disposalimpact":null,"disposalemissions":null,"description":"","name":" crude oil & NGL","id":"6942","stops":{"origin":{"related_to":"6942","part_or_object":"p","notes":null,"placename":"Vietnam","id":14309,"name":"origin","lat":"14.058324","lon":"108.277199","hops":{"incoming":[],"outgoing":[{"transport_id":null,"id":"10379","transport_name":null,"transport_description":null,"transport_unit":null,"transport_co2_eq":null,"from_stop_id":"14309","from_stop_lat":"14.058324","from_stop_lon":"108.277199","from_stop_placename":"Vietnam","to_stop_id":"14280","to_stop_name":"origin","to_stop_lat":"40.4278841","to_stop_lon":"-74.415984","to_stop_placename":"East Brunswick, NJ, USA","to_stop":{"id":"14280","name":"origin","lat":"40.4278841","lon":"-74.415984","placename":"East Brunswick, NJ, USA"},"from_stop":{"name":"origin","id":"14309","lat":"14.058324","lon":"108.277199","placename":"Vietnam"}}]}}},"processes":[],"eols":[]},{"oid":"855","imid":"6943","linkid":"0","weight":"0","rawemissions":"0","emissions":"0","shipping":"15054.74","processemissions":"0","endoflifeemissions":"0","disposaltype":null,"disposalenergy":null,"disposalimpact":null,"disposalemissions":null,"description":"","name":"3 deepwater oil blocks & refinery","id":"6943","stops":{"origin":{"related_to":"6943","part_or_object":"p","notes":null,"placename":"Malaysia","id":14310,"name":"origin","lat":"4.210484","lon":"101.975766","hops":{"incoming":[],"outgoing":[{"transport_id":null,"id":"10380","transport_name":null,"transport_description":null,"transport_unit":null,"transport_co2_eq":null,"from_stop_id":"14310","from_stop_lat":"4.210484","from_stop_lon":"101.975766","from_stop_placename":"Malaysia","to_stop_id":"14280","to_stop_name":"origin","to_stop_lat":"40.4278841","to_stop_lon":"-74.415984","to_stop_placename":"East Brunswick, NJ, USA","to_stop":{"id":"14280","name":"origin","lat":"40.4278841","lon":"-74.415984","placename":"East Brunswick, NJ, USA"},"from_stop":{"name":"origin","id":"14310","lat":"4.210484","lon":"101.975766","placename":"Malaysia"}}]}}},"processes":[],"eols":[]},{"oid":"855","imid":"6944","linkid":"0","weight":"0","rawemissions":"0","emissions":"0","shipping":"15383.13","processemissions":"0","endoflifeemissions":"0","disposaltype":null,"disposalenergy":null,"disposalimpact":null,"disposalemissions":null,"description":"polyethylene, olefin, and polyolefins","name":"chemical sector","id":"6944","stops":{"origin":{"related_to":"6944","part_or_object":"p","notes":null,"placename":"Singapore","id":14311,"name":"origin","lat":"1.352083","lon":"103.819836","hops":{"incoming":[],"outgoing":[{"transport_id":null,"id":"10381","transport_name":null,"transport_description":null,"transport_unit":null,"transport_co2_eq":null,"from_stop_id":"14311","from_stop_lat":"1.352083","from_stop_lon":"103.819836","from_stop_placename":"Singapore","to_stop_id":"14280","to_stop_name":"origin","to_stop_lat":"40.4278841","to_stop_lon":"-74.415984","to_stop_placename":"East Brunswick, NJ, USA","to_stop":{"id":"14280","name":"origin","lat":"40.4278841","lon":"-74.415984","placename":"East Brunswick, NJ, USA"},"from_stop":{"name":"origin","id":"14311","lat":"1.352083","lon":"103.819836","placename":"Singapore"}}]}}},"processes":[],"eols":[]},{"oid":"855","imid":"6945","linkid":"0","weight":"0","rawemissions":"0","emissions":"0","shipping":"15545.13","processemissions":"0","endoflifeemissions":"0","disposaltype":null,"disposalenergy":null,"disposalimpact":null,"disposalemissions":null,"description":"","name":"crude oil & NGL","id":"6945","stops":{"origin":{"related_to":"6945","part_or_object":"p","notes":null,"placename":"Indonesia","id":14312,"name":"origin","lat":"-0.789275","lon":"113.921327","hops":{"incoming":[],"outgoing":[{"transport_id":null,"id":"10382","transport_name":null,"transport_description":null,"transport_unit":null,"transport_co2_eq":null,"from_stop_id":"14312","from_stop_lat":"-0.789275","from_stop_lon":"113.921327","from_stop_placename":"Indonesia","to_stop_id":"14280","to_stop_name":"origin","to_stop_lat":"40.4278841","to_stop_lon":"-74.415984","to_stop_placename":"East Brunswick, NJ, USA","to_stop":{"id":"14280","name":"origin","lat":"40.4278841","lon":"-74.415984","placename":"East Brunswick, NJ, USA"},"from_stop":{"name":"origin","id":"14312","lat":"-0.789275","lon":"113.921327","placename":"Indonesia"}}]}}},"processes":[],"eols":[]},{"oid":"855","imid":"6946","linkid":"0","weight":"0","rawemissions":"0","emissions":"0","shipping":"16929.09","processemissions":"0","endoflifeemissions":"0","disposaltype":null,"disposalenergy":null,"disposalimpact":null,"disposalemissions":null,"description":"","name":"crude oil & NGL","id":"6946","stops":{"origin":{"related_to":"6946","part_or_object":"p","notes":null,"placename":"Australia","id":14313,"name":"origin","lat":"-25.274398","lon":"133.775136","hops":{"incoming":[],"outgoing":[{"transport_id":null,"id":"10383","transport_name":null,"transport_description":null,"transport_unit":null,"transport_co2_eq":null,"from_stop_id":"14313","from_stop_lat":"-25.274398","from_stop_lon":"133.775136","from_stop_placename":"Australia","to_stop_id":"14280","to_stop_name":"origin","to_stop_lat":"40.4278841","to_stop_lon":"-74.415984","to_stop_placename":"East Brunswick, NJ, USA","to_stop":{"id":"14280","name":"origin","lat":"40.4278841","lon":"-74.415984","placename":"East Brunswick, NJ, USA"},"from_stop":{"name":"origin","id":"14313","lat":"-25.274398","lon":"133.775136","placename":"Australia"}}]}}},"processes":[],"eols":[]}],"user":{"name":"erinh","id":"12369"}}}