{"88":{"oid":"88","type":"trace","flag":"","creator":"11395","name":"V\u00fdroba hudebn\u00edch n\u00e1stroj\u016f","upc":"","imagelink":"","description":"Kde byly vyrobeny hudebn\u00ed n\u00e1stroje, kter\u00e9 se se\u0161ly ve zku\u0161ebn\u011b","slug":"V\u00fdroba-hudebn\u00edch-n\u00e1stroj\u016f","category":"","weight":"0","emissions":"0","embodied":"0","transport":"0","process":null,"endoflife":null,"shipping":"78505.03","lifetime":null,"usagetype":"","usageenergy":null,"usageemissions":null,"timecreated":"2010-11-30 03:44:46","timemodified":"2010-11-30 04:54:04","visibility":"public","showfootprint":"on","showembodied":"on","showtransport":"on","showprocess":"on","showendoflife":"on","showlastleg":"on","showuse":"on","showstats":"on","stops":{"origin":{"related_to":"88","part_or_object":"o","notes":null,"placename":"267 27 Korno, \u010cesk\u00e1 republika","id":"7717","category":"1","lat":"49.9204025","lon":"14.1376219","name":"origin","hops":{"incoming":[{"transport_id":null,"id":"5235","transport_name":null,"transport_description":null,"transport_unit":null,"transport_co2_eq":null,"from_stop_id":"7718","from_stop_lat":"35.86166","from_stop_lon":"104.195397","to_stop_id":"7717","to_stop_name":"origin","to_stop_lat":"49.9204025","placename":"\u010c\u00ednsk\u00e1 lidov\u00e1 republika","to_stop_lon":"14.1376219","to_stop":{"id":"7717","name":"origin","lat":"49.9204025","placename":"267 27 Korno, \u010cesk\u00e1 republika","lon":"14.1376219"},"from_stop":{"name":"origin","id":"7718","lat":"35.86166","lon":"104.195397","placename":"\u010c\u00ednsk\u00e1 lidov\u00e1 republika"}},{"transport_id":null,"id":"5236","transport_name":null,"transport_description":null,"transport_unit":null,"transport_co2_eq":null,"from_stop_id":"7719","from_stop_lat":"34.3916641","from_stop_lon":"-118.542586","to_stop_id":"7717","to_stop_name":"origin","to_stop_lat":"49.9204025","placename":"Santa Clarita, Kalifornie, Spojen\u00e9 st\u00e1ty americk\u00e9","to_stop_lon":"14.1376219","to_stop":{"id":"7717","name":"origin","lat":"49.9204025","placename":"267 27 Korno, \u010cesk\u00e1 republika","lon":"14.1376219"},"from_stop":{"name":"origin","id":"7719","lat":"34.3916641","lon":"-118.542586","placename":"Santa Clarita, Kalifornie, Spojen\u00e9 st\u00e1ty americk\u00e9"}},{"transport_id":null,"id":"5237","transport_name":null,"transport_description":null,"transport_unit":null,"transport_co2_eq":null,"from_stop_id":"7720","from_stop_lat":"41.00527","from_stop_lon":"28.97696","to_stop_id":"7717","to_stop_name":"origin","to_stop_lat":"49.9204025","placename":"Istanbul\/Istanbulsk\u00e1 provincie, Turecko","to_stop_lon":"14.1376219","to_stop":{"id":"7717","name":"origin","lat":"49.9204025","placename":"267 27 Korno, \u010cesk\u00e1 republika","lon":"14.1376219"},"from_stop":{"name":"origin","id":"7720","lat":"41.00527","lon":"28.97696","placename":"Istanbul\/Istanbulsk\u00e1 provincie, Turecko"}},{"transport_id":null,"id":"5238","transport_name":null,"transport_description":null,"transport_unit":null,"transport_co2_eq":null,"from_stop_id":"7721","from_stop_lat":"49.7798441","from_stop_lon":"14.6830564","to_stop_id":"7717","to_stop_name":"origin","to_stop_lat":"49.9204025","placename":"Bene\u0161ov u Prahy, N\u00e1dra\u017en\u00ed 300, 256 01 Bene\u0161ov, \u010cesk\u00e1 republika","to_stop_lon":"14.1376219","to_stop":{"id":"7717","name":"origin","lat":"49.9204025","placename":"267 27 Korno, \u010cesk\u00e1 republika","lon":"14.1376219"},"from_stop":{"name":"origin","id":"7721","lat":"49.7798441","lon":"14.6830564","placename":"Bene\u0161ov u Prahy, N\u00e1dra\u017en\u00ed 300, 256 01 Bene\u0161ov, \u010cesk\u00e1 republika"}},{"transport_id":null,"id":"5239","transport_name":null,"transport_description":null,"transport_unit":null,"transport_co2_eq":null,"from_stop_id":"7722","from_stop_lat":"20.593684","from_stop_lon":"78.96288","to_stop_id":"7717","to_stop_name":"origin","to_stop_lat":"49.9204025","placename":"Indie","to_stop_lon":"14.1376219","to_stop":{"id":"7717","name":"origin","lat":"49.9204025","placename":"267 27 Korno, \u010cesk\u00e1 republika","lon":"14.1376219"},"from_stop":{"name":"origin","id":"7722","lat":"20.593684","lon":"78.96288","placename":"Indie"}},{"transport_id":null,"id":"5240","transport_name":null,"transport_description":null,"transport_unit":null,"transport_co2_eq":null,"from_stop_id":"7723","from_stop_lat":"35.86166","from_stop_lon":"104.195397","to_stop_id":"7717","to_stop_name":"origin","to_stop_lat":"49.9204025","placename":"\u010c\u00ednsk\u00e1 lidov\u00e1 republika","to_stop_lon":"14.1376219","to_stop":{"id":"7717","name":"origin","lat":"49.9204025","placename":"267 27 Korno, \u010cesk\u00e1 republika","lon":"14.1376219"},"from_stop":{"name":"origin","id":"7723","lat":"35.86166","lon":"104.195397","placename":"\u010c\u00ednsk\u00e1 lidov\u00e1 republika"}},{"transport_id":null,"id":"5241","transport_name":null,"transport_description":null,"transport_unit":null,"transport_co2_eq":null,"from_stop_id":"7724","from_stop_lat":"30.7210227","from_stop_lon":"-86.1152184","to_stop_id":"7717","to_stop_name":"origin","to_stop_lat":"49.9204025","placename":"DeFuniak Springs, Florida, Spojen\u00e9 st\u00e1ty americk\u00e9","to_stop_lon":"14.1376219","to_stop":{"id":"7717","name":"origin","lat":"49.9204025","placename":"267 27 Korno, \u010cesk\u00e1 republika","lon":"14.1376219"},"from_stop":{"name":"origin","id":"7724","lat":"30.7210227","lon":"-86.1152184","placename":"DeFuniak Springs, Florida, Spojen\u00e9 st\u00e1ty americk\u00e9"}},{"transport_id":null,"id":"5242","transport_name":null,"transport_description":null,"transport_unit":null,"transport_co2_eq":null,"from_stop_id":"7725","from_stop_lat":"40.7325997","from_stop_lon":"-73.4454009","to_stop_id":"7717","to_stop_name":"origin","to_stop_lat":"49.9204025","placename":"Farmingdale, New York 11735, Spojen\u00e9 st\u00e1ty americk\u00e9","to_stop_lon":"14.1376219","to_stop":{"id":"7717","name":"origin","lat":"49.9204025","placename":"267 27 Korno, \u010cesk\u00e1 republika","lon":"14.1376219"},"from_stop":{"name":"origin","id":"7725","lat":"40.7325997","lon":"-73.4454009","placename":"Farmingdale, New York 11735, Spojen\u00e9 st\u00e1ty americk\u00e9"}},{"transport_id":null,"id":"5243","transport_name":null,"transport_description":null,"transport_unit":null,"transport_co2_eq":null,"from_stop_id":"7726","from_stop_lat":"35.86166","from_stop_lon":"104.195397","to_stop_id":"7717","to_stop_name":"origin","to_stop_lat":"49.9204025","placename":"\u010c\u00ednsk\u00e1 lidov\u00e1 republika","to_stop_lon":"14.1376219","to_stop":{"id":"7717","name":"origin","lat":"49.9204025","placename":"267 27 Korno, \u010cesk\u00e1 republika","lon":"14.1376219"},"from_stop":{"name":"origin","id":"7726","lat":"35.86166","lon":"104.195397","placename":"\u010c\u00ednsk\u00e1 lidov\u00e1 republika"}},{"transport_id":null,"id":"5244","transport_name":null,"transport_description":null,"transport_unit":null,"transport_co2_eq":null,"from_stop_id":"7727","from_stop_lat":"35.86166","from_stop_lon":"104.195397","to_stop_id":"7717","to_stop_name":"origin","to_stop_lat":"49.9204025","placename":"\u010c\u00ednsk\u00e1 lidov\u00e1 republika","to_stop_lon":"14.1376219","to_stop":{"id":"7717","name":"origin","lat":"49.9204025","placename":"267 27 Korno, \u010cesk\u00e1 republika","lon":"14.1376219"},"from_stop":{"name":"origin","id":"7727","lat":"35.86166","lon":"104.195397","placename":"\u010c\u00ednsk\u00e1 lidov\u00e1 republika"}},{"transport_id":null,"id":"5245","transport_name":null,"transport_description":null,"transport_unit":null,"transport_co2_eq":null,"from_stop_id":"7728","from_stop_lat":"22.396428","from_stop_lon":"114.109497","to_stop_id":"7717","to_stop_name":"origin","to_stop_lat":"49.9204025","placename":"Hongkong","to_stop_lon":"14.1376219","to_stop":{"id":"7717","name":"origin","lat":"49.9204025","placename":"267 27 Korno, \u010cesk\u00e1 republika","lon":"14.1376219"},"from_stop":{"name":"origin","id":"7728","lat":"22.396428","lon":"114.109497","placename":"Hongkong"}},{"transport_id":null,"id":"5246","transport_name":null,"transport_description":null,"transport_unit":null,"transport_co2_eq":null,"from_stop_id":"7729","from_stop_lat":"36.06722","from_stop_lon":"120.382504","to_stop_id":"7717","to_stop_name":"origin","to_stop_lat":"49.9204025","placename":"\u010cching-tao, \u0160an-tung, \u010c\u00ednsk\u00e1 lidov\u00e1 republika","to_stop_lon":"14.1376219","to_stop":{"id":"7717","name":"origin","lat":"49.9204025","placename":"267 27 Korno, \u010cesk\u00e1 republika","lon":"14.1376219"},"from_stop":{"name":"origin","id":"7729","lat":"36.06722","lon":"120.382504","placename":"\u010cching-tao, \u0160an-tung, \u010c\u00ednsk\u00e1 lidov\u00e1 republika"}},{"transport_id":null,"id":"5247","transport_name":null,"transport_description":null,"transport_unit":null,"transport_co2_eq":null,"from_stop_id":"7730","from_stop_lat":"52.4829614","from_stop_lon":"-1.893592","to_stop_id":"7717","to_stop_name":"origin","to_stop_lat":"49.9204025","placename":"Birmingham, West Midlands, Velk\u00e1 Brit\u00e1nie","to_stop_lon":"14.1376219","to_stop":{"id":"7717","name":"origin","lat":"49.9204025","placename":"267 27 Korno, \u010cesk\u00e1 republika","lon":"14.1376219"},"from_stop":{"name":"origin","id":"7730","lat":"52.4829614","lon":"-1.893592","placename":"Birmingham, West Midlands, Velk\u00e1 Brit\u00e1nie"}}],"outgoing":[]}}},"parts":[{"oid":"88","imid":"4955","linkid":"0","weight":"0","rawemissions":"0","emissions":"0","shipping":"7057.92","processemissions":"0","endoflifeemissions":"0","disposaltype":null,"disposalenergy":null,"disposalimpact":null,"disposalemissions":null,"description":"","name":"Sonor","id":"4955","stops":{"origin":{"related_to":"4955","part_or_object":"p","notes":null,"placename":"\u010c\u00ednsk\u00e1 lidov\u00e1 republika","id":7718,"name":"origin","lat":"35.86166","lon":"104.195397","hops":{"incoming":[],"outgoing":[{"transport_id":null,"id":"5235","transport_name":null,"transport_description":null,"transport_unit":null,"transport_co2_eq":null,"from_stop_id":"7718","from_stop_lat":"35.86166","from_stop_lon":"104.195397","from_stop_placename":"\u010c\u00ednsk\u00e1 lidov\u00e1 republika","to_stop_id":"7717","to_stop_name":"origin","to_stop_lat":"49.9204025","to_stop_lon":"14.1376219","to_stop_placename":"267 27 Korno, \u010cesk\u00e1 republika","to_stop":{"id":"7717","name":"origin","lat":"49.9204025","lon":"14.1376219","placename":"267 27 Korno, \u010cesk\u00e1 republika"},"from_stop":{"name":"origin","id":"7718","lat":"35.86166","lon":"104.195397","placename":"\u010c\u00ednsk\u00e1 lidov\u00e1 republika"}}]}}},"processes":[],"eols":[]},{"oid":"88","imid":"4956","linkid":"0","weight":"0","rawemissions":"0","emissions":"0","shipping":"9559.01","processemissions":"0","endoflifeemissions":"0","disposaltype":null,"disposalenergy":null,"disposalimpact":null,"disposalemissions":null,"description":"","name":"Remo","id":"4956","stops":{"origin":{"related_to":"4956","part_or_object":"p","notes":null,"placename":"Santa Clarita, Kalifornie, Spojen\u00e9 st\u00e1ty americk\u00e9","id":7719,"name":"origin","lat":"34.3916641","lon":"-118.542586","hops":{"incoming":[],"outgoing":[{"transport_id":null,"id":"5236","transport_name":null,"transport_description":null,"transport_unit":null,"transport_co2_eq":null,"from_stop_id":"7719","from_stop_lat":"34.3916641","from_stop_lon":"-118.542586","from_stop_placename":"Santa Clarita, Kalifornie, Spojen\u00e9 st\u00e1ty americk\u00e9","to_stop_id":"7717","to_stop_name":"origin","to_stop_lat":"49.9204025","to_stop_lon":"14.1376219","to_stop_placename":"267 27 Korno, \u010cesk\u00e1 republika","to_stop":{"id":"7717","name":"origin","lat":"49.9204025","lon":"14.1376219","placename":"267 27 Korno, \u010cesk\u00e1 republika"},"from_stop":{"name":"origin","id":"7719","lat":"34.3916641","lon":"-118.542586","placename":"Santa Clarita, Kalifornie, Spojen\u00e9 st\u00e1ty americk\u00e9"}}]}}},"processes":[],"eols":[]},{"oid":"88","imid":"4957","linkid":"0","weight":"0","rawemissions":"0","emissions":"0","shipping":"1520.64","processemissions":"0","endoflifeemissions":"0","disposaltype":null,"disposalenergy":null,"disposalimpact":null,"disposalemissions":null,"description":"","name":"Alchemy cymbals","id":"4957","stops":{"origin":{"related_to":"4957","part_or_object":"p","notes":null,"placename":"Istanbul\/Istanbulsk\u00e1 provincie, Turecko","id":7720,"name":"origin","lat":"41.00527","lon":"28.97696","hops":{"incoming":[],"outgoing":[{"transport_id":null,"id":"5237","transport_name":null,"transport_description":null,"transport_unit":null,"transport_co2_eq":null,"from_stop_id":"7720","from_stop_lat":"41.00527","from_stop_lon":"28.97696","from_stop_placename":"Istanbul\/Istanbulsk\u00e1 provincie, Turecko","to_stop_id":"7717","to_stop_name":"origin","to_stop_lat":"49.9204025","to_stop_lon":"14.1376219","to_stop_placename":"267 27 Korno, \u010cesk\u00e1 republika","to_stop":{"id":"7717","name":"origin","lat":"49.9204025","lon":"14.1376219","placename":"267 27 Korno, \u010cesk\u00e1 republika"},"from_stop":{"name":"origin","id":"7720","lat":"41.00527","lon":"28.97696","placename":"Istanbul\/Istanbulsk\u00e1 provincie, Turecko"}}]}}},"processes":[],"eols":[]},{"oid":"88","imid":"4958","linkid":"0","weight":"0","rawemissions":"0","emissions":"0","shipping":"42.16","processemissions":"0","endoflifeemissions":"0","disposaltype":null,"disposalenergy":null,"disposalimpact":null,"disposalemissions":null,"description":"","name":"Balbex","id":"4958","stops":{"origin":{"related_to":"4958","part_or_object":"p","notes":null,"placename":"Bene\u0161ov u Prahy, N\u00e1dra\u017en\u00ed 300, 256 01 Bene\u0161ov, \u010cesk\u00e1 republika","id":7721,"name":"origin","lat":"49.7798441","lon":"14.6830564","hops":{"incoming":[],"outgoing":[{"transport_id":null,"id":"5238","transport_name":null,"transport_description":null,"transport_unit":null,"transport_co2_eq":null,"from_stop_id":"7721","from_stop_lat":"49.7798441","from_stop_lon":"14.6830564","from_stop_placename":"Bene\u0161ov u Prahy, N\u00e1dra\u017en\u00ed 300, 256 01 Bene\u0161ov, \u010cesk\u00e1 republika","to_stop_id":"7717","to_stop_name":"origin","to_stop_lat":"49.9204025","to_stop_lon":"14.1376219","to_stop_placename":"267 27 Korno, \u010cesk\u00e1 republika","to_stop":{"id":"7717","name":"origin","lat":"49.9204025","lon":"14.1376219","placename":"267 27 Korno, \u010cesk\u00e1 republika"},"from_stop":{"name":"origin","id":"7721","lat":"49.7798441","lon":"14.6830564","placename":"Bene\u0161ov u Prahy, N\u00e1dra\u017en\u00ed 300, 256 01 Bene\u0161ov, \u010cesk\u00e1 republika"}}]}}},"processes":[],"eols":[]},{"oid":"88","imid":"4959","linkid":"0","weight":"0","rawemissions":"0","emissions":"0","shipping":"6489.62","processemissions":"0","endoflifeemissions":"0","disposaltype":null,"disposalenergy":null,"disposalimpact":null,"disposalemissions":null,"description":"","name":"Marshall","id":"4959","stops":{"origin":{"related_to":"4959","part_or_object":"p","notes":null,"placename":"Indie","id":7722,"name":"origin","lat":"20.593684","lon":"78.96288","hops":{"incoming":[],"outgoing":[{"transport_id":null,"id":"5239","transport_name":null,"transport_description":null,"transport_unit":null,"transport_co2_eq":null,"from_stop_id":"7722","from_stop_lat":"20.593684","from_stop_lon":"78.96288","from_stop_placename":"Indie","to_stop_id":"7717","to_stop_name":"origin","to_stop_lat":"49.9204025","to_stop_lon":"14.1376219","to_stop_placename":"267 27 Korno, \u010cesk\u00e1 republika","to_stop":{"id":"7717","name":"origin","lat":"49.9204025","lon":"14.1376219","placename":"267 27 Korno, \u010cesk\u00e1 republika"},"from_stop":{"name":"origin","id":"7722","lat":"20.593684","lon":"78.96288","placename":"Indie"}}]}}},"processes":[],"eols":[]},{"oid":"88","imid":"4960","linkid":"0","weight":"0","rawemissions":"0","emissions":"0","shipping":"7057.92","processemissions":"0","endoflifeemissions":"0","disposaltype":null,"disposalenergy":null,"disposalimpact":null,"disposalemissions":null,"description":"","name":"Fender","id":"4960","stops":{"origin":{"related_to":"4960","part_or_object":"p","notes":null,"placename":"\u010c\u00ednsk\u00e1 lidov\u00e1 republika","id":7723,"name":"origin","lat":"35.86166","lon":"104.195397","hops":{"incoming":[],"outgoing":[{"transport_id":null,"id":"5240","transport_name":null,"transport_description":null,"transport_unit":null,"transport_co2_eq":null,"from_stop_id":"7723","from_stop_lat":"35.86166","from_stop_lon":"104.195397","from_stop_placename":"\u010c\u00ednsk\u00e1 lidov\u00e1 republika","to_stop_id":"7717","to_stop_name":"origin","to_stop_lat":"49.9204025","to_stop_lon":"14.1376219","to_stop_placename":"267 27 Korno, \u010cesk\u00e1 republika","to_stop":{"id":"7717","name":"origin","lat":"49.9204025","lon":"14.1376219","placename":"267 27 Korno, \u010cesk\u00e1 republika"},"from_stop":{"name":"origin","id":"7723","lat":"35.86166","lon":"104.195397","placename":"\u010c\u00ednsk\u00e1 lidov\u00e1 republika"}}]}}},"processes":[],"eols":[]},{"oid":"88","imid":"4961","linkid":"0","weight":"0","rawemissions":"0","emissions":"0","shipping":"8126.36","processemissions":"0","endoflifeemissions":"0","disposaltype":null,"disposalenergy":null,"disposalimpact":null,"disposalemissions":null,"description":"","name":"Spectraflex","id":"4961","stops":{"origin":{"related_to":"4961","part_or_object":"p","notes":null,"placename":"DeFuniak Springs, Florida, Spojen\u00e9 st\u00e1ty americk\u00e9","id":7724,"name":"origin","lat":"30.7210227","lon":"-86.1152184","hops":{"incoming":[],"outgoing":[{"transport_id":null,"id":"5241","transport_name":null,"transport_description":null,"transport_unit":null,"transport_co2_eq":null,"from_stop_id":"7724","from_stop_lat":"30.7210227","from_stop_lon":"-86.1152184","from_stop_placename":"DeFuniak Springs, Florida, Spojen\u00e9 st\u00e1ty americk\u00e9","to_stop_id":"7717","to_stop_name":"origin","to_stop_lat":"49.9204025","to_stop_lon":"14.1376219","to_stop_placename":"267 27 Korno, \u010cesk\u00e1 republika","to_stop":{"id":"7717","name":"origin","lat":"49.9204025","lon":"14.1376219","placename":"267 27 Korno, \u010cesk\u00e1 republika"},"from_stop":{"name":"origin","id":"7724","lat":"30.7210227","lon":"-86.1152184","placename":"DeFuniak Springs, Florida, Spojen\u00e9 st\u00e1ty americk\u00e9"}}]}}},"processes":[],"eols":[]},{"oid":"88","imid":"4962","linkid":"0","weight":"0","rawemissions":"0","emissions":"0","shipping":"6531.92","processemissions":"0","endoflifeemissions":"0","disposaltype":null,"disposalenergy":null,"disposalimpact":null,"disposalemissions":null,"description":"","name":"D`Addario","id":"4962","stops":{"origin":{"related_to":"4962","part_or_object":"p","notes":null,"placename":"Farmingdale, New York 11735, Spojen\u00e9 st\u00e1ty americk\u00e9","id":7725,"name":"origin","lat":"40.7325997","lon":"-73.4454009","hops":{"incoming":[],"outgoing":[{"transport_id":null,"id":"5242","transport_name":null,"transport_description":null,"transport_unit":null,"transport_co2_eq":null,"from_stop_id":"7725","from_stop_lat":"40.7325997","from_stop_lon":"-73.4454009","from_stop_placename":"Farmingdale, New York 11735, Spojen\u00e9 st\u00e1ty americk\u00e9","to_stop_id":"7717","to_stop_name":"origin","to_stop_lat":"49.9204025","to_stop_lon":"14.1376219","to_stop_placename":"267 27 Korno, \u010cesk\u00e1 republika","to_stop":{"id":"7717","name":"origin","lat":"49.9204025","lon":"14.1376219","placename":"267 27 Korno, \u010cesk\u00e1 republika"},"from_stop":{"name":"origin","id":"7725","lat":"40.7325997","lon":"-73.4454009","placename":"Farmingdale, New York 11735, Spojen\u00e9 st\u00e1ty americk\u00e9"}}]}}},"processes":[],"eols":[]},{"oid":"88","imid":"4963","linkid":"0","weight":"0","rawemissions":"0","emissions":"0","shipping":"7057.92","processemissions":"0","endoflifeemissions":"0","disposaltype":null,"disposalenergy":null,"disposalimpact":null,"disposalemissions":null,"description":"","name":"Ritter","id":"4963","stops":{"origin":{"related_to":"4963","part_or_object":"p","notes":null,"placename":"\u010c\u00ednsk\u00e1 lidov\u00e1 republika","id":7726,"name":"origin","lat":"35.86166","lon":"104.195397","hops":{"incoming":[],"outgoing":[{"transport_id":null,"id":"5243","transport_name":null,"transport_description":null,"transport_unit":null,"transport_co2_eq":null,"from_stop_id":"7726","from_stop_lat":"35.86166","from_stop_lon":"104.195397","from_stop_placename":"\u010c\u00ednsk\u00e1 lidov\u00e1 republika","to_stop_id":"7717","to_stop_name":"origin","to_stop_lat":"49.9204025","to_stop_lon":"14.1376219","to_stop_placename":"267 27 Korno, \u010cesk\u00e1 republika","to_stop":{"id":"7717","name":"origin","lat":"49.9204025","lon":"14.1376219","placename":"267 27 Korno, \u010cesk\u00e1 republika"},"from_stop":{"name":"origin","id":"7726","lat":"35.86166","lon":"104.195397","placename":"\u010c\u00ednsk\u00e1 lidov\u00e1 republika"}}]}}},"processes":[],"eols":[]},{"oid":"88","imid":"4964","linkid":"0","weight":"0","rawemissions":"0","emissions":"0","shipping":"7057.92","processemissions":"0","endoflifeemissions":"0","disposaltype":null,"disposalenergy":null,"disposalimpact":null,"disposalemissions":null,"description":"","name":"Planet Waves","id":"4964","stops":{"origin":{"related_to":"4964","part_or_object":"p","notes":null,"placename":"\u010c\u00ednsk\u00e1 lidov\u00e1 republika","id":7727,"name":"origin","lat":"35.86166","lon":"104.195397","hops":{"incoming":[],"outgoing":[{"transport_id":null,"id":"5244","transport_name":null,"transport_description":null,"transport_unit":null,"transport_co2_eq":null,"from_stop_id":"7727","from_stop_lat":"35.86166","from_stop_lon":"104.195397","from_stop_placename":"\u010c\u00ednsk\u00e1 lidov\u00e1 republika","to_stop_id":"7717","to_stop_name":"origin","to_stop_lat":"49.9204025","to_stop_lon":"14.1376219","to_stop_placename":"267 27 Korno, \u010cesk\u00e1 republika","to_stop":{"id":"7717","name":"origin","lat":"49.9204025","lon":"14.1376219","placename":"267 27 Korno, \u010cesk\u00e1 republika"},"from_stop":{"name":"origin","id":"7727","lat":"35.86166","lon":"104.195397","placename":"\u010c\u00ednsk\u00e1 lidov\u00e1 republika"}}]}}},"processes":[],"eols":[]},{"oid":"88","imid":"4965","linkid":"0","weight":"0","rawemissions":"0","emissions":"0","shipping":"8809.57","processemissions":"0","endoflifeemissions":"0","disposaltype":null,"disposalenergy":null,"disposalimpact":null,"disposalemissions":null,"description":"","name":"Intelli","id":"4965","stops":{"origin":{"related_to":"4965","part_or_object":"p","notes":null,"placename":"Hongkong","id":7728,"name":"origin","lat":"22.396428","lon":"114.109497","hops":{"incoming":[],"outgoing":[{"transport_id":null,"id":"5245","transport_name":null,"transport_description":null,"transport_unit":null,"transport_co2_eq":null,"from_stop_id":"7728","from_stop_lat":"22.396428","from_stop_lon":"114.109497","from_stop_placename":"Hongkong","to_stop_id":"7717","to_stop_name":"origin","to_stop_lat":"49.9204025","to_stop_lon":"14.1376219","to_stop_placename":"267 27 Korno, \u010cesk\u00e1 republika","to_stop":{"id":"7717","name":"origin","lat":"49.9204025","lon":"14.1376219","placename":"267 27 Korno, \u010cesk\u00e1 republika"},"from_stop":{"name":"origin","id":"7728","lat":"22.396428","lon":"114.109497","placename":"Hongkong"}}]}}},"processes":[],"eols":[]},{"oid":"88","imid":"4966","linkid":"0","weight":"0","rawemissions":"0","emissions":"0","shipping":"8042.73","processemissions":"0","endoflifeemissions":"0","disposaltype":null,"disposalenergy":null,"disposalimpact":null,"disposalemissions":null,"description":"","name":"Epiphone","id":"4966","stops":{"origin":{"related_to":"4966","part_or_object":"p","notes":null,"placename":"\u010cching-tao, \u0160an-tung, \u010c\u00ednsk\u00e1 lidov\u00e1 republika","id":7729,"name":"origin","lat":"36.06722","lon":"120.382504","hops":{"incoming":[],"outgoing":[{"transport_id":null,"id":"5246","transport_name":null,"transport_description":null,"transport_unit":null,"transport_co2_eq":null,"from_stop_id":"7729","from_stop_lat":"36.06722","from_stop_lon":"120.382504","from_stop_placename":"\u010cching-tao, \u0160an-tung, \u010c\u00ednsk\u00e1 lidov\u00e1 republika","to_stop_id":"7717","to_stop_name":"origin","to_stop_lat":"49.9204025","to_stop_lon":"14.1376219","to_stop_placename":"267 27 Korno, \u010cesk\u00e1 republika","to_stop":{"id":"7717","name":"origin","lat":"49.9204025","lon":"14.1376219","placename":"267 27 Korno, \u010cesk\u00e1 republika"},"from_stop":{"name":"origin","id":"7729","lat":"36.06722","lon":"120.382504","placename":"\u010cching-tao, \u0160an-tung, \u010c\u00ednsk\u00e1 lidov\u00e1 republika"}}]}}},"processes":[],"eols":[]},{"oid":"88","imid":"4967","linkid":"0","weight":"0","rawemissions":"0","emissions":"0","shipping":"1151.34","processemissions":"0","endoflifeemissions":"0","disposaltype":null,"disposalenergy":null,"disposalimpact":null,"disposalemissions":null,"description":"","name":"Laney","id":"4967","stops":{"origin":{"related_to":"4967","part_or_object":"p","notes":null,"placename":"Birmingham, West Midlands, Velk\u00e1 Brit\u00e1nie","id":7730,"name":"origin","lat":"52.4829614","lon":"-1.893592","hops":{"incoming":[],"outgoing":[{"transport_id":null,"id":"5247","transport_name":null,"transport_description":null,"transport_unit":null,"transport_co2_eq":null,"from_stop_id":"7730","from_stop_lat":"52.4829614","from_stop_lon":"-1.893592","from_stop_placename":"Birmingham, West Midlands, Velk\u00e1 Brit\u00e1nie","to_stop_id":"7717","to_stop_name":"origin","to_stop_lat":"49.9204025","to_stop_lon":"14.1376219","to_stop_placename":"267 27 Korno, \u010cesk\u00e1 republika","to_stop":{"id":"7717","name":"origin","lat":"49.9204025","lon":"14.1376219","placename":"267 27 Korno, \u010cesk\u00e1 republika"},"from_stop":{"name":"origin","id":"7730","lat":"52.4829614","lon":"-1.893592","placename":"Birmingham, West Midlands, Velk\u00e1 Brit\u00e1nie"}}]}}},"processes":[],"eols":[]}],"user":{"name":"ugina","id":"11395"}}}