{"9":{"oid":"9","type":"trace","flag":"","creator":"11251","name":"Beers of the West","upc":"","imagelink":"","description":"Three breweries located in Missoula make up some of the best beers in the West.","slug":"Beers-of-the-West-2","category":"","weight":"0","emissions":"0","embodied":"0","transport":"0","process":null,"endoflife":null,"shipping":"5854.99","lifetime":null,"usagetype":"","usageenergy":null,"usageemissions":null,"timecreated":"2010-11-14 21:55:39","timemodified":"2010-11-14 22:03:45","visibility":"public","showfootprint":"on","showembodied":"on","showtransport":"on","showprocess":"on","showendoflife":"on","showlastleg":"on","showuse":"on","showstats":"on","stops":{"origin":{"related_to":"9","part_or_object":"o","notes":null,"placename":"Missoula, Mt, USA","id":"6661","category":"1","lat":"46.872146","lon":"-113.9939982","name":"origin","hops":{"incoming":[{"transport_id":"17","id":"4383","transport_name":"None Selected","transport_description":null,"transport_unit":"kg km","transport_co2_eq":"0.000000","from_stop_id":"6662","from_stop_lat":"46.922331","from_stop_lon":"-114.072833","to_stop_id":"6661","to_stop_name":"origin","to_stop_lat":"46.872146","placename":"Big Sky Brewing Company, 5417 Trumpeter Way, Missoula, Mt 59808, USA","to_stop_lon":"-113.9939982","to_stop":{"id":"6661","name":"origin","lat":"46.872146","placename":"Missoula, Mt, USA","lon":"-113.9939982"},"from_stop":{"name":"origin","id":"6662","lat":"46.922331","lon":"-114.072833","placename":"Big Sky Brewing Company, 5417 Trumpeter Way, Missoula, Mt 59808, USA"}},{"transport_id":"17","id":"4384","transport_name":"None Selected","transport_description":null,"transport_unit":"kg km","transport_co2_eq":"0.000000","from_stop_id":"6663","from_stop_lat":"46.872146","from_stop_lon":"-113.9939982","to_stop_id":"6661","to_stop_name":"origin","to_stop_lat":"46.872146","placename":"Missoula, Mt, USA","to_stop_lon":"-113.9939982","to_stop":{"id":"6661","name":"origin","lat":"46.872146","placename":"Missoula, Mt, USA","lon":"-113.9939982"},"from_stop":{"name":"origin","id":"6663","lat":"46.872146","lon":"-113.9939982","placename":"Missoula, Mt, USA"}},{"transport_id":"17","id":"4385","transport_name":"None Selected","transport_description":null,"transport_unit":"kg km","transport_co2_eq":"0.000000","from_stop_id":"6664","from_stop_lat":"44.0682019","from_stop_lon":"-114.7420408","to_stop_id":"6661","to_stop_name":"origin","to_stop_lat":"46.872146","placename":"Idaho, USA","to_stop_lon":"-113.9939982","to_stop":{"id":"6661","name":"origin","lat":"46.872146","placename":"Missoula, Mt, USA","lon":"-113.9939982"},"from_stop":{"name":"origin","id":"6664","lat":"44.0682019","lon":"-114.7420408","placename":"Idaho, USA"}},{"transport_id":"17","id":"4386","transport_name":"None Selected","transport_description":null,"transport_unit":"kg km","transport_co2_eq":"0.000000","from_stop_id":"6665","from_stop_lat":"44.0682019","from_stop_lon":"-114.7420408","to_stop_id":"6661","to_stop_name":"origin","to_stop_lat":"46.872146","placename":"Idaho, USA","to_stop_lon":"-113.9939982","to_stop":{"id":"6661","name":"origin","lat":"46.872146","placename":"Missoula, Mt, USA","lon":"-113.9939982"},"from_stop":{"name":"origin","id":"6665","lat":"44.0682019","lon":"-114.7420408","placename":"Idaho, USA"}},{"transport_id":"17","id":"4387","transport_name":"None Selected","transport_description":null,"transport_unit":"kg km","transport_co2_eq":"0.000000","from_stop_id":"6666","from_stop_lat":"39.3209801","from_stop_lon":"-111.0937311","to_stop_id":"6661","to_stop_name":"origin","to_stop_lat":"46.872146","placename":"Utah, USA","to_stop_lon":"-113.9939982","to_stop":{"id":"6661","name":"origin","lat":"46.872146","placename":"Missoula, Mt, USA","lon":"-113.9939982"},"from_stop":{"name":"origin","id":"6666","lat":"39.3209801","lon":"-111.0937311","placename":"Utah, USA"}},{"transport_id":"17","id":"4388","transport_name":"None Selected","transport_description":null,"transport_unit":"kg km","transport_co2_eq":"0.000000","from_stop_id":"6667","from_stop_lat":"39.3209801","from_stop_lon":"-111.0937311","to_stop_id":"6661","to_stop_name":"origin","to_stop_lat":"46.872146","placename":"Utah, USA","to_stop_lon":"-113.9939982","to_stop":{"id":"6661","name":"origin","lat":"46.872146","placename":"Missoula, Mt, USA","lon":"-113.9939982"},"from_stop":{"name":"origin","id":"6667","lat":"39.3209801","lon":"-111.0937311","placename":"Utah, USA"}},{"transport_id":"17","id":"4389","transport_name":"None Selected","transport_description":null,"transport_unit":"kg km","transport_co2_eq":"0.000000","from_stop_id":"6668","from_stop_lat":"43.0759678","from_stop_lon":"-107.2902839","to_stop_id":"6661","to_stop_name":"origin","to_stop_lat":"46.872146","placename":"Wyoming, USA","to_stop_lon":"-113.9939982","to_stop":{"id":"6661","name":"origin","lat":"46.872146","placename":"Missoula, Mt, USA","lon":"-113.9939982"},"from_stop":{"name":"origin","id":"6668","lat":"43.0759678","lon":"-107.2902839","placename":"Wyoming, USA"}},{"transport_id":"17","id":"4390","transport_name":"None Selected","transport_description":null,"transport_unit":"kg km","transport_co2_eq":"0.000000","from_stop_id":"6669","from_stop_lat":"43.0759678","from_stop_lon":"-107.2902839","to_stop_id":"6661","to_stop_name":"origin","to_stop_lat":"46.872146","placename":"Wyoming, USA","to_stop_lon":"-113.9939982","to_stop":{"id":"6661","name":"origin","lat":"46.872146","placename":"Missoula, Mt, USA","lon":"-113.9939982"},"from_stop":{"name":"origin","id":"6669","lat":"43.0759678","lon":"-107.2902839","placename":"Wyoming, USA"}},{"transport_id":"17","id":"4391","transport_name":"None Selected","transport_description":null,"transport_unit":"kg km","transport_co2_eq":"0.000000","from_stop_id":"6670","from_stop_lat":"39.755543","from_stop_lon":"-105.2210997","to_stop_id":"6661","to_stop_name":"origin","to_stop_lat":"46.872146","placename":"Golden, CO, USA","to_stop_lon":"-113.9939982","to_stop":{"id":"6661","name":"origin","lat":"46.872146","placename":"Missoula, Mt, USA","lon":"-113.9939982"},"from_stop":{"name":"origin","id":"6670","lat":"39.755543","lon":"-105.2210997","placename":"Golden, CO, USA"}},{"transport_id":"17","id":"4392","transport_name":"None Selected","transport_description":null,"transport_unit":"kg km","transport_co2_eq":"0.000000","from_stop_id":"6671","from_stop_lat":"39.5500507","from_stop_lon":"-105.7820674","to_stop_id":"6661","to_stop_name":"origin","to_stop_lat":"46.872146","placename":"Colorado, USA","to_stop_lon":"-113.9939982","to_stop":{"id":"6661","name":"origin","lat":"46.872146","placename":"Missoula, Mt, USA","lon":"-113.9939982"},"from_stop":{"name":"origin","id":"6671","lat":"39.5500507","lon":"-105.7820674","placename":"Colorado, USA"}}],"outgoing":[]}}},"parts":[{"oid":"9","imid":"15","linkid":"0","weight":"0","rawemissions":"0","emissions":"0","shipping":"8.2","processemissions":"0","endoflifeemissions":"0","disposaltype":null,"disposalenergy":null,"disposalimpact":null,"disposalemissions":null,"description":"","name":"Moose Drool","id":"15","stops":{"origin":{"related_to":"15","part_or_object":"p","notes":null,"placename":"Big Sky Brewing Company, 5417 Trumpeter Way, Missoula, Mt 59808, USA","id":6662,"name":"origin","lat":"46.922331","lon":"-114.072833","hops":{"incoming":[],"outgoing":[{"transport_id":"17","id":"4383","transport_name":"None Selected","transport_description":null,"transport_unit":"kg km","transport_co2_eq":"0.000000","from_stop_id":"6662","from_stop_lat":"46.922331","from_stop_lon":"-114.072833","from_stop_placename":"Big Sky Brewing Company, 5417 Trumpeter Way, Missoula, Mt 59808, USA","to_stop_id":"6661","to_stop_name":"origin","to_stop_lat":"46.872146","to_stop_lon":"-113.9939982","to_stop_placename":"Missoula, Mt, USA","to_stop":{"id":"6661","name":"origin","lat":"46.872146","lon":"-113.9939982","placename":"Missoula, Mt, USA"},"from_stop":{"name":"origin","id":"6662","lat":"46.922331","lon":"-114.072833","placename":"Big Sky Brewing Company, 5417 Trumpeter Way, Missoula, Mt 59808, USA"}}]}}},"processes":[],"eols":[]},{"oid":"9","imid":"16","linkid":"0","weight":"0","rawemissions":"0","emissions":"0","shipping":"0","processemissions":"0","endoflifeemissions":"0","disposaltype":null,"disposalenergy":null,"disposalimpact":null,"disposalemissions":null,"description":"","name":"Olde Bongwater Porter","id":"16","stops":{"origin":{"related_to":"16","part_or_object":"p","notes":null,"placename":"Missoula, Mt, USA","id":6663,"name":"origin","lat":"46.872146","lon":"-113.9939982","hops":{"incoming":[],"outgoing":[{"transport_id":"17","id":"4384","transport_name":"None Selected","transport_description":null,"transport_unit":"kg km","transport_co2_eq":"0.000000","from_stop_id":"6663","from_stop_lat":"46.872146","from_stop_lon":"-113.9939982","from_stop_placename":"Missoula, Mt, USA","to_stop_id":"6661","to_stop_name":"origin","to_stop_lat":"46.872146","to_stop_lon":"-113.9939982","to_stop_placename":"Missoula, Mt, USA","to_stop":{"id":"6661","name":"origin","lat":"46.872146","lon":"-113.9939982","placename":"Missoula, Mt, USA"},"from_stop":{"name":"origin","id":"6663","lat":"46.872146","lon":"-113.9939982","placename":"Missoula, Mt, USA"}}]}}},"processes":[],"eols":[]},{"oid":"9","imid":"17","linkid":"0","weight":"0","rawemissions":"0","emissions":"0","shipping":"317.54","processemissions":"0","endoflifeemissions":"0","disposaltype":null,"disposalenergy":null,"disposalimpact":null,"disposalemissions":null,"description":"","name":"Laughing Dog Alpha Dog Imperial IPA","id":"17","stops":{"origin":{"related_to":"17","part_or_object":"p","notes":null,"placename":"Idaho, USA","id":6664,"name":"origin","lat":"44.0682019","lon":"-114.7420408","hops":{"incoming":[],"outgoing":[{"transport_id":"17","id":"4385","transport_name":"None Selected","transport_description":null,"transport_unit":"kg km","transport_co2_eq":"0.000000","from_stop_id":"6664","from_stop_lat":"44.0682019","from_stop_lon":"-114.7420408","from_stop_placename":"Idaho, USA","to_stop_id":"6661","to_stop_name":"origin","to_stop_lat":"46.872146","to_stop_lon":"-113.9939982","to_stop_placename":"Missoula, Mt, USA","to_stop":{"id":"6661","name":"origin","lat":"46.872146","lon":"-113.9939982","placename":"Missoula, Mt, USA"},"from_stop":{"name":"origin","id":"6664","lat":"44.0682019","lon":"-114.7420408","placename":"Idaho, USA"}}]}}},"processes":[],"eols":[]},{"oid":"9","imid":"18","linkid":"0","weight":"0","rawemissions":"0","emissions":"0","shipping":"317.54","processemissions":"0","endoflifeemissions":"0","disposaltype":null,"disposalenergy":null,"disposalimpact":null,"disposalemissions":null,"description":"","name":"Grand Teton Black Cauldron Imperial Stout  ","id":"18","stops":{"origin":{"related_to":"18","part_or_object":"p","notes":null,"placename":"Idaho, USA","id":6665,"name":"origin","lat":"44.0682019","lon":"-114.7420408","hops":{"incoming":[],"outgoing":[{"transport_id":"17","id":"4386","transport_name":"None Selected","transport_description":null,"transport_unit":"kg km","transport_co2_eq":"0.000000","from_stop_id":"6665","from_stop_lat":"44.0682019","from_stop_lon":"-114.7420408","from_stop_placename":"Idaho, USA","to_stop_id":"6661","to_stop_name":"origin","to_stop_lat":"46.872146","to_stop_lon":"-113.9939982","to_stop_placename":"Missoula, Mt, USA","to_stop":{"id":"6661","name":"origin","lat":"46.872146","lon":"-113.9939982","placename":"Missoula, Mt, USA"},"from_stop":{"name":"origin","id":"6665","lat":"44.0682019","lon":"-114.7420408","placename":"Idaho, USA"}}]}}},"processes":[],"eols":[]},{"oid":"9","imid":"19","linkid":"0","weight":"0","rawemissions":"0","emissions":"0","shipping":"872.85","processemissions":"0","endoflifeemissions":"0","disposaltype":null,"disposalenergy":null,"disposalimpact":null,"disposalemissions":null,"description":"","name":"1st Amendment Lager","id":"19","stops":{"origin":{"related_to":"19","part_or_object":"p","notes":null,"placename":"Utah, USA","id":6666,"name":"origin","lat":"39.3209801","lon":"-111.0937311","hops":{"incoming":[],"outgoing":[{"transport_id":"17","id":"4387","transport_name":"None Selected","transport_description":null,"transport_unit":"kg km","transport_co2_eq":"0.000000","from_stop_id":"6666","from_stop_lat":"39.3209801","from_stop_lon":"-111.0937311","from_stop_placename":"Utah, USA","to_stop_id":"6661","to_stop_name":"origin","to_stop_lat":"46.872146","to_stop_lon":"-113.9939982","to_stop_placename":"Missoula, Mt, USA","to_stop":{"id":"6661","name":"origin","lat":"46.872146","lon":"-113.9939982","placename":"Missoula, Mt, USA"},"from_stop":{"name":"origin","id":"6666","lat":"39.3209801","lon":"-111.0937311","placename":"Utah, USA"}}]}}},"processes":[],"eols":[]},{"oid":"9","imid":"20","linkid":"0","weight":"0","rawemissions":"0","emissions":"0","shipping":"872.85","processemissions":"0","endoflifeemissions":"0","disposaltype":null,"disposalenergy":null,"disposalimpact":null,"disposalemissions":null,"description":"","name":"King's Peak Porter","id":"20","stops":{"origin":{"related_to":"20","part_or_object":"p","notes":null,"placename":"Utah, USA","id":6667,"name":"origin","lat":"39.3209801","lon":"-111.0937311","hops":{"incoming":[],"outgoing":[{"transport_id":"17","id":"4388","transport_name":"None Selected","transport_description":null,"transport_unit":"kg km","transport_co2_eq":"0.000000","from_stop_id":"6667","from_stop_lat":"39.3209801","from_stop_lon":"-111.0937311","from_stop_placename":"Utah, USA","to_stop_id":"6661","to_stop_name":"origin","to_stop_lat":"46.872146","to_stop_lon":"-113.9939982","to_stop_placename":"Missoula, Mt, USA","to_stop":{"id":"6661","name":"origin","lat":"46.872146","lon":"-113.9939982","placename":"Missoula, Mt, USA"},"from_stop":{"name":"origin","id":"6667","lat":"39.3209801","lon":"-111.0937311","placename":"Utah, USA"}}]}}},"processes":[],"eols":[]},{"oid":"9","imid":"21","linkid":"0","weight":"0","rawemissions":"0","emissions":"0","shipping":"675.81","processemissions":"0","endoflifeemissions":"0","disposaltype":null,"disposalenergy":null,"disposalimpact":null,"disposalemissions":null,"description":"","name":"Tumblewheat","id":"21","stops":{"origin":{"related_to":"21","part_or_object":"p","notes":null,"placename":"Wyoming, USA","id":6668,"name":"origin","lat":"43.0759678","lon":"-107.2902839","hops":{"incoming":[],"outgoing":[{"transport_id":"17","id":"4389","transport_name":"None Selected","transport_description":null,"transport_unit":"kg km","transport_co2_eq":"0.000000","from_stop_id":"6668","from_stop_lat":"43.0759678","from_stop_lon":"-107.2902839","from_stop_placename":"Wyoming, USA","to_stop_id":"6661","to_stop_name":"origin","to_stop_lat":"46.872146","to_stop_lon":"-113.9939982","to_stop_placename":"Missoula, Mt, USA","to_stop":{"id":"6661","name":"origin","lat":"46.872146","lon":"-113.9939982","placename":"Missoula, Mt, USA"},"from_stop":{"name":"origin","id":"6668","lat":"43.0759678","lon":"-107.2902839","placename":"Wyoming, USA"}}]}}},"processes":[],"eols":[]},{"oid":"9","imid":"22","linkid":"0","weight":"0","rawemissions":"0","emissions":"0","shipping":"675.81","processemissions":"0","endoflifeemissions":"0","disposaltype":null,"disposalenergy":null,"disposalimpact":null,"disposalemissions":null,"description":"","name":"Boars Tusk","id":"22","stops":{"origin":{"related_to":"22","part_or_object":"p","notes":null,"placename":"Wyoming, USA","id":6669,"name":"origin","lat":"43.0759678","lon":"-107.2902839","hops":{"incoming":[],"outgoing":[{"transport_id":"17","id":"4390","transport_name":"None Selected","transport_description":null,"transport_unit":"kg km","transport_co2_eq":"0.000000","from_stop_id":"6669","from_stop_lat":"43.0759678","from_stop_lon":"-107.2902839","from_stop_placename":"Wyoming, USA","to_stop_id":"6661","to_stop_name":"origin","to_stop_lat":"46.872146","to_stop_lon":"-113.9939982","to_stop_placename":"Missoula, Mt, USA","to_stop":{"id":"6661","name":"origin","lat":"46.872146","lon":"-113.9939982","placename":"Missoula, Mt, USA"},"from_stop":{"name":"origin","id":"6669","lat":"43.0759678","lon":"-107.2902839","placename":"Wyoming, USA"}}]}}},"processes":[],"eols":[]},{"oid":"9","imid":"23","linkid":"0","weight":"0","rawemissions":"0","emissions":"0","shipping":"1062.86","processemissions":"0","endoflifeemissions":"0","disposaltype":null,"disposalenergy":null,"disposalimpact":null,"disposalemissions":null,"description":"","name":"Coors","id":"23","stops":{"origin":{"related_to":"23","part_or_object":"p","notes":null,"placename":"Golden, CO, USA","id":6670,"name":"origin","lat":"39.755543","lon":"-105.2210997","hops":{"incoming":[],"outgoing":[{"transport_id":"17","id":"4391","transport_name":"None Selected","transport_description":null,"transport_unit":"kg km","transport_co2_eq":"0.000000","from_stop_id":"6670","from_stop_lat":"39.755543","from_stop_lon":"-105.2210997","from_stop_placename":"Golden, CO, USA","to_stop_id":"6661","to_stop_name":"origin","to_stop_lat":"46.872146","to_stop_lon":"-113.9939982","to_stop_placename":"Missoula, Mt, USA","to_stop":{"id":"6661","name":"origin","lat":"46.872146","lon":"-113.9939982","placename":"Missoula, Mt, USA"},"from_stop":{"name":"origin","id":"6670","lat":"39.755543","lon":"-105.2210997","placename":"Golden, CO, USA"}}]}}},"processes":[],"eols":[]},{"oid":"9","imid":"24","linkid":"0","weight":"0","rawemissions":"0","emissions":"0","shipping":"1051.53","processemissions":"0","endoflifeemissions":"0","disposaltype":null,"disposalenergy":null,"disposalimpact":null,"disposalemissions":null,"description":"","name":" Great Divide Oak AgedYeti Imperial Stout","id":"24","stops":{"origin":{"related_to":"24","part_or_object":"p","notes":null,"placename":"Colorado, USA","id":6671,"name":"origin","lat":"39.5500507","lon":"-105.7820674","hops":{"incoming":[],"outgoing":[{"transport_id":"17","id":"4392","transport_name":"None Selected","transport_description":null,"transport_unit":"kg km","transport_co2_eq":"0.000000","from_stop_id":"6671","from_stop_lat":"39.5500507","from_stop_lon":"-105.7820674","from_stop_placename":"Colorado, USA","to_stop_id":"6661","to_stop_name":"origin","to_stop_lat":"46.872146","to_stop_lon":"-113.9939982","to_stop_placename":"Missoula, Mt, USA","to_stop":{"id":"6661","name":"origin","lat":"46.872146","lon":"-113.9939982","placename":"Missoula, Mt, USA"},"from_stop":{"name":"origin","id":"6671","lat":"39.5500507","lon":"-105.7820674","placename":"Colorado, USA"}}]}}},"processes":[],"eols":[]}],"user":{"name":"KellyB","id":"11251"}}}