{"922":{"oid":"922","type":"object","flag":"","creator":"6492","name":"Secure Detonator","upc":"","imagelink":"","description":"Oilfield well perforating detonator","slug":"secure-detonator","category":"","weight":"117","emissions":"45644.2307686","embodied":"45642","transport":"2.230768556","process":"0","endoflife":"0","shipping":"2138.58","lifetime":"0","usagetype":"","usageenergy":"0","usageemissions":"0","timecreated":"2010-02-24 22:03:35.625405","timemodified":"2010-06-14 05:39:37","visibility":"public","showfootprint":"on","showembodied":"on","showtransport":"on","showprocess":"on","showendoflife":"on","showlastleg":"on","showuse":"on","showstats":"on","stops":{"origin":{"related_to":"922","part_or_object":"o","notes":"","placename":"Texas, USA","id":"1576","category":"1","lat":"31.9685988","lon":"-99.9018131","name":"origin","hops":{"incoming":[{"transport_id":"3","id":"943","transport_name":"truck, 40 tons","transport_description":"truck, half full","transport_unit":"kg km","transport_co2_eq":"0.030900","from_stop_id":"3195","from_stop_lat":"33.0198431","from_stop_lon":"-96.6988856","to_stop_id":"1576","to_stop_name":"origin","to_stop_lat":"31.9685988","placename":"Plano, TX, USA","to_stop_lon":"-99.9018131","to_stop":{"id":"1576","name":"origin","lat":"31.9685988","placename":"Texas, USA","lon":"-99.9018131"},"from_stop":{"name":"origin","id":"3195","lat":"33.0198431","lon":"-96.6988856","placename":"Plano, TX, USA"}},{"transport_id":"2","id":"945","transport_name":"truck, 16 tons","transport_description":"truck, half full","transport_unit":"kg km","transport_co2_eq":"0.020300","from_stop_id":"3197","from_stop_lat":"29.7632836","from_stop_lon":"-95.3632715","to_stop_id":"1576","to_stop_name":"origin","to_stop_lat":"31.9685988","placename":"Houston, TX, USA","to_stop_lon":"-99.9018131","to_stop":{"id":"1576","name":"origin","lat":"31.9685988","placename":"Texas, USA","lon":"-99.9018131"},"from_stop":{"name":"origin","id":"3197","lat":"29.7632836","lon":"-95.3632715","placename":"Houston, TX, USA"}},{"transport_id":"3","id":"946","transport_name":"truck, 40 tons","transport_description":"truck, half full","transport_unit":"kg km","transport_co2_eq":"0.030900","from_stop_id":"3198","from_stop_lat":"27.8005828","from_stop_lon":"-97.396381","to_stop_id":"1576","to_stop_name":"origin","to_stop_lat":"31.9685988","placename":"Corpus Christi, TX, USA","to_stop_lon":"-99.9018131","to_stop":{"id":"1576","name":"origin","lat":"31.9685988","placename":"Texas, USA","lon":"-99.9018131"},"from_stop":{"name":"origin","id":"3198","lat":"27.8005828","lon":"-97.396381","placename":"Corpus Christi, TX, USA"}},{"transport_id":"3","id":"947","transport_name":"truck, 40 tons","transport_description":"truck, half full","transport_unit":"kg km","transport_co2_eq":"0.030900","from_stop_id":"3199","from_stop_lat":"39.011902","from_stop_lon":"-98.4842465","to_stop_id":"1576","to_stop_name":"origin","to_stop_lat":"31.9685988","placename":"Kansas, USA","to_stop_lon":"-99.9018131","to_stop":{"id":"1576","name":"origin","lat":"31.9685988","placename":"Texas, USA","lon":"-99.9018131"},"from_stop":{"name":"origin","id":"3199","lat":"39.011902","lon":"-98.4842465","placename":"Kansas, USA"}}],"outgoing":[]}}},"parts":[{"oid":"922","imid":"1133","linkid":"","weight":"15","rawemissions":"22","emissions":"330","shipping":"322.68","processemissions":null,"endoflifeemissions":null,"disposaltype":null,"disposalenergy":null,"disposalimpact":null,"disposalemissions":null,"description":"Flexboard from Flextronics to SRC","name":"Stuffed PCB","id":"1133","stops":{"origin":{"related_to":"1133","part_or_object":"p","notes":"","placename":"Plano, TX, USA","id":3195,"name":"origin","lat":"33.0198431","lon":"-96.6988856","hops":{"incoming":[],"outgoing":[{"transport_id":"3","id":"943","transport_name":"truck, 40 tons","transport_description":"truck, half full","transport_unit":"kg km","transport_co2_eq":"0.030900","from_stop_id":"3195","from_stop_lat":"33.0198431","from_stop_lon":"-96.6988856","from_stop_placename":"Plano, TX, USA","to_stop_id":"1576","to_stop_name":"origin","to_stop_lat":"31.9685988","to_stop_lon":"-99.9018131","to_stop_placename":"Texas, USA","to_stop":{"id":"1576","name":"origin","lat":"31.9685988","lon":"-99.9018131","placename":"Texas, USA"},"from_stop":{"name":"origin","id":"3195","lat":"33.0198431","lon":"-96.6988856","placename":"Plano, TX, USA"}}]}}},"processes":[],"eols":[]},{"oid":"922","imid":"1135","linkid":"","weight":"20","rawemissions":"22","emissions":"440","shipping":"498.26","processemissions":null,"endoflifeemissions":null,"disposaltype":null,"disposalenergy":null,"disposalimpact":null,"disposalemissions":null,"description":"","name":"Plastic housing","id":"1135","stops":{"origin":{"related_to":"1135","part_or_object":"p","notes":"","placename":"Houston, TX, USA","id":3197,"name":"origin","lat":"29.7632836","lon":"-95.3632715","hops":{"incoming":[],"outgoing":[{"transport_id":"2","id":"945","transport_name":"truck, 16 tons","transport_description":"truck, half full","transport_unit":"kg km","transport_co2_eq":"0.020300","from_stop_id":"3197","from_stop_lat":"29.7632836","from_stop_lon":"-95.3632715","from_stop_placename":"Houston, TX, USA","to_stop_id":"1576","to_stop_name":"origin","to_stop_lat":"31.9685988","to_stop_lon":"-99.9018131","to_stop_placename":"Texas, USA","to_stop":{"id":"1576","name":"origin","lat":"31.9685988","lon":"-99.9018131","placename":"Texas, USA"},"from_stop":{"name":"origin","id":"3197","lat":"29.7632836","lon":"-95.3632715","placename":"Houston, TX, USA"}}]}}},"processes":[],"eols":[]},{"oid":"922","imid":"1136","linkid":"","weight":"16","rawemissions":"16","emissions":"256","shipping":"523.16","processemissions":null,"endoflifeemissions":null,"disposaltype":null,"disposalenergy":null,"disposalimpact":null,"disposalemissions":null,"description":"","name":"EFI","id":"1136","stops":{"origin":{"related_to":"1136","part_or_object":"p","notes":"","placename":"Corpus Christi, TX, USA","id":3198,"name":"origin","lat":"27.8005828","lon":"-97.396381","hops":{"incoming":[],"outgoing":[{"transport_id":"3","id":"946","transport_name":"truck, 40 tons","transport_description":"truck, half full","transport_unit":"kg km","transport_co2_eq":"0.030900","from_stop_id":"3198","from_stop_lat":"27.8005828","from_stop_lon":"-97.396381","from_stop_placename":"Corpus Christi, TX, USA","to_stop_id":"1576","to_stop_name":"origin","to_stop_lat":"31.9685988","to_stop_lon":"-99.9018131","to_stop_placename":"Texas, USA","to_stop":{"id":"1576","name":"origin","lat":"31.9685988","lon":"-99.9018131","placename":"Texas, USA"},"from_stop":{"name":"origin","id":"3198","lat":"27.8005828","lon":"-97.396381","placename":"Corpus Christi, TX, USA"}}]}}},"processes":[],"eols":[]},{"oid":"922","imid":"1137","linkid":"","weight":"66","rawemissions":"676","emissions":"44616","shipping":"794.48","processemissions":null,"endoflifeemissions":null,"disposaltype":null,"disposalenergy":null,"disposalimpact":null,"disposalemissions":null,"description":"","name":"NONA","id":"1137","stops":{"origin":{"related_to":"1137","part_or_object":"p","notes":"","placename":"Kansas, USA","id":3199,"name":"origin","lat":"39.011902","lon":"-98.4842465","hops":{"incoming":[],"outgoing":[{"transport_id":"3","id":"947","transport_name":"truck, 40 tons","transport_description":"truck, half full","transport_unit":"kg km","transport_co2_eq":"0.030900","from_stop_id":"3199","from_stop_lat":"39.011902","from_stop_lon":"-98.4842465","from_stop_placename":"Kansas, USA","to_stop_id":"1576","to_stop_name":"origin","to_stop_lat":"31.9685988","to_stop_lon":"-99.9018131","to_stop_placename":"Texas, USA","to_stop":{"id":"1576","name":"origin","lat":"31.9685988","lon":"-99.9018131","placename":"Texas, USA"},"from_stop":{"name":"origin","id":"3199","lat":"39.011902","lon":"-98.4842465","placename":"Kansas, USA"}}]}}},"processes":[],"eols":[]}],"user":{"name":"mooney5","id":"6492"}}}