{"929":{"oid":"929","type":"travel","flag":"","creator":"4","name":"Center for Future Civic Media Research","upc":"","imagelink":"","description":"<a href='http:\/\/civic.mit.edu'><img src='http:\/\/cms.mit.edu\/images\/logos\/c4-logo.png'\/><\/a>","slug":"center-for-future-civic-media-research","category":"","weight":"2716","emissions":"17452.7","embodied":"0","transport":"17452.7","process":"0","endoflife":"0","shipping":"79327.7","lifetime":"0","usagetype":"","usageenergy":"0","usageemissions":"0","timecreated":"2010-02-24 22:03:35.626952","timemodified":"2009-12-01 23:02:36","visibility":"public","showfootprint":"on","showembodied":"on","showtransport":"on","showprocess":"on","showendoflife":"on","showlastleg":"on","showuse":"on","showstats":"on","stops":{"origin":{"related_to":"929","part_or_object":"o","notes":"","placename":"Cambridge, MA","id":"136","category":"1","lat":"42.3750969","lon":"-71.1056079","name":"origin","hops":{"incoming":[{"transport_id":"13","id":"907","transport_name":"air, passenger, regional","transport_description":"within one continent, kg km from person-km","transport_unit":"kg km","transport_co2_eq":"2.262000","from_stop_id":"3159","from_stop_lat":"37.27528","from_stop_lon":"-107.8800667","to_stop_id":"136","to_stop_name":"origin","to_stop_lat":"42.3750969","placename":"Durango, CO, USA","to_stop_lon":"-71.1056079","to_stop":{"id":"136","name":"origin","lat":"42.3750969","placename":"Cambridge, MA","lon":"-71.1056079"},"from_stop":{"name":"origin","id":"3159","lat":"37.27528","lon":"-107.8800667","placename":"Durango, CO, USA"}},{"transport_id":"13","id":"908","transport_name":"air, passenger, regional","transport_description":"within one continent, kg km from person-km","transport_unit":"kg km","transport_co2_eq":"2.262000","from_stop_id":"3160","from_stop_lat":"31.7311292","from_stop_lon":"-106.4625624","to_stop_id":"136","to_stop_name":"origin","to_stop_lat":"42.3750969","placename":"Ciudad Ju?rez, Ch, Mexico","to_stop_lon":"-71.1056079","to_stop":{"id":"136","name":"origin","lat":"42.3750969","placename":"Cambridge, MA","lon":"-71.1056079"},"from_stop":{"name":"origin","id":"3160","lat":"31.7311292","lon":"-106.4625624","placename":"Ciudad Ju?rez, Ch, Mexico"}},{"transport_id":"14","id":"909","transport_name":"air, passenger, intercontinental","transport_description":"intercontinental, kg km from person-km","transport_unit":"kg km","transport_co2_eq":"1.189000","from_stop_id":"3161","from_stop_lat":"-9.189967","from_stop_lon":"-75.015152","to_stop_id":"136","to_stop_name":"origin","to_stop_lat":"42.3750969","placename":"Peru","to_stop_lon":"-71.1056079","to_stop":{"id":"136","name":"origin","lat":"42.3750969","placename":"Cambridge, MA","lon":"-71.1056079"},"from_stop":{"name":"origin","id":"3161","lat":"-9.189967","lon":"-75.015152","placename":"Peru"}},{"transport_id":"14","id":"910","transport_name":"air, passenger, intercontinental","transport_description":"intercontinental, kg km from person-km","transport_unit":"kg km","transport_co2_eq":"1.189000","from_stop_id":"3162","from_stop_lat":"57.4766949","from_stop_lon":"-4.2314535","to_stop_id":"136","to_stop_name":"origin","to_stop_lat":"42.3750969","placename":"Inverness, Highland, UK","to_stop_lon":"-71.1056079","to_stop":{"id":"136","name":"origin","lat":"42.3750969","placename":"Cambridge, MA","lon":"-71.1056079"},"from_stop":{"name":"origin","id":"3162","lat":"57.4766949","lon":"-4.2314535","placename":"Inverness, Highland, UK"}},{"transport_id":"14","id":"911","transport_name":"air, passenger, intercontinental","transport_description":"intercontinental, kg km from person-km","transport_unit":"kg km","transport_co2_eq":"1.189000","from_stop_id":"3163","from_stop_lat":"31.952162","from_stop_lon":"35.233154","to_stop_id":"136","to_stop_name":"origin","to_stop_lat":"42.3750969","placename":"West Bank","to_stop_lon":"-71.1056079","to_stop":{"id":"136","name":"origin","lat":"42.3750969","placename":"Cambridge, MA","lon":"-71.1056079"},"from_stop":{"name":"origin","id":"3163","lat":"31.952162","lon":"35.233154","placename":"West Bank"}},{"transport_id":"13","id":"912","transport_name":"air, passenger, regional","transport_description":"within one continent, kg km from person-km","transport_unit":"kg km","transport_co2_eq":"2.262000","from_stop_id":"3164","from_stop_lat":"34.0522342","from_stop_lon":"-118.2436849","to_stop_id":"136","to_stop_name":"origin","to_stop_lat":"42.3750969","placename":"Los Angeles, CA, USA","to_stop_lon":"-71.1056079","to_stop":{"id":"136","name":"origin","lat":"42.3750969","placename":"Cambridge, MA","lon":"-71.1056079"},"from_stop":{"name":"origin","id":"3164","lat":"34.0522342","lon":"-118.2436849","placename":"Los Angeles, CA, USA"}},{"transport_id":"13","id":"913","transport_name":"air, passenger, regional","transport_description":"within one continent, kg km from person-km","transport_unit":"kg km","transport_co2_eq":"2.262000","from_stop_id":"3165","from_stop_lat":"34.0522342","from_stop_lon":"-118.2436849","to_stop_id":"136","to_stop_name":"origin","to_stop_lat":"42.3750969","placename":"Los Angeles, CA, USA","to_stop_lon":"-71.1056079","to_stop":{"id":"136","name":"origin","lat":"42.3750969","placename":"Cambridge, MA","lon":"-71.1056079"},"from_stop":{"name":"origin","id":"3165","lat":"34.0522342","lon":"-118.2436849","placename":"Los Angeles, CA, USA"}},{"transport_id":"14","id":"914","transport_name":"air, passenger, intercontinental","transport_description":"intercontinental, kg km from person-km","transport_unit":"kg km","transport_co2_eq":"1.189000","from_stop_id":"3166","from_stop_lat":"21.913965","from_stop_lon":"95.956223","to_stop_id":"136","to_stop_name":"origin","to_stop_lat":"42.3750969","placename":"Myanmar","to_stop_lon":"-71.1056079","to_stop":{"id":"136","name":"origin","lat":"42.3750969","placename":"Cambridge, MA","lon":"-71.1056079"},"from_stop":{"name":"origin","id":"3166","lat":"21.913965","lon":"95.956223","placename":"Myanmar"}},{"transport_id":"5","id":"915","transport_name":"automobile, 50 mpg","transport_description":"high efficiency automobile","transport_unit":"kg km","transport_co2_eq":"0.026400","from_stop_id":"3167","from_stop_lat":"42.2917623","from_stop_lon":"-71.4258945","to_stop_id":"136","to_stop_name":"origin","to_stop_lat":"42.3750969","placename":"Framingham, MA, USA","to_stop_lon":"-71.1056079","to_stop":{"id":"136","name":"origin","lat":"42.3750969","placename":"Cambridge, MA","lon":"-71.1056079"},"from_stop":{"name":"origin","id":"3167","lat":"42.2917623","lon":"-71.4258945","placename":"Framingham, MA, USA"}},{"transport_id":"5","id":"916","transport_name":"automobile, 50 mpg","transport_description":"high efficiency automobile","transport_unit":"kg km","transport_co2_eq":"0.026400","from_stop_id":"3168","from_stop_lat":"42.3584308","from_stop_lon":"-71.0597732","to_stop_id":"136","to_stop_name":"origin","to_stop_lat":"42.3750969","placename":"Boston, MA, USA","to_stop_lon":"-71.1056079","to_stop":{"id":"136","name":"origin","lat":"42.3750969","placename":"Cambridge, MA","lon":"-71.1056079"},"from_stop":{"name":"origin","id":"3168","lat":"42.3584308","lon":"-71.0597732","placename":"Boston, MA, USA"}},{"transport_id":"5","id":"917","transport_name":"automobile, 50 mpg","transport_description":"high efficiency automobile","transport_unit":"kg km","transport_co2_eq":"0.026400","from_stop_id":"3169","from_stop_lat":"42.3584308","from_stop_lon":"-71.0597732","to_stop_id":"136","to_stop_name":"origin","to_stop_lat":"42.3750969","placename":"Boston, MA, USA","to_stop_lon":"-71.1056079","to_stop":{"id":"136","name":"origin","lat":"42.3750969","placename":"Cambridge, MA","lon":"-71.1056079"},"from_stop":{"name":"origin","id":"3169","lat":"42.3584308","lon":"-71.0597732","placename":"Boston, MA, USA"}},{"transport_id":"14","id":"918","transport_name":"air, passenger, intercontinental","transport_description":"intercontinental, kg km from person-km","transport_unit":"kg km","transport_co2_eq":"1.189000","from_stop_id":"3170","from_stop_lat":"20.593684","from_stop_lon":"78.96288","to_stop_id":"136","to_stop_name":"origin","to_stop_lat":"42.3750969","placename":"India","to_stop_lon":"-71.1056079","to_stop":{"id":"136","name":"origin","lat":"42.3750969","placename":"Cambridge, MA","lon":"-71.1056079"},"from_stop":{"name":"origin","id":"3170","lat":"20.593684","lon":"78.96288","placename":"India"}},{"transport_id":"13","id":"919","transport_name":"air, passenger, regional","transport_description":"within one continent, kg km from person-km","transport_unit":"kg km","transport_co2_eq":"2.262000","from_stop_id":"3171","from_stop_lat":"42.331427","from_stop_lon":"-83.0457538","to_stop_id":"136","to_stop_name":"origin","to_stop_lat":"42.3750969","placename":"Detroit, MI, USA","to_stop_lon":"-71.1056079","to_stop":{"id":"136","name":"origin","lat":"42.3750969","placename":"Cambridge, MA","lon":"-71.1056079"},"from_stop":{"name":"origin","id":"3171","lat":"42.331427","lon":"-83.0457538","placename":"Detroit, MI, USA"}},{"transport_id":"13","id":"920","transport_name":"air, passenger, regional","transport_description":"within one continent, kg km from person-km","transport_unit":"kg km","transport_co2_eq":"2.262000","from_stop_id":"3172","from_stop_lat":"38.6272733","from_stop_lon":"-90.1978889","to_stop_id":"136","to_stop_name":"origin","to_stop_lat":"42.3750969","placename":"Saint Louis, MO, USA","to_stop_lon":"-71.1056079","to_stop":{"id":"136","name":"origin","lat":"42.3750969","placename":"Cambridge, MA","lon":"-71.1056079"},"from_stop":{"name":"origin","id":"3172","lat":"38.6272733","lon":"-90.1978889","placename":"Saint Louis, MO, USA"}},{"transport_id":"13","id":"921","transport_name":"air, passenger, regional","transport_description":"within one continent, kg km from person-km","transport_unit":"kg km","transport_co2_eq":"2.262000","from_stop_id":"3173","from_stop_lat":"39.952335","from_stop_lon":"-75.163789","to_stop_id":"136","to_stop_name":"origin","to_stop_lat":"42.3750969","placename":"Philadelphia, PA, USA","to_stop_lon":"-71.1056079","to_stop":{"id":"136","name":"origin","lat":"42.3750969","placename":"Cambridge, MA","lon":"-71.1056079"},"from_stop":{"name":"origin","id":"3173","lat":"39.952335","lon":"-75.163789","placename":"Philadelphia, PA, USA"}},{"transport_id":"14","id":"922","transport_name":"air, passenger, intercontinental","transport_description":"intercontinental, kg km from person-km","transport_unit":"kg km","transport_co2_eq":"1.189000","from_stop_id":"3174","from_stop_lat":"19.4270499","from_stop_lon":"-99.1275711","to_stop_id":"136","to_stop_name":"origin","to_stop_lat":"42.3750969","placename":"Mexico City, D.f., Mexico","to_stop_lon":"-71.1056079","to_stop":{"id":"136","name":"origin","lat":"42.3750969","placename":"Cambridge, MA","lon":"-71.1056079"},"from_stop":{"name":"origin","id":"3174","lat":"19.4270499","lon":"-99.1275711","placename":"Mexico City, D.f., Mexico"}},{"transport_id":"14","id":"923","transport_name":"air, passenger, intercontinental","transport_description":"intercontinental, kg km from person-km","transport_unit":"kg km","transport_co2_eq":"1.189000","from_stop_id":"3175","from_stop_lat":"12.971606","from_stop_lon":"77.594376","to_stop_id":"136","to_stop_name":"origin","to_stop_lat":"42.3750969","placename":"Bengaluru, Karnataka, India","to_stop_lon":"-71.1056079","to_stop":{"id":"136","name":"origin","lat":"42.3750969","placename":"Cambridge, MA","lon":"-71.1056079"},"from_stop":{"name":"origin","id":"3175","lat":"12.971606","lon":"77.594376","placename":"Bengaluru, Karnataka, India"}},{"transport_id":"17","id":"955","transport_name":"None Selected","transport_description":null,"transport_unit":"kg km","transport_co2_eq":"0.000000","from_stop_id":"3207","from_stop_lat":"0","from_stop_lon":"0","to_stop_id":"136","to_stop_name":"origin","to_stop_lat":"42.3750969","placename":"Location","to_stop_lon":"-71.1056079","to_stop":{"id":"136","name":"origin","lat":"42.3750969","placename":"Cambridge, MA","lon":"-71.1056079"},"from_stop":{"name":"origin","id":"3207","lat":"0","lon":"0","placename":"Location"}}],"outgoing":[]}}},"parts":[{"oid":"929","imid":"1095","linkid":"","weight":"3","rawemissions":"0","emissions":"0","shipping":"3169.38","processemissions":null,"endoflifeemissions":null,"disposaltype":null,"disposalenergy":null,"disposalimpact":null,"disposalemissions":null,"description":"","name":"ExtrACT","id":"1095","stops":{"origin":{"related_to":"1095","part_or_object":"p","notes":"","placename":"Durango, CO, USA","id":3159,"name":"origin","lat":"37.27528","lon":"-107.8800667","hops":{"incoming":[],"outgoing":[{"transport_id":"13","id":"907","transport_name":"air, passenger, regional","transport_description":"within one continent, kg km from person-km","transport_unit":"kg km","transport_co2_eq":"2.262000","from_stop_id":"3159","from_stop_lat":"37.27528","from_stop_lon":"-107.8800667","from_stop_placename":"Durango, CO, USA","to_stop_id":"136","to_stop_name":"origin","to_stop_lat":"42.3750969","to_stop_lon":"-71.1056079","to_stop_placename":"Cambridge, MA","to_stop":{"id":"136","name":"origin","lat":"42.3750969","lon":"-71.1056079","placename":"Cambridge, MA"},"from_stop":{"name":"origin","id":"3159","lat":"37.27528","lon":"-107.8800667","placename":"Durango, CO, USA"}}]}}},"processes":[],"eols":[]},{"oid":"929","imid":"1096","linkid":"","weight":"1","rawemissions":"0","emissions":"0","shipping":"3328.32","processemissions":null,"endoflifeemissions":null,"disposaltype":null,"disposalenergy":null,"disposalimpact":null,"disposalemissions":null,"description":"","name":"Tech.Del","id":"1096","stops":{"origin":{"related_to":"1096","part_or_object":"p","notes":"","placename":"Ciudad Ju?rez, Ch, Mexico","id":3160,"name":"origin","lat":"31.7311292","lon":"-106.4625624","hops":{"incoming":[],"outgoing":[{"transport_id":"13","id":"908","transport_name":"air, passenger, regional","transport_description":"within one continent, kg km from person-km","transport_unit":"kg km","transport_co2_eq":"2.262000","from_stop_id":"3160","from_stop_lat":"31.7311292","from_stop_lon":"-106.4625624","from_stop_placename":"Ciudad Ju?rez, Ch, Mexico","to_stop_id":"136","to_stop_name":"origin","to_stop_lat":"42.3750969","to_stop_lon":"-71.1056079","to_stop_placename":"Cambridge, MA","to_stop":{"id":"136","name":"origin","lat":"42.3750969","lon":"-71.1056079","placename":"Cambridge, MA"},"from_stop":{"name":"origin","id":"3160","lat":"31.7311292","lon":"-106.4625624","placename":"Ciudad Ju?rez, Ch, Mexico"}}]}}},"processes":[],"eols":[]},{"oid":"929","imid":"1097","linkid":"","weight":"1","rawemissions":"0","emissions":"0","shipping":"5754","processemissions":null,"endoflifeemissions":null,"disposaltype":null,"disposalenergy":null,"disposalimpact":null,"disposalemissions":null,"description":"","name":"Youtube in the Amazon","id":"1097","stops":{"origin":{"related_to":"1097","part_or_object":"p","notes":"","placename":"Peru","id":3161,"name":"origin","lat":"-9.189967","lon":"-75.015152","hops":{"incoming":[],"outgoing":[{"transport_id":"14","id":"909","transport_name":"air, passenger, intercontinental","transport_description":"intercontinental, kg km from person-km","transport_unit":"kg km","transport_co2_eq":"1.189000","from_stop_id":"3161","from_stop_lat":"-9.189967","from_stop_lon":"-75.015152","from_stop_placename":"Peru","to_stop_id":"136","to_stop_name":"origin","to_stop_lat":"42.3750969","to_stop_lon":"-71.1056079","to_stop_placename":"Cambridge, MA","to_stop":{"id":"136","name":"origin","lat":"42.3750969","lon":"-71.1056079","placename":"Cambridge, MA"},"from_stop":{"name":"origin","id":"3161","lat":"-9.189967","lon":"-75.015152","placename":"Peru"}}]}}},"processes":[],"eols":[]},{"oid":"929","imid":"1098","linkid":"","weight":"2","rawemissions":"0","emissions":"0","shipping":"4852.56","processemissions":null,"endoflifeemissions":null,"disposaltype":null,"disposalenergy":null,"disposalimpact":null,"disposalemissions":null,"description":"","name":"Sourcemap","id":"1098","stops":{"origin":{"related_to":"1098","part_or_object":"p","notes":"","placename":"Inverness, Highland, UK","id":3162,"name":"origin","lat":"57.4766949","lon":"-4.2314535","hops":{"incoming":[],"outgoing":[{"transport_id":"14","id":"910","transport_name":"air, passenger, intercontinental","transport_description":"intercontinental, kg km from person-km","transport_unit":"kg km","transport_co2_eq":"1.189000","from_stop_id":"3162","from_stop_lat":"57.4766949","from_stop_lon":"-4.2314535","from_stop_placename":"Inverness, Highland, UK","to_stop_id":"136","to_stop_name":"origin","to_stop_lat":"42.3750969","to_stop_lon":"-71.1056079","to_stop_placename":"Cambridge, MA","to_stop":{"id":"136","name":"origin","lat":"42.3750969","lon":"-71.1056079","placename":"Cambridge, MA"},"from_stop":{"name":"origin","id":"3162","lat":"57.4766949","lon":"-4.2314535","placename":"Inverness, Highland, UK"}}]}}},"processes":[],"eols":[]},{"oid":"929","imid":"1099","linkid":"","weight":"1","rawemissions":"0","emissions":"0","shipping":"8862.17","processemissions":null,"endoflifeemissions":null,"disposaltype":null,"disposalenergy":null,"disposalimpact":null,"disposalemissions":null,"description":"","name":"VirtualGaza","id":"1099","stops":{"origin":{"related_to":"1099","part_or_object":"p","notes":"","placename":"West Bank","id":3163,"name":"origin","lat":"31.952162","lon":"35.233154","hops":{"incoming":[],"outgoing":[{"transport_id":"14","id":"911","transport_name":"air, passenger, intercontinental","transport_description":"intercontinental, kg km from person-km","transport_unit":"kg km","transport_co2_eq":"1.189000","from_stop_id":"3163","from_stop_lat":"31.952162","from_stop_lon":"35.233154","from_stop_placename":"West Bank","to_stop_id":"136","to_stop_name":"origin","to_stop_lat":"42.3750969","to_stop_lon":"-71.1056079","to_stop_placename":"Cambridge, MA","to_stop":{"id":"136","name":"origin","lat":"42.3750969","lon":"-71.1056079","placename":"Cambridge, MA"},"from_stop":{"name":"origin","id":"3163","lat":"31.952162","lon":"35.233154","placename":"West Bank"}}]}}},"processes":[],"eols":[]},{"oid":"929","imid":"1100","linkid":"","weight":"1","rawemissions":"0","emissions":"0","shipping":"4170.35","processemissions":null,"endoflifeemissions":null,"disposaltype":null,"disposalenergy":null,"disposalimpact":null,"disposalemissions":null,"description":"","name":"Openpark","id":"1100","stops":{"origin":{"related_to":"1100","part_or_object":"p","notes":"","placename":"Los Angeles, CA, USA","id":3164,"name":"origin","lat":"34.0522342","lon":"-118.2436849","hops":{"incoming":[],"outgoing":[{"transport_id":"13","id":"912","transport_name":"air, passenger, regional","transport_description":"within one continent, kg km from person-km","transport_unit":"kg km","transport_co2_eq":"2.262000","from_stop_id":"3164","from_stop_lat":"34.0522342","from_stop_lon":"-118.2436849","from_stop_placename":"Los Angeles, CA, USA","to_stop_id":"136","to_stop_name":"origin","to_stop_lat":"42.3750969","to_stop_lon":"-71.1056079","to_stop_placename":"Cambridge, MA","to_stop":{"id":"136","name":"origin","lat":"42.3750969","lon":"-71.1056079","placename":"Cambridge, MA"},"from_stop":{"name":"origin","id":"3164","lat":"34.0522342","lon":"-118.2436849","placename":"Los Angeles, CA, USA"}}]}}},"processes":[],"eols":[]},{"oid":"929","imid":"1101","linkid":"","weight":"1","rawemissions":"0","emissions":"0","shipping":"4170.35","processemissions":null,"endoflifeemissions":null,"disposaltype":null,"disposalenergy":null,"disposalimpact":null,"disposalemissions":null,"description":"","name":"No Park","id":"1101","stops":{"origin":{"related_to":"1101","part_or_object":"p","notes":"","placename":"Los Angeles, CA, USA","id":3165,"name":"origin","lat":"34.0522342","lon":"-118.2436849","hops":{"incoming":[],"outgoing":[{"transport_id":"13","id":"913","transport_name":"air, passenger, regional","transport_description":"within one continent, kg km from person-km","transport_unit":"kg km","transport_co2_eq":"2.262000","from_stop_id":"3165","from_stop_lat":"34.0522342","from_stop_lon":"-118.2436849","from_stop_placename":"Los Angeles, CA, USA","to_stop_id":"136","to_stop_name":"origin","to_stop_lat":"42.3750969","to_stop_lon":"-71.1056079","to_stop_placename":"Cambridge, MA","to_stop":{"id":"136","name":"origin","lat":"42.3750969","lon":"-71.1056079","placename":"Cambridge, MA"},"from_stop":{"name":"origin","id":"3165","lat":"34.0522342","lon":"-118.2436849","placename":"Los Angeles, CA, USA"}}]}}},"processes":[],"eols":[]},{"oid":"929","imid":"1102","linkid":"","weight":"2","rawemissions":"0","emissions":"0","shipping":"12758.3","processemissions":null,"endoflifeemissions":null,"disposaltype":null,"disposalenergy":null,"disposalimpact":null,"disposalemissions":null,"description":"","name":"Project Einstein","id":"1102","stops":{"origin":{"related_to":"1102","part_or_object":"p","notes":"","placename":"Myanmar","id":3166,"name":"origin","lat":"21.913965","lon":"95.956223","hops":{"incoming":[],"outgoing":[{"transport_id":"14","id":"914","transport_name":"air, passenger, intercontinental","transport_description":"intercontinental, kg km from person-km","transport_unit":"kg km","transport_co2_eq":"1.189000","from_stop_id":"3166","from_stop_lat":"21.913965","from_stop_lon":"95.956223","from_stop_placename":"Myanmar","to_stop_id":"136","to_stop_name":"origin","to_stop_lat":"42.3750969","to_stop_lon":"-71.1056079","to_stop_placename":"Cambridge, MA","to_stop":{"id":"136","name":"origin","lat":"42.3750969","lon":"-71.1056079","placename":"Cambridge, MA"},"from_stop":{"name":"origin","id":"3166","lat":"21.913965","lon":"95.956223","placename":"Myanmar"}}]}}},"processes":[],"eols":[]},{"oid":"929","imid":"1103","linkid":"","weight":"3","rawemissions":"0","emissions":"0","shipping":"27.94","processemissions":null,"endoflifeemissions":null,"disposaltype":null,"disposalenergy":null,"disposalimpact":null,"disposalemissions":null,"description":"","name":"Open Face Toolkit","id":"1103","stops":{"origin":{"related_to":"1103","part_or_object":"p","notes":"","placename":"Framingham, MA, USA","id":3167,"name":"origin","lat":"42.2917623","lon":"-71.4258945","hops":{"incoming":[],"outgoing":[{"transport_id":"5","id":"915","transport_name":"automobile, 50 mpg","transport_description":"high efficiency automobile","transport_unit":"kg km","transport_co2_eq":"0.026400","from_stop_id":"3167","from_stop_lat":"42.2917623","from_stop_lon":"-71.4258945","from_stop_placename":"Framingham, MA, USA","to_stop_id":"136","to_stop_name":"origin","to_stop_lat":"42.3750969","to_stop_lon":"-71.1056079","to_stop_placename":"Cambridge, MA","to_stop":{"id":"136","name":"origin","lat":"42.3750969","lon":"-71.1056079","placename":"Cambridge, MA"},"from_stop":{"name":"origin","id":"3167","lat":"42.2917623","lon":"-71.4258945","placename":"Framingham, MA, USA"}}]}}},"processes":[],"eols":[]},{"oid":"929","imid":"1104","linkid":"","weight":"3","rawemissions":"0","emissions":"0","shipping":"4.2","processemissions":null,"endoflifeemissions":null,"disposaltype":null,"disposalenergy":null,"disposalimpact":null,"disposalemissions":null,"description":"","name":"Not::Boston","id":"1104","stops":{"origin":{"related_to":"1104","part_or_object":"p","notes":"","placename":"Boston, MA, USA","id":3168,"name":"origin","lat":"42.3584308","lon":"-71.0597732","hops":{"incoming":[],"outgoing":[{"transport_id":"5","id":"916","transport_name":"automobile, 50 mpg","transport_description":"high efficiency automobile","transport_unit":"kg km","transport_co2_eq":"0.026400","from_stop_id":"3168","from_stop_lat":"42.3584308","from_stop_lon":"-71.0597732","from_stop_placename":"Boston, MA, USA","to_stop_id":"136","to_stop_name":"origin","to_stop_lat":"42.3750969","to_stop_lon":"-71.1056079","to_stop_placename":"Cambridge, MA","to_stop":{"id":"136","name":"origin","lat":"42.3750969","lon":"-71.1056079","placename":"Cambridge, MA"},"from_stop":{"name":"origin","id":"3168","lat":"42.3584308","lon":"-71.0597732","placename":"Boston, MA, USA"}}]}}},"processes":[],"eols":[]},{"oid":"929","imid":"1105","linkid":"","weight":"2","rawemissions":"0","emissions":"0","shipping":"4.2","processemissions":null,"endoflifeemissions":null,"disposaltype":null,"disposalenergy":null,"disposalimpact":null,"disposalemissions":null,"description":"","name":"Lost in Boston","id":"1105","stops":{"origin":{"related_to":"1105","part_or_object":"p","notes":"","placename":"Boston, MA, USA","id":3169,"name":"origin","lat":"42.3584308","lon":"-71.0597732","hops":{"incoming":[],"outgoing":[{"transport_id":"5","id":"917","transport_name":"automobile, 50 mpg","transport_description":"high efficiency automobile","transport_unit":"kg km","transport_co2_eq":"0.026400","from_stop_id":"3169","from_stop_lat":"42.3584308","from_stop_lon":"-71.0597732","from_stop_placename":"Boston, MA, USA","to_stop_id":"136","to_stop_name":"origin","to_stop_lat":"42.3750969","to_stop_lon":"-71.1056079","to_stop_placename":"Cambridge, MA","to_stop":{"id":"136","name":"origin","lat":"42.3750969","lon":"-71.1056079","placename":"Cambridge, MA"},"from_stop":{"name":"origin","id":"3169","lat":"42.3584308","lon":"-71.0597732","placename":"Boston, MA, USA"}}]}}},"processes":[],"eols":[]},{"oid":"929","imid":"1106","linkid":"","weight":"1","rawemissions":"0","emissions":"0","shipping":"12382.9","processemissions":null,"endoflifeemissions":null,"disposaltype":null,"disposalenergy":null,"disposalimpact":null,"disposalemissions":null,"description":"","name":"Comics News Network","id":"1106","stops":{"origin":{"related_to":"1106","part_or_object":"p","notes":"","placename":"India","id":3170,"name":"origin","lat":"20.593684","lon":"78.96288","hops":{"incoming":[],"outgoing":[{"transport_id":"14","id":"918","transport_name":"air, passenger, intercontinental","transport_description":"intercontinental, kg km from person-km","transport_unit":"kg km","transport_co2_eq":"1.189000","from_stop_id":"3170","from_stop_lat":"20.593684","from_stop_lon":"78.96288","from_stop_placename":"India","to_stop_id":"136","to_stop_name":"origin","to_stop_lat":"42.3750969","to_stop_lon":"-71.1056079","to_stop_placename":"Cambridge, MA","to_stop":{"id":"136","name":"origin","lat":"42.3750969","lon":"-71.1056079","placename":"Cambridge, MA"},"from_stop":{"name":"origin","id":"3170","lat":"20.593684","lon":"78.96288","placename":"India"}}]}}},"processes":[],"eols":[]},{"oid":"929","imid":"1107","linkid":"","weight":"1","rawemissions":"0","emissions":"0","shipping":"981.47","processemissions":null,"endoflifeemissions":null,"disposaltype":null,"disposalenergy":null,"disposalimpact":null,"disposalemissions":null,"description":"","name":"Hero Reports","id":"1107","stops":{"origin":{"related_to":"1107","part_or_object":"p","notes":"","placename":"Detroit, MI, USA","id":3171,"name":"origin","lat":"42.331427","lon":"-83.0457538","hops":{"incoming":[],"outgoing":[{"transport_id":"13","id":"919","transport_name":"air, passenger, regional","transport_description":"within one continent, kg km from person-km","transport_unit":"kg km","transport_co2_eq":"2.262000","from_stop_id":"3171","from_stop_lat":"42.331427","from_stop_lon":"-83.0457538","from_stop_placename":"Detroit, MI, USA","to_stop_id":"136","to_stop_name":"origin","to_stop_lat":"42.3750969","to_stop_lon":"-71.1056079","to_stop_placename":"Cambridge, MA","to_stop":{"id":"136","name":"origin","lat":"42.3750969","lon":"-71.1056079","placename":"Cambridge, MA"},"from_stop":{"name":"origin","id":"3171","lat":"42.331427","lon":"-83.0457538","placename":"Detroit, MI, USA"}}]}}},"processes":[],"eols":[]},{"oid":"929","imid":"1108","linkid":"","weight":"1","rawemissions":"0","emissions":"0","shipping":"1665.12","processemissions":null,"endoflifeemissions":null,"disposaltype":null,"disposalenergy":null,"disposalimpact":null,"disposalemissions":null,"description":"","name":"Hero Reports","id":"1108","stops":{"origin":{"related_to":"1108","part_or_object":"p","notes":"","placename":"Saint Louis, MO, USA","id":3172,"name":"origin","lat":"38.6272733","lon":"-90.1978889","hops":{"incoming":[],"outgoing":[{"transport_id":"13","id":"920","transport_name":"air, passenger, regional","transport_description":"within one continent, kg km from person-km","transport_unit":"kg km","transport_co2_eq":"2.262000","from_stop_id":"3172","from_stop_lat":"38.6272733","from_stop_lon":"-90.1978889","from_stop_placename":"Saint Louis, MO, USA","to_stop_id":"136","to_stop_name":"origin","to_stop_lat":"42.3750969","to_stop_lon":"-71.1056079","to_stop_placename":"Cambridge, MA","to_stop":{"id":"136","name":"origin","lat":"42.3750969","lon":"-71.1056079","placename":"Cambridge, MA"},"from_stop":{"name":"origin","id":"3172","lat":"38.6272733","lon":"-90.1978889","placename":"Saint Louis, MO, USA"}}]}}},"processes":[],"eols":[]},{"oid":"929","imid":"1109","linkid":"","weight":"1","rawemissions":"0","emissions":"0","shipping":"433.96","processemissions":null,"endoflifeemissions":null,"disposaltype":null,"disposalenergy":null,"disposalimpact":null,"disposalemissions":null,"description":"","name":"Hero Reports","id":"1109","stops":{"origin":{"related_to":"1109","part_or_object":"p","notes":"","placename":"Philadelphia, PA, USA","id":3173,"name":"origin","lat":"39.952335","lon":"-75.163789","hops":{"incoming":[],"outgoing":[{"transport_id":"13","id":"921","transport_name":"air, passenger, regional","transport_description":"within one continent, kg km from person-km","transport_unit":"kg km","transport_co2_eq":"2.262000","from_stop_id":"3173","from_stop_lat":"39.952335","from_stop_lon":"-75.163789","from_stop_placename":"Philadelphia, PA, USA","to_stop_id":"136","to_stop_name":"origin","to_stop_lat":"42.3750969","to_stop_lon":"-71.1056079","to_stop_placename":"Cambridge, MA","to_stop":{"id":"136","name":"origin","lat":"42.3750969","lon":"-71.1056079","placename":"Cambridge, MA"},"from_stop":{"name":"origin","id":"3173","lat":"39.952335","lon":"-75.163789","placename":"Philadelphia, PA, USA"}}]}}},"processes":[],"eols":[]},{"oid":"929","imid":"1110","linkid":"","weight":"1","rawemissions":"0","emissions":"0","shipping":"3667.52","processemissions":null,"endoflifeemissions":null,"disposaltype":null,"disposalenergy":null,"disposalimpact":null,"disposalemissions":null,"description":"","name":"Mexico City Expedition","id":"1110","stops":{"origin":{"related_to":"1110","part_or_object":"p","notes":"","placename":"Mexico City, D.f., Mexico","id":3174,"name":"origin","lat":"19.4270499","lon":"-99.1275711","hops":{"incoming":[],"outgoing":[{"transport_id":"14","id":"922","transport_name":"air, passenger, intercontinental","transport_description":"intercontinental, kg km from person-km","transport_unit":"kg km","transport_co2_eq":"1.189000","from_stop_id":"3174","from_stop_lat":"19.4270499","from_stop_lon":"-99.1275711","from_stop_placename":"Mexico City, D.f., Mexico","to_stop_id":"136","to_stop_name":"origin","to_stop_lat":"42.3750969","to_stop_lon":"-71.1056079","to_stop_placename":"Cambridge, MA","to_stop":{"id":"136","name":"origin","lat":"42.3750969","lon":"-71.1056079","placename":"Cambridge, MA"},"from_stop":{"name":"origin","id":"3174","lat":"19.4270499","lon":"-99.1275711","placename":"Mexico City, D.f., Mexico"}}]}}},"processes":[],"eols":[]},{"oid":"929","imid":"1111","linkid":"","weight":"3","rawemissions":"0","emissions":"0","shipping":"13095","processemissions":null,"endoflifeemissions":null,"disposaltype":null,"disposalenergy":null,"disposalimpact":null,"disposalemissions":null,"description":"","name":"Awareness Mapping","id":"1111","stops":{"origin":{"related_to":"1111","part_or_object":"p","notes":"","placename":"Bengaluru, Karnataka, India","id":3175,"name":"origin","lat":"12.971606","lon":"77.594376","hops":{"incoming":[],"outgoing":[{"transport_id":"14","id":"923","transport_name":"air, passenger, intercontinental","transport_description":"intercontinental, kg km from person-km","transport_unit":"kg km","transport_co2_eq":"1.189000","from_stop_id":"3175","from_stop_lat":"12.971606","from_stop_lon":"77.594376","from_stop_placename":"Bengaluru, Karnataka, India","to_stop_id":"136","to_stop_name":"origin","to_stop_lat":"42.3750969","to_stop_lon":"-71.1056079","to_stop_placename":"Cambridge, MA","to_stop":{"id":"136","name":"origin","lat":"42.3750969","lon":"-71.1056079","placename":"Cambridge, MA"},"from_stop":{"name":"origin","id":"3175","lat":"12.971606","lon":"77.594376","placename":"Bengaluru, Karnataka, India"}}]}}},"processes":[],"eols":[]},{"oid":"929","imid":"1150","linkid":"","weight":"0","rawemissions":"0","emissions":"0","shipping":"0","processemissions":null,"endoflifeemissions":null,"disposaltype":null,"disposalenergy":null,"disposalimpact":null,"disposalemissions":null,"description":"","name":"Passenger(s)","id":"1150","stops":{"origin":{"related_to":"1150","part_or_object":"p","notes":"","placename":"Location","id":3207,"name":"origin","lat":"0","lon":"0","hops":{"incoming":[],"outgoing":[{"transport_id":"17","id":"955","transport_name":"None Selected","transport_description":null,"transport_unit":"kg km","transport_co2_eq":"0.000000","from_stop_id":"3207","from_stop_lat":"0","from_stop_lon":"0","from_stop_placename":"Location","to_stop_id":"136","to_stop_name":"origin","to_stop_lat":"42.3750969","to_stop_lon":"-71.1056079","to_stop_placename":"Cambridge, MA","to_stop":{"id":"136","name":"origin","lat":"42.3750969","lon":"-71.1056079","placename":"Cambridge, MA"},"from_stop":{"name":"origin","id":"3207","lat":"0","lon":"0","placename":"Location"}}]}}},"processes":[],"eols":[]}],"user":{"name":"hock","id":"4"}}}