{"947":{"oid":"947","type":"food","flag":"","creator":"12878","name":"hamburgers and fries all american meal","upc":"","imagelink":"","description":"","slug":"hamburgers-and-fries-all-american-meal","category":"","weight":"3.5","emissions":"9.08458965","embodied":"0","transport":"9.08458965","process":null,"endoflife":null,"shipping":"39223.77","lifetime":null,"usagetype":"","usageenergy":null,"usageemissions":null,"timecreated":"2011-04-08 10:33:27","timemodified":"2011-04-08 10:50:47","visibility":"public","showfootprint":"on","showembodied":"on","showtransport":"on","showprocess":"on","showendoflife":"on","showlastleg":"on","showuse":"on","showstats":"on","stops":{"origin":{"related_to":"947","part_or_object":"o","notes":null,"placename":"Oakland, CA, USA","id":"14593","category":"1","lat":"37.8043637","lon":"-122.2711137","name":"origin","hops":{"incoming":[{"transport_id":"20","id":"10580","transport_name":"Road","transport_description":"from the Greenhouse Gas Protocol Initiative - GHG emission from transport or mobile sources calculator 2.0 (jun 2009)","transport_unit":"kg km","transport_co2_eq":"0.000204","from_stop_id":"14594","from_stop_lat":"23.634501","from_stop_lon":"-102.552784","to_stop_id":"14593","to_stop_name":"origin","to_stop_lat":"37.8043637","placename":"Mexico","to_stop_lon":"-122.2711137","to_stop":{"id":"14593","name":"origin","lat":"37.8043637","placename":"Oakland, CA, USA","lon":"-122.2711137"},"from_stop":{"name":"origin","id":"14594","lat":"23.634501","lon":"-102.552784","placename":"Mexico"}},{"transport_id":"20","id":"10581","transport_name":"Road","transport_description":"from the Greenhouse Gas Protocol Initiative - GHG emission from transport or mobile sources calculator 2.0 (jun 2009)","transport_unit":"kg km","transport_co2_eq":"0.000204","from_stop_id":"14595","from_stop_lat":"-38.416097","from_stop_lon":"-63.616672","to_stop_id":"14593","to_stop_name":"origin","to_stop_lat":"37.8043637","placename":"Argentina","to_stop_lon":"-122.2711137","to_stop":{"id":"14593","name":"origin","lat":"37.8043637","placename":"Oakland, CA, USA","lon":"-122.2711137"},"from_stop":{"name":"origin","id":"14595","lat":"-38.416097","lon":"-63.616672","placename":"Argentina"}},{"transport_id":"20","id":"10582","transport_name":"Road","transport_description":"from the Greenhouse Gas Protocol Initiative - GHG emission from transport or mobile sources calculator 2.0 (jun 2009)","transport_unit":"kg km","transport_co2_eq":"0.000204","from_stop_id":"14596","from_stop_lat":"23.634501","from_stop_lon":"-102.552784","to_stop_id":"14593","to_stop_name":"origin","to_stop_lat":"37.8043637","placename":"Mexico","to_stop_lon":"-122.2711137","to_stop":{"id":"14593","name":"origin","lat":"37.8043637","placename":"Oakland, CA, USA","lon":"-122.2711137"},"from_stop":{"name":"origin","id":"14596","lat":"23.634501","lon":"-102.552784","placename":"Mexico"}},{"transport_id":"21","id":"10583","transport_name":"Air(>1500km)","transport_description":"from the Greenhouse Gas Protocol Initiative - GHG emission from transport or mobile sources calculator 2.0 (jun 2009)","transport_unit":"kg km","transport_co2_eq":"0.001439","from_stop_id":"14597","from_stop_lat":"46.818188","from_stop_lon":"8.227512","to_stop_id":"14593","to_stop_name":"origin","to_stop_lat":"37.8043637","placename":"Switzerland","to_stop_lon":"-122.2711137","to_stop":{"id":"14593","name":"origin","lat":"37.8043637","placename":"Oakland, CA, USA","lon":"-122.2711137"},"from_stop":{"name":"origin","id":"14597","lat":"46.818188","lon":"8.227512","placename":"Switzerland"}},{"transport_id":"21","id":"10584","transport_name":"Air(>1500km)","transport_description":"from the Greenhouse Gas Protocol Initiative - GHG emission from transport or mobile sources calculator 2.0 (jun 2009)","transport_unit":"kg km","transport_co2_eq":"0.001439","from_stop_id":"14598","from_stop_lat":"-9.189967","from_stop_lon":"-75.015152","to_stop_id":"14593","to_stop_name":"origin","to_stop_lat":"37.8043637","placename":"Peru","to_stop_lon":"-122.2711137","to_stop":{"id":"14593","name":"origin","lat":"37.8043637","placename":"Oakland, CA, USA","lon":"-122.2711137"},"from_stop":{"name":"origin","id":"14598","lat":"-9.189967","lon":"-75.015152","placename":"Peru"}},{"transport_id":"20","id":"10585","transport_name":"Road","transport_description":"from the Greenhouse Gas Protocol Initiative - GHG emission from transport or mobile sources calculator 2.0 (jun 2009)","transport_unit":"kg km","transport_co2_eq":"0.000204","from_stop_id":"14599","from_stop_lat":"23.634501","from_stop_lon":"-102.552784","to_stop_id":"14593","to_stop_name":"origin","to_stop_lat":"37.8043637","placename":"Mexico","to_stop_lon":"-122.2711137","to_stop":{"id":"14593","name":"origin","lat":"37.8043637","placename":"Oakland, CA, USA","lon":"-122.2711137"},"from_stop":{"name":"origin","id":"14599","lat":"23.634501","lon":"-102.552784","placename":"Mexico"}},{"transport_id":"20","id":"10586","transport_name":"Road","transport_description":"from the Greenhouse Gas Protocol Initiative - GHG emission from transport or mobile sources calculator 2.0 (jun 2009)","transport_unit":"kg km","transport_co2_eq":"0.000204","from_stop_id":"14600","from_stop_lat":"23.634501","from_stop_lon":"-102.552784","to_stop_id":"14593","to_stop_name":"origin","to_stop_lat":"37.8043637","placename":"Mexico","to_stop_lon":"-122.2711137","to_stop":{"id":"14593","name":"origin","lat":"37.8043637","placename":"Oakland, CA, USA","lon":"-122.2711137"},"from_stop":{"name":"origin","id":"14600","lat":"23.634501","lon":"-102.552784","placename":"Mexico"}},{"transport_id":"20","id":"10587","transport_name":"Road","transport_description":"from the Greenhouse Gas Protocol Initiative - GHG emission from transport or mobile sources calculator 2.0 (jun 2009)","transport_unit":"kg km","transport_co2_eq":"0.000204","from_stop_id":"14601","from_stop_lat":"23.634501","from_stop_lon":"-102.552784","to_stop_id":"14593","to_stop_name":"origin","to_stop_lat":"37.8043637","placename":"Mexico","to_stop_lon":"-122.2711137","to_stop":{"id":"14593","name":"origin","lat":"37.8043637","placename":"Oakland, CA, USA","lon":"-122.2711137"},"from_stop":{"name":"origin","id":"14601","lat":"23.634501","lon":"-102.552784","placename":"Mexico"}}],"outgoing":[]}}},"parts":[{"oid":"947","imid":"7100","linkid":"0","weight":"1","rawemissions":"0","emissions":"0","shipping":"2449.94","processemissions":"0","endoflifeemissions":"0","disposaltype":null,"disposalenergy":null,"disposalimpact":null,"disposalemissions":null,"description":"","name":"wheat","id":"7100","stops":{"origin":{"related_to":"7100","part_or_object":"p","notes":null,"placename":"Mexico","id":14594,"name":"origin","lat":"23.634501","lon":"-102.552784","hops":{"incoming":[],"outgoing":[{"transport_id":"20","id":"10580","transport_name":"Road","transport_description":"from the Greenhouse Gas Protocol Initiative - GHG emission from transport or mobile sources calculator 2.0 (jun 2009)","transport_unit":"kg km","transport_co2_eq":"0.000204","from_stop_id":"14594","from_stop_lat":"23.634501","from_stop_lon":"-102.552784","from_stop_placename":"Mexico","to_stop_id":"14593","to_stop_name":"origin","to_stop_lat":"37.8043637","to_stop_lon":"-122.2711137","to_stop_placename":"Oakland, CA, USA","to_stop":{"id":"14593","name":"origin","lat":"37.8043637","lon":"-122.2711137","placename":"Oakland, CA, USA"},"from_stop":{"name":"origin","id":"14594","lat":"23.634501","lon":"-102.552784","placename":"Mexico"}}]}}},"processes":[],"eols":[]},{"oid":"947","imid":"7101","linkid":"0","weight":"1","rawemissions":"0","emissions":"0","shipping":"10394.27","processemissions":"0","endoflifeemissions":"0","disposaltype":null,"disposalenergy":null,"disposalimpact":null,"disposalemissions":null,"description":"","name":"beef","id":"7101","stops":{"origin":{"related_to":"7101","part_or_object":"p","notes":null,"placename":"Argentina","id":14595,"name":"origin","lat":"-38.416097","lon":"-63.616672","hops":{"incoming":[],"outgoing":[{"transport_id":"20","id":"10581","transport_name":"Road","transport_description":"from the Greenhouse Gas Protocol Initiative - GHG emission from transport or mobile sources calculator 2.0 (jun 2009)","transport_unit":"kg km","transport_co2_eq":"0.000204","from_stop_id":"14595","from_stop_lat":"-38.416097","from_stop_lon":"-63.616672","from_stop_placename":"Argentina","to_stop_id":"14593","to_stop_name":"origin","to_stop_lat":"37.8043637","to_stop_lon":"-122.2711137","to_stop_placename":"Oakland, CA, USA","to_stop":{"id":"14593","name":"origin","lat":"37.8043637","lon":"-122.2711137","placename":"Oakland, CA, USA"},"from_stop":{"name":"origin","id":"14595","lat":"-38.416097","lon":"-63.616672","placename":"Argentina"}}]}}},"processes":[],"eols":[]},{"oid":"947","imid":"7102","linkid":"0","weight":"0.25","rawemissions":"0","emissions":"0","shipping":"2449.94","processemissions":"0","endoflifeemissions":"0","disposaltype":null,"disposalenergy":null,"disposalimpact":null,"disposalemissions":null,"description":"","name":"lettue","id":"7102","stops":{"origin":{"related_to":"7102","part_or_object":"p","notes":null,"placename":"Mexico","id":14596,"name":"origin","lat":"23.634501","lon":"-102.552784","hops":{"incoming":[],"outgoing":[{"transport_id":"20","id":"10582","transport_name":"Road","transport_description":"from the Greenhouse Gas Protocol Initiative - GHG emission from transport or mobile sources calculator 2.0 (jun 2009)","transport_unit":"kg km","transport_co2_eq":"0.000204","from_stop_id":"14596","from_stop_lat":"23.634501","from_stop_lon":"-102.552784","from_stop_placename":"Mexico","to_stop_id":"14593","to_stop_name":"origin","to_stop_lat":"37.8043637","to_stop_lon":"-122.2711137","to_stop_placename":"Oakland, CA, USA","to_stop":{"id":"14593","name":"origin","lat":"37.8043637","lon":"-122.2711137","placename":"Oakland, CA, USA"},"from_stop":{"name":"origin","id":"14596","lat":"23.634501","lon":"-102.552784","placename":"Mexico"}}]}}},"processes":[],"eols":[]},{"oid":"947","imid":"7103","linkid":"0","weight":"0.25","rawemissions":"0","emissions":"0","shipping":"9406.59","processemissions":"0","endoflifeemissions":"0","disposaltype":null,"disposalenergy":null,"disposalimpact":null,"disposalemissions":null,"description":"","name":"american cheese","id":"7103","stops":{"origin":{"related_to":"7103","part_or_object":"p","notes":null,"placename":"Switzerland","id":14597,"name":"origin","lat":"46.818188","lon":"8.227512","hops":{"incoming":[],"outgoing":[{"transport_id":"21","id":"10583","transport_name":"Air(>1500km)","transport_description":"from the Greenhouse Gas Protocol Initiative - GHG emission from transport or mobile sources calculator 2.0 (jun 2009)","transport_unit":"kg km","transport_co2_eq":"0.001439","from_stop_id":"14597","from_stop_lat":"46.818188","from_stop_lon":"8.227512","from_stop_placename":"Switzerland","to_stop_id":"14593","to_stop_name":"origin","to_stop_lat":"37.8043637","to_stop_lon":"-122.2711137","to_stop_placename":"Oakland, CA, USA","to_stop":{"id":"14593","name":"origin","lat":"37.8043637","lon":"-122.2711137","placename":"Oakland, CA, USA"},"from_stop":{"name":"origin","id":"14597","lat":"46.818188","lon":"8.227512","placename":"Switzerland"}}]}}},"processes":[],"eols":[]},{"oid":"947","imid":"7104","linkid":"0","weight":"0.25","rawemissions":"0","emissions":"0","shipping":"7173.21","processemissions":"0","endoflifeemissions":"0","disposaltype":null,"disposalenergy":null,"disposalimpact":null,"disposalemissions":null,"description":"","name":"potatoes","id":"7104","stops":{"origin":{"related_to":"7104","part_or_object":"p","notes":null,"placename":"Peru","id":14598,"name":"origin","lat":"-9.189967","lon":"-75.015152","hops":{"incoming":[],"outgoing":[{"transport_id":"21","id":"10584","transport_name":"Air(>1500km)","transport_description":"from the Greenhouse Gas Protocol Initiative - GHG emission from transport or mobile sources calculator 2.0 (jun 2009)","transport_unit":"kg km","transport_co2_eq":"0.001439","from_stop_id":"14598","from_stop_lat":"-9.189967","from_stop_lon":"-75.015152","from_stop_placename":"Peru","to_stop_id":"14593","to_stop_name":"origin","to_stop_lat":"37.8043637","to_stop_lon":"-122.2711137","to_stop_placename":"Oakland, CA, USA","to_stop":{"id":"14593","name":"origin","lat":"37.8043637","lon":"-122.2711137","placename":"Oakland, CA, USA"},"from_stop":{"name":"origin","id":"14598","lat":"-9.189967","lon":"-75.015152","placename":"Peru"}}]}}},"processes":[],"eols":[]},{"oid":"947","imid":"7105","linkid":"0","weight":"0.25","rawemissions":"0","emissions":"0","shipping":"2449.94","processemissions":"0","endoflifeemissions":"0","disposaltype":null,"disposalenergy":null,"disposalimpact":null,"disposalemissions":null,"description":"","name":"tomatoes","id":"7105","stops":{"origin":{"related_to":"7105","part_or_object":"p","notes":null,"placename":"Mexico","id":14599,"name":"origin","lat":"23.634501","lon":"-102.552784","hops":{"incoming":[],"outgoing":[{"transport_id":"20","id":"10585","transport_name":"Road","transport_description":"from the Greenhouse Gas Protocol Initiative - GHG emission from transport or mobile sources calculator 2.0 (jun 2009)","transport_unit":"kg km","transport_co2_eq":"0.000204","from_stop_id":"14599","from_stop_lat":"23.634501","from_stop_lon":"-102.552784","from_stop_placename":"Mexico","to_stop_id":"14593","to_stop_name":"origin","to_stop_lat":"37.8043637","to_stop_lon":"-122.2711137","to_stop_placename":"Oakland, CA, USA","to_stop":{"id":"14593","name":"origin","lat":"37.8043637","lon":"-122.2711137","placename":"Oakland, CA, USA"},"from_stop":{"name":"origin","id":"14599","lat":"23.634501","lon":"-102.552784","placename":"Mexico"}}]}}},"processes":[],"eols":[]},{"oid":"947","imid":"7106","linkid":"0","weight":"0.25","rawemissions":"0","emissions":"0","shipping":"2449.94","processemissions":"0","endoflifeemissions":"0","disposaltype":null,"disposalenergy":null,"disposalimpact":null,"disposalemissions":null,"description":"","name":"onins","id":"7106","stops":{"origin":{"related_to":"7106","part_or_object":"p","notes":null,"placename":"Mexico","id":14600,"name":"origin","lat":"23.634501","lon":"-102.552784","hops":{"incoming":[],"outgoing":[{"transport_id":"20","id":"10586","transport_name":"Road","transport_description":"from the Greenhouse Gas Protocol Initiative - GHG emission from transport or mobile sources calculator 2.0 (jun 2009)","transport_unit":"kg km","transport_co2_eq":"0.000204","from_stop_id":"14600","from_stop_lat":"23.634501","from_stop_lon":"-102.552784","from_stop_placename":"Mexico","to_stop_id":"14593","to_stop_name":"origin","to_stop_lat":"37.8043637","to_stop_lon":"-122.2711137","to_stop_placename":"Oakland, CA, USA","to_stop":{"id":"14593","name":"origin","lat":"37.8043637","lon":"-122.2711137","placename":"Oakland, CA, USA"},"from_stop":{"name":"origin","id":"14600","lat":"23.634501","lon":"-102.552784","placename":"Mexico"}}]}}},"processes":[],"eols":[]},{"oid":"947","imid":"7107","linkid":"0","weight":"0.25","rawemissions":"0","emissions":"0","shipping":"2449.94","processemissions":"0","endoflifeemissions":"0","disposaltype":null,"disposalenergy":null,"disposalimpact":null,"disposalemissions":null,"description":"","name":"jalapenyos","id":"7107","stops":{"origin":{"related_to":"7107","part_or_object":"p","notes":null,"placename":"Mexico","id":14601,"name":"origin","lat":"23.634501","lon":"-102.552784","hops":{"incoming":[],"outgoing":[{"transport_id":"20","id":"10587","transport_name":"Road","transport_description":"from the Greenhouse Gas Protocol Initiative - GHG emission from transport or mobile sources calculator 2.0 (jun 2009)","transport_unit":"kg km","transport_co2_eq":"0.000204","from_stop_id":"14601","from_stop_lat":"23.634501","from_stop_lon":"-102.552784","from_stop_placename":"Mexico","to_stop_id":"14593","to_stop_name":"origin","to_stop_lat":"37.8043637","to_stop_lon":"-122.2711137","to_stop_placename":"Oakland, CA, USA","to_stop":{"id":"14593","name":"origin","lat":"37.8043637","lon":"-122.2711137","placename":"Oakland, CA, USA"},"from_stop":{"name":"origin","id":"14601","lat":"23.634501","lon":"-102.552784","placename":"Mexico"}}]}}},"processes":[],"eols":[]}],"user":{"name":"ari.juan","id":"12878"}}}