{"955":{"oid":"955","type":"food","flag":"","creator":"12874","name":"Sausage Pizza Long","upc":"","imagelink":"","description":"","slug":"Tomato","category":"","weight":"2.75","emissions":"242.393666492","embodied":"240.075","transport":"2.3186664925","process":null,"endoflife":null,"shipping":"28032.17","lifetime":null,"usagetype":"","usageenergy":null,"usageemissions":null,"timecreated":"2011-04-08 10:35:23","timemodified":"2011-04-08 10:55:23","visibility":"public","showfootprint":"on","showembodied":"on","showtransport":"on","showprocess":"on","showendoflife":"on","showlastleg":"on","showuse":"on","showstats":"on","stops":{"origin":{"related_to":"955","part_or_object":"o","notes":null,"placename":"Italy","id":"14615","category":"1","lat":"41.87194","lon":"12.56738","name":"origin","hops":{"incoming":[{"transport_id":"20","id":"10598","transport_name":"Road","transport_description":"from the Greenhouse Gas Protocol Initiative - GHG emission from transport or mobile sources calculator 2.0 (jun 2009)","transport_unit":"kg km","transport_co2_eq":"0.000204","from_stop_id":"14616","from_stop_lat":"23.634501","from_stop_lon":"-102.552784","to_stop_id":"14615","to_stop_name":"origin","to_stop_lat":"41.87194","placename":"Mexico","to_stop_lon":"12.56738","to_stop":{"id":"14615","name":"origin","lat":"41.87194","placename":"Italy","lon":"12.56738"},"from_stop":{"name":"origin","id":"14616","lat":"23.634501","lon":"-102.552784","placename":"Mexico"}},{"transport_id":"21","id":"10599","transport_name":"Air(>1500km)","transport_description":"from the Greenhouse Gas Protocol Initiative - GHG emission from transport or mobile sources calculator 2.0 (jun 2009)","transport_unit":"kg km","transport_co2_eq":"0.001439","from_stop_id":"14617","from_stop_lat":"41.87194","from_stop_lon":"12.56738","to_stop_id":"14615","to_stop_name":"origin","to_stop_lat":"41.87194","placename":"Italy","to_stop_lon":"12.56738","to_stop":{"id":"14615","name":"origin","lat":"41.87194","placename":"Italy","lon":"12.56738"},"from_stop":{"name":"origin","id":"14617","lat":"41.87194","lon":"12.56738","placename":"Italy"}},{"transport_id":"22","id":"10600","transport_name":"Air(<1500km)","transport_description":"from the Greenhouse Gas Protocol Initiative - GHG emission from transport or mobile sources calculator 2.0 (jun 2009)","transport_unit":"kg km","transport_co2_eq":"0.000665","from_stop_id":"14618","from_stop_lat":"56.130366","from_stop_lon":"-106.346771","to_stop_id":"14615","to_stop_name":"origin","to_stop_lat":"41.87194","placename":"Canada","to_stop_lon":"12.56738","to_stop":{"id":"14615","name":"origin","lat":"41.87194","placename":"Italy","lon":"12.56738"},"from_stop":{"name":"origin","id":"14618","lat":"56.130366","lon":"-106.346771","placename":"Canada"}},{"transport_id":"20","id":"10601","transport_name":"Road","transport_description":"from the Greenhouse Gas Protocol Initiative - GHG emission from transport or mobile sources calculator 2.0 (jun 2009)","transport_unit":"kg km","transport_co2_eq":"0.000204","from_stop_id":"14619","from_stop_lat":"23.634501","from_stop_lon":"-102.552784","to_stop_id":"14615","to_stop_name":"origin","to_stop_lat":"41.87194","placename":"Mexico","to_stop_lon":"12.56738","to_stop":{"id":"14615","name":"origin","lat":"41.87194","placename":"Italy","lon":"12.56738"},"from_stop":{"name":"origin","id":"14619","lat":"23.634501","lon":"-102.552784","placename":"Mexico"}},{"transport_id":"18","id":"10602","transport_name":"Sea","transport_description":"from the Greenhouse Gas Protocol Initiative - GHG emission from transport or mobile sources calculator 2.0 (jun 2009)","transport_unit":"kg km","transport_co2_eq":"0.000222","from_stop_id":"14620","from_stop_lat":"41.87194","from_stop_lon":"12.56738","to_stop_id":"14615","to_stop_name":"origin","to_stop_lat":"41.87194","placename":"Italy","to_stop_lon":"12.56738","to_stop":{"id":"14615","name":"origin","lat":"41.87194","placename":"Italy","lon":"12.56738"},"from_stop":{"name":"origin","id":"14620","lat":"41.87194","lon":"12.56738","placename":"Italy"}}],"outgoing":[]}}},"parts":[{"oid":"955","imid":"7077","linkid":"food\/2-1","weight":"0.25","rawemissions":"136.54","emissions":"0","shipping":"10159.14","processemissions":"0","endoflifeemissions":"0","disposaltype":null,"disposalenergy":null,"disposalimpact":null,"disposalemissions":null,"description":"","name":"Tomato","id":"7077","stops":{"origin":{"related_to":"7077","part_or_object":"p","notes":null,"placename":"Mexico","id":14616,"name":"origin","lat":"23.634501","lon":"-102.552784","hops":{"incoming":[],"outgoing":[{"transport_id":"20","id":"10598","transport_name":"Road","transport_description":"from the Greenhouse Gas Protocol Initiative - GHG emission from transport or mobile sources calculator 2.0 (jun 2009)","transport_unit":"kg km","transport_co2_eq":"0.000204","from_stop_id":"14616","from_stop_lat":"23.634501","from_stop_lon":"-102.552784","from_stop_placename":"Mexico","to_stop_id":"14615","to_stop_name":"origin","to_stop_lat":"41.87194","to_stop_lon":"12.56738","to_stop_placename":"Italy","to_stop":{"id":"14615","name":"origin","lat":"41.87194","lon":"12.56738","placename":"Italy"},"from_stop":{"name":"origin","id":"14616","lat":"23.634501","lon":"-102.552784","placename":"Mexico"}}]}}},"processes":[],"eols":[]},{"oid":"955","imid":"7078","linkid":"food\/2-1","weight":"1","rawemissions":"136.54","emissions":"0","shipping":"0","processemissions":"0","endoflifeemissions":"0","disposaltype":null,"disposalenergy":null,"disposalimpact":null,"disposalemissions":null,"description":"","name":"Pork Sausage","id":"7078","stops":{"origin":{"related_to":"7078","part_or_object":"p","notes":null,"placename":"Italy","id":14617,"name":"origin","lat":"41.87194","lon":"12.56738","hops":{"incoming":[],"outgoing":[{"transport_id":"21","id":"10599","transport_name":"Air(>1500km)","transport_description":"from the Greenhouse Gas Protocol Initiative - GHG emission from transport or mobile sources calculator 2.0 (jun 2009)","transport_unit":"kg km","transport_co2_eq":"0.001439","from_stop_id":"14617","from_stop_lat":"41.87194","from_stop_lon":"12.56738","from_stop_placename":"Italy","to_stop_id":"14615","to_stop_name":"origin","to_stop_lat":"41.87194","to_stop_lon":"12.56738","to_stop_placename":"Italy","to_stop":{"id":"14615","name":"origin","lat":"41.87194","lon":"12.56738","placename":"Italy"},"from_stop":{"name":"origin","id":"14617","lat":"41.87194","lon":"12.56738","placename":"Italy"}}]}}},"processes":[],"eols":[]},{"oid":"955","imid":"7079","linkid":"food\/2-1","weight":"0.25","rawemissions":"136.54","emissions":"0","shipping":"7713.89","processemissions":"0","endoflifeemissions":"0","disposaltype":null,"disposalenergy":null,"disposalimpact":null,"disposalemissions":null,"description":"","name":"Mozzarella Cheese","id":"7079","stops":{"origin":{"related_to":"7079","part_or_object":"p","notes":null,"placename":"Canada","id":14618,"name":"origin","lat":"56.130366","lon":"-106.346771","hops":{"incoming":[],"outgoing":[{"transport_id":"22","id":"10600","transport_name":"Air(<1500km)","transport_description":"from the Greenhouse Gas Protocol Initiative - GHG emission from transport or mobile sources calculator 2.0 (jun 2009)","transport_unit":"kg km","transport_co2_eq":"0.000665","from_stop_id":"14618","from_stop_lat":"56.130366","from_stop_lon":"-106.346771","from_stop_placename":"Canada","to_stop_id":"14615","to_stop_name":"origin","to_stop_lat":"41.87194","to_stop_lon":"12.56738","to_stop_placename":"Italy","to_stop":{"id":"14615","name":"origin","lat":"41.87194","lon":"12.56738","placename":"Italy"},"from_stop":{"name":"origin","id":"14618","lat":"56.130366","lon":"-106.346771","placename":"Canada"}}]}}},"processes":[],"eols":[]},{"oid":"955","imid":"7080","linkid":"food\/2-1","weight":"0.25","rawemissions":"136.54","emissions":"0","shipping":"10159.14","processemissions":"0","endoflifeemissions":"0","disposaltype":null,"disposalenergy":null,"disposalimpact":null,"disposalemissions":null,"description":"","name":"Onion","id":"7080","stops":{"origin":{"related_to":"7080","part_or_object":"p","notes":null,"placename":"Mexico","id":14619,"name":"origin","lat":"23.634501","lon":"-102.552784","hops":{"incoming":[],"outgoing":[{"transport_id":"20","id":"10601","transport_name":"Road","transport_description":"from the Greenhouse Gas Protocol Initiative - GHG emission from transport or mobile sources calculator 2.0 (jun 2009)","transport_unit":"kg km","transport_co2_eq":"0.000204","from_stop_id":"14619","from_stop_lat":"23.634501","from_stop_lon":"-102.552784","from_stop_placename":"Mexico","to_stop_id":"14615","to_stop_name":"origin","to_stop_lat":"41.87194","to_stop_lon":"12.56738","to_stop_placename":"Italy","to_stop":{"id":"14615","name":"origin","lat":"41.87194","lon":"12.56738","placename":"Italy"},"from_stop":{"name":"origin","id":"14619","lat":"23.634501","lon":"-102.552784","placename":"Mexico"}}]}}},"processes":[],"eols":[]},{"oid":"955","imid":"7081","linkid":"parts\/wheat-flour-at-retail","weight":"1","rawemissions":"1.13","emissions":"0","shipping":"0","processemissions":"0","endoflifeemissions":"0","disposaltype":null,"disposalenergy":null,"disposalimpact":null,"disposalemissions":null,"description":"","name":"Wheat Flour at retail","id":"7081","stops":{"origin":{"related_to":"7081","part_or_object":"p","notes":null,"placename":"Italy","id":14620,"name":"origin","lat":"41.87194","lon":"12.56738","hops":{"incoming":[],"outgoing":[{"transport_id":"18","id":"10602","transport_name":"Sea","transport_description":"from the Greenhouse Gas Protocol Initiative - GHG emission from transport or mobile sources calculator 2.0 (jun 2009)","transport_unit":"kg km","transport_co2_eq":"0.000222","from_stop_id":"14620","from_stop_lat":"41.87194","from_stop_lon":"12.56738","from_stop_placename":"Italy","to_stop_id":"14615","to_stop_name":"origin","to_stop_lat":"41.87194","to_stop_lon":"12.56738","to_stop_placename":"Italy","to_stop":{"id":"14615","name":"origin","lat":"41.87194","lon":"12.56738","placename":"Italy"},"from_stop":{"name":"origin","id":"14620","lat":"41.87194","lon":"12.56738","placename":"Italy"}}]}}},"processes":[],"eols":[]}],"user":{"name":"Bobby Jay","id":"12874"}}}